{"type":"FeatureCollection","features":[{"type":"Feature","properties":{"id":"E01016353","name":"E01016353","parent":"E06000038","type":"LSOA","pop":2448,"r":363,"ff":133,"ffd":5433.0,"ffs":0.4478,"g":64,"co":0,"mo":0,"sa":0,"ic":0},"geometry":{"type":"Polygon","coordinates":[[[-0.97788,51.45973],[-0.97667,51.45938],[-0.97843,51.45945],[-0.97792,51.45845],[-0.97839,51.45841],[-0.97816,51.45811],[-0.97915,51.45744],[-0.97796,51.45754],[-0.97779,51.45708],[-0.97787,51.4568],[-0.97852,51.45632],[-0.97949,51.4565],[-0.98074,51.4563],[-0.98095,51.45653],[-0.98332,51.45588],[-0.98367,51.45641],[-0.98409,51.45641],[-0.98499,51.45575],[-0.98512,51.45538],[-0.98354,51.45526],[-0.98355,51.45476],[-0.98291,51.45461],[-0.98328,51.4535],[-0.98371,51.45361],[-0.98399,51.45327],[-0.98418,51.45351],[-0.98428,51.45329],[-0.98446,51.4537],[-0.98557,51.45372],[-0.98566,51.45343],[-0.9865,51.45351],[-0.98594,51.45542],[-0.98549,51.45879],[-0.98205,51.4597],[-0.97937,51.45986],[-0.97788,51.45973]]]}},{"type":"Feature","properties":{"id":"E01016355","name":"E01016355","parent":"E06000038","type":"LSOA","pop":2108,"r":357,"ff":130,"ffd":6167.0,"ffs":0.4452,"g":63,"co":0,"mo":0,"sa":0,"ic":0},"geometry":{"type":"Polygon","coordinates":[[[-0.97125,51.46371],[-0.97046,51.46295],[-0.97225,51.46326],[-0.97216,51.46233],[-0.97286,51.46175],[-0.97468,51.46271],[-0.97519,51.46245],[-0.97495,51.46202],[-0.9758,51.46199],[-0.97557,51.461],[-0.9768,51.46131],[-0.97705,51.46098],[-0.97689,51.46071],[-0.97582,51.46042],[-0.97664,51.45938],[-0.97788,51.45973],[-0.98858,51.46106],[-0.98857,51.46266],[-0.98916,51.46438],[-0.98881,51.46835],[-0.98295,51.46769],[-0.97831,51.46647],[-0.97476,51.46457],[-0.97248,51.4642],[-0.97125,51.46371]]]}},{"type":"Feature","properties":{"id":"E01016356","name":"E01016356","parent":"E06000038","type":"LSOA","pop":1662,"r":337,"ff":121,"ffd":7280.4,"ffs":0.4368,"g":58,"co":0,"mo":0,"sa":0,"ic":0},"geometry":{"type":"Polygon","coordinates":[[[-1.00153,51.45651],[-1.00011,51.45615],[-0.99935,51.45638],[-0.99959,51.45582],[-0.99896,51.45563],[-0.99933,51.45508],[-0.99712,51.45492],[-0.99733,51.45287],[-0.99883,51.45269],[-0.99921,51.4524],[-0.99924,51.45315],[-0.99982,51.45321],[-1.00003,51.45293],[-1.00118,51.45312],[-1.00079,51.45254],[-1.00126,51.45211],[-1.00264,51.45237],[-1.00505,51.45233],[-1.00552,51.45356],[-1.00334,51.45416],[-1.00187,51.45688],[-1.00153,51.45651]]]}},{"type":"Feature","properties":{"id":"E01016357","name":"E01016357","parent":"E06000038","type":"LSOA","pop":1859,"r":334,"ff":121,"ffd":6508.9,"ffs":0.4416,"g":58,"co":0,"mo":0,"sa":0,"ic":0},"geometry":{"type":"Polygon","coordinates":[[[-0.99303,51.45588],[-0.99222,51.45544],[-0.99194,51.45572],[-0.99058,51.45487],[-0.98923,51.45477],[-0.98954,51.45406],[-0.99027,51.4538],[-0.98977,51.45339],[-0.98994,51.45267],[-0.98934,51.45241],[-0.994,51.45193],[-0.99812,51.45187],[-1.00126,51.45211],[-1.00079,51.45254],[-1.00118,51.45312],[-1.00003,51.45293],[-0.99982,51.45321],[-0.99924,51.45315],[-0.99921,51.4524],[-0.99883,51.45269],[-0.99733,51.45287],[-0.99712,51.45492],[-0.99634,51.4547],[-0.9937,51.45451],[-0.99342,51.45595],[-0.99303,51.45588]]]}},{"type":"Feature","properties":{"id":"E01016358","name":"E01016358","parent":"E06000038","type":"LSOA","pop":2098,"r":356,"ff":129,"ffd":6148.7,"ffs":0.4433,"g":63,"co":0,"mo":0,"sa":0,"ic":0},"geometry":{"type":"Polygon","coordinates":[[[-0.98858,51.46106],[-0.97788,51.45973],[-0.97937,51.45986],[-0.98205,51.4597],[-0.98549,51.45879],[-0.98594,51.45542],[-0.98678,51.4526],[-0.98934,51.45241],[-0.98994,51.45267],[-0.98977,51.45339],[-0.99027,51.4538],[-0.98954,51.45406],[-0.98923,51.45477],[-0.99058,51.45487],[-0.9897,51.45616],[-0.98943,51.45691],[-0.98938,51.45755],[-0.98993,51.45927],[-0.98853,51.46064],[-0.98858,51.46106]]]}},{"type":"Feature","properties":{"id":"E01016359","name":"E01016359","parent":"E06000038","type":"LSOA","pop":3274,"r":314,"ff":116,"ffd":3543.1,"ffs":0.4462,"g":52,"co":0,"mo":0,"sa":0,"ic":0},"geometry":{"type":"Polygon","coordinates":[[[-0.98993,51.45927],[-0.99133,51.45883],[-0.99195,51.4583],[-0.99258,51.45821],[-0.9939,51.45841],[-0.99404,51.45816],[-0.99491,51.45835],[-0.99466,51.45744],[-0.99488,51.45719],[-0.9959,51.4573],[-0.99664,51.45828],[-0.99785,51.45899],[-0.99884,51.45849],[-0.99971,51.45762],[-1.00735,51.45968],[-1.00707,51.46015],[-1.00757,51.46043],[-1.00642,51.4618],[-1.008,51.46223],[-1.00677,51.46364],[-1.00731,51.46373],[-1.00779,51.46524],[-1.0045,51.4659],[-1.00648,51.46858],[-1.00399,51.46974],[-0.99901,51.47029],[-0.99649,51.46992],[-0.99208,51.46874],[-0.98881,51.46835],[-0.98916,51.46438],[-0.98857,51.46266],[-0.98853,51.46064],[-0.98993,51.45927]]]}},{"type":"Feature","properties":{"id":"E01016360","name":"E01016360","parent":"E06000038","type":"LSOA","pop":2783,"r":338,"ff":122,"ffd":4383.8,"ffs":0.442,"g":60,"co":0,"mo":0,"sa":0,"ic":0},"geometry":{"type":"Polygon","coordinates":[[[-0.98993,51.45927],[-0.98938,51.45755],[-0.98943,51.45691],[-0.9897,51.45616],[-0.99058,51.45487],[-0.99194,51.45572],[-0.99222,51.45544],[-0.99303,51.45588],[-0.99806,51.45695],[-0.99847,51.45707],[-0.99873,51.45741],[-0.99971,51.45762],[-0.99884,51.45849],[-0.99785,51.45899],[-0.99664,51.45828],[-0.9959,51.4573],[-0.99488,51.45719],[-0.99466,51.45744],[-0.99491,51.45835],[-0.99404,51.45816],[-0.9939,51.45841],[-0.99258,51.45821],[-0.99195,51.4583],[-0.99133,51.45883],[-0.98993,51.45927]]]}},{"type":"Feature","properties":{"id":"E01016361","name":"E01016361","parent":"E06000038","type":"LSOA","pop":2210,"r":330,"ff":120,"ffd":5429.9,"ffs":0.4412,"g":56,"co":0,"mo":0,"sa":0,"ic":0},"geometry":{"type":"Polygon","coordinates":[[[-0.99613,51.45652],[-0.99342,51.45595],[-0.9937,51.45451],[-0.99933,51.45508],[-0.99896,51.45563],[-0.99959,51.45582],[-0.99935,51.45638],[-1.00011,51.45615],[-1.00153,51.45651],[-1.00187,51.45688],[-1.00126,51.45801],[-0.99873,51.45741],[-0.99847,51.45707],[-0.99806,51.45695],[-0.99613,51.45652]]]}},{"type":"Feature","properties":{"id":"E01016362","name":"E01016362","parent":"E06000038","type":"LSOA","pop":1859,"r":343,"ff":130,"ffd":6993.0,"ffs":0.4545,"g":55,"co":0,"mo":2,"sa":0,"ic":0},"geometry":{"type":"Polygon","coordinates":[[[-0.97004,51.46955],[-0.97017,51.46936],[-0.96935,51.46957],[-0.96944,51.46774],[-0.9688,51.46704],[-0.96742,51.46751],[-0.96664,51.46727],[-0.96654,51.46463],[-0.96618,51.46464],[-0.96766,51.46373],[-0.9693,51.46457],[-0.96935,51.46614],[-0.96999,51.46648],[-0.97057,51.46637],[-0.97041,51.46555],[-0.97093,51.46526],[-0.97218,51.46534],[-0.97248,51.4642],[-0.97476,51.46457],[-0.97831,51.46647],[-0.9768,51.46723],[-0.9781,51.46766],[-0.97792,51.46798],[-0.97747,51.46774],[-0.97668,51.46806],[-0.97513,51.46706],[-0.97392,51.46683],[-0.97413,51.46762],[-0.97359,51.46768],[-0.97387,51.4684],[-0.97354,51.46912],[-0.97256,51.46968],[-0.97151,51.46951],[-0.97071,51.46983],[-0.97004,51.46955]]]}},{"type":"Feature","properties":{"id":"E01016363","name":"E01016363","parent":"E06000038","type":"LSOA","pop":1913,"r":323,"ff":119,"ffd":6220.6,"ffs":0.444,"g":53,"co":0,"mo":0,"sa":0,"ic":0},"geometry":{"type":"Polygon","coordinates":[[[-0.94718,51.46665],[-0.94925,51.46614],[-0.94888,51.46551],[-0.94944,51.46493],[-0.95088,51.46554],[-0.95215,51.46568],[-0.95515,51.46534],[-0.95481,51.46456],[-0.95436,51.46453],[-0.95439,51.46263],[-0.95455,51.4622],[-0.95516,51.46219],[-0.95545,51.46126],[-0.95795,51.46275],[-0.95817,51.46337],[-0.95783,51.46379],[-0.95962,51.46434],[-0.9596,51.46468],[-0.95859,51.46458],[-0.95887,51.46527],[-0.95826,51.46533],[-0.9588,51.46563],[-0.95873,51.46617],[-0.95766,51.46612],[-0.95752,51.46641],[-0.95647,51.46664],[-0.95587,51.46627],[-0.95466,51.4663],[-0.95447,51.46661],[-0.95367,51.46673],[-0.95343,51.46816],[-0.95395,51.4691],[-0.94676,51.47173],[-0.94653,51.47152],[-0.94922,51.47013],[-0.94718,51.46665]]]}},{"type":"Feature","properties":{"id":"E01016364","name":"E01016364","parent":"E06000038","type":"LSOA","pop":1466,"r":348,"ff":128,"ffd":8731.2,"ffs":0.4476,"g":60,"co":2,"mo":0,"sa":0,"ic":0},"geometry":{"type":"Polygon","coordinates":[[[-0.97387,51.4684],[-0.97359,51.46768],[-0.97413,51.46762],[-0.97392,51.46683],[-0.97513,51.46706],[-0.97668,51.46806],[-0.97747,51.46774],[-0.97792,51.46798],[-0.9781,51.46766],[-0.9768,51.46723],[-0.97831,51.46647],[-0.98295,51.46769],[-0.98274,51.4681],[-0.98076,51.46903],[-0.98033,51.47052],[-0.97921,51.47129],[-0.97809,51.47128],[-0.97794,51.47165],[-0.97665,51.47176],[-0.9765,51.47272],[-0.97564,51.4728],[-0.97535,51.47321],[-0.97365,51.47314],[-0.97376,51.47211],[-0.97294,51.47114],[-0.97256,51.46968],[-0.97354,51.46912],[-0.97387,51.4684]]]}},{"type":"Feature","properties":{"id":"E01016365","name":"E01016365","parent":"E06000038","type":"LSOA","pop":1639,"r":349,"ff":133,"ffd":8114.7,"ffs":0.457,"g":56,"co":0,"mo":2,"sa":0,"ic":0},"geometry":{"type":"Polygon","coordinates":[[[-0.95887,51.46527],[-0.95859,51.46458],[-0.9596,51.46468],[-0.95962,51.46434],[-0.95783,51.46379],[-0.95817,51.46337],[-0.95795,51.46275],[-0.95975,51.4628],[-0.96078,51.46247],[-0.96251,51.46107],[-0.96586,51.46115],[-0.96784,51.46101],[-0.96969,51.46173],[-0.97046,51.46295],[-0.97125,51.46371],[-0.97248,51.4642],[-0.97218,51.46534],[-0.97093,51.46526],[-0.97041,51.46555],[-0.97057,51.46637],[-0.96999,51.46648],[-0.96935,51.46614],[-0.9693,51.46457],[-0.96766,51.46373],[-0.96618,51.46464],[-0.96654,51.46463],[-0.96664,51.46727],[-0.96581,51.4678],[-0.96499,51.46774],[-0.96484,51.46634],[-0.96212,51.46582],[-0.96223,51.46545],[-0.95887,51.46527]]]}},{"type":"Feature","properties":{"id":"E01016366","name":"E01016366","parent":"E06000038","type":"LSOA","pop":1535,"r":227,"ff":73,"ffd":4755.7,"ffs":0.4033,"g":44,"co":0,"mo":0,"sa":0,"ic":0},"geometry":{"type":"Polygon","coordinates":[[[-0.95882,51.46815],[-0.95908,51.46763],[-0.95999,51.46761],[-0.95989,51.46656],[-0.96156,51.46648],[-0.96168,51.46684],[-0.96254,51.46681],[-0.96258,51.4659],[-0.96484,51.46634],[-0.96499,51.46774],[-0.96581,51.4678],[-0.96664,51.46727],[-0.96742,51.46751],[-0.9688,51.46704],[-0.96944,51.46774],[-0.96935,51.46957],[-0.9661,51.47017],[-0.95978,51.47067],[-0.96009,51.46992],[-0.95935,51.46963],[-0.95994,51.46954],[-0.95986,51.46886],[-0.95923,51.46872],[-0.95882,51.46815]]]}},{"type":"Feature","properties":{"id":"E01016367","name":"E01016367","parent":"E06000038","type":"LSOA","pop":1599,"r":227,"ff":73,"ffd":4565.4,"ffs":0.4033,"g":44,"co":0,"mo":0,"sa":0,"ic":0},"geometry":{"type":"Polygon","coordinates":[[[-0.95345,51.47069],[-0.95341,51.47052],[-0.95401,51.47008],[-0.95325,51.46927],[-0.95395,51.4691],[-0.95343,51.46816],[-0.95367,51.46673],[-0.95447,51.46661],[-0.95466,51.4663],[-0.95587,51.46627],[-0.95647,51.46664],[-0.95752,51.46641],[-0.95766,51.46612],[-0.95873,51.46617],[-0.9588,51.46563],[-0.95826,51.46533],[-0.96223,51.46545],[-0.96212,51.46582],[-0.96258,51.4659],[-0.96254,51.46681],[-0.96168,51.46684],[-0.96156,51.46648],[-0.95989,51.46656],[-0.95999,51.46761],[-0.95908,51.46763],[-0.95882,51.46815],[-0.95923,51.46872],[-0.95986,51.46886],[-0.95994,51.46954],[-0.95935,51.46963],[-0.96009,51.46992],[-0.95978,51.47067],[-0.95511,51.47055],[-0.95345,51.47069]]]}},{"type":"Feature","properties":{"id":"E01016368","name":"E01016368","parent":"E06000038","type":"LSOA","pop":1649,"r":363,"ff":126,"ffd":7641.0,"ffs":0.4406,"g":75,"co":0,"mo":0,"sa":0,"ic":0},"geometry":{"type":"Polygon","coordinates":[[[-0.95943,51.43108],[-0.95874,51.43067],[-0.95774,51.43118],[-0.95798,51.43173],[-0.95731,51.43131],[-0.95559,51.43123],[-0.95553,51.43081],[-0.95215,51.43086],[-0.95255,51.43014],[-0.95356,51.42987],[-0.95403,51.42922],[-0.95468,51.42933],[-0.95423,51.42805],[-0.95801,51.42772],[-0.95795,51.42652],[-0.95637,51.42572],[-0.9562,51.42452],[-0.95724,51.42421],[-0.95796,51.4235],[-0.95562,51.42295],[-0.95544,51.4225],[-0.9567,51.42241],[-0.95686,51.42283],[-0.95792,51.42266],[-0.95839,51.42289],[-0.95892,51.42265],[-0.95886,51.42193],[-0.95936,51.4219],[-0.95993,51.42511],[-0.96177,51.42995],[-0.9626,51.43313],[-0.95933,51.43281],[-0.95889,51.43215],[-0.95925,51.43194],[-0.95878,51.43162],[-0.95943,51.43108]]]}},{"type":"Feature","properties":{"id":"E01016369","name":"E01016369","parent":"E06000038","type":"LSOA","pop":1848,"r":358,"ff":116,"ffd":6277.1,"ffs":0.428,"g":85,"co":0,"mo":0,"sa":0,"ic":0},"geometry":{"type":"Polygon","coordinates":[[[-0.94714,51.4258],[-0.94887,51.42415],[-0.95246,51.42245],[-0.9568,51.42001],[-0.95889,51.4193],[-0.95936,51.4219],[-0.95886,51.42193],[-0.95892,51.42265],[-0.95839,51.42289],[-0.95792,51.42266],[-0.95686,51.42283],[-0.9567,51.42241],[-0.95544,51.4225],[-0.95562,51.42295],[-0.95796,51.4235],[-0.95724,51.42421],[-0.9562,51.42452],[-0.95637,51.42572],[-0.95353,51.42583],[-0.9536,51.4251],[-0.9476,51.42656],[-0.94714,51.4258]]]}},{"type":"Feature","properties":{"id":"E01016370","name":"E01016370","parent":"E06000038","type":"LSOA","pop":3872,"r":300,"ff":93,"ffd":2401.9,"ffs":0.4408,"g":88,"co":4,"mo":0,"sa":0,"ic":0},"geometry":{"type":"Polygon","coordinates":[[[-0.94651,51.44583],[-0.94611,51.44528],[-0.9448,51.44556],[-0.94463,51.44291],[-0.9463,51.44233],[-0.94662,51.44104],[-0.94789,51.44109],[-0.94813,51.43929],[-0.94733,51.43923],[-0.94874,51.43718],[-0.94951,51.43731],[-0.95011,51.43851],[-0.95068,51.43876],[-0.95157,51.43834],[-0.95138,51.43786],[-0.95278,51.43758],[-0.95206,51.43502],[-0.9524,51.43502],[-0.95267,51.43462],[-0.95223,51.43439],[-0.95273,51.43423],[-0.95277,51.43323],[-0.95481,51.43333],[-0.95544,51.43403],[-0.95526,51.43429],[-0.95396,51.43406],[-0.95379,51.43425],[-0.95482,51.43607],[-0.95582,51.4363],[-0.95639,51.43602],[-0.95682,51.43626],[-0.95778,51.43753],[-0.95631,51.43774],[-0.95676,51.43852],[-0.95748,51.43939],[-0.95943,51.43969],[-0.95928,51.44047],[-0.95834,51.44073],[-0.95807,51.44121],[-0.95684,51.44114],[-0.95627,51.44311],[-0.95484,51.44272],[-0.954,51.44292],[-0.95165,51.4441],[-0.95109,51.44561],[-0.94816,51.44554],[-0.94651,51.44583]]]}},{"type":"Feature","properties":{"id":"E01016371","name":"E01016371","parent":"E06000038","type":"LSOA","pop":1740,"r":359,"ff":127,"ffd":7298.9,"ffs":0.4456,"g":72,"co":0,"mo":0,"sa":0,"ic":0},"geometry":{"type":"Polygon","coordinates":[[[-0.94641,51.43916],[-0.9464,51.43814],[-0.94371,51.43844],[-0.94352,51.43611],[-0.94393,51.43158],[-0.94354,51.42934],[-0.945,51.42812],[-0.94543,51.42889],[-0.94619,51.42872],[-0.94694,51.42911],[-0.9474,51.43063],[-0.94782,51.43057],[-0.94834,51.43158],[-0.95024,51.43335],[-0.95152,51.4324],[-0.95141,51.43188],[-0.95019,51.43188],[-0.95006,51.43103],[-0.95054,51.43069],[-0.95106,51.43077],[-0.95166,51.43157],[-0.95325,51.43141],[-0.9526,51.43088],[-0.95553,51.43081],[-0.95559,51.43123],[-0.95731,51.43131],[-0.95798,51.43173],[-0.95812,51.43274],[-0.95702,51.43269],[-0.95647,51.43234],[-0.95568,51.43253],[-0.95565,51.43282],[-0.95601,51.43348],[-0.95544,51.43403],[-0.95481,51.43333],[-0.95277,51.43323],[-0.95273,51.43423],[-0.95223,51.43439],[-0.95267,51.43462],[-0.9524,51.43502],[-0.95206,51.43502],[-0.95278,51.43758],[-0.95138,51.43786],[-0.95157,51.43834],[-0.95068,51.43876],[-0.95011,51.43851],[-0.94951,51.43731],[-0.94874,51.43718],[-0.94733,51.43923],[-0.94641,51.43916]]]}},{"type":"Feature","properties":{"id":"E01016372","name":"E01016372","parent":"E06000038","type":"LSOA","pop":1460,"r":300,"ff":93,"ffd":6369.9,"ffs":0.4408,"g":88,"co":4,"mo":0,"sa":0,"ic":0},"geometry":{"type":"Polygon","coordinates":[[[-0.96039,51.43697],[-0.96001,51.43617],[-0.95682,51.43626],[-0.95639,51.43602],[-0.95582,51.4363],[-0.95482,51.43607],[-0.95379,51.43425],[-0.95396,51.43406],[-0.95526,51.43429],[-0.95601,51.43348],[-0.95565,51.43282],[-0.95568,51.43253],[-0.95647,51.43234],[-0.95702,51.43269],[-0.95812,51.43274],[-0.95774,51.43118],[-0.95874,51.43067],[-0.95943,51.43108],[-0.95878,51.43162],[-0.95925,51.43194],[-0.95889,51.43215],[-0.95933,51.43281],[-0.9626,51.43313],[-0.9628,51.43382],[-0.96266,51.43697],[-0.96039,51.43697]]]}},{"type":"Feature","properties":{"id":"E01016373","name":"E01016373","parent":"E06000038","type":"LSOA","pop":1584,"r":347,"ff":122,"ffd":7702.0,"ffs":0.4436,"g":70,"co":0,"mo":0,"sa":0,"ic":0},"geometry":{"type":"Polygon","coordinates":[[[-0.95024,51.43335],[-0.94834,51.43158],[-0.94782,51.43057],[-0.9474,51.43063],[-0.94694,51.42911],[-0.94619,51.42872],[-0.94543,51.42889],[-0.945,51.42812],[-0.94714,51.4258],[-0.9476,51.42656],[-0.9536,51.4251],[-0.95353,51.42583],[-0.95637,51.42572],[-0.95795,51.42652],[-0.95801,51.42772],[-0.95423,51.42805],[-0.95468,51.42933],[-0.95403,51.42922],[-0.95356,51.42987],[-0.95255,51.43014],[-0.95215,51.43086],[-0.9526,51.43088],[-0.95325,51.43141],[-0.95166,51.43157],[-0.95106,51.43077],[-0.95054,51.43069],[-0.95006,51.43103],[-0.95019,51.43188],[-0.95141,51.43188],[-0.95152,51.4324],[-0.95024,51.43335]]]}},{"type":"Feature","properties":{"id":"E01016374","name":"E01016374","parent":"E06000038","type":"LSOA","pop":1846,"r":371,"ff":136,"ffd":7367.3,"ffs":0.4503,"g":67,"co":0,"mo":0,"sa":0,"ic":0},"geometry":{"type":"Polygon","coordinates":[[[-0.97308,51.45025],[-0.97291,51.44963],[-0.97218,51.45001],[-0.97122,51.44958],[-0.97078,51.45008],[-0.96966,51.44935],[-0.96988,51.44767],[-0.96927,51.44745],[-0.97118,51.44698],[-0.97107,51.44621],[-0.97193,51.4462],[-0.97174,51.44428],[-0.97226,51.44415],[-0.97242,51.44439],[-0.97356,51.44437],[-0.97301,51.44568],[-0.97367,51.44735],[-0.97349,51.44827],[-0.97422,51.44891],[-0.97446,51.45044],[-0.973,51.45099],[-0.97248,51.45069],[-0.97256,51.45035],[-0.97308,51.45025]]]}},{"type":"Feature","properties":{"id":"E01016375","name":"E01016375","parent":"E06000038","type":"LSOA","pop":1407,"r":364,"ff":134,"ffd":9523.8,"ffs":0.4542,"g":67,"co":0,"mo":0,"sa":0,"ic":0},"geometry":{"type":"Polygon","coordinates":[[[-0.96664,51.44672],[-0.96612,51.44617],[-0.96588,51.4463],[-0.96536,51.44514],[-0.96581,51.44499],[-0.9655,51.44461],[-0.96578,51.44401],[-0.96751,51.44389],[-0.96788,51.44359],[-0.96907,51.44356],[-0.9697,51.44468],[-0.96882,51.44488],[-0.96898,51.44516],[-0.96984,51.44487],[-0.97028,51.44523],[-0.97169,51.44539],[-0.97193,51.4462],[-0.96664,51.44672]]]}},{"type":"Feature","properties":{"id":"E01016376","name":"E01016376","parent":"E06000038","type":"LSOA","pop":1943,"r":365,"ff":133,"ffd":6845.1,"ffs":0.4524,"g":69,"co":0,"mo":0,"sa":0,"ic":0},"geometry":{"type":"Polygon","coordinates":[[[-0.96347,51.44669],[-0.9627,51.44429],[-0.96167,51.44412],[-0.96195,51.44312],[-0.96244,51.44313],[-0.96257,51.43946],[-0.96345,51.43948],[-0.96387,51.4389],[-0.96511,51.43861],[-0.96547,51.43922],[-0.96678,51.43955],[-0.96642,51.44002],[-0.9653,51.44044],[-0.96641,51.44045],[-0.96679,51.44069],[-0.96593,51.44141],[-0.96565,51.4424],[-0.96791,51.44236],[-0.9679,51.44298],[-0.96987,51.44252],[-0.9703,51.44287],[-0.97168,51.44228],[-0.97226,51.44415],[-0.97174,51.44428],[-0.97189,51.44592],[-0.97169,51.44539],[-0.97028,51.44523],[-0.96984,51.44487],[-0.96898,51.44516],[-0.96882,51.44488],[-0.9697,51.44468],[-0.96907,51.44356],[-0.96788,51.44359],[-0.96751,51.44389],[-0.96578,51.44401],[-0.9655,51.44461],[-0.96581,51.44499],[-0.96536,51.44514],[-0.96588,51.4463],[-0.96531,51.44627],[-0.96434,51.44456],[-0.96363,51.44473],[-0.96414,51.44655],[-0.96347,51.44669]]]}},{"type":"Feature","properties":{"id":"E01016377","name":"E01016377","parent":"E06000038","type":"LSOA","pop":1905,"r":364,"ff":132,"ffd":6929.1,"ffs":0.4505,"g":69,"co":0,"mo":0,"sa":0,"ic":0},"geometry":{"type":"Polygon","coordinates":[[[-0.97226,51.44415],[-0.97168,51.44228],[-0.9703,51.44287],[-0.96987,51.44252],[-0.9679,51.44298],[-0.96791,51.44236],[-0.96565,51.4424],[-0.96593,51.44141],[-0.96679,51.44069],[-0.96641,51.44045],[-0.9653,51.44044],[-0.96642,51.44002],[-0.96678,51.43955],[-0.96547,51.43922],[-0.96511,51.43861],[-0.96387,51.4389],[-0.96345,51.43948],[-0.96257,51.43946],[-0.9628,51.43382],[-0.96796,51.43697],[-0.96829,51.43551],[-0.97075,51.43565],[-0.97589,51.43642],[-0.97616,51.43852],[-0.97585,51.43949],[-0.97464,51.44118],[-0.97468,51.44382],[-0.97356,51.44437],[-0.97242,51.44439],[-0.97226,51.44415]]]}},{"type":"Feature","properties":{"id":"E01016379","name":"E01016379","parent":"E06000038","type":"LSOA","pop":2173,"r":371,"ff":134,"ffd":6166.6,"ffs":0.4452,"g":68,"co":0,"mo":0,"sa":0,"ic":0},"geometry":{"type":"Polygon","coordinates":[[[-0.96992,51.45005],[-0.96897,51.44902],[-0.96854,51.44914],[-0.96812,51.44873],[-0.9669,51.44866],[-0.9664,51.44898],[-0.96557,51.44899],[-0.9657,51.448],[-0.96441,51.44757],[-0.9644,51.44701],[-0.96363,51.44473],[-0.96434,51.44456],[-0.96531,51.44627],[-0.96612,51.44617],[-0.96664,51.44672],[-0.97107,51.44621],[-0.97118,51.44698],[-0.96927,51.44745],[-0.96988,51.44767],[-0.96966,51.44935],[-0.9703,51.44971],[-0.96992,51.45005]]]}},{"type":"Feature","properties":{"id":"E01016380","name":"E01016380","parent":"E06000038","type":"LSOA","pop":1710,"r":225,"ff":73,"ffd":4269.0,"ffs":0.4056,"g":43,"co":0,"mo":2,"sa":0,"ic":0},"geometry":{"type":"Polygon","coordinates":[[[-1.04155,51.46774],[-1.0424,51.46698],[-1.04237,51.46656],[-1.04176,51.46679],[-1.041,51.46648],[-1.04071,51.46568],[-1.04042,51.46593],[-1.03924,51.4655],[-1.03748,51.46593],[-1.0352,51.46502],[-1.03503,51.46538],[-1.0359,51.46665],[-1.03486,51.46743],[-1.03138,51.46695],[-1.03201,51.46544],[-1.03293,51.46585],[-1.03363,51.46553],[-1.03378,51.46516],[-1.03221,51.46501],[-1.03267,51.46369],[-1.03247,51.46245],[-1.03257,51.46194],[-1.03361,51.46085],[-1.03289,51.46053],[-1.03357,51.46032],[-1.03216,51.46009],[-1.03215,51.4597],[-1.03378,51.45991],[-1.03622,51.46104],[-1.03941,51.46324],[-1.04094,51.4637],[-1.04335,51.46342],[-1.04587,51.46348],[-1.04784,51.46405],[-1.04789,51.46463],[-1.04631,51.46495],[-1.04464,51.46503],[-1.0442,51.46555],[-1.04421,51.46703],[-1.04335,51.46748],[-1.04272,51.4673],[-1.04247,51.46815],[-1.04155,51.46774]]]}},{"type":"Feature","properties":{"id":"E01016381","name":"E01016381","parent":"E06000038","type":"LSOA","pop":1578,"r":263,"ff":93,"ffd":5893.5,"ffs":0.4266,"g":43,"co":0,"mo":2,"sa":0,"ic":0},"geometry":{"type":"Polygon","coordinates":[[[-1.02911,51.46611],[-1.02491,51.46352],[-1.02317,51.46434],[-1.02419,51.46554],[-1.02356,51.46565],[-1.02344,51.46527],[-1.02166,51.4647],[-1.02071,51.46466],[-1.0199,51.46509],[-1.01941,51.46474],[-1.01974,51.46429],[-1.01931,51.46388],[-1.02056,51.46329],[-1.01996,51.46267],[-1.02034,51.46249],[-1.01991,51.4621],[-1.01792,51.46218],[-1.01809,51.46162],[-1.01788,51.46148],[-1.01923,51.46027],[-1.0208,51.45978],[-1.0248,51.45939],[-1.02358,51.46102],[-1.02476,51.46192],[-1.02845,51.46264],[-1.02776,51.46294],[-1.02824,51.46319],[-1.02788,51.46348],[-1.03005,51.46462],[-1.0292,51.46487],[-1.0295,51.46557],[-1.02911,51.46611]]]}},{"type":"Feature","properties":{"id":"E01016382","name":"E01016382","parent":"E06000038","type":"LSOA","pop":2003,"r":276,"ff":97,"ffd":4842.7,"ffs":0.4273,"g":47,"co":0,"mo":2,"sa":0,"ic":0},"geometry":{"type":"Polygon","coordinates":[[[-1.00648,51.46858],[-1.0045,51.4659],[-1.00779,51.46524],[-1.00731,51.46373],[-1.00677,51.46364],[-1.008,51.46223],[-1.00642,51.4618],[-1.00757,51.46043],[-1.00707,51.46015],[-1.00735,51.45968],[-1.00913,51.46025],[-1.01409,51.46259],[-1.01788,51.46148],[-1.01809,51.46162],[-1.01792,51.46218],[-1.01991,51.4621],[-1.02034,51.46249],[-1.01996,51.46267],[-1.02056,51.46329],[-1.01931,51.46388],[-1.01974,51.46429],[-1.01941,51.46474],[-1.0199,51.46509],[-1.02071,51.46466],[-1.02166,51.4647],[-1.02344,51.46527],[-1.02356,51.46565],[-1.02419,51.46554],[-1.02405,51.46599],[-1.02317,51.46617],[-1.02317,51.46592],[-1.02263,51.46628],[-1.02289,51.46639],[-1.0232,51.46741],[-1.02216,51.46821],[-1.01888,51.46681],[-1.01697,51.46644],[-1.01356,51.46629],[-1.01121,51.46716],[-1.0075,51.46783],[-1.0073,51.46821],[-1.00648,51.46858]]]}},{"type":"Feature","properties":{"id":"E01016383","name":"E01016383","parent":"E06000038","type":"LSOA","pop":1550,"r":255,"ff":90,"ffd":5806.5,"ffs":0.4286,"g":43,"co":0,"mo":2,"sa":0,"ic":0},"geometry":{"type":"Polygon","coordinates":[[[-1.02715,51.459],[-1.02848,51.45896],[-1.03215,51.4597],[-1.03216,51.46009],[-1.03357,51.46032],[-1.03289,51.46053],[-1.03361,51.46085],[-1.03257,51.46194],[-1.03247,51.46245],[-1.03267,51.46369],[-1.03221,51.46501],[-1.03075,51.4647],[-1.0296,51.4637],[-1.02776,51.46294],[-1.02845,51.46264],[-1.02476,51.46192],[-1.02358,51.46102],[-1.0248,51.45939],[-1.02715,51.459]]]}},{"type":"Feature","properties":{"id":"E01016384","name":"E01016384","parent":"E06000038","type":"LSOA","pop":1792,"r":227,"ff":75,"ffd":4185.3,"ffs":0.4098,"g":42,"co":0,"mo":2,"sa":0,"ic":0},"geometry":{"type":"Polygon","coordinates":[[[-1.02891,51.47181],[-1.02374,51.46914],[-1.02448,51.46874],[-1.02784,51.46991],[-1.02808,51.4692],[-1.0288,51.46913],[-1.02934,51.46871],[-1.03057,51.46722],[-1.03138,51.46695],[-1.03486,51.46743],[-1.0359,51.46665],[-1.03503,51.46538],[-1.0352,51.46502],[-1.03748,51.46593],[-1.03924,51.4655],[-1.04042,51.46593],[-1.04071,51.46568],[-1.041,51.46648],[-1.04176,51.46679],[-1.04237,51.46656],[-1.0424,51.46698],[-1.04155,51.46774],[-1.04247,51.46815],[-1.04272,51.4673],[-1.04335,51.46748],[-1.04328,51.46845],[-1.04246,51.46905],[-1.04271,51.46943],[-1.04033,51.47076],[-1.03669,51.47339],[-1.03592,51.47442],[-1.03679,51.47506],[-1.03656,51.47523],[-1.03257,51.47321],[-1.02891,51.47181]]]}},{"type":"Feature","properties":{"id":"E01016385","name":"E01016385","parent":"E06000038","type":"LSOA","pop":1778,"r":238,"ff":78,"ffd":4387.0,"ffs":0.4021,"g":42,"co":0,"mo":2,"sa":0,"ic":0},"geometry":{"type":"Polygon","coordinates":[[[-1.02784,51.46991],[-1.02448,51.46874],[-1.02374,51.46914],[-1.02216,51.46821],[-1.0232,51.46741],[-1.02289,51.46639],[-1.02263,51.46628],[-1.02317,51.46592],[-1.02317,51.46617],[-1.02405,51.46599],[-1.02419,51.46554],[-1.02317,51.46434],[-1.02491,51.46352],[-1.02911,51.46611],[-1.0295,51.46557],[-1.0292,51.46487],[-1.03005,51.46462],[-1.02788,51.46348],[-1.02824,51.46319],[-1.0296,51.4637],[-1.03075,51.4647],[-1.03378,51.46516],[-1.03363,51.46553],[-1.03293,51.46585],[-1.03201,51.46544],[-1.03138,51.46695],[-1.03057,51.46722],[-1.0288,51.46913],[-1.02808,51.4692],[-1.02784,51.46991]]]}},{"type":"Feature","properties":{"id":"E01016386","name":"E01016386","parent":"E06000038","type":"LSOA","pop":1483,"r":311,"ff":119,"ffd":8024.3,"ffs":0.4577,"g":49,"co":2,"mo":0,"sa":0,"ic":0},"geometry":{"type":"Polygon","coordinates":[[[-0.98905,51.48049],[-0.98664,51.47788],[-0.98976,51.47679],[-0.98936,51.47554],[-0.98876,51.47452],[-0.9887,51.47334],[-0.98803,51.47242],[-0.98867,51.47206],[-0.9876,51.47128],[-0.98875,51.47064],[-0.98913,51.46838],[-0.99208,51.46874],[-0.99649,51.46992],[-0.99901,51.47029],[-1.00399,51.46974],[-1.0073,51.46821],[-1.00786,51.46958],[-1.00794,51.47157],[-1.00681,51.47139],[-1.0071,51.47198],[-1.00674,51.47231],[-1.00596,51.47259],[-1.00484,51.47243],[-1.00481,51.47272],[-1.00693,51.47342],[-1.00381,51.47331],[-1.00326,51.47443],[-1.00149,51.47442],[-0.9999,51.47515],[-0.99819,51.47757],[-0.99719,51.47778],[-0.99706,51.47856],[-0.99619,51.47908],[-0.99417,51.47814],[-0.99369,51.47844],[-0.99284,51.47769],[-0.992,51.4776],[-0.99086,51.47845],[-0.99234,51.479],[-0.99126,51.47944],[-0.98897,51.47917],[-0.98989,51.47985],[-0.98905,51.48049]]]}},{"type":"Feature","properties":{"id":"E01016387","name":"E01016387","parent":"E06000038","type":"LSOA","pop":1532,"r":300,"ff":113,"ffd":7376.0,"ffs":0.452,"g":48,"co":2,"mo":0,"sa":0,"ic":0},"geometry":{"type":"Polygon","coordinates":[[[-0.99132,51.48522],[-0.98912,51.4841],[-0.9896,51.48379],[-0.99108,51.48342],[-0.98905,51.48049],[-0.98989,51.47985],[-0.98897,51.47917],[-0.99126,51.47944],[-0.99234,51.479],[-0.99086,51.47845],[-0.992,51.4776],[-0.99284,51.47769],[-0.99369,51.47844],[-0.99417,51.47814],[-0.99619,51.47908],[-0.99706,51.47856],[-0.99719,51.47778],[-0.99819,51.47757],[-0.99871,51.4803],[-0.99968,51.48032],[-1.00043,51.4799],[-1.00062,51.48084],[-1.00001,51.48086],[-0.99998,51.48146],[-0.99805,51.48172],[-0.99783,51.48238],[-0.99835,51.48328],[-0.99754,51.48348],[-0.9984,51.4843],[-0.99738,51.48465],[-0.99708,51.48436],[-0.99384,51.48519],[-0.99433,51.48597],[-0.99337,51.4863],[-0.99273,51.48571],[-0.99132,51.48522]]]}},{"type":"Feature","properties":{"id":"E01016388","name":"E01016388","parent":"E06000038","type":"LSOA","pop":1530,"r":354,"ff":132,"ffd":8627.5,"ffs":0.4536,"g":61,"co":0,"mo":0,"sa":0,"ic":0},"geometry":{"type":"Polygon","coordinates":[[[-0.9785,51.4479],[-0.97813,51.44713],[-0.97759,51.44723],[-0.9772,51.44643],[-0.97663,51.44627],[-0.97669,51.44544],[-0.97598,51.44549],[-0.97639,51.44419],[-0.97483,51.4451],[-0.97448,51.44505],[-0.97482,51.44474],[-0.9742,51.44416],[-0.97468,51.44382],[-0.97464,51.44118],[-0.97585,51.43949],[-0.97616,51.43852],[-0.97589,51.43642],[-0.97652,51.4356],[-0.97934,51.43476],[-0.98109,51.43395],[-0.98333,51.43357],[-0.98529,51.43434],[-0.98495,51.43518],[-0.98532,51.43555],[-0.98575,51.43538],[-0.9857,51.43703],[-0.98726,51.43907],[-0.98401,51.4405],[-0.98527,51.44133],[-0.98562,51.44209],[-0.98719,51.44213],[-0.9862,51.44304],[-0.98627,51.44486],[-0.98536,51.44489],[-0.98598,51.44551],[-0.98519,51.44579],[-0.985,51.44552],[-0.98468,51.44604],[-0.98297,51.44672],[-0.98494,51.447],[-0.98548,51.44671],[-0.9859,51.4473],[-0.98265,51.44755],[-0.98214,51.44725],[-0.9785,51.4479]]]}},{"type":"Feature","properties":{"id":"E01016389","name":"E01016389","parent":"E06000038","type":"LSOA","pop":1925,"r":341,"ff":125,"ffd":6493.5,"ffs":0.4464,"g":59,"co":0,"mo":0,"sa":0,"ic":0},"geometry":{"type":"Polygon","coordinates":[[[-0.98998,51.4442],[-0.9894,51.44364],[-0.98627,51.44486],[-0.9862,51.44304],[-0.98719,51.44213],[-0.98562,51.44209],[-0.98527,51.44133],[-0.98401,51.4405],[-0.98726,51.43907],[-0.9857,51.43703],[-0.98575,51.43538],[-0.98532,51.43555],[-0.98495,51.43518],[-0.98529,51.43434],[-0.98749,51.43387],[-0.99291,51.43431],[-0.99553,51.43481],[-0.99639,51.43524],[-0.99624,51.43569],[-0.9995,51.43667],[-0.99861,51.44009],[-0.99711,51.44178],[-0.99543,51.44413],[-0.99431,51.44348],[-0.99094,51.44547],[-0.9903,51.44555],[-0.98998,51.4442]]]}},{"type":"Feature","properties":{"id":"E01016390","name":"E01016390","parent":"E06000038","type":"LSOA","pop":1751,"r":364,"ff":135,"ffd":7709.9,"ffs":0.4515,"g":63,"co":0,"mo":0,"sa":0,"ic":0},"geometry":{"type":"Polygon","coordinates":[[[-0.98616,51.45249],[-0.98387,51.45183],[-0.98251,51.45118],[-0.97899,51.45178],[-0.97851,51.45151],[-0.97993,51.45104],[-0.97971,51.45018],[-0.98008,51.44972],[-0.98224,51.44896],[-0.98288,51.44909],[-0.98343,51.44844],[-0.98361,51.44788],[-0.9799,51.4487],[-0.97972,51.44837],[-0.97893,51.44857],[-0.97883,51.44827],[-0.98265,51.44755],[-0.98536,51.44739],[-0.98575,51.44802],[-0.98668,51.44811],[-0.98626,51.44842],[-0.98645,51.44901],[-0.98716,51.44903],[-0.98869,51.44847],[-0.98918,51.44855],[-0.98922,51.44939],[-0.98792,51.44965],[-0.9888,51.45068],[-0.98816,51.45204],[-0.98891,51.45219],[-0.98959,51.45194],[-0.99059,51.45226],[-0.98678,51.4526],[-0.98616,51.45249]]]}},{"type":"Feature","properties":{"id":"E01016391","name":"E01016391","parent":"E06000038","type":"LSOA","pop":2202,"r":367,"ff":137,"ffd":6221.6,"ffs":0.4567,"g":65,"co":0,"mo":0,"sa":0,"ic":0},"geometry":{"type":"Polygon","coordinates":[[[-0.97422,51.44891],[-0.97349,51.44827],[-0.97367,51.44735],[-0.97301,51.44568],[-0.97356,51.44437],[-0.9742,51.44416],[-0.97482,51.44474],[-0.97448,51.44505],[-0.97483,51.4451],[-0.97639,51.44419],[-0.97598,51.44549],[-0.97669,51.44544],[-0.97663,51.44627],[-0.9772,51.44643],[-0.97759,51.44723],[-0.97813,51.44713],[-0.9785,51.4479],[-0.98214,51.44725],[-0.98265,51.44755],[-0.97883,51.44827],[-0.97893,51.44857],[-0.97972,51.44837],[-0.9799,51.4487],[-0.98361,51.44788],[-0.98343,51.44844],[-0.98288,51.44909],[-0.98224,51.44896],[-0.98008,51.44972],[-0.97971,51.45018],[-0.97993,51.45104],[-0.97851,51.45151],[-0.97899,51.45178],[-0.97759,51.45232],[-0.97676,51.45124],[-0.97597,51.45065],[-0.97446,51.45044],[-0.97422,51.44891]]]}},{"type":"Feature","properties":{"id":"E01016392","name":"E01016392","parent":"E06000038","type":"LSOA","pop":2477,"r":340,"ff":124,"ffd":5006.1,"ffs":0.446,"g":60,"co":0,"mo":0,"sa":0,"ic":0},"geometry":{"type":"Polygon","coordinates":[[[-0.99059,51.45226],[-0.98959,51.45194],[-0.98891,51.45219],[-0.98816,51.45204],[-0.9888,51.45068],[-0.9886,51.45034],[-0.98927,51.45009],[-0.98967,51.45069],[-0.99093,51.44997],[-0.99169,51.45053],[-0.9928,51.45057],[-0.99296,51.45013],[-0.99377,51.4501],[-0.99289,51.44996],[-0.99315,51.44895],[-0.99283,51.44871],[-0.99873,51.4474],[-0.99962,51.44978],[-1.00169,51.45216],[-0.99812,51.45187],[-0.994,51.45193],[-0.99059,51.45226]]]}},{"type":"Feature","properties":{"id":"E01016393","name":"E01016393","parent":"E06000038","type":"LSOA","pop":2103,"r":350,"ff":127,"ffd":6039.0,"ffs":0.4441,"g":62,"co":0,"mo":0,"sa":0,"ic":0},"geometry":{"type":"Polygon","coordinates":[[[-0.98967,51.45069],[-0.98927,51.45009],[-0.9886,51.45034],[-0.98792,51.44965],[-0.98922,51.44939],[-0.98918,51.44855],[-0.98869,51.44847],[-0.98716,51.44903],[-0.98645,51.44901],[-0.98626,51.44842],[-0.98668,51.44811],[-0.98575,51.44802],[-0.98536,51.44739],[-0.9848,51.44738],[-0.9859,51.4473],[-0.98548,51.44671],[-0.98494,51.447],[-0.98297,51.44672],[-0.98468,51.44604],[-0.985,51.44552],[-0.98519,51.44579],[-0.98598,51.44551],[-0.98536,51.44489],[-0.98627,51.44486],[-0.9894,51.44364],[-0.98998,51.4442],[-0.9903,51.44555],[-0.99094,51.44547],[-0.99431,51.44348],[-0.99543,51.44413],[-0.99347,51.44862],[-0.99281,51.44878],[-0.99315,51.44895],[-0.99289,51.44996],[-0.99377,51.4501],[-0.99296,51.45013],[-0.9928,51.45057],[-0.99169,51.45053],[-0.99093,51.44997],[-0.98967,51.45069]]]}},{"type":"Feature","properties":{"id":"E01016394","name":"E01016394","parent":"E06000038","type":"LSOA","pop":1602,"r":300,"ff":106,"ffd":6616.7,"ffs":0.4327,"g":53,"co":0,"mo":2,"sa":0,"ic":0},"geometry":{"type":"Polygon","coordinates":[[[-1.02324,51.45308],[-1.0226,51.45282],[-1.02089,51.45284],[-1.02083,51.45262],[-1.01907,51.45198],[-1.01885,51.45161],[-1.0174,51.45185],[-1.01743,51.45087],[-1.02193,51.4508],[-1.02139,51.45047],[-1.02325,51.44946],[-1.02304,51.44816],[-1.02609,51.44832],[-1.02955,51.44927],[-1.03023,51.4492],[-1.03062,51.44986],[-1.02644,51.4511],[-1.02645,51.4517],[-1.02583,51.45219],[-1.02704,51.45236],[-1.0275,51.45322],[-1.02715,51.45357],[-1.02324,51.45308]]]}},{"type":"Feature","properties":{"id":"E01016395","name":"E01016395","parent":"E06000038","type":"LSOA","pop":1547,"r":314,"ff":112,"ffd":7239.8,"ffs":0.4341,"g":54,"co":0,"mo":2,"sa":0,"ic":0},"geometry":{"type":"Polygon","coordinates":[[[-1.01634,51.45518],[-1.01519,51.45424],[-1.01305,51.45511],[-1.01116,51.45373],[-1.01015,51.45229],[-1.01387,51.45096],[-1.01375,51.45006],[-1.01614,51.4495],[-1.01627,51.44914],[-1.01611,51.44828],[-1.02304,51.44816],[-1.02325,51.44946],[-1.02139,51.45047],[-1.02193,51.4508],[-1.01743,51.45087],[-1.0174,51.45185],[-1.01885,51.45161],[-1.01907,51.45198],[-1.02083,51.45262],[-1.02089,51.45284],[-1.01656,51.45363],[-1.01741,51.45447],[-1.01634,51.45518]]]}},{"type":"Feature","properties":{"id":"E01016396","name":"E01016396","parent":"E06000038","type":"LSOA","pop":1667,"r":298,"ff":105,"ffd":6298.7,"ffs":0.4268,"g":50,"co":0,"mo":2,"sa":0,"ic":0},"geometry":{"type":"Polygon","coordinates":[[[-1.01881,51.46003],[-1.01828,51.45949],[-1.01756,51.45955],[-1.01742,51.45851],[-1.01697,51.45855],[-1.01636,51.45821],[-1.01504,51.45817],[-1.01545,51.45734],[-1.01635,51.45707],[-1.01615,51.45637],[-1.01636,51.45621],[-1.01412,51.45473],[-1.01519,51.45424],[-1.01634,51.45518],[-1.01741,51.45447],[-1.01656,51.45363],[-1.01693,51.45351],[-1.01819,51.45474],[-1.02166,51.45621],[-1.02212,51.45676],[-1.01945,51.45811],[-1.01976,51.45879],[-1.02264,51.45778],[-1.0235,51.45839],[-1.02291,51.45872],[-1.02407,51.4589],[-1.02435,51.45943],[-1.0208,51.45978],[-1.01923,51.46027],[-1.01881,51.46003]]]}},{"type":"Feature","properties":{"id":"E01016397","name":"E01016397","parent":"E06000038","type":"LSOA","pop":1882,"r":306,"ff":107,"ffd":5685.4,"ffs":0.4229,"g":51,"co":0,"mo":2,"sa":0,"ic":0},"geometry":{"type":"Polygon","coordinates":[[[-1.0126,51.45963],[-1.01211,51.45946],[-1.01243,51.45913],[-1.01304,51.45915],[-1.01385,51.45824],[-1.01314,51.45776],[-1.01389,51.45668],[-1.01295,51.45623],[-1.0123,51.45701],[-1.01253,51.45761],[-1.01102,51.45759],[-1.01172,51.45682],[-1.01118,51.45661],[-1.01116,51.45618],[-1.01179,51.45589],[-1.01174,51.45506],[-1.01234,51.4546],[-1.01305,51.45511],[-1.01412,51.45473],[-1.01636,51.45621],[-1.01615,51.45637],[-1.01635,51.45707],[-1.01545,51.45734],[-1.01504,51.45817],[-1.01636,51.45821],[-1.01697,51.45855],[-1.01742,51.45851],[-1.01756,51.45955],[-1.01828,51.45949],[-1.01923,51.46027],[-1.01788,51.46148],[-1.01409,51.46259],[-1.01263,51.46195],[-1.01329,51.46113],[-1.01313,51.45985],[-1.01242,51.45983],[-1.0126,51.45963]]]}},{"type":"Feature","properties":{"id":"E01016398","name":"E01016398","parent":"E06000038","type":"LSOA","pop":1843,"r":309,"ff":110,"ffd":5968.5,"ffs":0.4297,"g":51,"co":0,"mo":0,"sa":0,"ic":0},"geometry":{"type":"Polygon","coordinates":[[[-1.00953,51.46043],[-1.01007,51.45992],[-1.00939,51.45995],[-1.00712,51.45933],[-1.00808,51.45792],[-1.00901,51.45817],[-1.00919,51.45793],[-1.00966,51.45801],[-1.01004,51.45731],[-1.01063,51.45745],[-1.01079,51.45719],[-1.00973,51.45651],[-1.00968,51.45604],[-1.00993,51.45558],[-1.01116,51.45618],[-1.01118,51.45661],[-1.01172,51.45682],[-1.01102,51.45759],[-1.01139,51.45769],[-1.01253,51.45761],[-1.0123,51.45701],[-1.01295,51.45623],[-1.01389,51.45668],[-1.01314,51.45776],[-1.01385,51.45824],[-1.01304,51.45915],[-1.01243,51.45913],[-1.01211,51.45946],[-1.0126,51.45963],[-1.01242,51.45983],[-1.01313,51.45985],[-1.01329,51.46113],[-1.01263,51.46195],[-1.00953,51.46043]]]}},{"type":"Feature","properties":{"id":"E01016399","name":"E01016399","parent":"E06000038","type":"LSOA","pop":1594,"r":317,"ff":116,"ffd":7277.3,"ffs":0.4427,"g":53,"co":0,"mo":0,"sa":0,"ic":0},"geometry":{"type":"Polygon","coordinates":[[[-1.00901,51.45817],[-1.00679,51.45758],[-1.00827,51.45538],[-1.00868,51.45515],[-1.00552,51.45356],[-1.00505,51.45233],[-1.00752,51.45191],[-1.01015,51.45229],[-1.01116,51.45373],[-1.01234,51.4546],[-1.01174,51.45506],[-1.01179,51.45589],[-1.01116,51.45618],[-1.00993,51.45558],[-1.00968,51.45604],[-1.00973,51.45651],[-1.01079,51.45719],[-1.01063,51.45745],[-1.01004,51.45731],[-1.00966,51.45801],[-1.00919,51.45793],[-1.00901,51.45817]]]}},{"type":"Feature","properties":{"id":"E01016400","name":"E01016400","parent":"E06000038","type":"LSOA","pop":1830,"r":307,"ff":108,"ffd":5901.6,"ffs":0.4252,"g":51,"co":0,"mo":0,"sa":0,"ic":0},"geometry":{"type":"Polygon","coordinates":[[[-1.00913,51.46025],[-1.00126,51.45801],[-1.00334,51.45416],[-1.00552,51.45356],[-1.00868,51.45515],[-1.00827,51.45538],[-1.00679,51.45758],[-1.00809,51.4579],[-1.00712,51.45933],[-1.00939,51.45995],[-1.01007,51.45992],[-1.00953,51.46043],[-1.00913,51.46025]]]}},{"type":"Feature","properties":{"id":"E01016401","name":"E01016401","parent":"E06000038","type":"LSOA","pop":1448,"r":403,"ff":138,"ffd":9530.4,"ffs":0.4423,"g":88,"co":0,"mo":0,"sa":0,"ic":0},"geometry":{"type":"Polygon","coordinates":[[[-0.94533,51.45092],[-0.94461,51.45103],[-0.9438,51.45008],[-0.94316,51.45015],[-0.94323,51.45037],[-0.94231,51.44924],[-0.94297,51.44899],[-0.94284,51.44871],[-0.94165,51.44843],[-0.94113,51.44868],[-0.94085,51.44907],[-0.94131,51.44912],[-0.94309,51.45119],[-0.94243,51.45149],[-0.94028,51.45083],[-0.93791,51.44914],[-0.93769,51.44877],[-0.93863,51.44761],[-0.93805,51.44684],[-0.93849,51.44652],[-0.94003,51.44688],[-0.94107,51.4468],[-0.94047,51.44555],[-0.94423,51.44631],[-0.94747,51.4523],[-0.9464,51.45244],[-0.94536,51.45226],[-0.94562,51.45208],[-0.94476,51.4512],[-0.94533,51.45092]]]}},{"type":"Feature","properties":{"id":"E01016402","name":"E01016402","parent":"E06000038","type":"LSOA","pop":2123,"r":366,"ff":122,"ffd":5746.6,"ffs":0.4326,"g":81,"co":0,"mo":0,"sa":0,"ic":0},"geometry":{"type":"Polygon","coordinates":[[[-0.93365,51.45053],[-0.93105,51.44718],[-0.93169,51.44689],[-0.93105,51.44612],[-0.93325,51.44674],[-0.93409,51.44743],[-0.93563,51.44803],[-0.93805,51.44684],[-0.93863,51.44761],[-0.93769,51.44877],[-0.93791,51.44914],[-0.9388,51.44976],[-0.93849,51.44983],[-0.93713,51.44908],[-0.93563,51.44943],[-0.93594,51.44998],[-0.93416,51.45035],[-0.93374,51.45012],[-0.93401,51.45043],[-0.93365,51.45053]]]}},{"type":"Feature","properties":{"id":"E01016403","name":"E01016403","parent":"E06000038","type":"LSOA","pop":2145,"r":376,"ff":126,"ffd":5874.1,"ffs":0.436,"g":84,"co":0,"mo":0,"sa":0,"ic":0},"geometry":{"type":"Polygon","coordinates":[[[-0.93239,51.44653],[-0.93105,51.44612],[-0.93169,51.44689],[-0.93105,51.44718],[-0.92848,51.44516],[-0.93072,51.44223],[-0.93239,51.44096],[-0.93281,51.44112],[-0.93486,51.44304],[-0.93746,51.44444],[-0.94047,51.44555],[-0.94107,51.4468],[-0.94003,51.44688],[-0.93849,51.44652],[-0.93563,51.44803],[-0.93409,51.44743],[-0.93325,51.44674],[-0.93239,51.44653]]]}},{"type":"Feature","properties":{"id":"E01016404","name":"E01016404","parent":"E06000038","type":"LSOA","pop":2347,"r":414,"ff":143,"ffd":6092.9,"ffs":0.4414,"g":87,"co":0,"mo":0,"sa":0,"ic":0},"geometry":{"type":"Polygon","coordinates":[[[-0.94638,51.45717],[-0.94666,51.45657],[-0.9462,51.45641],[-0.94764,51.45603],[-0.94825,51.45653],[-0.94778,51.45683],[-0.94874,51.45685],[-0.94898,51.456],[-0.94755,51.45421],[-0.94675,51.45452],[-0.94654,51.45387],[-0.94866,51.45341],[-0.94824,51.45283],[-0.95206,51.45326],[-0.95163,51.45439],[-0.95074,51.45434],[-0.95061,51.45462],[-0.95183,51.4555],[-0.95151,51.45573],[-0.95204,51.45641],[-0.95147,51.45657],[-0.95196,51.45711],[-0.95001,51.45787],[-0.94988,51.45769],[-0.94638,51.45717]]]}},{"type":"Feature","properties":{"id":"E01016405","name":"E01016405","parent":"E06000038","type":"LSOA","pop":2409,"r":413,"ff":141,"ffd":5853.1,"ffs":0.4393,"g":89,"co":0,"mo":0,"sa":0,"ic":0},"geometry":{"type":"Polygon","coordinates":[[[-0.944,51.45658],[-0.94179,51.45583],[-0.94204,51.45551],[-0.94129,51.45519],[-0.94303,51.45488],[-0.94329,51.45518],[-0.94401,51.45501],[-0.94395,51.45471],[-0.94558,51.45434],[-0.94599,51.45455],[-0.94659,51.45431],[-0.94675,51.45452],[-0.94755,51.45421],[-0.94898,51.456],[-0.94874,51.45685],[-0.94778,51.45683],[-0.94825,51.45653],[-0.94764,51.45603],[-0.9462,51.45641],[-0.94666,51.45657],[-0.94638,51.45717],[-0.944,51.45658]]]}},{"type":"Feature","properties":{"id":"E01016406","name":"E01016406","parent":"E06000038","type":"LSOA","pop":1684,"r":420,"ff":144,"ffd":8551.1,"ffs":0.4404,"g":90,"co":0,"mo":0,"sa":0,"ic":0},"geometry":{"type":"Polygon","coordinates":[[[-0.94179,51.45583],[-0.93724,51.45366],[-0.93424,51.45116],[-0.93365,51.45053],[-0.93401,51.45043],[-0.93374,51.45012],[-0.93416,51.45035],[-0.93594,51.44998],[-0.93563,51.44943],[-0.93713,51.44908],[-0.93849,51.44983],[-0.9388,51.44976],[-0.94028,51.45083],[-0.94243,51.45149],[-0.94309,51.45119],[-0.94131,51.44912],[-0.94085,51.44907],[-0.94113,51.44868],[-0.94165,51.44843],[-0.94284,51.44871],[-0.94297,51.44899],[-0.94231,51.44924],[-0.94323,51.45037],[-0.94316,51.45015],[-0.9438,51.45008],[-0.94461,51.45103],[-0.94538,51.45089],[-0.94476,51.4512],[-0.94562,51.45208],[-0.94536,51.45226],[-0.9464,51.45244],[-0.94747,51.4523],[-0.94824,51.45283],[-0.94866,51.45341],[-0.94654,51.45387],[-0.94659,51.45431],[-0.94599,51.45455],[-0.94558,51.45434],[-0.94395,51.45471],[-0.94401,51.45501],[-0.94329,51.45518],[-0.94303,51.45488],[-0.94129,51.45519],[-0.94204,51.45551],[-0.94179,51.45583]]]}},{"type":"Feature","properties":{"id":"E01016407","name":"E01016407","parent":"E06000038","type":"LSOA","pop":1685,"r":296,"ff":106,"ffd":6290.8,"ffs":0.4344,"g":50,"co":0,"mo":2,"sa":0,"ic":0},"geometry":{"type":"Polygon","coordinates":[[[-0.95341,51.48829],[-0.94981,51.48647],[-0.94917,51.48699],[-0.94701,51.48606],[-0.94802,51.48523],[-0.94958,51.48574],[-0.95123,51.48571],[-0.95431,51.48487],[-0.95595,51.48489],[-0.95616,51.48442],[-0.95661,51.48442],[-0.95653,51.48334],[-0.95447,51.48276],[-0.95455,51.48219],[-0.95412,51.48204],[-0.95702,51.48043],[-0.95893,51.48123],[-0.96158,51.48145],[-0.96247,51.48114],[-0.96343,51.47898],[-0.96406,51.47906],[-0.96408,51.47993],[-0.96319,51.48171],[-0.96338,51.48195],[-0.96397,51.48185],[-0.96381,51.48225],[-0.96416,51.4823],[-0.9643,51.48294],[-0.96511,51.48314],[-0.96481,51.48265],[-0.96679,51.48258],[-0.96875,51.48194],[-0.96958,51.48206],[-0.96876,51.48243],[-0.96889,51.4827],[-0.96583,51.48324],[-0.96598,51.48356],[-0.96716,51.48336],[-0.96729,51.48389],[-0.96697,51.48449],[-0.96496,51.48501],[-0.96578,51.48683],[-0.96691,51.4878],[-0.96623,51.48799],[-0.96548,51.48756],[-0.96461,51.48762],[-0.96399,51.48819],[-0.96326,51.48815],[-0.96259,51.48754],[-0.96189,51.48814],[-0.96076,51.48615],[-0.95963,51.48743],[-0.95796,51.48692],[-0.955,51.48736],[-0.95341,51.48829]]]}},{"type":"Feature","properties":{"id":"E01016408","name":"E01016408","parent":"E06000038","type":"LSOA","pop":1436,"r":227,"ff":73,"ffd":5083.6,"ffs":0.4033,"g":44,"co":0,"mo":2,"sa":0,"ic":0},"geometry":{"type":"Polygon","coordinates":[[[-0.94999,51.48176],[-0.9495,51.48157],[-0.94823,51.48238],[-0.94793,51.48174],[-0.94738,51.4817],[-0.94746,51.48113],[-0.94623,51.48138],[-0.94523,51.48123],[-0.9449,51.47926],[-0.94646,51.47932],[-0.94773,51.47911],[-0.94699,51.47844],[-0.94634,51.47899],[-0.94568,51.47772],[-0.9466,51.47737],[-0.94734,51.47774],[-0.94912,51.47741],[-0.95035,51.4784],[-0.95456,51.47795],[-0.95459,51.47689],[-0.95185,51.47654],[-0.95058,51.47591],[-0.95465,51.47377],[-0.95489,51.47399],[-0.95563,51.47364],[-0.9557,51.47318],[-0.95916,51.47481],[-0.96031,51.47637],[-0.96139,51.47917],[-0.96343,51.47898],[-0.96247,51.48114],[-0.96158,51.48145],[-0.95893,51.48123],[-0.95702,51.48043],[-0.95412,51.48204],[-0.95455,51.48219],[-0.95447,51.48276],[-0.95355,51.48282],[-0.95141,51.48247],[-0.94999,51.48176]]]}},{"type":"Feature","properties":{"id":"E01016409","name":"E01016409","parent":"E06000038","type":"LSOA","pop":1873,"r":227,"ff":73,"ffd":3897.5,"ffs":0.4033,"g":44,"co":0,"mo":2,"sa":0,"ic":0},"geometry":{"type":"Polygon","coordinates":[[[-0.9736,51.48433],[-0.97107,51.48354],[-0.97122,51.48405],[-0.97077,51.48415],[-0.96906,51.48376],[-0.96981,51.4824],[-0.96889,51.4827],[-0.96876,51.48243],[-0.96958,51.48206],[-0.96875,51.48194],[-0.96679,51.48258],[-0.96481,51.48265],[-0.96511,51.48314],[-0.9643,51.48294],[-0.96416,51.4823],[-0.96381,51.48225],[-0.96397,51.48185],[-0.96338,51.48195],[-0.96319,51.48171],[-0.96408,51.47993],[-0.96406,51.47906],[-0.96139,51.47917],[-0.96031,51.47637],[-0.95916,51.47481],[-0.96316,51.4766],[-0.96532,51.4763],[-0.96511,51.47604],[-0.96601,51.47583],[-0.96714,51.47606],[-0.96937,51.47816],[-0.97125,51.47931],[-0.97284,51.48084],[-0.97304,51.48182],[-0.97477,51.48489],[-0.97413,51.48498],[-0.97395,51.4848],[-0.97437,51.4847],[-0.9736,51.48433]]]}},{"type":"Feature","properties":{"id":"E01016410","name":"E01016410","parent":"E06000038","type":"LSOA","pop":1886,"r":298,"ff":109,"ffd":5779.4,"ffs":0.4467,"g":52,"co":0,"mo":2,"sa":0,"ic":0},"geometry":{"type":"Polygon","coordinates":[[[-0.9449,51.47926],[-0.94114,51.47498],[-0.94732,51.47294],[-0.94676,51.47173],[-0.95325,51.46927],[-0.95401,51.47008],[-0.95341,51.47052],[-0.95365,51.47155],[-0.95535,51.47335],[-0.9557,51.47318],[-0.95563,51.47364],[-0.95489,51.47399],[-0.95465,51.47377],[-0.95058,51.47591],[-0.95185,51.47654],[-0.95459,51.47689],[-0.95456,51.47795],[-0.95035,51.4784],[-0.94912,51.47741],[-0.94734,51.47774],[-0.9466,51.47737],[-0.94568,51.47772],[-0.94634,51.47899],[-0.94699,51.47844],[-0.94773,51.47911],[-0.94646,51.47932],[-0.9449,51.47926]]]}},{"type":"Feature","properties":{"id":"E01016411","name":"E01016411","parent":"E06000038","type":"LSOA","pop":1652,"r":269,"ff":96,"ffd":5811.1,"ffs":0.4364,"g":47,"co":0,"mo":2,"sa":0,"ic":0},"geometry":{"type":"Polygon","coordinates":[[[-0.95748,51.49308],[-0.95665,51.49207],[-0.95547,51.49139],[-0.956,51.49105],[-0.95341,51.48829],[-0.955,51.48736],[-0.95796,51.48692],[-0.95963,51.48743],[-0.96076,51.48615],[-0.96189,51.48814],[-0.96259,51.48754],[-0.96326,51.48815],[-0.96399,51.48819],[-0.96461,51.48762],[-0.96548,51.48756],[-0.96623,51.48799],[-0.96691,51.4878],[-0.96578,51.48683],[-0.96496,51.48501],[-0.96697,51.48449],[-0.96729,51.48389],[-0.96716,51.48336],[-0.96598,51.48356],[-0.96583,51.48324],[-0.96981,51.4824],[-0.96906,51.48376],[-0.97077,51.48415],[-0.97122,51.48405],[-0.97107,51.48354],[-0.97437,51.4847],[-0.97395,51.4848],[-0.97413,51.48498],[-0.97477,51.48489],[-0.97535,51.48743],[-0.97432,51.48675],[-0.9725,51.48728],[-0.97109,51.48802],[-0.96988,51.48949],[-0.97043,51.49042],[-0.96959,51.49086],[-0.96919,51.4902],[-0.96752,51.49089],[-0.96715,51.49065],[-0.96471,51.49144],[-0.96509,51.49208],[-0.96182,51.4931],[-0.95748,51.49308]]]}},{"type":"Feature","properties":{"id":"E01016412","name":"E01016412","parent":"E06000038","type":"LSOA","pop":1496,"r":227,"ff":73,"ffd":4879.7,"ffs":0.4033,"g":44,"co":0,"mo":2,"sa":0,"ic":0},"geometry":{"type":"Polygon","coordinates":[[[-0.94802,51.48523],[-0.94675,51.48427],[-0.94606,51.48343],[-0.94549,51.48359],[-0.9445,51.48195],[-0.94557,51.48169],[-0.94523,51.48123],[-0.94623,51.48138],[-0.94746,51.48113],[-0.94738,51.4817],[-0.94793,51.48174],[-0.94823,51.48238],[-0.9495,51.48157],[-0.95141,51.48247],[-0.95355,51.48282],[-0.95447,51.48276],[-0.95653,51.48334],[-0.95661,51.48442],[-0.95616,51.48442],[-0.95595,51.48489],[-0.95431,51.48487],[-0.95123,51.48571],[-0.94958,51.48574],[-0.94802,51.48523]]]}},{"type":"Feature","properties":{"id":"E01016413","name":"E01016413","parent":"E06000038","type":"LSOA","pop":1791,"r":379,"ff":129,"ffd":7202.7,"ffs":0.4388,"g":82,"co":0,"mo":0,"sa":0,"ic":0},"geometry":{"type":"Polygon","coordinates":[[[-0.95167,51.44792],[-0.95101,51.44651],[-0.95048,51.44661],[-0.95017,51.44564],[-0.95109,51.44561],[-0.95165,51.4441],[-0.954,51.44292],[-0.95484,51.44272],[-0.95627,51.44311],[-0.95684,51.44114],[-0.95807,51.44121],[-0.95892,51.44193],[-0.96041,51.44193],[-0.9608,51.4425],[-0.96176,51.44242],[-0.96195,51.44312],[-0.96167,51.44412],[-0.96126,51.44454],[-0.96184,51.44508],[-0.9583,51.44503],[-0.95815,51.4448],[-0.9582,51.44554],[-0.95787,51.44558],[-0.95788,51.44525],[-0.95676,51.44449],[-0.95617,51.44476],[-0.95665,51.44531],[-0.95584,51.44585],[-0.95638,51.44604],[-0.95707,51.44578],[-0.95781,51.44677],[-0.95703,51.44691],[-0.95685,51.44651],[-0.95601,51.44649],[-0.9548,51.44694],[-0.95476,51.44734],[-0.95368,51.44755],[-0.9531,51.4472],[-0.95272,51.44733],[-0.95292,51.44769],[-0.95167,51.44792]]]}},{"type":"Feature","properties":{"id":"E01016414","name":"E01016414","parent":"E06000038","type":"LSOA","pop":1870,"r":396,"ff":136,"ffd":7272.7,"ffs":0.443,"g":86,"co":0,"mo":0,"sa":0,"ic":0},"geometry":{"type":"Polygon","coordinates":[[[-0.95706,51.45219],[-0.95692,51.45185],[-0.95423,51.45217],[-0.95414,51.45268],[-0.95263,51.45178],[-0.95128,51.44967],[-0.95256,51.44978],[-0.95245,51.44955],[-0.95385,51.44908],[-0.95348,51.44813],[-0.95536,51.44808],[-0.95476,51.44734],[-0.9548,51.44694],[-0.95601,51.44649],[-0.95685,51.44651],[-0.95703,51.44691],[-0.95781,51.44677],[-0.95707,51.44578],[-0.95638,51.44604],[-0.95584,51.44585],[-0.95665,51.44531],[-0.95617,51.44476],[-0.95676,51.44449],[-0.95788,51.44525],[-0.95787,51.44558],[-0.9582,51.44554],[-0.95815,51.4448],[-0.9583,51.44503],[-0.96184,51.44508],[-0.96126,51.44454],[-0.96167,51.44412],[-0.9627,51.44429],[-0.96409,51.44866],[-0.96258,51.44888],[-0.96335,51.45099],[-0.95824,51.45169],[-0.95874,51.45292],[-0.9586,51.45393],[-0.95591,51.45366],[-0.95602,51.4528],[-0.95556,51.45273],[-0.95706,51.45219]]]}},{"type":"Feature","properties":{"id":"E01016415","name":"E01016415","parent":"E06000038","type":"LSOA","pop":1780,"r":362,"ff":130,"ffd":7303.4,"ffs":0.4498,"g":71,"co":0,"mo":0,"sa":0,"ic":0},"geometry":{"type":"Polygon","coordinates":[[[-0.96195,51.44312],[-0.96176,51.44242],[-0.9608,51.4425],[-0.96041,51.44193],[-0.95892,51.44193],[-0.95807,51.44121],[-0.95834,51.44073],[-0.95928,51.44047],[-0.95943,51.43969],[-0.95748,51.43939],[-0.95676,51.43852],[-0.95631,51.43774],[-0.95778,51.43753],[-0.95682,51.43626],[-0.96001,51.43617],[-0.96039,51.43697],[-0.96266,51.43697],[-0.96244,51.44313],[-0.96195,51.44312]]]}},{"type":"Feature","properties":{"id":"E01016416","name":"E01016416","parent":"E06000038","type":"LSOA","pop":2160,"r":374,"ff":134,"ffd":6203.7,"ffs":0.4452,"g":71,"co":0,"mo":0,"sa":0,"ic":0},"geometry":{"type":"Polygon","coordinates":[[[-0.95005,51.45275],[-0.9497,51.45243],[-0.94817,51.45257],[-0.94753,51.4513],[-0.9486,51.45198],[-0.94925,51.45198],[-0.94957,51.45154],[-0.95008,51.45149],[-0.94932,51.45003],[-0.95128,51.44967],[-0.95263,51.45178],[-0.95414,51.45268],[-0.95423,51.45217],[-0.95692,51.45185],[-0.95706,51.45219],[-0.95556,51.45273],[-0.95602,51.4528],[-0.95591,51.45366],[-0.94977,51.45302],[-0.95005,51.45275]]]}},{"type":"Feature","properties":{"id":"E01016417","name":"E01016417","parent":"E06000038","type":"LSOA","pop":1772,"r":394,"ff":132,"ffd":7449.2,"ffs":0.4356,"g":88,"co":0,"mo":0,"sa":0,"ic":0},"geometry":{"type":"Polygon","coordinates":[[[-0.94824,51.45283],[-0.94747,51.4523],[-0.9462,51.44981],[-0.94689,51.44948],[-0.9462,51.44881],[-0.94727,51.44893],[-0.95064,51.44811],[-0.95049,51.44783],[-0.95093,51.44771],[-0.95126,51.44799],[-0.95292,51.44769],[-0.95272,51.44733],[-0.9531,51.4472],[-0.95368,51.44755],[-0.95476,51.44734],[-0.95536,51.44808],[-0.95348,51.44813],[-0.95385,51.44908],[-0.95245,51.44955],[-0.95256,51.44978],[-0.95128,51.44967],[-0.94932,51.45003],[-0.95008,51.45149],[-0.94957,51.45154],[-0.94925,51.45198],[-0.9486,51.45198],[-0.94753,51.4513],[-0.94817,51.45257],[-0.9497,51.45243],[-0.95005,51.45275],[-0.94977,51.45302],[-0.94824,51.45283]]]}},{"type":"Feature","properties":{"id":"E01016418","name":"E01016418","parent":"E06000038","type":"LSOA","pop":1581,"r":388,"ff":132,"ffd":8349.1,"ffs":0.443,"g":87,"co":0,"mo":0,"sa":0,"ic":0},"geometry":{"type":"Polygon","coordinates":[[[-0.9462,51.44981],[-0.94423,51.44631],[-0.94521,51.44617],[-0.9448,51.44556],[-0.94611,51.44528],[-0.94651,51.44583],[-0.94816,51.44554],[-0.95017,51.44564],[-0.95048,51.44661],[-0.95101,51.44651],[-0.95167,51.44792],[-0.95126,51.44799],[-0.95093,51.44771],[-0.95049,51.44783],[-0.95064,51.44811],[-0.94727,51.44893],[-0.9462,51.44881],[-0.94689,51.44948],[-0.9462,51.44981]]]}},{"type":"Feature","properties":{"id":"E01016419","name":"E01016419","parent":"E06000038","type":"LSOA","pop":2160,"r":340,"ff":123,"ffd":5694.4,"ffs":0.4424,"g":60,"co":0,"mo":0,"sa":0,"ic":0},"geometry":{"type":"Polygon","coordinates":[[[-0.99962,51.44978],[-0.99873,51.4474],[-0.99347,51.44862],[-0.99399,51.44726],[-0.99592,51.44722],[-0.99857,51.44536],[-0.99987,51.44614],[-1.0013,51.44577],[-0.99918,51.44515],[-1.00111,51.4442],[-0.99971,51.44295],[-0.9997,51.44278],[-1.00056,51.44235],[-1.00078,51.4426],[-1.0012,51.44209],[-1.00226,51.44237],[-1.0037,51.4422],[-1.0054,51.44139],[-1.00583,51.44187],[-1.00536,51.44253],[-1.00583,51.44285],[-1.00694,51.44258],[-1.00722,51.44277],[-1.00751,51.44417],[-1.00822,51.44483],[-1.0087,51.44448],[-1.01006,51.44468],[-1.01041,51.44508],[-1.01128,51.44457],[-1.0113,51.44521],[-1.00923,51.44511],[-1.00887,51.4452],[-1.0092,51.44573],[-1.00677,51.4459],[-1.0065,51.44696],[-1.00836,51.44795],[-1.00746,51.45002],[-1.00579,51.44966],[-1.0036,51.44995],[-1.00472,51.45191],[-1.00451,51.45238],[-1.00264,51.45237],[-1.00169,51.45216],[-0.99962,51.44978]]]}},{"type":"Feature","properties":{"id":"E01016420","name":"E01016420","parent":"E06000038","type":"LSOA","pop":1583,"r":330,"ff":122,"ffd":7706.9,"ffs":0.4485,"g":56,"co":2,"mo":0,"sa":0,"ic":0},"geometry":{"type":"Polygon","coordinates":[[[-1.01128,51.44457],[-1.01041,51.44508],[-1.01006,51.44468],[-1.0087,51.44448],[-1.00822,51.44483],[-1.00751,51.44417],[-1.00722,51.44277],[-1.00844,51.44329],[-1.01045,51.44322],[-1.01022,51.44284],[-1.00959,51.44312],[-1.00897,51.44289],[-1.00894,51.44239],[-1.01024,51.44194],[-1.01008,51.44154],[-1.01116,51.44146],[-1.01333,51.44217],[-1.01394,51.44212],[-1.01394,51.44271],[-1.01459,51.44272],[-1.01552,51.44173],[-1.0171,51.44245],[-1.01749,51.44237],[-1.01756,51.44269],[-1.01628,51.44269],[-1.01615,51.44301],[-1.01661,51.44316],[-1.01627,51.44376],[-1.01855,51.44392],[-1.01872,51.44424],[-1.01142,51.44573],[-1.01128,51.44457]]]}},{"type":"Feature","properties":{"id":"E01016421","name":"E01016421","parent":"E06000038","type":"LSOA","pop":1370,"r":316,"ff":116,"ffd":8467.2,"ffs":0.4462,"g":54,"co":2,"mo":0,"sa":0,"ic":0},"geometry":{"type":"Polygon","coordinates":[[[-1.00472,51.45191],[-1.0036,51.44995],[-1.00579,51.44966],[-1.00746,51.45002],[-1.00836,51.44795],[-1.0065,51.44696],[-1.00677,51.4459],[-1.0092,51.44573],[-1.00887,51.4452],[-1.00923,51.44511],[-1.0113,51.44521],[-1.01142,51.44573],[-1.01213,51.44565],[-1.01872,51.44424],[-1.01855,51.44392],[-1.01627,51.44376],[-1.01661,51.44316],[-1.01615,51.44301],[-1.01628,51.44269],[-1.01756,51.44269],[-1.01749,51.44237],[-1.0171,51.44245],[-1.01552,51.44173],[-1.01571,51.4408],[-1.0167,51.44108],[-1.01647,51.4402],[-1.0171,51.43994],[-1.01749,51.43994],[-1.01765,51.44049],[-1.01833,51.44058],[-1.01876,51.43881],[-1.01609,51.43914],[-1.01514,51.4378],[-1.01882,51.43736],[-1.01946,51.43581],[-1.02174,51.43573],[-1.02174,51.43829],[-1.02212,51.44093],[-1.0203,51.44155],[-1.01885,51.44154],[-1.01918,51.44265],[-1.01924,51.44468],[-1.01974,51.44445],[-1.02156,51.44474],[-1.02132,51.4462],[-1.02078,51.44649],[-1.02084,51.44808],[-1.01611,51.44828],[-1.01627,51.44914],[-1.01614,51.4495],[-1.01375,51.45006],[-1.01387,51.45096],[-1.01015,51.45229],[-1.00752,51.45191],[-1.00451,51.45238],[-1.00472,51.45191]]]}},{"type":"Feature","properties":{"id":"E01016422","name":"E01016422","parent":"E06000038","type":"LSOA","pop":1470,"r":317,"ff":117,"ffd":7959.2,"ffs":0.4483,"g":54,"co":2,"mo":0,"sa":0,"ic":0},"geometry":{"type":"Polygon","coordinates":[[[-1.02156,51.44474],[-1.01974,51.44445],[-1.01924,51.44468],[-1.01918,51.44265],[-1.01885,51.44154],[-1.0203,51.44155],[-1.02212,51.44093],[-1.02346,51.44432],[-1.02655,51.44401],[-1.02597,51.44499],[-1.02672,51.44591],[-1.03011,51.44728],[-1.03023,51.4492],[-1.02955,51.44927],[-1.02609,51.44832],[-1.02084,51.44808],[-1.02078,51.44649],[-1.02132,51.4462],[-1.02156,51.44474]]]}},{"type":"Feature","properties":{"id":"E01016423","name":"E01016423","parent":"E06000038","type":"LSOA","pop":1623,"r":326,"ff":119,"ffd":7332.1,"ffs":0.444,"g":56,"co":2,"mo":0,"sa":0,"ic":0},"geometry":{"type":"Polygon","coordinates":[[[-1.00844,51.44329],[-1.00694,51.44258],[-1.00756,51.44086],[-1.00707,51.44058],[-1.00618,51.44091],[-1.0062,51.44046],[-1.00555,51.44012],[-1.00433,51.43831],[-1.00251,51.43825],[-0.9994,51.43719],[-1.00072,51.42979],[-1.002,51.43158],[-1.00382,51.43262],[-1.00372,51.4339],[-1.00641,51.4339],[-1.00709,51.43443],[-1.00696,51.43408],[-1.00782,51.4338],[-1.00848,51.43407],[-1.00786,51.43443],[-1.0081,51.43509],[-1.00971,51.4342],[-1.01031,51.43461],[-1.01145,51.4343],[-1.01192,51.43465],[-1.01306,51.43458],[-1.01352,51.43553],[-1.01581,51.43535],[-1.01946,51.43581],[-1.01882,51.43736],[-1.01514,51.4378],[-1.01609,51.43914],[-1.01876,51.43881],[-1.01833,51.44058],[-1.01765,51.44049],[-1.01749,51.43994],[-1.01647,51.4402],[-1.0167,51.44108],[-1.01571,51.4408],[-1.01552,51.44173],[-1.01459,51.44272],[-1.01394,51.44271],[-1.01394,51.44212],[-1.01333,51.44217],[-1.01116,51.44146],[-1.01008,51.44154],[-1.01024,51.44194],[-1.00894,51.44239],[-1.00897,51.44289],[-1.00959,51.44312],[-1.01022,51.44284],[-1.01045,51.44322],[-1.00844,51.44329]]]}},{"type":"Feature","properties":{"id":"E01016424","name":"E01016424","parent":"E06000038","type":"LSOA","pop":1470,"r":337,"ff":122,"ffd":8299.3,"ffs":0.442,"g":59,"co":2,"mo":0,"sa":0,"ic":0},"geometry":{"type":"Polygon","coordinates":[[[-0.99399,51.44726],[-0.99543,51.44413],[-0.99711,51.44178],[-0.99861,51.44009],[-0.9994,51.43719],[-1.00251,51.43825],[-1.00433,51.43831],[-1.00555,51.44012],[-1.0062,51.44046],[-1.00618,51.44091],[-1.00707,51.44058],[-1.00756,51.44086],[-1.00694,51.44258],[-1.00583,51.44285],[-1.00536,51.44253],[-1.00583,51.44187],[-1.0054,51.44139],[-1.0037,51.4422],[-1.00226,51.44237],[-1.0012,51.44209],[-1.00078,51.4426],[-1.00056,51.44235],[-0.9997,51.44278],[-1.00111,51.4442],[-0.99918,51.44515],[-1.0013,51.44577],[-0.99987,51.44614],[-0.99857,51.44536],[-0.99592,51.44722],[-0.99399,51.44726]]]}},{"type":"Feature","properties":{"id":"E01016425","name":"E01016425","parent":"E06000038","type":"LSOA","pop":1717,"r":303,"ff":112,"ffd":6523.0,"ffs":0.448,"g":51,"co":2,"mo":0,"sa":0,"ic":0},"geometry":{"type":"Polygon","coordinates":[[[-0.98216,51.48361],[-0.98196,51.48209],[-0.98016,51.48006],[-0.97916,51.47986],[-0.97844,51.47914],[-0.97802,51.47854],[-0.97863,51.47833],[-0.97771,51.47725],[-0.97698,51.47737],[-0.9768,51.47717],[-0.97708,51.47667],[-0.97894,51.4763],[-0.97942,51.47654],[-0.98094,51.47615],[-0.98086,51.47561],[-0.98281,51.4752],[-0.98348,51.47556],[-0.98404,51.47543],[-0.98514,51.47649],[-0.98435,51.47658],[-0.98433,51.47704],[-0.98539,51.47671],[-0.98905,51.48049],[-0.9905,51.48254],[-0.9885,51.48311],[-0.9879,51.48262],[-0.98843,51.48191],[-0.98717,51.48158],[-0.98579,51.48204],[-0.9865,51.48271],[-0.98526,51.48301],[-0.98455,51.4825],[-0.98216,51.48361]]]}},{"type":"Feature","properties":{"id":"E01016426","name":"E01016426","parent":"E06000038","type":"LSOA","pop":1410,"r":327,"ff":123,"ffd":8723.4,"ffs":0.4539,"g":54,"co":2,"mo":0,"sa":0,"ic":0},"geometry":{"type":"Polygon","coordinates":[[[-0.98666,51.47787],[-0.98539,51.47671],[-0.98433,51.47704],[-0.98435,51.47658],[-0.98514,51.47649],[-0.98404,51.47543],[-0.98348,51.47556],[-0.98281,51.4752],[-0.98086,51.47561],[-0.98094,51.47615],[-0.98014,51.4763],[-0.97967,51.47526],[-0.97913,51.47533],[-0.97871,51.47458],[-0.97874,51.47434],[-0.97975,51.47422],[-0.97967,51.47185],[-0.98031,51.47178],[-0.9793,51.47134],[-0.98009,51.47133],[-0.98055,51.47087],[-0.98214,51.47354],[-0.98297,51.47296],[-0.98267,51.47188],[-0.98418,51.47152],[-0.98482,51.47169],[-0.98604,51.47017],[-0.98561,51.46985],[-0.98695,51.46874],[-0.98896,51.46934],[-0.98875,51.47064],[-0.9876,51.47128],[-0.98867,51.47206],[-0.98803,51.47242],[-0.9887,51.47334],[-0.98876,51.47452],[-0.98936,51.47554],[-0.98976,51.47679],[-0.98666,51.47787]]]}},{"type":"Feature","properties":{"id":"E01016427","name":"E01016427","parent":"E06000038","type":"LSOA","pop":1700,"r":321,"ff":120,"ffd":7058.8,"ffs":0.4494,"g":52,"co":0,"mo":2,"sa":0,"ic":0},"geometry":{"type":"Polygon","coordinates":[[[-0.97036,51.47864],[-0.96937,51.47816],[-0.96703,51.47602],[-0.96764,51.47418],[-0.9646,51.47465],[-0.96387,51.47451],[-0.96372,51.47378],[-0.96284,51.47368],[-0.96267,51.47305],[-0.96157,51.47297],[-0.96118,51.4724],[-0.9624,51.47243],[-0.96308,51.47036],[-0.9661,51.47017],[-0.97017,51.46936],[-0.97004,51.46955],[-0.97071,51.46983],[-0.97151,51.46951],[-0.97256,51.46968],[-0.97294,51.47114],[-0.97376,51.47211],[-0.97365,51.47314],[-0.97471,51.47322],[-0.97418,51.47461],[-0.97539,51.47602],[-0.97216,51.4773],[-0.97058,51.47847],[-0.97107,51.47864],[-0.97157,51.47837],[-0.97184,51.47919],[-0.97125,51.47931],[-0.97036,51.47864]]]}},{"type":"Feature","properties":{"id":"E01016428","name":"E01016428","parent":"E06000038","type":"LSOA","pop":1914,"r":325,"ff":122,"ffd":6374.1,"ffs":0.4519,"g":53,"co":2,"mo":0,"sa":0,"ic":0},"geometry":{"type":"Polygon","coordinates":[[[-0.97184,51.47919],[-0.97157,51.47837],[-0.97107,51.47864],[-0.97058,51.47847],[-0.97216,51.4773],[-0.97539,51.47602],[-0.97418,51.47461],[-0.97471,51.47322],[-0.97535,51.47321],[-0.97564,51.4728],[-0.9765,51.47272],[-0.97665,51.47176],[-0.97794,51.47165],[-0.97809,51.47128],[-0.97921,51.47129],[-0.98033,51.47052],[-0.98076,51.46903],[-0.98274,51.4681],[-0.98295,51.46769],[-0.98913,51.46838],[-0.98896,51.46934],[-0.98695,51.46874],[-0.98561,51.46985],[-0.98604,51.47017],[-0.98482,51.47169],[-0.98418,51.47152],[-0.98267,51.47188],[-0.98297,51.47296],[-0.98214,51.47354],[-0.98055,51.47087],[-0.98009,51.47133],[-0.9793,51.47134],[-0.98031,51.47178],[-0.97967,51.47185],[-0.97975,51.47422],[-0.97874,51.47434],[-0.97871,51.47458],[-0.97913,51.47533],[-0.97967,51.47526],[-0.98014,51.4763],[-0.97942,51.47654],[-0.97894,51.4763],[-0.97708,51.47667],[-0.9768,51.47717],[-0.97698,51.47737],[-0.97771,51.47725],[-0.97863,51.47833],[-0.97802,51.47854],[-0.97844,51.47914],[-0.97591,51.47927],[-0.975,51.48067],[-0.97284,51.48084],[-0.97125,51.47931],[-0.97184,51.47919]]]}},{"type":"Feature","properties":{"id":"E01016429","name":"E01016429","parent":"E06000038","type":"LSOA","pop":1618,"r":323,"ff":121,"ffd":7478.4,"ffs":0.4498,"g":52,"co":0,"mo":0,"sa":0,"ic":0},"geometry":{"type":"Polygon","coordinates":[[[-0.96137,51.4759],[-0.9557,51.47318],[-0.95535,51.47335],[-0.95365,51.47155],[-0.95345,51.47069],[-0.95511,51.47055],[-0.95978,51.47067],[-0.96308,51.47036],[-0.9624,51.47243],[-0.96118,51.4724],[-0.96157,51.47297],[-0.96267,51.47305],[-0.96284,51.47368],[-0.96372,51.47378],[-0.96387,51.47451],[-0.9646,51.47465],[-0.96764,51.47418],[-0.96703,51.47602],[-0.96601,51.47583],[-0.96511,51.47604],[-0.96532,51.4763],[-0.96316,51.4766],[-0.96137,51.4759]]]}},{"type":"Feature","properties":{"id":"E01016430","name":"E01016430","parent":"E06000038","type":"LSOA","pop":1433,"r":267,"ff":97,"ffd":6769.0,"ffs":0.4491,"g":49,"co":0,"mo":2,"sa":0,"ic":0},"geometry":{"type":"Polygon","coordinates":[[[-0.97535,51.48743],[-0.97477,51.48489],[-0.97304,51.48182],[-0.97284,51.48084],[-0.975,51.48067],[-0.97591,51.47927],[-0.97844,51.47914],[-0.97916,51.47986],[-0.98016,51.48006],[-0.98196,51.48209],[-0.98216,51.48361],[-0.98455,51.4825],[-0.98526,51.48301],[-0.9865,51.48271],[-0.98579,51.48204],[-0.98717,51.48158],[-0.98843,51.48191],[-0.9879,51.48262],[-0.9885,51.48311],[-0.9905,51.48254],[-0.99108,51.48342],[-0.9896,51.48379],[-0.98912,51.4841],[-0.99132,51.48522],[-0.9898,51.4856],[-0.98686,51.48574],[-0.98534,51.48518],[-0.98343,51.48494],[-0.98008,51.4857],[-0.97861,51.48563],[-0.97863,51.48731],[-0.97937,51.48755],[-0.97783,51.48834],[-0.97608,51.48835],[-0.97535,51.48743]]]}},{"type":"Feature","properties":{"id":"E01016431","name":"E01016431","parent":"E06000038","type":"LSOA","pop":1697,"r":237,"ff":78,"ffd":4596.3,"ffs":0.4149,"g":47,"co":0,"mo":2,"sa":0,"ic":0},"geometry":{"type":"Polygon","coordinates":[[[-1.04587,51.46348],[-1.04335,51.46342],[-1.04094,51.4637],[-1.03941,51.46324],[-1.03622,51.46104],[-1.03724,51.46034],[-1.03771,51.46056],[-1.03895,51.46003],[-1.04001,51.45891],[-1.03968,51.45871],[-1.04137,51.45803],[-1.0411,51.45765],[-1.04165,51.45744],[-1.04206,51.45772],[-1.04335,51.45708],[-1.04463,51.45825],[-1.04484,51.45923],[-1.04442,51.45986],[-1.04598,51.46096],[-1.04675,51.46046],[-1.04667,51.46108],[-1.04747,51.46157],[-1.04702,51.4623],[-1.04749,51.46315],[-1.04792,51.46326],[-1.04797,51.46288],[-1.04833,51.4629],[-1.04784,51.46405],[-1.04587,51.46348]]]}},{"type":"Feature","properties":{"id":"E01016432","name":"E01016432","parent":"E06000038","type":"LSOA","pop":1535,"r":229,"ff":75,"ffd":4886.0,"ffs":0.4167,"g":47,"co":0,"mo":2,"sa":0,"ic":0},"geometry":{"type":"Polygon","coordinates":[[[-1.04749,51.46315],[-1.04702,51.4623],[-1.04747,51.46157],[-1.04667,51.46108],[-1.04675,51.46046],[-1.04598,51.46096],[-1.04442,51.45986],[-1.04484,51.45923],[-1.04463,51.45825],[-1.04335,51.45708],[-1.04406,51.45664],[-1.04474,51.45682],[-1.04517,51.45659],[-1.04452,51.45594],[-1.04507,51.45476],[-1.04523,51.45378],[-1.04799,51.45378],[-1.04708,51.45485],[-1.04787,51.45526],[-1.04672,51.45621],[-1.05283,51.46044],[-1.04977,51.4621],[-1.04845,51.46243],[-1.04833,51.4629],[-1.04797,51.46288],[-1.04792,51.46326],[-1.04749,51.46315]]]}},{"type":"Feature","properties":{"id":"E01016433","name":"E01016433","parent":"E06000038","type":"LSOA","pop":1489,"r":261,"ff":92,"ffd":6178.6,"ffs":0.4299,"g":45,"co":0,"mo":2,"sa":0,"ic":0},"geometry":{"type":"Polygon","coordinates":[[[-1.03622,51.46104],[-1.03378,51.45991],[-1.03135,51.4596],[-1.02848,51.45896],[-1.02715,51.459],[-1.0281,51.45794],[-1.02956,51.45724],[-1.03013,51.45799],[-1.03081,51.45772],[-1.03019,51.45684],[-1.03053,51.456],[-1.03163,51.45622],[-1.03129,51.45745],[-1.03145,51.45826],[-1.03203,51.45831],[-1.03283,51.45716],[-1.0345,51.4572],[-1.03467,51.45613],[-1.03556,51.4562],[-1.03564,51.45745],[-1.03651,51.45778],[-1.03637,51.45649],[-1.0369,51.45642],[-1.03692,51.45595],[-1.03832,51.45645],[-1.03884,51.45613],[-1.04165,51.45744],[-1.0411,51.45765],[-1.04137,51.45803],[-1.03968,51.45871],[-1.04001,51.45891],[-1.03895,51.46003],[-1.03771,51.46056],[-1.03724,51.46034],[-1.03622,51.46104]]]}},{"type":"Feature","properties":{"id":"E01016434","name":"E01016434","parent":"E06000038","type":"LSOA","pop":2125,"r":295,"ff":104,"ffd":4894.1,"ffs":0.4315,"g":52,"co":0,"mo":2,"sa":0,"ic":0},"geometry":{"type":"Polygon","coordinates":[[[-1.0235,51.45839],[-1.02264,51.45778],[-1.01976,51.45879],[-1.01945,51.45811],[-1.02212,51.45676],[-1.02166,51.45621],[-1.01819,51.45474],[-1.01693,51.45351],[-1.02089,51.45284],[-1.0226,51.45282],[-1.02324,51.45308],[-1.02715,51.45357],[-1.0275,51.45322],[-1.02704,51.45236],[-1.02583,51.45219],[-1.02645,51.4517],[-1.02644,51.4511],[-1.02675,51.45094],[-1.0305,51.4524],[-1.03078,51.45309],[-1.03189,51.45292],[-1.03199,51.45323],[-1.03126,51.45339],[-1.03208,51.45552],[-1.03042,51.45606],[-1.03019,51.45684],[-1.03081,51.45772],[-1.03013,51.45799],[-1.02956,51.45724],[-1.0281,51.45794],[-1.02715,51.459],[-1.02435,51.45943],[-1.02407,51.4589],[-1.02291,51.45872],[-1.0235,51.45839]]]}},{"type":"Feature","properties":{"id":"E01016435","name":"E01016435","parent":"E06000038","type":"LSOA","pop":1527,"r":273,"ff":93,"ffd":6090.4,"ffs":0.4208,"g":50,"co":0,"mo":2,"sa":0,"ic":0},"geometry":{"type":"Polygon","coordinates":[[[-1.03129,51.45745],[-1.03163,51.45622],[-1.03053,51.456],[-1.03208,51.45552],[-1.03126,51.45339],[-1.03199,51.45323],[-1.03189,51.45292],[-1.03078,51.45309],[-1.0305,51.4524],[-1.02675,51.45094],[-1.0276,51.45084],[-1.03062,51.44986],[-1.03398,51.45273],[-1.03903,51.45269],[-1.03879,51.45325],[-1.03974,51.45372],[-1.03928,51.45418],[-1.03838,51.45434],[-1.03888,51.45461],[-1.03847,51.45489],[-1.03867,51.45548],[-1.03883,51.45521],[-1.04015,51.45519],[-1.04036,51.45562],[-1.04027,51.45597],[-1.03884,51.45613],[-1.03832,51.45645],[-1.03692,51.45595],[-1.0369,51.45642],[-1.03637,51.45649],[-1.03651,51.45778],[-1.03564,51.45745],[-1.03556,51.4562],[-1.03467,51.45613],[-1.0345,51.4572],[-1.03283,51.45716],[-1.03203,51.45831],[-1.03145,51.45826],[-1.03129,51.45745]]]}},{"type":"Feature","properties":{"id":"E01016436","name":"E01016436","parent":"E06000038","type":"LSOA","pop":1583,"r":260,"ff":89,"ffd":5622.2,"ffs":0.4279,"g":50,"co":0,"mo":2,"sa":0,"ic":0},"geometry":{"type":"Polygon","coordinates":[[[-1.04165,51.45744],[-1.03903,51.4562],[-1.04027,51.45597],[-1.04036,51.45562],[-1.04015,51.45519],[-1.03883,51.45521],[-1.03867,51.45548],[-1.03847,51.45489],[-1.03888,51.45461],[-1.03838,51.45434],[-1.03928,51.45418],[-1.03974,51.45372],[-1.03879,51.45325],[-1.03903,51.45269],[-1.03883,51.45263],[-1.04688,51.45021],[-1.04919,51.45141],[-1.0492,51.4537],[-1.04523,51.45378],[-1.04507,51.45476],[-1.04452,51.45594],[-1.04517,51.45659],[-1.04474,51.45682],[-1.04406,51.45664],[-1.04206,51.45772],[-1.04165,51.45744]]]}},{"type":"Feature","properties":{"id":"E01016437","name":"E01016437","parent":"E06000038","type":"LSOA","pop":1440,"r":364,"ff":118,"ffd":8194.4,"ffs":0.426,"g":85,"co":0,"mo":0,"sa":0,"ic":0},"geometry":{"type":"Polygon","coordinates":[[[-0.96887,51.42842],[-0.96903,51.42766],[-0.96756,51.42773],[-0.96789,51.42723],[-0.96728,51.42705],[-0.96744,51.42658],[-0.96697,51.4252],[-0.96623,51.42479],[-0.96885,51.42465],[-0.96827,51.42372],[-0.96862,51.42236],[-0.9677,51.42186],[-0.96726,51.4222],[-0.96749,51.42254],[-0.96525,51.42293],[-0.96497,51.42402],[-0.96392,51.42403],[-0.96422,51.42354],[-0.9637,51.42358],[-0.96358,51.4213],[-0.96392,51.42131],[-0.96419,51.42096],[-0.96486,51.42132],[-0.96541,51.42072],[-0.96694,51.42032],[-0.96738,51.41976],[-0.96809,51.41947],[-0.96879,51.41955],[-0.96889,51.42009],[-0.96971,51.41996],[-0.96966,51.42061],[-0.97289,51.41987],[-0.97459,51.42205],[-0.97631,51.42191],[-0.97684,51.42406],[-0.97891,51.4239],[-0.97948,51.42411],[-0.98027,51.42562],[-0.9809,51.42554],[-0.98125,51.42615],[-0.98123,51.42679],[-0.98053,51.42679],[-0.9802,51.42829],[-0.97954,51.42796],[-0.97766,51.42809],[-0.97594,51.4278],[-0.97575,51.42839],[-0.97359,51.42818],[-0.9741,51.42626],[-0.9709,51.42626],[-0.9702,51.42686],[-0.96935,51.42676],[-0.97014,51.42698],[-0.96938,51.42859],[-0.96887,51.42842]]]}},{"type":"Feature","properties":{"id":"E01016438","name":"E01016438","parent":"E06000038","type":"LSOA","pop":1389,"r":380,"ff":125,"ffd":8999.3,"ffs":0.434,"g":89,"co":0,"mo":0,"sa":0,"ic":0},"geometry":{"type":"Polygon","coordinates":[[[-0.96149,51.42794],[-0.96112,51.42741],[-0.96074,51.42747],[-0.95993,51.42511],[-0.95936,51.4219],[-0.9594,51.42212],[-0.9628,51.42185],[-0.96299,51.4232],[-0.96358,51.42359],[-0.96422,51.42354],[-0.96392,51.42403],[-0.96497,51.42402],[-0.96525,51.42293],[-0.96749,51.42254],[-0.96726,51.4222],[-0.9677,51.42186],[-0.96862,51.42236],[-0.96827,51.42372],[-0.96885,51.42465],[-0.96623,51.42479],[-0.96591,51.42516],[-0.96519,51.42517],[-0.96539,51.42559],[-0.96595,51.42555],[-0.96603,51.42659],[-0.96521,51.42637],[-0.96465,51.42687],[-0.96422,51.42663],[-0.96397,51.4271],[-0.96208,51.42691],[-0.96149,51.42794]]]}},{"type":"Feature","properties":{"id":"E01016439","name":"E01016439","parent":"E06000038","type":"LSOA","pop":2101,"r":378,"ff":122,"ffd":5806.8,"ffs":0.4296,"g":91,"co":0,"mo":0,"sa":0,"ic":0},"geometry":{"type":"Polygon","coordinates":[[[-0.97684,51.42406],[-0.97631,51.42191],[-0.97459,51.42205],[-0.97289,51.41987],[-0.96966,51.42061],[-0.96971,51.41996],[-0.96889,51.42009],[-0.96879,51.41955],[-0.96809,51.41947],[-0.96738,51.41976],[-0.96694,51.42032],[-0.96541,51.42072],[-0.96486,51.42132],[-0.96419,51.42096],[-0.96392,51.42131],[-0.96358,51.4213],[-0.96364,51.41933],[-0.96528,51.41913],[-0.96588,51.41853],[-0.96381,51.4176],[-0.96337,51.4171],[-0.9665,51.416],[-0.96627,51.41654],[-0.96764,51.41806],[-0.9684,51.41775],[-0.96835,51.41701],[-0.96758,51.41621],[-0.96782,51.41556],[-0.96837,51.41531],[-0.97041,51.41354],[-0.97157,51.41335],[-0.97211,51.41386],[-0.97309,51.41256],[-0.97934,51.41252],[-0.98004,51.41358],[-0.97979,51.41456],[-0.981,51.41721],[-0.98194,51.41814],[-0.98337,51.41886],[-0.98056,51.42162],[-0.98009,51.4215],[-0.97904,51.42191],[-0.97912,51.42214],[-0.97869,51.42217],[-0.97917,51.42365],[-0.97891,51.4239],[-0.97684,51.42406]]]}},{"type":"Feature","properties":{"id":"E01016440","name":"E01016440","parent":"E06000038","type":"LSOA","pop":1525,"r":369,"ff":118,"ffd":7737.7,"ffs":0.4291,"g":91,"co":0,"mo":0,"sa":0,"ic":0},"geometry":{"type":"Polygon","coordinates":[[[-0.96299,51.4232],[-0.9628,51.42185],[-0.9594,51.42212],[-0.95889,51.4193],[-0.95715,51.41986],[-0.95705,51.41929],[-0.95987,51.41569],[-0.96106,51.41562],[-0.9613,51.41504],[-0.96217,51.41523],[-0.96213,51.41559],[-0.96113,51.41614],[-0.96152,51.41628],[-0.96214,51.41596],[-0.9632,51.41631],[-0.96348,51.41669],[-0.96261,51.41672],[-0.96337,51.4171],[-0.96381,51.4176],[-0.96588,51.41853],[-0.96528,51.41913],[-0.96364,51.41933],[-0.9637,51.42358],[-0.96299,51.4232]]]}},{"type":"Feature","properties":{"id":"E01016441","name":"E01016441","parent":"E06000038","type":"LSOA","pop":1534,"r":365,"ff":117,"ffd":7627.1,"ffs":0.4317,"g":91,"co":0,"mo":0,"sa":0,"ic":0},"geometry":{"type":"Polygon","coordinates":[[[-0.96627,51.41654],[-0.9665,51.416],[-0.96337,51.4171],[-0.96261,51.41672],[-0.96348,51.41669],[-0.9632,51.41631],[-0.96214,51.41596],[-0.96152,51.41628],[-0.96113,51.41614],[-0.96213,51.41559],[-0.96217,51.41523],[-0.9613,51.41504],[-0.96106,51.41562],[-0.95987,51.41569],[-0.96016,51.41484],[-0.95988,51.41428],[-0.96213,51.41394],[-0.96192,51.41235],[-0.96899,51.41059],[-0.9737,51.40978],[-0.97385,51.41152],[-0.97343,51.41162],[-0.97368,51.41256],[-0.97309,51.41256],[-0.97211,51.41386],[-0.97157,51.41335],[-0.97041,51.41354],[-0.96837,51.41531],[-0.96782,51.41556],[-0.96758,51.41621],[-0.96835,51.41701],[-0.9684,51.41775],[-0.96764,51.41806],[-0.96627,51.41654]]]}},{"type":"Feature","properties":{"id":"E01016443","name":"E01016443","parent":"E06000038","type":"LSOA","pop":1686,"r":370,"ff":127,"ffd":7532.6,"ffs":0.441,"g":80,"co":0,"mo":0,"sa":0,"ic":0},"geometry":{"type":"Polygon","coordinates":[[[-0.96355,51.42971],[-0.9629,51.42921],[-0.96177,51.42995],[-0.96074,51.42747],[-0.96112,51.42741],[-0.96149,51.42794],[-0.96208,51.42691],[-0.96397,51.4271],[-0.96422,51.42663],[-0.96465,51.42687],[-0.96521,51.42637],[-0.96603,51.42659],[-0.96595,51.42555],[-0.96539,51.42559],[-0.96519,51.42517],[-0.96591,51.42516],[-0.96623,51.42481],[-0.96697,51.4252],[-0.96744,51.42658],[-0.96728,51.42705],[-0.96789,51.42723],[-0.96756,51.42773],[-0.96903,51.42766],[-0.96887,51.42842],[-0.96938,51.42859],[-0.96928,51.42883],[-0.96682,51.42977],[-0.96533,51.42871],[-0.96473,51.42928],[-0.96565,51.43149],[-0.96516,51.43167],[-0.96538,51.43216],[-0.96484,51.43227],[-0.96492,51.43334],[-0.9644,51.43364],[-0.96355,51.42971]]]}},{"type":"Feature","properties":{"id":"E01033415","name":"E01033415","parent":"E06000038","type":"LSOA","pop":3091,"r":357,"ff":132,"ffd":4270.5,"ffs":0.4521,"g":63,"co":0,"mo":0,"sa":0,"ic":0},"geometry":{"type":"Polygon","coordinates":[[[-0.96969,51.46173],[-0.96784,51.46101],[-0.96586,51.46115],[-0.96505,51.45993],[-0.96261,51.45857],[-0.964,51.45863],[-0.96743,51.45769],[-0.96298,51.457],[-0.96285,51.45575],[-0.96343,51.45516],[-0.96302,51.45429],[-0.96616,51.45402],[-0.96595,51.45478],[-0.96662,51.45481],[-0.96716,51.45582],[-0.96772,51.456],[-0.96911,51.45501],[-0.96849,51.4538],[-0.97029,51.45437],[-0.97051,51.45485],[-0.97228,51.45458],[-0.97304,51.45404],[-0.974,51.4539],[-0.97492,51.45345],[-0.97461,51.45311],[-0.97524,51.45269],[-0.97574,51.45292],[-0.97726,51.45254],[-0.97811,51.4534],[-0.97666,51.4541],[-0.97597,51.45488],[-0.97618,51.45536],[-0.9773,51.45528],[-0.97749,51.45612],[-0.97838,51.45615],[-0.97852,51.45632],[-0.97787,51.4568],[-0.97796,51.45754],[-0.97915,51.45744],[-0.97816,51.45811],[-0.97839,51.45841],[-0.97792,51.45845],[-0.97843,51.45945],[-0.97664,51.45938],[-0.97582,51.46042],[-0.97689,51.46071],[-0.97705,51.46098],[-0.9768,51.46131],[-0.97557,51.461],[-0.9758,51.46199],[-0.97495,51.46202],[-0.97519,51.46245],[-0.97468,51.46271],[-0.97286,51.46175],[-0.97216,51.46233],[-0.97225,51.46326],[-0.97046,51.46295],[-0.96969,51.46173]]]}},{"type":"Feature","properties":{"id":"E01033417","name":"E01033417","parent":"E06000038","type":"LSOA","pop":1154,"r":374,"ff":134,"ffd":11611.8,"ffs":0.4452,"g":71,"co":0,"mo":0,"sa":0,"ic":0},"geometry":{"type":"Polygon","coordinates":[[[-0.9586,51.45393],[-0.95874,51.45292],[-0.95824,51.45169],[-0.96317,51.45103],[-0.96359,51.45189],[-0.96295,51.45217],[-0.96268,51.4528],[-0.96193,51.45302],[-0.96179,51.45259],[-0.96127,51.4529],[-0.96227,51.45361],[-0.96181,51.4539],[-0.96189,51.45407],[-0.96103,51.45416],[-0.96111,51.45377],[-0.95981,51.45421],[-0.9586,51.45393]]]}},{"type":"Feature","properties":{"id":"E01033418","name":"E01033418","parent":"E06000038","type":"LSOA","pop":2124,"r":369,"ff":135,"ffd":6355.9,"ffs":0.45,"g":67,"co":0,"mo":0,"sa":0,"ic":0},"geometry":{"type":"Polygon","coordinates":[[[-0.95545,51.46126],[-0.94917,51.45951],[-0.94963,51.45856],[-0.96062,51.45848],[-0.96091,51.45727],[-0.95805,51.4562],[-0.96121,51.45495],[-0.96207,51.45493],[-0.96181,51.4539],[-0.96227,51.45361],[-0.96127,51.4529],[-0.96179,51.45259],[-0.96193,51.45302],[-0.96268,51.4528],[-0.96295,51.45217],[-0.96359,51.45189],[-0.96426,51.45331],[-0.9668,51.45356],[-0.96616,51.45402],[-0.96302,51.45429],[-0.96343,51.45516],[-0.96285,51.45575],[-0.96298,51.457],[-0.96743,51.45769],[-0.964,51.45863],[-0.96261,51.45857],[-0.96505,51.45993],[-0.96586,51.46115],[-0.96251,51.46107],[-0.96078,51.46247],[-0.95975,51.4628],[-0.95795,51.46275],[-0.95545,51.46126]]]}},{"type":"Feature","properties":{"id":"E01033420","name":"E01033420","parent":"E06000038","type":"LSOA","pop":1412,"r":369,"ff":136,"ffd":9631.7,"ffs":0.4503,"g":65,"co":0,"mo":0,"sa":0,"ic":0},"geometry":{"type":"Polygon","coordinates":[[[-0.96616,51.45402],[-0.9668,51.45356],[-0.96836,51.45332],[-0.973,51.45099],[-0.97446,51.45044],[-0.97597,51.45065],[-0.97676,51.45124],[-0.97759,51.45232],[-0.97936,51.45172],[-0.97949,51.45208],[-0.97918,51.45234],[-0.97973,51.45305],[-0.97908,51.45325],[-0.97911,51.45293],[-0.97869,51.45301],[-0.97878,51.4533],[-0.97811,51.4534],[-0.97726,51.45254],[-0.97574,51.45292],[-0.97524,51.45269],[-0.97461,51.45311],[-0.97492,51.45345],[-0.974,51.4539],[-0.97304,51.45404],[-0.97228,51.45458],[-0.97051,51.45485],[-0.97029,51.45437],[-0.96849,51.4538],[-0.96911,51.45501],[-0.96772,51.456],[-0.96716,51.45582],[-0.96662,51.45481],[-0.96595,51.45478],[-0.96616,51.45402]]]}},{"type":"Feature","properties":{"id":"E01033421","name":"E01033421","parent":"E06000038","type":"LSOA","pop":2417,"r":368,"ff":134,"ffd":5544.1,"ffs":0.4467,"g":66,"co":0,"mo":0,"sa":0,"ic":0},"geometry":{"type":"Polygon","coordinates":[[[-0.94963,51.45856],[-0.95001,51.45787],[-0.95196,51.45711],[-0.95147,51.45657],[-0.95204,51.45641],[-0.95151,51.45573],[-0.95183,51.4555],[-0.95061,51.45462],[-0.95074,51.45434],[-0.95163,51.45439],[-0.95206,51.45326],[-0.9586,51.45393],[-0.95981,51.45421],[-0.96111,51.45377],[-0.96103,51.45416],[-0.96189,51.45407],[-0.96203,51.45432],[-0.96207,51.45493],[-0.96121,51.45495],[-0.95805,51.4562],[-0.96091,51.45727],[-0.96062,51.45848],[-0.94963,51.45856]]]}},{"type":"Feature","properties":{"id":"E01033422","name":"E01033422","parent":"E06000038","type":"LSOA","pop":1497,"r":363,"ff":134,"ffd":8951.2,"ffs":0.4497,"g":63,"co":0,"mo":0,"sa":0,"ic":0},"geometry":{"type":"Polygon","coordinates":[[[-0.98047,51.45612],[-0.97919,51.45506],[-0.98029,51.455],[-0.98002,51.45339],[-0.98065,51.4536],[-0.98094,51.45442],[-0.98061,51.45464],[-0.98131,51.45474],[-0.98109,51.45312],[-0.98156,51.45251],[-0.98236,51.45251],[-0.98234,51.45172],[-0.98281,51.45132],[-0.98387,51.45183],[-0.98678,51.4526],[-0.9865,51.45351],[-0.98566,51.45343],[-0.98557,51.45372],[-0.98446,51.4537],[-0.98428,51.45329],[-0.98418,51.45351],[-0.98399,51.45327],[-0.98371,51.45361],[-0.98328,51.4535],[-0.98291,51.45461],[-0.98355,51.45476],[-0.98354,51.45526],[-0.98512,51.45538],[-0.98499,51.45575],[-0.98409,51.45641],[-0.98367,51.45641],[-0.98332,51.45588],[-0.98095,51.45653],[-0.98047,51.45612]]]}},{"type":"Feature","properties":{"id":"E01033423","name":"E01033423","parent":"E06000038","type":"LSOA","pop":2046,"r":373,"ff":136,"ffd":6647.1,"ffs":0.4474,"g":67,"co":0,"mo":0,"sa":0,"ic":0},"geometry":{"type":"Polygon","coordinates":[[[-0.97749,51.45612],[-0.9773,51.45528],[-0.97618,51.45536],[-0.97597,51.45488],[-0.97666,51.4541],[-0.97811,51.4534],[-0.97878,51.4533],[-0.97869,51.45301],[-0.97911,51.45293],[-0.97908,51.45325],[-0.97973,51.45305],[-0.97918,51.45234],[-0.97949,51.45208],[-0.97936,51.45172],[-0.98251,51.45118],[-0.98281,51.45132],[-0.98234,51.45172],[-0.98236,51.45251],[-0.98156,51.45251],[-0.98109,51.45312],[-0.98131,51.45474],[-0.98061,51.45464],[-0.98094,51.45442],[-0.98065,51.4536],[-0.98002,51.45339],[-0.98029,51.455],[-0.97919,51.45506],[-0.98074,51.4563],[-0.97949,51.4565],[-0.97852,51.45632],[-0.97838,51.45615],[-0.97749,51.45612]]]}},{"type":"Feature","properties":{"id":"E01033838","name":"E01033838","parent":"E06000038","type":"LSOA","pop":1667,"r":370,"ff":136,"ffd":8158.4,"ffs":0.4503,"g":66,"co":0,"mo":0,"sa":0,"ic":0},"geometry":{"type":"Polygon","coordinates":[[[-0.968,51.45204],[-0.96696,51.45043],[-0.9664,51.44898],[-0.9669,51.44866],[-0.96812,51.44873],[-0.96854,51.44914],[-0.96897,51.44902],[-0.96992,51.45005],[-0.9703,51.44971],[-0.97078,51.45008],[-0.97122,51.44958],[-0.97218,51.45001],[-0.97291,51.44963],[-0.97308,51.45025],[-0.97256,51.45035],[-0.97248,51.45069],[-0.973,51.45099],[-0.96836,51.45332],[-0.968,51.45204]]]}},{"type":"Feature","properties":{"id":"E01033839","name":"E01033839","parent":"E06000038","type":"LSOA","pop":1916,"r":372,"ff":130,"ffd":6785.0,"ffs":0.4392,"g":74,"co":0,"mo":0,"sa":0,"ic":0},"geometry":{"type":"Polygon","coordinates":[[[-0.96335,51.45099],[-0.96258,51.44888],[-0.96409,51.44866],[-0.96347,51.44669],[-0.96414,51.44655],[-0.9644,51.44701],[-0.96441,51.44757],[-0.9657,51.448],[-0.96557,51.44899],[-0.9664,51.44898],[-0.96696,51.45043],[-0.968,51.45204],[-0.96836,51.45332],[-0.9668,51.45356],[-0.96426,51.45331],[-0.96317,51.45103],[-0.96335,51.45099]]]}},{"type":"Feature","properties":{"id":"E01033857","name":"E01033857","parent":"E06000038","type":"LSOA","pop":2243,"r":365,"ff":131,"ffd":5840.4,"ffs":0.4486,"g":71,"co":0,"mo":0,"sa":0,"ic":0},"geometry":{"type":"Polygon","coordinates":[[[-0.96594,51.43583],[-0.9628,51.43382],[-0.96177,51.42995],[-0.9629,51.42921],[-0.96355,51.42971],[-0.9644,51.43364],[-0.96492,51.43334],[-0.96484,51.43227],[-0.96538,51.43216],[-0.96516,51.43167],[-0.96565,51.43149],[-0.96473,51.42928],[-0.96533,51.42871],[-0.96682,51.42977],[-0.96928,51.42883],[-0.97014,51.42698],[-0.96935,51.42676],[-0.9702,51.42686],[-0.9709,51.42626],[-0.9741,51.42626],[-0.97359,51.42818],[-0.97443,51.42836],[-0.97421,51.42967],[-0.97456,51.4297],[-0.97396,51.43063],[-0.97353,51.4306],[-0.9741,51.42899],[-0.97374,51.42893],[-0.973,51.43056],[-0.97081,51.43042],[-0.97056,51.4319],[-0.97161,51.43392],[-0.97165,51.43514],[-0.97075,51.43565],[-0.96829,51.43551],[-0.96796,51.43697],[-0.96594,51.43583]]]}},{"type":"Feature","properties":{"id":"E01033858","name":"E01033858","parent":"E06000038","type":"LSOA","pop":2371,"r":367,"ff":129,"ffd":5440.7,"ffs":0.4464,"g":76,"co":0,"mo":0,"sa":0,"ic":0},"geometry":{"type":"Polygon","coordinates":[[[-0.99291,51.43431],[-0.98749,51.43387],[-0.98529,51.43434],[-0.98333,51.43357],[-0.98109,51.43395],[-0.97934,51.43476],[-0.97798,51.43509],[-0.97811,51.43326],[-0.97868,51.43137],[-0.97684,51.43108],[-0.97682,51.43022],[-0.97607,51.43025],[-0.97553,51.42953],[-0.97515,51.42962],[-0.97467,51.43006],[-0.97508,51.43072],[-0.97457,51.43181],[-0.97363,51.43198],[-0.97355,51.43253],[-0.97443,51.43262],[-0.97452,51.43342],[-0.9756,51.4337],[-0.9747,51.43481],[-0.97165,51.43514],[-0.97161,51.43392],[-0.97056,51.4319],[-0.97081,51.43042],[-0.973,51.43056],[-0.97374,51.42893],[-0.9741,51.42899],[-0.97353,51.4306],[-0.97396,51.43063],[-0.97456,51.4297],[-0.97421,51.42967],[-0.97443,51.42836],[-0.97575,51.42839],[-0.97594,51.4278],[-0.97766,51.42809],[-0.97954,51.42796],[-0.9802,51.42829],[-0.98053,51.42679],[-0.98123,51.42679],[-0.98125,51.42615],[-0.9809,51.42554],[-0.98027,51.42562],[-0.97948,51.42411],[-0.97891,51.4239],[-0.97917,51.42365],[-0.97869,51.42217],[-0.97912,51.42214],[-0.97904,51.42191],[-0.98009,51.4215],[-0.98056,51.42162],[-0.98149,51.42066],[-0.98446,51.42134],[-0.98479,51.42198],[-0.9877,51.4208],[-0.99144,51.42047],[-0.99316,51.41946],[-0.99627,51.41959],[-0.99661,51.42167],[-0.99865,51.42482],[-0.99939,51.42485],[-1.00124,51.42584],[-0.9995,51.43667],[-0.99624,51.43569],[-0.99639,51.43524],[-0.99553,51.43481],[-0.99291,51.43431]]]}},{"type":"Feature","properties":{"id":"E01033859","name":"E01033859","parent":"E06000038","type":"LSOA","pop":1473,"r":367,"ff":130,"ffd":8825.5,"ffs":0.4498,"g":76,"co":0,"mo":0,"sa":0,"ic":0},"geometry":{"type":"Polygon","coordinates":[[[-0.97508,51.43072],[-0.97467,51.43006],[-0.97515,51.42962],[-0.97553,51.42953],[-0.97607,51.43025],[-0.97682,51.43022],[-0.97684,51.43108],[-0.97868,51.43137],[-0.97811,51.43326],[-0.97798,51.43509],[-0.97652,51.4356],[-0.97589,51.43642],[-0.97075,51.43565],[-0.97165,51.43514],[-0.9747,51.43481],[-0.9756,51.4337],[-0.97452,51.43342],[-0.97443,51.43262],[-0.97355,51.43253],[-0.97363,51.43198],[-0.97457,51.43181],[-0.97508,51.43072]]]}}]}