{"type":"FeatureCollection","features":[{"type":"Feature","properties":{"id":"E01016180","name":"E01016180","parent":"E06000036","type":"LSOA","pop":1360,"r":159,"ff":48,"ffd":3529.4,"ffs":0.4486,"g":50,"co":2,"mo":0,"sa":0,"ic":1},"geometry":{"type":"Polygon","coordinates":[[[-0.6983,51.41758],[-0.69691,51.41751],[-0.6965,51.41784],[-0.6958,51.41772],[-0.69609,51.41743],[-0.69556,51.41674],[-0.69618,51.41636],[-0.69687,51.41662],[-0.69904,51.4143],[-0.69842,51.41403],[-0.69899,51.41375],[-0.6994,51.41391],[-0.70004,51.41323],[-0.69613,51.41299],[-0.69619,51.41137],[-0.70091,51.41165],[-0.70119,51.41057],[-0.70047,51.40902],[-0.70505,51.4103],[-0.70563,51.40996],[-0.70561,51.40881],[-0.70477,51.40732],[-0.70651,51.40769],[-0.70799,51.4165],[-0.70374,51.41613],[-0.70288,51.41871],[-0.69893,51.41823],[-0.69894,51.41776],[-0.6983,51.41758]]]}},{"type":"Feature","properties":{"id":"E01016181","name":"E01016181","parent":"E06000036","type":"LSOA","pop":1977,"r":205,"ff":63,"ffd":3186.6,"ffs":0.4565,"g":65,"co":2,"mo":0,"sa":0,"ic":1},"geometry":{"type":"Polygon","coordinates":[[[-0.69949,51.42229],[-0.70098,51.41949],[-0.70018,51.4192],[-0.70006,51.41963],[-0.69869,51.41949],[-0.69821,51.41866],[-0.69747,51.41868],[-0.69766,51.4181],[-0.6965,51.41784],[-0.69691,51.41751],[-0.69894,51.41776],[-0.69893,51.41823],[-0.70288,51.41871],[-0.70374,51.41613],[-0.70799,51.4165],[-0.70651,51.40769],[-0.70477,51.40732],[-0.70561,51.40881],[-0.70563,51.40996],[-0.70505,51.4103],[-0.70047,51.40902],[-0.70119,51.41057],[-0.70091,51.41165],[-0.69619,51.41137],[-0.69654,51.41091],[-0.69175,51.40665],[-0.68716,51.40349],[-0.68535,51.40142],[-0.67943,51.39305],[-0.67316,51.38874],[-0.67139,51.38578],[-0.66763,51.38457],[-0.69651,51.37455],[-0.71049,51.37067],[-0.72429,51.36846],[-0.73185,51.36643],[-0.73533,51.36501],[-0.72732,51.38479],[-0.73185,51.39005],[-0.73418,51.39086],[-0.7342,51.39121],[-0.72901,51.39322],[-0.72834,51.39386],[-0.72765,51.39607],[-0.7242,51.4],[-0.72336,51.40257],[-0.72277,51.40257],[-0.72159,51.40416],[-0.7209,51.40603],[-0.72081,51.40734],[-0.71879,51.41027],[-0.71855,51.41254],[-0.71956,51.41244],[-0.72003,51.41271],[-0.71757,51.41463],[-0.71948,51.41557],[-0.72095,51.41726],[-0.72071,51.41979],[-0.72028,51.42016],[-0.716,51.42068],[-0.71632,51.42251],[-0.71462,51.42264],[-0.70919,51.42113],[-0.70839,51.42191],[-0.70683,51.42157],[-0.70622,51.42175],[-0.70607,51.4222],[-0.69986,51.42386],[-0.69949,51.42229]]]}},{"type":"Feature","properties":{"id":"E01016182","name":"E01016182","parent":"E06000036","type":"LSOA","pop":1555,"r":140,"ff":45,"ffd":2893.9,"ffs":0.4737,"g":43,"co":2,"mo":0,"sa":0,"ic":1},"geometry":{"type":"Polygon","coordinates":[[[-0.67877,51.42847],[-0.68083,51.42511],[-0.68486,51.42158],[-0.6895,51.41918],[-0.69027,51.41933],[-0.69034,51.41968],[-0.68869,51.42044],[-0.68859,51.42071],[-0.69001,51.42093],[-0.6888,51.42189],[-0.68912,51.42215],[-0.69184,51.42055],[-0.69101,51.42037],[-0.69118,51.41964],[-0.69063,51.41913],[-0.69093,51.41894],[-0.69244,51.41943],[-0.69286,51.41897],[-0.69341,51.41929],[-0.69482,51.41939],[-0.69493,51.41909],[-0.69434,51.41889],[-0.69477,51.4185],[-0.69464,51.41795],[-0.69408,51.41771],[-0.69471,51.41714],[-0.69506,51.41731],[-0.69476,51.41756],[-0.69523,51.41738],[-0.6958,51.41772],[-0.69766,51.4181],[-0.69747,51.41868],[-0.69821,51.41866],[-0.69869,51.41949],[-0.70006,51.41963],[-0.70018,51.4192],[-0.70098,51.41949],[-0.69949,51.42229],[-0.69986,51.42386],[-0.70198,51.42336],[-0.7033,51.42398],[-0.70063,51.42677],[-0.69833,51.42627],[-0.6975,51.42634],[-0.69521,51.4252],[-0.69238,51.42601],[-0.69229,51.42711],[-0.69122,51.42887],[-0.68789,51.42835],[-0.6857,51.42833],[-0.68343,51.42864],[-0.67898,51.42995],[-0.67877,51.42847]]]}},{"type":"Feature","properties":{"id":"E01016183","name":"E01016183","parent":"E06000036","type":"LSOA","pop":1347,"r":155,"ff":47,"ffd":3489.2,"ffs":0.4476,"g":48,"co":2,"mo":0,"sa":0,"ic":1},"geometry":{"type":"Polygon","coordinates":[[[-0.68918,51.42091],[-0.68906,51.42066],[-0.68859,51.42071],[-0.68869,51.42044],[-0.69034,51.41968],[-0.69027,51.41933],[-0.6895,51.41918],[-0.69102,51.41786],[-0.69372,51.41496],[-0.69613,51.41299],[-0.70004,51.41323],[-0.6994,51.41391],[-0.69899,51.41375],[-0.69842,51.41403],[-0.69904,51.4143],[-0.69687,51.41662],[-0.69618,51.41636],[-0.69556,51.41674],[-0.69609,51.41743],[-0.6958,51.41772],[-0.69523,51.41738],[-0.69476,51.41756],[-0.69506,51.41731],[-0.69471,51.41714],[-0.69408,51.41771],[-0.69464,51.41795],[-0.69477,51.4185],[-0.69434,51.41889],[-0.69493,51.41909],[-0.69482,51.41939],[-0.69341,51.41929],[-0.69286,51.41897],[-0.69244,51.41943],[-0.69093,51.41894],[-0.69063,51.41913],[-0.69118,51.41964],[-0.69101,51.42037],[-0.69184,51.42055],[-0.68912,51.42215],[-0.6888,51.42189],[-0.69001,51.42093],[-0.68918,51.42091]]]}},{"type":"Feature","properties":{"id":"E01016185","name":"E01016185","parent":"E06000036","type":"LSOA","pop":1413,"r":270,"ff":77,"ffd":5449.4,"ffs":0.4302,"g":90,"co":0,"mo":0,"sa":0,"ic":0},"geometry":{"type":"Polygon","coordinates":[[[-0.78948,51.431],[-0.78835,51.42966],[-0.78742,51.42988],[-0.78139,51.42891],[-0.78069,51.42927],[-0.77863,51.42226],[-0.77636,51.42277],[-0.77632,51.42308],[-0.77606,51.42287],[-0.77586,51.42326],[-0.77469,51.42255],[-0.7787,51.42142],[-0.77358,51.42022],[-0.77387,51.4187],[-0.77309,51.41804],[-0.77073,51.41723],[-0.77092,51.4164],[-0.77482,51.41258],[-0.77776,51.41249],[-0.78419,51.41109],[-0.77957,51.41412],[-0.7796,51.41456],[-0.78062,51.41468],[-0.78043,51.41638],[-0.78214,51.41736],[-0.78054,51.41768],[-0.77907,51.41768],[-0.77616,51.41949],[-0.77608,51.41984],[-0.77687,51.41966],[-0.7782,51.41986],[-0.78026,51.42106],[-0.78351,51.42019],[-0.7832,51.42109],[-0.78422,51.42206],[-0.78502,51.42211],[-0.78445,51.42138],[-0.78494,51.42114],[-0.78484,51.4208],[-0.78415,51.42062],[-0.78415,51.42006],[-0.7852,51.41978],[-0.78593,51.42179],[-0.7849,51.42283],[-0.78411,51.42262],[-0.78651,51.42413],[-0.78825,51.42799],[-0.78941,51.42802],[-0.79024,51.42934],[-0.79001,51.42956],[-0.79134,51.42975],[-0.79069,51.43055],[-0.79144,51.43068],[-0.7916,51.43116],[-0.79014,51.43147],[-0.79035,51.43182],[-0.78976,51.432],[-0.78979,51.43156],[-0.78907,51.43155],[-0.78948,51.431]]]}},{"type":"Feature","properties":{"id":"E01016187","name":"E01016187","parent":"E06000036","type":"LSOA","pop":1606,"r":301,"ff":90,"ffd":5604.0,"ffs":0.4348,"g":91,"co":2,"mo":0,"sa":0,"ic":0},"geometry":{"type":"Polygon","coordinates":[[[-0.78898,51.43745],[-0.78865,51.43723],[-0.78922,51.43648],[-0.78886,51.43602],[-0.78969,51.43578],[-0.7873,51.43546],[-0.78791,51.43488],[-0.78679,51.43465],[-0.78799,51.43137],[-0.78765,51.43142],[-0.7872,51.43082],[-0.78559,51.43153],[-0.78372,51.4318],[-0.78434,51.43208],[-0.78218,51.43236],[-0.78069,51.42927],[-0.78139,51.42891],[-0.78742,51.42988],[-0.78835,51.42966],[-0.78948,51.431],[-0.78907,51.43155],[-0.78979,51.43156],[-0.78976,51.432],[-0.79035,51.43182],[-0.79014,51.43147],[-0.7916,51.43116],[-0.79144,51.43068],[-0.79069,51.43055],[-0.79134,51.42975],[-0.79001,51.42956],[-0.79024,51.42934],[-0.79209,51.42905],[-0.79172,51.42823],[-0.79203,51.42791],[-0.79144,51.42765],[-0.79102,51.42786],[-0.79027,51.42742],[-0.78984,51.42708],[-0.7898,51.42612],[-0.79064,51.42642],[-0.79205,51.42543],[-0.79483,51.42426],[-0.79794,51.42374],[-0.79835,51.43386],[-0.79701,51.43379],[-0.79715,51.43439],[-0.79593,51.43432],[-0.79596,51.4346],[-0.79381,51.43443],[-0.79271,51.43509],[-0.79254,51.43605],[-0.79092,51.43623],[-0.79079,51.43676],[-0.7903,51.43681],[-0.79048,51.43733],[-0.7909,51.43708],[-0.79126,51.43744],[-0.79288,51.43748],[-0.78984,51.43811],[-0.78829,51.43772],[-0.78898,51.43745]]]}},{"type":"Feature","properties":{"id":"E01016188","name":"E01016188","parent":"E06000036","type":"LSOA","pop":2657,"r":246,"ff":68,"ffd":2559.3,"ffs":0.4121,"g":80,"co":0,"mo":0,"sa":0,"ic":0},"geometry":{"type":"Polygon","coordinates":[[[-0.76914,51.43485],[-0.77072,51.43053],[-0.77063,51.42934],[-0.76799,51.4284],[-0.764,51.42513],[-0.76968,51.42394],[-0.77469,51.42255],[-0.77586,51.42326],[-0.77606,51.42287],[-0.77632,51.42308],[-0.77636,51.42277],[-0.77863,51.42226],[-0.78069,51.42927],[-0.78218,51.43236],[-0.78434,51.43208],[-0.78433,51.43253],[-0.78189,51.43282],[-0.78193,51.43352],[-0.78043,51.43336],[-0.78019,51.43262],[-0.77905,51.43278],[-0.77943,51.43324],[-0.7779,51.43352],[-0.77747,51.43504],[-0.77641,51.43489],[-0.77473,51.43594],[-0.76914,51.43485]]]}},{"type":"Feature","properties":{"id":"E01016190","name":"E01016190","parent":"E06000036","type":"LSOA","pop":1602,"r":217,"ff":60,"ffd":3745.3,"ffs":0.411,"g":69,"co":0,"mo":0,"sa":0,"ic":0},"geometry":{"type":"Polygon","coordinates":[[[-0.74446,51.42538],[-0.74205,51.42477],[-0.74181,51.425],[-0.74046,51.42476],[-0.74347,51.42141],[-0.74173,51.42105],[-0.73703,51.42054],[-0.73347,51.42063],[-0.73232,51.41947],[-0.73299,51.41895],[-0.73247,51.4166],[-0.73385,51.41642],[-0.73351,51.41689],[-0.73401,51.41704],[-0.73429,51.41668],[-0.735,51.41695],[-0.73523,51.41899],[-0.73616,51.41905],[-0.7367,51.41974],[-0.73744,51.4194],[-0.73704,51.41947],[-0.73718,51.41893],[-0.73648,51.4185],[-0.73754,51.41767],[-0.73819,51.41784],[-0.73802,51.41756],[-0.7387,51.41729],[-0.74196,51.41689],[-0.74278,51.41738],[-0.74408,51.41693],[-0.74419,51.41754],[-0.74507,51.41769],[-0.74444,51.4179],[-0.74387,51.41953],[-0.7448,51.42261],[-0.74457,51.42574],[-0.74476,51.42716],[-0.74338,51.42738],[-0.74279,51.42731],[-0.74301,51.42685],[-0.74446,51.42538]]]}},{"type":"Feature","properties":{"id":"E01016191","name":"E01016191","parent":"E06000036","type":"LSOA","pop":1721,"r":187,"ff":54,"ffd":3137.7,"ffs":0.4286,"g":59,"co":0,"mo":0,"sa":0,"ic":0},"geometry":{"type":"Polygon","coordinates":[[[-0.72581,51.4194],[-0.72245,51.41914],[-0.72078,51.41927],[-0.72095,51.41726],[-0.71948,51.41557],[-0.71757,51.41463],[-0.72003,51.41271],[-0.72591,51.41282],[-0.72488,51.41612],[-0.72572,51.4167],[-0.72505,51.41727],[-0.72674,51.41751],[-0.72774,51.41725],[-0.72907,51.41569],[-0.72954,51.41572],[-0.72971,51.41619],[-0.73051,51.41614],[-0.73187,51.41542],[-0.73231,51.41557],[-0.73299,51.41895],[-0.73232,51.41947],[-0.73347,51.42063],[-0.73067,51.42056],[-0.72581,51.4194]]]}},{"type":"Feature","properties":{"id":"E01016192","name":"E01016192","parent":"E06000036","type":"LSOA","pop":1362,"r":316,"ff":120,"ffd":8810.6,"ffs":0.543,"g":92,"co":0,"mo":2,"sa":0,"ic":0},"geometry":{"type":"Polygon","coordinates":[[[-0.79038,51.34892],[-0.79012,51.34756],[-0.7905,51.34713],[-0.78881,51.34616],[-0.79253,51.3451],[-0.79288,51.34382],[-0.79118,51.34155],[-0.79267,51.34069],[-0.79272,51.33993],[-0.79327,51.34002],[-0.79411,51.34104],[-0.79522,51.34105],[-0.79837,51.34178],[-0.7989,51.34151],[-0.80139,51.34148],[-0.8013,51.34371],[-0.80063,51.34484],[-0.80347,51.34638],[-0.80311,51.34682],[-0.80213,51.34624],[-0.80084,51.34627],[-0.79991,51.34582],[-0.79981,51.34617],[-0.79897,51.34615],[-0.79898,51.34665],[-0.79856,51.34664],[-0.79859,51.34607],[-0.79688,51.34612],[-0.79636,51.34655],[-0.79656,51.34709],[-0.79608,51.3482],[-0.79536,51.34821],[-0.79523,51.3485],[-0.79478,51.34843],[-0.79446,51.34868],[-0.79278,51.3488],[-0.79157,51.34824],[-0.79099,51.349],[-0.79038,51.34892]]]}},{"type":"Feature","properties":{"id":"E01016193","name":"E01016193","parent":"E06000036","type":"LSOA","pop":1221,"r":289,"ff":104,"ffd":8517.6,"ffs":0.5174,"g":86,"co":0,"mo":0,"sa":0,"ic":0},"geometry":{"type":"Polygon","coordinates":[[[-0.77912,51.34845],[-0.78076,51.34554],[-0.78315,51.34669],[-0.78386,51.34783],[-0.78481,51.34768],[-0.78499,51.34575],[-0.78698,51.3463],[-0.78717,51.34676],[-0.78622,51.34762],[-0.78768,51.34753],[-0.78884,51.34812],[-0.78872,51.34897],[-0.78753,51.34917],[-0.78762,51.34851],[-0.78684,51.34812],[-0.78645,51.3485],[-0.78556,51.34867],[-0.7867,51.35051],[-0.78261,51.34989],[-0.78277,51.34923],[-0.77912,51.34845]]]}},{"type":"Feature","properties":{"id":"E01016194","name":"E01016194","parent":"E06000036","type":"LSOA","pop":1210,"r":316,"ff":120,"ffd":9917.4,"ffs":0.543,"g":92,"co":0,"mo":2,"sa":0,"ic":0},"geometry":{"type":"Polygon","coordinates":[[[-0.78017,51.35915],[-0.77964,51.35859],[-0.78444,51.35814],[-0.78725,51.35654],[-0.78824,51.35501],[-0.78822,51.35322],[-0.79004,51.35458],[-0.79144,51.35375],[-0.79181,51.35313],[-0.79142,51.35227],[-0.79305,51.34987],[-0.79264,51.3494],[-0.79278,51.3488],[-0.79446,51.34868],[-0.79478,51.34843],[-0.79523,51.3485],[-0.79536,51.34821],[-0.79608,51.3482],[-0.79656,51.34709],[-0.79636,51.34655],[-0.79688,51.34612],[-0.79859,51.34607],[-0.79856,51.34664],[-0.79898,51.34665],[-0.79897,51.34615],[-0.79981,51.34617],[-0.79991,51.34582],[-0.80084,51.34627],[-0.80213,51.34624],[-0.80311,51.34682],[-0.80208,51.34935],[-0.79986,51.35114],[-0.799,51.35295],[-0.79871,51.35503],[-0.7985,51.3603],[-0.78017,51.35915]]]}},{"type":"Feature","properties":{"id":"E01016195","name":"E01016195","parent":"E06000036","type":"LSOA","pop":1189,"r":325,"ff":115,"ffd":9672.0,"ffs":0.5251,"g":103,"co":0,"mo":2,"sa":0,"ic":0},"geometry":{"type":"Polygon","coordinates":[[[-0.78668,51.35047],[-0.78556,51.34867],[-0.78645,51.3485],[-0.78684,51.34812],[-0.78762,51.34851],[-0.78753,51.34917],[-0.78872,51.34897],[-0.78884,51.34812],[-0.78768,51.34753],[-0.78622,51.34762],[-0.78717,51.34676],[-0.78698,51.3463],[-0.78499,51.34575],[-0.78568,51.34506],[-0.78731,51.34224],[-0.78687,51.34114],[-0.78518,51.34017],[-0.78305,51.33946],[-0.78464,51.33823],[-0.78628,51.33859],[-0.78708,51.33919],[-0.78906,51.33919],[-0.78921,51.33958],[-0.78998,51.3398],[-0.79272,51.33993],[-0.79267,51.34069],[-0.79118,51.34155],[-0.79288,51.34382],[-0.79253,51.3451],[-0.78881,51.34616],[-0.7905,51.34713],[-0.79012,51.34756],[-0.79038,51.34892],[-0.79099,51.349],[-0.79157,51.34824],[-0.79278,51.3488],[-0.79264,51.3494],[-0.79305,51.34987],[-0.79142,51.35227],[-0.79181,51.35313],[-0.79144,51.35375],[-0.79004,51.35458],[-0.78822,51.35322],[-0.78668,51.35047]]]}},{"type":"Feature","properties":{"id":"E01016196","name":"E01016196","parent":"E06000036","type":"LSOA","pop":2307,"r":332,"ff":118,"ffd":5114.9,"ffs":0.5221,"g":103,"co":0,"mo":2,"sa":0,"ic":0},"geometry":{"type":"Polygon","coordinates":[[[-0.75547,51.35633],[-0.75138,51.35543],[-0.74878,51.35267],[-0.74805,51.35235],[-0.74975,51.34993],[-0.75236,51.34854],[-0.75409,51.34627],[-0.75721,51.34414],[-0.75944,51.34347],[-0.75819,51.34057],[-0.76038,51.34026],[-0.76143,51.34041],[-0.76466,51.33703],[-0.76897,51.33549],[-0.77279,51.33278],[-0.77547,51.33196],[-0.77659,51.33317],[-0.77743,51.33331],[-0.78095,51.33502],[-0.78278,51.33569],[-0.78266,51.33595],[-0.78333,51.33636],[-0.78329,51.33736],[-0.78464,51.33823],[-0.78305,51.33946],[-0.7803,51.33843],[-0.77978,51.33802],[-0.77614,51.33775],[-0.77551,51.33865],[-0.77609,51.33881],[-0.7757,51.33919],[-0.77509,51.3392],[-0.77475,51.34008],[-0.77582,51.33963],[-0.77706,51.34041],[-0.77661,51.34052],[-0.7786,51.34162],[-0.77911,51.34254],[-0.78045,51.34264],[-0.78136,51.34317],[-0.7802,51.34513],[-0.77783,51.34466],[-0.77836,51.34377],[-0.77763,51.34325],[-0.77627,51.34558],[-0.77587,51.34576],[-0.77471,51.34513],[-0.77373,51.3468],[-0.7731,51.34813],[-0.77471,51.34822],[-0.77303,51.35112],[-0.77182,51.35094],[-0.77143,51.35179],[-0.77109,51.3516],[-0.76987,51.35209],[-0.76852,51.35306],[-0.76527,51.35453],[-0.76297,51.35462],[-0.76146,51.35585],[-0.75686,51.35579],[-0.75547,51.35633]]]}},{"type":"Feature","properties":{"id":"E01016197","name":"E01016197","parent":"E06000036","type":"LSOA","pop":1418,"r":289,"ff":104,"ffd":7334.3,"ffs":0.5174,"g":86,"co":0,"mo":0,"sa":0,"ic":0},"geometry":{"type":"Polygon","coordinates":[[[-0.77373,51.3468],[-0.77471,51.34513],[-0.77587,51.34576],[-0.77627,51.34558],[-0.77763,51.34325],[-0.77836,51.34377],[-0.77783,51.34466],[-0.77937,51.345],[-0.77911,51.34536],[-0.78006,51.3466],[-0.77912,51.34845],[-0.78277,51.34923],[-0.78193,51.35251],[-0.77721,51.35208],[-0.77303,51.35112],[-0.77471,51.34822],[-0.7731,51.34813],[-0.77373,51.3468]]]}},{"type":"Feature","properties":{"id":"E01016198","name":"E01016198","parent":"E06000036","type":"LSOA","pop":1151,"r":351,"ff":119,"ffd":10338.8,"ffs":0.5,"g":110,"co":0,"mo":0,"sa":0,"ic":0},"geometry":{"type":"Polygon","coordinates":[[[-0.78315,51.34669],[-0.78076,51.34554],[-0.78006,51.3466],[-0.77911,51.34536],[-0.77937,51.345],[-0.7802,51.34513],[-0.78136,51.34317],[-0.78045,51.34264],[-0.77911,51.34254],[-0.7786,51.34162],[-0.77959,51.34207],[-0.77983,51.34175],[-0.78177,51.34215],[-0.78174,51.34086],[-0.78277,51.34102],[-0.78216,51.34161],[-0.78343,51.34256],[-0.78419,51.34206],[-0.78604,51.34284],[-0.7865,51.34232],[-0.78731,51.34224],[-0.78568,51.34506],[-0.78499,51.34575],[-0.78481,51.34768],[-0.78386,51.34783],[-0.78315,51.34669]]]}},{"type":"Feature","properties":{"id":"E01016199","name":"E01016199","parent":"E06000036","type":"LSOA","pop":1160,"r":354,"ff":120,"ffd":10344.8,"ffs":0.5042,"g":112,"co":0,"mo":0,"sa":0,"ic":0},"geometry":{"type":"Polygon","coordinates":[[[-0.78604,51.34284],[-0.78419,51.34206],[-0.78343,51.34256],[-0.78216,51.34161],[-0.78277,51.34102],[-0.78174,51.34086],[-0.78177,51.34215],[-0.77983,51.34175],[-0.77959,51.34207],[-0.77661,51.34052],[-0.77706,51.34041],[-0.77582,51.33963],[-0.77475,51.34008],[-0.77509,51.3392],[-0.7757,51.33919],[-0.77609,51.33881],[-0.77551,51.33865],[-0.77614,51.33775],[-0.77978,51.33802],[-0.7803,51.33843],[-0.78518,51.34017],[-0.78687,51.34114],[-0.78731,51.34224],[-0.7865,51.34232],[-0.78604,51.34284]]]}},{"type":"Feature","properties":{"id":"E01016200","name":"E01016200","parent":"E06000036","type":"LSOA","pop":1330,"r":284,"ff":86,"ffd":6466.2,"ffs":0.455,"g":92,"co":0,"mo":0,"sa":0,"ic":0},"geometry":{"type":"Polygon","coordinates":[[[-0.73702,51.39506],[-0.73704,51.39418],[-0.73648,51.39355],[-0.73076,51.39542],[-0.7308,51.39566],[-0.72972,51.39547],[-0.72983,51.39414],[-0.73123,51.39396],[-0.73081,51.39262],[-0.73049,51.39262],[-0.7342,51.39121],[-0.73418,51.39086],[-0.73765,51.39205],[-0.74167,51.39457],[-0.74087,51.39446],[-0.73918,51.39504],[-0.73942,51.39542],[-0.7382,51.39586],[-0.73702,51.39506]]]}},{"type":"Feature","properties":{"id":"E01016201","name":"E01016201","parent":"E06000036","type":"LSOA","pop":1291,"r":270,"ff":81,"ffd":6274.2,"ffs":0.45,"g":87,"co":0,"mo":0,"sa":0,"ic":0},"geometry":{"type":"Polygon","coordinates":[[[-0.72613,51.39785],[-0.72765,51.39607],[-0.72834,51.39386],[-0.72901,51.39322],[-0.73081,51.39262],[-0.73123,51.39396],[-0.72983,51.39414],[-0.72972,51.39547],[-0.7308,51.39566],[-0.73095,51.39646],[-0.73025,51.3963],[-0.72929,51.39666],[-0.72984,51.39703],[-0.72946,51.3971],[-0.72954,51.39751],[-0.72996,51.3975],[-0.72954,51.39758],[-0.72915,51.39908],[-0.72994,51.39917],[-0.73012,51.39981],[-0.7288,51.39989],[-0.72839,51.40063],[-0.72965,51.40094],[-0.72979,51.40151],[-0.73074,51.40184],[-0.72958,51.40192],[-0.72753,51.4017],[-0.7242,51.4],[-0.72613,51.39785]]]}},{"type":"Feature","properties":{"id":"E01016202","name":"E01016202","parent":"E06000036","type":"LSOA","pop":1214,"r":263,"ff":80,"ffd":6589.8,"ffs":0.4494,"g":82,"co":0,"mo":0,"sa":0,"ic":1},"geometry":{"type":"Polygon","coordinates":[[[-0.72336,51.40257],[-0.7242,51.4],[-0.72753,51.4017],[-0.72958,51.40192],[-0.73074,51.40184],[-0.72979,51.40151],[-0.72965,51.40094],[-0.72839,51.40063],[-0.7288,51.39989],[-0.73012,51.39981],[-0.72994,51.39917],[-0.72915,51.39908],[-0.72937,51.39843],[-0.73134,51.39831],[-0.73243,51.40372],[-0.72573,51.40403],[-0.72469,51.40306],[-0.72336,51.40257]]]}},{"type":"Feature","properties":{"id":"E01016203","name":"E01016203","parent":"E06000036","type":"LSOA","pop":1300,"r":273,"ff":82,"ffd":6307.7,"ffs":0.4481,"g":87,"co":0,"mo":0,"sa":0,"ic":0},"geometry":{"type":"Polygon","coordinates":[[[-0.73361,51.40286],[-0.73333,51.40257],[-0.73224,51.40269],[-0.73134,51.39831],[-0.72937,51.39843],[-0.72954,51.39758],[-0.72996,51.3975],[-0.72954,51.39751],[-0.72946,51.3971],[-0.72984,51.39703],[-0.72929,51.39666],[-0.73025,51.3963],[-0.73095,51.39646],[-0.73076,51.39542],[-0.73648,51.39355],[-0.73704,51.39418],[-0.73702,51.39506],[-0.7382,51.39586],[-0.7371,51.39658],[-0.73663,51.39749],[-0.73403,51.39796],[-0.73349,51.3988],[-0.73395,51.39959],[-0.73333,51.40022],[-0.7336,51.4015],[-0.73492,51.40248],[-0.73361,51.40286]]]}},{"type":"Feature","properties":{"id":"E01016204","name":"E01016204","parent":"E06000036","type":"LSOA","pop":1190,"r":301,"ff":90,"ffd":7563.0,"ffs":0.4348,"g":91,"co":0,"mo":0,"sa":0,"ic":0},"geometry":{"type":"Polygon","coordinates":[[[-0.73395,51.39959],[-0.73349,51.3988],[-0.73403,51.39796],[-0.73663,51.39749],[-0.73756,51.39809],[-0.73834,51.39959],[-0.73913,51.39937],[-0.74069,51.40077],[-0.73492,51.40248],[-0.7336,51.4015],[-0.73333,51.40022],[-0.73395,51.39959]]]}},{"type":"Feature","properties":{"id":"E01016205","name":"E01016205","parent":"E06000036","type":"LSOA","pop":1326,"r":301,"ff":90,"ffd":6787.3,"ffs":0.4348,"g":91,"co":0,"mo":0,"sa":0,"ic":0},"geometry":{"type":"Polygon","coordinates":[[[-0.74069,51.40077],[-0.73913,51.39937],[-0.73834,51.39959],[-0.73756,51.39809],[-0.73663,51.39749],[-0.7371,51.39658],[-0.7382,51.39586],[-0.73942,51.39542],[-0.73918,51.39504],[-0.74087,51.39446],[-0.74167,51.39457],[-0.7438,51.39647],[-0.74585,51.39926],[-0.74625,51.40059],[-0.74434,51.40079],[-0.7443,51.40013],[-0.74069,51.40077]]]}},{"type":"Feature","properties":{"id":"E01016206","name":"E01016206","parent":"E06000036","type":"LSOA","pop":2043,"r":306,"ff":94,"ffd":4601.1,"ffs":0.4541,"g":97,"co":0,"mo":0,"sa":0,"ic":2},"geometry":{"type":"Polygon","coordinates":[[[-0.79802,51.37139],[-0.79775,51.37077],[-0.7973,51.37077],[-0.79885,51.3705],[-0.79648,51.36911],[-0.7957,51.36929],[-0.79465,51.3689],[-0.79513,51.36828],[-0.79414,51.36745],[-0.79492,51.36642],[-0.79439,51.36635],[-0.7946,51.36594],[-0.7988,51.36719],[-0.79939,51.36666],[-0.80098,51.36699],[-0.80376,51.36787],[-0.8036,51.36822],[-0.80571,51.36831],[-0.80545,51.36889],[-0.80691,51.36893],[-0.80766,51.36817],[-0.80799,51.36834],[-0.8099,51.36806],[-0.80968,51.36758],[-0.81004,51.36741],[-0.81251,51.36817],[-0.81667,51.36745],[-0.81676,51.36542],[-0.81753,51.36528],[-0.8173,51.36483],[-0.81785,51.36408],[-0.81972,51.36721],[-0.81453,51.36953],[-0.81357,51.37032],[-0.80906,51.37095],[-0.79802,51.37139]]]}},{"type":"Feature","properties":{"id":"E01016207","name":"E01016207","parent":"E06000036","type":"LSOA","pop":2738,"r":321,"ff":102,"ffd":3725.3,"ffs":0.4636,"g":98,"co":0,"mo":0,"sa":0,"ic":2},"geometry":{"type":"Polygon","coordinates":[[[-0.73185,51.39005],[-0.72732,51.38479],[-0.73533,51.36501],[-0.74171,51.36489],[-0.76438,51.36863],[-0.76753,51.36586],[-0.76918,51.36322],[-0.76978,51.36053],[-0.77962,51.36187],[-0.78017,51.35915],[-0.78643,51.35953],[-0.78381,51.36257],[-0.78398,51.36441],[-0.78458,51.3646],[-0.78465,51.36507],[-0.78772,51.36539],[-0.78729,51.3657],[-0.78627,51.36542],[-0.78614,51.36583],[-0.78432,51.3659],[-0.78369,51.3668],[-0.78278,51.36669],[-0.78203,51.36817],[-0.78224,51.36919],[-0.78326,51.36947],[-0.78445,51.37038],[-0.78557,51.37068],[-0.78558,51.36991],[-0.78659,51.369],[-0.78673,51.36804],[-0.78788,51.36842],[-0.78807,51.36826],[-0.78786,51.3681],[-0.78835,51.36784],[-0.79248,51.36835],[-0.7933,51.36952],[-0.79408,51.36964],[-0.79441,51.36921],[-0.79479,51.36944],[-0.79392,51.37023],[-0.79401,51.37061],[-0.79306,51.37051],[-0.79292,51.37098],[-0.79278,51.37079],[-0.79213,51.37095],[-0.79148,51.37043],[-0.79008,51.37091],[-0.78914,51.37088],[-0.78872,51.37135],[-0.78901,51.37174],[-0.78884,51.37176],[-0.79312,51.38461],[-0.76285,51.38816],[-0.76145,51.38815],[-0.7557,51.38694],[-0.74272,51.38784],[-0.73443,51.39085],[-0.73185,51.39005]]]}},{"type":"Feature","properties":{"id":"E01016208","name":"E01016208","parent":"E06000036","type":"LSOA","pop":2253,"r":309,"ff":98,"ffd":4349.8,"ffs":0.4667,"g":96,"co":0,"mo":0,"sa":0,"ic":2},"geometry":{"type":"Polygon","coordinates":[[[-0.78872,51.37135],[-0.78914,51.37088],[-0.79008,51.37091],[-0.79148,51.37043],[-0.79213,51.37095],[-0.79278,51.37079],[-0.79292,51.37098],[-0.79306,51.37051],[-0.79401,51.37061],[-0.79392,51.37023],[-0.79479,51.36944],[-0.79441,51.36921],[-0.79408,51.36964],[-0.7933,51.36952],[-0.79248,51.36835],[-0.78835,51.36784],[-0.78786,51.3681],[-0.78807,51.36826],[-0.78788,51.36842],[-0.78673,51.36804],[-0.78659,51.369],[-0.78558,51.36991],[-0.78557,51.37068],[-0.78445,51.37038],[-0.78326,51.36947],[-0.78224,51.36919],[-0.78203,51.36817],[-0.78278,51.36669],[-0.78369,51.3668],[-0.78432,51.3659],[-0.78614,51.36583],[-0.78627,51.36542],[-0.78729,51.3657],[-0.78772,51.36539],[-0.78465,51.36507],[-0.78458,51.3646],[-0.78398,51.36441],[-0.78381,51.36257],[-0.78643,51.35953],[-0.7985,51.3603],[-0.79848,51.36163],[-0.79514,51.36611],[-0.7946,51.36594],[-0.79439,51.36635],[-0.79492,51.36642],[-0.79414,51.36745],[-0.79513,51.36828],[-0.79465,51.3689],[-0.7957,51.36929],[-0.79648,51.36911],[-0.79885,51.3705],[-0.7973,51.37077],[-0.79775,51.37077],[-0.79802,51.37139],[-0.78901,51.37174],[-0.78872,51.37135]]]}},{"type":"Feature","properties":{"id":"E01016209","name":"E01016209","parent":"E06000036","type":"LSOA","pop":1510,"r":300,"ff":91,"ffd":6026.5,"ffs":0.4354,"g":89,"co":0,"mo":0,"sa":0,"ic":0},"geometry":{"type":"Polygon","coordinates":[[[-0.76013,51.41354],[-0.76067,51.41264],[-0.76139,51.41271],[-0.7624,51.41179],[-0.76537,51.41016],[-0.76926,51.40605],[-0.76926,51.40522],[-0.76866,51.40439],[-0.76477,51.40274],[-0.76171,51.39943],[-0.7613,51.3971],[-0.76396,51.39585],[-0.7645,51.39622],[-0.76641,51.39572],[-0.76777,51.39673],[-0.76876,51.39826],[-0.77005,51.39845],[-0.77051,51.39897],[-0.76923,51.39935],[-0.7665,51.40072],[-0.76733,51.4015],[-0.76726,51.40205],[-0.76841,51.40264],[-0.77004,51.40382],[-0.77221,51.40383],[-0.77271,51.40491],[-0.77459,51.40632],[-0.77441,51.40817],[-0.77386,51.40885],[-0.77428,51.4091],[-0.77484,51.40871],[-0.7759,51.40887],[-0.77482,51.41258],[-0.77374,51.41347],[-0.76721,51.41395],[-0.76013,51.41354]]]}},{"type":"Feature","properties":{"id":"E01016210","name":"E01016210","parent":"E06000036","type":"LSOA","pop":1295,"r":262,"ff":78,"ffd":6023.2,"ffs":0.4382,"g":82,"co":0,"mo":0,"sa":0,"ic":0},"geometry":{"type":"Polygon","coordinates":[[[-0.77281,51.39787],[-0.77346,51.39879],[-0.77405,51.39892],[-0.77427,51.39965],[-0.77314,51.39978],[-0.77253,51.40022],[-0.77263,51.40069],[-0.77308,51.4011],[-0.77296,51.40367],[-0.77221,51.40383],[-0.77004,51.40382],[-0.76841,51.40264],[-0.76726,51.40205],[-0.76733,51.4015],[-0.7665,51.40072],[-0.76923,51.39935],[-0.77051,51.39897],[-0.77005,51.39845],[-0.77281,51.39787]]]}},{"type":"Feature","properties":{"id":"E01016212","name":"E01016212","parent":"E06000036","type":"LSOA","pop":1312,"r":301,"ff":90,"ffd":6859.8,"ffs":0.4348,"g":91,"co":0,"mo":0,"sa":0,"ic":0},"geometry":{"type":"Polygon","coordinates":[[[-0.76777,51.39673],[-0.76641,51.39572],[-0.7645,51.39622],[-0.76396,51.39585],[-0.76517,51.39496],[-0.7689,51.39149],[-0.77052,51.39219],[-0.76986,51.39284],[-0.7715,51.3937],[-0.77254,51.39366],[-0.77275,51.39401],[-0.77125,51.3943],[-0.77151,51.39477],[-0.77097,51.39496],[-0.7711,51.39523],[-0.77167,51.39514],[-0.77146,51.39608],[-0.77101,51.39629],[-0.77137,51.39706],[-0.7699,51.39734],[-0.77082,51.39826],[-0.77005,51.39845],[-0.76876,51.39826],[-0.76777,51.39673]]]}},{"type":"Feature","properties":{"id":"E01016213","name":"E01016213","parent":"E06000036","type":"LSOA","pop":1171,"r":301,"ff":90,"ffd":7685.7,"ffs":0.4348,"g":91,"co":0,"mo":0,"sa":0,"ic":0},"geometry":{"type":"Polygon","coordinates":[[[-0.7822,51.39875],[-0.78077,51.39842],[-0.77669,51.39971],[-0.77511,51.39752],[-0.77507,51.39713],[-0.7762,51.39701],[-0.77681,51.39757],[-0.777,51.3973],[-0.7783,51.39721],[-0.77909,51.39759],[-0.781,51.39631],[-0.77957,51.39619],[-0.77936,51.39663],[-0.77882,51.39669],[-0.7776,51.39624],[-0.77706,51.39556],[-0.77645,51.39598],[-0.77581,51.39559],[-0.77578,51.39608],[-0.77442,51.39653],[-0.77349,51.39492],[-0.77719,51.39466],[-0.7774,51.39446],[-0.77688,51.39412],[-0.77733,51.39295],[-0.77518,51.3917],[-0.77507,51.39188],[-0.77487,51.3914],[-0.77552,51.39086],[-0.77707,51.39088],[-0.77717,51.39116],[-0.77892,51.39091],[-0.77843,51.38953],[-0.7818,51.38925],[-0.783,51.38977],[-0.78355,51.38939],[-0.78386,51.38669],[-0.78461,51.38561],[-0.79312,51.38461],[-0.79577,51.39235],[-0.79685,51.39403],[-0.79566,51.3972],[-0.79119,51.39604],[-0.79122,51.39665],[-0.78956,51.39726],[-0.78872,51.39721],[-0.78971,51.39806],[-0.78639,51.40008],[-0.7832,51.39957],[-0.7822,51.39875]]]}},{"type":"Feature","properties":{"id":"E01016214","name":"E01016214","parent":"E06000036","type":"LSOA","pop":1385,"r":256,"ff":77,"ffd":5559.6,"ffs":0.4326,"g":76,"co":0,"mo":0,"sa":0,"ic":0},"geometry":{"type":"Polygon","coordinates":[[[-0.77275,51.39401],[-0.77254,51.39366],[-0.7715,51.3937],[-0.76986,51.39284],[-0.77052,51.39219],[-0.7689,51.39149],[-0.77003,51.39006],[-0.77193,51.3871],[-0.78461,51.38561],[-0.78386,51.38669],[-0.78355,51.38939],[-0.783,51.38977],[-0.7818,51.38925],[-0.77843,51.38953],[-0.77892,51.39091],[-0.77717,51.39116],[-0.77707,51.39088],[-0.77552,51.39086],[-0.77487,51.3914],[-0.77507,51.39188],[-0.77518,51.3917],[-0.77733,51.39295],[-0.77688,51.39412],[-0.7774,51.39446],[-0.77719,51.39466],[-0.77349,51.39492],[-0.77275,51.39401]]]}},{"type":"Feature","properties":{"id":"E01016215","name":"E01016215","parent":"E06000036","type":"LSOA","pop":1229,"r":266,"ff":80,"ffd":6509.4,"ffs":0.4396,"g":82,"co":0,"mo":0,"sa":0,"ic":0},"geometry":{"type":"Polygon","coordinates":[[[-0.77137,51.39706],[-0.77101,51.39629],[-0.77146,51.39608],[-0.77167,51.39514],[-0.7711,51.39523],[-0.77097,51.39496],[-0.77151,51.39477],[-0.77125,51.3943],[-0.77275,51.39401],[-0.77442,51.39653],[-0.77578,51.39608],[-0.77581,51.39559],[-0.77645,51.39598],[-0.77706,51.39556],[-0.7776,51.39624],[-0.77882,51.39669],[-0.77936,51.39663],[-0.77957,51.39619],[-0.781,51.39631],[-0.77909,51.39759],[-0.7783,51.39721],[-0.777,51.3973],[-0.77681,51.39757],[-0.7762,51.39701],[-0.77507,51.39713],[-0.77511,51.39752],[-0.77082,51.39826],[-0.7699,51.39734],[-0.77137,51.39706]]]}},{"type":"Feature","properties":{"id":"E01016216","name":"E01016216","parent":"E06000036","type":"LSOA","pop":1311,"r":301,"ff":90,"ffd":6865.0,"ffs":0.4348,"g":91,"co":0,"mo":0,"sa":0,"ic":0},"geometry":{"type":"Polygon","coordinates":[[[-0.76127,51.39577],[-0.76054,51.39559],[-0.75693,51.39564],[-0.75536,51.39536],[-0.75689,51.3939],[-0.75776,51.39356],[-0.75842,51.39392],[-0.76035,51.39387],[-0.76076,51.39291],[-0.76159,51.39241],[-0.76134,51.39208],[-0.76217,51.39074],[-0.76185,51.39058],[-0.76214,51.38936],[-0.76425,51.38978],[-0.76405,51.39071],[-0.76492,51.39214],[-0.76482,51.39294],[-0.76448,51.39263],[-0.76435,51.39286],[-0.76328,51.39287],[-0.76517,51.39496],[-0.76396,51.39585],[-0.76181,51.39674],[-0.76116,51.39631],[-0.76127,51.39577]]]}},{"type":"Feature","properties":{"id":"E01016217","name":"E01016217","parent":"E06000036","type":"LSOA","pop":1369,"r":301,"ff":90,"ffd":6574.1,"ffs":0.4348,"g":91,"co":0,"mo":0,"sa":0,"ic":0},"geometry":{"type":"Polygon","coordinates":[[[-0.74526,51.39434],[-0.74309,51.39346],[-0.74141,51.39436],[-0.73765,51.39205],[-0.73443,51.39085],[-0.74272,51.38784],[-0.7457,51.38763],[-0.74573,51.38835],[-0.74473,51.38814],[-0.74432,51.38862],[-0.74529,51.38928],[-0.74549,51.38977],[-0.74391,51.39036],[-0.74395,51.39158],[-0.74738,51.39148],[-0.74752,51.39168],[-0.74798,51.3915],[-0.74758,51.39146],[-0.74702,51.38974],[-0.75052,51.38945],[-0.75091,51.39032],[-0.74928,51.39285],[-0.7496,51.39434],[-0.74526,51.39434]]]}},{"type":"Feature","properties":{"id":"E01016218","name":"E01016218","parent":"E06000036","type":"LSOA","pop":1354,"r":290,"ff":90,"ffd":6647.0,"ffs":0.4478,"g":87,"co":0,"mo":0,"sa":0,"ic":0},"geometry":{"type":"Polygon","coordinates":[[[-0.75266,51.39467],[-0.7518,51.39436],[-0.7496,51.39434],[-0.74928,51.39285],[-0.75091,51.39032],[-0.75208,51.39045],[-0.75264,51.39099],[-0.753,51.39083],[-0.75309,51.38991],[-0.7562,51.38972],[-0.75721,51.39048],[-0.75759,51.39164],[-0.75892,51.39234],[-0.75911,51.39183],[-0.76091,51.39189],[-0.76159,51.39241],[-0.76076,51.39291],[-0.76035,51.39387],[-0.75842,51.39392],[-0.75776,51.39356],[-0.75689,51.3939],[-0.75536,51.39536],[-0.75266,51.39467]]]}},{"type":"Feature","properties":{"id":"E01016219","name":"E01016219","parent":"E06000036","type":"LSOA","pop":1283,"r":292,"ff":91,"ffd":7092.8,"ffs":0.4461,"g":86,"co":0,"mo":0,"sa":0,"ic":0},"geometry":{"type":"Polygon","coordinates":[[[-0.76398,51.39379],[-0.76328,51.39287],[-0.76435,51.39286],[-0.76448,51.39263],[-0.76482,51.39294],[-0.76492,51.39214],[-0.76405,51.39071],[-0.76425,51.38978],[-0.76214,51.38936],[-0.76185,51.39058],[-0.76217,51.39074],[-0.76134,51.39208],[-0.76091,51.39189],[-0.76051,51.39113],[-0.76102,51.39087],[-0.76119,51.38927],[-0.76069,51.3892],[-0.76145,51.38815],[-0.76285,51.38816],[-0.77193,51.3871],[-0.77003,51.39006],[-0.7689,51.39149],[-0.76517,51.39496],[-0.76398,51.39379]]]}},{"type":"Feature","properties":{"id":"E01016220","name":"E01016220","parent":"E06000036","type":"LSOA","pop":1427,"r":275,"ff":83,"ffd":5816.4,"ffs":0.4439,"g":86,"co":0,"mo":0,"sa":0,"ic":0},"geometry":{"type":"Polygon","coordinates":[[[-0.75892,51.39234],[-0.75759,51.39164],[-0.75721,51.39048],[-0.7562,51.38972],[-0.75309,51.38991],[-0.753,51.39083],[-0.75264,51.39099],[-0.75208,51.39045],[-0.75091,51.39032],[-0.75052,51.38945],[-0.7541,51.38858],[-0.75564,51.38852],[-0.7557,51.38694],[-0.76145,51.38815],[-0.76069,51.3892],[-0.76119,51.38927],[-0.76102,51.39087],[-0.76051,51.39113],[-0.76091,51.39189],[-0.75911,51.39183],[-0.75892,51.39234]]]}},{"type":"Feature","properties":{"id":"E01016221","name":"E01016221","parent":"E06000036","type":"LSOA","pop":1242,"r":301,"ff":90,"ffd":7246.4,"ffs":0.4348,"g":91,"co":0,"mo":0,"sa":0,"ic":0},"geometry":{"type":"Polygon","coordinates":[[[-0.74752,51.39168],[-0.74738,51.39148],[-0.74395,51.39158],[-0.74391,51.39036],[-0.74549,51.38977],[-0.74529,51.38928],[-0.74432,51.38862],[-0.74473,51.38814],[-0.74573,51.38835],[-0.7457,51.38763],[-0.7557,51.38694],[-0.75564,51.38852],[-0.7541,51.38858],[-0.7504,51.38947],[-0.74702,51.38974],[-0.74758,51.39146],[-0.74798,51.3915],[-0.74752,51.39168]]]}},{"type":"Feature","properties":{"id":"E01016222","name":"E01016222","parent":"E06000036","type":"LSOA","pop":1180,"r":301,"ff":90,"ffd":7627.1,"ffs":0.4348,"g":91,"co":0,"mo":0,"sa":0,"ic":0},"geometry":{"type":"Polygon","coordinates":[[[-0.72003,51.41271],[-0.71956,51.41244],[-0.71855,51.41254],[-0.71879,51.41027],[-0.72081,51.40734],[-0.7209,51.40603],[-0.72159,51.40416],[-0.72277,51.40257],[-0.72336,51.40257],[-0.72469,51.40306],[-0.72573,51.40403],[-0.7259,51.40476],[-0.72696,51.40581],[-0.72621,51.40611],[-0.72649,51.40633],[-0.72613,51.40672],[-0.72486,51.40575],[-0.72377,51.40565],[-0.7229,51.40625],[-0.72427,51.4066],[-0.72282,51.40883],[-0.72309,51.40904],[-0.72216,51.40971],[-0.72386,51.4103],[-0.72374,51.40981],[-0.7257,51.41027],[-0.72259,51.41279],[-0.72003,51.41271]]]}},{"type":"Feature","properties":{"id":"E01016223","name":"E01016223","parent":"E06000036","type":"LSOA","pop":1247,"r":219,"ff":63,"ffd":5052.1,"ffs":0.4375,"g":73,"co":0,"mo":0,"sa":0,"ic":0},"geometry":{"type":"Polygon","coordinates":[[[-0.72357,51.40789],[-0.72427,51.4066],[-0.7229,51.40625],[-0.72377,51.40565],[-0.72486,51.40575],[-0.72613,51.40672],[-0.72649,51.40633],[-0.72621,51.40611],[-0.72696,51.40581],[-0.7259,51.40476],[-0.72573,51.40403],[-0.73081,51.40378],[-0.73118,51.40473],[-0.73284,51.40555],[-0.73297,51.40646],[-0.73248,51.40726],[-0.73319,51.40739],[-0.73324,51.40765],[-0.73071,51.40795],[-0.73014,51.40661],[-0.72926,51.40662],[-0.7293,51.40736],[-0.72827,51.40758],[-0.72819,51.40831],[-0.72609,51.40841],[-0.72357,51.40789]]]}},{"type":"Feature","properties":{"id":"E01016224","name":"E01016224","parent":"E06000036","type":"LSOA","pop":2199,"r":301,"ff":90,"ffd":4092.8,"ffs":0.4348,"g":91,"co":0,"mo":0,"sa":0,"ic":0},"geometry":{"type":"Polygon","coordinates":[[[-0.72932,51.40855],[-0.72962,51.40781],[-0.7293,51.40736],[-0.72926,51.40662],[-0.73014,51.40661],[-0.73071,51.40795],[-0.73324,51.40765],[-0.73319,51.40739],[-0.73248,51.40726],[-0.73297,51.40646],[-0.73284,51.40555],[-0.73118,51.40473],[-0.73081,51.40378],[-0.73243,51.40372],[-0.73224,51.40269],[-0.73333,51.40257],[-0.73361,51.40286],[-0.73701,51.40188],[-0.73786,51.40385],[-0.7387,51.40403],[-0.7396,51.40497],[-0.74066,51.40539],[-0.73439,51.40732],[-0.73449,51.40783],[-0.73602,51.40785],[-0.73815,51.40862],[-0.74176,51.40796],[-0.74316,51.40971],[-0.74408,51.41017],[-0.74088,51.41037],[-0.73881,51.41072],[-0.72932,51.40855]]]}},{"type":"Feature","properties":{"id":"E01016226","name":"E01016226","parent":"E06000036","type":"LSOA","pop":1566,"r":210,"ff":59,"ffd":3767.6,"ffs":0.4338,"g":72,"co":0,"mo":0,"sa":0,"ic":0},"geometry":{"type":"Polygon","coordinates":[[[-0.72657,51.41284],[-0.72259,51.41279],[-0.7257,51.41027],[-0.72374,51.40981],[-0.72386,51.4103],[-0.72216,51.40971],[-0.72309,51.40904],[-0.72282,51.40883],[-0.72357,51.40789],[-0.72609,51.40841],[-0.72819,51.40831],[-0.72827,51.40758],[-0.7293,51.40736],[-0.72962,51.40781],[-0.72932,51.40855],[-0.73316,51.40942],[-0.73273,51.41061],[-0.734,51.41247],[-0.73161,51.41332],[-0.72975,51.41294],[-0.72657,51.41284]]]}},{"type":"Feature","properties":{"id":"E01016227","name":"E01016227","parent":"E06000036","type":"LSOA","pop":1297,"r":316,"ff":120,"ffd":9252.1,"ffs":0.543,"g":92,"co":0,"mo":2,"sa":0,"ic":0},"geometry":{"type":"Polygon","coordinates":[[[-0.7985,51.3603],[-0.79871,51.35503],[-0.799,51.35295],[-0.79986,51.35114],[-0.80164,51.34964],[-0.80233,51.3498],[-0.80235,51.35028],[-0.80363,51.35032],[-0.80394,51.35088],[-0.80268,51.35182],[-0.80342,51.35212],[-0.80323,51.3526],[-0.80116,51.35234],[-0.80052,51.35265],[-0.80084,51.35291],[-0.8004,51.35325],[-0.80318,51.35379],[-0.8043,51.3536],[-0.80491,51.35316],[-0.8065,51.35355],[-0.80614,51.35231],[-0.80762,51.35207],[-0.80865,51.3526],[-0.8086,51.35335],[-0.80767,51.35383],[-0.81007,51.3543],[-0.80934,51.35445],[-0.80912,51.35495],[-0.80865,51.35468],[-0.80838,51.35483],[-0.80859,51.35526],[-0.80822,51.35543],[-0.80917,51.35571],[-0.8088,51.35522],[-0.80921,51.35498],[-0.80974,51.35524],[-0.80958,51.35552],[-0.81071,51.35603],[-0.81188,51.35543],[-0.81113,51.35477],[-0.81153,51.3546],[-0.81241,51.35485],[-0.81565,51.3603],[-0.80314,51.36128],[-0.80373,51.36063],[-0.7985,51.3603]]]}},{"type":"Feature","properties":{"id":"E01016228","name":"E01016228","parent":"E06000036","type":"LSOA","pop":1810,"r":316,"ff":120,"ffd":6629.8,"ffs":0.543,"g":92,"co":0,"mo":2,"sa":0,"ic":0},"geometry":{"type":"Polygon","coordinates":[[[-0.8004,51.35325],[-0.80084,51.35291],[-0.80052,51.35265],[-0.80116,51.35234],[-0.80323,51.3526],[-0.80342,51.35212],[-0.80268,51.35182],[-0.80394,51.35088],[-0.80363,51.35032],[-0.80235,51.35028],[-0.80233,51.3498],[-0.80164,51.34964],[-0.80208,51.34935],[-0.80311,51.34682],[-0.80347,51.34638],[-0.80063,51.34484],[-0.8013,51.34371],[-0.80139,51.34148],[-0.80415,51.34135],[-0.80453,51.34164],[-0.80704,51.34108],[-0.80947,51.34104],[-0.81311,51.3413],[-0.81423,51.34163],[-0.8151,51.34234],[-0.81538,51.34417],[-0.81393,51.34535],[-0.81571,51.34631],[-0.81367,51.34827],[-0.81188,51.34828],[-0.81038,51.34798],[-0.81031,51.34768],[-0.8114,51.3474],[-0.81066,51.34705],[-0.81022,51.34747],[-0.8088,51.34727],[-0.80826,51.34793],[-0.80717,51.34832],[-0.80819,51.34957],[-0.80888,51.34927],[-0.81083,51.3499],[-0.81063,51.35051],[-0.8101,51.35031],[-0.81042,51.35059],[-0.81004,51.35103],[-0.81132,51.35297],[-0.81041,51.35321],[-0.81018,51.35369],[-0.80942,51.35359],[-0.80862,51.35298],[-0.80865,51.3526],[-0.80762,51.35207],[-0.80614,51.35231],[-0.8065,51.35355],[-0.80491,51.35316],[-0.8043,51.3536],[-0.80318,51.35379],[-0.8004,51.35325]]]}},{"type":"Feature","properties":{"id":"E01016229","name":"E01016229","parent":"E06000036","type":"LSOA","pop":1178,"r":316,"ff":120,"ffd":10186.8,"ffs":0.543,"g":92,"co":0,"mo":2,"sa":0,"ic":0},"geometry":{"type":"Polygon","coordinates":[[[-0.81241,51.35485],[-0.81153,51.3546],[-0.81113,51.35477],[-0.81188,51.35543],[-0.81071,51.35603],[-0.80958,51.35552],[-0.80974,51.35524],[-0.80921,51.35498],[-0.8088,51.35522],[-0.80917,51.35571],[-0.80822,51.35543],[-0.80859,51.35526],[-0.80838,51.35483],[-0.80865,51.35468],[-0.80912,51.35495],[-0.80934,51.35445],[-0.81007,51.3543],[-0.80767,51.35383],[-0.8086,51.35335],[-0.80862,51.35298],[-0.80942,51.35359],[-0.81018,51.35369],[-0.81041,51.35321],[-0.81132,51.35297],[-0.81004,51.35103],[-0.81042,51.35059],[-0.8101,51.35031],[-0.81063,51.35051],[-0.81083,51.3499],[-0.80888,51.34927],[-0.80819,51.34957],[-0.80717,51.34832],[-0.80826,51.34793],[-0.8088,51.34727],[-0.81022,51.34747],[-0.81066,51.34705],[-0.8114,51.3474],[-0.81031,51.34768],[-0.81038,51.34798],[-0.81188,51.34828],[-0.81367,51.34827],[-0.81571,51.34631],[-0.81614,51.34716],[-0.81853,51.34771],[-0.81555,51.35003],[-0.81785,51.35234],[-0.8178,51.35371],[-0.82028,51.35541],[-0.81756,51.35628],[-0.81762,51.35833],[-0.81861,51.3595],[-0.81564,51.36026],[-0.81241,51.35485]]]}},{"type":"Feature","properties":{"id":"E01016230","name":"E01016230","parent":"E06000036","type":"LSOA","pop":1990,"r":278,"ff":84,"ffd":4221.1,"ffs":0.4492,"g":89,"co":0,"mo":0,"sa":0,"ic":3},"geometry":{"type":"Polygon","coordinates":[[[-0.8036,51.36822],[-0.80376,51.36787],[-0.80098,51.36699],[-0.79939,51.36666],[-0.7988,51.36719],[-0.79514,51.36611],[-0.79848,51.36163],[-0.7985,51.3603],[-0.80373,51.36063],[-0.80314,51.36128],[-0.81565,51.3603],[-0.81861,51.3595],[-0.81762,51.35833],[-0.81756,51.35628],[-0.82028,51.35541],[-0.8178,51.35371],[-0.81785,51.35234],[-0.81555,51.35003],[-0.81853,51.34771],[-0.81905,51.34883],[-0.8246,51.35001],[-0.82639,51.35229],[-0.82786,51.35236],[-0.82812,51.35286],[-0.83043,51.35289],[-0.83083,51.35333],[-0.83205,51.35297],[-0.83601,51.35262],[-0.83653,51.3523],[-0.83735,51.35287],[-0.83438,51.3545],[-0.83421,51.35539],[-0.83247,51.35785],[-0.82913,51.36097],[-0.82828,51.36282],[-0.82698,51.36402],[-0.81972,51.36721],[-0.81785,51.36408],[-0.8173,51.36483],[-0.81753,51.36528],[-0.81676,51.36542],[-0.81667,51.36745],[-0.81251,51.36817],[-0.81004,51.36741],[-0.80968,51.36758],[-0.8099,51.36806],[-0.80799,51.36834],[-0.80766,51.36817],[-0.80691,51.36893],[-0.80545,51.36889],[-0.80571,51.36831],[-0.8036,51.36822]]]}},{"type":"Feature","properties":{"id":"E01016231","name":"E01016231","parent":"E06000036","type":"LSOA","pop":1975,"r":297,"ff":90,"ffd":4557.0,"ffs":0.4433,"g":92,"co":0,"mo":0,"sa":0,"ic":0},"geometry":{"type":"Polygon","coordinates":[[[-0.74914,51.40493],[-0.74803,51.40454],[-0.74744,51.40488],[-0.74634,51.40159],[-0.74684,51.40095],[-0.74791,51.40062],[-0.74746,51.40026],[-0.74843,51.40001],[-0.74814,51.3997],[-0.74909,51.39925],[-0.74987,51.39991],[-0.75213,51.39903],[-0.75024,51.39781],[-0.75166,51.39721],[-0.75266,51.39467],[-0.75693,51.39564],[-0.76054,51.39559],[-0.76127,51.39577],[-0.76116,51.39631],[-0.76181,51.39674],[-0.7613,51.3971],[-0.76153,51.39849],[-0.75565,51.39869],[-0.75514,51.39995],[-0.75458,51.39982],[-0.75327,51.4],[-0.75378,51.40072],[-0.75465,51.40036],[-0.75457,51.40056],[-0.75501,51.40099],[-0.75488,51.40152],[-0.75436,51.40157],[-0.75431,51.40327],[-0.75349,51.4027],[-0.75264,51.40256],[-0.75285,51.40216],[-0.7523,51.40117],[-0.75177,51.40119],[-0.75133,51.40066],[-0.74951,51.40172],[-0.75061,51.40262],[-0.75095,51.4041],[-0.75068,51.4047],[-0.74914,51.40493]]]}},{"type":"Feature","properties":{"id":"E01016232","name":"E01016232","parent":"E06000036","type":"LSOA","pop":1455,"r":290,"ff":88,"ffd":6048.1,"ffs":0.44,"g":88,"co":0,"mo":0,"sa":0,"ic":0},"geometry":{"type":"Polygon","coordinates":[[[-0.74585,51.39926],[-0.7438,51.39647],[-0.74141,51.39436],[-0.74309,51.39346],[-0.74526,51.39434],[-0.7518,51.39436],[-0.75266,51.39467],[-0.75166,51.39721],[-0.75024,51.39781],[-0.75213,51.39903],[-0.74987,51.39991],[-0.74909,51.39925],[-0.74814,51.3997],[-0.74843,51.40001],[-0.74746,51.40026],[-0.74791,51.40062],[-0.74684,51.40095],[-0.74634,51.40159],[-0.74601,51.40153],[-0.74625,51.40059],[-0.74585,51.39926]]]}},{"type":"Feature","properties":{"id":"E01016233","name":"E01016233","parent":"E06000036","type":"LSOA","pop":2675,"r":301,"ff":90,"ffd":3364.5,"ffs":0.4348,"g":91,"co":0,"mo":0,"sa":0,"ic":0},"geometry":{"type":"Polygon","coordinates":[[[-0.74847,51.4085],[-0.74778,51.4067],[-0.74744,51.40488],[-0.74803,51.40454],[-0.74914,51.40493],[-0.75068,51.4047],[-0.75095,51.4041],[-0.75061,51.40262],[-0.74951,51.40172],[-0.75133,51.40066],[-0.75177,51.40119],[-0.7523,51.40117],[-0.75285,51.40216],[-0.75264,51.40256],[-0.75349,51.4027],[-0.75431,51.40327],[-0.75436,51.40157],[-0.75488,51.40152],[-0.75501,51.40099],[-0.75457,51.40056],[-0.75465,51.40036],[-0.75378,51.40072],[-0.75326,51.40002],[-0.75458,51.39982],[-0.75514,51.39995],[-0.75565,51.39869],[-0.76153,51.39849],[-0.76171,51.39943],[-0.76477,51.40274],[-0.76383,51.40366],[-0.76315,51.40348],[-0.76256,51.40105],[-0.75865,51.40095],[-0.75721,51.40298],[-0.7564,51.4035],[-0.75691,51.40374],[-0.75623,51.40426],[-0.75684,51.40466],[-0.75597,51.40517],[-0.75544,51.40585],[-0.75448,51.40591],[-0.75389,51.40689],[-0.75382,51.40754],[-0.75308,51.40738],[-0.75213,51.40778],[-0.75144,51.40768],[-0.74847,51.4085]]]}},{"type":"Feature","properties":{"id":"E01016234","name":"E01016234","parent":"E06000036","type":"LSOA","pop":1002,"r":315,"ff":108,"ffd":10778.4,"ffs":0.4932,"g":93,"co":0,"mo":0,"sa":0,"ic":0},"geometry":{"type":"Polygon","coordinates":[[[-0.76438,51.36863],[-0.74171,51.36489],[-0.73533,51.36501],[-0.73773,51.36232],[-0.73961,51.35912],[-0.74433,51.35457],[-0.74805,51.35235],[-0.74878,51.35267],[-0.75138,51.35543],[-0.75547,51.35633],[-0.75686,51.35579],[-0.76146,51.35585],[-0.76297,51.35462],[-0.76527,51.35453],[-0.76852,51.35306],[-0.76987,51.35209],[-0.77109,51.3516],[-0.77143,51.35179],[-0.77182,51.35094],[-0.77721,51.35208],[-0.77726,51.35252],[-0.77675,51.35257],[-0.77654,51.35297],[-0.77691,51.35345],[-0.77632,51.35416],[-0.7747,51.35383],[-0.77401,51.3549],[-0.77571,51.35531],[-0.77526,51.3562],[-0.77472,51.35597],[-0.77398,51.35608],[-0.77341,51.35654],[-0.77316,51.35836],[-0.77359,51.35906],[-0.77131,51.36068],[-0.76978,51.36053],[-0.76918,51.36322],[-0.76753,51.36586],[-0.76438,51.36863]]]}},{"type":"Feature","properties":{"id":"E01016235","name":"E01016235","parent":"E06000036","type":"LSOA","pop":1234,"r":295,"ff":105,"ffd":8508.9,"ffs":0.5385,"g":97,"co":0,"mo":0,"sa":0,"ic":0},"geometry":{"type":"Polygon","coordinates":[[[-0.77359,51.35906],[-0.77316,51.35836],[-0.77492,51.35758],[-0.77671,51.35728],[-0.7782,51.35741],[-0.77827,51.35684],[-0.77913,51.35642],[-0.77969,51.35653],[-0.77979,51.35704],[-0.78029,51.35712],[-0.78003,51.35741],[-0.78057,51.3576],[-0.78089,51.35643],[-0.7811,51.35672],[-0.78217,51.35604],[-0.7832,51.35594],[-0.78427,51.35449],[-0.78488,51.35448],[-0.78445,51.35375],[-0.78488,51.35334],[-0.78557,51.35349],[-0.78653,51.35261],[-0.78784,51.35234],[-0.78822,51.35322],[-0.78824,51.35501],[-0.78725,51.35654],[-0.78444,51.35814],[-0.77964,51.35859],[-0.78017,51.35915],[-0.77962,51.36187],[-0.77131,51.36068],[-0.77359,51.35906]]]}},{"type":"Feature","properties":{"id":"E01016236","name":"E01016236","parent":"E06000036","type":"LSOA","pop":1438,"r":289,"ff":104,"ffd":7232.3,"ffs":0.5174,"g":86,"co":0,"mo":0,"sa":0,"ic":0},"geometry":{"type":"Polygon","coordinates":[[[-0.77316,51.35836],[-0.77341,51.35654],[-0.77398,51.35608],[-0.77472,51.35597],[-0.77526,51.3562],[-0.77571,51.35531],[-0.77401,51.3549],[-0.7747,51.35383],[-0.77632,51.35416],[-0.77691,51.35345],[-0.77654,51.35297],[-0.77675,51.35257],[-0.77726,51.35252],[-0.77721,51.35208],[-0.78139,51.35246],[-0.78012,51.35303],[-0.7808,51.35337],[-0.78052,51.35388],[-0.7807,51.35454],[-0.78204,51.35476],[-0.78174,51.3555],[-0.78217,51.35604],[-0.7811,51.35672],[-0.78089,51.35643],[-0.78057,51.3576],[-0.78003,51.35741],[-0.78029,51.35712],[-0.77979,51.35704],[-0.77969,51.35653],[-0.77913,51.35642],[-0.77827,51.35684],[-0.7782,51.35741],[-0.77671,51.35728],[-0.77492,51.35758],[-0.77316,51.35836]]]}},{"type":"Feature","properties":{"id":"E01016237","name":"E01016237","parent":"E06000036","type":"LSOA","pop":1107,"r":289,"ff":104,"ffd":9394.8,"ffs":0.5174,"g":86,"co":0,"mo":0,"sa":0,"ic":0},"geometry":{"type":"Polygon","coordinates":[[[-0.7808,51.35337],[-0.78012,51.35303],[-0.78139,51.35246],[-0.78193,51.35251],[-0.78261,51.34989],[-0.7867,51.35051],[-0.78784,51.35234],[-0.78653,51.35261],[-0.78557,51.35349],[-0.78488,51.35334],[-0.78445,51.35375],[-0.78488,51.35448],[-0.78427,51.35449],[-0.7832,51.35594],[-0.78217,51.35604],[-0.78174,51.3555],[-0.78204,51.35476],[-0.7807,51.35454],[-0.78052,51.35388],[-0.7808,51.35337]]]}},{"type":"Feature","properties":{"id":"E01016238","name":"E01016238","parent":"E06000036","type":"LSOA","pop":1838,"r":215,"ff":60,"ffd":3264.4,"ffs":0.4167,"g":69,"co":0,"mo":0,"sa":0,"ic":0},"geometry":{"type":"Polygon","coordinates":[[[-0.74478,51.42684],[-0.74457,51.42574],[-0.7448,51.42261],[-0.74387,51.41953],[-0.74444,51.4179],[-0.74518,51.41762],[-0.7489,51.41867],[-0.75417,51.41869],[-0.75405,51.41921],[-0.75306,51.41955],[-0.75399,51.42005],[-0.75404,51.42042],[-0.7535,51.42064],[-0.7542,51.42103],[-0.75405,51.42137],[-0.75269,51.42188],[-0.751,51.42159],[-0.75021,51.4226],[-0.75079,51.42287],[-0.75104,51.42412],[-0.75221,51.42368],[-0.75619,51.4252],[-0.75611,51.42554],[-0.75533,51.42561],[-0.75521,51.42607],[-0.75324,51.42615],[-0.75266,51.42552],[-0.75087,51.42526],[-0.75043,51.42616],[-0.74786,51.42609],[-0.74478,51.42684]]]}},{"type":"Feature","properties":{"id":"E01016239","name":"E01016239","parent":"E06000036","type":"LSOA","pop":1558,"r":213,"ff":59,"ffd":3786.9,"ffs":0.4069,"g":67,"co":0,"mo":0,"sa":0,"ic":0},"geometry":{"type":"Polygon","coordinates":[[[-0.75668,51.4267],[-0.75349,51.42646],[-0.75337,51.42703],[-0.75141,51.42672],[-0.75127,51.42615],[-0.75043,51.42616],[-0.75087,51.42526],[-0.75266,51.42552],[-0.75324,51.42615],[-0.75521,51.42607],[-0.75533,51.42561],[-0.75611,51.42554],[-0.75619,51.4252],[-0.75714,51.4253],[-0.75698,51.42374],[-0.75507,51.42345],[-0.75529,51.42287],[-0.75612,51.4227],[-0.7561,51.42304],[-0.75724,51.4234],[-0.75718,51.42369],[-0.75888,51.42317],[-0.76024,51.4224],[-0.76234,51.42021],[-0.76331,51.42044],[-0.76253,51.42094],[-0.76262,51.4213],[-0.76297,51.42144],[-0.76337,51.4211],[-0.76422,51.42129],[-0.76428,51.42189],[-0.76488,51.42176],[-0.765,51.42314],[-0.76425,51.42337],[-0.76454,51.42368],[-0.76534,51.4235],[-0.76553,51.42382],[-0.76461,51.42451],[-0.76454,51.42504],[-0.75907,51.4268],[-0.75844,51.42721],[-0.75668,51.4267]]]}},{"type":"Feature","properties":{"id":"E01016240","name":"E01016240","parent":"E06000036","type":"LSOA","pop":1724,"r":301,"ff":90,"ffd":5220.4,"ffs":0.4348,"g":91,"co":0,"mo":0,"sa":0,"ic":0},"geometry":{"type":"Polygon","coordinates":[[[-0.75619,51.4252],[-0.75221,51.42368],[-0.75104,51.42412],[-0.75079,51.42287],[-0.75021,51.4226],[-0.751,51.42159],[-0.75269,51.42188],[-0.75405,51.42137],[-0.7542,51.42103],[-0.7535,51.42064],[-0.75404,51.42042],[-0.75399,51.42005],[-0.75306,51.41955],[-0.75405,51.41921],[-0.75417,51.41869],[-0.75455,51.4186],[-0.75446,51.41803],[-0.75516,51.41785],[-0.7555,51.41579],[-0.75568,51.4157],[-0.75847,51.41747],[-0.7583,51.41809],[-0.75683,51.41805],[-0.75577,51.41932],[-0.75491,51.41961],[-0.7561,51.42037],[-0.75707,51.42046],[-0.75718,51.42107],[-0.75791,51.42118],[-0.75912,51.42082],[-0.76002,51.42085],[-0.76044,51.42028],[-0.76182,51.42075],[-0.76024,51.4224],[-0.75888,51.42317],[-0.75718,51.42369],[-0.75724,51.4234],[-0.7561,51.42304],[-0.75612,51.4227],[-0.75529,51.42287],[-0.75507,51.42345],[-0.75698,51.42374],[-0.75714,51.4253],[-0.75619,51.4252]]]}},{"type":"Feature","properties":{"id":"E01016241","name":"E01016241","parent":"E06000036","type":"LSOA","pop":1782,"r":301,"ff":90,"ffd":5050.5,"ffs":0.4348,"g":91,"co":0,"mo":0,"sa":0,"ic":0},"geometry":{"type":"Polygon","coordinates":[[[-0.76553,51.42382],[-0.76534,51.4235],[-0.76454,51.42368],[-0.76425,51.42337],[-0.765,51.42314],[-0.76488,51.42176],[-0.76428,51.42189],[-0.76422,51.42129],[-0.76337,51.4211],[-0.76297,51.42144],[-0.76262,51.4213],[-0.76253,51.42094],[-0.76331,51.42044],[-0.76234,51.42021],[-0.76182,51.42075],[-0.76044,51.42028],[-0.7602,51.41965],[-0.76264,51.41987],[-0.76325,51.41928],[-0.76366,51.41949],[-0.7635,51.41984],[-0.76558,51.42063],[-0.76567,51.4197],[-0.76613,51.41946],[-0.76687,51.41963],[-0.76764,51.41906],[-0.76897,51.41927],[-0.76964,51.41978],[-0.76982,51.42024],[-0.77104,51.42004],[-0.77277,51.42055],[-0.77249,51.42112],[-0.77392,51.42208],[-0.77536,51.42168],[-0.77676,51.42201],[-0.76968,51.42394],[-0.76454,51.42504],[-0.76461,51.42451],[-0.76553,51.42382]]]}},{"type":"Feature","properties":{"id":"E01016242","name":"E01016242","parent":"E06000036","type":"LSOA","pop":2371,"r":301,"ff":90,"ffd":3795.9,"ffs":0.4348,"g":91,"co":0,"mo":0,"sa":0,"ic":0},"geometry":{"type":"Polygon","coordinates":[[[-0.77392,51.42208],[-0.77249,51.42112],[-0.77277,51.42055],[-0.77104,51.42004],[-0.76982,51.42024],[-0.76964,51.41978],[-0.76897,51.41927],[-0.76764,51.41906],[-0.76687,51.41963],[-0.76613,51.41946],[-0.76567,51.4197],[-0.76558,51.42063],[-0.7635,51.41984],[-0.76366,51.41949],[-0.76325,51.41928],[-0.76264,51.41987],[-0.7602,51.41965],[-0.76044,51.42028],[-0.76002,51.42085],[-0.75912,51.42082],[-0.75791,51.42118],[-0.75718,51.42107],[-0.75707,51.42046],[-0.7561,51.42037],[-0.75491,51.41961],[-0.75577,51.41932],[-0.75683,51.41805],[-0.7583,51.41809],[-0.75847,51.41747],[-0.75568,51.4157],[-0.7597,51.41408],[-0.76013,51.41354],[-0.76721,51.41395],[-0.77374,51.41347],[-0.77092,51.4164],[-0.77073,51.41723],[-0.77309,51.41804],[-0.77387,51.4187],[-0.77358,51.42022],[-0.7787,51.42142],[-0.77676,51.42201],[-0.77536,51.42168],[-0.77392,51.42208]]]}},{"type":"Feature","properties":{"id":"E01016243","name":"E01016243","parent":"E06000036","type":"LSOA","pop":1400,"r":193,"ff":56,"ffd":4000.0,"ffs":0.4308,"g":61,"co":0,"mo":0,"sa":0,"ic":0},"geometry":{"type":"Polygon","coordinates":[[[-0.73125,51.42472],[-0.73149,51.42372],[-0.73194,51.42316],[-0.73258,51.42308],[-0.72621,51.42269],[-0.72496,51.42294],[-0.72489,51.42263],[-0.72186,51.42018],[-0.72071,51.41979],[-0.72078,51.41927],[-0.72245,51.41914],[-0.72581,51.4194],[-0.73067,51.42056],[-0.73524,51.42056],[-0.73337,51.42303],[-0.73359,51.42328],[-0.73342,51.42394],[-0.7329,51.42388],[-0.73266,51.42425],[-0.73295,51.42617],[-0.73199,51.42619],[-0.73184,51.42645],[-0.73046,51.42594],[-0.73031,51.42542],[-0.73164,51.4251],[-0.73125,51.42472]]]}},{"type":"Feature","properties":{"id":"E01016245","name":"E01016245","parent":"E06000036","type":"LSOA","pop":2341,"r":301,"ff":90,"ffd":3844.5,"ffs":0.4348,"g":91,"co":0,"mo":0,"sa":0,"ic":0},"geometry":{"type":"Polygon","coordinates":[[[-0.73751,51.42804],[-0.73744,51.42711],[-0.73507,51.42727],[-0.73443,51.42593],[-0.73364,51.42578],[-0.73295,51.42617],[-0.73266,51.42425],[-0.7329,51.42388],[-0.73342,51.42394],[-0.73359,51.42328],[-0.73337,51.42303],[-0.73524,51.42056],[-0.73703,51.42054],[-0.74173,51.42105],[-0.74347,51.42141],[-0.74046,51.42476],[-0.74181,51.425],[-0.74205,51.42477],[-0.74446,51.42538],[-0.74301,51.42685],[-0.74279,51.42731],[-0.74338,51.42738],[-0.7421,51.42901],[-0.73751,51.42804]]]}},{"type":"Feature","properties":{"id":"E01016246","name":"E01016246","parent":"E06000036","type":"LSOA","pop":1529,"r":301,"ff":90,"ffd":5886.2,"ffs":0.4348,"g":91,"co":0,"mo":0,"sa":0,"ic":0},"geometry":{"type":"Polygon","coordinates":[[[-0.72778,51.43165],[-0.72753,51.43073],[-0.7261,51.43093],[-0.72709,51.429],[-0.72565,51.42838],[-0.72608,51.42816],[-0.72616,51.42708],[-0.72557,51.42701],[-0.72536,51.42472],[-0.72675,51.42405],[-0.72669,51.42377],[-0.72572,51.42358],[-0.72535,51.42279],[-0.72887,51.42276],[-0.73258,51.42308],[-0.73194,51.42316],[-0.73149,51.42372],[-0.73125,51.42472],[-0.73164,51.4251],[-0.73031,51.42542],[-0.73046,51.42594],[-0.73184,51.42645],[-0.73199,51.42619],[-0.73295,51.42617],[-0.73364,51.42578],[-0.73443,51.42593],[-0.73507,51.42727],[-0.73744,51.42711],[-0.73751,51.42804],[-0.7331,51.42734],[-0.73181,51.42767],[-0.73051,51.42751],[-0.72987,51.42892],[-0.72895,51.4298],[-0.72868,51.43075],[-0.72873,51.43132],[-0.72934,51.43158],[-0.72778,51.43165]]]}},{"type":"Feature","properties":{"id":"E01016247","name":"E01016247","parent":"E06000036","type":"LSOA","pop":1789,"r":210,"ff":58,"ffd":3242.0,"ffs":0.4,"g":63,"co":0,"mo":0,"sa":0,"ic":0},"geometry":{"type":"Polygon","coordinates":[[[-0.75052,51.42965],[-0.7469,51.42926],[-0.74476,51.42939],[-0.7421,51.42901],[-0.74338,51.42738],[-0.74476,51.42716],[-0.74478,51.42684],[-0.74786,51.42609],[-0.75127,51.42615],[-0.75141,51.42672],[-0.75337,51.42703],[-0.75349,51.42646],[-0.75402,51.42644],[-0.75668,51.4267],[-0.75844,51.42721],[-0.75907,51.4268],[-0.764,51.42513],[-0.76617,51.42682],[-0.76594,51.42707],[-0.76358,51.42714],[-0.76178,51.4275],[-0.75789,51.42908],[-0.75492,51.42951],[-0.75052,51.42965]]]}},{"type":"Feature","properties":{"id":"E01016248","name":"E01016248","parent":"E06000036","type":"LSOA","pop":1590,"r":268,"ff":78,"ffd":4905.7,"ffs":0.4309,"g":85,"co":0,"mo":0,"sa":0,"ic":0},"geometry":{"type":"Polygon","coordinates":[[[-0.76457,51.40836],[-0.76425,51.40795],[-0.76328,51.40795],[-0.76302,51.4076],[-0.76172,51.40758],[-0.76141,51.40812],[-0.76094,51.40803],[-0.76099,51.40733],[-0.76025,51.4067],[-0.75931,51.40651],[-0.75889,51.40561],[-0.75803,51.40564],[-0.758,51.40511],[-0.75721,51.40543],[-0.75741,51.40667],[-0.75611,51.40669],[-0.75575,51.40717],[-0.75382,51.40803],[-0.75243,51.40819],[-0.75144,51.40768],[-0.75213,51.40778],[-0.75308,51.40738],[-0.75382,51.40754],[-0.75389,51.40689],[-0.75448,51.40591],[-0.75544,51.40585],[-0.75597,51.40517],[-0.75684,51.40466],[-0.75623,51.40426],[-0.75691,51.40374],[-0.7564,51.4035],[-0.75721,51.40298],[-0.75848,51.40103],[-0.76256,51.40105],[-0.76315,51.40348],[-0.76383,51.40366],[-0.76389,51.40431],[-0.76106,51.40477],[-0.76196,51.40535],[-0.7622,51.40653],[-0.76293,51.40614],[-0.76457,51.40605],[-0.76523,51.4074],[-0.76457,51.40836]]]}},{"type":"Feature","properties":{"id":"E01016250","name":"E01016250","parent":"E06000036","type":"LSOA","pop":1894,"r":267,"ff":75,"ffd":3959.9,"ffs":0.4144,"g":84,"co":0,"mo":0,"sa":0,"ic":0},"geometry":{"type":"Polygon","coordinates":[[[-0.7628,51.41039],[-0.76084,51.41007],[-0.75877,51.4101],[-0.75834,51.41035],[-0.75568,51.41096],[-0.7549,51.41057],[-0.75442,51.4108],[-0.75274,51.41009],[-0.75333,51.40976],[-0.75228,51.40924],[-0.75243,51.40819],[-0.75382,51.40803],[-0.75575,51.40717],[-0.75611,51.40669],[-0.75741,51.40667],[-0.75721,51.40543],[-0.758,51.40511],[-0.75803,51.40564],[-0.75889,51.40561],[-0.75931,51.40651],[-0.76025,51.4067],[-0.76099,51.40733],[-0.76094,51.40803],[-0.76141,51.40812],[-0.76172,51.40758],[-0.76302,51.4076],[-0.76328,51.40795],[-0.76425,51.40795],[-0.76457,51.40836],[-0.76523,51.4074],[-0.76457,51.40605],[-0.76293,51.40614],[-0.7622,51.40653],[-0.76196,51.40535],[-0.76106,51.40477],[-0.76389,51.40431],[-0.76383,51.40366],[-0.76477,51.40274],[-0.76866,51.40439],[-0.76926,51.40522],[-0.76926,51.40605],[-0.76537,51.41016],[-0.7624,51.41179],[-0.76204,51.41132],[-0.7628,51.41039]]]}},{"type":"Feature","properties":{"id":"E01016252","name":"E01016252","parent":"E06000036","type":"LSOA","pop":1485,"r":34,"ff":17,"ffd":1144.8,"ffs":0.5152,"g":1,"co":3,"mo":3,"sa":1,"ic":1},"geometry":{"type":"Polygon","coordinates":[[[-0.68887,51.46696],[-0.68229,51.46338],[-0.67978,51.46301],[-0.67275,51.45785],[-0.6689,51.45968],[-0.66502,51.46247],[-0.66265,51.46255],[-0.66097,51.46185],[-0.65676,51.46149],[-0.65846,51.452],[-0.65822,51.44932],[-0.66198,51.44432],[-0.65387,51.44137],[-0.6508,51.44177],[-0.64195,51.44101],[-0.63055,51.44219],[-0.63715,51.428],[-0.63123,51.42286],[-0.63207,51.41921],[-0.63129,51.41683],[-0.63131,51.41445],[-0.63532,51.41417],[-0.63545,51.4144],[-0.63833,51.41465],[-0.64044,51.41579],[-0.64107,51.41707],[-0.64328,51.41894],[-0.64891,51.4211],[-0.65386,51.42395],[-0.65825,51.42399],[-0.6631,51.42602],[-0.66795,51.43075],[-0.67626,51.43158],[-0.67898,51.42995],[-0.68027,51.42956],[-0.68101,51.43083],[-0.67887,51.43116],[-0.67943,51.43183],[-0.67802,51.43274],[-0.68063,51.43384],[-0.68125,51.43471],[-0.68267,51.43471],[-0.68247,51.43447],[-0.68758,51.43575],[-0.68663,51.43791],[-0.68343,51.43712],[-0.68218,51.4374],[-0.68115,51.4382],[-0.68073,51.43946],[-0.67926,51.44182],[-0.67313,51.44512],[-0.67523,51.44566],[-0.68087,51.4462],[-0.67896,51.44733],[-0.67747,51.44886],[-0.6792,51.44985],[-0.68054,51.44869],[-0.68178,51.44616],[-0.68507,51.44585],[-0.68159,51.45108],[-0.68207,51.45138],[-0.68871,51.44959],[-0.68992,51.44747],[-0.68934,51.44698],[-0.69105,51.44589],[-0.69259,51.44639],[-0.69135,51.44766],[-0.69246,51.4478],[-0.69751,51.4473],[-0.70003,51.44679],[-0.70177,51.44604],[-0.70391,51.44729],[-0.7051,51.44858],[-0.70486,51.44975],[-0.70621,51.44983],[-0.70953,51.45102],[-0.71236,51.45249],[-0.71506,51.45441],[-0.71511,51.45573],[-0.71608,51.45645],[-0.71575,51.45883],[-0.71639,51.4606],[-0.71829,51.46035],[-0.71873,51.46207],[-0.71442,51.46714],[-0.71048,51.46639],[-0.71013,51.46747],[-0.70834,51.4676],[-0.70008,51.4676],[-0.68887,51.46696]]]}},{"type":"Feature","properties":{"id":"E01016253","name":"E01016253","parent":"E06000036","type":"LSOA","pop":1365,"r":301,"ff":90,"ffd":6593.4,"ffs":0.4348,"g":91,"co":2,"mo":0,"sa":0,"ic":0},"geometry":{"type":"Polygon","coordinates":[[[-0.71393,51.42969],[-0.71304,51.42952],[-0.71282,51.43136],[-0.71123,51.43135],[-0.71138,51.43068],[-0.71069,51.43073],[-0.71055,51.43107],[-0.70864,51.4308],[-0.70937,51.43134],[-0.7063,51.43122],[-0.70668,51.43054],[-0.7053,51.42967],[-0.7057,51.42857],[-0.7057,51.428],[-0.7045,51.42768],[-0.70405,51.4264],[-0.70061,51.42995],[-0.69902,51.42963],[-0.6983,51.42867],[-0.69833,51.42627],[-0.70063,51.42677],[-0.7033,51.42398],[-0.70198,51.42336],[-0.70607,51.4222],[-0.70622,51.42175],[-0.70683,51.42157],[-0.70839,51.42191],[-0.70919,51.42113],[-0.71569,51.42295],[-0.71611,51.42426],[-0.71654,51.42918],[-0.71647,51.43144],[-0.71371,51.43136],[-0.71414,51.43047],[-0.71376,51.4302],[-0.71393,51.42969]]]}},{"type":"Feature","properties":{"id":"E01032724","name":"E01032724","parent":"E06000036","type":"LSOA","pop":1996,"r":301,"ff":90,"ffd":4509.0,"ffs":0.4348,"g":91,"co":0,"mo":0,"sa":0,"ic":0},"geometry":{"type":"Polygon","coordinates":[[[-0.7367,51.41974],[-0.73616,51.41905],[-0.73523,51.41899],[-0.735,51.41695],[-0.73429,51.41668],[-0.73401,51.41704],[-0.73351,51.41689],[-0.73385,51.41642],[-0.73247,51.4166],[-0.73253,51.41631],[-0.73375,51.41615],[-0.73295,51.41524],[-0.73331,51.41473],[-0.73432,51.41515],[-0.7342,51.41606],[-0.73521,51.41612],[-0.73617,51.41573],[-0.73629,51.41549],[-0.73611,51.41512],[-0.73909,51.41373],[-0.74119,51.41425],[-0.74177,51.41468],[-0.74076,51.41507],[-0.74198,51.41517],[-0.74198,51.41593],[-0.74369,51.41607],[-0.74525,51.41704],[-0.74507,51.41769],[-0.74419,51.41754],[-0.74408,51.41693],[-0.74278,51.41738],[-0.74196,51.41689],[-0.7387,51.41729],[-0.73802,51.41756],[-0.73819,51.41784],[-0.73754,51.41767],[-0.73648,51.4185],[-0.73718,51.41893],[-0.73704,51.41947],[-0.73744,51.4194],[-0.7367,51.41974]]]}},{"type":"Feature","properties":{"id":"E01032726","name":"E01032726","parent":"E06000036","type":"LSOA","pop":1814,"r":261,"ff":78,"ffd":4299.9,"ffs":0.4382,"g":81,"co":0,"mo":0,"sa":0,"ic":0},"geometry":{"type":"Polygon","coordinates":[[[-0.7759,51.40887],[-0.77484,51.40871],[-0.77428,51.4091],[-0.77386,51.40885],[-0.77441,51.40817],[-0.77459,51.40632],[-0.77271,51.40491],[-0.77221,51.40383],[-0.77296,51.40367],[-0.77308,51.4011],[-0.77263,51.40069],[-0.77253,51.40022],[-0.77314,51.39978],[-0.77427,51.39965],[-0.77405,51.39892],[-0.77346,51.39879],[-0.77283,51.39787],[-0.77511,51.39752],[-0.77669,51.39971],[-0.78077,51.39842],[-0.7822,51.39875],[-0.77953,51.40016],[-0.77808,51.40147],[-0.77855,51.40302],[-0.77733,51.40316],[-0.77757,51.4052],[-0.77707,51.4056],[-0.77888,51.40651],[-0.77981,51.40863],[-0.77867,51.40877],[-0.77853,51.40952],[-0.7759,51.40887]]]}},{"type":"Feature","properties":{"id":"E01032728","name":"E01032728","parent":"E06000036","type":"LSOA","pop":2046,"r":230,"ff":64,"ffd":3128.1,"ffs":0.4211,"g":76,"co":0,"mo":0,"sa":0,"ic":0},"geometry":{"type":"Polygon","coordinates":[[[-0.72488,51.41612],[-0.72591,51.41282],[-0.72374,51.41275],[-0.72975,51.41294],[-0.73161,51.41332],[-0.734,51.41247],[-0.73273,51.41061],[-0.73316,51.40942],[-0.74345,51.41177],[-0.74352,51.41236],[-0.74298,51.41327],[-0.7435,51.41396],[-0.744,51.41516],[-0.74387,51.41615],[-0.74198,51.41593],[-0.74198,51.41517],[-0.74076,51.41507],[-0.74177,51.41468],[-0.74119,51.41425],[-0.73909,51.41373],[-0.73611,51.41512],[-0.73629,51.41549],[-0.73617,51.41573],[-0.73521,51.41612],[-0.7342,51.41606],[-0.73432,51.41515],[-0.73331,51.41473],[-0.73295,51.41524],[-0.73375,51.41615],[-0.73253,51.41631],[-0.73231,51.41557],[-0.73187,51.41542],[-0.73051,51.41614],[-0.72971,51.41619],[-0.72954,51.41572],[-0.72907,51.41569],[-0.72774,51.41725],[-0.72674,51.41751],[-0.72505,51.41727],[-0.72572,51.4167],[-0.72488,51.41612]]]}},{"type":"Feature","properties":{"id":"E01035234","name":"E01035234","parent":"E06000036","type":"LSOA","pop":1160,"r":157,"ff":52,"ffd":4482.8,"ffs":0.4643,"g":44,"co":2,"mo":0,"sa":0,"ic":1},"geometry":{"type":"Polygon","coordinates":[[[-0.71873,51.46207],[-0.71829,51.46035],[-0.71639,51.4606],[-0.71575,51.45883],[-0.71608,51.45645],[-0.71511,51.45573],[-0.71506,51.45441],[-0.71236,51.45249],[-0.70953,51.45102],[-0.70621,51.44983],[-0.70486,51.44975],[-0.7051,51.44858],[-0.70391,51.44729],[-0.70177,51.44604],[-0.70003,51.44679],[-0.69751,51.4473],[-0.69246,51.4478],[-0.69135,51.44766],[-0.69259,51.44639],[-0.69105,51.44589],[-0.68934,51.44698],[-0.68992,51.44747],[-0.68871,51.44959],[-0.68207,51.45138],[-0.68159,51.45108],[-0.68507,51.44585],[-0.68178,51.44616],[-0.68054,51.44869],[-0.6792,51.44985],[-0.67747,51.44886],[-0.67896,51.44733],[-0.68087,51.4462],[-0.67523,51.44566],[-0.67313,51.44512],[-0.67926,51.44182],[-0.68073,51.43946],[-0.68115,51.4382],[-0.68218,51.4374],[-0.68343,51.43712],[-0.68663,51.43791],[-0.68758,51.43575],[-0.68247,51.43447],[-0.68267,51.43471],[-0.68125,51.43471],[-0.68063,51.43384],[-0.67802,51.43274],[-0.67943,51.43183],[-0.67887,51.43116],[-0.68101,51.43083],[-0.68027,51.42956],[-0.68343,51.42864],[-0.6857,51.42833],[-0.68789,51.42835],[-0.69122,51.42887],[-0.69229,51.42711],[-0.69238,51.42601],[-0.69521,51.4252],[-0.6975,51.42634],[-0.69833,51.42627],[-0.6983,51.42867],[-0.69902,51.42963],[-0.70061,51.42995],[-0.70405,51.4264],[-0.7045,51.42768],[-0.7057,51.428],[-0.7057,51.42857],[-0.7053,51.42967],[-0.70668,51.43054],[-0.7063,51.43122],[-0.70937,51.43134],[-0.70864,51.4308],[-0.71055,51.43107],[-0.71069,51.43073],[-0.71138,51.43068],[-0.71123,51.43135],[-0.71282,51.43136],[-0.71304,51.42952],[-0.71393,51.42969],[-0.71376,51.4302],[-0.71414,51.43047],[-0.71371,51.43136],[-0.727,51.4317],[-0.72648,51.43088],[-0.72753,51.43073],[-0.72778,51.43165],[-0.72934,51.43158],[-0.72983,51.43276],[-0.72686,51.43446],[-0.72928,51.43769],[-0.72891,51.43953],[-0.7278,51.44301],[-0.7283,51.44301],[-0.72815,51.44516],[-0.72608,51.44511],[-0.72538,51.44658],[-0.7253,51.44701],[-0.72628,51.447],[-0.72719,51.44853],[-0.7271,51.44964],[-0.72584,51.45004],[-0.72697,51.45088],[-0.7289,51.45013],[-0.73119,51.4504],[-0.73128,51.45143],[-0.7325,51.45096],[-0.73322,51.45174],[-0.73062,51.45274],[-0.73321,51.45571],[-0.73481,51.45668],[-0.74107,51.45887],[-0.72453,51.45614],[-0.72331,51.45771],[-0.7204,51.4599],[-0.71873,51.46207]]]}},{"type":"Feature","properties":{"id":"E01035235","name":"E01035235","parent":"E06000036","type":"LSOA","pop":1808,"r":185,"ff":56,"ffd":3097.3,"ffs":0.4444,"g":57,"co":0,"mo":0,"sa":0,"ic":0},"geometry":{"type":"Polygon","coordinates":[[[-0.71647,51.43144],[-0.71654,51.42918],[-0.71611,51.42426],[-0.71569,51.42295],[-0.71462,51.42264],[-0.71632,51.42251],[-0.716,51.42068],[-0.72028,51.42016],[-0.72071,51.41979],[-0.72186,51.42018],[-0.72489,51.42263],[-0.72496,51.42294],[-0.72535,51.42279],[-0.72572,51.42358],[-0.72669,51.42377],[-0.72675,51.42405],[-0.72536,51.42472],[-0.72557,51.42701],[-0.72616,51.42708],[-0.72608,51.42816],[-0.72565,51.42838],[-0.72709,51.429],[-0.7261,51.43093],[-0.72648,51.43088],[-0.727,51.4317],[-0.71647,51.43144]]]}},{"type":"Feature","properties":{"id":"E01035236","name":"E01035236","parent":"E06000036","type":"LSOA","pop":2243,"r":301,"ff":90,"ffd":4012.5,"ffs":0.4348,"g":91,"co":2,"mo":0,"sa":0,"ic":0},"geometry":{"type":"Polygon","coordinates":[[[-0.76075,51.45911],[-0.75733,51.45902],[-0.75275,51.46223],[-0.74589,51.45881],[-0.74107,51.45887],[-0.73481,51.45668],[-0.73321,51.45571],[-0.73062,51.45274],[-0.73322,51.45174],[-0.7325,51.45096],[-0.73128,51.45143],[-0.73119,51.4504],[-0.7289,51.45013],[-0.72697,51.45088],[-0.72584,51.45004],[-0.7271,51.44964],[-0.72719,51.44853],[-0.72628,51.447],[-0.7253,51.44701],[-0.72538,51.44658],[-0.72608,51.44511],[-0.72815,51.44516],[-0.7283,51.44301],[-0.7278,51.44301],[-0.72891,51.43953],[-0.72928,51.43769],[-0.72686,51.43446],[-0.72983,51.43276],[-0.72934,51.43158],[-0.72873,51.43132],[-0.72868,51.43075],[-0.72895,51.4298],[-0.72987,51.42892],[-0.73051,51.42751],[-0.73181,51.42767],[-0.7331,51.42734],[-0.74476,51.42939],[-0.7469,51.42926],[-0.75052,51.42965],[-0.75492,51.42951],[-0.75356,51.43106],[-0.75192,51.43089],[-0.75092,51.43109],[-0.75022,51.4333],[-0.7473,51.4327],[-0.7466,51.43286],[-0.74607,51.43251],[-0.7457,51.43301],[-0.74637,51.43351],[-0.74613,51.43404],[-0.74751,51.435],[-0.74966,51.43575],[-0.75043,51.43578],[-0.75242,51.4375],[-0.75228,51.43952],[-0.75333,51.43992],[-0.75195,51.44103],[-0.75312,51.44302],[-0.75302,51.44354],[-0.75647,51.44496],[-0.75781,51.44513],[-0.7588,51.44308],[-0.76152,51.43996],[-0.76642,51.43755],[-0.76866,51.43591],[-0.76914,51.43485],[-0.77473,51.43594],[-0.77641,51.43489],[-0.77747,51.43504],[-0.7779,51.43352],[-0.77943,51.43324],[-0.77905,51.43278],[-0.78019,51.43262],[-0.78043,51.43336],[-0.78193,51.43352],[-0.78189,51.43282],[-0.78433,51.43253],[-0.78434,51.43208],[-0.78372,51.4318],[-0.78559,51.43153],[-0.7872,51.43082],[-0.78765,51.43142],[-0.78799,51.43137],[-0.78679,51.43465],[-0.78791,51.43488],[-0.7873,51.43546],[-0.78969,51.43578],[-0.78886,51.43602],[-0.78922,51.43648],[-0.78865,51.43723],[-0.78898,51.43745],[-0.78829,51.43772],[-0.78984,51.43811],[-0.79288,51.43748],[-0.79126,51.43744],[-0.7909,51.43708],[-0.79048,51.43733],[-0.7903,51.43681],[-0.79079,51.43676],[-0.79092,51.43623],[-0.79254,51.43605],[-0.79271,51.43509],[-0.79381,51.43443],[-0.79596,51.4346],[-0.79593,51.43432],[-0.79715,51.43439],[-0.79701,51.43379],[-0.79835,51.43386],[-0.7981,51.43618],[-0.79971,51.43895],[-0.80002,51.44118],[-0.79999,51.44511],[-0.79899,51.44652],[-0.79703,51.44762],[-0.79627,51.44916],[-0.79286,51.45138],[-0.79016,51.45223],[-0.78707,51.45564],[-0.78387,51.46077],[-0.78377,51.46458],[-0.78257,51.46869],[-0.77565,51.46872],[-0.77516,51.46839],[-0.76964,51.46776],[-0.77014,51.46519],[-0.76956,51.46321],[-0.76463,51.45972],[-0.76294,51.4597],[-0.76075,51.45911]]]}},{"type":"Feature","properties":{"id":"E01035237","name":"E01035237","parent":"E06000036","type":"LSOA","pop":1984,"r":218,"ff":61,"ffd":3074.6,"ffs":0.4122,"g":69,"co":2,"mo":0,"sa":0,"ic":0},"geometry":{"type":"Polygon","coordinates":[[[-0.74637,51.43351],[-0.7457,51.43301],[-0.74607,51.43251],[-0.7466,51.43286],[-0.7473,51.4327],[-0.75022,51.4333],[-0.75092,51.43109],[-0.75192,51.43089],[-0.75356,51.43106],[-0.75492,51.42951],[-0.75789,51.42908],[-0.76178,51.4275],[-0.76358,51.42714],[-0.76594,51.42707],[-0.76617,51.42682],[-0.76799,51.4284],[-0.77063,51.42934],[-0.77072,51.43053],[-0.76866,51.43591],[-0.76642,51.43755],[-0.76152,51.43996],[-0.7588,51.44308],[-0.75781,51.44513],[-0.75647,51.44496],[-0.75302,51.44354],[-0.75312,51.44302],[-0.75195,51.44103],[-0.75333,51.43992],[-0.75228,51.43952],[-0.75242,51.4375],[-0.75043,51.43578],[-0.74966,51.43575],[-0.74751,51.435],[-0.74613,51.43404],[-0.74637,51.43351]]]}},{"type":"Feature","properties":{"id":"E01035238","name":"E01035238","parent":"E06000036","type":"LSOA","pop":1435,"r":250,"ff":70,"ffd":4878.0,"ffs":0.4142,"g":80,"co":0,"mo":0,"sa":0,"ic":0},"geometry":{"type":"Polygon","coordinates":[[[-0.78825,51.42799],[-0.78651,51.42413],[-0.78411,51.42262],[-0.7849,51.42283],[-0.78593,51.42179],[-0.7852,51.41978],[-0.78467,51.41988],[-0.78633,51.4192],[-0.78906,51.41712],[-0.7904,51.41753],[-0.79107,51.41702],[-0.79134,51.41743],[-0.79276,51.41717],[-0.79324,51.41686],[-0.79323,51.41602],[-0.79409,51.41613],[-0.7964,51.4173],[-0.79787,51.4175],[-0.79869,51.41953],[-0.79835,51.42286],[-0.79794,51.42374],[-0.79483,51.42426],[-0.79205,51.42543],[-0.79064,51.42642],[-0.7898,51.42612],[-0.78984,51.42708],[-0.79027,51.42742],[-0.79102,51.42786],[-0.79144,51.42765],[-0.79203,51.42791],[-0.79172,51.42823],[-0.79209,51.42905],[-0.79024,51.42934],[-0.78941,51.42802],[-0.78825,51.42799]]]}},{"type":"Feature","properties":{"id":"E01035239","name":"E01035239","parent":"E06000036","type":"LSOA","pop":1119,"r":301,"ff":90,"ffd":8042.9,"ffs":0.4348,"g":91,"co":0,"mo":0,"sa":0,"ic":0},"geometry":{"type":"Polygon","coordinates":[[[-0.7832,51.42109],[-0.78351,51.42019],[-0.78026,51.42106],[-0.7782,51.41986],[-0.77687,51.41966],[-0.77608,51.41984],[-0.77616,51.41949],[-0.77907,51.41768],[-0.78054,51.41768],[-0.78214,51.41736],[-0.78043,51.41638],[-0.78062,51.41468],[-0.78177,51.41519],[-0.78505,51.41559],[-0.78689,51.41521],[-0.78802,51.41547],[-0.78891,51.41725],[-0.78633,51.4192],[-0.78415,51.42006],[-0.78415,51.42062],[-0.78484,51.4208],[-0.78494,51.42114],[-0.78445,51.42138],[-0.78502,51.42211],[-0.78422,51.42206],[-0.7832,51.42109]]]}},{"type":"Feature","properties":{"id":"E01035240","name":"E01035240","parent":"E06000036","type":"LSOA","pop":1826,"r":275,"ff":80,"ffd":4381.2,"ffs":0.4372,"g":90,"co":0,"mo":0,"sa":0,"ic":0},"geometry":{"type":"Polygon","coordinates":[[[-0.7904,51.41753],[-0.78906,51.41712],[-0.78891,51.41725],[-0.78802,51.41547],[-0.78689,51.41521],[-0.78505,51.41559],[-0.78177,51.41519],[-0.78062,51.41468],[-0.7796,51.41456],[-0.77957,51.41412],[-0.78419,51.41109],[-0.77776,51.41249],[-0.77482,51.41258],[-0.7759,51.40887],[-0.78071,51.40995],[-0.78295,51.4097],[-0.78554,51.40857],[-0.787,51.40762],[-0.78852,51.40718],[-0.79124,51.40532],[-0.7932,51.40529],[-0.79596,51.40444],[-0.80075,51.40385],[-0.80147,51.40509],[-0.80197,51.40906],[-0.79808,51.40918],[-0.79461,51.40855],[-0.79251,51.40885],[-0.79323,51.41139],[-0.79574,51.41323],[-0.79668,51.41446],[-0.79787,51.4175],[-0.7964,51.4173],[-0.79409,51.41613],[-0.79323,51.41602],[-0.79324,51.41686],[-0.79276,51.41717],[-0.79134,51.41743],[-0.79107,51.41702],[-0.7904,51.41753]]]}},{"type":"Feature","properties":{"id":"E01035241","name":"E01035241","parent":"E06000036","type":"LSOA","pop":1462,"r":301,"ff":90,"ffd":6156.0,"ffs":0.4348,"g":91,"co":0,"mo":0,"sa":0,"ic":0},"geometry":{"type":"Polygon","coordinates":[[[-0.74525,51.41704],[-0.74387,51.41615],[-0.744,51.41516],[-0.7435,51.41396],[-0.74298,51.41327],[-0.74352,51.41236],[-0.74345,51.41177],[-0.74605,51.41231],[-0.74614,51.41166],[-0.74899,51.41196],[-0.74908,51.41261],[-0.74993,51.41251],[-0.75044,51.41289],[-0.75493,51.4132],[-0.75316,51.4132],[-0.75244,51.41359],[-0.75281,51.41504],[-0.75291,51.41689],[-0.75324,51.41682],[-0.75186,51.41731],[-0.75133,51.41863],[-0.7489,51.41867],[-0.74518,51.41762],[-0.74525,51.41704]]]}},{"type":"Feature","properties":{"id":"E01035242","name":"E01035242","parent":"E06000036","type":"LSOA","pop":2240,"r":301,"ff":90,"ffd":4017.9,"ffs":0.4348,"g":91,"co":0,"mo":0,"sa":0,"ic":0},"geometry":{"type":"Polygon","coordinates":[[[-0.75186,51.41731],[-0.75324,51.41682],[-0.75291,51.41689],[-0.75281,51.41504],[-0.75244,51.41359],[-0.75316,51.4132],[-0.75493,51.4132],[-0.75044,51.41289],[-0.74993,51.41251],[-0.74908,51.41261],[-0.74899,51.41196],[-0.74614,51.41166],[-0.74624,51.41054],[-0.74667,51.41038],[-0.74633,51.40991],[-0.74829,51.40919],[-0.74847,51.4085],[-0.75144,51.40768],[-0.75243,51.40819],[-0.75228,51.40924],[-0.75333,51.40976],[-0.75274,51.41009],[-0.75442,51.4108],[-0.7549,51.41057],[-0.75568,51.41096],[-0.75834,51.41035],[-0.75877,51.4101],[-0.76084,51.41007],[-0.7628,51.41039],[-0.76204,51.41132],[-0.7624,51.41179],[-0.76139,51.41271],[-0.76067,51.41264],[-0.7597,51.41408],[-0.7555,51.41579],[-0.75516,51.41785],[-0.75446,51.41803],[-0.75455,51.4186],[-0.7489,51.41867],[-0.75133,51.41863],[-0.75186,51.41731]]]}},{"type":"Feature","properties":{"id":"E01035243","name":"E01035243","parent":"E06000036","type":"LSOA","pop":1851,"r":258,"ff":71,"ffd":3835.8,"ffs":0.4104,"g":83,"co":0,"mo":0,"sa":0,"ic":0},"geometry":{"type":"Polygon","coordinates":[[[-0.74279,51.40914],[-0.74176,51.40796],[-0.73815,51.40862],[-0.73602,51.40785],[-0.73449,51.40783],[-0.73439,51.40732],[-0.74196,51.40493],[-0.74305,51.40551],[-0.74331,51.40539],[-0.74259,51.40469],[-0.74395,51.40416],[-0.74449,51.40459],[-0.74359,51.40494],[-0.74379,51.40551],[-0.74419,51.40501],[-0.74519,51.40528],[-0.74459,51.40469],[-0.74527,51.40451],[-0.74695,51.4058],[-0.74703,51.40633],[-0.7475,51.40626],[-0.74737,51.40567],[-0.74759,51.40589],[-0.74847,51.4085],[-0.74829,51.40919],[-0.74633,51.40991],[-0.74667,51.41038],[-0.74624,51.41054],[-0.74605,51.41231],[-0.73881,51.41072],[-0.74088,51.41037],[-0.74408,51.41017],[-0.74316,51.40971],[-0.74279,51.40914]]]}},{"type":"Feature","properties":{"id":"E01035244","name":"E01035244","parent":"E06000036","type":"LSOA","pop":1401,"r":301,"ff":90,"ffd":6424.0,"ffs":0.4348,"g":91,"co":0,"mo":0,"sa":0,"ic":0},"geometry":{"type":"Polygon","coordinates":[[[-0.74695,51.4058],[-0.74527,51.40451],[-0.74459,51.40469],[-0.74519,51.40528],[-0.74419,51.40501],[-0.74379,51.40551],[-0.74359,51.40494],[-0.74449,51.40459],[-0.74395,51.40416],[-0.74259,51.40469],[-0.74331,51.40539],[-0.74305,51.40551],[-0.74196,51.40493],[-0.74066,51.40539],[-0.7396,51.40497],[-0.7387,51.40403],[-0.73786,51.40385],[-0.73701,51.40188],[-0.74069,51.40077],[-0.7443,51.40013],[-0.74434,51.40079],[-0.74625,51.40059],[-0.74601,51.40153],[-0.74634,51.40159],[-0.74744,51.40488],[-0.7475,51.40626],[-0.74703,51.40633],[-0.74695,51.4058]]]}},{"type":"Feature","properties":{"id":"E01035245","name":"E01035245","parent":"E06000036","type":"LSOA","pop":1705,"r":296,"ff":90,"ffd":5278.6,"ffs":0.4545,"g":95,"co":0,"mo":0,"sa":0,"ic":0},"geometry":{"type":"Polygon","coordinates":[[[-0.77853,51.40952],[-0.77867,51.40877],[-0.77981,51.40863],[-0.77888,51.40651],[-0.77707,51.4056],[-0.77757,51.4052],[-0.77733,51.40316],[-0.77812,51.4031],[-0.77873,51.40329],[-0.77804,51.4034],[-0.7781,51.40445],[-0.77916,51.40472],[-0.78072,51.40463],[-0.78129,51.40545],[-0.7814,51.40494],[-0.78202,51.40484],[-0.78293,51.40503],[-0.78313,51.40465],[-0.78501,51.40514],[-0.78628,51.40468],[-0.79117,51.40411],[-0.79125,51.40444],[-0.78811,51.40546],[-0.78684,51.40625],[-0.78614,51.40602],[-0.78617,51.40649],[-0.78852,51.40718],[-0.787,51.40762],[-0.78554,51.40857],[-0.78295,51.4097],[-0.78071,51.40995],[-0.77853,51.40952]]]}},{"type":"Feature","properties":{"id":"E01035246","name":"E01035246","parent":"E06000036","type":"LSOA","pop":1868,"r":275,"ff":81,"ffd":4336.2,"ffs":0.4378,"g":88,"co":0,"mo":0,"sa":0,"ic":0},"geometry":{"type":"Polygon","coordinates":[[[-0.78617,51.40649],[-0.78614,51.40602],[-0.78684,51.40625],[-0.78811,51.40546],[-0.79125,51.40444],[-0.79117,51.40411],[-0.78628,51.40468],[-0.78501,51.40514],[-0.78313,51.40465],[-0.78293,51.40503],[-0.78202,51.40484],[-0.7814,51.40494],[-0.78129,51.40545],[-0.78072,51.40463],[-0.77916,51.40472],[-0.7781,51.40445],[-0.77804,51.4034],[-0.77873,51.40329],[-0.77812,51.4031],[-0.77855,51.40302],[-0.77808,51.40147],[-0.77953,51.40016],[-0.7822,51.39875],[-0.7832,51.39957],[-0.78639,51.40008],[-0.78971,51.39806],[-0.78872,51.39721],[-0.78956,51.39726],[-0.79122,51.39665],[-0.79119,51.39604],[-0.79566,51.3972],[-0.79685,51.39403],[-0.79783,51.39565],[-0.79896,51.40013],[-0.80075,51.40385],[-0.79596,51.40444],[-0.7932,51.40529],[-0.79124,51.40532],[-0.78852,51.40718],[-0.78617,51.40649]]]}}]}