{"type":"FeatureCollection","features":[{"type":"Feature","properties":{"id":"E01015814","name":"E01015814","parent":"E06000033","type":"LSOA","pop":1349,"r":431,"ff":187,"ffd":13862.1,"ffs":0.518,"g":69,"co":0,"mo":0,"sa":0,"ic":0},"geometry":{"type":"Polygon","coordinates":[[[0.65536,51.55081],[0.6553,51.54808],[0.65349,51.54831],[0.65348,51.55037],[0.65295,51.5506],[0.65204,51.5504],[0.65174,51.55078],[0.6517,51.55457],[0.65202,51.55503],[0.64978,51.55532],[0.64998,51.55628],[0.6496,51.55644],[0.65035,51.55693],[0.6558,51.55627],[0.65546,51.55396],[0.65536,51.55081]]]}},{"type":"Feature","properties":{"id":"E01015815","name":"E01015815","parent":"E06000033","type":"LSOA","pop":1654,"r":429,"ff":187,"ffd":11305.9,"ffs":0.5194,"g":68,"co":0,"mo":0,"sa":0,"ic":0},"geometry":{"type":"Polygon","coordinates":[[[0.65202,51.55503],[0.6517,51.55457],[0.65174,51.55078],[0.65204,51.5504],[0.65295,51.5506],[0.65348,51.55037],[0.65349,51.54831],[0.65029,51.54854],[0.64661,51.54839],[0.64571,51.54906],[0.6448,51.54899],[0.64622,51.55099],[0.64491,51.5511],[0.64238,51.55241],[0.64051,51.55259],[0.64249,51.55573],[0.64502,51.55511],[0.64804,51.55505],[0.649,51.55651],[0.64998,51.55628],[0.64978,51.55532],[0.65202,51.55503]]]}},{"type":"Feature","properties":{"id":"E01015816","name":"E01015816","parent":"E06000033","type":"LSOA","pop":1599,"r":385,"ff":173,"ffd":10819.3,"ffs":0.5406,"g":64,"co":0,"mo":0,"sa":0,"ic":0},"geometry":{"type":"Polygon","coordinates":[[[0.643,51.5659],[0.64229,51.56483],[0.64003,51.56488],[0.63957,51.56439],[0.64027,51.56445],[0.64034,51.56401],[0.64001,51.56399],[0.64006,51.56358],[0.63938,51.56348],[0.63952,51.56264],[0.64021,51.56268],[0.64027,51.56228],[0.63969,51.56224],[0.63976,51.56187],[0.63899,51.56167],[0.63578,51.56154],[0.63568,51.56201],[0.63465,51.56196],[0.63478,51.56338],[0.63428,51.56476],[0.63439,51.56526],[0.63311,51.56548],[0.63518,51.56803],[0.63412,51.56948],[0.63159,51.56993],[0.63222,51.57072],[0.63373,51.57024],[0.643,51.5659]]]}},{"type":"Feature","properties":{"id":"E01015817","name":"E01015817","parent":"E06000033","type":"LSOA","pop":1593,"r":416,"ff":179,"ffd":11236.7,"ffs":0.5188,"g":70,"co":0,"mo":0,"sa":0,"ic":0},"geometry":{"type":"Polygon","coordinates":[[[0.643,51.5659],[0.64882,51.56396],[0.64869,51.56351],[0.64663,51.56337],[0.64657,51.56268],[0.65004,51.5623],[0.64962,51.56072],[0.64736,51.56095],[0.64677,51.55964],[0.64709,51.55919],[0.64649,51.55894],[0.64653,51.55846],[0.64495,51.55887],[0.64339,51.55823],[0.64325,51.559],[0.63927,51.55896],[0.6355,51.5606],[0.63465,51.56196],[0.63568,51.56201],[0.63578,51.56154],[0.63899,51.56167],[0.63976,51.56187],[0.63969,51.56224],[0.64027,51.56228],[0.64021,51.56268],[0.63952,51.56264],[0.63938,51.56348],[0.64006,51.56358],[0.64001,51.56399],[0.64034,51.56401],[0.64027,51.56445],[0.63957,51.56439],[0.64003,51.56488],[0.64229,51.56483],[0.643,51.5659]]]}},{"type":"Feature","properties":{"id":"E01015818","name":"E01015818","parent":"E06000033","type":"LSOA","pop":1667,"r":433,"ff":185,"ffd":11097.8,"ffs":0.5168,"g":74,"co":0,"mo":0,"sa":0,"ic":0},"geometry":{"type":"Polygon","coordinates":[[[0.66294,51.56215],[0.65757,51.56039],[0.65702,51.56032],[0.65711,51.56079],[0.65661,51.56098],[0.65589,51.56067],[0.65574,51.56034],[0.65166,51.55978],[0.65174,51.55933],[0.65108,51.55917],[0.65092,51.55807],[0.65149,51.55797],[0.65143,51.55768],[0.64764,51.55829],[0.64838,51.5585],[0.64818,51.55892],[0.64963,51.55981],[0.65032,51.56117],[0.65117,51.56154],[0.65103,51.56202],[0.64996,51.56204],[0.65004,51.5623],[0.64952,51.56244],[0.64657,51.56268],[0.64663,51.56337],[0.64869,51.56351],[0.64882,51.56396],[0.65324,51.56339],[0.66317,51.56268],[0.66294,51.56215]]]}},{"type":"Feature","properties":{"id":"E01015819","name":"E01015819","parent":"E06000033","type":"LSOA","pop":1431,"r":429,"ff":184,"ffd":12858.1,"ffs":0.5198,"g":74,"co":0,"mo":0,"sa":0,"ic":0},"geometry":{"type":"Polygon","coordinates":[[[0.65032,51.56117],[0.64963,51.55981],[0.64818,51.55892],[0.64838,51.5585],[0.64764,51.55829],[0.65143,51.55768],[0.65149,51.55797],[0.65092,51.55807],[0.65108,51.55917],[0.65174,51.55933],[0.65166,51.55978],[0.65574,51.56034],[0.65589,51.56067],[0.65661,51.56098],[0.65711,51.56079],[0.65608,51.55839],[0.6558,51.55627],[0.65035,51.55693],[0.6496,51.55644],[0.649,51.55651],[0.64804,51.55505],[0.64502,51.55511],[0.64249,51.55573],[0.64051,51.55259],[0.63828,51.55327],[0.63476,51.55384],[0.63363,51.55423],[0.63358,51.55596],[0.63169,51.55765],[0.63314,51.55909],[0.6355,51.5606],[0.63927,51.55896],[0.64325,51.559],[0.64339,51.55823],[0.64495,51.55887],[0.64653,51.55846],[0.64649,51.55894],[0.64709,51.55919],[0.64677,51.55964],[0.64736,51.56095],[0.64962,51.56072],[0.64996,51.56204],[0.65103,51.56202],[0.65117,51.56154],[0.65032,51.56117]]]}},{"type":"Feature","properties":{"id":"E01015820","name":"E01015820","parent":"E06000033","type":"LSOA","pop":1719,"r":427,"ff":186,"ffd":10820.2,"ffs":0.5181,"g":67,"co":0,"mo":0,"sa":0,"ic":0},"geometry":{"type":"Polygon","coordinates":[[[0.66693,51.55626],[0.66704,51.55389],[0.6707,51.55378],[0.67235,51.55048],[0.67307,51.55012],[0.67254,51.5498],[0.67081,51.54934],[0.67047,51.54988],[0.66858,51.54997],[0.66857,51.54935],[0.66707,51.54913],[0.66428,51.54913],[0.664,51.54946],[0.66401,51.54989],[0.66243,51.55074],[0.66011,51.55043],[0.66012,51.55076],[0.65968,51.55077],[0.65958,51.55043],[0.65871,51.55095],[0.65989,51.55108],[0.66033,51.55219],[0.65856,51.55208],[0.65737,51.55308],[0.65753,51.55375],[0.65988,51.55343],[0.65993,51.55379],[0.66306,51.55363],[0.66306,51.55408],[0.66018,51.55434],[0.66054,51.55559],[0.66163,51.55587],[0.66278,51.55538],[0.66693,51.55626]]]}},{"type":"Feature","properties":{"id":"E01015821","name":"E01015821","parent":"E06000033","type":"LSOA","pop":1659,"r":428,"ff":183,"ffd":11030.7,"ffs":0.5126,"g":70,"co":0,"mo":0,"sa":0,"ic":0},"geometry":{"type":"Polygon","coordinates":[[[0.65908,51.55077],[0.65958,51.55043],[0.65968,51.55077],[0.66012,51.55076],[0.66011,51.55043],[0.66243,51.55074],[0.66401,51.54989],[0.664,51.54946],[0.66428,51.54913],[0.66707,51.54913],[0.66702,51.54744],[0.66607,51.54744],[0.66607,51.54724],[0.6553,51.54808],[0.65536,51.55118],[0.65729,51.55122],[0.65856,51.55208],[0.66033,51.55219],[0.65989,51.55108],[0.65871,51.55095],[0.65908,51.55077]]]}},{"type":"Feature","properties":{"id":"E01015822","name":"E01015822","parent":"E06000033","type":"LSOA","pop":1283,"r":423,"ff":180,"ffd":14029.6,"ffs":0.507,"g":67,"co":0,"mo":0,"sa":0,"ic":0},"geometry":{"type":"Polygon","coordinates":[[[0.67839,51.55375],[0.68195,51.55334],[0.68102,51.5514],[0.67798,51.55137],[0.6773,51.55115],[0.67796,51.55094],[0.67741,51.55064],[0.67742,51.54853],[0.67639,51.54884],[0.67576,51.54858],[0.67584,51.54891],[0.67473,51.54939],[0.67442,51.5503],[0.67307,51.55012],[0.67235,51.55048],[0.6707,51.55378],[0.67433,51.55409],[0.67839,51.55375]]]}},{"type":"Feature","properties":{"id":"E01015823","name":"E01015823","parent":"E06000033","type":"LSOA","pop":1773,"r":409,"ff":168,"ffd":9475.5,"ffs":0.4927,"g":67,"co":0,"mo":0,"sa":0,"ic":0},"geometry":{"type":"Polygon","coordinates":[[[0.67473,51.54939],[0.67584,51.54891],[0.67576,51.54858],[0.67639,51.54884],[0.67789,51.54845],[0.67785,51.54812],[0.67736,51.54819],[0.67708,51.54692],[0.67763,51.54569],[0.6733,51.54575],[0.67051,51.54673],[0.66607,51.54724],[0.66607,51.54744],[0.66702,51.54744],[0.66707,51.54913],[0.66857,51.54935],[0.66858,51.54997],[0.67047,51.54988],[0.67081,51.54934],[0.67254,51.5498],[0.67307,51.55012],[0.67442,51.5503],[0.67473,51.54939]]]}},{"type":"Feature","properties":{"id":"E01015824","name":"E01015824","parent":"E06000033","type":"LSOA","pop":1700,"r":426,"ff":182,"ffd":10705.9,"ffs":0.5098,"g":68,"co":0,"mo":0,"sa":0,"ic":0},"geometry":{"type":"Polygon","coordinates":[[[0.67256,51.56127],[0.67093,51.55943],[0.67154,51.55922],[0.67124,51.55884],[0.67154,51.55874],[0.67088,51.55801],[0.67182,51.5577],[0.67135,51.55676],[0.67135,51.55608],[0.67176,51.55607],[0.67138,51.55388],[0.66704,51.55389],[0.66693,51.55626],[0.66721,51.55675],[0.66654,51.55728],[0.6678,51.55898],[0.66829,51.55885],[0.66883,51.55962],[0.66677,51.56079],[0.66602,51.56096],[0.66607,51.56048],[0.66563,51.56034],[0.66462,51.56272],[0.66824,51.56313],[0.671,51.56316],[0.67245,51.56306],[0.67449,51.56256],[0.67256,51.56127]]]}},{"type":"Feature","properties":{"id":"E01015825","name":"E01015825","parent":"E06000033","type":"LSOA","pop":1653,"r":432,"ff":186,"ffd":11252.3,"ffs":0.5152,"g":70,"co":0,"mo":0,"sa":0,"ic":0},"geometry":{"type":"Polygon","coordinates":[[[0.66462,51.56272],[0.66563,51.56034],[0.66607,51.56048],[0.66602,51.56096],[0.66677,51.56079],[0.66883,51.55962],[0.66829,51.55885],[0.6678,51.55898],[0.66654,51.55728],[0.66721,51.55675],[0.66693,51.55626],[0.66278,51.55538],[0.6631,51.55649],[0.66016,51.55702],[0.65942,51.55695],[0.65921,51.55723],[0.65954,51.55836],[0.6608,51.55876],[0.66075,51.5591],[0.65757,51.56039],[0.66294,51.56215],[0.66317,51.56268],[0.66462,51.56272]]]}},{"type":"Feature","properties":{"id":"E01015826","name":"E01015826","parent":"E06000033","type":"LSOA","pop":1473,"r":429,"ff":182,"ffd":12355.7,"ffs":0.5112,"g":72,"co":0,"mo":0,"sa":0,"ic":0},"geometry":{"type":"Polygon","coordinates":[[[0.65921,51.55723],[0.65942,51.55695],[0.66016,51.55702],[0.6631,51.55649],[0.66278,51.55538],[0.66163,51.55587],[0.66054,51.55559],[0.66018,51.55434],[0.66306,51.55408],[0.66306,51.55363],[0.65993,51.55379],[0.65988,51.55343],[0.65753,51.55375],[0.65737,51.55308],[0.65856,51.55208],[0.65729,51.55122],[0.65536,51.55118],[0.65546,51.55396],[0.65608,51.55839],[0.65702,51.56032],[0.65757,51.56039],[0.66075,51.5591],[0.6608,51.55876],[0.65954,51.55836],[0.65921,51.55723]]]}},{"type":"Feature","properties":{"id":"E01015827","name":"E01015827","parent":"E06000033","type":"LSOA","pop":1731,"r":407,"ff":168,"ffd":9705.4,"ffs":0.4912,"g":64,"co":0,"mo":0,"sa":0,"ic":0},"geometry":{"type":"Polygon","coordinates":[[[0.6819,51.54126],[0.68137,51.54063],[0.67999,51.54071],[0.67926,51.54018],[0.68402,51.5397],[0.68364,51.54021],[0.68404,51.5406],[0.68482,51.54048],[0.68464,51.54105],[0.68505,51.54135],[0.68573,51.54113],[0.68599,51.54029],[0.68657,51.5408],[0.68712,51.54059],[0.6862,51.53896],[0.68478,51.53925],[0.68447,51.53885],[0.68347,51.53883],[0.68364,51.53835],[0.68285,51.53777],[0.68303,51.53745],[0.68226,51.53719],[0.68402,51.53664],[0.68369,51.5359],[0.6848,51.53646],[0.6852,51.53598],[0.68568,51.53655],[0.68587,51.53594],[0.68743,51.53585],[0.68763,51.53627],[0.68816,51.53609],[0.68792,51.53539],[0.6805,51.53582],[0.67048,51.53818],[0.67095,51.53887],[0.67198,51.53881],[0.67466,51.538],[0.6749,51.5388],[0.67534,51.53884],[0.67572,51.53935],[0.67505,51.53995],[0.67651,51.54068],[0.67714,51.54041],[0.67803,51.5428],[0.68013,51.54264],[0.68043,51.54187],[0.68155,51.54165],[0.6819,51.54126]]]}},{"type":"Feature","properties":{"id":"E01015828","name":"E01015828","parent":"E06000033","type":"LSOA","pop":1853,"r":403,"ff":168,"ffd":9066.4,"ffs":0.4956,"g":63,"co":0,"mo":0,"sa":0,"ic":0},"geometry":{"type":"Polygon","coordinates":[[[0.68898,51.54023],[0.68796,51.5387],[0.68875,51.53857],[0.68964,51.54018],[0.69027,51.54008],[0.68944,51.53849],[0.69008,51.5384],[0.68816,51.53609],[0.68763,51.53627],[0.68743,51.53585],[0.68587,51.53594],[0.68568,51.53655],[0.6852,51.53598],[0.6848,51.53646],[0.68369,51.5359],[0.68402,51.53664],[0.68226,51.53719],[0.68303,51.53745],[0.68285,51.53777],[0.68364,51.53835],[0.68347,51.53883],[0.68447,51.53885],[0.68478,51.53925],[0.6862,51.53896],[0.68712,51.54059],[0.68898,51.54023]]]}},{"type":"Feature","properties":{"id":"E01015829","name":"E01015829","parent":"E06000033","type":"LSOA","pop":1595,"r":421,"ff":184,"ffd":11536.1,"ffs":0.5227,"g":68,"co":0,"mo":0,"sa":0,"ic":0},"geometry":{"type":"Polygon","coordinates":[[[0.67088,51.54124],[0.66951,51.54054],[0.66957,51.5409],[0.66893,51.5411],[0.6692,51.53982],[0.66877,51.53959],[0.66751,51.54208],[0.66729,51.54313],[0.66706,51.54711],[0.67051,51.54673],[0.6733,51.54575],[0.67318,51.54503],[0.67018,51.54451],[0.67062,51.54407],[0.67015,51.54398],[0.67032,51.54322],[0.66961,51.54299],[0.67088,51.54124]]]}},{"type":"Feature","properties":{"id":"E01015830","name":"E01015830","parent":"E06000033","type":"LSOA","pop":1610,"r":416,"ff":176,"ffd":10931.7,"ffs":0.5029,"g":65,"co":0,"mo":0,"sa":0,"ic":0},"geometry":{"type":"Polygon","coordinates":[[[0.6754,51.54438],[0.67726,51.54366],[0.6788,51.54378],[0.67927,51.54342],[0.67887,51.54276],[0.67803,51.5428],[0.67714,51.54041],[0.67651,51.54068],[0.67505,51.53995],[0.67572,51.53935],[0.67534,51.53884],[0.6749,51.5388],[0.67466,51.538],[0.67198,51.53881],[0.67095,51.53887],[0.66877,51.53959],[0.6692,51.53982],[0.66893,51.5411],[0.66957,51.5409],[0.66951,51.54054],[0.67088,51.54124],[0.66961,51.54299],[0.67032,51.54322],[0.67015,51.54398],[0.67062,51.54407],[0.67018,51.54451],[0.67318,51.54503],[0.6733,51.54575],[0.67517,51.54582],[0.67498,51.54479],[0.6754,51.54438]]]}},{"type":"Feature","properties":{"id":"E01015831","name":"E01015831","parent":"E06000033","type":"LSOA","pop":1791,"r":405,"ff":168,"ffd":9380.2,"ffs":0.4927,"g":63,"co":0,"mo":0,"sa":0,"ic":0},"geometry":{"type":"Polygon","coordinates":[[[0.69112,51.54033],[0.69008,51.5384],[0.68944,51.53849],[0.69027,51.54008],[0.68964,51.54018],[0.68875,51.53857],[0.68796,51.5387],[0.68898,51.54023],[0.68717,51.54059],[0.68734,51.54124],[0.68825,51.54168],[0.68775,51.54239],[0.68722,51.54246],[0.68767,51.54341],[0.68677,51.54395],[0.68717,51.54525],[0.69244,51.54387],[0.69302,51.54358],[0.69112,51.54033]]]}},{"type":"Feature","properties":{"id":"E01015832","name":"E01015832","parent":"E06000033","type":"LSOA","pop":1580,"r":406,"ff":169,"ffd":10696.2,"ffs":0.4942,"g":63,"co":0,"mo":0,"sa":0,"ic":0},"geometry":{"type":"Polygon","coordinates":[[[0.67517,51.54582],[0.68412,51.54557],[0.68717,51.54525],[0.68677,51.54395],[0.68767,51.54341],[0.68722,51.54246],[0.68775,51.54239],[0.68825,51.54168],[0.68734,51.54124],[0.68717,51.54059],[0.68657,51.5408],[0.68599,51.54029],[0.68573,51.54113],[0.68505,51.54135],[0.68464,51.54105],[0.68482,51.54048],[0.68404,51.5406],[0.68364,51.54021],[0.68402,51.5397],[0.67926,51.54018],[0.67999,51.54071],[0.68137,51.54063],[0.6819,51.54126],[0.68155,51.54165],[0.68043,51.54187],[0.68013,51.54264],[0.67887,51.54276],[0.67927,51.54342],[0.6788,51.54378],[0.67726,51.54366],[0.6754,51.54438],[0.67498,51.54479],[0.67517,51.54582]]]}},{"type":"Feature","properties":{"id":"E01015833","name":"E01015833","parent":"E06000033","type":"LSOA","pop":1656,"r":402,"ff":171,"ffd":10326.1,"ffs":0.5151,"g":69,"co":2,"mo":0,"sa":0,"ic":0},"geometry":{"type":"Polygon","coordinates":[[[0.66772,51.57269],[0.66783,51.57221],[0.66709,51.57052],[0.66682,51.56869],[0.6654,51.56869],[0.66194,51.56786],[0.66097,51.56786],[0.66156,51.56672],[0.66134,51.56649],[0.66012,51.5665],[0.66026,51.56729],[0.65916,51.56744],[0.65925,51.56772],[0.65776,51.56825],[0.65824,51.56921],[0.65715,51.56922],[0.65653,51.56953],[0.65591,51.56935],[0.65617,51.56971],[0.65562,51.57],[0.65662,51.57059],[0.65534,51.57086],[0.65545,51.57118],[0.65787,51.57077],[0.66228,51.5712],[0.66244,51.57172],[0.66186,51.5724],[0.66204,51.5728],[0.66304,51.57244],[0.66772,51.57269]]]}},{"type":"Feature","properties":{"id":"E01015834","name":"E01015834","parent":"E06000033","type":"LSOA","pop":1444,"r":409,"ff":177,"ffd":12257.6,"ffs":0.5237,"g":70,"co":2,"mo":0,"sa":0,"ic":0},"geometry":{"type":"Polygon","coordinates":[[[0.6478,51.57014],[0.64805,51.5697],[0.6492,51.56977],[0.64993,51.56946],[0.65048,51.56987],[0.65168,51.56975],[0.65159,51.56934],[0.65269,51.56906],[0.65236,51.56809],[0.65307,51.56795],[0.65304,51.56767],[0.65353,51.56762],[0.65416,51.56913],[0.65581,51.56863],[0.65546,51.56802],[0.65495,51.56808],[0.65455,51.56723],[0.65446,51.56695],[0.655,51.56689],[0.65465,51.565],[0.65378,51.56503],[0.65362,51.56467],[0.65294,51.56463],[0.65142,51.565],[0.65015,51.56491],[0.64943,51.56511],[0.64929,51.56575],[0.64832,51.56561],[0.64855,51.56503],[0.64784,51.5642],[0.64181,51.5664],[0.64471,51.57095],[0.6478,51.57014]]]}},{"type":"Feature","properties":{"id":"E01015835","name":"E01015835","parent":"E06000033","type":"LSOA","pop":1861,"r":405,"ff":173,"ffd":9296.1,"ffs":0.5149,"g":68,"co":2,"mo":0,"sa":0,"ic":0},"geometry":{"type":"Polygon","coordinates":[[[0.64711,51.5707],[0.64793,51.57054],[0.64803,51.57086],[0.64842,51.57089],[0.64835,51.57031],[0.64854,51.57057],[0.6498,51.57048],[0.64995,51.57114],[0.65012,51.57081],[0.65233,51.57072],[0.65254,51.57017],[0.65301,51.57011],[0.65364,51.57066],[0.65415,51.57058],[0.65452,51.56964],[0.65591,51.56935],[0.65653,51.56953],[0.65715,51.56922],[0.65824,51.56921],[0.65776,51.56825],[0.65925,51.56772],[0.65916,51.56744],[0.66026,51.56729],[0.66012,51.5665],[0.66134,51.56649],[0.66156,51.56672],[0.66097,51.56786],[0.66194,51.56786],[0.66286,51.56457],[0.6655,51.5638],[0.66588,51.56291],[0.66317,51.56268],[0.65893,51.5629],[0.65324,51.56339],[0.64784,51.5642],[0.64855,51.56503],[0.64832,51.56561],[0.64929,51.56575],[0.64943,51.56511],[0.65015,51.56491],[0.65142,51.565],[0.65294,51.56463],[0.65362,51.56467],[0.65378,51.56503],[0.65465,51.565],[0.655,51.56689],[0.65446,51.56695],[0.65455,51.56723],[0.65495,51.56808],[0.65546,51.56802],[0.65581,51.56863],[0.65416,51.56913],[0.65353,51.56762],[0.65304,51.56767],[0.65307,51.56795],[0.65236,51.56809],[0.65269,51.56906],[0.65159,51.56934],[0.65168,51.56975],[0.65048,51.56987],[0.64993,51.56946],[0.6492,51.56977],[0.64805,51.5697],[0.6478,51.57014],[0.64518,51.57083],[0.64593,51.5715],[0.64711,51.5707]]]}},{"type":"Feature","properties":{"id":"E01015836","name":"E01015836","parent":"E06000033","type":"LSOA","pop":1447,"r":364,"ff":159,"ffd":10988.3,"ffs":0.53,"g":63,"co":2,"mo":0,"sa":0,"ic":0},"geometry":{"type":"Polygon","coordinates":[[[0.64926,51.57281],[0.64793,51.57054],[0.64711,51.5707],[0.64593,51.5715],[0.64518,51.57083],[0.64179,51.57191],[0.64158,51.57152],[0.64071,51.57187],[0.6412,51.57261],[0.63618,51.57495],[0.63895,51.5768],[0.64613,51.57441],[0.64583,51.57388],[0.64871,51.57329],[0.64926,51.57281]]]}},{"type":"Feature","properties":{"id":"E01015837","name":"E01015837","parent":"E06000033","type":"LSOA","pop":1797,"r":350,"ff":151,"ffd":8402.9,"ffs":0.5298,"g":64,"co":2,"mo":0,"sa":0,"ic":0},"geometry":{"type":"Polygon","coordinates":[[[0.63618,51.57495],[0.6412,51.57261],[0.64071,51.57187],[0.64158,51.57152],[0.64179,51.57191],[0.64471,51.57095],[0.64181,51.5664],[0.63373,51.57024],[0.63222,51.57072],[0.63465,51.57494],[0.63576,51.57455],[0.63618,51.57495]]]}},{"type":"Feature","properties":{"id":"E01015838","name":"E01015838","parent":"E06000033","type":"LSOA","pop":1521,"r":397,"ff":171,"ffd":11242.6,"ffs":0.5166,"g":65,"co":2,"mo":0,"sa":0,"ic":0},"geometry":{"type":"Polygon","coordinates":[[[0.66121,51.57115],[0.65787,51.57077],[0.65545,51.57118],[0.65534,51.57086],[0.65662,51.57059],[0.65562,51.57],[0.65617,51.56971],[0.65591,51.56935],[0.65452,51.56964],[0.65415,51.57058],[0.65364,51.57066],[0.65301,51.57011],[0.65254,51.57017],[0.65233,51.57072],[0.65012,51.57081],[0.64995,51.57114],[0.6498,51.57048],[0.64854,51.57057],[0.64835,51.57031],[0.64842,51.57089],[0.64803,51.57086],[0.64926,51.57281],[0.64871,51.57329],[0.64583,51.57388],[0.64613,51.57441],[0.65335,51.57338],[0.65811,51.57326],[0.66204,51.5728],[0.66186,51.5724],[0.66244,51.57172],[0.66228,51.5712],[0.66121,51.57115]]]}},{"type":"Feature","properties":{"id":"E01015839","name":"E01015839","parent":"E06000033","type":"LSOA","pop":1930,"r":378,"ff":154,"ffd":7979.3,"ffs":0.4873,"g":61,"co":0,"mo":2,"sa":0,"ic":0},"geometry":{"type":"Polygon","coordinates":[[[0.73159,51.54354],[0.73222,51.54111],[0.73443,51.54137],[0.73509,51.53896],[0.73117,51.53889],[0.73122,51.53835],[0.72542,51.5383],[0.72545,51.53702],[0.72497,51.53702],[0.72492,51.53664],[0.72433,51.53662],[0.72367,51.53718],[0.72365,51.53874],[0.72473,51.53876],[0.7236,51.53969],[0.72524,51.5398],[0.72564,51.54015],[0.72732,51.53975],[0.72775,51.54023],[0.72832,51.54003],[0.73001,51.54002],[0.73101,51.54052],[0.731,51.54088],[0.73005,51.54057],[0.72938,51.54331],[0.73159,51.54354]]]}},{"type":"Feature","properties":{"id":"E01015840","name":"E01015840","parent":"E06000033","type":"LSOA","pop":1932,"r":379,"ff":153,"ffd":7919.3,"ffs":0.4842,"g":62,"co":0,"mo":2,"sa":0,"ic":0},"geometry":{"type":"Polygon","coordinates":[[[0.72367,51.53718],[0.72433,51.53662],[0.72492,51.53664],[0.72497,51.53702],[0.72545,51.53702],[0.72542,51.5383],[0.73087,51.53833],[0.73131,51.53512],[0.73034,51.53488],[0.73028,51.53524],[0.72936,51.53535],[0.72332,51.53521],[0.72317,51.53624],[0.72178,51.53622],[0.72169,51.53654],[0.72074,51.53651],[0.72071,51.53684],[0.72144,51.53699],[0.72141,51.53744],[0.72062,51.53767],[0.72053,51.53819],[0.72108,51.53856],[0.72365,51.53874],[0.72367,51.53718]]]}},{"type":"Feature","properties":{"id":"E01015841","name":"E01015841","parent":"E06000033","type":"LSOA","pop":2711,"r":381,"ff":154,"ffd":5680.6,"ffs":0.4843,"g":62,"co":0,"mo":2,"sa":0,"ic":0},"geometry":{"type":"Polygon","coordinates":[[[0.72108,51.53856],[0.72053,51.53819],[0.72062,51.53767],[0.72141,51.53744],[0.72144,51.53699],[0.72071,51.53684],[0.72074,51.53651],[0.72169,51.53654],[0.72178,51.53622],[0.72317,51.53624],[0.72332,51.53521],[0.7233,51.53492],[0.72236,51.53514],[0.72244,51.53541],[0.72152,51.5353],[0.72166,51.5349],[0.72089,51.53477],[0.72168,51.53401],[0.72217,51.53403],[0.72222,51.53378],[0.7216,51.53364],[0.72171,51.5333],[0.724,51.53361],[0.7241,51.53279],[0.72947,51.53278],[0.72936,51.53535],[0.73028,51.53524],[0.73034,51.53488],[0.73131,51.53512],[0.73174,51.53208],[0.73156,51.53006],[0.72051,51.53252],[0.72056,51.53341],[0.71952,51.53341],[0.71995,51.53395],[0.7191,51.53454],[0.71946,51.53499],[0.71873,51.5353],[0.71774,51.53901],[0.71933,51.53875],[0.72008,51.53899],[0.72025,51.53844],[0.72108,51.53856]]]}},{"type":"Feature","properties":{"id":"E01015842","name":"E01015842","parent":"E06000033","type":"LSOA","pop":2008,"r":378,"ff":153,"ffd":7619.5,"ffs":0.4857,"g":62,"co":0,"mo":2,"sa":0,"ic":0},"geometry":{"type":"Polygon","coordinates":[[[0.72936,51.53535],[0.72947,51.53278],[0.7241,51.53279],[0.724,51.53361],[0.72171,51.5333],[0.7216,51.53364],[0.72222,51.53378],[0.72217,51.53403],[0.72168,51.53401],[0.72089,51.53477],[0.72166,51.5349],[0.72152,51.5353],[0.72244,51.53541],[0.72236,51.53514],[0.7233,51.53492],[0.72332,51.53521],[0.72495,51.53533],[0.72936,51.53535]]]}},{"type":"Feature","properties":{"id":"E01015843","name":"E01015843","parent":"E06000033","type":"LSOA","pop":1718,"r":382,"ff":154,"ffd":8963.9,"ffs":0.4828,"g":62,"co":2,"mo":0,"sa":0,"ic":0},"geometry":{"type":"Polygon","coordinates":[[[0.7274,51.5441],[0.72742,51.54314],[0.72938,51.54331],[0.73005,51.54057],[0.7293,51.5408],[0.72766,51.54049],[0.72572,51.54072],[0.72391,51.54057],[0.72206,51.54094],[0.72353,51.54169],[0.72301,51.54188],[0.72251,51.54345],[0.72339,51.5437],[0.7274,51.5441]]]}},{"type":"Feature","properties":{"id":"E01015844","name":"E01015844","parent":"E06000033","type":"LSOA","pop":2279,"r":386,"ff":156,"ffd":6845.1,"ffs":0.486,"g":64,"co":0,"mo":2,"sa":0,"ic":0},"geometry":{"type":"Polygon","coordinates":[[[0.7219,51.54369],[0.72198,51.54333],[0.72253,51.54338],[0.72301,51.54188],[0.72353,51.54169],[0.72206,51.54094],[0.72241,51.54078],[0.72391,51.54057],[0.72572,51.54072],[0.72766,51.54049],[0.7293,51.5408],[0.73005,51.54057],[0.731,51.54088],[0.73101,51.54052],[0.73001,51.54002],[0.72832,51.54003],[0.72775,51.54023],[0.72732,51.53975],[0.72564,51.54015],[0.72524,51.5398],[0.7236,51.53969],[0.72473,51.53876],[0.72025,51.53844],[0.72008,51.53899],[0.71933,51.53875],[0.71774,51.53901],[0.71755,51.54034],[0.71904,51.54015],[0.71857,51.54306],[0.71912,51.54311],[0.71911,51.54338],[0.7219,51.54369]]]}},{"type":"Feature","properties":{"id":"E01015845","name":"E01015845","parent":"E06000033","type":"LSOA","pop":1640,"r":429,"ff":188,"ffd":11463.4,"ffs":0.5222,"g":68,"co":0,"mo":0,"sa":0,"ic":0},"geometry":{"type":"Polygon","coordinates":[[[0.65348,51.54323],[0.6529,51.54292],[0.65138,51.54302],[0.65135,51.5427],[0.64892,51.54272],[0.64922,51.54482],[0.6488,51.5451],[0.6488,51.54744],[0.64833,51.54745],[0.64846,51.54855],[0.6517,51.54844],[0.65228,51.54787],[0.65348,51.54779],[0.65376,51.54462],[0.65276,51.54453],[0.65277,51.54431],[0.65362,51.54419],[0.65348,51.54323]]]}},{"type":"Feature","properties":{"id":"E01015846","name":"E01015846","parent":"E06000033","type":"LSOA","pop":1764,"r":425,"ff":178,"ffd":10090.7,"ffs":0.5028,"g":70,"co":0,"mo":0,"sa":0,"ic":0},"geometry":{"type":"Polygon","coordinates":[[[0.66346,51.54377],[0.66351,51.54307],[0.66493,51.54354],[0.66728,51.54385],[0.66751,51.54208],[0.66867,51.53975],[0.66584,51.53989],[0.66599,51.54041],[0.66241,51.54028],[0.66253,51.54209],[0.661,51.54232],[0.66084,51.54179],[0.66032,51.54165],[0.66051,51.54278],[0.66091,51.54285],[0.66037,51.54371],[0.66135,51.54373],[0.66133,51.54401],[0.6619,51.54413],[0.66182,51.54522],[0.66237,51.54537],[0.66181,51.54544],[0.66174,51.54739],[0.66274,51.54714],[0.66297,51.54408],[0.66342,51.544],[0.66346,51.54377]]]}},{"type":"Feature","properties":{"id":"E01015847","name":"E01015847","parent":"E06000033","type":"LSOA","pop":1647,"r":429,"ff":184,"ffd":11171.8,"ffs":0.5125,"g":69,"co":0,"mo":0,"sa":0,"ic":0},"geometry":{"type":"Polygon","coordinates":[[[0.65788,51.54597],[0.65794,51.54399],[0.65888,51.54401],[0.65878,51.54569],[0.66075,51.54575],[0.66084,51.54403],[0.66133,51.54401],[0.66135,51.54373],[0.66037,51.54371],[0.66091,51.54285],[0.66051,51.54278],[0.66032,51.54165],[0.66084,51.54179],[0.66082,51.54144],[0.65983,51.54126],[0.65987,51.54155],[0.65953,51.5415],[0.65903,51.54083],[0.65858,51.54089],[0.6586,51.53981],[0.65526,51.54016],[0.65531,51.54058],[0.65595,51.54059],[0.65572,51.54105],[0.65662,51.54153],[0.65699,51.54248],[0.65499,51.54248],[0.65549,51.54305],[0.65686,51.54335],[0.65651,51.54395],[0.65699,51.54397],[0.65686,51.5457],[0.65731,51.54621],[0.65788,51.54597]]]}},{"type":"Feature","properties":{"id":"E01015848","name":"E01015848","parent":"E06000033","type":"LSOA","pop":1682,"r":421,"ff":184,"ffd":10939.4,"ffs":0.5227,"g":68,"co":0,"mo":0,"sa":0,"ic":0},"geometry":{"type":"MultiPolygon","coordinates":[[[[0.6405,51.53638],[0.64073,51.53627],[0.64102,51.53632],[0.64124,51.53599],[0.64082,51.53607],[0.64025,51.53568],[0.64072,51.53464],[0.64002,51.53419],[0.64021,51.53343],[0.63982,51.53336],[0.64002,51.53602],[0.6405,51.53638]]],[[[0.64032,51.53647],[0.64005,51.53634],[0.64007,51.53668],[0.64032,51.53647]]],[[[0.64085,51.53755],[0.64012,51.53726],[0.64014,51.53764],[0.64085,51.53755]]],[[[0.6405,51.53866],[0.64021,51.53854],[0.64023,51.53871],[0.6405,51.53866]]],[[[0.64564,51.53896],[0.6462,51.5386],[0.64575,51.5387],[0.64512,51.53849],[0.64488,51.53879],[0.64511,51.53843],[0.64429,51.53861],[0.64445,51.53837],[0.64397,51.5383],[0.64384,51.53865],[0.64376,51.53828],[0.64328,51.53866],[0.64365,51.53834],[0.64334,51.53821],[0.64522,51.53823],[0.64528,51.53852],[0.64583,51.53862],[0.64534,51.53826],[0.64594,51.53828],[0.64587,51.53848],[0.64619,51.53826],[0.64602,51.53806],[0.6428,51.53785],[0.64129,51.5374],[0.64241,51.53743],[0.64243,51.53718],[0.64276,51.53758],[0.6433,51.53764],[0.64307,51.5374],[0.64393,51.53778],[0.64347,51.53741],[0.6441,51.53782],[0.6456,51.53766],[0.6463,51.53792],[0.64653,51.53768],[0.64498,51.537],[0.64378,51.53677],[0.64322,51.53703],[0.64367,51.53667],[0.64324,51.5367],[0.64304,51.53609],[0.6424,51.53581],[0.64059,51.53581],[0.64132,51.536],[0.64151,51.53642],[0.64178,51.53647],[0.64124,51.53661],[0.64126,51.53618],[0.64119,51.53642],[0.64071,51.53635],[0.64099,51.53698],[0.64124,51.53683],[0.64144,51.53684],[0.64148,51.53678],[0.64205,51.53701],[0.64122,51.53686],[0.641,51.53733],[0.6403,51.53687],[0.64057,51.5367],[0.64103,51.53713],[0.64047,51.53655],[0.64008,51.53682],[0.64067,51.53726],[0.64011,51.53721],[0.64182,51.5378],[0.64016,51.53783],[0.6412,51.53817],[0.64125,51.53784],[0.6413,51.53816],[0.64192,51.53833],[0.64196,51.53811],[0.6423,51.53847],[0.6426,51.53813],[0.64195,51.5378],[0.64356,51.53804],[0.64261,51.538],[0.64276,51.53827],[0.64321,51.5382],[0.6425,51.53858],[0.64374,51.53917],[0.64583,51.53922],[0.64564,51.53896]]],[[[0.64207,51.5396],[0.64076,51.53881],[0.64024,51.53885],[0.64027,51.53926],[0.64207,51.5396]]],[[[0.65439,51.54313],[0.65455,51.54259],[0.65397,51.54163],[0.65572,51.54105],[0.65595,51.54059],[0.65531,51.54058],[0.65526,51.54016],[0.6586,51.53981],[0.65858,51.54089],[0.65903,51.54083],[0.65953,51.5415],[0.65987,51.54155],[0.65983,51.54126],[0.66082,51.54144],[0.661,51.54232],[0.66253,51.54209],[0.66241,51.54028],[0.66599,51.54041],[0.66584,51.53989],[0.66867,51.53975],[0.67095,51.53887],[0.67048,51.53818],[0.66516,51.53884],[0.65903,51.53872],[0.65251,51.53941],[0.65234,51.53909],[0.65225,51.53944],[0.65191,51.53922],[0.65128,51.53936],[0.65138,51.53966],[0.65072,51.53959],[0.64816,51.54049],[0.64433,51.54076],[0.64403,51.5411],[0.64315,51.54111],[0.64283,51.54077],[0.64224,51.54059],[0.64195,51.54078],[0.64034,51.54022],[0.64066,51.54148],[0.64446,51.54222],[0.64891,51.54273],[0.65135,51.5427],[0.65138,51.54302],[0.6529,51.54292],[0.65348,51.54323],[0.65439,51.54313]]]]}},{"type":"Feature","properties":{"id":"E01015849","name":"E01015849","parent":"E06000033","type":"LSOA","pop":1733,"r":421,"ff":184,"ffd":10617.4,"ffs":0.5227,"g":68,"co":0,"mo":0,"sa":0,"ic":0},"geometry":{"type":"Polygon","coordinates":[[[0.66009,51.54771],[0.66012,51.5473],[0.65866,51.54741],[0.65888,51.54401],[0.65794,51.54399],[0.65788,51.54597],[0.65731,51.54621],[0.65686,51.5457],[0.65699,51.54397],[0.65651,51.54395],[0.65686,51.54335],[0.65549,51.54305],[0.65499,51.54248],[0.65699,51.54248],[0.65662,51.54153],[0.65572,51.54105],[0.65397,51.54163],[0.65455,51.54259],[0.65439,51.54313],[0.65348,51.54323],[0.65362,51.54419],[0.65277,51.54431],[0.65276,51.54453],[0.65376,51.54462],[0.65348,51.54779],[0.65228,51.54787],[0.6517,51.54844],[0.66009,51.54771]]]}},{"type":"Feature","properties":{"id":"E01015850","name":"E01015850","parent":"E06000033","type":"LSOA","pop":1622,"r":422,"ff":179,"ffd":11035.8,"ffs":0.5085,"g":69,"co":0,"mo":0,"sa":0,"ic":0},"geometry":{"type":"Polygon","coordinates":[[[0.66413,51.54745],[0.66706,51.54711],[0.66728,51.54385],[0.66493,51.54354],[0.66351,51.54307],[0.66342,51.544],[0.66297,51.54408],[0.66274,51.54714],[0.66174,51.54739],[0.66181,51.54544],[0.66237,51.54537],[0.66182,51.54522],[0.6619,51.54413],[0.66084,51.54403],[0.66075,51.54575],[0.65878,51.54569],[0.65866,51.54741],[0.66012,51.5473],[0.66009,51.54771],[0.66413,51.54745]]]}},{"type":"Feature","properties":{"id":"E01015851","name":"E01015851","parent":"E06000033","type":"LSOA","pop":1749,"r":400,"ff":165,"ffd":9434.0,"ffs":0.4896,"g":62,"co":0,"mo":0,"sa":0,"ic":0},"geometry":{"type":"Polygon","coordinates":[[[0.69221,51.53872],[0.69211,51.53751],[0.69318,51.53856],[0.69453,51.53835],[0.69438,51.53816],[0.69498,51.53796],[0.69381,51.53718],[0.69584,51.5367],[0.69591,51.5346],[0.69894,51.53406],[0.69778,51.5349],[0.69803,51.53536],[0.69888,51.5356],[0.70048,51.53538],[0.70028,51.53492],[0.70121,51.53476],[0.70259,51.53467],[0.70237,51.53517],[0.70302,51.53514],[0.70587,51.53492],[0.70571,51.53451],[0.71035,51.53426],[0.7108,51.53345],[0.71251,51.53342],[0.71218,51.53402],[0.714,51.53405],[0.71492,51.53382],[0.71469,51.53334],[0.72054,51.53297],[0.72051,51.53252],[0.71944,51.53267],[0.71822,51.53206],[0.71648,51.53208],[0.71423,51.53228],[0.71304,51.53298],[0.7114,51.53317],[0.70275,51.53314],[0.69285,51.53494],[0.68792,51.53539],[0.68816,51.53609],[0.68995,51.53819],[0.69045,51.53802],[0.691,51.53881],[0.69221,51.53872]]]}},{"type":"Feature","properties":{"id":"E01015852","name":"E01015852","parent":"E06000033","type":"LSOA","pop":2457,"r":358,"ff":148,"ffd":6023.6,"ffs":0.4884,"g":54,"co":0,"mo":2,"sa":0,"ic":0},"geometry":{"type":"Polygon","coordinates":[[[0.71755,51.54034],[0.71779,51.53851],[0.71873,51.5353],[0.71946,51.53499],[0.7191,51.53454],[0.71995,51.53395],[0.71952,51.53341],[0.72056,51.53341],[0.72054,51.53297],[0.71469,51.53334],[0.71492,51.53382],[0.714,51.53405],[0.71218,51.53402],[0.71251,51.53342],[0.7108,51.53345],[0.71035,51.53426],[0.7086,51.53435],[0.70864,51.53467],[0.70982,51.53484],[0.70991,51.53512],[0.70875,51.53518],[0.70942,51.53579],[0.71006,51.53565],[0.71012,51.53603],[0.70975,51.53669],[0.71024,51.53676],[0.71016,51.53711],[0.70914,51.53697],[0.70895,51.53757],[0.70848,51.53763],[0.70893,51.53785],[0.71174,51.53832],[0.71183,51.53922],[0.7111,51.53921],[0.7111,51.54012],[0.71755,51.54034]]]}},{"type":"Feature","properties":{"id":"E01015853","name":"E01015853","parent":"E06000033","type":"LSOA","pop":1783,"r":385,"ff":156,"ffd":8749.3,"ffs":0.483,"g":61,"co":0,"mo":0,"sa":0,"ic":0},"geometry":{"type":"Polygon","coordinates":[[[0.70269,51.53736],[0.70439,51.53662],[0.70452,51.53623],[0.70668,51.53593],[0.7068,51.53625],[0.70995,51.53641],[0.71006,51.53565],[0.70942,51.53579],[0.70875,51.53518],[0.70991,51.53512],[0.70982,51.53484],[0.70864,51.53467],[0.7086,51.53435],[0.70571,51.53451],[0.70587,51.53492],[0.70302,51.53514],[0.70237,51.53517],[0.70259,51.53467],[0.70121,51.53476],[0.70028,51.53492],[0.70048,51.53538],[0.69888,51.5356],[0.69803,51.53536],[0.69778,51.5349],[0.69894,51.53406],[0.69591,51.5346],[0.69584,51.5367],[0.69703,51.53655],[0.69667,51.53702],[0.69783,51.53756],[0.6994,51.53699],[0.69979,51.53743],[0.70107,51.53725],[0.70199,51.53758],[0.70188,51.53793],[0.70236,51.53796],[0.70269,51.53736]]]}},{"type":"Feature","properties":{"id":"E01015854","name":"E01015854","parent":"E06000033","type":"LSOA","pop":2288,"r":383,"ff":155,"ffd":6774.5,"ffs":0.4814,"g":60,"co":0,"mo":0,"sa":0,"ic":0},"geometry":{"type":"Polygon","coordinates":[[[0.711,51.53956],[0.7111,51.53921],[0.71183,51.53922],[0.71174,51.53832],[0.70893,51.53785],[0.70848,51.53763],[0.70895,51.53757],[0.70914,51.53697],[0.71016,51.53711],[0.71024,51.53676],[0.70975,51.53669],[0.70995,51.53641],[0.7068,51.53625],[0.70668,51.53593],[0.70452,51.53623],[0.70439,51.53662],[0.70537,51.53713],[0.7052,51.53765],[0.7052,51.53881],[0.70481,51.53987],[0.70611,51.54003],[0.70606,51.54042],[0.7111,51.54012],[0.711,51.53956]]]}},{"type":"Feature","properties":{"id":"E01015855","name":"E01015855","parent":"E06000033","type":"LSOA","pop":2119,"r":413,"ff":170,"ffd":8022.7,"ffs":0.4928,"g":67,"co":0,"mo":0,"sa":0,"ic":0},"geometry":{"type":"Polygon","coordinates":[[[0.69866,51.54102],[0.70109,51.53994],[0.70102,51.53973],[0.70003,51.5394],[0.69959,51.53976],[0.69604,51.54078],[0.69491,51.53965],[0.69543,51.53947],[0.69589,51.53965],[0.69599,51.53918],[0.69704,51.53928],[0.69643,51.53875],[0.69704,51.53856],[0.69653,51.53798],[0.69542,51.5385],[0.69523,51.53823],[0.69318,51.53856],[0.69211,51.53751],[0.69221,51.53872],[0.69176,51.53882],[0.691,51.53881],[0.69045,51.53802],[0.68995,51.53819],[0.69302,51.54358],[0.69866,51.54102]]]}},{"type":"Feature","properties":{"id":"E01015856","name":"E01015856","parent":"E06000033","type":"LSOA","pop":1927,"r":413,"ff":170,"ffd":8822.0,"ffs":0.4928,"g":67,"co":0,"mo":0,"sa":0,"ic":0},"geometry":{"type":"Polygon","coordinates":[[[0.69959,51.53976],[0.70003,51.5394],[0.70102,51.53973],[0.70109,51.53994],[0.70512,51.54039],[0.706,51.54042],[0.70611,51.54003],[0.70481,51.53987],[0.7052,51.53881],[0.7052,51.53765],[0.70537,51.53713],[0.70439,51.53662],[0.70269,51.53736],[0.70236,51.53796],[0.70188,51.53793],[0.70199,51.53758],[0.70107,51.53725],[0.69979,51.53743],[0.6994,51.53699],[0.69783,51.53756],[0.69667,51.53702],[0.69703,51.53655],[0.69381,51.53718],[0.69498,51.53796],[0.69438,51.53816],[0.69453,51.53835],[0.69523,51.53823],[0.69542,51.5385],[0.69653,51.53798],[0.69704,51.53856],[0.69643,51.53875],[0.69704,51.53928],[0.69599,51.53918],[0.69589,51.53965],[0.69543,51.53947],[0.69491,51.53965],[0.69604,51.54078],[0.69959,51.53976]]]}},{"type":"Feature","properties":{"id":"E01015857","name":"E01015857","parent":"E06000033","type":"LSOA","pop":1734,"r":432,"ff":184,"ffd":10611.3,"ffs":0.5083,"g":69,"co":0,"mo":0,"sa":0,"ic":0},"geometry":{"type":"Polygon","coordinates":[[[0.67756,51.56174],[0.68134,51.56143],[0.68223,51.56048],[0.68288,51.56009],[0.68213,51.56009],[0.67868,51.56079],[0.67771,51.55855],[0.67853,51.55831],[0.67838,51.55783],[0.67732,51.55793],[0.6772,51.55742],[0.6785,51.55737],[0.67833,51.5566],[0.67577,51.55674],[0.67495,51.5551],[0.67524,51.55478],[0.67666,51.55451],[0.67667,51.55396],[0.67433,51.55409],[0.67137,51.5538],[0.67176,51.55607],[0.67135,51.55608],[0.67135,51.55676],[0.67182,51.5577],[0.67088,51.55801],[0.67154,51.55874],[0.67124,51.55884],[0.67154,51.55922],[0.67093,51.55943],[0.67256,51.56127],[0.67449,51.56256],[0.67756,51.56174]]]}},{"type":"Feature","properties":{"id":"E01015858","name":"E01015858","parent":"E06000033","type":"LSOA","pop":1861,"r":424,"ff":179,"ffd":9618.5,"ffs":0.5042,"g":68,"co":0,"mo":0,"sa":0,"ic":0},"geometry":{"type":"Polygon","coordinates":[[[0.67868,51.56079],[0.68339,51.5599],[0.68355,51.55922],[0.68302,51.5568],[0.68871,51.55632],[0.68814,51.55582],[0.68889,51.55555],[0.68881,51.55521],[0.6895,51.55514],[0.68937,51.55433],[0.69006,51.55428],[0.6901,51.55361],[0.68938,51.55358],[0.68929,51.55303],[0.68759,51.55285],[0.68499,51.55306],[0.68515,51.55213],[0.68435,51.55117],[0.68405,51.55117],[0.68102,51.5514],[0.68195,51.55334],[0.67667,51.55396],[0.67666,51.55451],[0.67524,51.55478],[0.67495,51.5551],[0.67577,51.55674],[0.67833,51.5566],[0.6785,51.55737],[0.6772,51.55742],[0.67732,51.55793],[0.67838,51.55783],[0.67853,51.55831],[0.67771,51.55855],[0.67868,51.56079]]]}},{"type":"Feature","properties":{"id":"E01015859","name":"E01015859","parent":"E06000033","type":"LSOA","pop":2079,"r":424,"ff":175,"ffd":8417.5,"ffs":0.4958,"g":70,"co":0,"mo":0,"sa":0,"ic":0},"geometry":{"type":"Polygon","coordinates":[[[0.68339,51.5599],[0.6872,51.5598],[0.69016,51.55946],[0.69697,51.55823],[0.69621,51.55741],[0.69583,51.55743],[0.69601,51.557],[0.69525,51.5554],[0.69456,51.55558],[0.69441,51.55527],[0.69352,51.55523],[0.69346,51.55571],[0.69301,51.55581],[0.69285,51.5555],[0.69116,51.55554],[0.69151,51.5552],[0.69332,51.55494],[0.69401,51.55429],[0.68881,51.55521],[0.68889,51.55555],[0.68814,51.55582],[0.68871,51.55632],[0.68302,51.5568],[0.68355,51.55922],[0.68339,51.5599]]]}},{"type":"Feature","properties":{"id":"E01015860","name":"E01015860","parent":"E06000033","type":"LSOA","pop":1603,"r":416,"ff":168,"ffd":10480.3,"ffs":0.487,"g":70,"co":0,"mo":0,"sa":0,"ic":0},"geometry":{"type":"Polygon","coordinates":[[[0.69697,51.55823],[0.70119,51.55649],[0.70112,51.55425],[0.69793,51.55316],[0.69583,51.5534],[0.69571,51.5527],[0.69451,51.55269],[0.69435,51.55214],[0.69536,51.55206],[0.69546,51.55096],[0.69463,51.55022],[0.69113,51.55107],[0.68779,51.55098],[0.68653,51.55124],[0.68435,51.55117],[0.68515,51.55213],[0.68499,51.55306],[0.68759,51.55285],[0.68929,51.55303],[0.68938,51.55358],[0.6901,51.55361],[0.69006,51.55428],[0.68937,51.55433],[0.6895,51.55514],[0.69401,51.55429],[0.69332,51.55494],[0.69151,51.5552],[0.69116,51.55554],[0.69285,51.5555],[0.69301,51.55581],[0.69346,51.55571],[0.69352,51.55523],[0.69441,51.55527],[0.69456,51.55558],[0.69525,51.5554],[0.69601,51.557],[0.69583,51.55743],[0.69621,51.55741],[0.69697,51.55823]]]}},{"type":"Feature","properties":{"id":"E01015861","name":"E01015861","parent":"E06000033","type":"LSOA","pop":2153,"r":408,"ff":163,"ffd":7570.8,"ffs":0.4808,"g":68,"co":0,"mo":0,"sa":0,"ic":0},"geometry":{"type":"Polygon","coordinates":[[[0.70801,51.55684],[0.71078,51.55004],[0.70959,51.54961],[0.70207,51.54741],[0.70244,51.54822],[0.70148,51.54849],[0.70146,51.54918],[0.70219,51.54938],[0.7026,51.5506],[0.70325,51.55095],[0.70317,51.55108],[0.70178,51.55115],[0.70087,51.55093],[0.69782,51.55222],[0.69571,51.5527],[0.69583,51.5534],[0.69793,51.55316],[0.70112,51.55425],[0.70119,51.55649],[0.70715,51.55566],[0.70801,51.55684]]]}},{"type":"Feature","properties":{"id":"E01015862","name":"E01015862","parent":"E06000033","type":"LSOA","pop":1801,"r":409,"ff":165,"ffd":9161.6,"ffs":0.4825,"g":66,"co":0,"mo":0,"sa":0,"ic":0},"geometry":{"type":"Polygon","coordinates":[[[0.69919,51.55164],[0.70087,51.55093],[0.70178,51.55115],[0.70325,51.55095],[0.7026,51.5506],[0.70219,51.54938],[0.70146,51.54918],[0.70148,51.54849],[0.70244,51.54822],[0.70207,51.54741],[0.70015,51.54657],[0.69749,51.54496],[0.69733,51.54551],[0.6978,51.54595],[0.69726,51.54596],[0.69718,51.54659],[0.69764,51.54664],[0.69714,51.54936],[0.69677,51.54935],[0.69691,51.55],[0.69463,51.55022],[0.69546,51.55096],[0.69536,51.55206],[0.69435,51.55214],[0.69451,51.55269],[0.69571,51.5527],[0.69782,51.55222],[0.69919,51.55164]]]}},{"type":"Feature","properties":{"id":"E01015863","name":"E01015863","parent":"E06000033","type":"LSOA","pop":2342,"r":421,"ff":177,"ffd":7557.6,"ffs":0.5057,"g":70,"co":0,"mo":0,"sa":0,"ic":0},"geometry":{"type":"Polygon","coordinates":[[[0.68339,51.56868],[0.68359,51.56772],[0.67761,51.56661],[0.67402,51.56659],[0.67208,51.56598],[0.6705,51.56508],[0.66694,51.56427],[0.66699,51.56643],[0.66814,51.56632],[0.66821,51.56837],[0.67053,51.56767],[0.67083,51.56808],[0.67032,51.5682],[0.67036,51.56866],[0.66985,51.56861],[0.66974,51.56902],[0.66912,51.56913],[0.66904,51.57012],[0.66709,51.57052],[0.66783,51.57221],[0.67533,51.57287],[0.67542,51.57038],[0.67574,51.57014],[0.68076,51.56951],[0.68339,51.56868]]]}},{"type":"Feature","properties":{"id":"E01015864","name":"E01015864","parent":"E06000033","type":"LSOA","pop":1470,"r":419,"ff":174,"ffd":11836.7,"ffs":0.5029,"g":72,"co":2,"mo":0,"sa":0,"ic":0},"geometry":{"type":"Polygon","coordinates":[[[0.66974,51.56902],[0.66985,51.56861],[0.67036,51.56866],[0.67032,51.5682],[0.67083,51.56808],[0.67053,51.56767],[0.66821,51.56837],[0.66814,51.56632],[0.66699,51.56643],[0.66694,51.56427],[0.6705,51.56508],[0.67208,51.56598],[0.67402,51.56659],[0.67437,51.56655],[0.67735,51.56447],[0.67858,51.56426],[0.67906,51.56477],[0.68093,51.56136],[0.67756,51.56174],[0.67245,51.56306],[0.66824,51.56313],[0.66588,51.56291],[0.6655,51.5638],[0.66286,51.56457],[0.66194,51.56786],[0.6654,51.56869],[0.66682,51.56869],[0.66709,51.57052],[0.66904,51.57012],[0.66912,51.56913],[0.66974,51.56902]]]}},{"type":"Feature","properties":{"id":"E01015865","name":"E01015865","parent":"E06000033","type":"LSOA","pop":1457,"r":420,"ff":171,"ffd":11736.4,"ffs":0.4914,"g":71,"co":0,"mo":0,"sa":0,"ic":0},"geometry":{"type":"Polygon","coordinates":[[[0.68503,51.5689],[0.68717,51.56821],[0.69888,51.56723],[0.69877,51.5667],[0.69831,51.56651],[0.69783,51.56681],[0.69739,51.56634],[0.69809,51.56612],[0.69724,51.56537],[0.69563,51.56441],[0.69635,51.56266],[0.69577,51.56208],[0.69453,51.56166],[0.69072,51.56149],[0.688,51.56223],[0.68655,51.56201],[0.68526,51.56139],[0.68363,51.5614],[0.68223,51.56048],[0.68134,51.56143],[0.68093,51.56136],[0.67906,51.56477],[0.67858,51.56426],[0.67735,51.56447],[0.67437,51.56655],[0.67761,51.56661],[0.68359,51.56772],[0.68339,51.56868],[0.68431,51.5686],[0.68503,51.5689]]]}},{"type":"Feature","properties":{"id":"E01015866","name":"E01015866","parent":"E06000033","type":"LSOA","pop":2197,"r":414,"ff":168,"ffd":7646.8,"ffs":0.4884,"g":69,"co":0,"mo":0,"sa":0,"ic":0},"geometry":{"type":"Polygon","coordinates":[[[0.70553,51.56283],[0.70801,51.55684],[0.70715,51.55566],[0.70119,51.55649],[0.70152,51.55689],[0.69888,51.55801],[0.69969,51.5586],[0.69831,51.55908],[0.69846,51.55964],[0.69782,51.55985],[0.69819,51.56054],[0.69818,51.56102],[0.69771,51.56176],[0.70199,51.56231],[0.70276,51.5627],[0.70373,51.56206],[0.70424,51.5625],[0.70553,51.56283]]]}},{"type":"Feature","properties":{"id":"E01015867","name":"E01015867","parent":"E06000033","type":"LSOA","pop":1484,"r":418,"ff":170,"ffd":11455.5,"ffs":0.4913,"g":71,"co":0,"mo":0,"sa":0,"ic":0},"geometry":{"type":"Polygon","coordinates":[[[0.70502,51.56712],[0.70553,51.56283],[0.70424,51.5625],[0.70373,51.56206],[0.70276,51.5627],[0.70199,51.56231],[0.70187,51.56264],[0.69725,51.5622],[0.69775,51.56357],[0.69673,51.56266],[0.69635,51.56266],[0.69563,51.56441],[0.69724,51.56537],[0.69809,51.56612],[0.69739,51.56634],[0.69783,51.56681],[0.69831,51.56651],[0.69877,51.5667],[0.69888,51.56723],[0.70418,51.56676],[0.70502,51.56712]]]}},{"type":"Feature","properties":{"id":"E01015868","name":"E01015868","parent":"E06000033","type":"LSOA","pop":1780,"r":423,"ff":171,"ffd":9606.7,"ffs":0.4872,"g":71,"co":0,"mo":0,"sa":0,"ic":0},"geometry":{"type":"Polygon","coordinates":[[[0.69725,51.5622],[0.70187,51.56264],[0.70199,51.56231],[0.69771,51.56176],[0.69818,51.56102],[0.69819,51.56054],[0.69782,51.55985],[0.69846,51.55964],[0.69831,51.55908],[0.69969,51.5586],[0.69888,51.55801],[0.70152,51.55689],[0.70119,51.55649],[0.69589,51.55855],[0.6872,51.5598],[0.68339,51.5599],[0.68223,51.56048],[0.68363,51.5614],[0.68526,51.56139],[0.68655,51.56201],[0.688,51.56223],[0.69072,51.56149],[0.69453,51.56166],[0.69577,51.56208],[0.69775,51.56357],[0.69725,51.5622]]]}},{"type":"Feature","properties":{"id":"E01015869","name":"E01015869","parent":"E06000033","type":"LSOA","pop":1688,"r":402,"ff":160,"ffd":9478.7,"ffs":0.4819,"g":69,"co":2,"mo":0,"sa":0,"ic":0},"geometry":{"type":"Polygon","coordinates":[[[0.72788,51.54989],[0.72898,51.54725],[0.72617,51.54688],[0.7263,51.54596],[0.72534,51.54588],[0.72571,51.54457],[0.72685,51.54455],[0.72662,51.54405],[0.72251,51.54345],[0.72185,51.54557],[0.72152,51.54887],[0.7222,51.54888],[0.72229,51.5493],[0.72289,51.54923],[0.72311,51.54881],[0.7236,51.54907],[0.72462,51.54832],[0.72427,51.548],[0.7246,51.54776],[0.72556,51.54838],[0.72547,51.54973],[0.7265,51.54942],[0.72738,51.55011],[0.72788,51.54989]]]}},{"type":"Feature","properties":{"id":"E01015870","name":"E01015870","parent":"E06000033","type":"LSOA","pop":1692,"r":376,"ff":150,"ffd":8865.2,"ffs":0.4762,"g":60,"co":2,"mo":0,"sa":0,"ic":0},"geometry":{"type":"Polygon","coordinates":[[[0.72964,51.54918],[0.72993,51.5483],[0.73192,51.54858],[0.73185,51.54888],[0.7325,51.54865],[0.73256,51.54895],[0.73603,51.54928],[0.73632,51.54851],[0.73602,51.54805],[0.73393,51.54782],[0.73337,51.54731],[0.73347,51.54698],[0.73403,51.54703],[0.73408,51.54666],[0.73305,51.54657],[0.73291,51.5469],[0.72974,51.54657],[0.7303,51.54424],[0.72958,51.54444],[0.72662,51.54405],[0.72685,51.54455],[0.72571,51.54457],[0.72534,51.54588],[0.7263,51.54596],[0.72617,51.54688],[0.72898,51.54725],[0.72827,51.54919],[0.72871,51.54968],[0.72896,51.5493],[0.72964,51.54918]]]}},{"type":"Feature","properties":{"id":"E01015871","name":"E01015871","parent":"E06000033","type":"LSOA","pop":1713,"r":399,"ff":159,"ffd":9282.0,"ffs":0.4818,"g":68,"co":2,"mo":0,"sa":0,"ic":0},"geometry":{"type":"Polygon","coordinates":[[[0.73054,51.55491],[0.73004,51.55235],[0.72861,51.55191],[0.72702,51.55072],[0.72539,51.55086],[0.72556,51.54838],[0.7246,51.54776],[0.72427,51.548],[0.72462,51.54832],[0.7236,51.54907],[0.72311,51.54881],[0.72289,51.54923],[0.72229,51.5493],[0.7222,51.54888],[0.72152,51.54887],[0.72144,51.55],[0.7161,51.54987],[0.71565,51.5501],[0.716,51.55061],[0.71796,51.55075],[0.71794,51.55168],[0.72048,51.55174],[0.7207,51.55126],[0.72134,51.55127],[0.72115,51.55404],[0.72263,51.55411],[0.72265,51.55464],[0.71929,51.55455],[0.71642,51.5541],[0.71792,51.55559],[0.71964,51.55618],[0.72165,51.55747],[0.72794,51.56044],[0.73047,51.5605],[0.73054,51.55491]]]}},{"type":"Feature","properties":{"id":"E01015872","name":"E01015872","parent":"E06000033","type":"LSOA","pop":1638,"r":380,"ff":154,"ffd":9401.7,"ffs":0.4828,"g":60,"co":2,"mo":0,"sa":0,"ic":0},"geometry":{"type":"Polygon","coordinates":[[[0.73602,51.54805],[0.73652,51.5447],[0.73687,51.54405],[0.7337,51.54374],[0.73355,51.54411],[0.73078,51.5438],[0.73086,51.54346],[0.72742,51.54314],[0.7274,51.5441],[0.72958,51.54444],[0.7303,51.54424],[0.72974,51.54657],[0.73291,51.5469],[0.73305,51.54657],[0.73408,51.54666],[0.73403,51.54703],[0.73347,51.54698],[0.73337,51.54731],[0.73393,51.54782],[0.73602,51.54805]]]}},{"type":"Feature","properties":{"id":"E01015873","name":"E01015873","parent":"E06000033","type":"LSOA","pop":1252,"r":377,"ff":154,"ffd":12300.3,"ffs":0.4843,"g":58,"co":2,"mo":0,"sa":0,"ic":0},"geometry":{"type":"Polygon","coordinates":[[[0.73687,51.54405],[0.73763,51.54187],[0.73222,51.54111],[0.73159,51.54354],[0.73086,51.54346],[0.73078,51.5438],[0.73355,51.54411],[0.7337,51.54374],[0.73687,51.54405]]]}},{"type":"Feature","properties":{"id":"E01015874","name":"E01015874","parent":"E06000033","type":"LSOA","pop":1771,"r":407,"ff":161,"ffd":9090.9,"ffs":0.4792,"g":70,"co":0,"mo":0,"sa":0,"ic":0},"geometry":{"type":"Polygon","coordinates":[[[0.71839,51.56095],[0.72284,51.56041],[0.72794,51.56044],[0.72165,51.55747],[0.71964,51.55618],[0.71792,51.55559],[0.71642,51.5541],[0.71929,51.55455],[0.72265,51.55464],[0.72263,51.55411],[0.72115,51.55404],[0.72134,51.55127],[0.7207,51.55126],[0.72048,51.55174],[0.71794,51.55168],[0.71796,51.55075],[0.716,51.55061],[0.71565,51.5501],[0.7161,51.54987],[0.71534,51.5498],[0.71534,51.54951],[0.71482,51.54946],[0.71419,51.55076],[0.71345,51.55081],[0.71078,51.55004],[0.70553,51.56283],[0.70502,51.56712],[0.70566,51.5675],[0.70723,51.56667],[0.70859,51.56644],[0.70794,51.56429],[0.71581,51.56317],[0.71581,51.56281],[0.71906,51.56268],[0.71839,51.56095]]]}},{"type":"Feature","properties":{"id":"E01015875","name":"E01015875","parent":"E06000033","type":"LSOA","pop":1668,"r":375,"ff":151,"ffd":9052.8,"ffs":0.4809,"g":60,"co":2,"mo":0,"sa":0,"ic":0},"geometry":{"type":"Polygon","coordinates":[[[0.73548,51.55121],[0.73603,51.54928],[0.73256,51.54895],[0.7325,51.54865],[0.73185,51.54888],[0.73192,51.54858],[0.72993,51.5483],[0.72964,51.54918],[0.72896,51.5493],[0.72871,51.54968],[0.72827,51.54919],[0.72788,51.54989],[0.72738,51.55011],[0.7265,51.54942],[0.72547,51.54973],[0.72539,51.55086],[0.72702,51.55072],[0.72861,51.55191],[0.73004,51.55235],[0.73054,51.55491],[0.73054,51.55944],[0.73536,51.56014],[0.73738,51.56002],[0.73757,51.55949],[0.73904,51.55935],[0.73942,51.55816],[0.74111,51.55756],[0.74118,51.55661],[0.74014,51.55649],[0.73979,51.55571],[0.73725,51.55464],[0.73616,51.55238],[0.73601,51.55168],[0.73543,51.55161],[0.73548,51.55121]]]}},{"type":"Feature","properties":{"id":"E01015876","name":"E01015876","parent":"E06000033","type":"LSOA","pop":2499,"r":248,"ff":99,"ffd":3961.6,"ffs":0.4783,"g":40,"co":2,"mo":2,"sa":0,"ic":0},"geometry":{"type":"Polygon","coordinates":[[[0.82083,51.54086],[0.81684,51.53913],[0.81583,51.53814],[0.81384,51.53722],[0.81385,51.5367],[0.81091,51.53595],[0.80874,51.5344],[0.8075,51.53406],[0.79979,51.52977],[0.7874,51.52186],[0.7821,51.52134],[0.77675,51.52262],[0.77706,51.5238],[0.78046,51.52468],[0.78209,51.52665],[0.78197,51.52764],[0.78278,51.52739],[0.78341,51.52793],[0.78467,51.52978],[0.78452,51.53036],[0.79153,51.5283],[0.79297,51.52875],[0.79387,51.52799],[0.79432,51.52829],[0.79566,51.52775],[0.79664,51.52845],[0.79709,51.52839],[0.79929,51.53008],[0.79704,51.53012],[0.7963,51.53103],[0.79517,51.52978],[0.79466,51.52993],[0.79451,51.53068],[0.79629,51.53183],[0.79689,51.53167],[0.79798,51.53295],[0.79508,51.53417],[0.79499,51.53479],[0.79397,51.53479],[0.79464,51.53651],[0.79512,51.53658],[0.79688,51.53767],[0.79718,51.53715],[0.79742,51.53741],[0.79895,51.5371],[0.79941,51.53751],[0.7997,51.5372],[0.80022,51.53796],[0.80086,51.53793],[0.80413,51.54121],[0.80879,51.54082],[0.81087,51.54013],[0.81487,51.54373],[0.81917,51.54221],[0.82083,51.54086]]]}},{"type":"Feature","properties":{"id":"E01015877","name":"E01015877","parent":"E06000033","type":"LSOA","pop":1910,"r":260,"ff":105,"ffd":5497.4,"ffs":0.4839,"g":42,"co":2,"mo":2,"sa":0,"ic":0},"geometry":{"type":"Polygon","coordinates":[[[0.78963,51.5374],[0.79069,51.53693],[0.79254,51.53712],[0.79252,51.53557],[0.79433,51.53559],[0.79397,51.53479],[0.79499,51.53479],[0.79508,51.53417],[0.79798,51.53295],[0.79689,51.53167],[0.79629,51.53183],[0.79451,51.53068],[0.79466,51.52993],[0.79517,51.52978],[0.7963,51.53103],[0.79704,51.53012],[0.79929,51.53008],[0.79709,51.52839],[0.79664,51.52845],[0.79566,51.52775],[0.79432,51.52829],[0.79387,51.52799],[0.79297,51.52875],[0.79153,51.5283],[0.78353,51.53073],[0.78409,51.53094],[0.78396,51.53147],[0.78606,51.53247],[0.78586,51.53323],[0.78432,51.53371],[0.78398,51.5341],[0.78707,51.53499],[0.79003,51.53557],[0.78937,51.53702],[0.78963,51.5374]]]}},{"type":"Feature","properties":{"id":"E01015878","name":"E01015878","parent":"E06000033","type":"LSOA","pop":1204,"r":287,"ff":115,"ffd":9551.5,"ffs":0.4915,"g":52,"co":0,"mo":2,"sa":0,"ic":0},"geometry":{"type":"Polygon","coordinates":[[[0.7868,51.54727],[0.7868,51.54694],[0.78747,51.54693],[0.78733,51.5465],[0.788,51.5445],[0.7863,51.54462],[0.78583,51.54446],[0.78593,51.54396],[0.78636,51.54404],[0.78663,51.5436],[0.786,51.54315],[0.7862,51.54259],[0.78475,51.54207],[0.78424,51.54289],[0.78355,51.54297],[0.78337,51.54199],[0.78291,51.54178],[0.78322,51.54151],[0.78229,51.54139],[0.78124,51.54013],[0.78046,51.54004],[0.77955,51.54034],[0.77942,51.54081],[0.78095,51.54105],[0.78024,51.54291],[0.77901,51.5426],[0.77864,51.54414],[0.77748,51.54474],[0.77788,51.545],[0.7837,51.54606],[0.78335,51.54684],[0.7868,51.54727]]]}},{"type":"Feature","properties":{"id":"E01015879","name":"E01015879","parent":"E06000033","type":"LSOA","pop":1428,"r":264,"ff":109,"ffd":7633.1,"ffs":0.4932,"g":42,"co":0,"mo":2,"sa":0,"ic":0},"geometry":{"type":"Polygon","coordinates":[[[0.788,51.5445],[0.78899,51.54245],[0.79037,51.54243],[0.79045,51.5405],[0.78751,51.54009],[0.78756,51.5405],[0.78663,51.54103],[0.78542,51.54075],[0.78489,51.54015],[0.7858,51.5397],[0.78544,51.53947],[0.78369,51.53967],[0.78413,51.54026],[0.78456,51.54025],[0.78421,51.54053],[0.78499,51.54132],[0.78436,51.54137],[0.78397,51.5418],[0.78395,51.54128],[0.78308,51.54099],[0.78352,51.54008],[0.77987,51.53914],[0.77955,51.54034],[0.78046,51.54004],[0.78124,51.54013],[0.78229,51.54139],[0.78322,51.54151],[0.78291,51.54178],[0.78337,51.54199],[0.78355,51.54297],[0.78424,51.54289],[0.78475,51.54207],[0.7862,51.54259],[0.786,51.54315],[0.78663,51.5436],[0.78636,51.54404],[0.78593,51.54396],[0.78583,51.54446],[0.7863,51.54462],[0.788,51.5445]]]}},{"type":"Feature","properties":{"id":"E01015880","name":"E01015880","parent":"E06000033","type":"LSOA","pop":1508,"r":255,"ff":105,"ffd":6962.9,"ffs":0.493,"g":41,"co":2,"mo":2,"sa":0,"ic":0},"geometry":{"type":"Polygon","coordinates":[[[0.7941,51.53971],[0.79431,51.53924],[0.79487,51.53945],[0.79469,51.5389],[0.79359,51.53853],[0.79378,51.53807],[0.79378,51.53712],[0.79464,51.53651],[0.79433,51.53559],[0.79252,51.53557],[0.79254,51.53712],[0.79069,51.53693],[0.78966,51.53751],[0.78734,51.53713],[0.78657,51.53861],[0.78799,51.5389],[0.78748,51.54008],[0.79045,51.5405],[0.79037,51.54243],[0.79273,51.54235],[0.79257,51.5417],[0.79342,51.54056],[0.7932,51.53988],[0.7941,51.53971]]]}},{"type":"Feature","properties":{"id":"E01015881","name":"E01015881","parent":"E06000033","type":"LSOA","pop":1383,"r":244,"ff":98,"ffd":7086.0,"ffs":0.4828,"g":40,"co":2,"mo":2,"sa":0,"ic":0},"geometry":{"type":"Polygon","coordinates":[[[0.80253,51.5397],[0.80086,51.53793],[0.80022,51.53796],[0.7997,51.5372],[0.79941,51.53751],[0.79895,51.5371],[0.79742,51.53741],[0.79718,51.53715],[0.79688,51.53767],[0.79512,51.53658],[0.79464,51.53651],[0.79378,51.53712],[0.79378,51.53807],[0.79359,51.53853],[0.79469,51.5389],[0.79487,51.53945],[0.79431,51.53924],[0.7941,51.53971],[0.7932,51.53988],[0.79342,51.54056],[0.79257,51.5417],[0.79273,51.54235],[0.79515,51.54224],[0.799,51.54163],[0.80413,51.54121],[0.80253,51.5397]]]}},{"type":"Feature","properties":{"id":"E01015882","name":"E01015882","parent":"E06000033","type":"LSOA","pop":1792,"r":264,"ff":108,"ffd":6026.8,"ffs":0.4909,"g":43,"co":2,"mo":2,"sa":0,"ic":0},"geometry":{"type":"Polygon","coordinates":[[[0.78421,51.54053],[0.78456,51.54025],[0.78413,51.54026],[0.78369,51.53967],[0.78544,51.53947],[0.7858,51.5397],[0.78489,51.54015],[0.78542,51.54075],[0.78663,51.54103],[0.78756,51.5405],[0.78748,51.54008],[0.78799,51.5389],[0.78657,51.53861],[0.78734,51.53713],[0.78966,51.53751],[0.78937,51.53702],[0.79003,51.53557],[0.78707,51.53499],[0.78555,51.53446],[0.78085,51.53528],[0.78086,51.53661],[0.78013,51.53664],[0.78019,51.53751],[0.77987,51.53914],[0.78352,51.54008],[0.78308,51.54099],[0.78395,51.54128],[0.78397,51.5418],[0.78436,51.54137],[0.78499,51.54132],[0.78421,51.54053]]]}},{"type":"Feature","properties":{"id":"E01015883","name":"E01015883","parent":"E06000033","type":"LSOA","pop":1454,"r":358,"ff":148,"ffd":10178.8,"ffs":0.4884,"g":54,"co":0,"mo":2,"sa":0,"ic":0},"geometry":{"type":"Polygon","coordinates":[[[0.76241,51.54386],[0.76232,51.54333],[0.76114,51.54325],[0.76095,51.54359],[0.76082,51.5433],[0.76067,51.54357],[0.75971,51.54348],[0.75884,51.54298],[0.75946,51.542],[0.75898,51.54126],[0.75975,51.54077],[0.76085,51.541],[0.76183,51.53922],[0.76117,51.53908],[0.76115,51.53841],[0.75827,51.5388],[0.75849,51.53809],[0.75488,51.53856],[0.74697,51.53918],[0.75099,51.54208],[0.7505,51.54291],[0.75363,51.5432],[0.75448,51.54351],[0.75539,51.54336],[0.75506,51.54391],[0.75541,51.54413],[0.75693,51.54435],[0.76241,51.54386]]]}},{"type":"Feature","properties":{"id":"E01015884","name":"E01015884","parent":"E06000033","type":"LSOA","pop":2443,"r":372,"ff":152,"ffd":6221.9,"ffs":0.4872,"g":59,"co":0,"mo":2,"sa":0,"ic":0},"geometry":{"type":"Polygon","coordinates":[[[0.73984,51.54547],[0.74001,51.54424],[0.74066,51.54426],[0.74079,51.54389],[0.74148,51.544],[0.74189,51.54346],[0.74296,51.54366],[0.7432,51.54284],[0.74388,51.54282],[0.74398,51.54244],[0.7467,51.54277],[0.74683,51.54252],[0.75117,51.54327],[0.75132,51.54291],[0.7505,51.54291],[0.75099,51.54208],[0.74697,51.53918],[0.73509,51.53896],[0.73443,51.54137],[0.73763,51.54187],[0.73652,51.5447],[0.73715,51.54476],[0.73703,51.54518],[0.73984,51.54547]]]}},{"type":"Feature","properties":{"id":"E01015885","name":"E01015885","parent":"E06000033","type":"LSOA","pop":1757,"r":328,"ff":133,"ffd":7569.7,"ffs":0.4872,"g":54,"co":0,"mo":2,"sa":0,"ic":0},"geometry":{"type":"Polygon","coordinates":[[[0.77229,51.54345],[0.77152,51.54229],[0.76975,51.54082],[0.7694,51.54005],[0.76936,51.53776],[0.76915,51.53676],[0.75849,51.53809],[0.75827,51.5388],[0.76115,51.53841],[0.76117,51.53908],[0.76183,51.53922],[0.76085,51.541],[0.75975,51.54077],[0.75898,51.54126],[0.75946,51.542],[0.75884,51.54298],[0.75971,51.54348],[0.76067,51.54357],[0.76082,51.5433],[0.76095,51.54359],[0.76114,51.54325],[0.76232,51.54333],[0.76241,51.54386],[0.76833,51.54347],[0.77227,51.54429],[0.77229,51.54345]]]}},{"type":"Feature","properties":{"id":"E01015886","name":"E01015886","parent":"E06000033","type":"LSOA","pop":1564,"r":365,"ff":148,"ffd":9462.9,"ffs":0.4852,"g":59,"co":2,"mo":0,"sa":0,"ic":0},"geometry":{"type":"Polygon","coordinates":[[[0.7441,51.5512],[0.74938,51.54839],[0.74863,51.54793],[0.7479,51.54824],[0.74753,51.54795],[0.74688,51.54825],[0.74679,51.54881],[0.74493,51.54894],[0.7448,51.54961],[0.74425,51.54955],[0.74435,51.54922],[0.74352,51.54905],[0.74312,51.54935],[0.74077,51.54892],[0.74081,51.54858],[0.7399,51.54847],[0.73987,51.54874],[0.73824,51.54925],[0.73724,51.54819],[0.73691,51.54856],[0.73632,51.54851],[0.73543,51.55161],[0.73601,51.55168],[0.73616,51.55238],[0.74281,51.55177],[0.7441,51.5512]]]}},{"type":"Feature","properties":{"id":"E01015887","name":"E01015887","parent":"E06000033","type":"LSOA","pop":1661,"r":361,"ff":144,"ffd":8669.5,"ffs":0.4784,"g":59,"co":2,"mo":0,"sa":0,"ic":0},"geometry":{"type":"Polygon","coordinates":[[[0.7448,51.54961],[0.74493,51.54894],[0.74679,51.54881],[0.74688,51.54825],[0.74764,51.54788],[0.74726,51.54757],[0.74568,51.54782],[0.74448,51.54718],[0.74548,51.54678],[0.74591,51.54564],[0.74254,51.54526],[0.74296,51.54366],[0.74189,51.54346],[0.74148,51.544],[0.74079,51.54389],[0.74066,51.54426],[0.74001,51.54424],[0.73984,51.54547],[0.73703,51.54518],[0.73715,51.54476],[0.73652,51.5447],[0.73602,51.54805],[0.73632,51.54851],[0.73691,51.54856],[0.73724,51.54819],[0.73824,51.54925],[0.73987,51.54874],[0.7399,51.54847],[0.74081,51.54858],[0.74077,51.54892],[0.74312,51.54935],[0.74352,51.54905],[0.74435,51.54922],[0.74425,51.54955],[0.7448,51.54961]]]}},{"type":"Feature","properties":{"id":"E01015888","name":"E01015888","parent":"E06000033","type":"LSOA","pop":1477,"r":352,"ff":139,"ffd":9411.0,"ffs":0.4728,"g":57,"co":2,"mo":0,"sa":0,"ic":0},"geometry":{"type":"Polygon","coordinates":[[[0.74907,51.55936],[0.75209,51.55836],[0.75158,51.558],[0.75338,51.55752],[0.75315,51.55487],[0.75769,51.55413],[0.76103,51.55329],[0.76116,51.55297],[0.76955,51.5524],[0.77024,51.55104],[0.77081,51.55105],[0.77227,51.54429],[0.76833,51.54347],[0.75693,51.54435],[0.75541,51.54413],[0.75506,51.54391],[0.75539,51.54336],[0.75448,51.54351],[0.75363,51.5432],[0.75132,51.54291],[0.75117,51.54327],[0.74683,51.54252],[0.7467,51.54277],[0.74398,51.54244],[0.74388,51.54282],[0.7432,51.54284],[0.74254,51.54526],[0.74591,51.54564],[0.74548,51.54678],[0.74448,51.54718],[0.74568,51.54782],[0.74726,51.54757],[0.7479,51.54824],[0.74863,51.54793],[0.74938,51.54839],[0.74281,51.55177],[0.73616,51.55238],[0.73725,51.55464],[0.73979,51.55571],[0.74014,51.55649],[0.74118,51.55661],[0.74111,51.55756],[0.73942,51.55816],[0.73904,51.55935],[0.74108,51.55924],[0.74175,51.5599],[0.74379,51.55988],[0.74907,51.55936]]]}},{"type":"Feature","properties":{"id":"E01015889","name":"E01015889","parent":"E06000033","type":"LSOA","pop":1392,"r":351,"ff":144,"ffd":10344.8,"ffs":0.4881,"g":55,"co":2,"mo":2,"sa":0,"ic":0},"geometry":{"type":"Polygon","coordinates":[[[0.74844,51.53915],[0.74852,51.53821],[0.74789,51.53822],[0.74806,51.53697],[0.74984,51.53723],[0.75006,51.53685],[0.75095,51.53704],[0.7511,51.53738],[0.75218,51.53743],[0.75341,51.53612],[0.75083,51.53432],[0.75294,51.53304],[0.75362,51.53182],[0.75436,51.53145],[0.75572,51.53366],[0.75675,51.53344],[0.75543,51.5312],[0.75579,51.53063],[0.75554,51.53024],[0.75602,51.53016],[0.75639,51.5309],[0.75703,51.53077],[0.75658,51.53],[0.757,51.52991],[0.75668,51.52944],[0.7538,51.53005],[0.75344,51.52931],[0.74482,51.5303],[0.74607,51.53205],[0.74504,51.53212],[0.7429,51.53307],[0.74459,51.53431],[0.74453,51.53471],[0.74407,51.53528],[0.74509,51.53545],[0.74466,51.53577],[0.74577,51.53681],[0.74453,51.53737],[0.74491,51.5377],[0.74423,51.53853],[0.74311,51.53762],[0.74272,51.53877],[0.74146,51.53838],[0.74171,51.5376],[0.74099,51.53751],[0.74065,51.53908],[0.74844,51.53915]]]}},{"type":"Feature","properties":{"id":"E01015890","name":"E01015890","parent":"E06000033","type":"LSOA","pop":1509,"r":342,"ff":136,"ffd":9012.6,"ffs":0.4772,"g":56,"co":2,"mo":2,"sa":0,"ic":0},"geometry":{"type":"Polygon","coordinates":[[[0.76414,51.5374],[0.76406,51.53679],[0.76552,51.53663],[0.76413,51.53455],[0.76205,51.53508],[0.76044,51.53263],[0.75972,51.5327],[0.7583,51.53058],[0.75727,51.53032],[0.757,51.52991],[0.75658,51.53],[0.75703,51.53077],[0.75639,51.5309],[0.75602,51.53016],[0.75554,51.53024],[0.75579,51.53063],[0.75543,51.5312],[0.75675,51.53344],[0.75572,51.53366],[0.75436,51.53145],[0.75362,51.53182],[0.75294,51.53304],[0.75083,51.53432],[0.75341,51.53612],[0.75218,51.53743],[0.7511,51.53738],[0.75095,51.53704],[0.75006,51.53685],[0.74984,51.53723],[0.74806,51.53697],[0.74789,51.53822],[0.74852,51.53821],[0.74844,51.53915],[0.75488,51.53856],[0.76414,51.5374]]]}},{"type":"Feature","properties":{"id":"E01015891","name":"E01015891","parent":"E06000033","type":"LSOA","pop":1506,"r":359,"ff":148,"ffd":9827.4,"ffs":0.4884,"g":55,"co":0,"mo":2,"sa":0,"ic":0},"geometry":{"type":"Polygon","coordinates":[[[0.73984,51.53346],[0.73981,51.53237],[0.7429,51.53307],[0.74504,51.53212],[0.74607,51.53205],[0.74482,51.5303],[0.74572,51.53024],[0.74568,51.52983],[0.74407,51.52993],[0.73651,51.52959],[0.73156,51.53006],[0.73174,51.53208],[0.73157,51.53322],[0.73279,51.53328],[0.73539,51.53387],[0.73791,51.53383],[0.73984,51.53346]]]}},{"type":"Feature","properties":{"id":"E01015892","name":"E01015892","parent":"E06000033","type":"LSOA","pop":1678,"r":370,"ff":151,"ffd":8998.8,"ffs":0.4887,"g":60,"co":0,"mo":2,"sa":0,"ic":0},"geometry":{"type":"Polygon","coordinates":[[[0.73217,51.53802],[0.73618,51.53806],[0.73644,51.53583],[0.73906,51.53596],[0.73901,51.53636],[0.73968,51.53642],[0.73978,51.53555],[0.73847,51.53548],[0.73861,51.53432],[0.73791,51.53383],[0.73539,51.53387],[0.73279,51.53328],[0.73157,51.53322],[0.73087,51.53833],[0.73205,51.53836],[0.73217,51.53802]]]}},{"type":"Feature","properties":{"id":"E01015893","name":"E01015893","parent":"E06000033","type":"LSOA","pop":1466,"r":322,"ff":133,"ffd":9072.3,"ffs":0.4872,"g":48,"co":2,"mo":2,"sa":0,"ic":0},"geometry":{"type":"Polygon","coordinates":[[[0.76871,51.53567],[0.76771,51.53366],[0.76742,51.53161],[0.7686,51.52803],[0.7685,51.52543],[0.75708,51.52842],[0.75081,51.52953],[0.74568,51.52983],[0.74572,51.53024],[0.75344,51.52931],[0.7538,51.53005],[0.75668,51.52944],[0.75727,51.53032],[0.7583,51.53058],[0.75972,51.5327],[0.76044,51.53263],[0.76205,51.53508],[0.76413,51.53455],[0.76552,51.53663],[0.76406,51.53679],[0.76414,51.5374],[0.76915,51.53676],[0.76871,51.53567]]]}},{"type":"Feature","properties":{"id":"E01015894","name":"E01015894","parent":"E06000033","type":"LSOA","pop":1575,"r":364,"ff":147,"ffd":9333.3,"ffs":0.4851,"g":60,"co":0,"mo":2,"sa":0,"ic":0},"geometry":{"type":"Polygon","coordinates":[[[0.74065,51.53908],[0.74099,51.53751],[0.74171,51.5376],[0.74146,51.53838],[0.74272,51.53877],[0.74311,51.53762],[0.74423,51.53853],[0.74491,51.5377],[0.74453,51.53737],[0.74577,51.53681],[0.74466,51.53577],[0.74509,51.53545],[0.74407,51.53528],[0.74453,51.53471],[0.74459,51.53431],[0.7429,51.53307],[0.73981,51.53237],[0.73984,51.53346],[0.73791,51.53383],[0.73861,51.53432],[0.73847,51.53548],[0.73978,51.53555],[0.73968,51.53642],[0.73901,51.53636],[0.73906,51.53596],[0.73644,51.53583],[0.73618,51.53806],[0.73217,51.53802],[0.73205,51.53836],[0.73122,51.53835],[0.73117,51.53889],[0.74065,51.53908]]]}},{"type":"Feature","properties":{"id":"E01015896","name":"E01015896","parent":"E06000033","type":"LSOA","pop":2062,"r":403,"ff":164,"ffd":7953.4,"ffs":0.4866,"g":65,"co":0,"mo":0,"sa":0,"ic":0},"geometry":{"type":"Polygon","coordinates":[[[0.70453,51.54564],[0.70492,51.54522],[0.70556,51.5454],[0.70729,51.54339],[0.70651,51.54273],[0.70697,51.54154],[0.70657,51.54104],[0.70592,51.54121],[0.706,51.54042],[0.70109,51.53994],[0.69658,51.54187],[0.69699,51.54205],[0.69746,51.54179],[0.69767,51.54195],[0.69805,51.54316],[0.69944,51.54343],[0.69967,51.54382],[0.69908,51.54395],[0.69921,51.54431],[0.69973,51.54424],[0.70021,51.54475],[0.70141,51.54475],[0.70183,51.54362],[0.70513,51.54404],[0.70374,51.54564],[0.70453,51.54564]]]}},{"type":"Feature","properties":{"id":"E01015897","name":"E01015897","parent":"E06000033","type":"LSOA","pop":2101,"r":402,"ff":160,"ffd":7615.4,"ffs":0.479,"g":67,"co":0,"mo":0,"sa":0,"ic":0},"geometry":{"type":"Polygon","coordinates":[[[0.71472,51.54974],[0.71482,51.54946],[0.71534,51.54951],[0.71534,51.5498],[0.71589,51.54987],[0.72144,51.55],[0.72163,51.54702],[0.72105,51.54702],[0.72071,51.54638],[0.71978,51.54659],[0.7189,51.54751],[0.71927,51.54807],[0.71892,51.54834],[0.71883,51.54753],[0.71828,51.5474],[0.71822,51.54695],[0.71774,51.54695],[0.71762,51.54734],[0.71589,51.54745],[0.71482,51.54668],[0.71327,51.54668],[0.71371,51.54637],[0.7123,51.54572],[0.71126,51.54566],[0.7111,51.54792],[0.71232,51.54838],[0.71186,51.54952],[0.71148,51.54959],[0.71215,51.55003],[0.71183,51.55039],[0.71345,51.55081],[0.71419,51.55076],[0.71472,51.54974]]]}},{"type":"Feature","properties":{"id":"E01015898","name":"E01015898","parent":"E06000033","type":"LSOA","pop":1997,"r":400,"ff":161,"ffd":8062.1,"ffs":0.4835,"g":66,"co":0,"mo":0,"sa":0,"ic":0},"geometry":{"type":"Polygon","coordinates":[[[0.7189,51.54751],[0.71978,51.54659],[0.72071,51.54638],[0.72105,51.54702],[0.72163,51.54702],[0.72185,51.54557],[0.72253,51.54338],[0.72198,51.54333],[0.7219,51.54369],[0.71911,51.54338],[0.71912,51.54311],[0.71857,51.54306],[0.71825,51.5439],[0.717,51.54382],[0.71734,51.54368],[0.71701,51.5435],[0.71399,51.54335],[0.71401,51.54267],[0.71343,51.54279],[0.71289,51.5436],[0.7113,51.54339],[0.71126,51.54566],[0.7123,51.54572],[0.71371,51.54637],[0.71327,51.54668],[0.71482,51.54668],[0.71589,51.54745],[0.71762,51.54734],[0.71774,51.54695],[0.71822,51.54695],[0.71828,51.5474],[0.71883,51.54753],[0.71892,51.54834],[0.71927,51.54807],[0.7189,51.54751]]]}},{"type":"Feature","properties":{"id":"E01015899","name":"E01015899","parent":"E06000033","type":"LSOA","pop":2079,"r":404,"ff":162,"ffd":7792.2,"ffs":0.4807,"g":66,"co":0,"mo":0,"sa":0,"ic":0},"geometry":{"type":"Polygon","coordinates":[[[0.7111,51.54792],[0.71127,51.54453],[0.71088,51.54432],[0.71086,51.5457],[0.70534,51.54565],[0.70556,51.5454],[0.70492,51.54522],[0.70453,51.54564],[0.70374,51.54564],[0.70513,51.54404],[0.70183,51.54362],[0.70118,51.54575],[0.70205,51.54594],[0.70186,51.54616],[0.70228,51.54626],[0.70177,51.54694],[0.70207,51.54742],[0.71183,51.55039],[0.71215,51.55003],[0.71148,51.54959],[0.71186,51.54952],[0.71232,51.54838],[0.7111,51.54792]]]}},{"type":"Feature","properties":{"id":"E01015900","name":"E01015900","parent":"E06000033","type":"LSOA","pop":1748,"r":406,"ff":165,"ffd":9439.4,"ffs":0.4853,"g":65,"co":0,"mo":0,"sa":0,"ic":0},"geometry":{"type":"Polygon","coordinates":[[[0.70141,51.54475],[0.70021,51.54475],[0.69973,51.54424],[0.69921,51.54431],[0.69908,51.54395],[0.69967,51.54382],[0.69944,51.54343],[0.69805,51.54316],[0.69767,51.54195],[0.69746,51.54179],[0.69699,51.54205],[0.69658,51.54187],[0.69244,51.54387],[0.6972,51.54479],[0.70015,51.54657],[0.70207,51.54742],[0.70177,51.54694],[0.70228,51.54626],[0.70186,51.54616],[0.70205,51.54594],[0.70118,51.54575],[0.70141,51.54475]]]}},{"type":"Feature","properties":{"id":"E01015901","name":"E01015901","parent":"E06000033","type":"LSOA","pop":1655,"r":413,"ff":172,"ffd":10392.7,"ffs":0.4971,"g":66,"co":0,"mo":0,"sa":0,"ic":0},"geometry":{"type":"Polygon","coordinates":[[[0.68453,51.54765],[0.68592,51.54753],[0.68637,51.54711],[0.68688,51.54703],[0.68656,51.54573],[0.6875,51.54571],[0.68788,51.54539],[0.68777,51.54508],[0.68412,51.54557],[0.68133,51.54563],[0.68134,51.54591],[0.67994,51.54598],[0.68011,51.5473],[0.68114,51.54787],[0.68159,51.54756],[0.68212,51.54783],[0.6823,51.54915],[0.68481,51.54914],[0.68453,51.54765]]]}},{"type":"Feature","properties":{"id":"E01015902","name":"E01015902","parent":"E06000033","type":"LSOA","pop":1757,"r":409,"ff":168,"ffd":9561.8,"ffs":0.4898,"g":65,"co":0,"mo":0,"sa":0,"ic":0},"geometry":{"type":"Polygon","coordinates":[[[0.69336,51.54829],[0.69331,51.54674],[0.69428,51.54669],[0.69429,51.54613],[0.69329,51.54618],[0.69327,51.54437],[0.69432,51.54447],[0.69432,51.54418],[0.69244,51.54387],[0.68777,51.54508],[0.68788,51.54539],[0.6875,51.54571],[0.68778,51.54659],[0.68723,51.54666],[0.68732,51.54703],[0.68793,51.54726],[0.68945,51.54694],[0.68978,51.54627],[0.6903,51.54629],[0.69043,51.54683],[0.69138,51.54679],[0.69155,51.54819],[0.69289,51.54809],[0.69291,51.54831],[0.69336,51.54829]]]}},{"type":"Feature","properties":{"id":"E01015903","name":"E01015903","parent":"E06000033","type":"LSOA","pop":1646,"r":416,"ff":172,"ffd":10449.6,"ffs":0.4943,"g":67,"co":0,"mo":0,"sa":0,"ic":0},"geometry":{"type":"Polygon","coordinates":[[[0.68102,51.5514],[0.68405,51.55117],[0.68653,51.55124],[0.68655,51.55038],[0.68719,51.55065],[0.68754,51.55031],[0.68728,51.54887],[0.68382,51.54925],[0.6823,51.54915],[0.68212,51.54783],[0.68159,51.54756],[0.68114,51.54787],[0.68061,51.54759],[0.68017,51.54793],[0.6803,51.54912],[0.68081,51.54924],[0.68105,51.55102],[0.68003,51.55079],[0.6801,51.55138],[0.68102,51.5514]]]}},{"type":"Feature","properties":{"id":"E01015904","name":"E01015904","parent":"E06000033","type":"LSOA","pop":1860,"r":414,"ff":170,"ffd":9139.8,"ffs":0.4913,"g":67,"co":0,"mo":0,"sa":0,"ic":0},"geometry":{"type":"Polygon","coordinates":[[[0.68653,51.55124],[0.68779,51.55098],[0.69113,51.55107],[0.69216,51.55073],[0.69181,51.55018],[0.69101,51.55033],[0.6907,51.54848],[0.69021,51.54844],[0.68995,51.54692],[0.68793,51.54726],[0.68732,51.54703],[0.68723,51.54666],[0.68778,51.54659],[0.6875,51.54571],[0.68656,51.54573],[0.68688,51.54703],[0.68637,51.54711],[0.68592,51.54753],[0.68453,51.54765],[0.68481,51.54914],[0.68728,51.54887],[0.68754,51.55031],[0.68719,51.55065],[0.68655,51.55038],[0.68653,51.55124]]]}},{"type":"Feature","properties":{"id":"E01015905","name":"E01015905","parent":"E06000033","type":"LSOA","pop":1498,"r":416,"ff":175,"ffd":11682.2,"ffs":0.5014,"g":66,"co":0,"mo":0,"sa":0,"ic":0},"geometry":{"type":"Polygon","coordinates":[[[0.68006,51.55107],[0.68003,51.55079],[0.68105,51.55102],[0.68081,51.54924],[0.6803,51.54912],[0.68017,51.54793],[0.68061,51.54759],[0.68011,51.5473],[0.67994,51.54598],[0.68134,51.54591],[0.68133,51.54563],[0.67763,51.54569],[0.67708,51.54692],[0.67736,51.54819],[0.67785,51.54812],[0.67789,51.54845],[0.67742,51.54853],[0.67741,51.55064],[0.67796,51.55094],[0.6773,51.55115],[0.67798,51.55137],[0.6801,51.55138],[0.68006,51.55107]]]}},{"type":"Feature","properties":{"id":"E01015906","name":"E01015906","parent":"E06000033","type":"LSOA","pop":1586,"r":414,"ff":170,"ffd":10718.8,"ffs":0.4899,"g":66,"co":0,"mo":0,"sa":0,"ic":0},"geometry":{"type":"Polygon","coordinates":[[[0.69421,51.55025],[0.69424,51.54987],[0.69504,51.5498],[0.69524,51.54672],[0.69331,51.54674],[0.69336,51.54829],[0.69291,51.54831],[0.69289,51.54809],[0.69155,51.54819],[0.69138,51.54679],[0.69043,51.54683],[0.6903,51.54629],[0.68978,51.54627],[0.68945,51.54694],[0.68995,51.54692],[0.69021,51.54844],[0.6907,51.54848],[0.69101,51.55033],[0.69181,51.55018],[0.69216,51.55073],[0.69421,51.55025]]]}},{"type":"Feature","properties":{"id":"E01015907","name":"E01015907","parent":"E06000033","type":"LSOA","pop":1591,"r":408,"ff":166,"ffd":10433.7,"ffs":0.4854,"g":65,"co":0,"mo":0,"sa":0,"ic":0},"geometry":{"type":"Polygon","coordinates":[[[0.69691,51.55],[0.69677,51.54935],[0.69714,51.54936],[0.69764,51.54664],[0.69718,51.54659],[0.69726,51.54596],[0.6978,51.54595],[0.69733,51.54551],[0.69749,51.54496],[0.69432,51.54418],[0.69432,51.54447],[0.69327,51.54437],[0.69329,51.54618],[0.69429,51.54613],[0.69428,51.54669],[0.69524,51.54672],[0.69504,51.5498],[0.69424,51.54987],[0.69421,51.55025],[0.69691,51.55]]]}},{"type":"Feature","properties":{"id":"E01015908","name":"E01015908","parent":"E06000033","type":"LSOA","pop":1653,"r":413,"ff":182,"ffd":11010.3,"ffs":0.5245,"g":64,"co":0,"mo":0,"sa":0,"ic":0},"geometry":{"type":"Polygon","coordinates":[[[0.63695,51.54779],[0.63714,51.54733],[0.63766,51.54737],[0.6379,51.54613],[0.63733,51.54607],[0.6375,51.54535],[0.64007,51.54536],[0.6402,51.54571],[0.64129,51.54558],[0.64124,51.54582],[0.64205,51.54598],[0.64355,51.54533],[0.64218,51.54498],[0.64244,51.5435],[0.6437,51.54358],[0.64398,51.54323],[0.64446,51.54325],[0.64446,51.54222],[0.64066,51.54148],[0.63473,51.54251],[0.62996,51.54385],[0.63222,51.54378],[0.63225,51.54411],[0.63272,51.54415],[0.63253,51.54534],[0.63079,51.54531],[0.63133,51.54795],[0.63352,51.54787],[0.63375,51.54748],[0.63437,51.54754],[0.6344,51.54784],[0.63512,51.54759],[0.63565,51.54799],[0.63695,51.54779]]]}},{"type":"Feature","properties":{"id":"E01015909","name":"E01015909","parent":"E06000033","type":"LSOA","pop":1555,"r":421,"ff":184,"ffd":11832.8,"ffs":0.5227,"g":68,"co":0,"mo":0,"sa":0,"ic":0},"geometry":{"type":"Polygon","coordinates":[[[0.6488,51.54744],[0.6488,51.5451],[0.64922,51.54482],[0.64891,51.54273],[0.64446,51.54222],[0.64446,51.54325],[0.64398,51.54323],[0.6437,51.54358],[0.64244,51.5435],[0.64218,51.54498],[0.64355,51.54533],[0.64205,51.54598],[0.6396,51.54749],[0.63967,51.54799],[0.64447,51.54521],[0.64477,51.54541],[0.64464,51.54578],[0.64503,51.54592],[0.64449,51.54636],[0.64514,51.54654],[0.64444,51.54681],[0.64431,51.54771],[0.6449,51.54784],[0.64501,51.54748],[0.64568,51.54736],[0.64554,51.54783],[0.64617,51.548],[0.64609,51.54835],[0.64846,51.54855],[0.64833,51.54745],[0.6488,51.54744]]]}},{"type":"Feature","properties":{"id":"E01015910","name":"E01015910","parent":"E06000033","type":"LSOA","pop":1593,"r":388,"ff":175,"ffd":10985.6,"ffs":0.5385,"g":61,"co":0,"mo":0,"sa":0,"ic":0},"geometry":{"type":"MultiPolygon","coordinates":[[[[0.64002,51.53602],[0.63982,51.53336],[0.63923,51.53331],[0.63891,51.53386],[0.6393,51.53309],[0.63729,51.53251],[0.63675,51.5333],[0.63685,51.53252],[0.63639,51.53283],[0.63678,51.53251],[0.63659,51.53197],[0.63587,51.53196],[0.63545,51.53265],[0.63603,51.5333],[0.63551,51.53286],[0.6352,51.53308],[0.63537,51.53208],[0.63501,51.53167],[0.63415,51.53277],[0.63463,51.53328],[0.634,51.53284],[0.63438,51.5324],[0.63414,51.53189],[0.63346,51.53294],[0.6332,51.53273],[0.63284,51.53297],[0.63258,51.53255],[0.63294,51.53256],[0.6333,51.53195],[0.63295,51.53188],[0.63265,51.53238],[0.63275,51.53177],[0.63174,51.53169],[0.63154,51.53141],[0.63162,51.53222],[0.63113,51.5318],[0.63099,51.53219],[0.63052,51.53177],[0.62994,51.53216],[0.62913,51.53164],[0.62919,51.53199],[0.6288,51.53173],[0.62842,51.53221],[0.62785,51.53199],[0.62729,51.53266],[0.62817,51.53299],[0.62803,51.53322],[0.62869,51.53362],[0.6317,51.53432],[0.6335,51.53462],[0.63453,51.53409],[0.63532,51.53436],[0.63595,51.5342],[0.63736,51.53499],[0.63713,51.53529],[0.63762,51.53516],[0.6377,51.53546],[0.63863,51.53514],[0.63902,51.53588],[0.64002,51.53602]]],[[[0.64008,51.53684],[0.64008,51.53682],[0.64007,51.53683],[0.64008,51.53684]]],[[[0.64015,51.53775],[0.64006,51.53774],[0.64007,51.5378],[0.64016,51.53783],[0.64015,51.53775]]],[[[0.63741,51.53803],[0.63757,51.53786],[0.63677,51.53792],[0.63741,51.53803]]],[[[0.63391,51.53749],[0.63585,51.53726],[0.63891,51.53759],[0.63942,51.53717],[0.64014,51.53764],[0.6401,51.5371],[0.63971,51.53695],[0.64007,51.53668],[0.64005,51.53634],[0.63794,51.53579],[0.63862,51.53527],[0.63779,51.5358],[0.63665,51.53547],[0.63708,51.53511],[0.63664,51.53485],[0.63669,51.53505],[0.63658,51.53542],[0.63634,51.53541],[0.63664,51.53495],[0.6364,51.53515],[0.63651,51.53483],[0.63575,51.53493],[0.63604,51.53448],[0.63563,51.53497],[0.63542,51.53457],[0.63415,51.53454],[0.63627,51.53529],[0.63582,51.5354],[0.63398,51.53473],[0.63233,51.53451],[0.62866,51.53371],[0.62742,51.53309],[0.62672,51.53216],[0.62792,51.53385],[0.62743,51.53458],[0.62454,51.53637],[0.62759,51.53774],[0.62962,51.5382],[0.63296,51.53814],[0.63369,51.53795],[0.63391,51.53749]]],[[[0.63637,51.53801],[0.63536,51.53801],[0.6363,51.53824],[0.63637,51.53801]]],[[[0.64009,51.53849],[0.63974,51.5384],[0.63964,51.53878],[0.64023,51.53871],[0.64009,51.53849]]],[[[0.63952,51.5383],[0.63766,51.53797],[0.6371,51.53838],[0.63828,51.53887],[0.63952,51.5383]]],[[[0.6395,51.53887],[0.6396,51.53836],[0.6386,51.53894],[0.6395,51.53887]]],[[[0.64027,51.53926],[0.64024,51.53885],[0.63932,51.53916],[0.64013,51.53923],[0.64027,51.53926]]],[[[0.62567,51.54969],[0.6279,51.54931],[0.62911,51.54953],[0.62896,51.54906],[0.62945,51.54889],[0.6309,51.54904],[0.63089,51.54841],[0.63002,51.54848],[0.62999,51.54818],[0.63133,51.54795],[0.63079,51.54531],[0.63253,51.54534],[0.63272,51.54415],[0.63225,51.54411],[0.63222,51.54378],[0.62996,51.54385],[0.63473,51.54251],[0.64066,51.54148],[0.64034,51.54022],[0.63656,51.53923],[0.63382,51.53923],[0.63361,51.53887],[0.63415,51.53855],[0.63334,51.53874],[0.63324,51.53924],[0.6319,51.53895],[0.63205,51.53862],[0.6315,51.53891],[0.63164,51.53863],[0.62892,51.53845],[0.62888,51.5387],[0.62857,51.53879],[0.62893,51.53895],[0.62902,51.53913],[0.62795,51.53902],[0.62895,51.53908],[0.62833,51.53871],[0.62885,51.53865],[0.62819,51.5386],[0.62738,51.53882],[0.62803,51.53864],[0.62732,51.53841],[0.62807,51.53859],[0.62706,51.53816],[0.62676,51.5383],[0.62543,51.53807],[0.62433,51.53856],[0.624,51.53903],[0.62474,51.54041],[0.62426,51.54061],[0.62296,51.54047],[0.62298,51.54092],[0.62376,51.54126],[0.6232,51.54133],[0.62321,51.54212],[0.62391,51.54208],[0.62479,51.54379],[0.62415,51.54759],[0.62514,51.54921],[0.62567,51.54969]]]]}},{"type":"Feature","properties":{"id":"E01015911","name":"E01015911","parent":"E06000033","type":"LSOA","pop":1317,"r":386,"ff":174,"ffd":13211.8,"ffs":0.5404,"g":62,"co":0,"mo":0,"sa":0,"ic":0},"geometry":{"type":"Polygon","coordinates":[[[0.63476,51.55384],[0.6342,51.5533],[0.63237,51.55377],[0.63037,51.55295],[0.63143,51.55205],[0.6323,51.55211],[0.63211,51.55174],[0.6325,51.55157],[0.63206,51.55128],[0.63059,51.5521],[0.62918,51.55132],[0.62879,51.54996],[0.6304,51.54975],[0.63045,51.54935],[0.63097,51.5493],[0.6309,51.54904],[0.62945,51.54889],[0.62896,51.54906],[0.62911,51.54953],[0.6279,51.54931],[0.62567,51.54969],[0.62718,51.55115],[0.62606,51.55315],[0.62558,51.55362],[0.62702,51.5554],[0.62849,51.55541],[0.62936,51.55639],[0.63169,51.55765],[0.63358,51.55596],[0.63363,51.55423],[0.63476,51.55384]]]}},{"type":"Feature","properties":{"id":"E01015912","name":"E01015912","parent":"E06000033","type":"LSOA","pop":1584,"r":400,"ff":177,"ffd":11174.2,"ffs":0.5299,"g":64,"co":0,"mo":0,"sa":0,"ic":0},"geometry":{"type":"Polygon","coordinates":[[[0.63828,51.55327],[0.64051,51.55259],[0.64238,51.55241],[0.64186,51.55141],[0.63982,51.55078],[0.63896,51.54969],[0.63721,51.54922],[0.63621,51.54947],[0.636,51.54914],[0.63576,51.54949],[0.63479,51.54951],[0.6345,51.54888],[0.63397,51.54865],[0.63113,51.54884],[0.63097,51.5493],[0.63045,51.54935],[0.6304,51.54975],[0.62879,51.54996],[0.62918,51.55132],[0.63059,51.5521],[0.63206,51.55128],[0.6325,51.55157],[0.63211,51.55174],[0.6323,51.55211],[0.63143,51.55205],[0.63037,51.55295],[0.63237,51.55377],[0.6342,51.5533],[0.63476,51.55384],[0.63828,51.55327]]]}},{"type":"Feature","properties":{"id":"E01015913","name":"E01015913","parent":"E06000033","type":"LSOA","pop":1813,"r":417,"ff":184,"ffd":10148.9,"ffs":0.5257,"g":66,"co":0,"mo":0,"sa":0,"ic":0},"geometry":{"type":"Polygon","coordinates":[[[0.64622,51.55099],[0.6448,51.54899],[0.64571,51.54906],[0.64661,51.54839],[0.64609,51.54835],[0.64617,51.548],[0.64554,51.54783],[0.64568,51.54736],[0.64501,51.54748],[0.6449,51.54784],[0.64431,51.54771],[0.64444,51.54681],[0.64514,51.54654],[0.64449,51.54636],[0.64503,51.54592],[0.64464,51.54578],[0.64477,51.54541],[0.64447,51.54521],[0.63967,51.54799],[0.6396,51.54749],[0.64205,51.54598],[0.64124,51.54582],[0.64129,51.54558],[0.6402,51.54571],[0.64007,51.54536],[0.6375,51.54535],[0.63733,51.54607],[0.6379,51.54613],[0.63766,51.54737],[0.63714,51.54733],[0.63695,51.54779],[0.63565,51.54799],[0.63512,51.54759],[0.6344,51.54784],[0.63437,51.54754],[0.63375,51.54748],[0.63352,51.54787],[0.62999,51.54818],[0.63002,51.54848],[0.63089,51.54841],[0.63097,51.5493],[0.63113,51.54884],[0.63397,51.54865],[0.6345,51.54888],[0.63479,51.54951],[0.63576,51.54949],[0.636,51.54914],[0.63621,51.54947],[0.63721,51.54922],[0.63896,51.54969],[0.63982,51.55078],[0.64186,51.55141],[0.64238,51.55241],[0.64491,51.5511],[0.64622,51.55099]]]}},{"type":"Feature","properties":{"id":"E01015914","name":"E01015914","parent":"E06000033","type":"LSOA","pop":1294,"r":301,"ff":123,"ffd":9505.4,"ffs":0.5,"g":54,"co":0,"mo":2,"sa":0,"ic":0},"geometry":{"type":"Polygon","coordinates":[[[0.78669,51.55294],[0.7868,51.54727],[0.78335,51.54684],[0.7837,51.54606],[0.77788,51.545],[0.77748,51.54474],[0.77864,51.54414],[0.77895,51.54312],[0.77707,51.54278],[0.77687,51.54226],[0.77816,51.54178],[0.77797,51.54125],[0.7772,51.54123],[0.77676,51.54057],[0.77727,51.5402],[0.77685,51.54005],[0.77636,51.54028],[0.77616,51.5388],[0.77271,51.53832],[0.77275,51.53793],[0.77119,51.53804],[0.77029,51.53662],[0.76915,51.53676],[0.76936,51.53776],[0.7694,51.54005],[0.76975,51.54082],[0.77152,51.54229],[0.77229,51.54345],[0.77227,51.54429],[0.77081,51.55105],[0.77024,51.55104],[0.76986,51.55178],[0.77527,51.55197],[0.78379,51.55284],[0.78669,51.55294]]]}},{"type":"Feature","properties":{"id":"E01015915","name":"E01015915","parent":"E06000033","type":"LSOA","pop":1426,"r":290,"ff":118,"ffd":8274.9,"ffs":0.4937,"g":50,"co":0,"mo":2,"sa":0,"ic":0},"geometry":{"type":"Polygon","coordinates":[[[0.77895,51.54312],[0.77901,51.5426],[0.78024,51.54291],[0.78095,51.54105],[0.77942,51.54081],[0.78003,51.53856],[0.78013,51.53664],[0.78086,51.53661],[0.78085,51.53528],[0.78412,51.53477],[0.78353,51.53436],[0.78045,51.53424],[0.78004,51.53539],[0.77286,51.53629],[0.77258,51.53583],[0.77104,51.53577],[0.77026,51.53624],[0.77029,51.53662],[0.77119,51.53804],[0.77275,51.53793],[0.77271,51.53832],[0.77616,51.5388],[0.77636,51.54028],[0.77685,51.54005],[0.77727,51.5402],[0.77676,51.54057],[0.7772,51.54123],[0.77797,51.54125],[0.77816,51.54178],[0.77687,51.54226],[0.77707,51.54278],[0.77895,51.54312]]]}},{"type":"Feature","properties":{"id":"E01015916","name":"E01015916","parent":"E06000033","type":"LSOA","pop":1459,"r":301,"ff":122,"ffd":8361.9,"ffs":0.4919,"g":52,"co":2,"mo":2,"sa":0,"ic":0},"geometry":{"type":"Polygon","coordinates":[[[0.77026,51.53624],[0.77104,51.53577],[0.77258,51.53583],[0.77286,51.53629],[0.77784,51.53567],[0.77679,51.53487],[0.77595,51.53538],[0.77566,51.53481],[0.77526,51.535],[0.77477,51.53468],[0.77114,51.53515],[0.77124,51.53444],[0.77223,51.53373],[0.77516,51.53339],[0.77538,51.53262],[0.77177,51.53204],[0.77168,51.53158],[0.76932,51.53113],[0.76855,51.53069],[0.76823,51.53103],[0.76753,51.53093],[0.76742,51.53161],[0.76771,51.53366],[0.76915,51.53676],[0.77029,51.53662],[0.77026,51.53624]]]}},{"type":"Feature","properties":{"id":"E01015917","name":"E01015917","parent":"E06000033","type":"LSOA","pop":1620,"r":279,"ff":114,"ffd":7037.0,"ffs":0.4893,"g":45,"co":2,"mo":2,"sa":0,"ic":0},"geometry":{"type":"Polygon","coordinates":[[[0.78004,51.53539],[0.78045,51.53424],[0.78353,51.53436],[0.78412,51.53477],[0.78555,51.53446],[0.78398,51.5341],[0.78432,51.53371],[0.78586,51.53323],[0.78606,51.53247],[0.78396,51.53147],[0.78409,51.53094],[0.78353,51.53073],[0.78294,51.53116],[0.78221,51.53107],[0.78262,51.53012],[0.78083,51.53007],[0.78054,51.52965],[0.77989,51.52957],[0.77955,51.53089],[0.78011,51.53092],[0.77992,51.53171],[0.78156,51.53196],[0.78102,51.53247],[0.77984,51.53234],[0.77978,51.53297],[0.77952,51.53322],[0.77793,51.53265],[0.77766,51.53189],[0.77545,51.53188],[0.77536,51.53217],[0.77692,51.53241],[0.77591,51.5333],[0.77223,51.53373],[0.77124,51.53444],[0.77114,51.53515],[0.77477,51.53468],[0.77526,51.535],[0.77566,51.53481],[0.77595,51.53538],[0.77679,51.53487],[0.77784,51.53567],[0.78004,51.53539]]]}},{"type":"Feature","properties":{"id":"E01015918","name":"E01015918","parent":"E06000033","type":"LSOA","pop":1439,"r":273,"ff":113,"ffd":7852.7,"ffs":0.4934,"g":43,"co":2,"mo":2,"sa":0,"ic":0},"geometry":{"type":"Polygon","coordinates":[[[0.77978,51.53297],[0.77984,51.53234],[0.78102,51.53247],[0.78156,51.53196],[0.77992,51.53171],[0.78011,51.53092],[0.77955,51.53089],[0.77989,51.52957],[0.78054,51.52965],[0.78083,51.53007],[0.78262,51.53012],[0.78221,51.53107],[0.78294,51.53116],[0.78452,51.53036],[0.78467,51.52978],[0.78341,51.52793],[0.78278,51.52739],[0.78197,51.52764],[0.78249,51.52982],[0.78121,51.5296],[0.78143,51.52784],[0.78039,51.52773],[0.78017,51.52799],[0.77969,51.52783],[0.77915,51.52805],[0.77897,51.52852],[0.77832,51.52879],[0.77779,51.52941],[0.77722,51.52948],[0.77726,51.52919],[0.77665,51.52907],[0.77545,51.52948],[0.77471,51.53016],[0.77537,51.53066],[0.77461,51.53144],[0.77545,51.53188],[0.77766,51.53189],[0.77793,51.53265],[0.77952,51.53322],[0.77978,51.53297]]]}},{"type":"Feature","properties":{"id":"E01015919","name":"E01015919","parent":"E06000033","type":"LSOA","pop":1321,"r":289,"ff":119,"ffd":9008.3,"ffs":0.4897,"g":45,"co":2,"mo":2,"sa":0,"ic":0},"geometry":{"type":"Polygon","coordinates":[[[0.77537,51.53066],[0.77471,51.53016],[0.77545,51.52948],[0.7718,51.52946],[0.77181,51.5291],[0.77377,51.52909],[0.7739,51.52819],[0.77321,51.52808],[0.77327,51.52725],[0.76865,51.52725],[0.7686,51.52803],[0.76753,51.53093],[0.76823,51.53103],[0.76855,51.53069],[0.76932,51.53113],[0.77168,51.53158],[0.77177,51.53204],[0.77538,51.53262],[0.77516,51.53339],[0.77591,51.5333],[0.77692,51.53241],[0.77536,51.53217],[0.77545,51.53188],[0.77461,51.53144],[0.77537,51.53066]]]}},{"type":"Feature","properties":{"id":"E01015920","name":"E01015920","parent":"E06000033","type":"LSOA","pop":1470,"r":282,"ff":117,"ffd":7959.2,"ffs":0.4958,"g":45,"co":2,"mo":2,"sa":0,"ic":0},"geometry":{"type":"Polygon","coordinates":[[[0.78249,51.52982],[0.78197,51.52764],[0.78209,51.52665],[0.78138,51.52569],[0.78046,51.52468],[0.77706,51.5238],[0.77675,51.52262],[0.7685,51.52543],[0.76865,51.52725],[0.77327,51.52725],[0.77321,51.52808],[0.7739,51.52819],[0.77377,51.52909],[0.77181,51.5291],[0.7718,51.52946],[0.77545,51.52948],[0.77665,51.52907],[0.77726,51.52919],[0.77722,51.52948],[0.77779,51.52941],[0.77832,51.52879],[0.77897,51.52852],[0.77915,51.52805],[0.77969,51.52783],[0.78017,51.52799],[0.78039,51.52773],[0.78143,51.52784],[0.78121,51.5296],[0.78249,51.52982]]]}},{"type":"Feature","properties":{"id":"E01034095","name":"E01034095","parent":"E06000033","type":"LSOA","pop":2257,"r":402,"ff":161,"ffd":7133.4,"ffs":0.4777,"g":64,"co":0,"mo":0,"sa":0,"ic":0},"geometry":{"type":"Polygon","coordinates":[[[0.71086,51.5457],[0.71088,51.54432],[0.71127,51.54453],[0.7114,51.54135],[0.71112,51.54142],[0.71064,51.5411],[0.71151,51.5409],[0.71209,51.54007],[0.706,51.54042],[0.70592,51.54121],[0.70657,51.54104],[0.70697,51.54154],[0.70651,51.54273],[0.70729,51.54339],[0.70534,51.54565],[0.71086,51.5457]]]}},{"type":"Feature","properties":{"id":"E01034096","name":"E01034096","parent":"E06000033","type":"LSOA","pop":1858,"r":396,"ff":159,"ffd":8557.6,"ffs":0.4818,"g":65,"co":0,"mo":0,"sa":0,"ic":0},"geometry":{"type":"Polygon","coordinates":[[[0.71857,51.54306],[0.71904,51.54015],[0.71755,51.54034],[0.71209,51.54007],[0.71151,51.5409],[0.71064,51.5411],[0.71112,51.54142],[0.7114,51.54135],[0.7113,51.54339],[0.71289,51.5436],[0.71343,51.54279],[0.71401,51.54267],[0.71399,51.54335],[0.71701,51.5435],[0.71734,51.54368],[0.717,51.54382],[0.71825,51.5439],[0.71857,51.54306]]]}}]}