{"type":"FeatureCollection","features":[{"type":"Feature","properties":{"id":"E01012571","name":"E01012571","parent":"E06000008","type":"LSOA","pop":1783,"r":333,"ff":159,"ffd":8917.6,"ffs":0.6023,"g":67,"co":0,"mo":0,"sa":0,"ic":0},"geometry":{"type":"Polygon","coordinates":[[[-2.45832,53.74867],[-2.4575,53.74663],[-2.45665,53.74645],[-2.45775,53.74623],[-2.45669,53.74414],[-2.46203,53.74319],[-2.4624,53.74389],[-2.46193,53.74451],[-2.46118,53.74513],[-2.45984,53.74538],[-2.46098,53.74564],[-2.46294,53.74533],[-2.46258,53.74599],[-2.46346,53.7463],[-2.46068,53.74662],[-2.46095,53.74754],[-2.45889,53.74781],[-2.45917,53.74863],[-2.46022,53.74856],[-2.46093,53.74925],[-2.4602,53.74949],[-2.45897,53.74955],[-2.45844,53.7489],[-2.45878,53.7487],[-2.45832,53.74867]]]}},{"type":"Feature","properties":{"id":"E01012572","name":"E01012572","parent":"E06000008","type":"LSOA","pop":1517,"r":320,"ff":149,"ffd":9822.0,"ffs":0.5866,"g":64,"co":0,"mo":0,"sa":0,"ic":0},"geometry":{"type":"Polygon","coordinates":[[[-2.47135,53.7473],[-2.47133,53.74688],[-2.47076,53.74697],[-2.47031,53.74612],[-2.46926,53.74603],[-2.46899,53.74562],[-2.4683,53.74594],[-2.4683,53.74477],[-2.4679,53.74491],[-2.46732,53.74447],[-2.47361,53.74329],[-2.47655,53.74476],[-2.47704,53.74538],[-2.47488,53.74827],[-2.47389,53.74877],[-2.47164,53.74917],[-2.47148,53.74752],[-2.47096,53.74736],[-2.47135,53.7473]]]}},{"type":"Feature","properties":{"id":"E01012573","name":"E01012573","parent":"E06000008","type":"LSOA","pop":1855,"r":346,"ff":165,"ffd":8894.9,"ffs":0.5957,"g":67,"co":0,"mo":0,"sa":0,"ic":0},"geometry":{"type":"Polygon","coordinates":[[[-2.46452,53.74809],[-2.46428,53.74756],[-2.46281,53.74766],[-2.46294,53.74636],[-2.46346,53.7463],[-2.46258,53.74599],[-2.46294,53.74533],[-2.46098,53.74564],[-2.45984,53.74538],[-2.46118,53.74513],[-2.46193,53.74451],[-2.4624,53.74389],[-2.46203,53.74319],[-2.46553,53.74257],[-2.46666,53.7446],[-2.46715,53.74592],[-2.46649,53.74524],[-2.46545,53.74515],[-2.46318,53.74575],[-2.46364,53.74662],[-2.4643,53.74654],[-2.46497,53.74801],[-2.46452,53.74809]]]}},{"type":"Feature","properties":{"id":"E01012574","name":"E01012574","parent":"E06000008","type":"LSOA","pop":1437,"r":317,"ff":146,"ffd":10160.1,"ffs":0.5817,"g":64,"co":0,"mo":0,"sa":0,"ic":0},"geometry":{"type":"Polygon","coordinates":[[[-2.46849,53.75337],[-2.47253,53.75199],[-2.47459,53.75437],[-2.4689,53.75614],[-2.46698,53.75694],[-2.46647,53.75449],[-2.46819,53.75379],[-2.46849,53.75337]]]}},{"type":"Feature","properties":{"id":"E01012575","name":"E01012575","parent":"E06000008","type":"LSOA","pop":1315,"r":346,"ff":165,"ffd":12547.5,"ffs":0.5957,"g":67,"co":0,"mo":0,"sa":0,"ic":0},"geometry":{"type":"Polygon","coordinates":[[[-2.46625,53.7503],[-2.46598,53.74971],[-2.46468,53.74993],[-2.4651,53.75118],[-2.46347,53.75158],[-2.46306,53.75084],[-2.46111,53.7512],[-2.4602,53.74949],[-2.46093,53.74925],[-2.46022,53.74856],[-2.45917,53.74863],[-2.45889,53.74781],[-2.46095,53.74754],[-2.46068,53.74662],[-2.46294,53.74636],[-2.46281,53.74766],[-2.46428,53.74756],[-2.46452,53.74809],[-2.46497,53.74801],[-2.4643,53.74654],[-2.46364,53.74662],[-2.46318,53.74575],[-2.46545,53.74515],[-2.46649,53.74524],[-2.46715,53.74592],[-2.46666,53.7446],[-2.46732,53.74447],[-2.4679,53.74491],[-2.4683,53.74477],[-2.4683,53.74594],[-2.46899,53.74562],[-2.46926,53.74603],[-2.47031,53.74612],[-2.47076,53.74697],[-2.47133,53.74688],[-2.47135,53.7473],[-2.47096,53.74736],[-2.47148,53.74752],[-2.47164,53.74917],[-2.4727,53.74943],[-2.47313,53.75167],[-2.46849,53.75337],[-2.46819,53.75379],[-2.46719,53.75425],[-2.46678,53.75392],[-2.46695,53.75304],[-2.46635,53.75297],[-2.4681,53.75031],[-2.46625,53.7503]]]}},{"type":"Feature","properties":{"id":"E01012576","name":"E01012576","parent":"E06000008","type":"LSOA","pop":1903,"r":346,"ff":165,"ffd":8670.5,"ffs":0.5957,"g":67,"co":2,"mo":0,"sa":0,"ic":0},"geometry":{"type":"Polygon","coordinates":[[[-2.46208,53.7538],[-2.45855,53.75173],[-2.45669,53.75188],[-2.45386,53.75385],[-2.45268,53.75303],[-2.45467,53.75203],[-2.45359,53.75093],[-2.45165,53.75004],[-2.45149,53.74734],[-2.45665,53.74645],[-2.4575,53.74663],[-2.45832,53.74867],[-2.45878,53.7487],[-2.45844,53.7489],[-2.45897,53.74955],[-2.4602,53.74949],[-2.46111,53.7512],[-2.46306,53.75084],[-2.46347,53.75158],[-2.4651,53.75118],[-2.46468,53.74993],[-2.46598,53.74971],[-2.46625,53.7503],[-2.4681,53.75031],[-2.46635,53.75297],[-2.46695,53.75304],[-2.46678,53.75392],[-2.46719,53.75425],[-2.46343,53.75549],[-2.46208,53.7538]]]}},{"type":"Feature","properties":{"id":"E01012577","name":"E01012577","parent":"E06000008","type":"LSOA","pop":2101,"r":300,"ff":139,"ffd":6615.9,"ffs":0.589,"g":62,"co":0,"mo":0,"sa":0,"ic":0},"geometry":{"type":"Polygon","coordinates":[[[-2.47685,53.76431],[-2.47533,53.76346],[-2.47346,53.76391],[-2.47021,53.76048],[-2.47064,53.76035],[-2.47037,53.75995],[-2.47393,53.75918],[-2.47405,53.75938],[-2.47547,53.75905],[-2.4753,53.7593],[-2.47614,53.75933],[-2.47707,53.75886],[-2.47749,53.75908],[-2.47731,53.75945],[-2.47631,53.75981],[-2.47764,53.75997],[-2.47799,53.7606],[-2.47532,53.76111],[-2.47699,53.76332],[-2.47722,53.76397],[-2.47685,53.76431]]]}},{"type":"Feature","properties":{"id":"E01012578","name":"E01012578","parent":"E06000008","type":"LSOA","pop":1980,"r":346,"ff":165,"ffd":8333.3,"ffs":0.5957,"g":67,"co":0,"mo":0,"sa":0,"ic":0},"geometry":{"type":"Polygon","coordinates":[[[-2.46922,53.75941],[-2.46698,53.75694],[-2.4689,53.75614],[-2.47445,53.75441],[-2.47341,53.75538],[-2.4746,53.75578],[-2.47444,53.75661],[-2.47357,53.7569],[-2.47306,53.75658],[-2.47298,53.75681],[-2.47381,53.75757],[-2.47325,53.75814],[-2.47526,53.75798],[-2.47589,53.75832],[-2.47678,53.75783],[-2.47723,53.7586],[-2.47707,53.75886],[-2.47614,53.75933],[-2.4753,53.7593],[-2.47547,53.75905],[-2.47405,53.75938],[-2.47393,53.75918],[-2.47037,53.75995],[-2.47064,53.76035],[-2.47021,53.76048],[-2.46922,53.75941]]]}},{"type":"Feature","properties":{"id":"E01012579","name":"E01012579","parent":"E06000008","type":"LSOA","pop":1825,"r":294,"ff":136,"ffd":7452.1,"ffs":0.5939,"g":63,"co":0,"mo":0,"sa":0,"ic":0},"geometry":{"type":"Polygon","coordinates":[[[-2.48079,53.75614],[-2.48213,53.75565],[-2.48583,53.75905],[-2.478,53.76061],[-2.47764,53.75997],[-2.47631,53.75981],[-2.47731,53.75945],[-2.47749,53.75908],[-2.47707,53.75886],[-2.47723,53.7586],[-2.48002,53.75706],[-2.47978,53.75682],[-2.48079,53.75614]]]}},{"type":"Feature","properties":{"id":"E01012580","name":"E01012580","parent":"E06000008","type":"LSOA","pop":2192,"r":294,"ff":136,"ffd":6204.4,"ffs":0.5913,"g":62,"co":0,"mo":0,"sa":0,"ic":0},"geometry":{"type":"Polygon","coordinates":[[[-2.47723,53.7586],[-2.47678,53.75783],[-2.47589,53.75832],[-2.47526,53.75798],[-2.47325,53.75814],[-2.47381,53.75757],[-2.47298,53.75681],[-2.47306,53.75658],[-2.47357,53.7569],[-2.47444,53.75661],[-2.4746,53.75578],[-2.47341,53.75538],[-2.47445,53.75441],[-2.4756,53.75368],[-2.47945,53.75422],[-2.48213,53.75565],[-2.48079,53.75614],[-2.47978,53.75682],[-2.48002,53.75706],[-2.47723,53.7586]]]}},{"type":"Feature","properties":{"id":"E01012581","name":"E01012581","parent":"E06000008","type":"LSOA","pop":1382,"r":275,"ff":130,"ffd":9406.7,"ffs":0.6103,"g":60,"co":0,"mo":0,"sa":0,"ic":0},"geometry":{"type":"Polygon","coordinates":[[[-2.50835,53.76745],[-2.5066,53.76611],[-2.50586,53.76644],[-2.49737,53.76414],[-2.49716,53.76462],[-2.49635,53.76453],[-2.49615,53.76368],[-2.49781,53.76383],[-2.49771,53.76334],[-2.49812,53.76329],[-2.49841,53.7637],[-2.50056,53.76425],[-2.50422,53.76384],[-2.50411,53.76297],[-2.50289,53.76161],[-2.50168,53.76385],[-2.50056,53.76391],[-2.49869,53.76336],[-2.49802,53.76162],[-2.50114,53.7597],[-2.50036,53.75848],[-2.49965,53.75787],[-2.50003,53.75774],[-2.4997,53.75724],[-2.50039,53.75698],[-2.50352,53.75916],[-2.50481,53.75803],[-2.50415,53.75707],[-2.50703,53.75794],[-2.50872,53.75918],[-2.5083,53.75953],[-2.50642,53.75991],[-2.50752,53.7616],[-2.5071,53.76184],[-2.50982,53.76285],[-2.50903,53.76331],[-2.50855,53.76384],[-2.50962,53.76413],[-2.51151,53.76425],[-2.51335,53.76654],[-2.51125,53.76673],[-2.5097,53.76911],[-2.50863,53.76937],[-2.50642,53.7678],[-2.50835,53.76745]]]}},{"type":"Feature","properties":{"id":"E01012582","name":"E01012582","parent":"E06000008","type":"LSOA","pop":1720,"r":266,"ff":122,"ffd":7093.0,"ffs":0.5951,"g":59,"co":0,"mo":0,"sa":0,"ic":0},"geometry":{"type":"Polygon","coordinates":[[[-2.50679,53.75566],[-2.50548,53.75514],[-2.50977,53.7525],[-2.51048,53.75311],[-2.50919,53.75389],[-2.50994,53.75437],[-2.50918,53.75476],[-2.50912,53.7552],[-2.50846,53.75534],[-2.5097,53.75561],[-2.50981,53.75528],[-2.5119,53.75517],[-2.51197,53.75569],[-2.51123,53.75571],[-2.51073,53.75664],[-2.51094,53.7571],[-2.51309,53.75808],[-2.51351,53.75854],[-2.51239,53.75916],[-2.51193,53.76062],[-2.51342,53.76085],[-2.51271,53.76157],[-2.51404,53.76219],[-2.51403,53.76295],[-2.515,53.76415],[-2.51218,53.76491],[-2.51151,53.76425],[-2.50962,53.76413],[-2.50855,53.76384],[-2.50903,53.76331],[-2.50982,53.76285],[-2.5071,53.76184],[-2.50752,53.7616],[-2.50642,53.75991],[-2.5083,53.75953],[-2.50872,53.75918],[-2.50703,53.75794],[-2.50415,53.75707],[-2.50679,53.75566]]]}},{"type":"Feature","properties":{"id":"E01012583","name":"E01012583","parent":"E06000008","type":"LSOA","pop":2698,"r":280,"ff":132,"ffd":4892.5,"ffs":0.6055,"g":60,"co":0,"mo":0,"sa":0,"ic":0},"geometry":{"type":"Polygon","coordinates":[[[-2.4947,53.77017],[-2.4931,53.76802],[-2.49408,53.76752],[-2.49427,53.76775],[-2.49495,53.76751],[-2.49475,53.76728],[-2.49435,53.7674],[-2.49371,53.76666],[-2.49339,53.76567],[-2.49214,53.76507],[-2.48801,53.76157],[-2.492,53.76011],[-2.49251,53.76067],[-2.49379,53.76074],[-2.4975,53.75983],[-2.49672,53.7592],[-2.49845,53.75817],[-2.49902,53.75821],[-2.49835,53.75857],[-2.49949,53.75906],[-2.50036,53.75848],[-2.50114,53.7597],[-2.49802,53.76162],[-2.49869,53.76336],[-2.50056,53.76391],[-2.50168,53.76385],[-2.50289,53.76161],[-2.50411,53.76297],[-2.50422,53.76384],[-2.50056,53.76425],[-2.49841,53.7637],[-2.49812,53.76329],[-2.49771,53.76334],[-2.49781,53.76383],[-2.49615,53.76368],[-2.49635,53.76453],[-2.49716,53.76462],[-2.49737,53.76414],[-2.50586,53.76644],[-2.5066,53.76611],[-2.50835,53.76745],[-2.50642,53.7678],[-2.50863,53.76937],[-2.50469,53.76972],[-2.50069,53.76868],[-2.49896,53.76862],[-2.4947,53.77017]]]}},{"type":"Feature","properties":{"id":"E01012584","name":"E01012584","parent":"E06000008","type":"LSOA","pop":1722,"r":271,"ff":127,"ffd":7375.1,"ffs":0.6048,"g":59,"co":0,"mo":0,"sa":0,"ic":0},"geometry":{"type":"Polygon","coordinates":[[[-2.51193,53.76062],[-2.51239,53.75916],[-2.51351,53.75854],[-2.51309,53.75808],[-2.51094,53.7571],[-2.51073,53.75664],[-2.51123,53.75571],[-2.51197,53.75569],[-2.5119,53.75517],[-2.50981,53.75528],[-2.5097,53.75561],[-2.50846,53.75534],[-2.50912,53.7552],[-2.50918,53.75476],[-2.50994,53.75437],[-2.50919,53.75389],[-2.51048,53.75311],[-2.50977,53.7525],[-2.51132,53.75142],[-2.51071,53.74918],[-2.51041,53.7467],[-2.50851,53.74347],[-2.50841,53.74118],[-2.50736,53.74067],[-2.50838,53.73993],[-2.51324,53.73806],[-2.51573,53.73873],[-2.51882,53.73862],[-2.52237,53.73728],[-2.52389,53.73771],[-2.52317,53.73811],[-2.52339,53.73893],[-2.52465,53.74035],[-2.52658,53.74098],[-2.52711,53.74209],[-2.52716,53.74341],[-2.52567,53.74428],[-2.52523,53.74494],[-2.52603,53.74699],[-2.52852,53.74975],[-2.52926,53.74971],[-2.53044,53.75065],[-2.53086,53.75202],[-2.52982,53.75274],[-2.52938,53.75379],[-2.52835,53.7544],[-2.52704,53.75615],[-2.52691,53.75728],[-2.52826,53.75839],[-2.52878,53.75948],[-2.52557,53.75972],[-2.5242,53.76044],[-2.52324,53.76042],[-2.52077,53.7622],[-2.51984,53.76234],[-2.51886,53.76379],[-2.51618,53.7644],[-2.51529,53.76506],[-2.51551,53.76561],[-2.51511,53.76602],[-2.51335,53.76654],[-2.51218,53.76491],[-2.515,53.76415],[-2.51403,53.76295],[-2.51404,53.76219],[-2.51271,53.76157],[-2.51342,53.76085],[-2.51193,53.76062]]]}},{"type":"Feature","properties":{"id":"E01012585","name":"E01012585","parent":"E06000008","type":"LSOA","pop":1815,"r":272,"ff":124,"ffd":6832.0,"ffs":0.5877,"g":59,"co":0,"mo":0,"sa":0,"ic":0},"geometry":{"type":"Polygon","coordinates":[[[-2.50971,53.75254],[-2.50827,53.7522],[-2.50756,53.75232],[-2.50675,53.75105],[-2.50661,53.75038],[-2.50487,53.75012],[-2.5047,53.74954],[-2.5035,53.74888],[-2.50302,53.74931],[-2.50184,53.7494],[-2.50052,53.74715],[-2.5023,53.74672],[-2.51041,53.7467],[-2.51071,53.74918],[-2.51132,53.75142],[-2.50971,53.75254]]]}},{"type":"Feature","properties":{"id":"E01012586","name":"E01012586","parent":"E06000008","type":"LSOA","pop":1655,"r":279,"ff":129,"ffd":7794.6,"ffs":0.5917,"g":59,"co":0,"mo":0,"sa":0,"ic":0},"geometry":{"type":"Polygon","coordinates":[[[-2.49964,53.75297],[-2.4983,53.75246],[-2.49766,53.75296],[-2.49731,53.75235],[-2.49603,53.75217],[-2.49589,53.75252],[-2.49395,53.75172],[-2.49814,53.75025],[-2.50061,53.7497],[-2.50196,53.74965],[-2.50184,53.7494],[-2.50302,53.74931],[-2.5035,53.74888],[-2.5047,53.74954],[-2.50487,53.75012],[-2.50661,53.75038],[-2.50675,53.75105],[-2.50273,53.74976],[-2.50306,53.75023],[-2.50402,53.75048],[-2.50246,53.75103],[-2.50236,53.75176],[-2.50283,53.75148],[-2.50393,53.75214],[-2.50425,53.75257],[-2.50377,53.75266],[-2.50236,53.75179],[-2.50192,53.75197],[-2.50113,53.75168],[-2.50001,53.75213],[-2.50069,53.75258],[-2.49964,53.75297]]]}},{"type":"Feature","properties":{"id":"E01012587","name":"E01012587","parent":"E06000008","type":"LSOA","pop":2547,"r":276,"ff":127,"ffd":4986.3,"ffs":0.5907,"g":59,"co":0,"mo":0,"sa":0,"ic":0},"geometry":{"type":"Polygon","coordinates":[[[-2.49269,53.75875],[-2.49128,53.75762],[-2.4918,53.75743],[-2.49316,53.75606],[-2.49332,53.75537],[-2.49288,53.75399],[-2.49105,53.75215],[-2.49395,53.75172],[-2.49589,53.75252],[-2.49603,53.75217],[-2.49731,53.75235],[-2.49766,53.75296],[-2.4983,53.75246],[-2.49964,53.75297],[-2.50069,53.75258],[-2.50001,53.75213],[-2.50113,53.75168],[-2.50192,53.75197],[-2.50191,53.75232],[-2.50303,53.75298],[-2.50243,53.75337],[-2.50353,53.75397],[-2.50306,53.754],[-2.50339,53.75437],[-2.50426,53.75443],[-2.50679,53.75566],[-2.50415,53.75707],[-2.50481,53.75803],[-2.50352,53.75916],[-2.50039,53.75698],[-2.4997,53.75724],[-2.50003,53.75774],[-2.49965,53.75787],[-2.50036,53.75848],[-2.49949,53.75906],[-2.49835,53.75857],[-2.49902,53.75821],[-2.49845,53.75817],[-2.49672,53.7592],[-2.4975,53.75983],[-2.49379,53.76074],[-2.49251,53.76067],[-2.492,53.76011],[-2.4932,53.75963],[-2.49269,53.75875]]]}},{"type":"Feature","properties":{"id":"E01012588","name":"E01012588","parent":"E06000008","type":"LSOA","pop":2294,"r":268,"ff":120,"ffd":5231.0,"ffs":0.5797,"g":59,"co":0,"mo":0,"sa":0,"ic":0},"geometry":{"type":"Polygon","coordinates":[[[-2.50303,53.75298],[-2.50191,53.75232],[-2.50192,53.75197],[-2.50236,53.75179],[-2.50377,53.75266],[-2.50425,53.75257],[-2.50393,53.75214],[-2.50283,53.75148],[-2.50236,53.75176],[-2.50246,53.75103],[-2.50402,53.75048],[-2.50306,53.75023],[-2.50273,53.74976],[-2.50675,53.75105],[-2.50756,53.75232],[-2.50827,53.7522],[-2.50971,53.75254],[-2.50548,53.75514],[-2.50426,53.75443],[-2.50339,53.75437],[-2.50306,53.754],[-2.50353,53.75397],[-2.50243,53.75337],[-2.50303,53.75298]]]}},{"type":"Feature","properties":{"id":"E01012589","name":"E01012589","parent":"E06000008","type":"LSOA","pop":1461,"r":274,"ff":120,"ffd":8213.6,"ffs":0.5687,"g":61,"co":2,"mo":2,"sa":0,"ic":0},"geometry":{"type":"Polygon","coordinates":[[[-2.47151,53.70904],[-2.47098,53.70838],[-2.46997,53.70881],[-2.46985,53.70866],[-2.47127,53.70652],[-2.47116,53.70429],[-2.47175,53.70419],[-2.47224,53.70499],[-2.47663,53.70411],[-2.47778,53.70551],[-2.47836,53.70563],[-2.47957,53.70529],[-2.48022,53.70548],[-2.48111,53.70528],[-2.48125,53.70549],[-2.48356,53.70457],[-2.48518,53.70507],[-2.48439,53.70615],[-2.4833,53.70624],[-2.48268,53.70699],[-2.48182,53.70668],[-2.48142,53.70696],[-2.48161,53.70733],[-2.48232,53.70715],[-2.48264,53.70735],[-2.48039,53.70827],[-2.48029,53.70861],[-2.47983,53.70845],[-2.47996,53.70865],[-2.47414,53.71004],[-2.47151,53.70904]]]}},{"type":"Feature","properties":{"id":"E01012590","name":"E01012590","parent":"E06000008","type":"LSOA","pop":1375,"r":292,"ff":128,"ffd":9309.1,"ffs":0.5639,"g":63,"co":2,"mo":0,"sa":0,"ic":0},"geometry":{"type":"Polygon","coordinates":[[[-2.47062,53.71545],[-2.46951,53.71012],[-2.46997,53.70881],[-2.47098,53.70838],[-2.47151,53.70904],[-2.47414,53.71004],[-2.47996,53.70865],[-2.47983,53.70845],[-2.48029,53.70861],[-2.48039,53.70827],[-2.48264,53.70735],[-2.48232,53.70715],[-2.48161,53.70733],[-2.48142,53.70696],[-2.48182,53.70668],[-2.48268,53.70699],[-2.4833,53.70624],[-2.48439,53.70615],[-2.4842,53.70679],[-2.48457,53.707],[-2.48389,53.70754],[-2.48218,53.70814],[-2.48285,53.7082],[-2.48308,53.7088],[-2.48455,53.70884],[-2.48497,53.70914],[-2.48348,53.71074],[-2.48473,53.711],[-2.48169,53.71148],[-2.48209,53.71338],[-2.48371,53.71321],[-2.48382,53.71343],[-2.48275,53.7136],[-2.48321,53.71439],[-2.48274,53.71451],[-2.48379,53.7163],[-2.47062,53.71545]]]}},{"type":"Feature","properties":{"id":"E01012591","name":"E01012591","parent":"E06000008","type":"LSOA","pop":1558,"r":276,"ff":121,"ffd":7766.4,"ffs":0.5681,"g":61,"co":2,"mo":0,"sa":0,"ic":0},"geometry":{"type":"Polygon","coordinates":[[[-2.48382,53.71343],[-2.48371,53.71321],[-2.48209,53.71338],[-2.48169,53.71148],[-2.48473,53.711],[-2.48348,53.71074],[-2.48497,53.70914],[-2.48455,53.70884],[-2.48308,53.7088],[-2.48285,53.7082],[-2.48218,53.70814],[-2.48389,53.70754],[-2.48457,53.707],[-2.4842,53.70679],[-2.48439,53.70615],[-2.48518,53.70507],[-2.48356,53.70457],[-2.48404,53.70438],[-2.48395,53.70403],[-2.48859,53.70214],[-2.4904,53.70179],[-2.49119,53.70261],[-2.49176,53.70282],[-2.49222,53.70265],[-2.49298,53.70317],[-2.49456,53.70662],[-2.5008,53.70908],[-2.50098,53.70939],[-2.50169,53.70942],[-2.50192,53.70997],[-2.50147,53.71047],[-2.50135,53.71248],[-2.50286,53.71372],[-2.48379,53.7163],[-2.48274,53.71451],[-2.48321,53.71439],[-2.48275,53.7136],[-2.48382,53.71343]]]}},{"type":"Feature","properties":{"id":"E01012592","name":"E01012592","parent":"E06000008","type":"LSOA","pop":2058,"r":231,"ff":96,"ffd":4664.7,"ffs":0.5614,"g":58,"co":2,"mo":2,"sa":0,"ic":0},"geometry":{"type":"Polygon","coordinates":[[[-2.43269,53.71892],[-2.42587,53.71469],[-2.41835,53.71142],[-2.41965,53.70984],[-2.41997,53.70832],[-2.41401,53.705],[-2.41307,53.70469],[-2.41099,53.70514],[-2.40861,53.70314],[-2.40551,53.69898],[-2.40301,53.69694],[-2.40313,53.69642],[-2.40536,53.69487],[-2.40946,53.69414],[-2.41185,53.69421],[-2.41195,53.69249],[-2.41119,53.68909],[-2.41129,53.68228],[-2.41375,53.68149],[-2.41772,53.68081],[-2.42038,53.68073],[-2.42133,53.68027],[-2.4206,53.67944],[-2.42139,53.67804],[-2.42098,53.67692],[-2.42196,53.67558],[-2.42216,53.67436],[-2.42305,53.67388],[-2.42305,53.67332],[-2.42434,53.67425],[-2.42696,53.67748],[-2.43299,53.68338],[-2.44268,53.69676],[-2.44651,53.7001],[-2.44972,53.70208],[-2.45226,53.7032],[-2.45391,53.70456],[-2.45496,53.70582],[-2.46985,53.70866],[-2.46997,53.70881],[-2.46951,53.71012],[-2.47062,53.71545],[-2.46486,53.71531],[-2.4609,53.71596],[-2.45782,53.71703],[-2.45451,53.71877],[-2.44321,53.72743],[-2.44016,53.7304],[-2.43923,53.73234],[-2.43859,53.73228],[-2.43355,53.72762],[-2.43231,53.72025],[-2.43267,53.71968],[-2.43387,53.71918],[-2.43269,53.71892]]]}},{"type":"Feature","properties":{"id":"E01012593","name":"E01012593","parent":"E06000008","type":"LSOA","pop":1617,"r":301,"ff":139,"ffd":8596.2,"ffs":0.584,"g":61,"co":0,"mo":0,"sa":0,"ic":0},"geometry":{"type":"Polygon","coordinates":[[[-2.49628,53.73025],[-2.49524,53.72979],[-2.49505,53.73019],[-2.49463,53.72992],[-2.49367,53.72997],[-2.49337,53.72953],[-2.49293,53.72979],[-2.49298,53.72949],[-2.49133,53.72891],[-2.49132,53.72933],[-2.4906,53.72935],[-2.48832,53.72881],[-2.48517,53.72882],[-2.48187,53.72595],[-2.48318,53.72539],[-2.48394,53.72642],[-2.48684,53.72633],[-2.4883,53.72568],[-2.48881,53.72606],[-2.48967,53.72566],[-2.49122,53.72654],[-2.49194,53.72801],[-2.49261,53.7282],[-2.49321,53.72885],[-2.49395,53.72777],[-2.49439,53.72792],[-2.4963,53.7256],[-2.49872,53.72439],[-2.49939,53.72347],[-2.49976,53.72366],[-2.49921,53.72459],[-2.49866,53.72473],[-2.49926,53.72499],[-2.49891,53.72622],[-2.49976,53.72628],[-2.49973,53.72679],[-2.49767,53.72673],[-2.4978,53.72859],[-2.49849,53.72871],[-2.49966,53.72839],[-2.49977,53.72855],[-2.49954,53.72889],[-2.50059,53.73118],[-2.49654,53.73158],[-2.49596,53.73078],[-2.49628,53.73025]]]}},{"type":"Feature","properties":{"id":"E01012594","name":"E01012594","parent":"E06000008","type":"LSOA","pop":1349,"r":294,"ff":135,"ffd":10007.4,"ffs":0.5844,"g":61,"co":0,"mo":0,"sa":0,"ic":0},"geometry":{"type":"Polygon","coordinates":[[[-2.4978,53.72859],[-2.49767,53.72673],[-2.49973,53.72679],[-2.49976,53.72628],[-2.49891,53.72622],[-2.49926,53.72499],[-2.49866,53.72473],[-2.49921,53.72459],[-2.49976,53.72366],[-2.49939,53.72347],[-2.5013,53.72175],[-2.50244,53.72196],[-2.50246,53.72284],[-2.50328,53.72312],[-2.50285,53.72355],[-2.50331,53.72379],[-2.50632,53.72445],[-2.50586,53.72513],[-2.50384,53.72493],[-2.50357,53.72637],[-2.50408,53.72668],[-2.50382,53.72799],[-2.50254,53.72795],[-2.49849,53.72871],[-2.4978,53.72859]]]}},{"type":"Feature","properties":{"id":"E01012595","name":"E01012595","parent":"E06000008","type":"LSOA","pop":2420,"r":298,"ff":138,"ffd":5702.5,"ffs":0.5872,"g":61,"co":0,"mo":0,"sa":0,"ic":0},"geometry":{"type":"Polygon","coordinates":[[[-2.48724,53.73121],[-2.48517,53.72882],[-2.48832,53.72881],[-2.4906,53.72935],[-2.49132,53.72933],[-2.49133,53.72891],[-2.49298,53.72949],[-2.49293,53.72979],[-2.49337,53.72953],[-2.49367,53.72997],[-2.49463,53.72992],[-2.49505,53.73019],[-2.49524,53.72979],[-2.49628,53.73025],[-2.49596,53.73078],[-2.49654,53.73158],[-2.49234,53.73371],[-2.49655,53.73645],[-2.4967,53.73693],[-2.48697,53.74107],[-2.48992,53.7392],[-2.48933,53.73898],[-2.48955,53.73872],[-2.48747,53.73834],[-2.48857,53.73734],[-2.48719,53.73601],[-2.48753,53.73433],[-2.48768,53.7339],[-2.48863,53.73361],[-2.48674,53.73159],[-2.48724,53.73121]]]}},{"type":"Feature","properties":{"id":"E01012596","name":"E01012596","parent":"E06000008","type":"LSOA","pop":2233,"r":305,"ff":142,"ffd":6359.2,"ffs":0.5868,"g":61,"co":0,"mo":0,"sa":0,"ic":0},"geometry":{"type":"Polygon","coordinates":[[[-2.4806,53.73551],[-2.47976,53.7351],[-2.4789,53.7356],[-2.47798,53.73501],[-2.48636,53.73357],[-2.48716,53.73322],[-2.48599,53.73183],[-2.48652,53.73166],[-2.48863,53.73361],[-2.48768,53.7339],[-2.48719,53.73601],[-2.48857,53.73734],[-2.48802,53.73782],[-2.48452,53.73801],[-2.48297,53.73722],[-2.48284,53.73692],[-2.4806,53.73551]]]}},{"type":"Feature","properties":{"id":"E01012597","name":"E01012597","parent":"E06000008","type":"LSOA","pop":1686,"r":178,"ff":75,"ffd":4448.4,"ffs":0.6,"g":52,"co":2,"mo":1,"sa":0,"ic":0},"geometry":{"type":"Polygon","coordinates":[[[-2.46636,53.72012],[-2.46535,53.71863],[-2.46487,53.71675],[-2.46486,53.71531],[-2.47559,53.71565],[-2.47882,53.71596],[-2.47863,53.71703],[-2.4796,53.71698],[-2.47864,53.71865],[-2.47902,53.719],[-2.48021,53.71905],[-2.47836,53.72085],[-2.47754,53.72097],[-2.47794,53.72025],[-2.47677,53.72],[-2.47693,53.72034],[-2.47635,53.72058],[-2.47665,53.7211],[-2.47432,53.72177],[-2.47445,53.72207],[-2.47677,53.7223],[-2.4775,53.72279],[-2.4778,53.72414],[-2.4711,53.72254],[-2.46912,53.7219],[-2.46636,53.72012]]]}},{"type":"Feature","properties":{"id":"E01012598","name":"E01012598","parent":"E06000008","type":"LSOA","pop":2990,"r":305,"ff":139,"ffd":4648.8,"ffs":0.5768,"g":62,"co":0,"mo":0,"sa":0,"ic":0},"geometry":{"type":"Polygon","coordinates":[[[-2.49194,53.72801],[-2.49122,53.72654],[-2.48993,53.72582],[-2.49056,53.72452],[-2.49052,53.72419],[-2.48813,53.7237],[-2.48788,53.72402],[-2.48664,53.72352],[-2.48711,53.72299],[-2.48488,53.72052],[-2.48572,53.72038],[-2.48503,53.71965],[-2.4858,53.71849],[-2.48631,53.71859],[-2.48574,53.71833],[-2.48387,53.7181],[-2.48315,53.7176],[-2.48392,53.71673],[-2.48379,53.7163],[-2.50286,53.71372],[-2.5044,53.71489],[-2.50432,53.7159],[-2.50293,53.71793],[-2.50494,53.71772],[-2.50626,53.71794],[-2.5013,53.72175],[-2.49939,53.72347],[-2.49872,53.72439],[-2.4963,53.7256],[-2.49439,53.72792],[-2.49395,53.72777],[-2.49321,53.72885],[-2.49261,53.7282],[-2.49194,53.72801]]]}},{"type":"Feature","properties":{"id":"E01012599","name":"E01012599","parent":"E06000008","type":"LSOA","pop":1296,"r":309,"ff":141,"ffd":10879.6,"ffs":0.5755,"g":62,"co":0,"mo":0,"sa":0,"ic":0},"geometry":{"type":"Polygon","coordinates":[[[-2.48394,53.72642],[-2.48318,53.72539],[-2.48187,53.72595],[-2.4778,53.72414],[-2.4775,53.72279],[-2.47677,53.7223],[-2.47445,53.72207],[-2.47432,53.72177],[-2.47665,53.7211],[-2.47635,53.72058],[-2.47693,53.72034],[-2.47677,53.72],[-2.47794,53.72025],[-2.47754,53.72097],[-2.47836,53.72085],[-2.48021,53.71905],[-2.47902,53.719],[-2.47864,53.71865],[-2.4796,53.71698],[-2.47863,53.71703],[-2.47882,53.71596],[-2.48379,53.7163],[-2.48392,53.71673],[-2.48315,53.7176],[-2.48387,53.7181],[-2.48574,53.71833],[-2.48631,53.71859],[-2.4858,53.71849],[-2.48503,53.71965],[-2.48572,53.72038],[-2.48488,53.72052],[-2.48711,53.72299],[-2.48664,53.72352],[-2.48788,53.72402],[-2.48813,53.7237],[-2.49052,53.72419],[-2.49056,53.72452],[-2.48993,53.72582],[-2.48967,53.72566],[-2.48881,53.72606],[-2.4883,53.72568],[-2.48684,53.72633],[-2.48394,53.72642]]]}},{"type":"Feature","properties":{"id":"E01012600","name":"E01012600","parent":"E06000008","type":"LSOA","pop":1332,"r":304,"ff":142,"ffd":10660.7,"ffs":0.5892,"g":61,"co":0,"mo":0,"sa":0,"ic":0},"geometry":{"type":"Polygon","coordinates":[[[-2.47724,53.73354],[-2.47774,53.7326],[-2.47896,53.7329],[-2.48016,53.73256],[-2.48046,53.73217],[-2.47979,53.73082],[-2.48097,53.73068],[-2.48133,53.7303],[-2.48199,53.73064],[-2.48243,53.73026],[-2.48293,53.73055],[-2.483,53.73025],[-2.48339,53.73029],[-2.48261,53.72981],[-2.48148,53.72849],[-2.48117,53.72668],[-2.48176,53.72588],[-2.48517,53.72882],[-2.48724,53.73121],[-2.48674,53.73159],[-2.48703,53.73207],[-2.48652,53.73166],[-2.48599,53.73183],[-2.48716,53.73322],[-2.48636,53.73357],[-2.47795,53.73502],[-2.47426,53.73655],[-2.47197,53.73561],[-2.47274,53.7344],[-2.47443,53.73382],[-2.47724,53.73354]]]}},{"type":"Feature","properties":{"id":"E01012601","name":"E01012601","parent":"E06000008","type":"LSOA","pop":1518,"r":309,"ff":142,"ffd":9354.4,"ffs":0.5796,"g":62,"co":0,"mo":0,"sa":0,"ic":0},"geometry":{"type":"Polygon","coordinates":[[[-2.47006,53.73239],[-2.47266,53.73145],[-2.47221,53.73086],[-2.47621,53.7293],[-2.47518,53.72855],[-2.47528,53.72777],[-2.4758,53.7277],[-2.4752,53.72749],[-2.47545,53.72506],[-2.47616,53.72367],[-2.47845,53.72436],[-2.48176,53.72588],[-2.48117,53.72668],[-2.48148,53.72849],[-2.48261,53.72981],[-2.48339,53.73029],[-2.483,53.73025],[-2.48293,53.73055],[-2.48243,53.73026],[-2.48199,53.73064],[-2.48133,53.7303],[-2.48097,53.73068],[-2.47979,53.73082],[-2.48046,53.73217],[-2.47971,53.73277],[-2.47872,53.73062],[-2.47609,53.7311],[-2.47616,53.73144],[-2.47488,53.73208],[-2.47356,53.73243],[-2.47315,53.73222],[-2.47042,53.73323],[-2.47006,53.73239]]]}},{"type":"Feature","properties":{"id":"E01012602","name":"E01012602","parent":"E06000008","type":"LSOA","pop":1539,"r":300,"ff":131,"ffd":8512.0,"ffs":0.5598,"g":64,"co":2,"mo":0,"sa":0,"ic":0},"geometry":{"type":"Polygon","coordinates":[[[-2.47417,53.7276],[-2.47245,53.72676],[-2.47104,53.72694],[-2.46944,53.72567],[-2.47043,53.72473],[-2.4676,53.72459],[-2.46468,53.72541],[-2.46432,53.72576],[-2.46341,53.72595],[-2.46208,53.72408],[-2.45785,53.7251],[-2.45759,53.72477],[-2.45807,53.72463],[-2.45684,53.72289],[-2.46063,53.72198],[-2.45812,53.71849],[-2.45782,53.71703],[-2.4609,53.71596],[-2.46486,53.71531],[-2.46487,53.71675],[-2.46535,53.71863],[-2.46636,53.72012],[-2.46912,53.7219],[-2.4711,53.72254],[-2.47616,53.72367],[-2.47545,53.72506],[-2.47525,53.7272],[-2.47451,53.72715],[-2.47417,53.7276]]]}},{"type":"Feature","properties":{"id":"E01012603","name":"E01012603","parent":"E06000008","type":"LSOA","pop":2046,"r":316,"ff":143,"ffd":6989.2,"ffs":0.5743,"g":65,"co":0,"mo":0,"sa":0,"ic":0},"geometry":{"type":"Polygon","coordinates":[[[-2.46698,53.73092],[-2.46341,53.72595],[-2.46432,53.72576],[-2.46468,53.72541],[-2.4676,53.72459],[-2.47043,53.72473],[-2.46944,53.72567],[-2.47104,53.72694],[-2.47245,53.72676],[-2.47417,53.7276],[-2.47451,53.72715],[-2.47525,53.7272],[-2.4752,53.72749],[-2.4758,53.7277],[-2.47528,53.72777],[-2.47518,53.72855],[-2.47621,53.7293],[-2.47221,53.73086],[-2.4724,53.73049],[-2.47153,53.72954],[-2.47016,53.73018],[-2.47043,53.73042],[-2.47011,53.73062],[-2.46907,53.73062],[-2.46945,53.732],[-2.46804,53.73218],[-2.46698,53.73092]]]}},{"type":"Feature","properties":{"id":"E01012604","name":"E01012604","parent":"E06000008","type":"LSOA","pop":1685,"r":316,"ff":144,"ffd":8546.0,"ffs":0.576,"g":64,"co":0,"mo":0,"sa":0,"ic":0},"geometry":{"type":"Polygon","coordinates":[[[-2.46554,53.73411],[-2.46512,53.73288],[-2.46447,53.73298],[-2.46425,53.73273],[-2.46463,53.73135],[-2.46406,53.73038],[-2.46585,53.73069],[-2.46665,53.73051],[-2.46804,53.73218],[-2.46945,53.732],[-2.46907,53.73062],[-2.47011,53.73062],[-2.47043,53.73042],[-2.47016,53.73018],[-2.47153,53.72954],[-2.4724,53.73049],[-2.47221,53.73086],[-2.47266,53.73145],[-2.47006,53.73239],[-2.47042,53.73323],[-2.47315,53.73222],[-2.47356,53.73243],[-2.47488,53.73208],[-2.47616,53.73144],[-2.47609,53.7311],[-2.47872,53.73062],[-2.47971,53.73277],[-2.47896,53.7329],[-2.47774,53.7326],[-2.47724,53.73354],[-2.47443,53.73382],[-2.47274,53.7344],[-2.47197,53.73561],[-2.46695,53.7356],[-2.46333,53.73466],[-2.46339,53.73427],[-2.46554,53.73411]]]}},{"type":"Feature","properties":{"id":"E01012605","name":"E01012605","parent":"E06000008","type":"LSOA","pop":2428,"r":313,"ff":145,"ffd":5972.0,"ffs":0.587,"g":64,"co":0,"mo":0,"sa":0,"ic":0},"geometry":{"type":"Polygon","coordinates":[[[-2.46548,53.76309],[-2.46484,53.76211],[-2.46395,53.76226],[-2.4638,53.76198],[-2.46356,53.7608],[-2.46437,53.76061],[-2.46335,53.76003],[-2.4636,53.75869],[-2.4645,53.75904],[-2.46473,53.75883],[-2.4655,53.75909],[-2.46733,53.75892],[-2.46788,53.75847],[-2.46843,53.75941],[-2.46922,53.75941],[-2.4715,53.76185],[-2.46811,53.76277],[-2.46548,53.76309]]]}},{"type":"Feature","properties":{"id":"E01012606","name":"E01012606","parent":"E06000008","type":"LSOA","pop":1845,"r":325,"ff":152,"ffd":8238.5,"ffs":0.5891,"g":65,"co":0,"mo":0,"sa":0,"ic":0},"geometry":{"type":"Polygon","coordinates":[[[-2.46102,53.75936],[-2.45609,53.75821],[-2.45447,53.75942],[-2.45359,53.76112],[-2.45254,53.76082],[-2.45216,53.76046],[-2.45251,53.76014],[-2.45201,53.76003],[-2.45115,53.75735],[-2.45178,53.75645],[-2.45104,53.75599],[-2.45063,53.75631],[-2.45024,53.75602],[-2.44817,53.75606],[-2.44575,53.75473],[-2.44754,53.75463],[-2.44879,53.75433],[-2.45296,53.75435],[-2.45669,53.75188],[-2.45855,53.75173],[-2.46208,53.7538],[-2.46343,53.75549],[-2.46647,53.75449],[-2.46698,53.75694],[-2.46922,53.75941],[-2.46843,53.75941],[-2.46788,53.75847],[-2.46733,53.75892],[-2.4655,53.75909],[-2.46473,53.75883],[-2.4645,53.75904],[-2.4636,53.75869],[-2.46335,53.76003],[-2.46437,53.76061],[-2.46356,53.7608],[-2.4638,53.76198],[-2.46231,53.76215],[-2.46193,53.76169],[-2.46118,53.76158],[-2.46057,53.76042],[-2.46102,53.75936]]]}},{"type":"Feature","properties":{"id":"E01012607","name":"E01012607","parent":"E06000008","type":"LSOA","pop":1619,"r":317,"ff":146,"ffd":9017.9,"ffs":0.584,"g":65,"co":0,"mo":0,"sa":2,"ic":0},"geometry":{"type":"Polygon","coordinates":[[[-2.46303,53.77448],[-2.46267,53.77402],[-2.46037,53.77466],[-2.45998,53.77445],[-2.45909,53.77275],[-2.45831,53.77327],[-2.45555,53.77406],[-2.45353,53.77299],[-2.45313,53.77166],[-2.4536,53.7711],[-2.45233,53.76965],[-2.44632,53.76659],[-2.44806,53.76591],[-2.44891,53.7644],[-2.45112,53.76282],[-2.45191,53.76167],[-2.45201,53.76003],[-2.45251,53.76014],[-2.45216,53.76046],[-2.45254,53.76082],[-2.45359,53.76112],[-2.45447,53.75942],[-2.45609,53.75821],[-2.46102,53.75936],[-2.46057,53.76042],[-2.46118,53.76158],[-2.46193,53.76169],[-2.46231,53.76215],[-2.4638,53.76198],[-2.46395,53.76226],[-2.46484,53.76211],[-2.46548,53.76309],[-2.46433,53.76366],[-2.465,53.76415],[-2.46482,53.76497],[-2.46785,53.76793],[-2.47037,53.7708],[-2.47198,53.77203],[-2.47203,53.77225],[-2.46962,53.77295],[-2.46825,53.7737],[-2.46553,53.77481],[-2.4625,53.77489],[-2.46303,53.77448]]]}},{"type":"Feature","properties":{"id":"E01012608","name":"E01012608","parent":"E06000008","type":"LSOA","pop":2377,"r":345,"ff":164,"ffd":6899.5,"ffs":0.5942,"g":67,"co":0,"mo":0,"sa":2,"ic":0},"geometry":{"type":"Polygon","coordinates":[[[-2.46829,53.76271],[-2.4715,53.76185],[-2.47868,53.76956],[-2.47198,53.77203],[-2.47037,53.7708],[-2.46785,53.76793],[-2.46542,53.76567],[-2.46482,53.76497],[-2.465,53.76415],[-2.46433,53.76366],[-2.46548,53.76309],[-2.46829,53.76271]]]}},{"type":"Feature","properties":{"id":"E01012609","name":"E01012609","parent":"E06000008","type":"LSOA","pop":1814,"r":267,"ff":119,"ffd":6560.1,"ffs":0.5749,"g":58,"co":0,"mo":0,"sa":0,"ic":0},"geometry":{"type":"Polygon","coordinates":[[[-2.53025,53.72696],[-2.52942,53.72668],[-2.52916,53.72753],[-2.52858,53.72765],[-2.52809,53.72718],[-2.52859,53.7265],[-2.52691,53.72565],[-2.52706,53.72528],[-2.52427,53.72579],[-2.52386,53.72697],[-2.5229,53.72582],[-2.52487,53.72534],[-2.52303,53.72363],[-2.51912,53.72328],[-2.51559,53.72178],[-2.51408,53.72168],[-2.51352,53.71897],[-2.50494,53.71772],[-2.50293,53.71793],[-2.50432,53.7159],[-2.5044,53.71489],[-2.50286,53.71372],[-2.51299,53.71305],[-2.52423,53.7127],[-2.52902,53.71308],[-2.53944,53.71456],[-2.5399,53.71656],[-2.5396,53.71762],[-2.5399,53.71812],[-2.54136,53.71874],[-2.54097,53.71956],[-2.5398,53.71923],[-2.53698,53.71981],[-2.53628,53.72103],[-2.5364,53.7224],[-2.53612,53.72274],[-2.53486,53.72246],[-2.53392,53.72246],[-2.53297,53.72276],[-2.53287,53.72325],[-2.53347,53.72335],[-2.53356,53.72366],[-2.5329,53.72373],[-2.53279,53.72424],[-2.53399,53.72425],[-2.53353,53.72476],[-2.5327,53.72475],[-2.53248,53.72569],[-2.53313,53.72548],[-2.53344,53.72605],[-2.53535,53.72709],[-2.53266,53.72748],[-2.5326,53.72769],[-2.53051,53.72784],[-2.53023,53.72757],[-2.53071,53.7274],[-2.53012,53.72731],[-2.53025,53.72696]]]}},{"type":"Feature","properties":{"id":"E01012610","name":"E01012610","parent":"E06000008","type":"LSOA","pop":1383,"r":259,"ff":114,"ffd":8243.0,"ffs":0.5729,"g":58,"co":0,"mo":0,"sa":0,"ic":0},"geometry":{"type":"Polygon","coordinates":[[[-2.53963,53.72669],[-2.53963,53.72625],[-2.53859,53.72626],[-2.53535,53.72709],[-2.53344,53.72605],[-2.53313,53.72548],[-2.53248,53.72569],[-2.5327,53.72475],[-2.53353,53.72476],[-2.53399,53.72425],[-2.53279,53.72424],[-2.5329,53.72373],[-2.53356,53.72366],[-2.53347,53.72335],[-2.53287,53.72325],[-2.53297,53.72276],[-2.53392,53.72246],[-2.53486,53.72246],[-2.53612,53.72274],[-2.5364,53.7224],[-2.53628,53.72103],[-2.53698,53.71981],[-2.5398,53.71923],[-2.54097,53.71956],[-2.54125,53.72006],[-2.54219,53.7202],[-2.54377,53.72132],[-2.54454,53.72104],[-2.54642,53.72128],[-2.54733,53.72245],[-2.54628,53.72437],[-2.54583,53.72403],[-2.54591,53.72321],[-2.54191,53.72428],[-2.54167,53.72733],[-2.53959,53.7279],[-2.53941,53.72864],[-2.53793,53.72886],[-2.53729,53.72817],[-2.53935,53.72744],[-2.53906,53.72695],[-2.53963,53.72669]]]}},{"type":"Feature","properties":{"id":"E01012611","name":"E01012611","parent":"E06000008","type":"LSOA","pop":1100,"r":261,"ff":117,"ffd":10636.4,"ffs":0.5821,"g":58,"co":0,"mo":0,"sa":0,"ic":0},"geometry":{"type":"Polygon","coordinates":[[[-2.53946,53.75995],[-2.53908,53.75968],[-2.53846,53.75991],[-2.53654,53.75955],[-2.53634,53.75909],[-2.53235,53.75869],[-2.5315,53.7596],[-2.52907,53.75987],[-2.52826,53.75839],[-2.52691,53.75728],[-2.52704,53.75615],[-2.52835,53.7544],[-2.52938,53.75379],[-2.52982,53.75274],[-2.53086,53.75202],[-2.53044,53.75065],[-2.52926,53.74971],[-2.52852,53.74975],[-2.52603,53.74699],[-2.52523,53.74494],[-2.52567,53.74428],[-2.52716,53.74341],[-2.52711,53.74209],[-2.52658,53.74098],[-2.52465,53.74035],[-2.52339,53.73893],[-2.52317,53.73811],[-2.52389,53.73771],[-2.52237,53.73728],[-2.51924,53.73451],[-2.51818,53.73306],[-2.51959,53.73226],[-2.52065,53.7325],[-2.52008,53.73298],[-2.52216,53.73339],[-2.52115,53.73221],[-2.52455,53.73053],[-2.52497,53.73081],[-2.52309,53.73208],[-2.52356,53.73256],[-2.52596,53.73225],[-2.52573,53.73198],[-2.52818,53.73157],[-2.5282,53.73198],[-2.52932,53.73187],[-2.52866,53.7319],[-2.52899,53.73152],[-2.52749,53.73005],[-2.52836,53.72961],[-2.52897,53.73028],[-2.53047,53.72957],[-2.53097,53.72962],[-2.53062,53.72923],[-2.53105,53.72868],[-2.5319,53.72854],[-2.53386,53.72884],[-2.5326,53.72769],[-2.53266,53.72748],[-2.53535,53.72709],[-2.53859,53.72626],[-2.53963,53.72625],[-2.53963,53.72669],[-2.53906,53.72695],[-2.53935,53.72744],[-2.53729,53.72817],[-2.53793,53.72886],[-2.53941,53.72864],[-2.53959,53.7279],[-2.54167,53.72733],[-2.54191,53.72428],[-2.54591,53.72321],[-2.54583,53.72403],[-2.54628,53.72437],[-2.54631,53.72498],[-2.55074,53.72654],[-2.55413,53.7254],[-2.55535,53.72538],[-2.55689,53.72744],[-2.55587,53.72876],[-2.55652,53.73161],[-2.5565,53.73232],[-2.55707,53.73262],[-2.55715,53.73461],[-2.55936,53.73516],[-2.56073,53.73778],[-2.5616,53.73786],[-2.56362,53.73927],[-2.56326,53.73986],[-2.56355,53.74072],[-2.56287,53.74154],[-2.56459,53.74246],[-2.56475,53.74358],[-2.56182,53.74466],[-2.56173,53.74517],[-2.56247,53.74612],[-2.5616,53.7469],[-2.55917,53.74755],[-2.55814,53.74909],[-2.55625,53.74905],[-2.55512,53.74993],[-2.55454,53.74956],[-2.55399,53.74971],[-2.5538,53.75045],[-2.55265,53.75122],[-2.55283,53.75211],[-2.55201,53.75302],[-2.55208,53.75424],[-2.55164,53.7546],[-2.55216,53.75518],[-2.5513,53.75639],[-2.54981,53.75717],[-2.54996,53.75751],[-2.54925,53.75808],[-2.5477,53.7588],[-2.54678,53.75874],[-2.54657,53.75896],[-2.54645,53.75874],[-2.54572,53.75943],[-2.54385,53.75925],[-2.54243,53.75962],[-2.54056,53.75962],[-2.53946,53.75995]]]}},{"type":"Feature","properties":{"id":"E01012612","name":"E01012612","parent":"E06000008","type":"LSOA","pop":1376,"r":269,"ff":123,"ffd":8939.0,"ffs":0.5857,"g":57,"co":0,"mo":0,"sa":0,"ic":0},"geometry":{"type":"Polygon","coordinates":[[[-2.52309,53.73208],[-2.52497,53.73081],[-2.52455,53.73053],[-2.52224,53.73172],[-2.52282,53.73142],[-2.52208,53.73082],[-2.52259,53.73015],[-2.52166,53.72985],[-2.52273,53.72919],[-2.52218,53.72838],[-2.52345,53.72803],[-2.5224,53.72676],[-2.52295,53.72664],[-2.52243,53.72592],[-2.5229,53.72582],[-2.52386,53.72697],[-2.52427,53.72579],[-2.52706,53.72528],[-2.52691,53.72565],[-2.52859,53.7265],[-2.52809,53.72718],[-2.52858,53.72765],[-2.52916,53.72753],[-2.52942,53.72668],[-2.53025,53.72696],[-2.53012,53.72731],[-2.53071,53.7274],[-2.53023,53.72757],[-2.53051,53.72784],[-2.5326,53.72769],[-2.53386,53.72884],[-2.5319,53.72854],[-2.53105,53.72868],[-2.53062,53.72923],[-2.53097,53.72962],[-2.53047,53.72957],[-2.52897,53.73028],[-2.52836,53.72961],[-2.52749,53.73005],[-2.52899,53.73152],[-2.52866,53.7319],[-2.52932,53.73187],[-2.5282,53.73198],[-2.52818,53.73157],[-2.52573,53.73198],[-2.52596,53.73225],[-2.52356,53.73256],[-2.52309,53.73208]]]}},{"type":"Feature","properties":{"id":"E01012613","name":"E01012613","parent":"E06000008","type":"LSOA","pop":2153,"r":280,"ff":127,"ffd":5898.7,"ffs":0.5826,"g":60,"co":0,"mo":0,"sa":0,"ic":0},"geometry":{"type":"Polygon","coordinates":[[[-2.52065,53.7325],[-2.51959,53.73226],[-2.51818,53.73306],[-2.51536,53.7277],[-2.51408,53.72168],[-2.51559,53.72178],[-2.51912,53.72328],[-2.52303,53.72363],[-2.52487,53.72534],[-2.52243,53.72592],[-2.52295,53.72664],[-2.5224,53.72676],[-2.52345,53.72803],[-2.52218,53.72838],[-2.52273,53.72919],[-2.52166,53.72985],[-2.52259,53.73015],[-2.52208,53.73082],[-2.52282,53.73142],[-2.52115,53.73221],[-2.52216,53.73339],[-2.52008,53.73298],[-2.52065,53.7325]]]}},{"type":"Feature","properties":{"id":"E01012614","name":"E01012614","parent":"E06000008","type":"LSOA","pop":1665,"r":219,"ff":90,"ffd":5405.4,"ffs":0.559,"g":56,"co":2,"mo":3,"sa":0,"ic":0},"geometry":{"type":"Polygon","coordinates":[[[-2.44166,53.6955],[-2.44016,53.69346],[-2.44049,53.69313],[-2.44172,53.69003],[-2.44424,53.69012],[-2.44834,53.68832],[-2.44921,53.68743],[-2.45233,53.68733],[-2.45343,53.68783],[-2.4537,53.68925],[-2.45017,53.6892],[-2.45029,53.6894],[-2.44988,53.68917],[-2.44967,53.68934],[-2.45161,53.69115],[-2.45189,53.69249],[-2.45125,53.69261],[-2.45083,53.69319],[-2.45197,53.69316],[-2.45211,53.6945],[-2.45036,53.69465],[-2.45026,53.69401],[-2.44851,53.69427],[-2.44909,53.69493],[-2.44398,53.69513],[-2.44166,53.6955]]]}},{"type":"Feature","properties":{"id":"E01012615","name":"E01012615","parent":"E06000008","type":"LSOA","pop":1384,"r":219,"ff":92,"ffd":6647.4,"ffs":0.575,"g":57,"co":2,"mo":2,"sa":0,"ic":0},"geometry":{"type":"Polygon","coordinates":[[[-2.45211,53.6945],[-2.45197,53.69316],[-2.45083,53.69319],[-2.45125,53.69261],[-2.45189,53.69249],[-2.45161,53.69115],[-2.44967,53.68934],[-2.44988,53.68917],[-2.45029,53.6894],[-2.45017,53.6892],[-2.45482,53.6894],[-2.45748,53.68852],[-2.45838,53.68879],[-2.4592,53.68973],[-2.45955,53.68936],[-2.46057,53.68997],[-2.46044,53.68884],[-2.46179,53.68803],[-2.46285,53.6886],[-2.46432,53.68881],[-2.46504,53.68858],[-2.46608,53.69036],[-2.46494,53.69056],[-2.46473,53.69004],[-2.46272,53.69031],[-2.46284,53.69061],[-2.46148,53.69082],[-2.46194,53.69184],[-2.46222,53.69165],[-2.4632,53.69217],[-2.46251,53.69273],[-2.46217,53.69253],[-2.4613,53.69269],[-2.4601,53.69165],[-2.4589,53.69129],[-2.45942,53.69091],[-2.45893,53.69061],[-2.45817,53.69124],[-2.45888,53.69141],[-2.45863,53.69164],[-2.45997,53.69293],[-2.46071,53.69436],[-2.45936,53.6945],[-2.45865,53.69331],[-2.45857,53.69381],[-2.45761,53.69403],[-2.4571,53.69404],[-2.45506,53.69342],[-2.45326,53.69364],[-2.45333,53.6944],[-2.45279,53.69469],[-2.45211,53.6945]]]}},{"type":"Feature","properties":{"id":"E01012616","name":"E01012616","parent":"E06000008","type":"LSOA","pop":2310,"r":182,"ff":72,"ffd":3116.9,"ffs":0.5581,"g":52,"co":2,"mo":3,"sa":0,"ic":0},"geometry":{"type":"Polygon","coordinates":[[[-2.44016,53.69346],[-2.43299,53.68338],[-2.42696,53.67748],[-2.42434,53.67425],[-2.42305,53.67332],[-2.42312,53.67296],[-2.42531,53.67168],[-2.42641,53.67298],[-2.42709,53.67479],[-2.43176,53.67545],[-2.43323,53.67591],[-2.44468,53.67166],[-2.44561,53.67199],[-2.44482,53.67299],[-2.44703,53.67433],[-2.44805,53.67604],[-2.44782,53.67817],[-2.44891,53.67983],[-2.45011,53.68028],[-2.45261,53.6828],[-2.45605,53.68465],[-2.45911,53.68503],[-2.45953,53.68575],[-2.46171,53.68527],[-2.46208,53.68537],[-2.46504,53.68858],[-2.46432,53.68881],[-2.46285,53.6886],[-2.46179,53.68803],[-2.46044,53.68884],[-2.46057,53.68997],[-2.45955,53.68936],[-2.4592,53.68973],[-2.45838,53.68879],[-2.45748,53.68852],[-2.45482,53.6894],[-2.4537,53.68925],[-2.45343,53.68783],[-2.45233,53.68733],[-2.44921,53.68743],[-2.44834,53.68832],[-2.44424,53.69012],[-2.44172,53.69003],[-2.44049,53.69313],[-2.44016,53.69346]]]}},{"type":"Feature","properties":{"id":"E01012617","name":"E01012617","parent":"E06000008","type":"LSOA","pop":1526,"r":236,"ff":100,"ffd":6553.1,"ffs":0.5714,"g":59,"co":2,"mo":2,"sa":0,"ic":0},"geometry":{"type":"Polygon","coordinates":[[[-2.44166,53.6955],[-2.44398,53.69513],[-2.44909,53.69493],[-2.44851,53.69427],[-2.45026,53.69401],[-2.45036,53.69465],[-2.45211,53.6945],[-2.45279,53.69469],[-2.45333,53.6944],[-2.45326,53.69364],[-2.45506,53.69342],[-2.4571,53.69404],[-2.45761,53.69403],[-2.45857,53.69381],[-2.45865,53.69331],[-2.45936,53.6945],[-2.46071,53.69436],[-2.45997,53.69293],[-2.45863,53.69164],[-2.45888,53.69141],[-2.45817,53.69124],[-2.45893,53.69061],[-2.45942,53.69091],[-2.4589,53.69129],[-2.4601,53.69165],[-2.4613,53.69269],[-2.46218,53.69482],[-2.45884,53.6953],[-2.45519,53.69473],[-2.45303,53.69478],[-2.45305,53.6951],[-2.45432,53.69506],[-2.45375,53.69621],[-2.45429,53.69692],[-2.44942,53.69778],[-2.44893,53.69865],[-2.44793,53.6988],[-2.44651,53.7001],[-2.44356,53.69761],[-2.44166,53.6955]]]}},{"type":"Feature","properties":{"id":"E01012618","name":"E01012618","parent":"E06000008","type":"LSOA","pop":1574,"r":274,"ff":125,"ffd":7941.6,"ffs":0.5841,"g":58,"co":0,"mo":0,"sa":0,"ic":0},"geometry":{"type":"Polygon","coordinates":[[[-2.512,53.73397],[-2.51047,53.73297],[-2.50787,53.73307],[-2.50428,53.73241],[-2.50341,53.73199],[-2.50395,53.73168],[-2.50378,53.73117],[-2.50515,53.73124],[-2.5055,53.73151],[-2.50611,53.73131],[-2.50596,53.73156],[-2.50738,53.73169],[-2.50731,53.73194],[-2.50897,53.73226],[-2.50915,53.73194],[-2.51149,53.73183],[-2.51169,53.73289],[-2.51235,53.7329],[-2.51311,53.73196],[-2.51529,53.7317],[-2.51584,53.73179],[-2.51544,53.73099],[-2.51665,53.73024],[-2.51818,53.73306],[-2.51924,53.73451],[-2.52237,53.73728],[-2.51882,53.73862],[-2.51573,53.73873],[-2.51324,53.73806],[-2.51383,53.73775],[-2.51333,53.73743],[-2.5136,53.73704],[-2.51062,53.73556],[-2.50947,53.73543],[-2.50926,53.73471],[-2.5123,53.73429],[-2.512,53.73397]]]}},{"type":"Feature","properties":{"id":"E01012619","name":"E01012619","parent":"E06000008","type":"LSOA","pop":1349,"r":284,"ff":132,"ffd":9785.0,"ffs":0.5893,"g":58,"co":0,"mo":0,"sa":0,"ic":0},"geometry":{"type":"Polygon","coordinates":[[[-2.51169,53.73289],[-2.51149,53.73183],[-2.50915,53.73194],[-2.50897,53.73226],[-2.50731,53.73194],[-2.50738,53.73169],[-2.50596,53.73156],[-2.50611,53.73131],[-2.5055,53.73151],[-2.50515,53.73124],[-2.50378,53.73117],[-2.50393,53.73079],[-2.50449,53.73085],[-2.5048,53.73015],[-2.50858,53.73101],[-2.5089,53.73068],[-2.50947,53.72875],[-2.51116,53.72764],[-2.51216,53.72766],[-2.51341,53.72814],[-2.51428,53.72758],[-2.51536,53.7277],[-2.51665,53.73024],[-2.51544,53.73099],[-2.51584,53.73179],[-2.51529,53.7317],[-2.51311,53.73196],[-2.51235,53.7329],[-2.51169,53.73289]]]}},{"type":"Feature","properties":{"id":"E01012620","name":"E01012620","parent":"E06000008","type":"LSOA","pop":1612,"r":289,"ff":133,"ffd":8250.6,"ffs":0.5859,"g":60,"co":0,"mo":0,"sa":0,"ic":0},"geometry":{"type":"Polygon","coordinates":[[[-2.50618,53.72816],[-2.5061,53.72696],[-2.50664,53.72604],[-2.50651,53.72533],[-2.50528,53.72505],[-2.50586,53.72513],[-2.50632,53.72445],[-2.50331,53.72379],[-2.50285,53.72355],[-2.50328,53.72312],[-2.50246,53.72284],[-2.50244,53.72196],[-2.5013,53.72175],[-2.50626,53.71794],[-2.51352,53.71897],[-2.51536,53.7277],[-2.51428,53.72758],[-2.51341,53.72814],[-2.51216,53.72766],[-2.51116,53.72764],[-2.50947,53.72875],[-2.5089,53.73068],[-2.50858,53.73101],[-2.5048,53.73015],[-2.50478,53.72974],[-2.50531,53.72898],[-2.50609,53.72864],[-2.50618,53.72816]]]}},{"type":"Feature","properties":{"id":"E01012621","name":"E01012621","parent":"E06000008","type":"LSOA","pop":1519,"r":288,"ff":132,"ffd":8689.9,"ffs":0.5841,"g":60,"co":0,"mo":0,"sa":0,"ic":0},"geometry":{"type":"Polygon","coordinates":[[[-2.50059,53.73118],[-2.49954,53.72889],[-2.49977,53.72855],[-2.50254,53.72795],[-2.50382,53.72799],[-2.50408,53.72668],[-2.50357,53.72637],[-2.50384,53.72493],[-2.50651,53.72533],[-2.50664,53.72604],[-2.5061,53.72696],[-2.50628,53.72816],[-2.50609,53.72864],[-2.50531,53.72898],[-2.50478,53.72974],[-2.5048,53.73015],[-2.50449,53.73085],[-2.50393,53.73079],[-2.50378,53.73117],[-2.50395,53.73168],[-2.50341,53.73199],[-2.50059,53.73118]]]}},{"type":"Feature","properties":{"id":"E01012622","name":"E01012622","parent":"E06000008","type":"LSOA","pop":1925,"r":244,"ff":114,"ffd":5922.1,"ffs":0.5969,"g":52,"co":0,"mo":0,"sa":0,"ic":0},"geometry":{"type":"Polygon","coordinates":[[[-2.49219,53.73886],[-2.4967,53.73693],[-2.49667,53.73795],[-2.49972,53.73699],[-2.50179,53.73819],[-2.5015,53.73867],[-2.50273,53.73868],[-2.50224,53.73929],[-2.50031,53.74028],[-2.50094,53.74044],[-2.50055,53.74123],[-2.50142,53.74139],[-2.50186,53.7421],[-2.50122,53.74254],[-2.49889,53.74263],[-2.49336,53.7433],[-2.49047,53.74081],[-2.49072,53.74021],[-2.49017,53.73974],[-2.49219,53.73886]]]}},{"type":"Feature","properties":{"id":"E01012623","name":"E01012623","parent":"E06000008","type":"LSOA","pop":1482,"r":276,"ff":125,"ffd":8434.5,"ffs":0.5814,"g":59,"co":0,"mo":0,"sa":0,"ic":0},"geometry":{"type":"Polygon","coordinates":[[[-2.50031,53.74028],[-2.50224,53.73929],[-2.50584,53.74007],[-2.50671,53.73947],[-2.50525,53.7388],[-2.50605,53.73822],[-2.5042,53.73733],[-2.50555,53.73702],[-2.50549,53.73574],[-2.50595,53.73563],[-2.50589,53.73608],[-2.50656,53.73629],[-2.50707,53.736],[-2.50983,53.73682],[-2.50844,53.73715],[-2.51,53.739],[-2.51048,53.73918],[-2.50838,53.73993],[-2.50543,53.74213],[-2.50189,53.74252],[-2.50122,53.74254],[-2.50186,53.7421],[-2.50142,53.74139],[-2.50055,53.74123],[-2.50094,53.74044],[-2.50031,53.74028]]]}},{"type":"Feature","properties":{"id":"E01012624","name":"E01012624","parent":"E06000008","type":"LSOA","pop":1648,"r":244,"ff":114,"ffd":6917.5,"ffs":0.5969,"g":52,"co":0,"mo":0,"sa":0,"ic":0},"geometry":{"type":"Polygon","coordinates":[[[-2.49416,53.73499],[-2.49234,53.73371],[-2.49654,53.73158],[-2.49726,53.73142],[-2.50059,53.73118],[-2.50341,53.73199],[-2.50428,53.73241],[-2.50387,53.73292],[-2.50349,53.73287],[-2.50365,53.73331],[-2.50541,53.73363],[-2.50516,53.73391],[-2.50458,53.73372],[-2.50412,53.7339],[-2.50365,53.73355],[-2.50369,53.73412],[-2.50315,53.73394],[-2.50298,53.73425],[-2.50313,53.7348],[-2.50096,53.73499],[-2.50111,53.73521],[-2.49982,53.73551],[-2.50031,53.736],[-2.49676,53.73707],[-2.49655,53.73645],[-2.49416,53.73499]]]}},{"type":"Feature","properties":{"id":"E01012625","name":"E01012625","parent":"E06000008","type":"LSOA","pop":2000,"r":276,"ff":126,"ffd":6300.0,"ffs":0.5833,"g":58,"co":0,"mo":0,"sa":0,"ic":0},"geometry":{"type":"Polygon","coordinates":[[[-2.50179,53.73819],[-2.49972,53.73699],[-2.49667,53.73795],[-2.49676,53.73707],[-2.50031,53.736],[-2.49982,53.73551],[-2.50111,53.73521],[-2.50096,53.73499],[-2.50313,53.7348],[-2.50298,53.73425],[-2.50315,53.73394],[-2.50369,53.73412],[-2.50365,53.73355],[-2.50412,53.7339],[-2.50458,53.73372],[-2.50516,53.73391],[-2.50541,53.73363],[-2.50365,53.73331],[-2.50349,53.73287],[-2.50387,53.73292],[-2.50428,53.73241],[-2.50787,53.73307],[-2.51047,53.73297],[-2.5123,53.73429],[-2.50926,53.73471],[-2.50947,53.73543],[-2.51062,53.73556],[-2.5136,53.73704],[-2.51333,53.73743],[-2.51383,53.73775],[-2.51048,53.73918],[-2.51,53.739],[-2.50844,53.73715],[-2.50983,53.73682],[-2.50707,53.736],[-2.50656,53.73629],[-2.50589,53.73608],[-2.50595,53.73563],[-2.50549,53.73574],[-2.50555,53.73702],[-2.5042,53.73733],[-2.50605,53.73822],[-2.50525,53.7388],[-2.50671,53.73947],[-2.50584,53.74007],[-2.50224,53.73929],[-2.50273,53.73868],[-2.5015,53.73867],[-2.50179,53.73819]]]}},{"type":"Feature","properties":{"id":"E01012628","name":"E01012628","parent":"E06000008","type":"LSOA","pop":1112,"r":31,"ff":28,"ffd":2518.0,"ffs":0.9032,"g":0,"co":3,"mo":1,"sa":3,"ic":1},"geometry":{"type":"Polygon","coordinates":[[[-2.52902,53.71308],[-2.52423,53.7127],[-2.51299,53.71305],[-2.50286,53.71372],[-2.50135,53.71248],[-2.50147,53.71047],[-2.50192,53.70997],[-2.50169,53.70942],[-2.50098,53.70939],[-2.5008,53.70908],[-2.49456,53.70662],[-2.49298,53.70317],[-2.49222,53.70265],[-2.49176,53.70282],[-2.49119,53.70261],[-2.4904,53.70179],[-2.49029,53.70129],[-2.49134,53.7],[-2.49474,53.69797],[-2.49549,53.69769],[-2.49714,53.6977],[-2.4986,53.69722],[-2.50044,53.69577],[-2.50197,53.69384],[-2.50176,53.69343],[-2.50218,53.69313],[-2.50252,53.69144],[-2.50206,53.69135],[-2.50098,53.68874],[-2.49732,53.68604],[-2.49633,53.68453],[-2.49447,53.68337],[-2.49452,53.68227],[-2.4968,53.68099],[-2.49649,53.67948],[-2.49743,53.67799],[-2.49709,53.67781],[-2.4961,53.6766],[-2.49559,53.67499],[-2.49674,53.6726],[-2.49824,53.67204],[-2.49334,53.66664],[-2.49285,53.66533],[-2.48759,53.66539],[-2.48339,53.66439],[-2.47634,53.66379],[-2.47157,53.66429],[-2.46932,53.66371],[-2.46582,53.66354],[-2.46204,53.66458],[-2.46027,53.6644],[-2.45785,53.66359],[-2.45706,53.66296],[-2.45404,53.66238],[-2.45225,53.66157],[-2.45074,53.66123],[-2.45056,53.66141],[-2.44907,53.66014],[-2.45559,53.65278],[-2.45651,53.65027],[-2.45581,53.64499],[-2.45419,53.64402],[-2.45114,53.64315],[-2.44979,53.64152],[-2.45027,53.64143],[-2.44893,53.63905],[-2.44874,53.63705],[-2.44801,53.63673],[-2.44924,53.63558],[-2.44974,53.63337],[-2.44851,53.63188],[-2.44938,53.63108],[-2.45066,53.62776],[-2.45212,53.62823],[-2.4519,53.62779],[-2.45346,53.62794],[-2.45492,53.62693],[-2.45635,53.62673],[-2.45682,53.62573],[-2.45829,53.62463],[-2.45648,53.62395],[-2.45526,53.62413],[-2.45426,53.62346],[-2.45356,53.62347],[-2.45318,53.62278],[-2.45435,53.62241],[-2.45378,53.62197],[-2.45502,53.62136],[-2.45573,53.62148],[-2.45752,53.62098],[-2.4597,53.62004],[-2.46341,53.622],[-2.46347,53.62232],[-2.46602,53.6217],[-2.46708,53.62097],[-2.47044,53.61989],[-2.47303,53.61658],[-2.4792,53.61704],[-2.49169,53.62119],[-2.50787,53.62543],[-2.51038,53.62639],[-2.51482,53.62924],[-2.51833,53.63028],[-2.52006,53.63048],[-2.52029,53.63175],[-2.52376,53.6391],[-2.52455,53.64159],[-2.52402,53.64259],[-2.52176,53.64475],[-2.52149,53.64543],[-2.52201,53.64742],[-2.52325,53.65033],[-2.52506,53.65252],[-2.5253,53.65371],[-2.52661,53.6551],[-2.52862,53.65626],[-2.52894,53.66028],[-2.53234,53.6649],[-2.52916,53.66721],[-2.52834,53.66941],[-2.52647,53.67119],[-2.52622,53.67358],[-2.52568,53.67456],[-2.52459,53.6751],[-2.52053,53.67535],[-2.51917,53.67629],[-2.51924,53.67682],[-2.51835,53.67765],[-2.51777,53.68118],[-2.51845,53.68276],[-2.5174,53.6849],[-2.51793,53.68667],[-2.517,53.68746],[-2.51659,53.68898],[-2.51534,53.69002],[-2.516,53.69083],[-2.51538,53.69159],[-2.51568,53.69238],[-2.51751,53.69322],[-2.51765,53.69366],[-2.51847,53.69352],[-2.52015,53.69445],[-2.52116,53.69451],[-2.52136,53.69506],[-2.52235,53.69505],[-2.52338,53.69549],[-2.5253,53.69496],[-2.52646,53.69503],[-2.53086,53.69643],[-2.53193,53.69644],[-2.53272,53.69736],[-2.53529,53.69827],[-2.53494,53.69881],[-2.53624,53.69924],[-2.53675,53.69977],[-2.53746,53.70107],[-2.53961,53.70211],[-2.54104,53.70452],[-2.54221,53.70519],[-2.54278,53.70663],[-2.54158,53.70797],[-2.54202,53.70891],[-2.54326,53.7099],[-2.54166,53.71101],[-2.54007,53.7113],[-2.54091,53.71206],[-2.53897,53.71337],[-2.53944,53.71456],[-2.52902,53.71308]]]}},{"type":"Feature","properties":{"id":"E01012629","name":"E01012629","parent":"E06000008","type":"LSOA","pop":1411,"r":306,"ff":141,"ffd":9992.9,"ffs":0.5851,"g":63,"co":0,"mo":0,"sa":0,"ic":0},"geometry":{"type":"Polygon","coordinates":[[[-2.47365,53.74217],[-2.47385,53.74056],[-2.47616,53.74025],[-2.47686,53.74132],[-2.47833,53.74108],[-2.47977,53.74172],[-2.48249,53.74125],[-2.48277,53.74084],[-2.47945,53.7396],[-2.47888,53.73979],[-2.47768,53.73878],[-2.48002,53.73763],[-2.47964,53.73751],[-2.48037,53.7371],[-2.4806,53.73551],[-2.48284,53.73692],[-2.48297,53.73722],[-2.48452,53.73801],[-2.48802,53.73782],[-2.48747,53.73834],[-2.48955,53.73872],[-2.48933,53.73898],[-2.48992,53.7392],[-2.48141,53.74443],[-2.47704,53.74538],[-2.47655,53.74476],[-2.47361,53.74329],[-2.47365,53.74217]]]}},{"type":"Feature","properties":{"id":"E01012630","name":"E01012630","parent":"E06000008","type":"LSOA","pop":2397,"r":321,"ff":150,"ffd":6257.8,"ffs":0.5882,"g":64,"co":0,"mo":0,"sa":0,"ic":0},"geometry":{"type":"Polygon","coordinates":[[[-2.46581,53.74304],[-2.46553,53.74257],[-2.46245,53.74311],[-2.46174,53.7418],[-2.4587,53.74242],[-2.45752,53.74255],[-2.45694,53.74233],[-2.4571,53.74202],[-2.45831,53.74214],[-2.46418,53.74112],[-2.46477,53.74011],[-2.46537,53.73999],[-2.46602,53.74026],[-2.46683,53.74012],[-2.46707,53.7404],[-2.46918,53.74006],[-2.46952,53.74035],[-2.47011,53.74025],[-2.47095,53.74136],[-2.46934,53.74162],[-2.47,53.74288],[-2.47357,53.74238],[-2.47361,53.74329],[-2.46666,53.7446],[-2.46581,53.74304]]]}},{"type":"Feature","properties":{"id":"E01012631","name":"E01012631","parent":"E06000008","type":"LSOA","pop":1489,"r":315,"ff":143,"ffd":9603.8,"ffs":0.5743,"g":64,"co":0,"mo":0,"sa":0,"ic":0},"geometry":{"type":"Polygon","coordinates":[[[-2.47095,53.74136],[-2.47011,53.74025],[-2.47233,53.74031],[-2.47231,53.73913],[-2.47256,53.7388],[-2.47306,53.7389],[-2.47307,53.73865],[-2.47172,53.73847],[-2.47259,53.73736],[-2.47437,53.7376],[-2.47484,53.73694],[-2.47476,53.73631],[-2.47798,53.73501],[-2.4789,53.7356],[-2.47976,53.7351],[-2.4806,53.73551],[-2.48037,53.7371],[-2.47964,53.73751],[-2.48002,53.73763],[-2.47768,53.73878],[-2.47888,53.73979],[-2.47945,53.7396],[-2.48277,53.74084],[-2.48249,53.74125],[-2.47977,53.74172],[-2.47833,53.74108],[-2.47686,53.74132],[-2.47616,53.74025],[-2.47385,53.74056],[-2.47357,53.74238],[-2.47,53.74288],[-2.46934,53.74162],[-2.47095,53.74136]]]}},{"type":"Feature","properties":{"id":"E01012632","name":"E01012632","parent":"E06000008","type":"LSOA","pop":2512,"r":346,"ff":165,"ffd":6568.5,"ffs":0.5957,"g":67,"co":0,"mo":0,"sa":0,"ic":0},"geometry":{"type":"Polygon","coordinates":[[[-2.4563,53.74338],[-2.45532,53.74161],[-2.45433,53.7414],[-2.45574,53.73947],[-2.45588,53.73907],[-2.45536,53.73901],[-2.45654,53.73723],[-2.45634,53.73623],[-2.45388,53.73657],[-2.45489,53.73386],[-2.44662,53.73297],[-2.44577,53.73343],[-2.44417,53.73225],[-2.44246,53.73269],[-2.44233,53.73406],[-2.44101,53.73413],[-2.44089,53.73437],[-2.44158,53.73465],[-2.44083,53.73552],[-2.43988,53.73596],[-2.43977,53.73345],[-2.43859,53.73228],[-2.43923,53.73234],[-2.44016,53.7304],[-2.44321,53.72743],[-2.45451,53.71877],[-2.45782,53.71703],[-2.45812,53.71849],[-2.46063,53.72198],[-2.45684,53.72289],[-2.45807,53.72463],[-2.45759,53.72477],[-2.45785,53.7251],[-2.46208,53.72408],[-2.46665,53.73051],[-2.46585,53.73069],[-2.46406,53.73038],[-2.46463,53.73135],[-2.46425,53.73273],[-2.46447,53.73298],[-2.46512,53.73288],[-2.46554,53.73411],[-2.46339,53.73427],[-2.46333,53.73466],[-2.46695,53.7356],[-2.47197,53.73561],[-2.47426,53.73655],[-2.47476,53.73631],[-2.47484,53.73694],[-2.47437,53.7376],[-2.47259,53.73736],[-2.47172,53.73847],[-2.47307,53.73865],[-2.47306,53.7389],[-2.47256,53.7388],[-2.47231,53.73913],[-2.47233,53.74031],[-2.46952,53.74035],[-2.46918,53.74006],[-2.46707,53.7404],[-2.46683,53.74012],[-2.46602,53.74026],[-2.46537,53.73999],[-2.46477,53.74011],[-2.46418,53.74112],[-2.45831,53.74214],[-2.4571,53.74202],[-2.45694,53.74233],[-2.45752,53.74255],[-2.4587,53.74242],[-2.46174,53.7418],[-2.46245,53.74311],[-2.45669,53.74414],[-2.4563,53.74338]]]}},{"type":"Feature","properties":{"id":"E01012633","name":"E01012633","parent":"E06000008","type":"LSOA","pop":2033,"r":294,"ff":134,"ffd":6591.2,"ffs":0.5852,"g":63,"co":0,"mo":0,"sa":2,"ic":0},"geometry":{"type":"Polygon","coordinates":[[[-2.47865,53.77614],[-2.47825,53.77596],[-2.47729,53.7768],[-2.47661,53.77674],[-2.4764,53.77617],[-2.47754,53.77545],[-2.47806,53.77562],[-2.47842,53.77542],[-2.47827,53.77486],[-2.47758,53.77436],[-2.47657,53.77418],[-2.47525,53.77453],[-2.47426,53.77368],[-2.47368,53.77362],[-2.47352,53.77277],[-2.47212,53.77196],[-2.47868,53.76956],[-2.48003,53.77109],[-2.48153,53.77057],[-2.48125,53.76992],[-2.48173,53.76941],[-2.48441,53.76823],[-2.48277,53.7673],[-2.4856,53.76686],[-2.48781,53.7662],[-2.49065,53.76661],[-2.49173,53.76643],[-2.49246,53.76621],[-2.49214,53.76507],[-2.49339,53.76567],[-2.49371,53.76666],[-2.49435,53.7674],[-2.49475,53.76728],[-2.49495,53.76751],[-2.49427,53.76775],[-2.49408,53.76752],[-2.4931,53.76802],[-2.4947,53.77017],[-2.49121,53.77105],[-2.48676,53.77275],[-2.48497,53.77299],[-2.48434,53.77279],[-2.48077,53.77419],[-2.48013,53.77592],[-2.47936,53.77692],[-2.47801,53.7769],[-2.47865,53.77614]]]}},{"type":"Feature","properties":{"id":"E01012634","name":"E01012634","parent":"E06000008","type":"LSOA","pop":1753,"r":345,"ff":164,"ffd":9355.4,"ffs":0.5942,"g":67,"co":0,"mo":0,"sa":0,"ic":0},"geometry":{"type":"Polygon","coordinates":[[[-2.47777,53.76856],[-2.47346,53.76391],[-2.47533,53.76346],[-2.47685,53.76431],[-2.47722,53.76397],[-2.47699,53.76332],[-2.47532,53.76111],[-2.47799,53.7606],[-2.47869,53.76241],[-2.47926,53.76241],[-2.4799,53.76295],[-2.48035,53.76263],[-2.48115,53.76265],[-2.48176,53.76335],[-2.48075,53.76413],[-2.48174,53.76451],[-2.48206,53.76615],[-2.48142,53.76635],[-2.48136,53.76715],[-2.48253,53.76691],[-2.48226,53.76646],[-2.48404,53.76614],[-2.4856,53.76686],[-2.48277,53.7673],[-2.48441,53.76823],[-2.48173,53.76941],[-2.48125,53.76992],[-2.48153,53.77057],[-2.48003,53.77109],[-2.47777,53.76856]]]}},{"type":"Feature","properties":{"id":"E01012635","name":"E01012635","parent":"E06000008","type":"LSOA","pop":1950,"r":290,"ff":136,"ffd":6974.4,"ffs":0.6018,"g":62,"co":0,"mo":0,"sa":0,"ic":0},"geometry":{"type":"Polygon","coordinates":[[[-2.48206,53.76615],[-2.48174,53.76451],[-2.48075,53.76413],[-2.48176,53.76335],[-2.48115,53.76265],[-2.48035,53.76263],[-2.4799,53.76295],[-2.47926,53.76241],[-2.47869,53.76241],[-2.478,53.76061],[-2.48144,53.76001],[-2.4874,53.75862],[-2.4873,53.75901],[-2.4875,53.76006],[-2.48801,53.76157],[-2.49214,53.76507],[-2.49246,53.76621],[-2.49065,53.76661],[-2.48781,53.7662],[-2.4856,53.76686],[-2.48404,53.76614],[-2.48226,53.76646],[-2.48253,53.76691],[-2.48136,53.76715],[-2.48142,53.76635],[-2.48206,53.76615]]]}},{"type":"Feature","properties":{"id":"E01012636","name":"E01012636","parent":"E06000008","type":"LSOA","pop":1828,"r":286,"ff":128,"ffd":7002.2,"ffs":0.5818,"g":64,"co":0,"mo":0,"sa":2,"ic":0},"geometry":{"type":"Polygon","coordinates":[[[-2.46581,53.78081],[-2.4628,53.77857],[-2.46079,53.77805],[-2.45947,53.77727],[-2.45555,53.77406],[-2.45831,53.77327],[-2.45909,53.77275],[-2.45998,53.77445],[-2.46037,53.77466],[-2.46267,53.77402],[-2.46303,53.77448],[-2.4625,53.77489],[-2.46553,53.77481],[-2.46825,53.7737],[-2.46962,53.77295],[-2.47203,53.77225],[-2.47212,53.77196],[-2.47352,53.77277],[-2.47368,53.77362],[-2.47426,53.77368],[-2.47525,53.77453],[-2.47657,53.77418],[-2.47758,53.77436],[-2.47827,53.77486],[-2.47842,53.77542],[-2.47806,53.77562],[-2.47754,53.77545],[-2.4764,53.77617],[-2.47661,53.77674],[-2.47729,53.7768],[-2.47825,53.77596],[-2.47865,53.77614],[-2.47801,53.7769],[-2.47936,53.77692],[-2.47795,53.77994],[-2.477,53.78047],[-2.47709,53.78105],[-2.47584,53.78044],[-2.47531,53.78049],[-2.47442,53.78003],[-2.47341,53.77994],[-2.4702,53.78169],[-2.4691,53.78182],[-2.46705,53.78148],[-2.46581,53.78081]]]}},{"type":"Feature","properties":{"id":"E01012637","name":"E01012637","parent":"E06000008","type":"LSOA","pop":1775,"r":351,"ff":169,"ffd":9521.1,"ffs":0.6036,"g":69,"co":2,"mo":0,"sa":2,"ic":0},"geometry":{"type":"Polygon","coordinates":[[[-2.44447,53.74502],[-2.44255,53.74414],[-2.44243,53.74471],[-2.44189,53.74441],[-2.44152,53.74468],[-2.44128,53.74341],[-2.44183,53.7424],[-2.4413,53.74224],[-2.44083,53.74017],[-2.43996,53.73901],[-2.43988,53.73596],[-2.44083,53.73552],[-2.44158,53.73465],[-2.44089,53.73437],[-2.44101,53.73413],[-2.44233,53.73406],[-2.44246,53.73269],[-2.44417,53.73225],[-2.44577,53.73343],[-2.44662,53.73297],[-2.45489,53.73386],[-2.45319,53.73829],[-2.44985,53.73794],[-2.44716,53.73808],[-2.44755,53.73836],[-2.44716,53.74016],[-2.44677,53.74008],[-2.44534,53.73881],[-2.44351,53.73981],[-2.44277,53.73987],[-2.44294,53.74038],[-2.44377,53.74053],[-2.44379,53.74112],[-2.44458,53.74132],[-2.44515,53.7409],[-2.44687,53.7416],[-2.44674,53.74205],[-2.44737,53.742],[-2.44786,53.74239],[-2.44732,53.74278],[-2.44773,53.74339],[-2.44564,53.74528],[-2.44447,53.74502]]]}},{"type":"Feature","properties":{"id":"E01012638","name":"E01012638","parent":"E06000008","type":"LSOA","pop":1658,"r":342,"ff":165,"ffd":9951.7,"ffs":0.6044,"g":67,"co":2,"mo":0,"sa":0,"ic":0},"geometry":{"type":"Polygon","coordinates":[[[-2.44745,53.74211],[-2.44674,53.74205],[-2.44687,53.7416],[-2.44515,53.7409],[-2.44458,53.74132],[-2.44379,53.74112],[-2.44377,53.74053],[-2.44294,53.74038],[-2.44277,53.73987],[-2.44351,53.73981],[-2.44534,53.73881],[-2.44677,53.74008],[-2.44716,53.74016],[-2.44755,53.73836],[-2.44716,53.73808],[-2.44985,53.73794],[-2.45319,53.73829],[-2.45388,53.73657],[-2.45634,53.73623],[-2.45654,53.73723],[-2.45536,53.73901],[-2.45588,53.73907],[-2.45574,53.73947],[-2.45454,53.74099],[-2.45319,53.74117],[-2.45261,53.74106],[-2.45251,53.7407],[-2.4514,53.74109],[-2.45035,53.74201],[-2.44981,53.74171],[-2.44792,53.74238],[-2.44745,53.74211]]]}},{"type":"Feature","properties":{"id":"E01012639","name":"E01012639","parent":"E06000008","type":"LSOA","pop":2032,"r":344,"ff":165,"ffd":8120.1,"ffs":0.6,"g":67,"co":0,"mo":0,"sa":2,"ic":0},"geometry":{"type":"Polygon","coordinates":[[[-2.44575,53.75473],[-2.44507,53.75398],[-2.44534,53.75371],[-2.44462,53.75358],[-2.44489,53.75317],[-2.44193,53.752],[-2.44203,53.75147],[-2.44068,53.75042],[-2.44102,53.75026],[-2.44007,53.74942],[-2.43966,53.74831],[-2.44203,53.74853],[-2.44232,53.74924],[-2.44194,53.7497],[-2.44249,53.74991],[-2.44346,53.74937],[-2.44296,53.74826],[-2.44699,53.7478],[-2.44705,53.74831],[-2.44949,53.74891],[-2.45002,53.74974],[-2.4507,53.74964],[-2.45359,53.75093],[-2.45467,53.75203],[-2.45268,53.75303],[-2.45386,53.75385],[-2.45296,53.75435],[-2.44879,53.75433],[-2.44754,53.75463],[-2.44575,53.75473]]]}},{"type":"Feature","properties":{"id":"E01012640","name":"E01012640","parent":"E06000008","type":"LSOA","pop":2170,"r":348,"ff":167,"ffd":7695.9,"ffs":0.6029,"g":69,"co":2,"mo":0,"sa":2,"ic":0},"geometry":{"type":"Polygon","coordinates":[[[-2.45165,53.75004],[-2.4507,53.74964],[-2.45002,53.74974],[-2.44949,53.74891],[-2.44705,53.74831],[-2.44699,53.7478],[-2.44296,53.74826],[-2.44346,53.74937],[-2.44249,53.74991],[-2.44194,53.7497],[-2.44232,53.74924],[-2.44203,53.74853],[-2.43966,53.74831],[-2.43937,53.74783],[-2.44081,53.74659],[-2.44077,53.74604],[-2.4415,53.7459],[-2.44199,53.74523],[-2.44156,53.74476],[-2.44189,53.74441],[-2.44243,53.74471],[-2.44255,53.74414],[-2.44447,53.74502],[-2.44564,53.74528],[-2.44773,53.74339],[-2.44732,53.74278],[-2.44792,53.74238],[-2.44884,53.74334],[-2.44848,53.74364],[-2.44902,53.74389],[-2.4485,53.74434],[-2.44904,53.74473],[-2.44882,53.74507],[-2.44911,53.7452],[-2.44871,53.7457],[-2.44929,53.74632],[-2.45186,53.74703],[-2.45201,53.74731],[-2.45149,53.74734],[-2.45165,53.75004]]]}},{"type":"Feature","properties":{"id":"E01012641","name":"E01012641","parent":"E06000008","type":"LSOA","pop":1982,"r":338,"ff":163,"ffd":8224.0,"ffs":0.6059,"g":67,"co":0,"mo":0,"sa":0,"ic":0},"geometry":{"type":"Polygon","coordinates":[[[-2.44792,53.74238],[-2.44981,53.74171],[-2.45035,53.74201],[-2.4514,53.74109],[-2.45251,53.7407],[-2.45261,53.74106],[-2.45319,53.74117],[-2.45454,53.74099],[-2.45433,53.7414],[-2.45532,53.74161],[-2.45775,53.74623],[-2.45201,53.74731],[-2.45186,53.74703],[-2.44929,53.74632],[-2.44871,53.7457],[-2.44911,53.7452],[-2.44882,53.74507],[-2.44904,53.74473],[-2.4485,53.74434],[-2.44902,53.74389],[-2.44848,53.74364],[-2.44884,53.74334],[-2.44792,53.74238]]]}},{"type":"Feature","properties":{"id":"E01012642","name":"E01012642","parent":"E06000008","type":"LSOA","pop":1977,"r":287,"ff":133,"ffd":6727.4,"ffs":0.5964,"g":62,"co":0,"mo":0,"sa":0,"ic":0},"geometry":{"type":"Polygon","coordinates":[[[-2.48404,53.75738],[-2.48283,53.75619],[-2.48444,53.75523],[-2.48429,53.75487],[-2.48692,53.75463],[-2.48749,53.75439],[-2.48738,53.75408],[-2.48885,53.75437],[-2.48909,53.75407],[-2.48851,53.7534],[-2.48769,53.75326],[-2.48674,53.75241],[-2.48889,53.75182],[-2.48871,53.75253],[-2.48999,53.75261],[-2.49058,53.75329],[-2.49137,53.7526],[-2.49288,53.75399],[-2.49332,53.75537],[-2.49165,53.75564],[-2.49134,53.75496],[-2.49042,53.75496],[-2.49096,53.75548],[-2.49092,53.75649],[-2.49033,53.7566],[-2.4898,53.75622],[-2.48813,53.75664],[-2.48767,53.75703],[-2.48612,53.75683],[-2.48444,53.75774],[-2.48404,53.75738]]]}},{"type":"Feature","properties":{"id":"E01012643","name":"E01012643","parent":"E06000008","type":"LSOA","pop":1776,"r":298,"ff":138,"ffd":7770.3,"ffs":0.5923,"g":63,"co":0,"mo":0,"sa":0,"ic":0},"geometry":{"type":"Polygon","coordinates":[[[-2.48136,53.75523],[-2.47945,53.75422],[-2.4756,53.75368],[-2.47459,53.75437],[-2.47253,53.75199],[-2.47313,53.75167],[-2.4727,53.74943],[-2.47164,53.74917],[-2.47389,53.74877],[-2.47488,53.74827],[-2.47704,53.74538],[-2.48141,53.74443],[-2.48238,53.74377],[-2.48264,53.74515],[-2.48189,53.74515],[-2.48169,53.74617],[-2.48014,53.74643],[-2.48108,53.74712],[-2.48024,53.74776],[-2.48138,53.74892],[-2.48143,53.75089],[-2.4807,53.7508],[-2.48049,53.7513],[-2.4813,53.75162],[-2.48139,53.75242],[-2.48241,53.75204],[-2.48217,53.7523],[-2.48253,53.75239],[-2.4816,53.75293],[-2.48145,53.75389],[-2.48254,53.75352],[-2.48279,53.75369],[-2.4831,53.75446],[-2.48227,53.75502],[-2.48199,53.7549],[-2.48136,53.75523]]]}},{"type":"Feature","properties":{"id":"E01012644","name":"E01012644","parent":"E06000008","type":"LSOA","pop":2529,"r":294,"ff":135,"ffd":5338.1,"ffs":0.5895,"g":63,"co":0,"mo":0,"sa":0,"ic":0},"geometry":{"type":"Polygon","coordinates":[[[-2.48136,53.75523],[-2.48199,53.7549],[-2.48227,53.75502],[-2.4831,53.75446],[-2.48279,53.75369],[-2.48254,53.75352],[-2.48145,53.75389],[-2.4816,53.75293],[-2.48253,53.75239],[-2.48217,53.7523],[-2.48241,53.75204],[-2.48139,53.75242],[-2.4813,53.75162],[-2.48049,53.7513],[-2.4807,53.7508],[-2.48143,53.75089],[-2.48138,53.74892],[-2.48024,53.74776],[-2.48108,53.74712],[-2.48014,53.74643],[-2.48169,53.74617],[-2.48189,53.74515],[-2.48264,53.74515],[-2.48456,53.74726],[-2.48442,53.74805],[-2.48552,53.74899],[-2.48609,53.75048],[-2.4887,53.75174],[-2.49105,53.75215],[-2.49137,53.7526],[-2.49058,53.75329],[-2.48999,53.75261],[-2.48871,53.75253],[-2.48889,53.75182],[-2.48674,53.75241],[-2.48769,53.75326],[-2.48851,53.7534],[-2.48909,53.75407],[-2.48885,53.75437],[-2.48738,53.75408],[-2.48749,53.75439],[-2.48692,53.75463],[-2.48429,53.75487],[-2.48444,53.75523],[-2.48283,53.75619],[-2.48136,53.75523]]]}},{"type":"Feature","properties":{"id":"E01012645","name":"E01012645","parent":"E06000008","type":"LSOA","pop":2255,"r":283,"ff":132,"ffd":5853.7,"ffs":0.6,"g":61,"co":0,"mo":0,"sa":0,"ic":0},"geometry":{"type":"Polygon","coordinates":[[[-2.4873,53.75901],[-2.4874,53.75862],[-2.48583,53.75905],[-2.48444,53.75774],[-2.48612,53.75683],[-2.48767,53.75703],[-2.48813,53.75664],[-2.4898,53.75622],[-2.49033,53.7566],[-2.49092,53.75649],[-2.49096,53.75548],[-2.49042,53.75496],[-2.49134,53.75496],[-2.49165,53.75564],[-2.49332,53.75537],[-2.49316,53.75606],[-2.4918,53.75743],[-2.49128,53.75762],[-2.49269,53.75875],[-2.4932,53.75963],[-2.48801,53.76157],[-2.4873,53.75901]]]}},{"type":"Feature","properties":{"id":"E01012646","name":"E01012646","parent":"E06000008","type":"LSOA","pop":1718,"r":244,"ff":104,"ffd":6053.6,"ffs":0.5714,"g":60,"co":2,"mo":2,"sa":0,"ic":0},"geometry":{"type":"Polygon","coordinates":[[[-2.45836,53.6986],[-2.45747,53.69828],[-2.45606,53.69863],[-2.45492,53.69964],[-2.45407,53.69969],[-2.44918,53.69827],[-2.44942,53.69778],[-2.45429,53.69692],[-2.45375,53.69621],[-2.45432,53.69506],[-2.45305,53.6951],[-2.45303,53.69478],[-2.45519,53.69473],[-2.45884,53.6953],[-2.46218,53.69482],[-2.46306,53.69656],[-2.46241,53.69686],[-2.46261,53.69705],[-2.46087,53.69775],[-2.46003,53.69836],[-2.45885,53.69987],[-2.45813,53.69959],[-2.45896,53.69918],[-2.45836,53.6986]]]}},{"type":"Feature","properties":{"id":"E01012647","name":"E01012647","parent":"E06000008","type":"LSOA","pop":1717,"r":259,"ff":110,"ffd":6406.5,"ffs":0.5584,"g":60,"co":2,"mo":2,"sa":0,"ic":0},"geometry":{"type":"Polygon","coordinates":[[[-2.45391,53.70456],[-2.45226,53.7032],[-2.44972,53.70208],[-2.44651,53.7001],[-2.44793,53.6988],[-2.44893,53.69865],[-2.44918,53.69827],[-2.45407,53.69969],[-2.45492,53.69964],[-2.45606,53.69863],[-2.45747,53.69828],[-2.45836,53.6986],[-2.45896,53.69918],[-2.45813,53.69959],[-2.45849,53.69982],[-2.45774,53.70065],[-2.46001,53.70135],[-2.45962,53.70179],[-2.45981,53.70246],[-2.46032,53.70267],[-2.46016,53.70296],[-2.46085,53.70317],[-2.46134,53.7029],[-2.46216,53.70319],[-2.46127,53.70406],[-2.46092,53.70398],[-2.45926,53.70537],[-2.45916,53.70663],[-2.45496,53.70582],[-2.45391,53.70456]]]}},{"type":"Feature","properties":{"id":"E01012648","name":"E01012648","parent":"E06000008","type":"LSOA","pop":1227,"r":268,"ff":114,"ffd":9291.0,"ffs":0.5561,"g":61,"co":2,"mo":2,"sa":0,"ic":0},"geometry":{"type":"Polygon","coordinates":[[[-2.46533,53.70517],[-2.46461,53.70454],[-2.46584,53.70436],[-2.46819,53.70469],[-2.46794,53.70438],[-2.46748,53.70443],[-2.4666,53.70283],[-2.46832,53.70259],[-2.4682,53.70239],[-2.47174,53.70168],[-2.4719,53.70114],[-2.4708,53.70114],[-2.47162,53.70077],[-2.47244,53.70109],[-2.47348,53.70084],[-2.47522,53.70234],[-2.47663,53.70411],[-2.47224,53.70499],[-2.47175,53.70419],[-2.47116,53.70429],[-2.47127,53.70652],[-2.46985,53.70866],[-2.45916,53.70663],[-2.45921,53.70644],[-2.46491,53.70606],[-2.46533,53.70517]]]}},{"type":"Feature","properties":{"id":"E01012649","name":"E01012649","parent":"E06000008","type":"LSOA","pop":1623,"r":261,"ff":112,"ffd":6900.8,"ffs":0.5628,"g":60,"co":2,"mo":0,"sa":0,"ic":0},"geometry":{"type":"Polygon","coordinates":[[[-2.45926,53.70537],[-2.46092,53.70398],[-2.46127,53.70406],[-2.46216,53.70319],[-2.46134,53.7029],[-2.46085,53.70317],[-2.46016,53.70296],[-2.46032,53.70267],[-2.45981,53.70246],[-2.45962,53.70179],[-2.46172,53.70152],[-2.46289,53.70187],[-2.46283,53.7024],[-2.46318,53.70252],[-2.46401,53.70166],[-2.46139,53.70057],[-2.46071,53.69971],[-2.46103,53.69958],[-2.46236,53.70042],[-2.46325,53.70007],[-2.46467,53.70051],[-2.46555,53.70023],[-2.46425,53.69938],[-2.46462,53.69922],[-2.46292,53.69773],[-2.46374,53.69739],[-2.46515,53.69709],[-2.46511,53.69775],[-2.46665,53.69804],[-2.46661,53.69769],[-2.46871,53.69666],[-2.47348,53.70084],[-2.47244,53.70109],[-2.47162,53.70077],[-2.4708,53.70114],[-2.4719,53.70114],[-2.47174,53.70168],[-2.4682,53.70239],[-2.46832,53.70259],[-2.4666,53.70283],[-2.46748,53.70443],[-2.46794,53.70438],[-2.46819,53.70469],[-2.46584,53.70436],[-2.46461,53.70454],[-2.46533,53.70517],[-2.46491,53.70606],[-2.45921,53.70644],[-2.45926,53.70537]]]}},{"type":"Feature","properties":{"id":"E01012650","name":"E01012650","parent":"E06000008","type":"LSOA","pop":1593,"r":253,"ff":109,"ffd":6842.4,"ffs":0.5707,"g":60,"co":2,"mo":2,"sa":0,"ic":0},"geometry":{"type":"Polygon","coordinates":[[[-2.46289,53.70187],[-2.46172,53.70152],[-2.45962,53.70179],[-2.46001,53.70135],[-2.45774,53.70065],[-2.45849,53.69982],[-2.45885,53.69987],[-2.46003,53.69836],[-2.46087,53.69775],[-2.46261,53.69705],[-2.46241,53.69686],[-2.46306,53.69656],[-2.46374,53.69739],[-2.46292,53.69773],[-2.46462,53.69922],[-2.46425,53.69938],[-2.46555,53.70023],[-2.46467,53.70051],[-2.46325,53.70007],[-2.46236,53.70042],[-2.46103,53.69958],[-2.46071,53.69971],[-2.46139,53.70057],[-2.46401,53.70166],[-2.46318,53.70252],[-2.46283,53.7024],[-2.46289,53.70187]]]}},{"type":"Feature","properties":{"id":"E01012651","name":"E01012651","parent":"E06000008","type":"LSOA","pop":1528,"r":253,"ff":110,"ffd":7199.0,"ffs":0.5759,"g":60,"co":2,"mo":2,"sa":0,"ic":0},"geometry":{"type":"Polygon","coordinates":[[[-2.4755,53.7027],[-2.47273,53.70023],[-2.47487,53.69887],[-2.47707,53.70026],[-2.4783,53.69973],[-2.47934,53.70042],[-2.48014,53.70067],[-2.48025,53.70003],[-2.48179,53.69999],[-2.48155,53.7002],[-2.48235,53.7006],[-2.48158,53.70112],[-2.48226,53.70137],[-2.48155,53.70192],[-2.48207,53.70227],[-2.48109,53.7027],[-2.48061,53.70248],[-2.48152,53.70322],[-2.48063,53.70345],[-2.47919,53.7044],[-2.47957,53.70529],[-2.47836,53.70563],[-2.47778,53.70551],[-2.4755,53.7027]]]}},{"type":"Feature","properties":{"id":"E01012652","name":"E01012652","parent":"E06000008","type":"LSOA","pop":1462,"r":244,"ff":103,"ffd":7045.1,"ffs":0.5659,"g":60,"co":2,"mo":2,"sa":0,"ic":0},"geometry":{"type":"Polygon","coordinates":[[[-2.48125,53.70549],[-2.48111,53.70528],[-2.48022,53.70548],[-2.47957,53.70529],[-2.47919,53.7044],[-2.48063,53.70345],[-2.48152,53.70322],[-2.48061,53.70248],[-2.48109,53.7027],[-2.48207,53.70227],[-2.48155,53.70192],[-2.48226,53.70137],[-2.48158,53.70112],[-2.48235,53.7006],[-2.48155,53.7002],[-2.48179,53.69999],[-2.48025,53.70003],[-2.48014,53.70067],[-2.47934,53.70042],[-2.4783,53.69973],[-2.47804,53.6999],[-2.47734,53.69925],[-2.47783,53.69868],[-2.47511,53.69727],[-2.47443,53.69774],[-2.47396,53.69746],[-2.47371,53.69668],[-2.47271,53.69655],[-2.47424,53.69512],[-2.47561,53.69521],[-2.47564,53.69666],[-2.47685,53.69604],[-2.47676,53.69726],[-2.47876,53.69799],[-2.48123,53.69682],[-2.48145,53.6955],[-2.48635,53.69357],[-2.49164,53.69288],[-2.49579,53.69444],[-2.495,53.69508],[-2.49719,53.69586],[-2.4982,53.6954],[-2.50044,53.69577],[-2.4986,53.69722],[-2.49714,53.6977],[-2.49549,53.69769],[-2.49474,53.69797],[-2.49134,53.7],[-2.49029,53.70129],[-2.4904,53.70179],[-2.48859,53.70214],[-2.48395,53.70403],[-2.48404,53.70438],[-2.48125,53.70549]]]}},{"type":"Feature","properties":{"id":"E01012653","name":"E01012653","parent":"E06000008","type":"LSOA","pop":1583,"r":221,"ff":94,"ffd":5938.1,"ffs":0.5875,"g":59,"co":2,"mo":2,"sa":0,"ic":0},"geometry":{"type":"Polygon","coordinates":[[[-2.47707,53.70026],[-2.47487,53.69887],[-2.47273,53.70023],[-2.4684,53.69635],[-2.46953,53.69545],[-2.47036,53.69538],[-2.47146,53.69464],[-2.47039,53.69394],[-2.47085,53.69347],[-2.4702,53.69321],[-2.47061,53.6929],[-2.47183,53.69315],[-2.47069,53.69211],[-2.47097,53.69164],[-2.47147,53.69178],[-2.47121,53.69139],[-2.47154,53.69131],[-2.46985,53.68956],[-2.47215,53.68857],[-2.47443,53.68898],[-2.47572,53.68886],[-2.4772,53.68829],[-2.47796,53.68744],[-2.48012,53.68682],[-2.4842,53.6836],[-2.49709,53.67781],[-2.49743,53.67799],[-2.49649,53.67948],[-2.4968,53.68099],[-2.49452,53.68227],[-2.49447,53.68337],[-2.49633,53.68453],[-2.49732,53.68604],[-2.50098,53.68874],[-2.50206,53.69135],[-2.50252,53.69144],[-2.50218,53.69313],[-2.50176,53.69343],[-2.50197,53.69384],[-2.50044,53.69577],[-2.4982,53.6954],[-2.49719,53.69586],[-2.495,53.69508],[-2.49579,53.69444],[-2.49164,53.69288],[-2.48635,53.69357],[-2.48145,53.6955],[-2.48123,53.69682],[-2.47876,53.69799],[-2.47676,53.69726],[-2.47685,53.69604],[-2.47564,53.69666],[-2.47561,53.69521],[-2.47424,53.69512],[-2.47271,53.69655],[-2.47371,53.69668],[-2.47396,53.69746],[-2.47443,53.69774],[-2.47511,53.69727],[-2.47783,53.69868],[-2.47734,53.69925],[-2.47804,53.6999],[-2.47707,53.70026]]]}},{"type":"Feature","properties":{"id":"E01012654","name":"E01012654","parent":"E06000008","type":"LSOA","pop":1699,"r":213,"ff":92,"ffd":5414.9,"ffs":0.5974,"g":57,"co":2,"mo":2,"sa":0,"ic":0},"geometry":{"type":"Polygon","coordinates":[[[-2.46511,53.69775],[-2.46515,53.69709],[-2.46374,53.69739],[-2.46306,53.69656],[-2.4613,53.69269],[-2.46217,53.69253],[-2.46251,53.69273],[-2.4632,53.69217],[-2.46222,53.69165],[-2.46194,53.69184],[-2.46148,53.69082],[-2.46284,53.69061],[-2.46272,53.69031],[-2.46473,53.69004],[-2.46494,53.69056],[-2.46608,53.69036],[-2.46626,53.69075],[-2.46913,53.69016],[-2.46902,53.68991],[-2.46985,53.68956],[-2.47154,53.69131],[-2.47121,53.69139],[-2.47147,53.69178],[-2.47097,53.69164],[-2.47069,53.69211],[-2.47183,53.69315],[-2.47061,53.6929],[-2.4702,53.69321],[-2.47085,53.69347],[-2.47039,53.69394],[-2.47146,53.69464],[-2.47036,53.69538],[-2.46953,53.69545],[-2.4684,53.69635],[-2.46871,53.69666],[-2.46661,53.69769],[-2.46665,53.69804],[-2.46511,53.69775]]]}},{"type":"Feature","properties":{"id":"E01012655","name":"E01012655","parent":"E06000008","type":"LSOA","pop":2310,"r":288,"ff":136,"ffd":5887.4,"ffs":0.6018,"g":60,"co":0,"mo":0,"sa":0,"ic":0},"geometry":{"type":"Polygon","coordinates":[[[-2.48594,53.75001],[-2.48552,53.74899],[-2.48442,53.74805],[-2.48456,53.74726],[-2.48264,53.74515],[-2.48238,53.74377],[-2.48697,53.74107],[-2.49017,53.73974],[-2.49072,53.74021],[-2.49047,53.74081],[-2.49336,53.7433],[-2.49889,53.74263],[-2.5008,53.74256],[-2.50118,53.74374],[-2.50045,53.74371],[-2.50068,53.74524],[-2.50153,53.74523],[-2.50156,53.74575],[-2.4964,53.74584],[-2.4976,53.74726],[-2.49762,53.74756],[-2.49709,53.74738],[-2.4968,53.74774],[-2.49629,53.74761],[-2.49507,53.74824],[-2.4949,53.74802],[-2.49397,53.74835],[-2.49373,53.74801],[-2.49501,53.74742],[-2.49397,53.74703],[-2.49283,53.74761],[-2.49178,53.74748],[-2.49096,53.74777],[-2.49125,53.74807],[-2.49267,53.74832],[-2.49292,53.74871],[-2.49137,53.74888],[-2.49089,53.74837],[-2.48874,53.74947],[-2.48769,53.74925],[-2.48694,53.74989],[-2.48594,53.75001]]]}},{"type":"Feature","properties":{"id":"E01012656","name":"E01012656","parent":"E06000008","type":"LSOA","pop":2006,"r":244,"ff":114,"ffd":5683.0,"ffs":0.5969,"g":52,"co":0,"mo":0,"sa":0,"ic":0},"geometry":{"type":"Polygon","coordinates":[[[-2.48609,53.75048],[-2.48594,53.75001],[-2.48694,53.74989],[-2.48769,53.74925],[-2.48874,53.74947],[-2.49089,53.74837],[-2.49137,53.74888],[-2.49292,53.74871],[-2.49267,53.74832],[-2.49125,53.74807],[-2.49096,53.74777],[-2.49178,53.74748],[-2.49283,53.74761],[-2.49397,53.74703],[-2.49501,53.74742],[-2.49373,53.74801],[-2.49397,53.74835],[-2.4949,53.74802],[-2.49507,53.74824],[-2.49552,53.74797],[-2.49585,53.74829],[-2.4951,53.74874],[-2.49611,53.74962],[-2.49533,53.74997],[-2.49544,53.75027],[-2.49633,53.75015],[-2.49604,53.74989],[-2.49736,53.74941],[-2.49658,53.74857],[-2.49718,53.74842],[-2.49792,53.74873],[-2.49862,53.74971],[-2.49778,53.75034],[-2.49395,53.75172],[-2.49105,53.75215],[-2.4887,53.75174],[-2.48609,53.75048]]]}},{"type":"Feature","properties":{"id":"E01012657","name":"E01012657","parent":"E06000008","type":"LSOA","pop":2307,"r":284,"ff":133,"ffd":5765.1,"ffs":0.5964,"g":59,"co":0,"mo":0,"sa":0,"ic":0},"geometry":{"type":"Polygon","coordinates":[[[-2.49792,53.74873],[-2.49718,53.74842],[-2.49658,53.74857],[-2.49736,53.74941],[-2.49604,53.74989],[-2.49633,53.75015],[-2.49544,53.75027],[-2.49533,53.74997],[-2.49611,53.74962],[-2.4951,53.74874],[-2.49585,53.74829],[-2.49552,53.74797],[-2.49629,53.74761],[-2.4968,53.74774],[-2.49709,53.74738],[-2.49762,53.74756],[-2.4976,53.74726],[-2.4964,53.74584],[-2.50156,53.74575],[-2.50119,53.74593],[-2.50163,53.74656],[-2.50043,53.74629],[-2.50079,53.7468],[-2.50038,53.74693],[-2.50196,53.74965],[-2.50061,53.7497],[-2.49778,53.75034],[-2.49862,53.74971],[-2.49792,53.74873]]]}},{"type":"Feature","properties":{"id":"E01012658","name":"E01012658","parent":"E06000008","type":"LSOA","pop":1998,"r":273,"ff":125,"ffd":6256.3,"ffs":0.5896,"g":59,"co":0,"mo":0,"sa":0,"ic":0},"geometry":{"type":"Polygon","coordinates":[[[-2.50079,53.7468],[-2.50043,53.74629],[-2.50163,53.74656],[-2.50119,53.74593],[-2.50156,53.74575],[-2.50153,53.74523],[-2.50068,53.74524],[-2.50045,53.74371],[-2.50118,53.74374],[-2.5008,53.74256],[-2.50543,53.74213],[-2.50736,53.74067],[-2.50841,53.74118],[-2.50851,53.74347],[-2.51041,53.7467],[-2.5023,53.74672],[-2.50052,53.74715],[-2.50038,53.74693],[-2.50079,53.7468]]]}},{"type":"Feature","properties":{"id":"E01012659","name":"E01012659","parent":"E06000008","type":"LSOA","pop":1295,"r":178,"ff":72,"ffd":5559.8,"ffs":0.5806,"g":53,"co":2,"mo":3,"sa":0,"ic":0},"geometry":{"type":"Polygon","coordinates":[[[-2.4645,53.68813],[-2.46208,53.68537],[-2.46275,53.68545],[-2.4633,53.6851],[-2.46346,53.68439],[-2.46253,53.68427],[-2.46169,53.68454],[-2.46133,53.68432],[-2.46099,53.68371],[-2.4614,53.68361],[-2.46065,53.68168],[-2.46148,53.68126],[-2.46304,53.68113],[-2.46295,53.68076],[-2.46188,53.68087],[-2.4629,53.68044],[-2.46263,53.68024],[-2.46463,53.67839],[-2.46607,53.67817],[-2.46833,53.67836],[-2.46929,53.67925],[-2.46913,53.67995],[-2.46743,53.68135],[-2.46674,53.68154],[-2.46666,53.68216],[-2.4658,53.6821],[-2.46529,53.68319],[-2.46602,53.68388],[-2.46895,53.68324],[-2.4703,53.68497],[-2.4716,53.68561],[-2.47171,53.6864],[-2.47089,53.68672],[-2.46996,53.68891],[-2.47038,53.68936],[-2.46902,53.68991],[-2.46913,53.69016],[-2.46626,53.69075],[-2.46504,53.68858],[-2.4645,53.68813]]]}},{"type":"Feature","properties":{"id":"E01012660","name":"E01012660","parent":"E06000008","type":"LSOA","pop":1131,"r":178,"ff":75,"ffd":6631.3,"ffs":0.6,"g":52,"co":2,"mo":1,"sa":0,"ic":0},"geometry":{"type":"Polygon","coordinates":[[[-2.46188,53.68087],[-2.46098,53.68061],[-2.45963,53.68098],[-2.46175,53.6795],[-2.46126,53.67918],[-2.46051,53.67965],[-2.45877,53.67989],[-2.45893,53.68011],[-2.45862,53.67981],[-2.45704,53.67745],[-2.45662,53.67754],[-2.45672,53.67823],[-2.45783,53.67954],[-2.45745,53.67967],[-2.4578,53.68007],[-2.45828,53.68001],[-2.45824,53.68033],[-2.45568,53.68135],[-2.45619,53.68167],[-2.45521,53.68216],[-2.45618,53.68285],[-2.45523,53.68305],[-2.4566,53.68471],[-2.45605,53.68465],[-2.45261,53.6828],[-2.45011,53.68028],[-2.44891,53.67983],[-2.44782,53.67817],[-2.44805,53.67604],[-2.44703,53.67433],[-2.44482,53.67299],[-2.44561,53.67199],[-2.44468,53.67166],[-2.44802,53.67038],[-2.44744,53.66835],[-2.4466,53.66638],[-2.44479,53.66465],[-2.44549,53.66086],[-2.44511,53.65889],[-2.44445,53.65856],[-2.44692,53.65793],[-2.44785,53.65818],[-2.44837,53.65856],[-2.44841,53.65969],[-2.45056,53.66141],[-2.45074,53.66123],[-2.45225,53.66157],[-2.45404,53.66238],[-2.45706,53.66296],[-2.45785,53.66359],[-2.46027,53.6644],[-2.46204,53.66458],[-2.46582,53.66354],[-2.46932,53.66371],[-2.47157,53.66429],[-2.47634,53.66379],[-2.48339,53.66439],[-2.48759,53.66539],[-2.49285,53.66533],[-2.49334,53.66664],[-2.49824,53.67204],[-2.49674,53.6726],[-2.49559,53.67499],[-2.4961,53.6766],[-2.49709,53.67781],[-2.4842,53.6836],[-2.48012,53.68682],[-2.47796,53.68744],[-2.4772,53.68829],[-2.47572,53.68886],[-2.47443,53.68898],[-2.47215,53.68857],[-2.47038,53.68936],[-2.46996,53.68891],[-2.47089,53.68672],[-2.47171,53.6864],[-2.4716,53.68561],[-2.4703,53.68497],[-2.46895,53.68324],[-2.46602,53.68388],[-2.46529,53.68319],[-2.4658,53.6821],[-2.46666,53.68216],[-2.46674,53.68154],[-2.46743,53.68135],[-2.46913,53.67995],[-2.46929,53.67925],[-2.46833,53.67836],[-2.46607,53.67817],[-2.46463,53.67839],[-2.46263,53.68024],[-2.4629,53.68044],[-2.46188,53.68087]]]}},{"type":"Feature","properties":{"id":"E01012661","name":"E01012661","parent":"E06000008","type":"LSOA","pop":1478,"r":172,"ff":69,"ffd":4668.5,"ffs":0.5798,"g":52,"co":2,"mo":3,"sa":0,"ic":0},"geometry":{"type":"Polygon","coordinates":[[[-2.4566,53.68471],[-2.45523,53.68305],[-2.45618,53.68285],[-2.45521,53.68216],[-2.45619,53.68167],[-2.45568,53.68135],[-2.45824,53.68033],[-2.45828,53.68001],[-2.4578,53.68007],[-2.45745,53.67967],[-2.45783,53.67954],[-2.45672,53.67823],[-2.45662,53.67754],[-2.45704,53.67745],[-2.45862,53.67981],[-2.45893,53.68011],[-2.45877,53.67989],[-2.46051,53.67965],[-2.46126,53.67918],[-2.46175,53.6795],[-2.45963,53.68098],[-2.46098,53.68061],[-2.46188,53.68087],[-2.46295,53.68076],[-2.46304,53.68113],[-2.46148,53.68126],[-2.46065,53.68168],[-2.4614,53.68361],[-2.46099,53.68371],[-2.46133,53.68432],[-2.46169,53.68454],[-2.46253,53.68427],[-2.46346,53.68439],[-2.4633,53.6851],[-2.46275,53.68545],[-2.46171,53.68527],[-2.45953,53.68575],[-2.45911,53.68503],[-2.4566,53.68471]]]}},{"type":"Feature","properties":{"id":"E01032485","name":"E01032485","parent":"E06000008","type":"LSOA","pop":1979,"r":119,"ff":51,"ffd":2577.1,"ffs":0.5795,"g":30,"co":2,"mo":0,"sa":0,"ic":0},"geometry":{"type":"Polygon","coordinates":[[[-2.40134,53.69509],[-2.40015,53.69249],[-2.39153,53.68862],[-2.38479,53.68824],[-2.38316,53.68858],[-2.38089,53.68858],[-2.37442,53.68725],[-2.37571,53.68184],[-2.37593,53.67564],[-2.37406,53.67139],[-2.36897,53.66332],[-2.36264,53.65599],[-2.36297,53.65492],[-2.36546,53.65203],[-2.36614,53.65065],[-2.36707,53.64761],[-2.36668,53.64679],[-2.36706,53.64506],[-2.36921,53.6451],[-2.37048,53.64471],[-2.3725,53.64203],[-2.37011,53.63809],[-2.3685,53.63802],[-2.369,53.63714],[-2.36833,53.63657],[-2.36856,53.63508],[-2.36993,53.63373],[-2.37023,53.63317],[-2.36983,53.63258],[-2.37053,53.63178],[-2.37033,53.63153],[-2.3709,53.6314],[-2.37092,53.63202],[-2.37629,53.63181],[-2.37664,53.63114],[-2.37913,53.63087],[-2.38368,53.63124],[-2.38502,53.63182],[-2.38595,53.63301],[-2.39785,53.63221],[-2.39873,53.6317],[-2.40079,53.62906],[-2.40026,53.62895],[-2.40001,53.62828],[-2.40121,53.6246],[-2.40354,53.62441],[-2.40444,53.62506],[-2.4091,53.62544],[-2.41362,53.62473],[-2.41601,53.62382],[-2.42126,53.62379],[-2.4256,53.62588],[-2.42635,53.62652],[-2.42588,53.6282],[-2.42614,53.63501],[-2.43058,53.63839],[-2.43265,53.64138],[-2.4383,53.64579],[-2.43872,53.64605],[-2.44229,53.64378],[-2.44303,53.64306],[-2.44308,53.64241],[-2.44526,53.64202],[-2.44562,53.64162],[-2.44598,53.64164],[-2.44586,53.64192],[-2.44674,53.64145],[-2.44885,53.64207],[-2.44994,53.6419],[-2.44979,53.64152],[-2.45114,53.64315],[-2.45419,53.64402],[-2.45581,53.64499],[-2.45651,53.65027],[-2.45559,53.65278],[-2.44907,53.66014],[-2.44841,53.65969],[-2.44837,53.65856],[-2.44785,53.65818],[-2.44692,53.65793],[-2.44445,53.65856],[-2.44511,53.65889],[-2.44549,53.66086],[-2.44479,53.66465],[-2.4466,53.66638],[-2.44744,53.66835],[-2.44802,53.67038],[-2.43323,53.67591],[-2.43176,53.67545],[-2.42709,53.67479],[-2.42641,53.67298],[-2.42531,53.67168],[-2.42312,53.67296],[-2.42305,53.67388],[-2.42216,53.67436],[-2.42196,53.67558],[-2.42098,53.67692],[-2.42139,53.67804],[-2.4206,53.67944],[-2.42133,53.68027],[-2.42038,53.68073],[-2.41772,53.68081],[-2.41375,53.68149],[-2.41129,53.68228],[-2.41119,53.68909],[-2.41195,53.69249],[-2.41185,53.69421],[-2.40946,53.69414],[-2.40536,53.69487],[-2.40313,53.69642],[-2.40134,53.69509]],[[-2.39208,53.65439],[-2.39507,53.65325],[-2.39635,53.65346],[-2.39839,53.65315],[-2.40002,53.65321],[-2.40049,53.65368],[-2.40129,53.65347],[-2.40154,53.6538],[-2.40401,53.65418],[-2.40301,53.65316],[-2.40543,53.65221],[-2.40727,53.65249],[-2.40587,53.65221],[-2.40452,53.64892],[-2.40381,53.64806],[-2.40165,53.64796],[-2.401,53.64736],[-2.39659,53.64768],[-2.39594,53.64712],[-2.39655,53.64694],[-2.39626,53.64598],[-2.39666,53.64466],[-2.39506,53.64369],[-2.39569,53.64328],[-2.39686,53.6432],[-2.39625,53.64263],[-2.39465,53.64348],[-2.39426,53.64244],[-2.39465,53.64176],[-2.39598,53.64143],[-2.39649,53.64177],[-2.39625,53.64103],[-2.39662,53.64045],[-2.39268,53.63986],[-2.39142,53.63907],[-2.3902,53.64006],[-2.39125,53.64167],[-2.39068,53.64237],[-2.39084,53.64318],[-2.38464,53.6447],[-2.38685,53.6468],[-2.38699,53.64836],[-2.3846,53.64982],[-2.38795,53.65119],[-2.38932,53.65105],[-2.39068,53.65159],[-2.39282,53.6512],[-2.39281,53.65222],[-2.39165,53.65285],[-2.39061,53.65408],[-2.39208,53.65439]]]}},{"type":"Feature","properties":{"id":"E01032486","name":"E01032486","parent":"E06000008","type":"LSOA","pop":1254,"r":148,"ff":50,"ffd":3987.2,"ffs":0.495,"g":45,"co":2,"mo":0,"sa":0,"ic":0},"geometry":{"type":"Polygon","coordinates":[[[-2.39061,53.65408],[-2.39165,53.65285],[-2.39281,53.65222],[-2.39282,53.6512],[-2.39068,53.65159],[-2.38932,53.65105],[-2.38795,53.65119],[-2.3846,53.64982],[-2.38699,53.64836],[-2.38685,53.6468],[-2.38464,53.6447],[-2.39084,53.64318],[-2.39068,53.64237],[-2.39125,53.64167],[-2.3902,53.64006],[-2.39142,53.63907],[-2.39268,53.63986],[-2.39662,53.64045],[-2.39625,53.64103],[-2.39649,53.64177],[-2.39598,53.64143],[-2.39465,53.64176],[-2.39426,53.64244],[-2.39465,53.64348],[-2.39625,53.64263],[-2.39686,53.6432],[-2.39569,53.64328],[-2.39506,53.64369],[-2.39666,53.64466],[-2.39626,53.64598],[-2.39655,53.64694],[-2.39594,53.64712],[-2.39659,53.64768],[-2.401,53.64736],[-2.40165,53.64796],[-2.40381,53.64806],[-2.40452,53.64892],[-2.40587,53.65221],[-2.40727,53.65249],[-2.40543,53.65221],[-2.40301,53.65316],[-2.40401,53.65418],[-2.40154,53.6538],[-2.40129,53.65347],[-2.40049,53.65368],[-2.40002,53.65321],[-2.39839,53.65315],[-2.39635,53.65346],[-2.39507,53.65325],[-2.39208,53.65439],[-2.39061,53.65408]]]}}]}