{"type":"FeatureCollection","features":[{"type":"Feature","properties":{"id":"E01015693","name":"E01015693","parent":"E06000032","type":"LSOA","pop":1776,"r":316,"ff":141,"ffd":7939.2,"ffs":0.4913,"g":28,"co":0,"mo":2,"sa":0,"ic":0},"geometry":{"type":"Polygon","coordinates":[[[-0.41697,51.9054],[-0.41687,51.90488],[-0.41621,51.90498],[-0.41626,51.90467],[-0.41395,51.90359],[-0.41379,51.90308],[-0.41124,51.90158],[-0.41015,51.9017],[-0.40971,51.90206],[-0.40905,51.90225],[-0.40778,51.90199],[-0.40841,51.90185],[-0.40826,51.9013],[-0.40931,51.90129],[-0.41012,51.90064],[-0.41007,51.89959],[-0.41094,51.89945],[-0.41096,51.89785],[-0.41183,51.89647],[-0.41337,51.8967],[-0.4181,51.89665],[-0.41811,51.89704],[-0.41665,51.89721],[-0.41646,51.89853],[-0.41672,51.89899],[-0.41797,51.89916],[-0.41873,51.90302],[-0.4174,51.9032],[-0.41731,51.9048],[-0.41775,51.90516],[-0.41697,51.9054]]]}},{"type":"Feature","properties":{"id":"E01015694","name":"E01015694","parent":"E06000032","type":"LSOA","pop":1893,"r":338,"ff":154,"ffd":8135.2,"ffs":0.5,"g":29,"co":0,"mo":2,"sa":0,"ic":0},"geometry":{"type":"Polygon","coordinates":[[[-0.41873,51.90302],[-0.41855,51.90166],[-0.41897,51.90208],[-0.41981,51.90197],[-0.42092,51.90085],[-0.42128,51.90112],[-0.42203,51.90103],[-0.42129,51.89859],[-0.42194,51.89854],[-0.42253,51.90014],[-0.42299,51.9],[-0.42281,51.90091],[-0.42383,51.90074],[-0.42373,51.90027],[-0.42625,51.89981],[-0.42658,51.90025],[-0.42779,51.90006],[-0.42843,51.90196],[-0.42886,51.90227],[-0.4289,51.90264],[-0.42449,51.9034],[-0.42523,51.90345],[-0.42583,51.90434],[-0.42312,51.90459],[-0.42377,51.90686],[-0.42294,51.90718],[-0.41736,51.90825],[-0.41697,51.9054],[-0.41775,51.90516],[-0.41731,51.9048],[-0.4174,51.9032],[-0.41873,51.90302]]]}},{"type":"Feature","properties":{"id":"E01015695","name":"E01015695","parent":"E06000032","type":"LSOA","pop":1872,"r":336,"ff":154,"ffd":8226.5,"ffs":0.5016,"g":28,"co":0,"mo":2,"sa":0,"ic":0},"geometry":{"type":"Polygon","coordinates":[[[-0.41855,51.90166],[-0.41797,51.89916],[-0.41672,51.89899],[-0.41646,51.89853],[-0.41665,51.89721],[-0.41811,51.89704],[-0.4181,51.89665],[-0.42698,51.89646],[-0.42779,51.90006],[-0.42658,51.90025],[-0.42625,51.89981],[-0.42373,51.90027],[-0.42383,51.90074],[-0.42281,51.90091],[-0.42299,51.9],[-0.42253,51.90014],[-0.42194,51.89854],[-0.42129,51.89859],[-0.42203,51.90103],[-0.42128,51.90112],[-0.42092,51.90085],[-0.41981,51.90197],[-0.41897,51.90208],[-0.41855,51.90166]]]}},{"type":"Feature","properties":{"id":"E01015696","name":"E01015696","parent":"E06000032","type":"LSOA","pop":1372,"r":307,"ff":137,"ffd":9985.4,"ffs":0.4928,"g":28,"co":0,"mo":2,"sa":0,"ic":0},"geometry":{"type":"Polygon","coordinates":[[[-0.40758,51.9107],[-0.40871,51.90879],[-0.40951,51.9091],[-0.4112,51.90859],[-0.41233,51.90898],[-0.41451,51.90842],[-0.4151,51.90857],[-0.4149,51.90825],[-0.4155,51.90785],[-0.41558,51.9071],[-0.41645,51.90739],[-0.41668,51.90854],[-0.4144,51.90931],[-0.4152,51.90977],[-0.41422,51.90994],[-0.41407,51.91035],[-0.41531,51.91074],[-0.41562,51.91023],[-0.4172,51.91001],[-0.41744,51.91052],[-0.41825,51.91043],[-0.41829,51.91106],[-0.41902,51.9123],[-0.41824,51.91274],[-0.41589,51.91186],[-0.41318,51.91135],[-0.40758,51.9107]]]}},{"type":"Feature","properties":{"id":"E01015697","name":"E01015697","parent":"E06000032","type":"LSOA","pop":1740,"r":306,"ff":137,"ffd":7873.6,"ffs":0.4928,"g":27,"co":0,"mo":2,"sa":0,"ic":0},"geometry":{"type":"Polygon","coordinates":[[[-0.41407,51.91035],[-0.41422,51.90994],[-0.4152,51.90977],[-0.4144,51.90931],[-0.41668,51.90854],[-0.41645,51.90739],[-0.41558,51.9071],[-0.4155,51.90785],[-0.4149,51.90825],[-0.4151,51.90857],[-0.41451,51.90842],[-0.41233,51.90898],[-0.4112,51.90859],[-0.40951,51.9091],[-0.40871,51.90879],[-0.41,51.90665],[-0.40899,51.9066],[-0.40895,51.90481],[-0.40934,51.90488],[-0.40907,51.90459],[-0.40975,51.90294],[-0.41031,51.90288],[-0.40971,51.90206],[-0.41015,51.9017],[-0.41124,51.90158],[-0.41379,51.90308],[-0.41395,51.90359],[-0.41626,51.90467],[-0.41621,51.90498],[-0.41687,51.90488],[-0.41736,51.90825],[-0.41825,51.91043],[-0.41744,51.91052],[-0.4172,51.91001],[-0.41562,51.91023],[-0.41531,51.91074],[-0.41407,51.91035]]]}},{"type":"Feature","properties":{"id":"E01015698","name":"E01015698","parent":"E06000032","type":"LSOA","pop":1816,"r":337,"ff":153,"ffd":8425.1,"ffs":0.5033,"g":31,"co":0,"mo":2,"sa":0,"ic":0},"geometry":{"type":"Polygon","coordinates":[[[-0.42124,51.88895],[-0.42116,51.88772],[-0.42456,51.88661],[-0.42478,51.886],[-0.42654,51.88531],[-0.42649,51.88462],[-0.42714,51.88437],[-0.42797,51.88512],[-0.42975,51.88619],[-0.42898,51.88643],[-0.42919,51.88745],[-0.42745,51.88641],[-0.42663,51.88695],[-0.4271,51.88688],[-0.42769,51.8876],[-0.42656,51.88835],[-0.42718,51.88905],[-0.42666,51.8892],[-0.42604,51.88888],[-0.42121,51.89017],[-0.42124,51.88895]]]}},{"type":"Feature","properties":{"id":"E01015699","name":"E01015699","parent":"E06000032","type":"LSOA","pop":2084,"r":348,"ff":155,"ffd":7437.6,"ffs":0.4984,"g":35,"co":0,"mo":2,"sa":0,"ic":0},"geometry":{"type":"Polygon","coordinates":[[[-0.42286,51.88237],[-0.42496,51.88238],[-0.42714,51.88437],[-0.42649,51.88462],[-0.42654,51.88531],[-0.42478,51.886],[-0.42456,51.88661],[-0.42116,51.88772],[-0.42094,51.88596],[-0.42045,51.88442],[-0.42065,51.88348],[-0.41954,51.88299],[-0.41905,51.88234],[-0.42286,51.88237]]]}},{"type":"Feature","properties":{"id":"E01015700","name":"E01015700","parent":"E06000032","type":"LSOA","pop":2982,"r":334,"ff":154,"ffd":5164.3,"ffs":0.5083,"g":30,"co":0,"mo":2,"sa":0,"ic":0},"geometry":{"type":"Polygon","coordinates":[[[-0.42091,51.89663],[-0.42121,51.89017],[-0.42185,51.88998],[-0.42207,51.89058],[-0.4225,51.89036],[-0.42529,51.89081],[-0.42678,51.89201],[-0.42698,51.89295],[-0.42665,51.89312],[-0.42762,51.89313],[-0.42841,51.89348],[-0.43069,51.89547],[-0.43111,51.89563],[-0.43077,51.89597],[-0.4318,51.89595],[-0.43265,51.89629],[-0.42091,51.89663]]]}},{"type":"Feature","properties":{"id":"E01015701","name":"E01015701","parent":"E06000032","type":"LSOA","pop":2296,"r":337,"ff":155,"ffd":6750.9,"ffs":0.5049,"g":28,"co":0,"mo":2,"sa":0,"ic":0},"geometry":{"type":"Polygon","coordinates":[[[-0.43298,51.8963],[-0.4318,51.89595],[-0.43077,51.89597],[-0.43111,51.89563],[-0.43069,51.89547],[-0.43127,51.89514],[-0.43092,51.8946],[-0.43149,51.89443],[-0.42992,51.89245],[-0.43045,51.89229],[-0.43066,51.89253],[-0.4333,51.89162],[-0.4344,51.89197],[-0.43488,51.89129],[-0.43723,51.89276],[-0.43735,51.89247],[-0.4384,51.89313],[-0.43703,51.89405],[-0.43758,51.89438],[-0.43544,51.89568],[-0.43298,51.8963]]]}},{"type":"Feature","properties":{"id":"E01015702","name":"E01015702","parent":"E06000032","type":"LSOA","pop":2035,"r":336,"ff":154,"ffd":7567.6,"ffs":0.5033,"g":29,"co":0,"mo":2,"sa":0,"ic":0},"geometry":{"type":"Polygon","coordinates":[[[-0.42841,51.89348],[-0.42762,51.89313],[-0.42665,51.89312],[-0.42698,51.89295],[-0.42678,51.89201],[-0.42529,51.89081],[-0.4225,51.89036],[-0.42207,51.89058],[-0.42185,51.88998],[-0.42604,51.88888],[-0.42666,51.8892],[-0.42718,51.88905],[-0.42656,51.88835],[-0.4278,51.88794],[-0.42809,51.88815],[-0.42916,51.88802],[-0.42852,51.88852],[-0.42923,51.88901],[-0.42744,51.88931],[-0.42772,51.88967],[-0.4286,51.88955],[-0.42903,51.89008],[-0.42825,51.89034],[-0.42842,51.89056],[-0.42887,51.89045],[-0.42864,51.89084],[-0.42906,51.89073],[-0.42978,51.89151],[-0.4295,51.89192],[-0.43149,51.89443],[-0.43092,51.8946],[-0.43127,51.89514],[-0.43069,51.89547],[-0.42841,51.89348]]]}},{"type":"Feature","properties":{"id":"E01015703","name":"E01015703","parent":"E06000032","type":"LSOA","pop":2146,"r":359,"ff":166,"ffd":7735.3,"ffs":0.5108,"g":32,"co":0,"mo":2,"sa":0,"ic":0},"geometry":{"type":"Polygon","coordinates":[[[-0.43807,51.89173],[-0.43713,51.89129],[-0.43667,51.89145],[-0.43614,51.89111],[-0.43641,51.89079],[-0.4356,51.89078],[-0.43557,51.89028],[-0.43492,51.89033],[-0.43435,51.8896],[-0.43331,51.88933],[-0.43329,51.88861],[-0.43421,51.88876],[-0.43455,51.88775],[-0.43654,51.8873],[-0.44108,51.88973],[-0.44028,51.8904],[-0.43807,51.89173]]]}},{"type":"Feature","properties":{"id":"E01015704","name":"E01015704","parent":"E06000032","type":"LSOA","pop":2246,"r":338,"ff":155,"ffd":6901.2,"ffs":0.5032,"g":28,"co":0,"mo":2,"sa":0,"ic":0},"geometry":{"type":"Polygon","coordinates":[[[-0.43723,51.89276],[-0.43488,51.89129],[-0.4344,51.89197],[-0.4333,51.89162],[-0.43066,51.89253],[-0.43045,51.89229],[-0.42992,51.89245],[-0.4295,51.89192],[-0.42978,51.89151],[-0.42906,51.89073],[-0.42864,51.89084],[-0.42887,51.89045],[-0.43034,51.88988],[-0.43238,51.88938],[-0.43229,51.88866],[-0.43294,51.88839],[-0.43329,51.88861],[-0.43331,51.88933],[-0.43435,51.8896],[-0.43492,51.89033],[-0.43557,51.89028],[-0.4356,51.89078],[-0.43641,51.89079],[-0.43614,51.89111],[-0.43667,51.89145],[-0.43713,51.89129],[-0.43807,51.89173],[-0.43723,51.89276]]]}},{"type":"Feature","properties":{"id":"E01015705","name":"E01015705","parent":"E06000032","type":"LSOA","pop":1813,"r":256,"ff":119,"ffd":6563.7,"ffs":0.5174,"g":24,"co":0,"mo":2,"sa":0,"ic":0},"geometry":{"type":"Polygon","coordinates":[[[-0.42903,51.89008],[-0.4286,51.88955],[-0.42772,51.88967],[-0.42744,51.88931],[-0.42923,51.88901],[-0.42852,51.88852],[-0.42916,51.88802],[-0.42809,51.88815],[-0.4278,51.88794],[-0.427,51.8882],[-0.42769,51.8876],[-0.4271,51.88688],[-0.42663,51.88695],[-0.42745,51.88641],[-0.42919,51.88745],[-0.42898,51.88643],[-0.42975,51.88619],[-0.43215,51.88686],[-0.43584,51.88706],[-0.43654,51.8873],[-0.43455,51.88775],[-0.43421,51.88876],[-0.43294,51.88839],[-0.43229,51.88866],[-0.43238,51.88938],[-0.42842,51.89056],[-0.42825,51.89034],[-0.42903,51.89008]]]}},{"type":"Feature","properties":{"id":"E01015706","name":"E01015706","parent":"E06000032","type":"LSOA","pop":1490,"r":262,"ff":124,"ffd":8322.1,"ffs":0.5188,"g":22,"co":2,"mo":2,"sa":0,"ic":0},"geometry":{"type":"Polygon","coordinates":[[[-0.43963,51.92608],[-0.43916,51.92353],[-0.43858,51.92201],[-0.43726,51.92072],[-0.43351,51.92206],[-0.43352,51.92147],[-0.43417,51.92057],[-0.43599,51.91964],[-0.43719,51.91987],[-0.43768,51.91953],[-0.4395,51.92033],[-0.4403,51.92093],[-0.44092,51.92068],[-0.4404,51.92026],[-0.44114,51.91992],[-0.44148,51.92045],[-0.4421,51.92029],[-0.44245,51.9208],[-0.44295,51.92084],[-0.44285,51.92118],[-0.44325,51.9213],[-0.4435,51.92104],[-0.44432,51.92127],[-0.44466,51.92162],[-0.44428,51.92204],[-0.4447,51.92199],[-0.44511,51.92263],[-0.44466,51.92274],[-0.4445,51.92253],[-0.44354,51.92282],[-0.44288,51.92229],[-0.44139,51.92245],[-0.44146,51.92317],[-0.44278,51.92433],[-0.4447,51.92463],[-0.44447,51.92374],[-0.44508,51.92349],[-0.44531,51.92386],[-0.4466,51.92408],[-0.44602,51.92462],[-0.4464,51.92559],[-0.44124,51.92618],[-0.43963,51.92608]]]}},{"type":"Feature","properties":{"id":"E01015707","name":"E01015707","parent":"E06000032","type":"LSOA","pop":1542,"r":298,"ff":141,"ffd":9144.0,"ffs":0.5203,"g":26,"co":2,"mo":2,"sa":0,"ic":0},"geometry":{"type":"Polygon","coordinates":[[[-0.42168,51.92568],[-0.42219,51.92301],[-0.42236,51.92052],[-0.42675,51.92129],[-0.4281,51.9212],[-0.42861,51.92171],[-0.42953,51.92055],[-0.43109,51.92113],[-0.43352,51.92147],[-0.43351,51.92206],[-0.43628,51.92107],[-0.43728,51.92212],[-0.43533,51.92271],[-0.43509,51.92314],[-0.43403,51.92326],[-0.43368,51.92269],[-0.43107,51.92285],[-0.431,51.92356],[-0.4317,51.9242],[-0.42931,51.92419],[-0.42996,51.9255],[-0.42849,51.92562],[-0.42683,51.92527],[-0.4269,51.92562],[-0.42751,51.92563],[-0.42795,51.92682],[-0.42604,51.92669],[-0.42168,51.92568]]]}},{"type":"Feature","properties":{"id":"E01015708","name":"E01015708","parent":"E06000032","type":"LSOA","pop":1392,"r":282,"ff":131,"ffd":9410.9,"ffs":0.5117,"g":25,"co":2,"mo":2,"sa":0,"ic":0},"geometry":{"type":"Polygon","coordinates":[[[-0.42795,51.92682],[-0.42751,51.92563],[-0.4269,51.92562],[-0.42683,51.92527],[-0.42849,51.92562],[-0.42996,51.9255],[-0.42931,51.92419],[-0.4317,51.9242],[-0.431,51.92356],[-0.43107,51.92285],[-0.43368,51.92269],[-0.43403,51.92326],[-0.43509,51.92314],[-0.43533,51.92271],[-0.43728,51.92212],[-0.43628,51.92107],[-0.43726,51.92072],[-0.43858,51.92201],[-0.43916,51.92353],[-0.43963,51.92608],[-0.43848,51.92605],[-0.43872,51.92703],[-0.43782,51.92775],[-0.43051,51.92692],[-0.42795,51.92682]]]}},{"type":"Feature","properties":{"id":"E01015709","name":"E01015709","parent":"E06000032","type":"LSOA","pop":1577,"r":259,"ff":124,"ffd":7863.0,"ffs":0.5232,"g":21,"co":2,"mo":2,"sa":0,"ic":0},"geometry":{"type":"Polygon","coordinates":[[[-0.4464,51.92559],[-0.44602,51.92462],[-0.4466,51.92408],[-0.44531,51.92386],[-0.44508,51.92349],[-0.44447,51.92374],[-0.4447,51.92463],[-0.44278,51.92433],[-0.44146,51.92317],[-0.44139,51.92245],[-0.44288,51.92229],[-0.44354,51.92282],[-0.4445,51.92253],[-0.44466,51.92274],[-0.44511,51.92263],[-0.4447,51.92199],[-0.44428,51.92204],[-0.44466,51.92162],[-0.44432,51.92127],[-0.4435,51.92104],[-0.44325,51.9213],[-0.44285,51.92118],[-0.44295,51.92084],[-0.44245,51.9208],[-0.4421,51.92029],[-0.44148,51.92045],[-0.44114,51.91992],[-0.4404,51.92026],[-0.44092,51.92068],[-0.4403,51.92093],[-0.4395,51.92033],[-0.43768,51.91953],[-0.43905,51.91862],[-0.43805,51.91817],[-0.43813,51.91794],[-0.43855,51.91802],[-0.43873,51.91754],[-0.44133,51.91684],[-0.44125,51.91578],[-0.44228,51.9159],[-0.44221,51.91478],[-0.44299,51.91432],[-0.44439,51.91759],[-0.44352,51.91827],[-0.44481,51.91946],[-0.44559,51.91908],[-0.44806,51.92024],[-0.44909,51.92013],[-0.45214,51.92172],[-0.453,51.9231],[-0.45116,51.92342],[-0.45184,51.92476],[-0.4503,51.92473],[-0.4464,51.92559]]]}},{"type":"Feature","properties":{"id":"E01015710","name":"E01015710","parent":"E06000032","type":"LSOA","pop":1582,"r":301,"ff":137,"ffd":8659.9,"ffs":0.5037,"g":27,"co":2,"mo":2,"sa":0,"ic":0},"geometry":{"type":"Polygon","coordinates":[[[-0.42953,51.92055],[-0.43248,51.91783],[-0.43454,51.91628],[-0.43767,51.91438],[-0.44299,51.91432],[-0.44221,51.91478],[-0.44228,51.9159],[-0.44125,51.91578],[-0.44133,51.91684],[-0.43873,51.91754],[-0.43855,51.91802],[-0.43813,51.91794],[-0.43805,51.91817],[-0.43905,51.91862],[-0.43719,51.91987],[-0.43599,51.91964],[-0.43417,51.92057],[-0.43352,51.92147],[-0.43109,51.92113],[-0.42953,51.92055]]]}},{"type":"Feature","properties":{"id":"E01015711","name":"E01015711","parent":"E06000032","type":"LSOA","pop":2073,"r":245,"ff":112,"ffd":5402.8,"ffs":0.5209,"g":29,"co":0,"mo":0,"sa":0,"ic":0},"geometry":{"type":"Polygon","coordinates":[[[-0.45677,51.89845],[-0.45638,51.89819],[-0.45556,51.89833],[-0.45552,51.89789],[-0.4548,51.89765],[-0.45232,51.89544],[-0.45216,51.8948],[-0.45256,51.89211],[-0.45454,51.89195],[-0.45485,51.89177],[-0.45605,51.89259],[-0.45642,51.89254],[-0.45644,51.89202],[-0.45701,51.89209],[-0.45684,51.89246],[-0.45895,51.89292],[-0.45906,51.89425],[-0.45878,51.89545],[-0.4576,51.89548],[-0.45904,51.89758],[-0.45677,51.89845]]]}},{"type":"Feature","properties":{"id":"E01015712","name":"E01015712","parent":"E06000032","type":"LSOA","pop":2166,"r":386,"ff":174,"ffd":8033.2,"ffs":0.5043,"g":39,"co":0,"mo":0,"sa":0,"ic":0},"geometry":{"type":"Polygon","coordinates":[[[-0.46873,51.90006],[-0.46749,51.89846],[-0.46625,51.89624],[-0.46544,51.89614],[-0.46514,51.89639],[-0.46421,51.89597],[-0.46341,51.89642],[-0.46269,51.89573],[-0.46199,51.89586],[-0.46124,51.89639],[-0.46014,51.89659],[-0.45936,51.8977],[-0.45904,51.89758],[-0.4576,51.89548],[-0.45878,51.89545],[-0.45906,51.89425],[-0.45895,51.89292],[-0.45684,51.89246],[-0.45701,51.89209],[-0.45644,51.89202],[-0.45642,51.89254],[-0.45605,51.89259],[-0.45485,51.89177],[-0.45498,51.89142],[-0.45645,51.89184],[-0.45649,51.8912],[-0.45777,51.89091],[-0.45989,51.89189],[-0.46001,51.89137],[-0.46057,51.89137],[-0.46077,51.89097],[-0.4632,51.8909],[-0.46314,51.89029],[-0.46234,51.88965],[-0.46346,51.88872],[-0.46385,51.88895],[-0.46346,51.89235],[-0.46901,51.89336],[-0.46976,51.89528],[-0.46869,51.89627],[-0.46941,51.89802],[-0.47127,51.89802],[-0.47197,51.8991],[-0.47171,51.89882],[-0.46873,51.90006]]]}},{"type":"Feature","properties":{"id":"E01015713","name":"E01015713","parent":"E06000032","type":"LSOA","pop":1698,"r":408,"ff":184,"ffd":10836.3,"ffs":0.5097,"g":45,"co":0,"mo":2,"sa":0,"ic":0},"geometry":{"type":"Polygon","coordinates":[[[-0.47283,51.89609],[-0.47256,51.89571],[-0.47206,51.89584],[-0.47156,51.89551],[-0.46976,51.89528],[-0.46901,51.89336],[-0.46346,51.89235],[-0.46352,51.89205],[-0.46493,51.89228],[-0.46529,51.88897],[-0.46594,51.88914],[-0.46617,51.88873],[-0.46785,51.88873],[-0.46698,51.88826],[-0.47274,51.88828],[-0.47272,51.88887],[-0.47356,51.8889],[-0.47325,51.89062],[-0.47059,51.89071],[-0.47042,51.89042],[-0.46991,51.8905],[-0.47017,51.89098],[-0.47097,51.89098],[-0.47101,51.89129],[-0.46914,51.89172],[-0.46923,51.89273],[-0.47205,51.89263],[-0.47247,51.89284],[-0.47421,51.89253],[-0.47436,51.89292],[-0.47509,51.89283],[-0.47678,51.89529],[-0.47641,51.89546],[-0.47563,51.8949],[-0.47396,51.89516],[-0.47433,51.89582],[-0.47283,51.89609]]]}},{"type":"Feature","properties":{"id":"E01015714","name":"E01015714","parent":"E06000032","type":"LSOA","pop":2048,"r":388,"ff":175,"ffd":8544.9,"ffs":0.5087,"g":42,"co":0,"mo":0,"sa":0,"ic":0},"geometry":{"type":"Polygon","coordinates":[[[-0.47436,51.89292],[-0.47421,51.89253],[-0.47247,51.89284],[-0.47205,51.89263],[-0.46923,51.89273],[-0.46914,51.89172],[-0.47101,51.89129],[-0.47097,51.89098],[-0.47017,51.89098],[-0.46991,51.8905],[-0.47042,51.89042],[-0.47059,51.89071],[-0.47325,51.89062],[-0.47356,51.8889],[-0.47272,51.88887],[-0.47274,51.88828],[-0.47706,51.88843],[-0.48394,51.8883],[-0.48411,51.88946],[-0.48484,51.89131],[-0.48018,51.89234],[-0.47436,51.89292]]]}},{"type":"Feature","properties":{"id":"E01015715","name":"E01015715","parent":"E06000032","type":"LSOA","pop":2261,"r":393,"ff":174,"ffd":7695.7,"ffs":0.4929,"g":38,"co":0,"mo":2,"sa":0,"ic":0},"geometry":{"type":"Polygon","coordinates":[[[-0.46352,51.89205],[-0.46385,51.88895],[-0.46346,51.88872],[-0.46234,51.88965],[-0.46314,51.89029],[-0.4632,51.8909],[-0.46077,51.89097],[-0.46057,51.89137],[-0.46001,51.89137],[-0.45989,51.89189],[-0.45777,51.89091],[-0.45649,51.8912],[-0.45645,51.89184],[-0.45498,51.89142],[-0.457,51.88808],[-0.46665,51.88819],[-0.46785,51.88873],[-0.46617,51.88873],[-0.46594,51.88914],[-0.46529,51.88897],[-0.46493,51.89228],[-0.46352,51.89205]]]}},{"type":"Feature","properties":{"id":"E01015716","name":"E01015716","parent":"E06000032","type":"LSOA","pop":2288,"r":376,"ff":169,"ffd":7386.4,"ffs":0.5,"g":36,"co":0,"mo":0,"sa":0,"ic":0},"geometry":{"type":"Polygon","coordinates":[[[-0.46124,51.89639],[-0.46199,51.89586],[-0.46269,51.89573],[-0.46341,51.89642],[-0.46421,51.89597],[-0.46514,51.89639],[-0.46544,51.89614],[-0.46625,51.89624],[-0.46749,51.89846],[-0.46873,51.90006],[-0.46355,51.9017],[-0.46183,51.89977],[-0.45936,51.8977],[-0.46014,51.89659],[-0.46124,51.89639]]]}},{"type":"Feature","properties":{"id":"E01015717","name":"E01015717","parent":"E06000032","type":"LSOA","pop":1855,"r":370,"ff":166,"ffd":8948.8,"ffs":0.5015,"g":37,"co":0,"mo":0,"sa":0,"ic":0},"geometry":{"type":"Polygon","coordinates":[[[-0.44695,51.89834],[-0.44959,51.89684],[-0.45226,51.89474],[-0.45232,51.89544],[-0.4548,51.89765],[-0.45552,51.89789],[-0.45556,51.89833],[-0.45638,51.89819],[-0.45677,51.89845],[-0.45124,51.90096],[-0.44695,51.89834]]]}},{"type":"Feature","properties":{"id":"E01015718","name":"E01015718","parent":"E06000032","type":"LSOA","pop":1589,"r":356,"ff":161,"ffd":10132.2,"ffs":0.5111,"g":39,"co":0,"mo":0,"sa":0,"ic":0},"geometry":{"type":"Polygon","coordinates":[[[-0.47197,51.8991],[-0.47127,51.89802],[-0.46941,51.89802],[-0.46869,51.89627],[-0.46976,51.89528],[-0.47156,51.89551],[-0.47206,51.89584],[-0.47256,51.89571],[-0.47283,51.89609],[-0.47433,51.89582],[-0.47396,51.89516],[-0.47563,51.8949],[-0.47641,51.89546],[-0.47678,51.89529],[-0.48014,51.90009],[-0.47439,51.90123],[-0.47197,51.8991]]]}},{"type":"Feature","properties":{"id":"E01015719","name":"E01015719","parent":"E06000032","type":"LSOA","pop":3193,"r":321,"ff":138,"ffd":4322.0,"ffs":0.4792,"g":31,"co":0,"mo":2,"sa":0,"ic":0},"geometry":{"type":"Polygon","coordinates":[[[-0.39381,51.88504],[-0.39363,51.88386],[-0.39146,51.88285],[-0.39217,51.88213],[-0.39181,51.88182],[-0.39453,51.88044],[-0.39317,51.87827],[-0.39105,51.87628],[-0.39132,51.87567],[-0.38889,51.87503],[-0.3887,51.87273],[-0.38924,51.87158],[-0.39149,51.87012],[-0.3947,51.87181],[-0.402,51.87714],[-0.401,51.87959],[-0.40008,51.87981],[-0.39962,51.88052],[-0.39954,51.88138],[-0.39875,51.88201],[-0.39918,51.88229],[-0.39621,51.88432],[-0.39554,51.88411],[-0.39381,51.88504]]]}},{"type":"Feature","properties":{"id":"E01015720","name":"E01015720","parent":"E06000032","type":"LSOA","pop":1634,"r":322,"ff":139,"ffd":8506.7,"ffs":0.4826,"g":32,"co":0,"mo":2,"sa":0,"ic":0},"geometry":{"type":"Polygon","coordinates":[[[-0.39954,51.88138],[-0.39962,51.88052],[-0.40008,51.87981],[-0.401,51.87959],[-0.402,51.87714],[-0.40443,51.87894],[-0.40154,51.88007],[-0.40059,51.88115],[-0.40111,51.88093],[-0.40238,51.88118],[-0.40383,51.88175],[-0.40595,51.88357],[-0.40489,51.88471],[-0.40271,51.88653],[-0.40253,51.88781],[-0.4019,51.88813],[-0.39906,51.88282],[-0.39955,51.88252],[-0.39875,51.88201],[-0.39954,51.88138]]]}},{"type":"Feature","properties":{"id":"E01015721","name":"E01015721","parent":"E06000032","type":"LSOA","pop":1838,"r":310,"ff":134,"ffd":7290.5,"ffs":0.4803,"g":30,"co":0,"mo":2,"sa":0,"ic":0},"geometry":{"type":"Polygon","coordinates":[[[-0.38071,51.88938],[-0.37701,51.88551],[-0.38092,51.884],[-0.38321,51.88366],[-0.38347,51.88416],[-0.38431,51.88419],[-0.38329,51.88486],[-0.38352,51.88523],[-0.38023,51.88585],[-0.38044,51.88624],[-0.38334,51.88568],[-0.38458,51.88686],[-0.38366,51.88675],[-0.38482,51.88788],[-0.38434,51.88865],[-0.38486,51.88923],[-0.3868,51.8882],[-0.38751,51.88868],[-0.38671,51.8893],[-0.38513,51.88987],[-0.38099,51.88979],[-0.38071,51.88938]]]}},{"type":"Feature","properties":{"id":"E01015722","name":"E01015722","parent":"E06000032","type":"LSOA","pop":1449,"r":313,"ff":135,"ffd":9316.8,"ffs":0.4787,"g":30,"co":0,"mo":2,"sa":0,"ic":0},"geometry":{"type":"Polygon","coordinates":[[[-0.38434,51.88865],[-0.38482,51.88788],[-0.38366,51.88675],[-0.38458,51.88686],[-0.38334,51.88568],[-0.38048,51.88624],[-0.38023,51.88585],[-0.38352,51.88523],[-0.38329,51.88486],[-0.38431,51.88419],[-0.38347,51.88416],[-0.38321,51.88366],[-0.38743,51.88258],[-0.3901,51.88782],[-0.38851,51.88809],[-0.38751,51.88868],[-0.3868,51.8882],[-0.38486,51.88923],[-0.38434,51.88865]]]}},{"type":"Feature","properties":{"id":"E01015723","name":"E01015723","parent":"E06000032","type":"LSOA","pop":1466,"r":319,"ff":137,"ffd":9345.2,"ffs":0.4807,"g":32,"co":0,"mo":2,"sa":0,"ic":0},"geometry":{"type":"Polygon","coordinates":[[[-0.38988,51.88717],[-0.38743,51.88258],[-0.3879,51.88185],[-0.38793,51.87766],[-0.38889,51.87503],[-0.39132,51.87567],[-0.39105,51.87628],[-0.39317,51.87827],[-0.39453,51.88044],[-0.39181,51.88182],[-0.39217,51.88213],[-0.39146,51.88285],[-0.39363,51.88386],[-0.39381,51.88504],[-0.39554,51.88411],[-0.39621,51.88432],[-0.39272,51.88666],[-0.39077,51.88763],[-0.3901,51.88782],[-0.38988,51.88717]]]}},{"type":"Feature","properties":{"id":"E01015724","name":"E01015724","parent":"E06000032","type":"LSOA","pop":2716,"r":366,"ff":155,"ffd":5706.9,"ffs":0.4799,"g":41,"co":0,"mo":2,"sa":0,"ic":0},"geometry":{"type":"Polygon","coordinates":[[[-0.44377,51.88781],[-0.44309,51.88617],[-0.44043,51.88563],[-0.44042,51.88505],[-0.4396,51.88424],[-0.44057,51.88362],[-0.44078,51.88303],[-0.43539,51.8825],[-0.4351,51.88221],[-0.4358,51.88032],[-0.43618,51.88068],[-0.43678,51.88043],[-0.4408,51.88044],[-0.44177,51.88023],[-0.44219,51.88051],[-0.44538,51.87941],[-0.4462,51.87986],[-0.44801,51.88231],[-0.44818,51.88292],[-0.44758,51.88295],[-0.44752,51.88324],[-0.45259,51.88368],[-0.45189,51.88407],[-0.453,51.88449],[-0.45259,51.8848],[-0.45061,51.88455],[-0.45011,51.88647],[-0.44927,51.88641],[-0.44969,51.88668],[-0.44957,51.8871],[-0.44741,51.8868],[-0.44703,51.88773],[-0.44494,51.88756],[-0.44377,51.88781]]]}},{"type":"Feature","properties":{"id":"E01015725","name":"E01015725","parent":"E06000032","type":"LSOA","pop":1887,"r":376,"ff":168,"ffd":8903.0,"ffs":0.5,"g":38,"co":0,"mo":2,"sa":0,"ic":0},"geometry":{"type":"Polygon","coordinates":[[[-0.42975,51.88619],[-0.42797,51.88512],[-0.42844,51.88488],[-0.42979,51.88583],[-0.4315,51.88467],[-0.43045,51.88405],[-0.43083,51.88329],[-0.4331,51.88386],[-0.43288,51.8841],[-0.43328,51.88436],[-0.43388,51.8845],[-0.43408,51.88412],[-0.43527,51.88443],[-0.43499,51.88507],[-0.43666,51.88602],[-0.43629,51.88674],[-0.43584,51.88706],[-0.43215,51.88686],[-0.42975,51.88619]]]}},{"type":"Feature","properties":{"id":"E01015726","name":"E01015726","parent":"E06000032","type":"LSOA","pop":2471,"r":359,"ff":166,"ffd":6717.9,"ffs":0.5108,"g":32,"co":0,"mo":2,"sa":0,"ic":0},"geometry":{"type":"Polygon","coordinates":[[[-0.43561,51.88378],[-0.43529,51.88361],[-0.4396,51.88424],[-0.44042,51.88505],[-0.44043,51.88563],[-0.44309,51.88617],[-0.44326,51.88681],[-0.44259,51.88718],[-0.44315,51.88868],[-0.44326,51.88972],[-0.44264,51.89023],[-0.44108,51.88973],[-0.43584,51.88706],[-0.43629,51.88674],[-0.43666,51.88602],[-0.43499,51.88507],[-0.43561,51.88378]]]}},{"type":"Feature","properties":{"id":"E01015727","name":"E01015727","parent":"E06000032","type":"LSOA","pop":2530,"r":353,"ff":153,"ffd":6047.4,"ffs":0.4873,"g":37,"co":0,"mo":2,"sa":0,"ic":0},"geometry":{"type":"Polygon","coordinates":[[[-0.42876,51.8851],[-0.42844,51.88488],[-0.42797,51.88512],[-0.42613,51.8834],[-0.42774,51.88306],[-0.42781,51.88259],[-0.42851,51.88159],[-0.42948,51.88172],[-0.42996,51.88137],[-0.43222,51.88184],[-0.43123,51.88298],[-0.43228,51.88295],[-0.43244,51.88326],[-0.43312,51.88313],[-0.43342,51.88346],[-0.4331,51.88386],[-0.43083,51.88329],[-0.43045,51.88405],[-0.4315,51.88467],[-0.42979,51.88583],[-0.42876,51.8851]]]}},{"type":"Feature","properties":{"id":"E01015728","name":"E01015728","parent":"E06000032","type":"LSOA","pop":2013,"r":370,"ff":156,"ffd":7749.6,"ffs":0.4756,"g":40,"co":0,"mo":2,"sa":0,"ic":0},"geometry":{"type":"Polygon","coordinates":[[[-0.457,51.88808],[-0.45679,51.88739],[-0.4535,51.88761],[-0.44957,51.8871],[-0.44969,51.88668],[-0.44927,51.88641],[-0.45011,51.88647],[-0.45061,51.88455],[-0.45259,51.8848],[-0.453,51.88449],[-0.45189,51.88407],[-0.45259,51.88368],[-0.44752,51.88324],[-0.44758,51.88295],[-0.44818,51.88292],[-0.44801,51.88231],[-0.4462,51.87986],[-0.44801,51.87978],[-0.44895,51.87935],[-0.44835,51.87826],[-0.44944,51.87835],[-0.45442,51.88168],[-0.46665,51.88819],[-0.457,51.88808]]]}},{"type":"Feature","properties":{"id":"E01015729","name":"E01015729","parent":"E06000032","type":"LSOA","pop":2599,"r":357,"ff":155,"ffd":5963.8,"ffs":0.4844,"g":35,"co":0,"mo":2,"sa":0,"ic":0},"geometry":{"type":"Polygon","coordinates":[[[-0.42613,51.8834],[-0.42496,51.88238],[-0.42286,51.88237],[-0.4237,51.88169],[-0.42312,51.88077],[-0.42557,51.8796],[-0.42575,51.87875],[-0.42657,51.87891],[-0.42696,51.87871],[-0.43227,51.87945],[-0.43193,51.87978],[-0.43096,51.87964],[-0.43135,51.87999],[-0.431,51.88126],[-0.43232,51.88158],[-0.43222,51.88184],[-0.42996,51.88137],[-0.42948,51.88172],[-0.42851,51.88159],[-0.42781,51.88259],[-0.42774,51.88306],[-0.42613,51.8834]]]}},{"type":"Feature","properties":{"id":"E01015730","name":"E01015730","parent":"E06000032","type":"LSOA","pop":2846,"r":362,"ff":156,"ffd":5481.4,"ffs":0.4815,"g":36,"co":0,"mo":2,"sa":0,"ic":0},"geometry":{"type":"Polygon","coordinates":[[[-0.43328,51.88436],[-0.43288,51.8841],[-0.43342,51.88346],[-0.43312,51.88313],[-0.43244,51.88326],[-0.43228,51.88295],[-0.43123,51.88298],[-0.43232,51.88158],[-0.431,51.88126],[-0.43135,51.87999],[-0.43096,51.87964],[-0.43193,51.87978],[-0.43227,51.87945],[-0.43472,51.87892],[-0.43696,51.87971],[-0.43678,51.88043],[-0.43618,51.88068],[-0.4358,51.88032],[-0.4351,51.88221],[-0.43539,51.8825],[-0.44078,51.88303],[-0.44057,51.88362],[-0.4396,51.88424],[-0.43529,51.88361],[-0.43561,51.88378],[-0.43527,51.88443],[-0.43408,51.88412],[-0.43388,51.8845],[-0.43328,51.88436]]]}},{"type":"Feature","properties":{"id":"E01015731","name":"E01015731","parent":"E06000032","type":"LSOA","pop":2317,"r":367,"ff":167,"ffd":7207.6,"ffs":0.5045,"g":34,"co":0,"mo":2,"sa":0,"ic":0},"geometry":{"type":"Polygon","coordinates":[[[-0.44315,51.88868],[-0.44259,51.88718],[-0.44326,51.88681],[-0.44377,51.88781],[-0.44494,51.88756],[-0.44703,51.88773],[-0.44741,51.8868],[-0.4535,51.88761],[-0.45679,51.88739],[-0.457,51.88808],[-0.45485,51.89177],[-0.45454,51.89195],[-0.45256,51.89211],[-0.44924,51.89197],[-0.44589,51.89087],[-0.44264,51.89023],[-0.44326,51.88972],[-0.44315,51.88868]]]}},{"type":"Feature","properties":{"id":"E01015732","name":"E01015732","parent":"E06000032","type":"LSOA","pop":2295,"r":374,"ff":158,"ffd":6884.5,"ffs":0.4802,"g":43,"co":0,"mo":2,"sa":0,"ic":0},"geometry":{"type":"Polygon","coordinates":[[[-0.43131,51.87183],[-0.4303,51.87105],[-0.43068,51.87077],[-0.43136,51.87115],[-0.43222,51.87059],[-0.43192,51.87041],[-0.43142,51.87061],[-0.43004,51.86974],[-0.42939,51.86954],[-0.42906,51.86976],[-0.42993,51.87027],[-0.42924,51.87056],[-0.42895,51.87097],[-0.4293,51.87119],[-0.42893,51.87137],[-0.42654,51.87077],[-0.42553,51.87129],[-0.425,51.8711],[-0.42545,51.8707],[-0.42805,51.86994],[-0.42749,51.86951],[-0.42496,51.87042],[-0.4247,51.86998],[-0.42407,51.87027],[-0.42333,51.86982],[-0.42329,51.86707],[-0.42255,51.86645],[-0.42319,51.85955],[-0.4213,51.85659],[-0.4193,51.85634],[-0.42193,51.8545],[-0.42336,51.85478],[-0.42567,51.85713],[-0.43109,51.86115],[-0.43344,51.86313],[-0.4387,51.8692],[-0.43451,51.86932],[-0.4343,51.86967],[-0.43366,51.86967],[-0.43371,51.87],[-0.4351,51.87055],[-0.43469,51.87133],[-0.43557,51.87181],[-0.4354,51.87218],[-0.4323,51.87234],[-0.43131,51.87183]]]}},{"type":"Feature","properties":{"id":"E01015733","name":"E01015733","parent":"E06000032","type":"LSOA","pop":2108,"r":359,"ff":155,"ffd":7352.9,"ffs":0.4814,"g":35,"co":0,"mo":2,"sa":0,"ic":0},"geometry":{"type":"Polygon","coordinates":[[[-0.44219,51.88051],[-0.44177,51.88023],[-0.4408,51.88044],[-0.43678,51.88043],[-0.43696,51.87971],[-0.43874,51.87831],[-0.43791,51.87756],[-0.4383,51.87738],[-0.43711,51.87696],[-0.43703,51.87641],[-0.43808,51.87688],[-0.43936,51.87707],[-0.44053,51.87673],[-0.44115,51.87582],[-0.44185,51.87543],[-0.44308,51.87581],[-0.44425,51.87446],[-0.44944,51.87835],[-0.44835,51.87826],[-0.44895,51.87935],[-0.44801,51.87978],[-0.4462,51.87986],[-0.44538,51.87941],[-0.44219,51.88051]]]}},{"type":"Feature","properties":{"id":"E01015734","name":"E01015734","parent":"E06000032","type":"LSOA","pop":2062,"r":362,"ff":154,"ffd":7468.5,"ffs":0.4783,"g":38,"co":0,"mo":2,"sa":0,"ic":0},"geometry":{"type":"Polygon","coordinates":[[[-0.43696,51.87971],[-0.43472,51.87892],[-0.43227,51.87945],[-0.43117,51.8793],[-0.43134,51.87864],[-0.43085,51.87849],[-0.43098,51.87813],[-0.42785,51.87765],[-0.42647,51.87623],[-0.42578,51.87629],[-0.42553,51.87609],[-0.42418,51.87636],[-0.42439,51.87595],[-0.42511,51.87578],[-0.42468,51.87556],[-0.42518,51.8748],[-0.42774,51.87468],[-0.42822,51.87419],[-0.42719,51.87367],[-0.42795,51.87309],[-0.43241,51.8756],[-0.43366,51.87528],[-0.43595,51.87632],[-0.43703,51.87641],[-0.43711,51.87696],[-0.4383,51.87738],[-0.43791,51.87756],[-0.43874,51.87831],[-0.43696,51.87971]]]}},{"type":"Feature","properties":{"id":"E01015735","name":"E01015735","parent":"E06000032","type":"LSOA","pop":2027,"r":360,"ff":152,"ffd":7498.8,"ffs":0.4735,"g":37,"co":0,"mo":2,"sa":0,"ic":0},"geometry":{"type":"Polygon","coordinates":[[[-0.42055,51.87643],[-0.4216,51.87485],[-0.42167,51.87436],[-0.4223,51.87453],[-0.42258,51.87423],[-0.42405,51.87466],[-0.42455,51.87462],[-0.42244,51.87393],[-0.42235,51.87357],[-0.42322,51.87327],[-0.42316,51.87283],[-0.42407,51.87244],[-0.4238,51.87226],[-0.42442,51.8717],[-0.42795,51.87309],[-0.42719,51.87367],[-0.42822,51.87419],[-0.42774,51.87468],[-0.42518,51.8748],[-0.42468,51.87556],[-0.42511,51.87578],[-0.42439,51.87595],[-0.42418,51.87636],[-0.42553,51.87609],[-0.42578,51.87629],[-0.42256,51.87695],[-0.42055,51.87643]]]}},{"type":"Feature","properties":{"id":"E01015736","name":"E01015736","parent":"E06000032","type":"LSOA","pop":2133,"r":366,"ff":157,"ffd":7360.5,"ffs":0.4831,"g":39,"co":0,"mo":3,"sa":0,"ic":0},"geometry":{"type":"Polygon","coordinates":[[[-0.43808,51.87688],[-0.43714,51.87634],[-0.43595,51.87632],[-0.43366,51.87528],[-0.43452,51.87483],[-0.4335,51.87416],[-0.43405,51.87376],[-0.43379,51.87332],[-0.43474,51.87388],[-0.43576,51.87389],[-0.43644,51.8736],[-0.43555,51.87283],[-0.43571,51.8726],[-0.43455,51.87222],[-0.4354,51.87218],[-0.43557,51.87181],[-0.43469,51.87133],[-0.4351,51.87055],[-0.43371,51.87],[-0.43366,51.86967],[-0.4343,51.86967],[-0.43451,51.86932],[-0.4387,51.8692],[-0.44425,51.87446],[-0.44308,51.87581],[-0.44185,51.87543],[-0.44115,51.87582],[-0.44053,51.87673],[-0.43936,51.87707],[-0.43808,51.87688]]]}},{"type":"Feature","properties":{"id":"E01015737","name":"E01015737","parent":"E06000032","type":"LSOA","pop":1600,"r":368,"ff":157,"ffd":9812.5,"ffs":0.4801,"g":39,"co":0,"mo":3,"sa":0,"ic":0},"geometry":{"type":"Polygon","coordinates":[[[-0.43241,51.8756],[-0.42784,51.87303],[-0.42442,51.8717],[-0.42471,51.8714],[-0.42389,51.87075],[-0.42407,51.87027],[-0.4247,51.86998],[-0.42496,51.87042],[-0.42749,51.86951],[-0.42805,51.86994],[-0.42545,51.8707],[-0.425,51.8711],[-0.42553,51.87129],[-0.42654,51.87077],[-0.42893,51.87137],[-0.4293,51.87119],[-0.42895,51.87097],[-0.42924,51.87056],[-0.42993,51.87027],[-0.42906,51.86976],[-0.42939,51.86954],[-0.43004,51.86974],[-0.43142,51.87061],[-0.43192,51.87041],[-0.43222,51.87059],[-0.43136,51.87115],[-0.43068,51.87077],[-0.4303,51.87105],[-0.43131,51.87183],[-0.4323,51.87234],[-0.43455,51.87222],[-0.43571,51.8726],[-0.43555,51.87283],[-0.43644,51.8736],[-0.43576,51.87389],[-0.43474,51.87388],[-0.43379,51.87332],[-0.43405,51.87376],[-0.4335,51.87416],[-0.43452,51.87483],[-0.43366,51.87528],[-0.43241,51.8756]]]}},{"type":"Feature","properties":{"id":"E01015738","name":"E01015738","parent":"E06000032","type":"LSOA","pop":2173,"r":373,"ff":156,"ffd":7179.0,"ffs":0.4713,"g":40,"co":0,"mo":2,"sa":0,"ic":0},"geometry":{"type":"Polygon","coordinates":[[[-0.41816,51.87454],[-0.41704,51.87422],[-0.41838,51.87238],[-0.41781,51.87049],[-0.41864,51.86781],[-0.41768,51.86527],[-0.41606,51.86198],[-0.41493,51.86077],[-0.41442,51.85904],[-0.41602,51.85931],[-0.41948,51.8565],[-0.4193,51.85634],[-0.4213,51.85659],[-0.42319,51.85955],[-0.42255,51.86645],[-0.42329,51.86707],[-0.42333,51.86982],[-0.42407,51.87027],[-0.42389,51.87075],[-0.42471,51.8714],[-0.4238,51.87226],[-0.42407,51.87244],[-0.42316,51.87283],[-0.42322,51.87327],[-0.42235,51.87357],[-0.42244,51.87393],[-0.42455,51.87462],[-0.42405,51.87466],[-0.42258,51.87423],[-0.4223,51.87453],[-0.42167,51.87436],[-0.4216,51.87485],[-0.42125,51.87537],[-0.41816,51.87454]]]}},{"type":"Feature","properties":{"id":"E01015739","name":"E01015739","parent":"E06000032","type":"LSOA","pop":2485,"r":329,"ff":145,"ffd":5835.0,"ffs":0.4899,"g":31,"co":0,"mo":2,"sa":0,"ic":0},"geometry":{"type":"Polygon","coordinates":[[[-0.41803,51.888],[-0.41718,51.88791],[-0.4169,51.88819],[-0.41626,51.8873],[-0.41589,51.8874],[-0.41483,51.88607],[-0.41728,51.8853],[-0.41786,51.8853],[-0.41805,51.88562],[-0.41861,51.88531],[-0.41861,51.88477],[-0.4201,51.8839],[-0.42045,51.88442],[-0.42111,51.88704],[-0.42116,51.89189],[-0.4196,51.89264],[-0.41854,51.89392],[-0.41663,51.8936],[-0.41859,51.88941],[-0.41877,51.88856],[-0.41803,51.888]]]}},{"type":"Feature","properties":{"id":"E01015740","name":"E01015740","parent":"E06000032","type":"LSOA","pop":1730,"r":324,"ff":144,"ffd":8323.7,"ffs":0.4915,"g":30,"co":0,"mo":2,"sa":0,"ic":0},"geometry":{"type":"Polygon","coordinates":[[[-0.41116,51.89448],[-0.41045,51.89376],[-0.4108,51.89277],[-0.41272,51.89272],[-0.4132,51.8921],[-0.41465,51.89146],[-0.41302,51.89158],[-0.41272,51.89027],[-0.41033,51.89023],[-0.41079,51.88831],[-0.41192,51.88788],[-0.41251,51.8881],[-0.41373,51.88767],[-0.41427,51.88796],[-0.41626,51.8873],[-0.4169,51.88819],[-0.41718,51.88791],[-0.41803,51.888],[-0.41877,51.88856],[-0.41859,51.88941],[-0.41663,51.8936],[-0.41854,51.89392],[-0.4196,51.89264],[-0.42116,51.89189],[-0.42091,51.89663],[-0.41337,51.8967],[-0.41183,51.89647],[-0.41116,51.89448]]]}},{"type":"Feature","properties":{"id":"E01015742","name":"E01015742","parent":"E06000032","type":"LSOA","pop":2326,"r":289,"ff":127,"ffd":5460.0,"ffs":0.4811,"g":24,"co":0,"mo":3,"sa":0,"ic":0},"geometry":{"type":"Polygon","coordinates":[[[-0.40944,51.89007],[-0.40901,51.88914],[-0.40771,51.88973],[-0.40796,51.88999],[-0.40602,51.88989],[-0.40577,51.88906],[-0.40481,51.88973],[-0.40427,51.88947],[-0.40399,51.88865],[-0.40305,51.88921],[-0.40253,51.88781],[-0.40271,51.88653],[-0.40489,51.88471],[-0.4059,51.88361],[-0.40606,51.88425],[-0.40458,51.88639],[-0.40537,51.8866],[-0.40564,51.88636],[-0.40618,51.88643],[-0.40637,51.88694],[-0.4072,51.88683],[-0.40733,51.88706],[-0.40816,51.88667],[-0.40847,51.88691],[-0.40961,51.88627],[-0.41016,51.88638],[-0.41,51.88685],[-0.40888,51.88727],[-0.4091,51.88781],[-0.41276,51.88696],[-0.41341,51.88787],[-0.41251,51.8881],[-0.41192,51.88788],[-0.41079,51.88831],[-0.41033,51.89023],[-0.40944,51.89007]]]}},{"type":"Feature","properties":{"id":"E01015743","name":"E01015743","parent":"E06000032","type":"LSOA","pop":2034,"r":321,"ff":138,"ffd":6784.7,"ffs":0.4808,"g":32,"co":0,"mo":2,"sa":0,"ic":0},"geometry":{"type":"Polygon","coordinates":[[[-0.40733,51.88706],[-0.4072,51.88683],[-0.40637,51.88694],[-0.40618,51.88643],[-0.40564,51.88636],[-0.40537,51.8866],[-0.40458,51.88639],[-0.40606,51.88425],[-0.40595,51.88357],[-0.40383,51.88175],[-0.40238,51.88118],[-0.40111,51.88093],[-0.40059,51.88115],[-0.40154,51.88007],[-0.40443,51.87894],[-0.40712,51.88047],[-0.41057,51.88168],[-0.40914,51.88368],[-0.41036,51.88414],[-0.40973,51.88479],[-0.41047,51.88551],[-0.40968,51.8859],[-0.40961,51.88627],[-0.40847,51.88691],[-0.40816,51.88667],[-0.40733,51.88706]]]}},{"type":"Feature","properties":{"id":"E01015744","name":"E01015744","parent":"E06000032","type":"LSOA","pop":1638,"r":315,"ff":148,"ffd":9035.4,"ffs":0.5157,"g":27,"co":0,"mo":2,"sa":0,"ic":0},"geometry":{"type":"Polygon","coordinates":[[[-0.42941,51.91335],[-0.42817,51.91238],[-0.42761,51.91253],[-0.42744,51.91221],[-0.42635,51.9123],[-0.42536,51.91203],[-0.4247,51.90987],[-0.42525,51.9102],[-0.42631,51.91009],[-0.42735,51.91085],[-0.4285,51.91033],[-0.42818,51.90988],[-0.42636,51.90872],[-0.42677,51.90833],[-0.42742,51.90851],[-0.43003,51.90796],[-0.43297,51.90792],[-0.43398,51.90667],[-0.43518,51.90611],[-0.43556,51.90625],[-0.43407,51.90997],[-0.43428,51.91043],[-0.43377,51.91114],[-0.43461,51.91196],[-0.4343,51.91219],[-0.43357,51.91208],[-0.43373,51.9125],[-0.43325,51.91277],[-0.4314,51.91245],[-0.43083,51.91362],[-0.43024,51.91386],[-0.42941,51.91335]]]}},{"type":"Feature","properties":{"id":"E01015745","name":"E01015745","parent":"E06000032","type":"LSOA","pop":1725,"r":336,"ff":153,"ffd":8869.6,"ffs":0.5016,"g":30,"co":0,"mo":2,"sa":0,"ic":0},"geometry":{"type":"Polygon","coordinates":[[[-0.42352,51.91217],[-0.42282,51.91092],[-0.41829,51.91106],[-0.41825,51.91043],[-0.41736,51.90825],[-0.42294,51.90718],[-0.42377,51.90686],[-0.42312,51.90459],[-0.42583,51.90434],[-0.42523,51.90345],[-0.42449,51.9034],[-0.4289,51.90264],[-0.42917,51.90326],[-0.432,51.90416],[-0.43336,51.90397],[-0.43398,51.90418],[-0.43397,51.90479],[-0.43558,51.90488],[-0.43614,51.90577],[-0.43556,51.90625],[-0.43518,51.90611],[-0.43398,51.90667],[-0.43297,51.90792],[-0.43003,51.90796],[-0.42742,51.90851],[-0.42677,51.90833],[-0.42636,51.90872],[-0.42818,51.90988],[-0.4285,51.91033],[-0.42735,51.91085],[-0.42631,51.91009],[-0.42525,51.9102],[-0.4247,51.90987],[-0.42365,51.91003],[-0.42435,51.91207],[-0.42352,51.91217]]]}},{"type":"Feature","properties":{"id":"E01015746","name":"E01015746","parent":"E06000032","type":"LSOA","pop":1592,"r":317,"ff":145,"ffd":9108.0,"ffs":0.5035,"g":28,"co":0,"mo":2,"sa":0,"ic":0},"geometry":{"type":"Polygon","coordinates":[[[-0.42861,51.92171],[-0.4281,51.9212],[-0.42675,51.92129],[-0.42236,51.92052],[-0.42123,51.9177],[-0.42298,51.91761],[-0.42484,51.91725],[-0.4245,51.9166],[-0.42485,51.91657],[-0.42476,51.9161],[-0.42535,51.91603],[-0.4256,51.91696],[-0.42665,51.91631],[-0.42749,51.91611],[-0.43043,51.91698],[-0.431,51.91619],[-0.4322,51.91549],[-0.43182,51.91528],[-0.43251,51.91483],[-0.43422,51.91549],[-0.43393,51.91591],[-0.43454,51.91628],[-0.43165,51.91857],[-0.42953,51.92055],[-0.42861,51.92171]]]}},{"type":"Feature","properties":{"id":"E01015747","name":"E01015747","parent":"E06000032","type":"LSOA","pop":1473,"r":303,"ff":137,"ffd":9300.7,"ffs":0.4982,"g":27,"co":0,"mo":2,"sa":0,"ic":0},"geometry":{"type":"Polygon","coordinates":[[[-0.42108,51.91678],[-0.42097,51.91536],[-0.41829,51.91106],[-0.42282,51.91092],[-0.42352,51.91217],[-0.42435,51.91207],[-0.42365,51.91003],[-0.4247,51.90987],[-0.42665,51.91631],[-0.4256,51.91696],[-0.42535,51.91603],[-0.42476,51.9161],[-0.42485,51.91657],[-0.4245,51.9166],[-0.42484,51.91725],[-0.42298,51.91761],[-0.42123,51.9177],[-0.42108,51.91678]]]}},{"type":"Feature","properties":{"id":"E01015748","name":"E01015748","parent":"E06000032","type":"LSOA","pop":1878,"r":314,"ff":147,"ffd":7827.5,"ffs":0.5176,"g":28,"co":0,"mo":2,"sa":0,"ic":0},"geometry":{"type":"Polygon","coordinates":[[[-0.43043,51.91698],[-0.42749,51.91611],[-0.42665,51.91631],[-0.42536,51.91203],[-0.42635,51.9123],[-0.42744,51.91221],[-0.42761,51.91253],[-0.42817,51.91238],[-0.42974,51.91366],[-0.43024,51.91386],[-0.43083,51.91362],[-0.4314,51.91245],[-0.43325,51.91277],[-0.43373,51.9125],[-0.43357,51.91208],[-0.4343,51.91219],[-0.43461,51.91196],[-0.43377,51.91114],[-0.43428,51.91043],[-0.43407,51.90997],[-0.4363,51.91072],[-0.43906,51.91283],[-0.43767,51.91438],[-0.43454,51.91628],[-0.43393,51.91591],[-0.43422,51.91549],[-0.43251,51.91483],[-0.43182,51.91528],[-0.4322,51.91549],[-0.431,51.91619],[-0.43043,51.91698]]]}},{"type":"Feature","properties":{"id":"E01015749","name":"E01015749","parent":"E06000032","type":"LSOA","pop":2224,"r":310,"ff":139,"ffd":6250.0,"ffs":0.5055,"g":33,"co":0,"mo":0,"sa":0,"ic":0},"geometry":{"type":"Polygon","coordinates":[[[-0.47201,51.90699],[-0.47243,51.90659],[-0.47177,51.90594],[-0.47111,51.90635],[-0.47038,51.90602],[-0.47085,51.90558],[-0.47233,51.90504],[-0.47196,51.90471],[-0.47268,51.90433],[-0.47263,51.90378],[-0.47341,51.90382],[-0.47454,51.90268],[-0.47409,51.90239],[-0.47263,51.90295],[-0.47238,51.90269],[-0.47439,51.90123],[-0.47922,51.90553],[-0.47739,51.90566],[-0.47785,51.9069],[-0.47745,51.90697],[-0.47728,51.90669],[-0.47642,51.90696],[-0.47588,51.90681],[-0.47588,51.90638],[-0.47443,51.9068],[-0.47391,51.90663],[-0.47268,51.90732],[-0.47201,51.90699]]]}},{"type":"Feature","properties":{"id":"E01015750","name":"E01015750","parent":"E06000032","type":"LSOA","pop":2909,"r":372,"ff":167,"ffd":5740.8,"ffs":0.5015,"g":37,"co":0,"mo":0,"sa":0,"ic":0},"geometry":{"type":"Polygon","coordinates":[[[-0.45497,51.90323],[-0.45124,51.90096],[-0.45904,51.89758],[-0.46183,51.89977],[-0.46355,51.9017],[-0.46403,51.90156],[-0.46446,51.90211],[-0.46495,51.90211],[-0.46496,51.90246],[-0.46345,51.90285],[-0.46299,51.90242],[-0.46209,51.90263],[-0.4604,51.90222],[-0.45929,51.90141],[-0.45868,51.90175],[-0.45872,51.90212],[-0.45809,51.90241],[-0.45759,51.90222],[-0.45725,51.90264],[-0.45621,51.90289],[-0.45597,51.90267],[-0.45497,51.90323]]]}},{"type":"Feature","properties":{"id":"E01015751","name":"E01015751","parent":"E06000032","type":"LSOA","pop":2329,"r":339,"ff":153,"ffd":6569.3,"ffs":0.5066,"g":35,"co":0,"mo":0,"sa":0,"ic":0},"geometry":{"type":"Polygon","coordinates":[[[-0.46667,51.90687],[-0.46599,51.90504],[-0.46791,51.90458],[-0.46737,51.90379],[-0.46503,51.90424],[-0.46637,51.90308],[-0.46618,51.90247],[-0.46391,51.9032],[-0.46345,51.90285],[-0.46496,51.90246],[-0.46495,51.90211],[-0.46446,51.90211],[-0.46403,51.90156],[-0.46923,51.89992],[-0.47171,51.89882],[-0.47439,51.90123],[-0.47238,51.90269],[-0.47263,51.90295],[-0.47409,51.90239],[-0.47454,51.90268],[-0.47341,51.90382],[-0.47263,51.90378],[-0.47268,51.90433],[-0.47196,51.90471],[-0.47233,51.90504],[-0.47085,51.90558],[-0.47038,51.90602],[-0.47111,51.90635],[-0.47177,51.90594],[-0.47243,51.90659],[-0.47201,51.90699],[-0.47113,51.90695],[-0.47074,51.90751],[-0.46999,51.90735],[-0.46993,51.90689],[-0.46938,51.9071],[-0.46914,51.90635],[-0.4684,51.9066],[-0.46798,51.90732],[-0.46833,51.90822],[-0.46736,51.90835],[-0.46667,51.90687]]]}},{"type":"Feature","properties":{"id":"E01015752","name":"E01015752","parent":"E06000032","type":"LSOA","pop":1366,"r":303,"ff":137,"ffd":10029.3,"ffs":0.515,"g":35,"co":0,"mo":0,"sa":0,"ic":0},"geometry":{"type":"Polygon","coordinates":[[[-0.47062,51.91278],[-0.46613,51.91004],[-0.46632,51.90983],[-0.46744,51.91032],[-0.47181,51.91116],[-0.47196,51.91075],[-0.47292,51.9108],[-0.47263,51.91015],[-0.47202,51.90991],[-0.47161,51.90912],[-0.4719,51.90896],[-0.47138,51.9085],[-0.47398,51.90771],[-0.4736,51.90723],[-0.47268,51.90732],[-0.47391,51.90663],[-0.47443,51.9068],[-0.47588,51.90638],[-0.47588,51.90681],[-0.47642,51.90696],[-0.47728,51.90669],[-0.47745,51.90697],[-0.47785,51.9069],[-0.47797,51.90716],[-0.47628,51.90759],[-0.47634,51.90801],[-0.47518,51.90821],[-0.47465,51.9088],[-0.47512,51.91016],[-0.47612,51.91022],[-0.47636,51.90976],[-0.47728,51.90948],[-0.47867,51.90993],[-0.47906,51.91096],[-0.47685,51.91093],[-0.47722,51.9115],[-0.47701,51.91175],[-0.47649,51.91167],[-0.47636,51.91198],[-0.47493,51.91173],[-0.47458,51.91235],[-0.47319,51.91252],[-0.47156,51.91336],[-0.47062,51.91278]]]}},{"type":"Feature","properties":{"id":"E01015753","name":"E01015753","parent":"E06000032","type":"LSOA","pop":1675,"r":290,"ff":131,"ffd":7820.9,"ffs":0.5137,"g":33,"co":0,"mo":0,"sa":0,"ic":0},"geometry":{"type":"Polygon","coordinates":[[[-0.47458,51.91235],[-0.47493,51.91173],[-0.47636,51.91198],[-0.47649,51.91167],[-0.47701,51.91175],[-0.47722,51.9115],[-0.47685,51.91093],[-0.47906,51.91096],[-0.47867,51.90993],[-0.47728,51.90948],[-0.47636,51.90976],[-0.47612,51.91022],[-0.47512,51.91016],[-0.47465,51.9088],[-0.47518,51.90821],[-0.47634,51.90801],[-0.47628,51.90759],[-0.47797,51.90716],[-0.47739,51.90566],[-0.47922,51.90553],[-0.48207,51.90906],[-0.48155,51.9129],[-0.47834,51.9175],[-0.47156,51.91336],[-0.47319,51.91252],[-0.47458,51.91235]]]}},{"type":"Feature","properties":{"id":"E01015754","name":"E01015754","parent":"E06000032","type":"LSOA","pop":1956,"r":323,"ff":144,"ffd":7362.0,"ffs":0.5017,"g":34,"co":0,"mo":0,"sa":0,"ic":0},"geometry":{"type":"Polygon","coordinates":[[[-0.47181,51.91116],[-0.46744,51.91032],[-0.46632,51.90983],[-0.46613,51.91004],[-0.46311,51.9082],[-0.46399,51.90798],[-0.46353,51.90736],[-0.4653,51.90692],[-0.46567,51.90756],[-0.46634,51.90781],[-0.46671,51.90828],[-0.46833,51.90822],[-0.46798,51.90732],[-0.4684,51.9066],[-0.46914,51.90635],[-0.46938,51.9071],[-0.46993,51.90689],[-0.46999,51.90735],[-0.47074,51.90751],[-0.47113,51.90695],[-0.47201,51.90699],[-0.47268,51.90732],[-0.4736,51.90723],[-0.47398,51.90771],[-0.47138,51.9085],[-0.4719,51.90896],[-0.47161,51.90912],[-0.47202,51.90991],[-0.47263,51.91015],[-0.47292,51.9108],[-0.47196,51.91075],[-0.47181,51.91116]]]}},{"type":"Feature","properties":{"id":"E01015755","name":"E01015755","parent":"E06000032","type":"LSOA","pop":1869,"r":355,"ff":159,"ffd":8507.2,"ffs":0.5016,"g":36,"co":0,"mo":0,"sa":0,"ic":0},"geometry":{"type":"Polygon","coordinates":[[[-0.46567,51.90756],[-0.4653,51.90692],[-0.46488,51.90696],[-0.46353,51.90736],[-0.46399,51.90798],[-0.46311,51.9082],[-0.45497,51.90323],[-0.45597,51.90267],[-0.45621,51.90289],[-0.45725,51.90264],[-0.45759,51.90222],[-0.45809,51.90241],[-0.45872,51.90212],[-0.45868,51.90175],[-0.45929,51.90141],[-0.4604,51.90222],[-0.46209,51.90263],[-0.46299,51.90242],[-0.46323,51.90279],[-0.46391,51.9032],[-0.46618,51.90247],[-0.46637,51.90308],[-0.46503,51.90424],[-0.46737,51.90379],[-0.46791,51.90458],[-0.46599,51.90504],[-0.46724,51.90819],[-0.46671,51.90828],[-0.46634,51.90781],[-0.46567,51.90756]]]}},{"type":"Feature","properties":{"id":"E01015756","name":"E01015756","parent":"E06000032","type":"LSOA","pop":1923,"r":325,"ff":150,"ffd":7800.3,"ffs":0.5208,"g":35,"co":0,"mo":0,"sa":0,"ic":0},"geometry":{"type":"Polygon","coordinates":[[[-0.48615,51.90598],[-0.48417,51.90339],[-0.48464,51.90325],[-0.48431,51.90281],[-0.4882,51.90191],[-0.49051,51.90434],[-0.49079,51.9049],[-0.49206,51.90448],[-0.4926,51.90481],[-0.49271,51.90438],[-0.4958,51.90416],[-0.49567,51.9038],[-0.49641,51.90364],[-0.49627,51.90271],[-0.49647,51.90254],[-0.49821,51.90337],[-0.49705,51.90384],[-0.4974,51.90416],[-0.49407,51.90607],[-0.49151,51.90633],[-0.49075,51.90524],[-0.48553,51.90682],[-0.48508,51.90615],[-0.48615,51.90598]]]}},{"type":"Feature","properties":{"id":"E01015757","name":"E01015757","parent":"E06000032","type":"LSOA","pop":1783,"r":339,"ff":158,"ffd":8861.5,"ffs":0.5302,"g":39,"co":0,"mo":0,"sa":0,"ic":0},"geometry":{"type":"Polygon","coordinates":[[[-0.49663,51.90144],[-0.49555,51.90119],[-0.49507,51.90138],[-0.49483,51.90105],[-0.49683,51.90058],[-0.4976,51.89956],[-0.49891,51.89848],[-0.49887,51.89814],[-0.49972,51.89823],[-0.50001,51.89792],[-0.50592,51.90061],[-0.4974,51.90416],[-0.49705,51.90384],[-0.49821,51.90337],[-0.49672,51.90263],[-0.49738,51.90216],[-0.49643,51.90171],[-0.49663,51.90144]]]}},{"type":"Feature","properties":{"id":"E01015758","name":"E01015758","parent":"E06000032","type":"LSOA","pop":1586,"r":245,"ff":112,"ffd":7061.8,"ffs":0.5209,"g":29,"co":0,"mo":0,"sa":0,"ic":0},"geometry":{"type":"Polygon","coordinates":[[[-0.47773,51.90409],[-0.47439,51.90123],[-0.47969,51.90023],[-0.48014,51.90009],[-0.4799,51.89977],[-0.48071,51.89976],[-0.48136,51.90048],[-0.48205,51.90039],[-0.48375,51.90082],[-0.48424,51.90133],[-0.48478,51.90118],[-0.4847,51.90181],[-0.48436,51.90161],[-0.48388,51.90193],[-0.48403,51.90255],[-0.48464,51.90325],[-0.48417,51.90339],[-0.48615,51.90598],[-0.48508,51.90615],[-0.48553,51.90682],[-0.48228,51.90779],[-0.48207,51.90906],[-0.47922,51.90553],[-0.47773,51.90409]]]}},{"type":"Feature","properties":{"id":"E01015759","name":"E01015759","parent":"E06000032","type":"LSOA","pop":1765,"r":330,"ff":152,"ffd":8611.9,"ffs":0.5223,"g":37,"co":0,"mo":0,"sa":0,"ic":0},"geometry":{"type":"Polygon","coordinates":[[[-0.49079,51.9049],[-0.49001,51.90385],[-0.49064,51.90331],[-0.48973,51.90237],[-0.49094,51.9014],[-0.49088,51.90105],[-0.49157,51.90078],[-0.48969,51.90104],[-0.48883,51.90006],[-0.48779,51.90064],[-0.48711,51.90033],[-0.4912,51.89912],[-0.4915,51.89935],[-0.49261,51.89925],[-0.49313,51.89883],[-0.49378,51.9005],[-0.49499,51.90176],[-0.49647,51.90254],[-0.49627,51.90271],[-0.49641,51.90364],[-0.49567,51.9038],[-0.4958,51.90416],[-0.49271,51.90438],[-0.4926,51.90481],[-0.49206,51.90448],[-0.49079,51.9049]]]}},{"type":"Feature","properties":{"id":"E01015760","name":"E01015760","parent":"E06000032","type":"LSOA","pop":1447,"r":345,"ff":158,"ffd":10919.1,"ffs":0.518,"g":38,"co":0,"mo":0,"sa":0,"ic":0},"geometry":{"type":"Polygon","coordinates":[[[-0.49001,51.90385],[-0.4882,51.90191],[-0.48431,51.90281],[-0.48403,51.90255],[-0.48388,51.90193],[-0.48436,51.90161],[-0.4847,51.90181],[-0.48478,51.90118],[-0.48424,51.90133],[-0.48375,51.90082],[-0.48205,51.90039],[-0.48136,51.90048],[-0.48071,51.89976],[-0.4799,51.89977],[-0.479,51.8985],[-0.48266,51.89724],[-0.48306,51.89763],[-0.48462,51.89712],[-0.48532,51.89775],[-0.48567,51.89763],[-0.48513,51.8971],[-0.48536,51.89681],[-0.48616,51.89677],[-0.48673,51.89761],[-0.48592,51.89842],[-0.4867,51.89857],[-0.48684,51.89894],[-0.486,51.89922],[-0.48572,51.89891],[-0.48571,51.89946],[-0.48634,51.89945],[-0.48862,51.89868],[-0.48879,51.89797],[-0.48932,51.89738],[-0.49062,51.89767],[-0.49221,51.89731],[-0.49313,51.89883],[-0.49261,51.89925],[-0.4915,51.89935],[-0.4912,51.89912],[-0.48711,51.90033],[-0.48779,51.90064],[-0.48883,51.90006],[-0.48969,51.90104],[-0.49157,51.90078],[-0.49088,51.90105],[-0.49094,51.9014],[-0.48973,51.90237],[-0.49064,51.90331],[-0.49001,51.90385]]]}},{"type":"Feature","properties":{"id":"E01015761","name":"E01015761","parent":"E06000032","type":"LSOA","pop":1883,"r":352,"ff":160,"ffd":8497.1,"ffs":0.5145,"g":39,"co":0,"mo":0,"sa":0,"ic":0},"geometry":{"type":"Polygon","coordinates":[[[-0.49499,51.90176],[-0.49378,51.9005],[-0.49293,51.89829],[-0.49221,51.89731],[-0.49062,51.89767],[-0.48786,51.8969],[-0.48868,51.89603],[-0.48827,51.89575],[-0.49078,51.89458],[-0.49167,51.89478],[-0.49202,51.89445],[-0.50001,51.89792],[-0.49972,51.89823],[-0.49887,51.89814],[-0.49891,51.89848],[-0.4976,51.89956],[-0.49683,51.90058],[-0.49483,51.90105],[-0.49507,51.90138],[-0.49555,51.90119],[-0.49663,51.90144],[-0.49643,51.90171],[-0.49738,51.90216],[-0.49672,51.90263],[-0.49499,51.90176]]]}},{"type":"Feature","properties":{"id":"E01015762","name":"E01015762","parent":"E06000032","type":"LSOA","pop":2125,"r":377,"ff":168,"ffd":7905.9,"ffs":0.497,"g":37,"co":0,"mo":0,"sa":0,"ic":0},"geometry":{"type":"Polygon","coordinates":[[[-0.47888,51.89834],[-0.47509,51.89283],[-0.48018,51.89234],[-0.48484,51.89131],[-0.48515,51.89146],[-0.48508,51.892],[-0.48418,51.89213],[-0.48399,51.89184],[-0.48351,51.89212],[-0.48383,51.89351],[-0.4841,51.89367],[-0.48517,51.89324],[-0.48686,51.89415],[-0.4848,51.89473],[-0.48488,51.89507],[-0.48308,51.89558],[-0.48316,51.89602],[-0.48197,51.89627],[-0.48254,51.89621],[-0.48282,51.89661],[-0.48243,51.89687],[-0.47961,51.89772],[-0.47888,51.89834]]]}},{"type":"Feature","properties":{"id":"E01015763","name":"E01015763","parent":"E06000032","type":"LSOA","pop":1667,"r":362,"ff":161,"ffd":9658.1,"ffs":0.4985,"g":37,"co":0,"mo":0,"sa":0,"ic":0},"geometry":{"type":"Polygon","coordinates":[[[-0.48571,51.89946],[-0.48572,51.89891],[-0.486,51.89922],[-0.48684,51.89894],[-0.4867,51.89857],[-0.48592,51.89842],[-0.48673,51.89761],[-0.48616,51.89677],[-0.48536,51.89681],[-0.48513,51.8971],[-0.48567,51.89763],[-0.48532,51.89775],[-0.48462,51.89712],[-0.48306,51.89763],[-0.48266,51.89724],[-0.479,51.8985],[-0.47888,51.89834],[-0.47961,51.89772],[-0.48243,51.89687],[-0.48282,51.89661],[-0.48254,51.89621],[-0.48197,51.89627],[-0.48316,51.89602],[-0.48308,51.89558],[-0.48488,51.89507],[-0.4848,51.89473],[-0.48686,51.89415],[-0.48517,51.89324],[-0.4841,51.89367],[-0.48383,51.89351],[-0.48351,51.89212],[-0.48399,51.89184],[-0.48418,51.89213],[-0.48508,51.892],[-0.48515,51.89146],[-0.49202,51.89445],[-0.49167,51.89478],[-0.49078,51.89458],[-0.48827,51.89575],[-0.48868,51.89603],[-0.48786,51.8969],[-0.48932,51.89738],[-0.48879,51.89797],[-0.48862,51.89868],[-0.48634,51.89945],[-0.48571,51.89946]]]}},{"type":"Feature","properties":{"id":"E01015764","name":"E01015764","parent":"E06000032","type":"LSOA","pop":1819,"r":257,"ff":120,"ffd":6597.0,"ffs":0.5195,"g":24,"co":0,"mo":2,"sa":0,"ic":0},"geometry":{"type":"Polygon","coordinates":[[[-0.44844,51.91246],[-0.44797,51.9113],[-0.44713,51.91154],[-0.4461,51.91115],[-0.4456,51.912],[-0.44531,51.91146],[-0.44372,51.91158],[-0.4436,51.9112],[-0.443,51.91123],[-0.4431,51.91027],[-0.44462,51.90969],[-0.44414,51.90956],[-0.44334,51.90997],[-0.44338,51.90964],[-0.44274,51.90963],[-0.44283,51.90925],[-0.4423,51.90912],[-0.44288,51.90834],[-0.44218,51.90808],[-0.44215,51.90674],[-0.44271,51.90627],[-0.44254,51.9059],[-0.44249,51.90445],[-0.44295,51.90472],[-0.44365,51.90684],[-0.44495,51.90615],[-0.44544,51.90616],[-0.44705,51.90766],[-0.44732,51.90826],[-0.45032,51.90849],[-0.45025,51.90964],[-0.45191,51.90944],[-0.45323,51.90864],[-0.45297,51.90826],[-0.45339,51.90808],[-0.45354,51.90831],[-0.45476,51.90835],[-0.45691,51.90762],[-0.45703,51.90772],[-0.45437,51.90967],[-0.44844,51.91246]]]}},{"type":"Feature","properties":{"id":"E01015765","name":"E01015765","parent":"E06000032","type":"LSOA","pop":2049,"r":320,"ff":144,"ffd":7027.8,"ffs":0.5053,"g":33,"co":0,"mo":2,"sa":0,"ic":0},"geometry":{"type":"Polygon","coordinates":[[[-0.44732,51.90826],[-0.44705,51.90766],[-0.44635,51.90691],[-0.44719,51.90701],[-0.44828,51.90604],[-0.4489,51.90628],[-0.44879,51.9061],[-0.45007,51.90562],[-0.45028,51.90524],[-0.4512,51.90544],[-0.45194,51.90527],[-0.45173,51.90452],[-0.45226,51.9042],[-0.45188,51.90381],[-0.45499,51.90324],[-0.4595,51.90602],[-0.45846,51.90702],[-0.45703,51.90772],[-0.45691,51.90762],[-0.45476,51.90835],[-0.45354,51.90831],[-0.45339,51.90808],[-0.45297,51.90826],[-0.45323,51.90864],[-0.45191,51.90944],[-0.45025,51.90964],[-0.45032,51.90849],[-0.44732,51.90826]]]}},{"type":"Feature","properties":{"id":"E01015766","name":"E01015766","parent":"E06000032","type":"LSOA","pop":1790,"r":337,"ff":154,"ffd":8603.4,"ffs":0.5099,"g":33,"co":0,"mo":2,"sa":0,"ic":0},"geometry":{"type":"Polygon","coordinates":[[[-0.4403,51.90811],[-0.43839,51.90771],[-0.43837,51.90842],[-0.43883,51.90862],[-0.43791,51.90877],[-0.43494,51.90751],[-0.43556,51.90625],[-0.43614,51.90577],[-0.43573,51.90533],[-0.43501,51.90381],[-0.43591,51.9026],[-0.44065,51.90413],[-0.44049,51.90438],[-0.4409,51.90461],[-0.44059,51.9057],[-0.44254,51.9059],[-0.44271,51.90627],[-0.44215,51.90674],[-0.44218,51.90808],[-0.44288,51.90834],[-0.4423,51.90912],[-0.44133,51.90882],[-0.4403,51.90811]]]}},{"type":"Feature","properties":{"id":"E01015767","name":"E01015767","parent":"E06000032","type":"LSOA","pop":1633,"r":340,"ff":154,"ffd":9430.5,"ffs":0.5151,"g":39,"co":0,"mo":2,"sa":0,"ic":0},"geometry":{"type":"Polygon","coordinates":[[[-0.44544,51.90616],[-0.44495,51.90615],[-0.44365,51.90684],[-0.44295,51.90472],[-0.44249,51.90445],[-0.44254,51.9059],[-0.44059,51.9057],[-0.4409,51.90461],[-0.44049,51.90438],[-0.44065,51.90413],[-0.44195,51.90442],[-0.44204,51.90415],[-0.44272,51.90397],[-0.44304,51.90299],[-0.44395,51.90292],[-0.44558,51.90407],[-0.44608,51.90365],[-0.44842,51.90367],[-0.44806,51.90286],[-0.44959,51.9021],[-0.45126,51.9033],[-0.45145,51.90389],[-0.45188,51.90381],[-0.45226,51.9042],[-0.45173,51.90452],[-0.45194,51.90527],[-0.4512,51.90544],[-0.45028,51.90524],[-0.45007,51.90562],[-0.44879,51.9061],[-0.4489,51.90628],[-0.44828,51.90604],[-0.44719,51.90701],[-0.44635,51.90691],[-0.44544,51.90616]]]}},{"type":"Feature","properties":{"id":"E01015768","name":"E01015768","parent":"E06000032","type":"LSOA","pop":1872,"r":327,"ff":150,"ffd":8012.8,"ffs":0.519,"g":36,"co":0,"mo":2,"sa":0,"ic":0},"geometry":{"type":"Polygon","coordinates":[[[-0.43906,51.91283],[-0.4363,51.91072],[-0.43407,51.90997],[-0.43444,51.9093],[-0.43494,51.90751],[-0.43791,51.90877],[-0.43883,51.90862],[-0.43837,51.90842],[-0.43839,51.90771],[-0.4403,51.90811],[-0.44133,51.90882],[-0.44283,51.90925],[-0.44274,51.90963],[-0.44338,51.90964],[-0.44334,51.90997],[-0.44414,51.90956],[-0.44462,51.90969],[-0.4431,51.91027],[-0.443,51.91123],[-0.4436,51.9112],[-0.44372,51.91158],[-0.44531,51.91146],[-0.4456,51.912],[-0.4461,51.91115],[-0.44713,51.91154],[-0.44797,51.9113],[-0.44844,51.91246],[-0.44661,51.91357],[-0.44296,51.91427],[-0.43767,51.91438],[-0.43906,51.91283]]]}},{"type":"Feature","properties":{"id":"E01015769","name":"E01015769","parent":"E06000032","type":"LSOA","pop":1272,"r":293,"ff":132,"ffd":10377.4,"ffs":0.5077,"g":31,"co":2,"mo":2,"sa":0,"ic":0},"geometry":{"type":"Polygon","coordinates":[[[-0.45123,51.91751],[-0.45045,51.91629],[-0.44983,51.91667],[-0.44895,51.91639],[-0.44911,51.91596],[-0.44975,51.91604],[-0.44912,51.91554],[-0.44629,51.91678],[-0.44474,51.91506],[-0.4466,51.91461],[-0.44714,51.91382],[-0.44661,51.91357],[-0.44985,51.91172],[-0.45073,51.91132],[-0.45117,51.9116],[-0.45221,51.91127],[-0.45198,51.91172],[-0.45147,51.91179],[-0.45187,51.91215],[-0.45091,51.913],[-0.45214,51.91343],[-0.45072,51.91449],[-0.45296,51.91638],[-0.45169,51.91685],[-0.45194,51.91741],[-0.45123,51.91751]]]}},{"type":"Feature","properties":{"id":"E01015770","name":"E01015770","parent":"E06000032","type":"LSOA","pop":1359,"r":271,"ff":125,"ffd":9197.9,"ffs":0.5187,"g":28,"co":2,"mo":2,"sa":0,"ic":0},"geometry":{"type":"Polygon","coordinates":[[[-0.4511,51.92112],[-0.44909,51.92013],[-0.44806,51.92024],[-0.44559,51.91908],[-0.44481,51.91946],[-0.44352,51.91827],[-0.44439,51.91759],[-0.44296,51.91427],[-0.44661,51.91357],[-0.44714,51.91382],[-0.4466,51.91461],[-0.44474,51.91506],[-0.44629,51.91678],[-0.44895,51.91554],[-0.44975,51.91604],[-0.44911,51.91596],[-0.44895,51.91639],[-0.44983,51.91667],[-0.45045,51.91629],[-0.45215,51.91881],[-0.45205,51.91917],[-0.45148,51.91928],[-0.45227,51.92028],[-0.45158,51.92044],[-0.4511,51.92112]]]}},{"type":"Feature","properties":{"id":"E01015771","name":"E01015771","parent":"E06000032","type":"LSOA","pop":1644,"r":261,"ff":119,"ffd":7238.4,"ffs":0.5152,"g":28,"co":2,"mo":2,"sa":0,"ic":0},"geometry":{"type":"Polygon","coordinates":[[[-0.45227,51.92028],[-0.45148,51.91928],[-0.45205,51.91917],[-0.45215,51.91881],[-0.45123,51.91751],[-0.45194,51.91741],[-0.45169,51.91685],[-0.45296,51.91638],[-0.4522,51.91582],[-0.45526,51.91396],[-0.45768,51.91365],[-0.45713,51.91639],[-0.45817,51.91788],[-0.45936,51.91874],[-0.46084,51.91823],[-0.46059,51.91876],[-0.45955,51.91897],[-0.46005,51.91984],[-0.45732,51.92022],[-0.45687,51.91978],[-0.45428,51.92062],[-0.45513,51.9219],[-0.45506,51.92267],[-0.45417,51.92293],[-0.453,51.9231],[-0.45214,51.92172],[-0.4511,51.92112],[-0.45158,51.92044],[-0.45227,51.92028]]]}},{"type":"Feature","properties":{"id":"E01015772","name":"E01015772","parent":"E06000032","type":"LSOA","pop":1582,"r":290,"ff":128,"ffd":8091.0,"ffs":0.502,"g":33,"co":2,"mo":2,"sa":0,"ic":0},"geometry":{"type":"Polygon","coordinates":[[[-0.45198,51.91172],[-0.45221,51.91127],[-0.45117,51.9116],[-0.45073,51.91132],[-0.45437,51.90967],[-0.45672,51.91167],[-0.45733,51.91243],[-0.45768,51.91365],[-0.45526,51.91396],[-0.4522,51.91582],[-0.45072,51.91449],[-0.45214,51.91343],[-0.45091,51.913],[-0.45187,51.91215],[-0.45147,51.91179],[-0.45198,51.91172]]]}},{"type":"Feature","properties":{"id":"E01015773","name":"E01015773","parent":"E06000032","type":"LSOA","pop":1273,"r":251,"ff":115,"ffd":9033.8,"ffs":0.518,"g":27,"co":2,"mo":2,"sa":0,"ic":0},"geometry":{"type":"Polygon","coordinates":[[[-0.45428,51.92062],[-0.45687,51.91978],[-0.45732,51.92022],[-0.46005,51.91984],[-0.46034,51.9212],[-0.45831,51.92182],[-0.45884,51.92228],[-0.45852,51.92261],[-0.4559,51.92292],[-0.45646,51.92459],[-0.45184,51.92476],[-0.45116,51.92342],[-0.45506,51.92267],[-0.45513,51.9219],[-0.45428,51.92062]]]}},{"type":"Feature","properties":{"id":"E01015774","name":"E01015774","parent":"E06000032","type":"LSOA","pop":1520,"r":245,"ff":112,"ffd":7368.4,"ffs":0.5209,"g":28,"co":2,"mo":2,"sa":0,"ic":0},"geometry":{"type":"Polygon","coordinates":[[[-0.46059,51.91876],[-0.46084,51.91823],[-0.46139,51.91849],[-0.46234,51.92165],[-0.46238,51.9236],[-0.45894,51.92391],[-0.45643,51.9245],[-0.4559,51.92292],[-0.45852,51.92261],[-0.45884,51.92228],[-0.45831,51.92182],[-0.46034,51.9212],[-0.46005,51.91984],[-0.45955,51.91897],[-0.46059,51.91876]]]}},{"type":"Feature","properties":{"id":"E01015775","name":"E01015775","parent":"E06000032","type":"LSOA","pop":2040,"r":321,"ff":143,"ffd":7009.8,"ffs":0.4897,"g":28,"co":0,"mo":2,"sa":0,"ic":0},"geometry":{"type":"Polygon","coordinates":[[[-0.40726,51.90094],[-0.40482,51.89802],[-0.40413,51.89803],[-0.40389,51.89692],[-0.40186,51.89605],[-0.40265,51.89509],[-0.402,51.89469],[-0.40357,51.89426],[-0.40427,51.8947],[-0.40598,51.89349],[-0.40701,51.89313],[-0.40825,51.89313],[-0.40873,51.89421],[-0.40921,51.89372],[-0.41045,51.89376],[-0.41116,51.89448],[-0.41183,51.89647],[-0.41096,51.89785],[-0.41094,51.89945],[-0.41007,51.89959],[-0.41012,51.90064],[-0.40931,51.90129],[-0.40826,51.9013],[-0.40841,51.90185],[-0.40777,51.90197],[-0.40726,51.90094]]]}},{"type":"Feature","properties":{"id":"E01015776","name":"E01015776","parent":"E06000032","type":"LSOA","pop":2017,"r":304,"ff":134,"ffd":6643.5,"ffs":0.4855,"g":27,"co":0,"mo":2,"sa":0,"ic":0},"geometry":{"type":"Polygon","coordinates":[[[-0.38985,51.89662],[-0.3905,51.89628],[-0.39015,51.89602],[-0.39273,51.89482],[-0.38976,51.8931],[-0.38985,51.8926],[-0.39056,51.89246],[-0.39048,51.89192],[-0.39087,51.89156],[-0.39128,51.8917],[-0.39215,51.89122],[-0.39619,51.89369],[-0.39726,51.89256],[-0.3983,51.89325],[-0.39846,51.89356],[-0.39747,51.89374],[-0.39735,51.89402],[-0.39801,51.89473],[-0.3975,51.89471],[-0.39743,51.89442],[-0.39662,51.89471],[-0.39818,51.89561],[-0.39879,51.89667],[-0.39847,51.89687],[-0.39911,51.89725],[-0.39788,51.89944],[-0.3944,51.89667],[-0.39264,51.89829],[-0.39211,51.8993],[-0.39262,51.9003],[-0.39227,51.90036],[-0.39047,51.89972],[-0.38985,51.89902],[-0.39047,51.89889],[-0.38929,51.89728],[-0.38985,51.89662]]]}},{"type":"Feature","properties":{"id":"E01015777","name":"E01015777","parent":"E06000032","type":"LSOA","pop":2015,"r":325,"ff":144,"ffd":7146.4,"ffs":0.4915,"g":31,"co":0,"mo":2,"sa":0,"ic":0},"geometry":{"type":"Polygon","coordinates":[[[-0.39818,51.89561],[-0.39662,51.89471],[-0.39743,51.89442],[-0.3975,51.89471],[-0.39801,51.89473],[-0.39735,51.89402],[-0.39747,51.89374],[-0.39846,51.89356],[-0.3983,51.89325],[-0.39661,51.89213],[-0.39873,51.89108],[-0.39924,51.89126],[-0.40239,51.89057],[-0.40305,51.88921],[-0.40399,51.88865],[-0.40427,51.88947],[-0.40481,51.88973],[-0.40406,51.89104],[-0.40437,51.89191],[-0.40294,51.89195],[-0.40268,51.89219],[-0.40429,51.89228],[-0.40429,51.89258],[-0.40346,51.89278],[-0.40357,51.89426],[-0.402,51.89469],[-0.40124,51.89578],[-0.39911,51.89725],[-0.39847,51.89687],[-0.39879,51.89667],[-0.39818,51.89561]]]}},{"type":"Feature","properties":{"id":"E01015778","name":"E01015778","parent":"E06000032","type":"LSOA","pop":1878,"r":321,"ff":142,"ffd":7561.2,"ffs":0.488,"g":29,"co":0,"mo":2,"sa":0,"ic":0},"geometry":{"type":"Polygon","coordinates":[[[-0.40357,51.89426],[-0.40346,51.89278],[-0.40429,51.89258],[-0.40429,51.89228],[-0.40268,51.89219],[-0.40294,51.89195],[-0.40437,51.89191],[-0.40406,51.89104],[-0.40481,51.88973],[-0.40577,51.88906],[-0.40602,51.88989],[-0.40796,51.88999],[-0.40771,51.88973],[-0.40901,51.88914],[-0.40944,51.89007],[-0.41272,51.89027],[-0.41302,51.89158],[-0.41465,51.89146],[-0.4132,51.8921],[-0.41272,51.89272],[-0.4108,51.89277],[-0.41045,51.89376],[-0.40921,51.89372],[-0.40873,51.89421],[-0.40825,51.89313],[-0.40701,51.89313],[-0.40598,51.89349],[-0.40427,51.8947],[-0.40357,51.89426]]]}},{"type":"Feature","properties":{"id":"E01015779","name":"E01015779","parent":"E06000032","type":"LSOA","pop":1563,"r":310,"ff":136,"ffd":8701.2,"ffs":0.484,"g":28,"co":0,"mo":2,"sa":0,"ic":0},"geometry":{"type":"Polygon","coordinates":[[[-0.39619,51.89369],[-0.39215,51.89122],[-0.39128,51.8917],[-0.39087,51.89156],[-0.39048,51.89192],[-0.39056,51.89246],[-0.38985,51.8926],[-0.38976,51.8931],[-0.3883,51.89237],[-0.38513,51.88987],[-0.38671,51.8893],[-0.38884,51.888],[-0.39077,51.88763],[-0.39221,51.88806],[-0.395,51.89016],[-0.39391,51.89084],[-0.39673,51.89272],[-0.39717,51.89263],[-0.39619,51.89369]]]}},{"type":"Feature","properties":{"id":"E01015780","name":"E01015780","parent":"E06000032","type":"LSOA","pop":1804,"r":325,"ff":143,"ffd":7926.8,"ffs":0.4897,"g":32,"co":0,"mo":2,"sa":0,"ic":0},"geometry":{"type":"Polygon","coordinates":[[[-0.39673,51.89272],[-0.39391,51.89084],[-0.395,51.89016],[-0.39221,51.88806],[-0.39077,51.88763],[-0.39272,51.88666],[-0.39344,51.88719],[-0.39376,51.887],[-0.39421,51.8872],[-0.39731,51.88935],[-0.398,51.88893],[-0.39897,51.88916],[-0.39967,51.88868],[-0.39986,51.88899],[-0.40029,51.88891],[-0.4003,51.88849],[-0.40078,51.88835],[-0.39958,51.88678],[-0.39965,51.88639],[-0.4004,51.88619],[-0.40023,51.88599],[-0.39967,51.88613],[-0.39911,51.88543],[-0.40033,51.88512],[-0.4019,51.88813],[-0.40253,51.88781],[-0.40305,51.88921],[-0.40239,51.89057],[-0.40124,51.89094],[-0.39924,51.89126],[-0.39873,51.89108],[-0.3982,51.89127],[-0.39661,51.89213],[-0.39726,51.89256],[-0.39673,51.89272]]]}},{"type":"Feature","properties":{"id":"E01015781","name":"E01015781","parent":"E06000032","type":"LSOA","pop":1767,"r":321,"ff":139,"ffd":7866.4,"ffs":0.4826,"g":32,"co":0,"mo":2,"sa":0,"ic":0},"geometry":{"type":"Polygon","coordinates":[[[-0.39687,51.88917],[-0.39421,51.8872],[-0.39376,51.887],[-0.39344,51.88719],[-0.39272,51.88666],[-0.39918,51.88229],[-0.39955,51.88252],[-0.39906,51.88282],[-0.40033,51.88512],[-0.39911,51.88543],[-0.39967,51.88613],[-0.40023,51.88599],[-0.4004,51.88619],[-0.39965,51.88639],[-0.39958,51.88678],[-0.40078,51.88835],[-0.4003,51.88849],[-0.40029,51.88891],[-0.39986,51.88899],[-0.39967,51.88868],[-0.39897,51.88916],[-0.398,51.88893],[-0.39731,51.88935],[-0.39687,51.88917]]]}},{"type":"Feature","properties":{"id":"E01015782","name":"E01015782","parent":"E06000032","type":"LSOA","pop":2527,"r":335,"ff":153,"ffd":6054.6,"ffs":0.5016,"g":29,"co":0,"mo":2,"sa":0,"ic":0},"geometry":{"type":"Polygon","coordinates":[[[-0.43398,51.90418],[-0.43336,51.90397],[-0.432,51.90416],[-0.42917,51.90326],[-0.42886,51.90227],[-0.42843,51.90196],[-0.4283,51.90159],[-0.43041,51.90121],[-0.43294,51.90116],[-0.43303,51.90033],[-0.43404,51.89988],[-0.43316,51.89747],[-0.4323,51.89692],[-0.43267,51.89629],[-0.43544,51.89568],[-0.4356,51.89595],[-0.4351,51.8962],[-0.4358,51.89735],[-0.43638,51.89775],[-0.43585,51.89981],[-0.43605,51.90047],[-0.4369,51.90088],[-0.43681,51.90132],[-0.43789,51.90181],[-0.43811,51.90256],[-0.43765,51.90273],[-0.43648,51.90237],[-0.43618,51.90269],[-0.43591,51.9026],[-0.43501,51.90381],[-0.43558,51.90488],[-0.43397,51.90479],[-0.43398,51.90418]]]}},{"type":"Feature","properties":{"id":"E01015783","name":"E01015783","parent":"E06000032","type":"LSOA","pop":1880,"r":335,"ff":152,"ffd":8085.1,"ffs":0.5,"g":29,"co":0,"mo":2,"sa":0,"ic":0},"geometry":{"type":"Polygon","coordinates":[[[-0.43882,51.9036],[-0.43618,51.90269],[-0.43648,51.90237],[-0.43765,51.90273],[-0.43811,51.90256],[-0.43789,51.90181],[-0.43681,51.90132],[-0.43719,51.90056],[-0.43749,51.89852],[-0.43999,51.89888],[-0.44077,51.89831],[-0.4433,51.8986],[-0.44377,51.90008],[-0.44202,51.90107],[-0.44281,51.90177],[-0.44172,51.90251],[-0.44203,51.90321],[-0.4414,51.90386],[-0.44204,51.90415],[-0.44195,51.90442],[-0.43882,51.9036]]]}},{"type":"Feature","properties":{"id":"E01015784","name":"E01015784","parent":"E06000032","type":"LSOA","pop":2519,"r":333,"ff":152,"ffd":6034.1,"ffs":0.5,"g":28,"co":0,"mo":2,"sa":0,"ic":0},"geometry":{"type":"Polygon","coordinates":[[[-0.43265,51.89629],[-0.4323,51.89692],[-0.43316,51.89747],[-0.43404,51.89988],[-0.43303,51.90033],[-0.43294,51.90116],[-0.43041,51.90121],[-0.4283,51.90159],[-0.42698,51.89646],[-0.43265,51.89629]]]}},{"type":"Feature","properties":{"id":"E01015785","name":"E01015785","parent":"E06000032","type":"LSOA","pop":2762,"r":334,"ff":151,"ffd":5467.1,"ffs":0.5136,"g":38,"co":0,"mo":2,"sa":0,"ic":0},"geometry":{"type":"Polygon","coordinates":[[[-0.44203,51.90321],[-0.44172,51.90251],[-0.44281,51.90177],[-0.44202,51.90107],[-0.44377,51.90008],[-0.4433,51.8986],[-0.44583,51.89894],[-0.44632,51.89866],[-0.44744,51.89864],[-0.45499,51.90324],[-0.45145,51.90389],[-0.45126,51.9033],[-0.44959,51.9021],[-0.44806,51.90286],[-0.44842,51.90367],[-0.44608,51.90365],[-0.44558,51.90407],[-0.44395,51.90292],[-0.44304,51.90299],[-0.44272,51.90397],[-0.44204,51.90415],[-0.4414,51.90386],[-0.44203,51.90321]]]}},{"type":"Feature","properties":{"id":"E01015786","name":"E01015786","parent":"E06000032","type":"LSOA","pop":2487,"r":337,"ff":153,"ffd":6152.0,"ffs":0.5016,"g":30,"co":0,"mo":2,"sa":0,"ic":0},"geometry":{"type":"Polygon","coordinates":[[[-0.43585,51.89981],[-0.43638,51.89775],[-0.4358,51.89735],[-0.4351,51.8962],[-0.4356,51.89595],[-0.43544,51.89568],[-0.43758,51.89438],[-0.43703,51.89405],[-0.4384,51.89313],[-0.4409,51.8946],[-0.44007,51.89544],[-0.44325,51.89666],[-0.44329,51.89859],[-0.44077,51.89831],[-0.43999,51.89888],[-0.43749,51.89852],[-0.43719,51.90056],[-0.4369,51.90088],[-0.43605,51.90047],[-0.43585,51.89981]]]}},{"type":"Feature","properties":{"id":"E01015787","name":"E01015787","parent":"E06000032","type":"LSOA","pop":2678,"r":368,"ff":166,"ffd":6198.7,"ffs":0.5046,"g":37,"co":0,"mo":2,"sa":0,"ic":0},"geometry":{"type":"Polygon","coordinates":[[[-0.44007,51.89544],[-0.4409,51.8946],[-0.44118,51.89477],[-0.44214,51.89413],[-0.44308,51.89408],[-0.44284,51.89347],[-0.44208,51.89318],[-0.44188,51.89255],[-0.44242,51.8922],[-0.44331,51.89234],[-0.44309,51.89285],[-0.44345,51.893],[-0.44332,51.89322],[-0.44487,51.89349],[-0.44489,51.89378],[-0.44575,51.89339],[-0.44602,51.89151],[-0.44532,51.89122],[-0.44589,51.89087],[-0.44924,51.89197],[-0.45256,51.89211],[-0.45216,51.8948],[-0.44959,51.89684],[-0.44695,51.89834],[-0.44744,51.89864],[-0.44632,51.89866],[-0.44583,51.89894],[-0.4433,51.8986],[-0.44325,51.89666],[-0.44007,51.89544]]]}},{"type":"Feature","properties":{"id":"E01015788","name":"E01015788","parent":"E06000032","type":"LSOA","pop":2198,"r":364,"ff":169,"ffd":7688.8,"ffs":0.5121,"g":32,"co":0,"mo":2,"sa":0,"ic":0},"geometry":{"type":"Polygon","coordinates":[[[-0.43735,51.89247],[-0.43807,51.89173],[-0.44028,51.8904],[-0.44108,51.88973],[-0.44345,51.89046],[-0.44589,51.89087],[-0.44532,51.89122],[-0.44602,51.89151],[-0.44575,51.89339],[-0.44489,51.89378],[-0.44487,51.89349],[-0.44332,51.89322],[-0.44345,51.893],[-0.44309,51.89285],[-0.44331,51.89234],[-0.44242,51.8922],[-0.44188,51.89255],[-0.44208,51.89318],[-0.44284,51.89347],[-0.44308,51.89408],[-0.44214,51.89413],[-0.44118,51.89477],[-0.43735,51.89247]]]}},{"type":"Feature","properties":{"id":"E01015789","name":"E01015789","parent":"E06000032","type":"LSOA","pop":2567,"r":350,"ff":150,"ffd":5843.4,"ffs":0.4808,"g":36,"co":2,"mo":2,"sa":0,"ic":0},"geometry":{"type":"Polygon","coordinates":[[[-0.40712,51.88047],[-0.40443,51.87894],[-0.39973,51.87547],[-0.40312,51.87529],[-0.40169,51.87424],[-0.4056,51.87258],[-0.40603,51.87307],[-0.40644,51.87284],[-0.40692,51.87313],[-0.40894,51.87206],[-0.40952,51.87257],[-0.40917,51.87285],[-0.40986,51.87344],[-0.40967,51.87368],[-0.41184,51.87448],[-0.41129,51.87471],[-0.4107,51.87441],[-0.41072,51.87519],[-0.41029,51.87549],[-0.41093,51.87578],[-0.41037,51.87592],[-0.41073,51.87608],[-0.41247,51.87603],[-0.41196,51.87679],[-0.41063,51.87659],[-0.4103,51.87683],[-0.41258,51.87818],[-0.40977,51.87983],[-0.4085,51.87955],[-0.40712,51.88047]]]}},{"type":"Feature","properties":{"id":"E01015790","name":"E01015790","parent":"E06000032","type":"LSOA","pop":1872,"r":348,"ff":148,"ffd":7906.0,"ffs":0.4774,"g":36,"co":2,"mo":3,"sa":0,"ic":0},"geometry":{"type":"Polygon","coordinates":[[[-0.39973,51.87547],[-0.3947,51.87181],[-0.39149,51.87012],[-0.39318,51.86973],[-0.39586,51.87058],[-0.40101,51.86851],[-0.40629,51.86353],[-0.40737,51.8638],[-0.40752,51.86425],[-0.40867,51.86414],[-0.40929,51.86436],[-0.40791,51.86551],[-0.40956,51.86579],[-0.41041,51.86507],[-0.41089,51.86515],[-0.41066,51.86545],[-0.41146,51.8664],[-0.41302,51.8669],[-0.41196,51.86793],[-0.41224,51.868],[-0.4122,51.86845],[-0.41002,51.86935],[-0.41067,51.86993],[-0.4102,51.87023],[-0.4104,51.87048],[-0.41184,51.87087],[-0.41009,51.87258],[-0.40952,51.87257],[-0.40894,51.87206],[-0.40692,51.87313],[-0.40644,51.87284],[-0.40603,51.87307],[-0.4056,51.87258],[-0.40169,51.87424],[-0.40312,51.87529],[-0.39973,51.87547]]]}},{"type":"Feature","properties":{"id":"E01015792","name":"E01015792","parent":"E06000032","type":"LSOA","pop":2045,"r":355,"ff":151,"ffd":7383.9,"ffs":0.4763,"g":36,"co":2,"mo":3,"sa":0,"ic":0},"geometry":{"type":"Polygon","coordinates":[[[-0.40917,51.87285],[-0.40952,51.87257],[-0.41009,51.87258],[-0.41184,51.87087],[-0.4104,51.87048],[-0.4102,51.87023],[-0.41067,51.86993],[-0.41049,51.86971],[-0.41124,51.86976],[-0.41175,51.86916],[-0.4145,51.8704],[-0.4153,51.87024],[-0.41647,51.87079],[-0.4165,51.87149],[-0.41626,51.87177],[-0.4149,51.87132],[-0.41458,51.87185],[-0.41575,51.87226],[-0.41544,51.87271],[-0.4144,51.87237],[-0.4139,51.8728],[-0.41326,51.87294],[-0.41222,51.87431],[-0.41184,51.87448],[-0.40967,51.87368],[-0.40986,51.87344],[-0.40917,51.87285]]]}},{"type":"Feature","properties":{"id":"E01015793","name":"E01015793","parent":"E06000032","type":"LSOA","pop":1932,"r":371,"ff":152,"ffd":7867.5,"ffs":0.4677,"g":44,"co":2,"mo":2,"sa":0,"ic":0},"geometry":{"type":"Polygon","coordinates":[[[-0.41793,51.87173],[-0.41758,51.87148],[-0.41725,51.87175],[-0.4165,51.87149],[-0.41647,51.87079],[-0.4153,51.87024],[-0.4145,51.8704],[-0.41175,51.86916],[-0.41124,51.86976],[-0.41049,51.86971],[-0.41002,51.86935],[-0.4122,51.86845],[-0.41224,51.868],[-0.41196,51.86793],[-0.41302,51.8669],[-0.41146,51.8664],[-0.41066,51.86545],[-0.41089,51.86515],[-0.41041,51.86507],[-0.40956,51.86579],[-0.40791,51.86551],[-0.40929,51.86436],[-0.40867,51.86414],[-0.40752,51.86425],[-0.40737,51.8638],[-0.40629,51.86353],[-0.40912,51.86149],[-0.41082,51.86178],[-0.41254,51.86287],[-0.41606,51.86198],[-0.41768,51.86527],[-0.41864,51.86781],[-0.41781,51.87049],[-0.41838,51.87238],[-0.41816,51.87274],[-0.41751,51.87253],[-0.41802,51.8724],[-0.41793,51.87173]]]}},{"type":"Feature","properties":{"id":"E01015795","name":"E01015795","parent":"E06000032","type":"LSOA","pop":3450,"r":365,"ff":154,"ffd":4463.8,"ffs":0.4753,"g":39,"co":0,"mo":2,"sa":0,"ic":0},"geometry":{"type":"Polygon","coordinates":[[[-0.42525,51.87933],[-0.42501,51.87862],[-0.42417,51.87854],[-0.42337,51.87895],[-0.42351,51.87789],[-0.42253,51.87776],[-0.42268,51.87823],[-0.42231,51.8779],[-0.4218,51.87816],[-0.4214,51.87792],[-0.42022,51.87884],[-0.41975,51.87859],[-0.41931,51.87879],[-0.41932,51.87836],[-0.4184,51.87776],[-0.41684,51.87731],[-0.4181,51.87617],[-0.41892,51.87611],[-0.41968,51.87546],[-0.41975,51.87511],[-0.41926,51.87514],[-0.41927,51.87485],[-0.41841,51.87489],[-0.41895,51.87476],[-0.42125,51.87537],[-0.42055,51.87643],[-0.42256,51.87695],[-0.42647,51.87623],[-0.42785,51.87765],[-0.43098,51.87813],[-0.43085,51.87849],[-0.43134,51.87864],[-0.43117,51.8793],[-0.42696,51.87871],[-0.42657,51.87891],[-0.42575,51.87875],[-0.42567,51.87911],[-0.42525,51.87933]]]}},{"type":"Feature","properties":{"id":"E01015796","name":"E01015796","parent":"E06000032","type":"LSOA","pop":1458,"r":312,"ff":139,"ffd":9533.6,"ffs":0.4912,"g":28,"co":0,"mo":2,"sa":0,"ic":0},"geometry":{"type":"Polygon","coordinates":[[[-0.39385,51.90468],[-0.3954,51.90286],[-0.39406,51.90302],[-0.39329,51.90259],[-0.39462,51.90225],[-0.39224,51.90083],[-0.39263,51.90052],[-0.39227,51.90036],[-0.39262,51.9003],[-0.39211,51.8993],[-0.39264,51.89829],[-0.3944,51.89667],[-0.39788,51.89944],[-0.39911,51.89725],[-0.40124,51.89578],[-0.402,51.89478],[-0.40265,51.89509],[-0.40186,51.89605],[-0.40389,51.89692],[-0.40413,51.89803],[-0.40482,51.89802],[-0.40726,51.90094],[-0.40778,51.90199],[-0.40362,51.90171],[-0.40337,51.90316],[-0.4019,51.90311],[-0.40004,51.90437],[-0.3991,51.90646],[-0.39806,51.90634],[-0.39586,51.90531],[-0.39363,51.90495],[-0.39385,51.90468]]]}},{"type":"Feature","properties":{"id":"E01015797","name":"E01015797","parent":"E06000032","type":"LSOA","pop":1328,"r":293,"ff":128,"ffd":9638.6,"ffs":0.4794,"g":25,"co":0,"mo":2,"sa":0,"ic":0},"geometry":{"type":"Polygon","coordinates":[[[-0.38722,51.91594],[-0.38661,51.91563],[-0.38562,51.91568],[-0.38575,51.91457],[-0.38495,51.91127],[-0.38065,51.9065],[-0.38312,51.90638],[-0.38368,51.90649],[-0.38396,51.90695],[-0.38467,51.90688],[-0.38394,51.90664],[-0.38479,51.90659],[-0.38534,51.90532],[-0.38677,51.9051],[-0.38681,51.90489],[-0.38783,51.90523],[-0.38834,51.90588],[-0.38794,51.90626],[-0.38846,51.90673],[-0.38911,51.90662],[-0.38947,51.90637],[-0.38898,51.90581],[-0.38942,51.90552],[-0.38895,51.90497],[-0.38935,51.90477],[-0.39057,51.90597],[-0.39112,51.90577],[-0.39211,51.90714],[-0.39806,51.90634],[-0.3991,51.90646],[-0.40004,51.90437],[-0.4019,51.90311],[-0.40337,51.90316],[-0.40362,51.90171],[-0.40778,51.90199],[-0.40905,51.90225],[-0.40971,51.90206],[-0.41031,51.90288],[-0.40975,51.90294],[-0.40907,51.90459],[-0.40934,51.90488],[-0.40895,51.90481],[-0.40899,51.9066],[-0.41,51.90665],[-0.40758,51.9107],[-0.40244,51.9097],[-0.40122,51.91305],[-0.39373,51.91546],[-0.39301,51.91441],[-0.38722,51.91594]]]}},{"type":"Feature","properties":{"id":"E01015798","name":"E01015798","parent":"E06000032","type":"LSOA","pop":1404,"r":304,"ff":135,"ffd":9615.4,"ffs":0.4891,"g":27,"co":0,"mo":2,"sa":0,"ic":0},"geometry":{"type":"Polygon","coordinates":[[[-0.39211,51.90714],[-0.39112,51.90577],[-0.39057,51.90597],[-0.38935,51.90477],[-0.38895,51.90497],[-0.38942,51.90552],[-0.38898,51.90581],[-0.38947,51.90637],[-0.38846,51.90673],[-0.38794,51.90626],[-0.38834,51.90588],[-0.38783,51.90523],[-0.38681,51.90489],[-0.38677,51.9051],[-0.38534,51.90532],[-0.38497,51.90488],[-0.38583,51.90404],[-0.38555,51.90371],[-0.38646,51.90358],[-0.38722,51.9039],[-0.38826,51.90341],[-0.38815,51.9024],[-0.38745,51.90248],[-0.38707,51.90155],[-0.38819,51.90147],[-0.3883,51.90108],[-0.38897,51.90108],[-0.38895,51.90147],[-0.38979,51.90152],[-0.39025,51.90118],[-0.39321,51.90218],[-0.39367,51.90166],[-0.39462,51.90225],[-0.39329,51.90259],[-0.39406,51.90302],[-0.3954,51.90286],[-0.39363,51.90495],[-0.39586,51.90531],[-0.39806,51.90634],[-0.39211,51.90714]]]}},{"type":"Feature","properties":{"id":"E01015799","name":"E01015799","parent":"E06000032","type":"LSOA","pop":1400,"r":280,"ff":125,"ffd":8928.6,"ffs":0.4864,"g":22,"co":0,"mo":2,"sa":0,"ic":0},"geometry":{"type":"Polygon","coordinates":[[[-0.38368,51.90649],[-0.38065,51.9065],[-0.37991,51.90531],[-0.3786,51.90397],[-0.37838,51.90169],[-0.38018,51.90104],[-0.37988,51.90055],[-0.38049,51.89956],[-0.38428,51.89837],[-0.38482,51.89875],[-0.38479,51.89941],[-0.38326,51.8997],[-0.38362,51.90002],[-0.38331,51.90029],[-0.38271,51.9002],[-0.38366,51.90114],[-0.38412,51.90107],[-0.38414,51.90154],[-0.38326,51.90161],[-0.38288,51.90197],[-0.38369,51.90269],[-0.38441,51.90252],[-0.38583,51.90404],[-0.38497,51.90488],[-0.38534,51.90532],[-0.38479,51.90659],[-0.38394,51.90664],[-0.38467,51.90688],[-0.38396,51.90695],[-0.38368,51.90649]]]}},{"type":"Feature","properties":{"id":"E01015800","name":"E01015800","parent":"E06000032","type":"LSOA","pop":1451,"r":296,"ff":130,"ffd":8959.3,"ffs":0.4851,"g":27,"co":0,"mo":2,"sa":0,"ic":0},"geometry":{"type":"Polygon","coordinates":[[[-0.38722,51.9039],[-0.38646,51.90358],[-0.38555,51.90371],[-0.38441,51.90252],[-0.38369,51.90269],[-0.38288,51.90197],[-0.38326,51.90161],[-0.38414,51.90154],[-0.38412,51.90107],[-0.38366,51.90114],[-0.38271,51.9002],[-0.38331,51.90029],[-0.38362,51.90002],[-0.38326,51.8997],[-0.38479,51.89941],[-0.38482,51.89875],[-0.38523,51.89895],[-0.38655,51.89865],[-0.38727,51.8993],[-0.38906,51.89895],[-0.3893,51.89913],[-0.38985,51.89902],[-0.39047,51.89972],[-0.39263,51.90052],[-0.39224,51.90083],[-0.39367,51.90166],[-0.39321,51.90218],[-0.39025,51.90118],[-0.38979,51.90152],[-0.38895,51.90147],[-0.38897,51.90108],[-0.3883,51.90108],[-0.38819,51.90147],[-0.38707,51.90155],[-0.38745,51.90248],[-0.38815,51.9024],[-0.38826,51.90341],[-0.38722,51.9039]]]}},{"type":"Feature","properties":{"id":"E01015801","name":"E01015801","parent":"E06000032","type":"LSOA","pop":2020,"r":271,"ff":120,"ffd":5940.6,"ffs":0.5021,"g":30,"co":2,"mo":2,"sa":0,"ic":0},"geometry":{"type":"Polygon","coordinates":[[[-0.46313,51.91514],[-0.46202,51.91314],[-0.4596,51.91356],[-0.45934,51.91252],[-0.45841,51.91255],[-0.45851,51.91309],[-0.4576,51.91306],[-0.45672,51.91167],[-0.45437,51.90967],[-0.45703,51.90772],[-0.45846,51.90702],[-0.4595,51.90602],[-0.47062,51.91278],[-0.4707,51.91317],[-0.46898,51.91394],[-0.46943,51.91405],[-0.46923,51.91434],[-0.46837,51.91406],[-0.46702,51.91436],[-0.46683,51.91405],[-0.46572,51.91422],[-0.46644,51.9147],[-0.46631,51.91519],[-0.46304,51.91591],[-0.46272,51.91535],[-0.46313,51.91514]]]}},{"type":"Feature","properties":{"id":"E01015802","name":"E01015802","parent":"E06000032","type":"LSOA","pop":1709,"r":280,"ff":126,"ffd":7372.7,"ffs":0.5081,"g":30,"co":2,"mo":2,"sa":0,"ic":0},"geometry":{"type":"Polygon","coordinates":[[[-0.45936,51.91874],[-0.45817,51.91788],[-0.45713,51.91639],[-0.45768,51.91365],[-0.4576,51.91306],[-0.45851,51.91309],[-0.45841,51.91255],[-0.45934,51.91252],[-0.4596,51.91356],[-0.46202,51.91314],[-0.46313,51.91514],[-0.46272,51.91535],[-0.46379,51.91691],[-0.46333,51.91731],[-0.46246,51.9174],[-0.46139,51.91849],[-0.46084,51.91823],[-0.45936,51.91874]]]}},{"type":"Feature","properties":{"id":"E01015803","name":"E01015803","parent":"E06000032","type":"LSOA","pop":1615,"r":249,"ff":108,"ffd":6687.3,"ffs":0.5,"g":31,"co":2,"mo":2,"sa":0,"ic":0},"geometry":{"type":"Polygon","coordinates":[[[-0.46238,51.9236],[-0.46242,51.92318],[-0.46305,51.92329],[-0.46357,51.9223],[-0.4645,51.92213],[-0.46452,51.92182],[-0.46541,51.92181],[-0.46638,51.92121],[-0.46666,51.92148],[-0.4686,51.92087],[-0.46904,51.92053],[-0.46713,51.91949],[-0.46745,51.91924],[-0.46816,51.91937],[-0.46938,51.9201],[-0.47025,51.91982],[-0.47069,51.91789],[-0.47182,51.91776],[-0.47312,51.9196],[-0.4711,51.9212],[-0.47219,51.9216],[-0.4719,51.92123],[-0.47273,51.9218],[-0.47389,51.92169],[-0.47488,51.92371],[-0.46996,51.92418],[-0.46238,51.9236]]]}},{"type":"Feature","properties":{"id":"E01015804","name":"E01015804","parent":"E06000032","type":"LSOA","pop":2020,"r":278,"ff":122,"ffd":6039.6,"ffs":0.5021,"g":33,"co":2,"mo":2,"sa":0,"ic":0},"geometry":{"type":"Polygon","coordinates":[[[-0.47488,51.92371],[-0.47389,51.92169],[-0.47273,51.9218],[-0.4719,51.92123],[-0.47219,51.9216],[-0.4711,51.9212],[-0.47312,51.9196],[-0.47182,51.91776],[-0.47069,51.91789],[-0.47025,51.91982],[-0.46938,51.9201],[-0.46635,51.91836],[-0.46637,51.91688],[-0.46717,51.9166],[-0.46716,51.91639],[-0.46575,51.91645],[-0.46422,51.9171],[-0.46379,51.91691],[-0.46304,51.91591],[-0.46631,51.91519],[-0.46644,51.9147],[-0.46572,51.91422],[-0.46683,51.91405],[-0.46702,51.91436],[-0.46837,51.91406],[-0.46923,51.91434],[-0.46943,51.91405],[-0.46898,51.91394],[-0.4707,51.91317],[-0.47062,51.91278],[-0.47834,51.9175],[-0.4785,51.91733],[-0.48657,51.92215],[-0.4857,51.9227],[-0.48275,51.92232],[-0.47488,51.92371]]]}},{"type":"Feature","properties":{"id":"E01015805","name":"E01015805","parent":"E06000032","type":"LSOA","pop":1297,"r":259,"ff":112,"ffd":8635.3,"ffs":0.4934,"g":30,"co":2,"mo":2,"sa":0,"ic":0},"geometry":{"type":"Polygon","coordinates":[[[-0.46234,51.92165],[-0.46139,51.91849],[-0.46246,51.9174],[-0.46333,51.91731],[-0.46379,51.91691],[-0.46422,51.9171],[-0.46575,51.91645],[-0.46716,51.91639],[-0.46717,51.9166],[-0.46637,51.91688],[-0.46635,51.91836],[-0.46816,51.91937],[-0.46745,51.91924],[-0.46713,51.91949],[-0.46904,51.92053],[-0.4686,51.92087],[-0.46666,51.92148],[-0.46638,51.92121],[-0.46541,51.92181],[-0.46452,51.92182],[-0.4645,51.92213],[-0.46357,51.9223],[-0.46305,51.92329],[-0.46242,51.92318],[-0.46234,51.92165]]]}},{"type":"Feature","properties":{"id":"E01015806","name":"E01015806","parent":"E06000032","type":"LSOA","pop":1367,"r":288,"ff":124,"ffd":9071.0,"ffs":0.4715,"g":24,"co":0,"mo":3,"sa":0,"ic":0},"geometry":{"type":"Polygon","coordinates":[[[-0.36453,51.89393],[-0.36241,51.89206],[-0.36439,51.8913],[-0.36667,51.8923],[-0.36793,51.89173],[-0.37089,51.89179],[-0.37118,51.89198],[-0.37201,51.89165],[-0.37238,51.89206],[-0.37296,51.89214],[-0.37436,51.89116],[-0.37547,51.89097],[-0.37555,51.89143],[-0.3742,51.89148],[-0.37464,51.89199],[-0.37402,51.89197],[-0.37405,51.89233],[-0.37335,51.89227],[-0.37296,51.89276],[-0.37324,51.89313],[-0.37201,51.89357],[-0.37267,51.8939],[-0.37127,51.8948],[-0.36532,51.89445],[-0.36453,51.89393]]]}},{"type":"Feature","properties":{"id":"E01015807","name":"E01015807","parent":"E06000032","type":"LSOA","pop":1761,"r":305,"ff":135,"ffd":7666.1,"ffs":0.4874,"g":27,"co":0,"mo":2,"sa":0,"ic":0},"geometry":{"type":"Polygon","coordinates":[[[-0.38585,51.89484],[-0.38644,51.89399],[-0.38542,51.89439],[-0.38477,51.89396],[-0.38404,51.89425],[-0.3833,51.89417],[-0.38183,51.89474],[-0.38212,51.89495],[-0.3815,51.89524],[-0.37921,51.89391],[-0.37976,51.89312],[-0.3787,51.89291],[-0.37902,51.8927],[-0.37868,51.8925],[-0.37831,51.89272],[-0.37798,51.8925],[-0.37969,51.89174],[-0.38051,51.89219],[-0.38152,51.89227],[-0.38136,51.89126],[-0.38188,51.89123],[-0.38217,51.88989],[-0.38513,51.88987],[-0.3883,51.89237],[-0.39273,51.89482],[-0.39015,51.89602],[-0.3905,51.89628],[-0.3897,51.8967],[-0.38929,51.89728],[-0.3869,51.89633],[-0.38689,51.89543],[-0.38585,51.89484]]]}},{"type":"Feature","properties":{"id":"E01015808","name":"E01015808","parent":"E06000032","type":"LSOA","pop":1406,"r":295,"ff":125,"ffd":8890.5,"ffs":0.4682,"g":27,"co":0,"mo":3,"sa":0,"ic":0},"geometry":{"type":"Polygon","coordinates":[[[-0.37238,51.89206],[-0.37201,51.89165],[-0.37118,51.89198],[-0.37089,51.89179],[-0.36793,51.89173],[-0.36687,51.89091],[-0.36743,51.89069],[-0.36736,51.89041],[-0.36504,51.88929],[-0.36512,51.88872],[-0.36456,51.88871],[-0.36446,51.88822],[-0.36381,51.88815],[-0.36446,51.888],[-0.36462,51.88761],[-0.35912,51.88709],[-0.35819,51.88755],[-0.35769,51.88644],[-0.35513,51.88511],[-0.35358,51.88307],[-0.35198,51.8796],[-0.35299,51.87891],[-0.3499,51.87871],[-0.35079,51.87612],[-0.35413,51.87554],[-0.35461,51.87516],[-0.35483,51.87401],[-0.35801,51.8732],[-0.36287,51.87402],[-0.3683,51.87306],[-0.36578,51.87076],[-0.36976,51.86812],[-0.37406,51.86941],[-0.37518,51.86949],[-0.37458,51.87006],[-0.37535,51.87043],[-0.37602,51.86987],[-0.37744,51.87084],[-0.37889,51.87018],[-0.37372,51.87599],[-0.36708,51.87943],[-0.36797,51.88173],[-0.36795,51.88306],[-0.37129,51.88653],[-0.37222,51.88651],[-0.37251,51.88688],[-0.37122,51.88742],[-0.37262,51.88807],[-0.37485,51.88871],[-0.37473,51.88944],[-0.37589,51.89006],[-0.37523,51.89037],[-0.37547,51.89097],[-0.37436,51.89116],[-0.37296,51.89214],[-0.37238,51.89206]]]}},{"type":"Feature","properties":{"id":"E01015809","name":"E01015809","parent":"E06000032","type":"LSOA","pop":1407,"r":294,"ff":129,"ffd":9168.4,"ffs":0.4796,"g":24,"co":0,"mo":3,"sa":0,"ic":0},"geometry":{"type":"Polygon","coordinates":[[[-0.37127,51.8948],[-0.37267,51.8939],[-0.37201,51.89357],[-0.37324,51.89313],[-0.37296,51.89276],[-0.37335,51.89227],[-0.37405,51.89233],[-0.37402,51.89197],[-0.37464,51.89199],[-0.3742,51.89148],[-0.377,51.89115],[-0.37713,51.88995],[-0.37889,51.89057],[-0.3792,51.891],[-0.37936,51.89076],[-0.38055,51.8909],[-0.3807,51.89056],[-0.3814,51.89068],[-0.38152,51.89227],[-0.38051,51.89219],[-0.37969,51.89174],[-0.37798,51.8925],[-0.37831,51.89272],[-0.37868,51.8925],[-0.37902,51.8927],[-0.3787,51.89291],[-0.37976,51.89312],[-0.37921,51.89391],[-0.3784,51.89348],[-0.37806,51.89378],[-0.37983,51.89567],[-0.38055,51.89612],[-0.38012,51.89644],[-0.37899,51.89537],[-0.3778,51.89538],[-0.37678,51.8948],[-0.37626,51.89508],[-0.37696,51.89556],[-0.37675,51.89595],[-0.37767,51.89637],[-0.37707,51.89713],[-0.37799,51.89769],[-0.37758,51.8986],[-0.37393,51.89533],[-0.3726,51.89484],[-0.37127,51.8948]]]}},{"type":"Feature","properties":{"id":"E01015810","name":"E01015810","parent":"E06000032","type":"LSOA","pop":1309,"r":282,"ff":120,"ffd":9167.3,"ffs":0.4669,"g":24,"co":0,"mo":3,"sa":0,"ic":0},"geometry":{"type":"Polygon","coordinates":[[[-0.36667,51.8923],[-0.36439,51.8913],[-0.36241,51.89206],[-0.35909,51.88911],[-0.35816,51.88757],[-0.35912,51.88709],[-0.36462,51.88761],[-0.36446,51.888],[-0.36381,51.88815],[-0.36446,51.88822],[-0.36456,51.88871],[-0.36512,51.88872],[-0.36504,51.88929],[-0.36736,51.89041],[-0.36743,51.89069],[-0.36687,51.89091],[-0.36793,51.89173],[-0.36667,51.8923]]]}},{"type":"Feature","properties":{"id":"E01015811","name":"E01015811","parent":"E06000032","type":"LSOA","pop":1370,"r":304,"ff":130,"ffd":9489.1,"ffs":0.4727,"g":28,"co":0,"mo":2,"sa":0,"ic":0},"geometry":{"type":"Polygon","coordinates":[[[-0.37589,51.89006],[-0.37473,51.88944],[-0.37485,51.88871],[-0.37262,51.88807],[-0.37122,51.88742],[-0.37251,51.88688],[-0.37222,51.88651],[-0.37129,51.88653],[-0.36795,51.88306],[-0.36797,51.88173],[-0.36708,51.87943],[-0.37372,51.87599],[-0.37889,51.87018],[-0.38408,51.87066],[-0.38699,51.87121],[-0.38852,51.87187],[-0.38924,51.87158],[-0.3887,51.87273],[-0.38889,51.87503],[-0.38793,51.87766],[-0.3879,51.88185],[-0.38743,51.88258],[-0.38321,51.88366],[-0.38092,51.884],[-0.37701,51.88551],[-0.38099,51.88979],[-0.38217,51.88989],[-0.38188,51.89123],[-0.38136,51.89126],[-0.3814,51.89068],[-0.3807,51.89056],[-0.38055,51.8909],[-0.37936,51.89076],[-0.3792,51.891],[-0.37889,51.89057],[-0.37713,51.88995],[-0.377,51.89115],[-0.37555,51.89143],[-0.37523,51.89037],[-0.37589,51.89006]]]}},{"type":"Feature","properties":{"id":"E01015812","name":"E01015812","parent":"E06000032","type":"LSOA","pop":1332,"r":287,"ff":127,"ffd":9534.5,"ffs":0.4847,"g":24,"co":0,"mo":2,"sa":0,"ic":0},"geometry":{"type":"Polygon","coordinates":[[[-0.37707,51.89713],[-0.37767,51.89637],[-0.37675,51.89595],[-0.37696,51.89556],[-0.37626,51.89508],[-0.37678,51.8948],[-0.3778,51.89538],[-0.37899,51.89537],[-0.38051,51.89677],[-0.38125,51.89648],[-0.38167,51.89662],[-0.38165,51.89685],[-0.38257,51.89684],[-0.38267,51.89602],[-0.38354,51.89615],[-0.384,51.89662],[-0.38317,51.89702],[-0.38428,51.89837],[-0.38049,51.89956],[-0.37988,51.90055],[-0.38018,51.90104],[-0.37838,51.90169],[-0.3776,51.90051],[-0.37758,51.8986],[-0.37799,51.89769],[-0.37707,51.89713]]]}},{"type":"Feature","properties":{"id":"E01015813","name":"E01015813","parent":"E06000032","type":"LSOA","pop":1394,"r":294,"ff":130,"ffd":9325.7,"ffs":0.4869,"g":26,"co":0,"mo":2,"sa":0,"ic":0},"geometry":{"type":"Polygon","coordinates":[[[-0.38727,51.8993],[-0.38655,51.89865],[-0.38523,51.89895],[-0.38428,51.89837],[-0.38317,51.89702],[-0.384,51.89662],[-0.38354,51.89615],[-0.38267,51.89602],[-0.38257,51.89684],[-0.38165,51.89685],[-0.38167,51.89662],[-0.38125,51.89648],[-0.38051,51.89677],[-0.38012,51.89644],[-0.38055,51.89612],[-0.37983,51.89567],[-0.37806,51.89378],[-0.3784,51.89348],[-0.3815,51.89524],[-0.38212,51.89495],[-0.38183,51.89474],[-0.3833,51.89417],[-0.38404,51.89425],[-0.38477,51.89396],[-0.38542,51.89439],[-0.38644,51.89399],[-0.38585,51.89484],[-0.38689,51.89543],[-0.3869,51.89633],[-0.38929,51.89728],[-0.39047,51.89889],[-0.3893,51.89913],[-0.38906,51.89895],[-0.38727,51.8993]]]}},{"type":"Feature","properties":{"id":"E01033801","name":"E01033801","parent":"E06000032","type":"LSOA","pop":2110,"r":328,"ff":144,"ffd":6824.6,"ffs":0.4898,"g":32,"co":0,"mo":2,"sa":0,"ic":0},"geometry":{"type":"Polygon","coordinates":[[[-0.41427,51.88796],[-0.41373,51.88767],[-0.41341,51.88787],[-0.41276,51.88696],[-0.41203,51.88713],[-0.41243,51.8865],[-0.41194,51.88602],[-0.41304,51.88561],[-0.41247,51.88545],[-0.41273,51.8852],[-0.41307,51.88428],[-0.41417,51.88462],[-0.41515,51.88424],[-0.41567,51.88466],[-0.41617,51.88429],[-0.41624,51.88355],[-0.41701,51.88299],[-0.42055,51.88373],[-0.42045,51.88442],[-0.4201,51.8839],[-0.41861,51.88477],[-0.41861,51.88531],[-0.41805,51.88562],[-0.41786,51.8853],[-0.41728,51.8853],[-0.41483,51.88607],[-0.41589,51.8874],[-0.41427,51.88796]]]}},{"type":"Feature","properties":{"id":"E01033802","name":"E01033802","parent":"E06000032","type":"LSOA","pop":1939,"r":329,"ff":144,"ffd":7426.5,"ffs":0.4898,"g":33,"co":0,"mo":2,"sa":0,"ic":0},"geometry":{"type":"Polygon","coordinates":[[[-0.40973,51.88479],[-0.41036,51.88414],[-0.40914,51.88368],[-0.41057,51.88168],[-0.41701,51.88299],[-0.41624,51.88355],[-0.41617,51.88429],[-0.41567,51.88466],[-0.41515,51.88424],[-0.41417,51.88462],[-0.41307,51.88428],[-0.41273,51.8852],[-0.41247,51.88545],[-0.41304,51.88561],[-0.41194,51.88602],[-0.41243,51.8865],[-0.41203,51.88713],[-0.4091,51.88781],[-0.40888,51.88727],[-0.41,51.88685],[-0.41016,51.88638],[-0.40961,51.88627],[-0.40968,51.8859],[-0.41047,51.88551],[-0.40973,51.88479]]]}},{"type":"Feature","properties":{"id":"E01033803","name":"E01033803","parent":"E06000032","type":"LSOA","pop":2364,"r":382,"ff":157,"ffd":6641.3,"ffs":0.4729,"g":48,"co":0,"mo":2,"sa":0,"ic":0},"geometry":{"type":"Polygon","coordinates":[[[-0.41728,51.88234],[-0.41569,51.88137],[-0.41668,51.88129],[-0.41608,51.88092],[-0.41662,51.88041],[-0.41587,51.88001],[-0.4171,51.87949],[-0.41607,51.87894],[-0.41748,51.87754],[-0.4184,51.87776],[-0.41932,51.87836],[-0.41931,51.87879],[-0.41975,51.87859],[-0.42185,51.87971],[-0.42173,51.87976],[-0.42226,51.88018],[-0.42198,51.8804],[-0.4227,51.88079],[-0.4223,51.88105],[-0.42269,51.88127],[-0.42179,51.88138],[-0.42154,51.88197],[-0.42078,51.88194],[-0.42081,51.88235],[-0.41905,51.88234],[-0.41954,51.88299],[-0.42065,51.88348],[-0.42055,51.88373],[-0.41701,51.88299],[-0.41728,51.88234]]]}},{"type":"Feature","properties":{"id":"E01033804","name":"E01033804","parent":"E06000032","type":"LSOA","pop":1575,"r":367,"ff":155,"ffd":9841.3,"ffs":0.4755,"g":39,"co":0,"mo":2,"sa":0,"ic":0},"geometry":{"type":"Polygon","coordinates":[[[-0.42081,51.88235],[-0.42078,51.88194],[-0.42154,51.88197],[-0.42179,51.88138],[-0.42269,51.88127],[-0.4223,51.88105],[-0.4227,51.88079],[-0.42198,51.8804],[-0.42226,51.88018],[-0.42173,51.87976],[-0.42185,51.87971],[-0.42022,51.87884],[-0.4214,51.87792],[-0.4218,51.87816],[-0.42231,51.8779],[-0.42268,51.87823],[-0.42253,51.87776],[-0.42351,51.87789],[-0.42337,51.87895],[-0.42417,51.87854],[-0.42501,51.87862],[-0.42525,51.87933],[-0.42567,51.87911],[-0.42557,51.8796],[-0.42312,51.88077],[-0.4237,51.88169],[-0.42286,51.88237],[-0.42081,51.88235]]]}},{"type":"Feature","properties":{"id":"E01033805","name":"E01033805","parent":"E06000032","type":"LSOA","pop":2023,"r":337,"ff":146,"ffd":7217.0,"ffs":0.4818,"g":32,"co":0,"mo":2,"sa":0,"ic":0},"geometry":{"type":"Polygon","coordinates":[[[-0.40712,51.88047],[-0.4085,51.87955],[-0.40977,51.87983],[-0.41258,51.87818],[-0.4103,51.87683],[-0.41063,51.87659],[-0.41196,51.87679],[-0.41248,51.87727],[-0.41301,51.87722],[-0.41334,51.87684],[-0.41485,51.87728],[-0.4148,51.8782],[-0.4171,51.87949],[-0.41587,51.88001],[-0.41662,51.88041],[-0.41608,51.88092],[-0.41668,51.88129],[-0.41569,51.88137],[-0.41728,51.88234],[-0.41701,51.88299],[-0.41057,51.88168],[-0.40712,51.88047]]]}},{"type":"Feature","properties":{"id":"E01033806","name":"E01033806","parent":"E06000032","type":"LSOA","pop":1786,"r":364,"ff":155,"ffd":8678.6,"ffs":0.4755,"g":36,"co":2,"mo":2,"sa":0,"ic":0},"geometry":{"type":"Polygon","coordinates":[[[-0.41427,51.87712],[-0.41334,51.87684],[-0.41301,51.87722],[-0.41248,51.87727],[-0.41196,51.87679],[-0.41247,51.87603],[-0.41073,51.87608],[-0.41037,51.87592],[-0.41093,51.87578],[-0.41029,51.87549],[-0.41072,51.87519],[-0.4107,51.87441],[-0.41129,51.87471],[-0.41222,51.87431],[-0.41427,51.87467],[-0.41608,51.87525],[-0.41616,51.87458],[-0.41704,51.87422],[-0.41895,51.87476],[-0.41841,51.87489],[-0.41927,51.87485],[-0.41926,51.87514],[-0.41975,51.87511],[-0.41968,51.87546],[-0.41892,51.87611],[-0.4181,51.87617],[-0.41684,51.87731],[-0.41748,51.87754],[-0.41607,51.87894],[-0.4148,51.8782],[-0.41485,51.87728],[-0.41427,51.87712]]]}},{"type":"Feature","properties":{"id":"E01033807","name":"E01033807","parent":"E06000032","type":"LSOA","pop":2054,"r":365,"ff":152,"ffd":7400.2,"ffs":0.4691,"g":39,"co":2,"mo":2,"sa":0,"ic":0},"geometry":{"type":"Polygon","coordinates":[[[-0.4139,51.8728],[-0.4144,51.87237],[-0.41544,51.87271],[-0.41575,51.87226],[-0.41458,51.87185],[-0.4149,51.87132],[-0.41626,51.87177],[-0.4165,51.87149],[-0.41725,51.87175],[-0.41758,51.87148],[-0.41793,51.87173],[-0.41802,51.8724],[-0.41751,51.87253],[-0.41816,51.87274],[-0.41704,51.87422],[-0.41616,51.87458],[-0.41608,51.87525],[-0.41427,51.87467],[-0.41222,51.87431],[-0.41326,51.87294],[-0.4139,51.8728]]]}}]}