{"type":"FeatureCollection","features":[{"type":"Feature","properties":{"id":"E01016444","name":"E01016444","parent":"E06000039","type":"LSOA","pop":1735,"r":393,"ff":155,"ffd":8933.7,"ffs":0.4669,"g":59,"co":0,"mo":2,"sa":0,"ic":0},"geometry":{"type":"Polygon","coordinates":[[[-0.60422,51.5288],[-0.60113,51.52822],[-0.60092,51.52862],[-0.59622,51.52793],[-0.59647,51.5259],[-0.59549,51.52602],[-0.59564,51.52567],[-0.59719,51.52549],[-0.59726,51.52514],[-0.59779,51.52516],[-0.59762,51.52549],[-0.59818,51.52557],[-0.59823,51.52592],[-0.6008,51.52619],[-0.60101,51.52565],[-0.60478,51.52621],[-0.60477,51.52659],[-0.60531,51.52668],[-0.60523,51.52726],[-0.60457,51.5272],[-0.60391,51.52756],[-0.60412,51.52797],[-0.60403,51.52828],[-0.60468,51.52868],[-0.60422,51.5288]]]}},{"type":"Feature","properties":{"id":"E01016445","name":"E01016445","parent":"E06000039","type":"LSOA","pop":1923,"r":399,"ff":161,"ffd":8372.3,"ffs":0.4721,"g":56,"co":0,"mo":2,"sa":0,"ic":0},"geometry":{"type":"Polygon","coordinates":[[[-0.60478,51.52621],[-0.60101,51.52565],[-0.6008,51.52619],[-0.59823,51.52592],[-0.59818,51.52557],[-0.59762,51.52549],[-0.59779,51.52516],[-0.59726,51.52514],[-0.59719,51.52549],[-0.5947,51.52565],[-0.59557,51.52197],[-0.59816,51.52038],[-0.59863,51.52072],[-0.59753,51.52114],[-0.5982,51.52136],[-0.59786,51.5225],[-0.59792,51.52337],[-0.5993,51.52342],[-0.59963,51.52196],[-0.60025,51.52219],[-0.60016,51.52393],[-0.6027,51.52405],[-0.60432,51.52527],[-0.60597,51.52541],[-0.60563,51.52632],[-0.60478,51.52621]]]}},{"type":"Feature","properties":{"id":"E01016446","name":"E01016446","parent":"E06000039","type":"LSOA","pop":1865,"r":344,"ff":138,"ffd":7399.5,"ffs":0.4726,"g":50,"co":0,"mo":2,"sa":0,"ic":0},"geometry":{"type":"Polygon","coordinates":[[[-0.6027,51.52405],[-0.60016,51.52393],[-0.60023,51.52267],[-0.60099,51.52213],[-0.60056,51.52162],[-0.60252,51.52152],[-0.60252,51.52103],[-0.60345,51.5209],[-0.60562,51.5217],[-0.60608,51.52149],[-0.60675,51.52167],[-0.60697,51.5222],[-0.60984,51.5227],[-0.60958,51.5245],[-0.60597,51.52541],[-0.60432,51.52527],[-0.6027,51.52405]]]}},{"type":"Feature","properties":{"id":"E01016447","name":"E01016447","parent":"E06000039","type":"LSOA","pop":2054,"r":371,"ff":151,"ffd":7351.5,"ffs":0.4748,"g":51,"co":0,"mo":2,"sa":0,"ic":0},"geometry":{"type":"Polygon","coordinates":[[[-0.59786,51.5225],[-0.5982,51.52136],[-0.59753,51.52114],[-0.59863,51.52072],[-0.59816,51.52038],[-0.59962,51.51948],[-0.59971,51.51674],[-0.60009,51.5156],[-0.60058,51.51609],[-0.60034,51.51654],[-0.60525,51.51638],[-0.6052,51.51725],[-0.60346,51.51914],[-0.60345,51.5209],[-0.60252,51.52103],[-0.60252,51.52152],[-0.60056,51.52162],[-0.60099,51.52213],[-0.60023,51.52267],[-0.60025,51.52219],[-0.59963,51.52196],[-0.5993,51.52342],[-0.59792,51.52337],[-0.59786,51.5225]]]}},{"type":"Feature","properties":{"id":"E01016448","name":"E01016448","parent":"E06000039","type":"LSOA","pop":2593,"r":386,"ff":152,"ffd":5861.9,"ffs":0.4691,"g":59,"co":0,"mo":2,"sa":0,"ic":0},"geometry":{"type":"Polygon","coordinates":[[[-0.60562,51.5217],[-0.60345,51.5209],[-0.60346,51.51914],[-0.6052,51.51725],[-0.60525,51.51638],[-0.60034,51.51654],[-0.60058,51.51609],[-0.60009,51.5156],[-0.60106,51.51384],[-0.61387,51.51688],[-0.61488,51.51795],[-0.61516,51.52018],[-0.61432,51.5202],[-0.61435,51.51981],[-0.61258,51.51985],[-0.61272,51.52127],[-0.61057,51.52142],[-0.61049,51.52104],[-0.60714,51.52129],[-0.60675,51.52167],[-0.60608,51.52149],[-0.60562,51.5217]]]}},{"type":"Feature","properties":{"id":"E01016449","name":"E01016449","parent":"E06000039","type":"LSOA","pop":2505,"r":363,"ff":150,"ffd":5988.0,"ffs":0.4902,"g":55,"co":0,"mo":2,"sa":0,"ic":0},"geometry":{"type":"Polygon","coordinates":[[[-0.60411,51.52928],[-0.60092,51.52862],[-0.60113,51.52822],[-0.60422,51.5288],[-0.60468,51.52868],[-0.60403,51.52828],[-0.60412,51.52797],[-0.60391,51.52756],[-0.60457,51.5272],[-0.60523,51.52726],[-0.60531,51.52668],[-0.60477,51.52659],[-0.60478,51.52621],[-0.60563,51.52632],[-0.60597,51.52541],[-0.60958,51.5245],[-0.60988,51.52825],[-0.61054,51.5315],[-0.60641,51.53217],[-0.60581,51.52996],[-0.60411,51.52928]]]}},{"type":"Feature","properties":{"id":"E01016450","name":"E01016450","parent":"E06000039","type":"LSOA","pop":1628,"r":357,"ff":140,"ffd":8599.5,"ffs":0.473,"g":58,"co":0,"mo":2,"sa":0,"ic":0},"geometry":{"type":"Polygon","coordinates":[[[-0.61972,51.53793],[-0.61892,51.53683],[-0.6194,51.53545],[-0.61822,51.53527],[-0.61774,51.53463],[-0.61752,51.53241],[-0.62038,51.53235],[-0.62255,51.53254],[-0.62274,51.5315],[-0.6226,51.52973],[-0.62387,51.52928],[-0.62394,51.5297],[-0.62678,51.52977],[-0.62695,51.52937],[-0.62918,51.52924],[-0.63099,51.52942],[-0.631,51.53121],[-0.63021,51.53208],[-0.62824,51.53185],[-0.62782,51.5324],[-0.62588,51.53287],[-0.62478,51.53277],[-0.62398,51.53345],[-0.62297,51.53329],[-0.62214,51.53371],[-0.62128,51.5378],[-0.61972,51.53793]]]}},{"type":"Feature","properties":{"id":"E01016451","name":"E01016451","parent":"E06000039","type":"LSOA","pop":1844,"r":325,"ff":126,"ffd":6833.0,"ffs":0.4737,"g":57,"co":0,"mo":2,"sa":0,"ic":0},"geometry":{"type":"Polygon","coordinates":[[[-0.62702,51.53653],[-0.62708,51.53517],[-0.62627,51.53475],[-0.62553,51.5349],[-0.62579,51.53394],[-0.62636,51.53427],[-0.6273,51.53391],[-0.62841,51.53393],[-0.62893,51.53428],[-0.63048,51.5338],[-0.63059,51.53357],[-0.63086,51.53376],[-0.63108,51.53448],[-0.63211,51.53413],[-0.63307,51.53425],[-0.63302,51.53552],[-0.63318,51.5358],[-0.63451,51.53589],[-0.63451,51.537],[-0.63351,51.5372],[-0.63342,51.53697],[-0.6329,51.53701],[-0.63293,51.53728],[-0.63177,51.53727],[-0.63179,51.53617],[-0.63077,51.53618],[-0.63076,51.53646],[-0.63019,51.53634],[-0.62969,51.53691],[-0.63033,51.53729],[-0.62784,51.53725],[-0.62787,51.53659],[-0.62702,51.53653]]]}},{"type":"Feature","properties":{"id":"E01016452","name":"E01016452","parent":"E06000039","type":"LSOA","pop":2035,"r":340,"ff":134,"ffd":6584.8,"ffs":0.4786,"g":57,"co":0,"mo":2,"sa":0,"ic":0},"geometry":{"type":"Polygon","coordinates":[[[-0.62472,51.53799],[-0.62128,51.5378],[-0.62214,51.53371],[-0.62297,51.53329],[-0.62398,51.53345],[-0.62478,51.53277],[-0.62588,51.53287],[-0.62782,51.5324],[-0.62824,51.53185],[-0.63198,51.53215],[-0.63143,51.5325],[-0.63139,51.5336],[-0.63086,51.53376],[-0.63059,51.53357],[-0.63048,51.5338],[-0.62893,51.53428],[-0.62841,51.53393],[-0.6273,51.53391],[-0.62636,51.53427],[-0.62579,51.53394],[-0.62553,51.5349],[-0.62627,51.53475],[-0.62708,51.53517],[-0.62702,51.53653],[-0.62787,51.53659],[-0.62789,51.53759],[-0.62898,51.5376],[-0.62957,51.53732],[-0.62987,51.53804],[-0.62687,51.53798],[-0.62724,51.53846],[-0.62472,51.53799]]]}},{"type":"Feature","properties":{"id":"E01016453","name":"E01016453","parent":"E06000039","type":"LSOA","pop":1732,"r":353,"ff":137,"ffd":7909.9,"ffs":0.4692,"g":59,"co":0,"mo":2,"sa":0,"ic":0},"geometry":{"type":"Polygon","coordinates":[[[-0.64003,51.53539],[-0.63955,51.53479],[-0.63904,51.5351],[-0.63802,51.5347],[-0.63806,51.5337],[-0.63937,51.53343],[-0.63987,51.53278],[-0.64207,51.53279],[-0.64226,51.53218],[-0.64151,51.53215],[-0.64211,51.53173],[-0.64149,51.53154],[-0.64175,51.5306],[-0.64037,51.53052],[-0.63997,51.5308],[-0.63935,51.52981],[-0.64873,51.52998],[-0.6488,51.53024],[-0.65193,51.52997],[-0.65222,51.53017],[-0.64539,51.53407],[-0.64455,51.53635],[-0.64186,51.53709],[-0.63843,51.53743],[-0.64003,51.53539]]]}},{"type":"Feature","properties":{"id":"E01016454","name":"E01016454","parent":"E06000039","type":"LSOA","pop":1730,"r":322,"ff":124,"ffd":7167.6,"ffs":0.4715,"g":57,"co":0,"mo":2,"sa":0,"ic":0},"geometry":{"type":"Polygon","coordinates":[[[-0.62724,51.53846],[-0.62687,51.53798],[-0.62987,51.53804],[-0.62957,51.53732],[-0.62898,51.5376],[-0.62789,51.53759],[-0.62784,51.53725],[-0.63033,51.53729],[-0.62969,51.53691],[-0.63019,51.53634],[-0.63076,51.53646],[-0.63077,51.53618],[-0.63179,51.53617],[-0.63177,51.53727],[-0.63293,51.53728],[-0.6329,51.53701],[-0.63342,51.53697],[-0.63351,51.5372],[-0.63451,51.537],[-0.63451,51.53589],[-0.63318,51.5358],[-0.63302,51.53552],[-0.63307,51.53425],[-0.63211,51.53413],[-0.63108,51.53448],[-0.63086,51.53376],[-0.63139,51.5336],[-0.63143,51.5325],[-0.63198,51.53215],[-0.63362,51.53219],[-0.63348,51.53255],[-0.635,51.53349],[-0.63497,51.53419],[-0.63458,51.53414],[-0.63469,51.53455],[-0.63601,51.53451],[-0.63599,51.53471],[-0.63806,51.5337],[-0.63802,51.5347],[-0.63904,51.5351],[-0.63955,51.53479],[-0.64003,51.53539],[-0.63843,51.53743],[-0.63684,51.53793],[-0.63564,51.53783],[-0.63056,51.53891],[-0.62724,51.53846]]]}},{"type":"Feature","properties":{"id":"E01016455","name":"E01016455","parent":"E06000039","type":"LSOA","pop":2159,"r":336,"ff":130,"ffd":6021.3,"ffs":0.471,"g":58,"co":0,"mo":2,"sa":0,"ic":0},"geometry":{"type":"Polygon","coordinates":[[[-0.63599,51.53471],[-0.63601,51.53451],[-0.63469,51.53455],[-0.63458,51.53414],[-0.63497,51.53419],[-0.635,51.53349],[-0.63348,51.53255],[-0.63362,51.53219],[-0.63021,51.53208],[-0.631,51.53121],[-0.63099,51.52942],[-0.63935,51.52981],[-0.63997,51.5308],[-0.64037,51.53052],[-0.64175,51.5306],[-0.64149,51.53154],[-0.64211,51.53173],[-0.64151,51.53215],[-0.64226,51.53218],[-0.64207,51.53279],[-0.63987,51.53278],[-0.63937,51.53343],[-0.63806,51.5337],[-0.63599,51.53471]]]}},{"type":"Feature","properties":{"id":"E01016456","name":"E01016456","parent":"E06000039","type":"LSOA","pop":2244,"r":443,"ff":177,"ffd":7887.7,"ffs":0.467,"g":62,"co":0,"mo":2,"sa":0,"ic":0},"geometry":{"type":"Polygon","coordinates":[[[-0.57992,51.51054],[-0.58014,51.50991],[-0.58265,51.5101],[-0.58268,51.50978],[-0.57956,51.50959],[-0.57917,51.5093],[-0.57851,51.50957],[-0.57694,51.5078],[-0.57622,51.50805],[-0.57583,51.50755],[-0.57618,51.5074],[-0.57623,51.50642],[-0.57519,51.50624],[-0.57471,51.50536],[-0.57884,51.50663],[-0.58067,51.50789],[-0.58216,51.50859],[-0.59501,51.51065],[-0.594,51.51247],[-0.57992,51.51054]]]}},{"type":"Feature","properties":{"id":"E01016457","name":"E01016457","parent":"E06000039","type":"LSOA","pop":2164,"r":440,"ff":178,"ffd":8225.5,"ffs":0.4684,"g":58,"co":0,"mo":2,"sa":0,"ic":0},"geometry":{"type":"Polygon","coordinates":[[[-0.56879,51.51125],[-0.56984,51.5096],[-0.57453,51.50996],[-0.57547,51.50987],[-0.57429,51.50824],[-0.57583,51.50755],[-0.57622,51.50805],[-0.57694,51.5078],[-0.57851,51.50957],[-0.57917,51.5093],[-0.57956,51.50959],[-0.58268,51.50978],[-0.58265,51.5101],[-0.58014,51.50991],[-0.57992,51.51054],[-0.57703,51.51046],[-0.57604,51.51091],[-0.57399,51.51315],[-0.56869,51.51138],[-0.56879,51.51125]]]}},{"type":"Feature","properties":{"id":"E01016458","name":"E01016458","parent":"E06000039","type":"LSOA","pop":1850,"r":397,"ff":162,"ffd":8756.8,"ffs":0.4779,"g":56,"co":0,"mo":2,"sa":0,"ic":0},"geometry":{"type":"Polygon","coordinates":[[[-0.58983,51.52267],[-0.58985,51.51916],[-0.58826,51.51921],[-0.58812,51.51861],[-0.58908,51.51844],[-0.58923,51.51803],[-0.59056,51.51807],[-0.59144,51.51761],[-0.5914,51.5171],[-0.5934,51.51733],[-0.59335,51.51684],[-0.59507,51.51702],[-0.59579,51.51734],[-0.59575,51.51768],[-0.59499,51.51799],[-0.59567,51.51855],[-0.59532,51.51952],[-0.59661,51.5199],[-0.59759,51.52073],[-0.59557,51.52197],[-0.59502,51.52428],[-0.58982,51.52415],[-0.58983,51.52267]]]}},{"type":"Feature","properties":{"id":"E01016460","name":"E01016460","parent":"E06000039","type":"LSOA","pop":2176,"r":407,"ff":160,"ffd":7352.9,"ffs":0.4624,"g":59,"co":0,"mo":2,"sa":0,"ic":0},"geometry":{"type":"Polygon","coordinates":[[[-0.57814,51.51807],[-0.57934,51.51542],[-0.5803,51.51484],[-0.58271,51.5155],[-0.58354,51.51461],[-0.58537,51.51513],[-0.58526,51.51551],[-0.58611,51.51572],[-0.58826,51.51545],[-0.58824,51.51582],[-0.58903,51.51599],[-0.58866,51.51678],[-0.58995,51.51603],[-0.59097,51.51631],[-0.59046,51.51682],[-0.58977,51.51807],[-0.58923,51.51803],[-0.58908,51.51844],[-0.58606,51.51913],[-0.57906,51.5196],[-0.57814,51.51807]]]}},{"type":"Feature","properties":{"id":"E01016462","name":"E01016462","parent":"E06000039","type":"LSOA","pop":2713,"r":409,"ff":161,"ffd":5934.4,"ffs":0.4735,"g":66,"co":0,"mo":2,"sa":0,"ic":0},"geometry":{"type":"Polygon","coordinates":[[[-0.60126,51.50613],[-0.59863,51.50621],[-0.59882,51.50645],[-0.59811,51.50714],[-0.59842,51.50779],[-0.59679,51.5074],[-0.60064,51.50226],[-0.60849,51.50216],[-0.60345,51.50723],[-0.60392,51.50777],[-0.60346,51.50865],[-0.60185,51.50882],[-0.60162,51.50907],[-0.60075,51.50871],[-0.6017,51.50617],[-0.60126,51.50613]]]}},{"type":"Feature","properties":{"id":"E01016463","name":"E01016463","parent":"E06000039","type":"LSOA","pop":2100,"r":437,"ff":174,"ffd":8285.7,"ffs":0.4767,"g":70,"co":2,"mo":2,"sa":0,"ic":0},"geometry":{"type":"Polygon","coordinates":[[[-0.60805,51.508],[-0.60805,51.507],[-0.60706,51.50669],[-0.60782,51.50579],[-0.60892,51.50523],[-0.60833,51.50496],[-0.60729,51.5034],[-0.60849,51.50216],[-0.60064,51.50226],[-0.60435,51.4976],[-0.60673,51.49824],[-0.60774,51.4973],[-0.61342,51.4998],[-0.6171,51.50172],[-0.61549,51.50424],[-0.61367,51.50635],[-0.61244,51.50842],[-0.61143,51.50839],[-0.61082,51.50806],[-0.61098,51.50753],[-0.61038,51.50734],[-0.60848,51.50855],[-0.60805,51.508]]]}},{"type":"Feature","properties":{"id":"E01016464","name":"E01016464","parent":"E06000039","type":"LSOA","pop":2351,"r":435,"ff":174,"ffd":7401.1,"ffs":0.4767,"g":68,"co":0,"mo":2,"sa":0,"ic":0},"geometry":{"type":"Polygon","coordinates":[[[-0.60185,51.50882],[-0.60346,51.50865],[-0.60392,51.50777],[-0.60345,51.50723],[-0.60729,51.5034],[-0.60833,51.50496],[-0.60892,51.50523],[-0.60782,51.50579],[-0.60706,51.50669],[-0.60805,51.507],[-0.60805,51.508],[-0.60848,51.50855],[-0.6099,51.50768],[-0.60989,51.50886],[-0.61053,51.50953],[-0.60993,51.50979],[-0.60858,51.50951],[-0.60702,51.50987],[-0.60644,51.50973],[-0.60619,51.50995],[-0.60394,51.50877],[-0.60366,51.50929],[-0.60314,51.50933],[-0.60234,51.5108],[-0.6016,51.51077],[-0.60232,51.5092],[-0.60162,51.50907],[-0.60185,51.50882]]]}},{"type":"Feature","properties":{"id":"E01016465","name":"E01016465","parent":"E06000039","type":"LSOA","pop":3293,"r":444,"ff":175,"ffd":5314.3,"ffs":0.4755,"g":74,"co":0,"mo":2,"sa":0,"ic":0},"geometry":{"type":"Polygon","coordinates":[[[-0.61387,51.51688],[-0.60819,51.51541],[-0.60106,51.51384],[-0.60289,51.51132],[-0.60836,51.51157],[-0.6084,51.51125],[-0.60619,51.50995],[-0.60644,51.50973],[-0.60702,51.50987],[-0.60858,51.50951],[-0.60993,51.50979],[-0.61053,51.50953],[-0.60989,51.50886],[-0.6099,51.50768],[-0.61038,51.50734],[-0.61098,51.50753],[-0.61082,51.50806],[-0.61143,51.50839],[-0.61244,51.50842],[-0.61245,51.51251],[-0.61532,51.51304],[-0.61766,51.51372],[-0.61729,51.51464],[-0.61769,51.5159],[-0.61696,51.51688],[-0.61621,51.51666],[-0.61577,51.51735],[-0.61387,51.51688]]]}},{"type":"Feature","properties":{"id":"E01016467","name":"E01016467","parent":"E06000039","type":"LSOA","pop":1576,"r":391,"ff":158,"ffd":10025.4,"ffs":0.4773,"g":58,"co":2,"mo":2,"sa":0,"ic":0},"geometry":{"type":"Polygon","coordinates":[[[-0.63369,51.5198],[-0.63008,51.51831],[-0.63114,51.51743],[-0.63317,51.51758],[-0.63325,51.51822],[-0.63387,51.51827],[-0.63382,51.51864],[-0.63419,51.51867],[-0.63411,51.51839],[-0.63631,51.51793],[-0.63643,51.51726],[-0.63563,51.51724],[-0.63574,51.51782],[-0.63432,51.5179],[-0.63441,51.51735],[-0.635,51.51723],[-0.63491,51.51682],[-0.63418,51.51689],[-0.634,51.51613],[-0.63739,51.51696],[-0.63709,51.51613],[-0.63762,51.51593],[-0.63877,51.51643],[-0.63916,51.51686],[-0.6386,51.51728],[-0.6393,51.51771],[-0.64013,51.51755],[-0.64021,51.51676],[-0.64128,51.51666],[-0.64148,51.51746],[-0.64127,51.51778],[-0.63781,51.51815],[-0.63816,51.51998],[-0.6399,51.52048],[-0.63737,51.52044],[-0.63369,51.5198]]]}},{"type":"Feature","properties":{"id":"E01016468","name":"E01016468","parent":"E06000039","type":"LSOA","pop":1987,"r":407,"ff":165,"ffd":8304.0,"ffs":0.481,"g":62,"co":2,"mo":2,"sa":0,"ic":0},"geometry":{"type":"Polygon","coordinates":[[[-0.65513,51.52014],[-0.65039,51.52012],[-0.65034,51.51975],[-0.64978,51.5197],[-0.6497,51.51858],[-0.64783,51.51757],[-0.6464,51.51821],[-0.64553,51.51821],[-0.64543,51.51653],[-0.64974,51.51621],[-0.64968,51.51581],[-0.6535,51.51555],[-0.65448,51.51754],[-0.65468,51.51756],[-0.65501,51.51881],[-0.65684,51.51882],[-0.65788,51.5194],[-0.65891,51.51934],[-0.65919,51.52025],[-0.66014,51.52042],[-0.65724,51.52055],[-0.65513,51.52014]]]}},{"type":"Feature","properties":{"id":"E01016469","name":"E01016469","parent":"E06000039","type":"LSOA","pop":2012,"r":390,"ff":159,"ffd":7902.6,"ffs":0.4862,"g":61,"co":2,"mo":2,"sa":0,"ic":0},"geometry":{"type":"Polygon","coordinates":[[[-0.63816,51.51998],[-0.63781,51.51815],[-0.64127,51.51778],[-0.64148,51.51746],[-0.64128,51.51666],[-0.64151,51.51624],[-0.64286,51.51604],[-0.64432,51.5151],[-0.64477,51.51539],[-0.64526,51.51529],[-0.64594,51.51648],[-0.64543,51.51653],[-0.64553,51.51821],[-0.6464,51.51821],[-0.64783,51.51757],[-0.6497,51.51858],[-0.64978,51.5197],[-0.65034,51.51975],[-0.65039,51.52012],[-0.64703,51.52022],[-0.64527,51.51991],[-0.64318,51.51985],[-0.6399,51.52048],[-0.63816,51.51998]]]}},{"type":"Feature","properties":{"id":"E01016470","name":"E01016470","parent":"E06000039","type":"LSOA","pop":1878,"r":406,"ff":165,"ffd":8785.9,"ffs":0.481,"g":61,"co":2,"mo":2,"sa":0,"ic":0},"geometry":{"type":"Polygon","coordinates":[[[-0.63325,51.51822],[-0.63317,51.51758],[-0.63114,51.51743],[-0.63008,51.51831],[-0.62551,51.51634],[-0.62689,51.51502],[-0.62844,51.51548],[-0.63041,51.51297],[-0.63106,51.51294],[-0.63134,51.51232],[-0.63322,51.51257],[-0.63352,51.51395],[-0.63447,51.51426],[-0.63454,51.51457],[-0.63554,51.51481],[-0.63616,51.51523],[-0.63672,51.51508],[-0.63671,51.51577],[-0.63709,51.51613],[-0.63739,51.51696],[-0.634,51.51613],[-0.63418,51.51689],[-0.63491,51.51682],[-0.635,51.51723],[-0.63441,51.51735],[-0.63432,51.5179],[-0.63574,51.51782],[-0.63563,51.51724],[-0.63643,51.51726],[-0.63631,51.51793],[-0.63411,51.51839],[-0.63419,51.51867],[-0.63382,51.51864],[-0.63387,51.51827],[-0.63325,51.51822]]]}},{"type":"Feature","properties":{"id":"E01016471","name":"E01016471","parent":"E06000039","type":"LSOA","pop":1593,"r":326,"ff":126,"ffd":7909.6,"ffs":0.4791,"g":61,"co":2,"mo":2,"sa":0,"ic":0},"geometry":{"type":"Polygon","coordinates":[[[-0.63877,51.51643],[-0.63762,51.51593],[-0.63709,51.51613],[-0.63671,51.51577],[-0.63672,51.51508],[-0.63616,51.51523],[-0.63554,51.51481],[-0.63582,51.51447],[-0.63652,51.51449],[-0.63639,51.51336],[-0.63689,51.51336],[-0.63699,51.51278],[-0.63875,51.51286],[-0.63906,51.51226],[-0.64028,51.51214],[-0.64026,51.51253],[-0.64095,51.51281],[-0.64181,51.5125],[-0.64317,51.51266],[-0.64349,51.513],[-0.64649,51.51264],[-0.64669,51.51338],[-0.64902,51.51289],[-0.64915,51.51312],[-0.64466,51.51389],[-0.6443,51.51417],[-0.64526,51.51529],[-0.64477,51.51539],[-0.64432,51.5151],[-0.64286,51.51604],[-0.64151,51.51624],[-0.64128,51.51666],[-0.64021,51.51676],[-0.64013,51.51755],[-0.6393,51.51771],[-0.6386,51.51728],[-0.63916,51.51686],[-0.63877,51.51643]]]}},{"type":"Feature","properties":{"id":"E01016472","name":"E01016472","parent":"E06000039","type":"LSOA","pop":1737,"r":383,"ff":156,"ffd":8981.0,"ffs":0.4845,"g":59,"co":2,"mo":2,"sa":0,"ic":0},"geometry":{"type":"Polygon","coordinates":[[[-0.65178,51.51227],[-0.65393,51.51224],[-0.65326,51.51476],[-0.6535,51.51555],[-0.64968,51.51581],[-0.64974,51.51621],[-0.64594,51.51648],[-0.64526,51.51529],[-0.6443,51.51417],[-0.64466,51.51389],[-0.64915,51.51312],[-0.64902,51.51289],[-0.65178,51.51227]]]}},{"type":"Feature","properties":{"id":"E01016473","name":"E01016473","parent":"E06000039","type":"LSOA","pop":2874,"r":391,"ff":159,"ffd":5532.4,"ffs":0.4804,"g":58,"co":2,"mo":2,"sa":0,"ic":0},"geometry":{"type":"Polygon","coordinates":[[[-0.62551,51.51634],[-0.62146,51.51494],[-0.62176,51.51417],[-0.62268,51.51352],[-0.62321,51.51276],[-0.62302,51.5124],[-0.62384,51.51253],[-0.62391,51.51307],[-0.6262,51.51402],[-0.62569,51.51295],[-0.62599,51.51218],[-0.62735,51.51145],[-0.62861,51.51204],[-0.62906,51.51151],[-0.63083,51.51201],[-0.63097,51.51163],[-0.6321,51.51135],[-0.63465,51.51134],[-0.63345,51.50884],[-0.63514,51.50859],[-0.63665,51.50771],[-0.63803,51.51028],[-0.63904,51.51043],[-0.63938,51.51093],[-0.63875,51.51286],[-0.63699,51.51278],[-0.63689,51.51336],[-0.63639,51.51336],[-0.63652,51.51449],[-0.63582,51.51447],[-0.63554,51.51481],[-0.63454,51.51457],[-0.63447,51.51426],[-0.63352,51.51395],[-0.63322,51.51257],[-0.63134,51.51232],[-0.63106,51.51294],[-0.63041,51.51297],[-0.62844,51.51548],[-0.62689,51.51502],[-0.62551,51.51634]]]}},{"type":"Feature","properties":{"id":"E01016474","name":"E01016474","parent":"E06000039","type":"LSOA","pop":2199,"r":438,"ff":172,"ffd":7821.7,"ffs":0.4725,"g":72,"co":2,"mo":2,"sa":0,"ic":0},"geometry":{"type":"Polygon","coordinates":[[[-0.6172,51.51251],[-0.61837,51.51104],[-0.61727,51.51074],[-0.61831,51.51033],[-0.61837,51.50976],[-0.61724,51.50955],[-0.61634,51.5098],[-0.61522,51.50906],[-0.61416,51.50894],[-0.61491,51.50814],[-0.61845,51.50873],[-0.6194,51.50812],[-0.6202,51.50815],[-0.62339,51.50966],[-0.62432,51.50977],[-0.62533,51.51033],[-0.628,51.51113],[-0.62599,51.51218],[-0.62569,51.51295],[-0.6262,51.51402],[-0.62391,51.51307],[-0.62384,51.51253],[-0.62302,51.5124],[-0.62321,51.51276],[-0.62268,51.51352],[-0.62176,51.51417],[-0.62146,51.51494],[-0.61733,51.51361],[-0.6172,51.51251]]]}},{"type":"Feature","properties":{"id":"E01016475","name":"E01016475","parent":"E06000039","type":"LSOA","pop":2523,"r":465,"ff":185,"ffd":7332.5,"ffs":0.4818,"g":79,"co":2,"mo":2,"sa":0,"ic":0},"geometry":{"type":"Polygon","coordinates":[[[-0.61246,51.50979],[-0.61244,51.50842],[-0.61367,51.50635],[-0.61549,51.50424],[-0.6171,51.50172],[-0.62289,51.50383],[-0.62237,51.50459],[-0.62066,51.50427],[-0.62072,51.50376],[-0.61894,51.50332],[-0.61829,51.50384],[-0.61732,51.50365],[-0.61707,51.50431],[-0.61655,51.5043],[-0.6164,51.50458],[-0.61767,51.50546],[-0.61802,51.50557],[-0.61831,51.50526],[-0.61878,51.50582],[-0.61819,51.50669],[-0.61649,51.50716],[-0.61692,51.50781],[-0.61662,51.50851],[-0.61491,51.50814],[-0.61416,51.50894],[-0.61522,51.50906],[-0.61634,51.5098],[-0.61724,51.50955],[-0.61837,51.50976],[-0.61831,51.51033],[-0.61727,51.51074],[-0.61837,51.51104],[-0.6172,51.51251],[-0.61733,51.51361],[-0.61245,51.51251],[-0.61246,51.50979]]]}},{"type":"Feature","properties":{"id":"E01016476","name":"E01016476","parent":"E06000039","type":"LSOA","pop":1841,"r":383,"ff":157,"ffd":8528.0,"ffs":0.4846,"g":57,"co":2,"mo":2,"sa":0,"ic":0},"geometry":{"type":"Polygon","coordinates":[[[-0.64669,51.51338],[-0.64649,51.51264],[-0.64349,51.513],[-0.64317,51.51266],[-0.64181,51.5125],[-0.64095,51.51281],[-0.64026,51.51253],[-0.64028,51.51214],[-0.63906,51.51226],[-0.63938,51.51093],[-0.63904,51.51043],[-0.63803,51.51028],[-0.63665,51.50771],[-0.64764,51.50998],[-0.64666,51.512],[-0.64878,51.5123],[-0.65178,51.51227],[-0.64669,51.51338]]]}},{"type":"Feature","properties":{"id":"E01016477","name":"E01016477","parent":"E06000039","type":"LSOA","pop":3018,"r":416,"ff":167,"ffd":5533.5,"ffs":0.4758,"g":63,"co":2,"mo":2,"sa":0,"ic":0},"geometry":{"type":"Polygon","coordinates":[[[-0.64327,51.50904],[-0.63665,51.50771],[-0.63514,51.50859],[-0.63345,51.50884],[-0.63465,51.51134],[-0.6321,51.51135],[-0.63097,51.51163],[-0.63083,51.51201],[-0.62906,51.51151],[-0.62861,51.51204],[-0.62735,51.51145],[-0.628,51.51113],[-0.6224,51.50924],[-0.62281,51.50883],[-0.62234,51.5082],[-0.62277,51.50808],[-0.62265,51.50769],[-0.62181,51.50765],[-0.62184,51.50711],[-0.62139,51.507],[-0.62369,51.50716],[-0.6269,51.50788],[-0.62712,51.5075],[-0.63068,51.50627],[-0.62609,51.5053],[-0.626,51.50511],[-0.62646,51.50436],[-0.62827,51.50431],[-0.63117,51.50349],[-0.63341,51.5021],[-0.63446,51.50057],[-0.63668,51.50026],[-0.64081,51.50087],[-0.64221,51.50063],[-0.64301,51.50267],[-0.64493,51.50222],[-0.64704,51.50103],[-0.64856,51.50066],[-0.65353,51.50045],[-0.65486,51.50088],[-0.65393,51.50424],[-0.65932,51.50491],[-0.65899,51.50714],[-0.6556,51.5068],[-0.65541,51.50826],[-0.65394,51.50825],[-0.65302,51.51077],[-0.654,51.51103],[-0.65393,51.51224],[-0.64878,51.5123],[-0.64666,51.512],[-0.64764,51.50998],[-0.64327,51.50904]]]}},{"type":"Feature","properties":{"id":"E01016478","name":"E01016478","parent":"E06000039","type":"LSOA","pop":1936,"r":406,"ff":166,"ffd":8574.4,"ffs":0.4826,"g":60,"co":2,"mo":2,"sa":0,"ic":0},"geometry":{"type":"Polygon","coordinates":[[[-0.6202,51.50815],[-0.6194,51.50812],[-0.61845,51.50873],[-0.61662,51.50851],[-0.61692,51.50781],[-0.61649,51.50716],[-0.61819,51.50669],[-0.61878,51.50582],[-0.61831,51.50526],[-0.61802,51.50557],[-0.61767,51.50546],[-0.6164,51.50458],[-0.61655,51.5043],[-0.61707,51.50431],[-0.61732,51.50365],[-0.61829,51.50384],[-0.61894,51.50332],[-0.62072,51.50376],[-0.62066,51.50427],[-0.62237,51.50459],[-0.62289,51.50383],[-0.62646,51.50436],[-0.626,51.50511],[-0.62609,51.5053],[-0.63068,51.50627],[-0.62712,51.5075],[-0.6269,51.50788],[-0.62369,51.50716],[-0.62139,51.507],[-0.62184,51.50711],[-0.62181,51.50765],[-0.62265,51.50769],[-0.62277,51.50808],[-0.62234,51.5082],[-0.62281,51.50883],[-0.6224,51.50924],[-0.6202,51.50815]]]}},{"type":"Feature","properties":{"id":"E01016479","name":"E01016479","parent":"E06000039","type":"LSOA","pop":1751,"r":657,"ff":259,"ffd":14791.5,"ffs":0.4796,"g":114,"co":0,"mo":2,"sa":0,"ic":0},"geometry":{"type":"Polygon","coordinates":[[[-0.53257,51.49341],[-0.5329,51.49303],[-0.53245,51.49306],[-0.53268,51.49139],[-0.53306,51.49183],[-0.53559,51.48981],[-0.53836,51.49066],[-0.53921,51.48987],[-0.53959,51.48921],[-0.53925,51.48899],[-0.53833,51.49009],[-0.53722,51.48966],[-0.53815,51.48837],[-0.54129,51.48928],[-0.54188,51.48877],[-0.54541,51.48991],[-0.54519,51.4902],[-0.54698,51.49045],[-0.54715,51.48993],[-0.54932,51.4903],[-0.54491,51.49177],[-0.54428,51.4924],[-0.53257,51.49341]]]}},{"type":"Feature","properties":{"id":"E01016480","name":"E01016480","parent":"E06000039","type":"LSOA","pop":1570,"r":562,"ff":219,"ffd":13949.0,"ffs":0.474,"g":97,"co":0,"mo":2,"sa":0,"ic":0},"geometry":{"type":"Polygon","coordinates":[[[-0.53055,51.4905],[-0.53177,51.48701],[-0.5284,51.48456],[-0.52931,51.48366],[-0.52883,51.48351],[-0.52957,51.48288],[-0.52922,51.48242],[-0.52962,51.48199],[-0.53048,51.48204],[-0.53299,51.4837],[-0.53386,51.48464],[-0.53347,51.4848],[-0.53438,51.48684],[-0.53623,51.4873],[-0.53702,51.48725],[-0.53815,51.48837],[-0.53722,51.48966],[-0.53833,51.49009],[-0.53925,51.48899],[-0.53959,51.48921],[-0.53921,51.48987],[-0.53836,51.49066],[-0.53559,51.48981],[-0.53306,51.49183],[-0.53268,51.49139],[-0.53281,51.49113],[-0.53055,51.4905]]]}},{"type":"Feature","properties":{"id":"E01016481","name":"E01016481","parent":"E06000039","type":"LSOA","pop":1530,"r":504,"ff":201,"ffd":13137.3,"ffs":0.4832,"g":85,"co":0,"mo":2,"sa":0,"ic":0},"geometry":{"type":"Polygon","coordinates":[[[-0.5061,51.49443],[-0.50593,51.49401],[-0.50487,51.49415],[-0.50785,51.49066],[-0.51178,51.48772],[-0.5134,51.48526],[-0.51761,51.48597],[-0.52003,51.48433],[-0.51795,51.48404],[-0.518,51.48262],[-0.51736,51.48227],[-0.51782,51.48128],[-0.51897,51.48183],[-0.51877,51.47974],[-0.5201,51.47944],[-0.52431,51.47925],[-0.52429,51.4795],[-0.52713,51.48021],[-0.53048,51.48204],[-0.52962,51.48199],[-0.52922,51.48242],[-0.52957,51.48288],[-0.52883,51.48351],[-0.52931,51.48366],[-0.5284,51.48456],[-0.53177,51.48701],[-0.53055,51.4905],[-0.53281,51.49113],[-0.53245,51.49306],[-0.5329,51.49303],[-0.53257,51.49341],[-0.51589,51.49329],[-0.51061,51.49366],[-0.5061,51.49443]]]}},{"type":"Feature","properties":{"id":"E01016482","name":"E01016482","parent":"E06000039","type":"LSOA","pop":2134,"r":500,"ff":204,"ffd":9559.5,"ffs":0.4951,"g":85,"co":2,"mo":2,"sa":0,"ic":0},"geometry":{"type":"Polygon","coordinates":[[[-0.50071,51.49538],[-0.50054,51.49482],[-0.49439,51.49493],[-0.49003,51.49474],[-0.49148,51.49305],[-0.4948,51.49268],[-0.49535,51.49205],[-0.49494,51.49132],[-0.49599,51.49054],[-0.49676,51.49049],[-0.49697,51.49022],[-0.49653,51.4899],[-0.49704,51.48971],[-0.49738,51.48988],[-0.49863,51.48926],[-0.49798,51.48882],[-0.49834,51.48844],[-0.49917,51.48857],[-0.49902,51.48786],[-0.49967,51.48684],[-0.49896,51.48667],[-0.49888,51.4857],[-0.50171,51.48313],[-0.50316,51.48108],[-0.50419,51.47896],[-0.50502,51.4749],[-0.50701,51.47081],[-0.50848,51.46949],[-0.5097,51.46918],[-0.51118,51.46928],[-0.51358,51.46842],[-0.51385,51.46798],[-0.51566,51.46827],[-0.51788,51.4704],[-0.52097,51.47141],[-0.52436,51.47153],[-0.52371,51.4724],[-0.52552,51.47455],[-0.52469,51.47492],[-0.52536,51.4769],[-0.52431,51.47925],[-0.5201,51.47944],[-0.51877,51.47974],[-0.51897,51.48183],[-0.51782,51.48128],[-0.51736,51.48227],[-0.518,51.48262],[-0.51795,51.48404],[-0.52003,51.48433],[-0.51761,51.48597],[-0.5134,51.48526],[-0.51178,51.48772],[-0.50785,51.49066],[-0.50487,51.49415],[-0.50593,51.49401],[-0.5061,51.49443],[-0.50071,51.49538]]]}},{"type":"Feature","properties":{"id":"E01016483","name":"E01016483","parent":"E06000039","type":"LSOA","pop":2294,"r":348,"ff":143,"ffd":6233.7,"ffs":0.4897,"g":54,"co":0,"mo":2,"sa":0,"ic":0},"geometry":{"type":"Polygon","coordinates":[[[-0.6158,51.5283],[-0.61632,51.52768],[-0.61495,51.52779],[-0.61475,51.52715],[-0.61073,51.52744],[-0.61061,51.52672],[-0.6097,51.52677],[-0.60959,51.52446],[-0.61297,51.52425],[-0.61291,51.52388],[-0.61391,51.52383],[-0.61445,51.52413],[-0.6147,51.52378],[-0.61447,51.52278],[-0.61456,51.52241],[-0.61967,51.52307],[-0.61948,51.52392],[-0.61679,51.52419],[-0.61679,51.52446],[-0.61892,51.52422],[-0.61949,51.52496],[-0.61648,51.52527],[-0.6168,51.52569],[-0.61597,51.52597],[-0.61614,51.5271],[-0.61719,51.52716],[-0.61733,51.52759],[-0.61696,51.52782],[-0.61747,51.5281],[-0.61719,51.52897],[-0.61631,51.52897],[-0.6158,51.5283]]]}},{"type":"Feature","properties":{"id":"E01016484","name":"E01016484","parent":"E06000039","type":"LSOA","pop":1896,"r":334,"ff":133,"ffd":7014.8,"ffs":0.475,"g":53,"co":0,"mo":2,"sa":0,"ic":0},"geometry":{"type":"Polygon","coordinates":[[[-0.61758,51.53115],[-0.61752,51.53071],[-0.61671,51.53071],[-0.61628,51.52972],[-0.61569,51.52983],[-0.61553,51.52942],[-0.61631,51.52897],[-0.61719,51.52897],[-0.61747,51.5281],[-0.61696,51.52782],[-0.61733,51.52759],[-0.61719,51.52716],[-0.61614,51.5271],[-0.61597,51.52597],[-0.6168,51.52569],[-0.61648,51.52527],[-0.61949,51.52496],[-0.61954,51.52572],[-0.62085,51.52557],[-0.62064,51.52587],[-0.62128,51.52596],[-0.62126,51.52625],[-0.6222,51.52627],[-0.62235,51.52706],[-0.62147,51.52715],[-0.6223,51.52761],[-0.62161,51.52777],[-0.62168,51.5281],[-0.61856,51.52846],[-0.61881,51.52934],[-0.62196,51.52921],[-0.62198,51.52964],[-0.6226,51.52973],[-0.62262,51.53002],[-0.62007,51.53026],[-0.61758,51.53115]]]}},{"type":"Feature","properties":{"id":"E01016485","name":"E01016485","parent":"E06000039","type":"LSOA","pop":1957,"r":340,"ff":140,"ffd":7153.8,"ffs":0.493,"g":54,"co":0,"mo":2,"sa":0,"ic":0},"geometry":{"type":"Polygon","coordinates":[[[-0.60988,51.52825],[-0.6097,51.52677],[-0.61061,51.52672],[-0.61073,51.52744],[-0.61475,51.52715],[-0.61495,51.52779],[-0.61632,51.52768],[-0.6158,51.5283],[-0.61631,51.52897],[-0.61553,51.52942],[-0.61569,51.52983],[-0.61128,51.53045],[-0.61184,51.53148],[-0.61138,51.53174],[-0.61187,51.53183],[-0.61269,51.53243],[-0.61205,51.53267],[-0.61209,51.53298],[-0.61054,51.5315],[-0.60988,51.52825]]]}},{"type":"Feature","properties":{"id":"E01016486","name":"E01016486","parent":"E06000039","type":"LSOA","pop":1783,"r":351,"ff":139,"ffd":7795.8,"ffs":0.4744,"g":56,"co":0,"mo":2,"sa":0,"ic":0},"geometry":{"type":"Polygon","coordinates":[[[-0.62198,51.52964],[-0.62196,51.52921],[-0.61881,51.52934],[-0.61856,51.52846],[-0.62168,51.5281],[-0.62161,51.52777],[-0.6223,51.52761],[-0.62147,51.52715],[-0.62235,51.52706],[-0.6222,51.52627],[-0.62126,51.52625],[-0.62128,51.52596],[-0.62064,51.52587],[-0.62085,51.52557],[-0.61954,51.52572],[-0.61949,51.52496],[-0.61892,51.52422],[-0.61679,51.52446],[-0.61679,51.52419],[-0.61948,51.52392],[-0.61967,51.52307],[-0.61517,51.52237],[-0.61516,51.52018],[-0.61488,51.51795],[-0.61387,51.51688],[-0.61577,51.51735],[-0.61621,51.51666],[-0.61696,51.51688],[-0.61769,51.5159],[-0.61729,51.51464],[-0.61766,51.51372],[-0.62551,51.51634],[-0.63369,51.5198],[-0.63336,51.52228],[-0.63075,51.52181],[-0.62871,51.52626],[-0.62758,51.52764],[-0.62798,51.5277],[-0.62769,51.52935],[-0.62695,51.52937],[-0.62678,51.52977],[-0.62394,51.5297],[-0.62387,51.52928],[-0.6226,51.52973],[-0.62198,51.52964]]]}},{"type":"Feature","properties":{"id":"E01016487","name":"E01016487","parent":"E06000039","type":"LSOA","pop":1837,"r":357,"ff":143,"ffd":7784.4,"ffs":0.4735,"g":54,"co":0,"mo":2,"sa":0,"ic":0},"geometry":{"type":"Polygon","coordinates":[[[-0.60959,51.52446],[-0.60984,51.5227],[-0.60697,51.5222],[-0.60675,51.52167],[-0.60714,51.52129],[-0.61049,51.52104],[-0.61057,51.52142],[-0.61272,51.52127],[-0.61258,51.51985],[-0.61435,51.51981],[-0.61432,51.5202],[-0.61516,51.52018],[-0.61517,51.52237],[-0.61456,51.52241],[-0.61447,51.52278],[-0.6147,51.52378],[-0.61445,51.52413],[-0.61391,51.52383],[-0.61291,51.52388],[-0.61297,51.52425],[-0.60959,51.52446]]]}},{"type":"Feature","properties":{"id":"E01016488","name":"E01016488","parent":"E06000039","type":"LSOA","pop":2010,"r":343,"ff":141,"ffd":7014.9,"ffs":0.4913,"g":54,"co":0,"mo":2,"sa":0,"ic":0},"geometry":{"type":"Polygon","coordinates":[[[-0.61683,51.53477],[-0.61649,51.534],[-0.61455,51.5343],[-0.61432,51.53372],[-0.61379,51.53383],[-0.61338,51.5328],[-0.61209,51.53298],[-0.61205,51.53267],[-0.61269,51.53243],[-0.61187,51.53183],[-0.61138,51.53174],[-0.61184,51.53148],[-0.61128,51.53045],[-0.61628,51.52972],[-0.61671,51.53071],[-0.61752,51.53071],[-0.61758,51.53115],[-0.62007,51.53026],[-0.62262,51.53002],[-0.62274,51.5315],[-0.62255,51.53254],[-0.62038,51.53235],[-0.61752,51.53241],[-0.61774,51.53463],[-0.61683,51.53477]]]}},{"type":"Feature","properties":{"id":"E01016490","name":"E01016490","parent":"E06000039","type":"LSOA","pop":2209,"r":480,"ff":185,"ffd":8374.8,"ffs":0.4637,"g":78,"co":0,"mo":2,"sa":0,"ic":0},"geometry":{"type":"Polygon","coordinates":[[[-0.53435,51.49725],[-0.53352,51.49564],[-0.53244,51.49499],[-0.53168,51.4942],[-0.53126,51.49431],[-0.53228,51.49336],[-0.53699,51.49311],[-0.54445,51.49231],[-0.54573,51.49298],[-0.54593,51.49375],[-0.54471,51.49358],[-0.54409,51.49315],[-0.54134,51.49582],[-0.54218,51.4966],[-0.54177,51.49674],[-0.54101,51.49625],[-0.54045,51.49656],[-0.53977,51.49638],[-0.53875,51.4973],[-0.53682,51.49711],[-0.53612,51.49819],[-0.53435,51.49725]]]}},{"type":"Feature","properties":{"id":"E01016491","name":"E01016491","parent":"E06000039","type":"LSOA","pop":1872,"r":492,"ff":193,"ffd":10309.8,"ffs":0.4673,"g":77,"co":0,"mo":2,"sa":0,"ic":0},"geometry":{"type":"Polygon","coordinates":[[[-0.53759,51.49956],[-0.53738,51.49876],[-0.54076,51.49895],[-0.5413,51.49841],[-0.54243,51.49849],[-0.54306,51.49923],[-0.54281,51.49962],[-0.54323,51.49974],[-0.54219,51.50328],[-0.5353,51.50239],[-0.53335,51.50206],[-0.53337,51.50172],[-0.53184,51.50165],[-0.53196,51.50125],[-0.53633,51.50006],[-0.53863,51.50002],[-0.53894,51.49965],[-0.53759,51.49956]]]}},{"type":"Feature","properties":{"id":"E01016492","name":"E01016492","parent":"E06000039","type":"LSOA","pop":1900,"r":522,"ff":205,"ffd":10789.5,"ffs":0.4734,"g":87,"co":0,"mo":2,"sa":0,"ic":0},"geometry":{"type":"Polygon","coordinates":[[[-0.53142,51.50226],[-0.53094,51.50113],[-0.52809,51.50158],[-0.52789,51.50084],[-0.52826,51.49795],[-0.52913,51.49639],[-0.53126,51.49431],[-0.53168,51.4942],[-0.53244,51.49499],[-0.53352,51.49564],[-0.53435,51.49725],[-0.53612,51.49819],[-0.53682,51.49711],[-0.53749,51.49714],[-0.53738,51.49876],[-0.53759,51.49956],[-0.53894,51.49965],[-0.53863,51.50002],[-0.53633,51.50006],[-0.53196,51.50125],[-0.53184,51.50165],[-0.53337,51.50172],[-0.53335,51.50206],[-0.53142,51.50226]]]}},{"type":"Feature","properties":{"id":"E01016493","name":"E01016493","parent":"E06000039","type":"LSOA","pop":1261,"r":419,"ff":163,"ffd":12926.2,"ffs":0.4697,"g":70,"co":0,"mo":2,"sa":0,"ic":0},"geometry":{"type":"Polygon","coordinates":[[[-0.65883,51.52571],[-0.65829,51.52541],[-0.65567,51.52549],[-0.65575,51.52448],[-0.65526,51.52448],[-0.65557,51.52396],[-0.65521,51.52395],[-0.65502,51.52097],[-0.65513,51.52014],[-0.65724,51.52055],[-0.66014,51.52042],[-0.65961,51.52068],[-0.66005,51.52452],[-0.65936,51.52499],[-0.65939,51.52571],[-0.65883,51.52571]]]}},{"type":"Feature","properties":{"id":"E01016494","name":"E01016494","parent":"E06000039","type":"LSOA","pop":2028,"r":382,"ff":155,"ffd":7643.0,"ffs":0.4814,"g":58,"co":0,"mo":2,"sa":0,"ic":0},"geometry":{"type":"Polygon","coordinates":[[[-0.63622,51.52716],[-0.63667,51.52638],[-0.63571,51.52619],[-0.63604,51.52534],[-0.63243,51.5246],[-0.63298,51.52342],[-0.63023,51.52288],[-0.63075,51.52181],[-0.63336,51.52228],[-0.63369,51.5198],[-0.63737,51.52044],[-0.6399,51.52048],[-0.64318,51.51985],[-0.64527,51.51991],[-0.64703,51.52022],[-0.6473,51.52149],[-0.64672,51.52153],[-0.64678,51.52217],[-0.64953,51.52206],[-0.64956,51.5226],[-0.65023,51.52244],[-0.65048,51.52331],[-0.64949,51.52399],[-0.64574,51.52426],[-0.6464,51.5251],[-0.64564,51.52536],[-0.64685,51.52706],[-0.64339,51.52733],[-0.64183,51.52764],[-0.64124,51.52721],[-0.64103,51.52809],[-0.63622,51.52716]]]}},{"type":"Feature","properties":{"id":"E01016495","name":"E01016495","parent":"E06000039","type":"LSOA","pop":1559,"r":392,"ff":156,"ffd":10006.4,"ffs":0.4756,"g":62,"co":0,"mo":2,"sa":0,"ic":0},"geometry":{"type":"Polygon","coordinates":[[[-0.65051,51.52517],[-0.65048,51.52484],[-0.64676,51.52484],[-0.64642,51.52427],[-0.64949,51.52399],[-0.65048,51.52331],[-0.65023,51.52244],[-0.64956,51.5226],[-0.64953,51.52206],[-0.64678,51.52217],[-0.64672,51.52153],[-0.6473,51.52149],[-0.64703,51.52022],[-0.65513,51.52014],[-0.65502,51.52097],[-0.65521,51.52395],[-0.65433,51.52389],[-0.65421,51.52571],[-0.65205,51.5258],[-0.65051,51.52517]]]}},{"type":"Feature","properties":{"id":"E01016496","name":"E01016496","parent":"E06000039","type":"LSOA","pop":1380,"r":382,"ff":150,"ffd":10869.6,"ffs":0.4732,"g":63,"co":0,"mo":2,"sa":0,"ic":0},"geometry":{"type":"Polygon","coordinates":[[[-0.65249,51.52917],[-0.65384,51.52807],[-0.6531,51.52741],[-0.65347,51.52671],[-0.65283,51.52625],[-0.65286,51.5257],[-0.65421,51.52571],[-0.65433,51.52389],[-0.65557,51.52396],[-0.65526,51.52448],[-0.65575,51.52448],[-0.65567,51.52549],[-0.65829,51.52541],[-0.65883,51.52571],[-0.65939,51.52571],[-0.65936,51.52499],[-0.66005,51.52452],[-0.65988,51.52834],[-0.65921,51.52826],[-0.65537,51.52952],[-0.65397,51.52976],[-0.65406,51.53004],[-0.65315,51.53033],[-0.65302,51.5298],[-0.65249,51.52917]]]}},{"type":"Feature","properties":{"id":"E01016497","name":"E01016497","parent":"E06000039","type":"LSOA","pop":1377,"r":392,"ff":157,"ffd":11401.6,"ffs":0.4787,"g":62,"co":0,"mo":2,"sa":0,"ic":0},"geometry":{"type":"Polygon","coordinates":[[[-0.6488,51.53024],[-0.64873,51.52998],[-0.64464,51.52996],[-0.64405,51.52873],[-0.64453,51.52866],[-0.64459,51.52829],[-0.64619,51.52791],[-0.64652,51.52827],[-0.64755,51.52833],[-0.64688,51.52686],[-0.64664,51.52677],[-0.64564,51.52536],[-0.6464,51.5251],[-0.64574,51.52426],[-0.64642,51.52427],[-0.64676,51.52484],[-0.65048,51.52484],[-0.65051,51.52517],[-0.65205,51.5258],[-0.65286,51.5257],[-0.65283,51.52625],[-0.65347,51.52671],[-0.6531,51.52741],[-0.65384,51.52807],[-0.65249,51.52917],[-0.65302,51.5298],[-0.65222,51.53017],[-0.65193,51.52997],[-0.6488,51.53024]]]}},{"type":"Feature","properties":{"id":"E01016498","name":"E01016498","parent":"E06000039","type":"LSOA","pop":1685,"r":337,"ff":132,"ffd":7833.8,"ffs":0.4714,"g":55,"co":0,"mo":2,"sa":0,"ic":0},"geometry":{"type":"Polygon","coordinates":[[[-0.63391,51.52952],[-0.63415,51.52841],[-0.63548,51.52846],[-0.63567,51.528],[-0.6344,51.52776],[-0.63458,51.52722],[-0.63387,51.52591],[-0.63667,51.52638],[-0.63622,51.52716],[-0.64103,51.52809],[-0.64124,51.52721],[-0.64183,51.52764],[-0.64339,51.52733],[-0.64685,51.52706],[-0.64664,51.52677],[-0.64688,51.52686],[-0.64755,51.52833],[-0.64652,51.52827],[-0.64619,51.52791],[-0.64459,51.52829],[-0.64453,51.52866],[-0.64405,51.52873],[-0.64464,51.52996],[-0.63391,51.52952]]]}},{"type":"Feature","properties":{"id":"E01016499","name":"E01016499","parent":"E06000039","type":"LSOA","pop":1458,"r":360,"ff":143,"ffd":9808.0,"ffs":0.4735,"g":56,"co":0,"mo":2,"sa":0,"ic":0},"geometry":{"type":"Polygon","coordinates":[[[-0.63099,51.52942],[-0.62918,51.52924],[-0.62769,51.52935],[-0.62798,51.5277],[-0.62758,51.52764],[-0.62871,51.52626],[-0.63023,51.52288],[-0.63298,51.52342],[-0.63243,51.5246],[-0.63604,51.52534],[-0.63571,51.52619],[-0.63387,51.52591],[-0.63458,51.52722],[-0.6344,51.52776],[-0.63567,51.528],[-0.63548,51.52846],[-0.63415,51.52841],[-0.63391,51.52952],[-0.63099,51.52942]]]}},{"type":"Feature","properties":{"id":"E01016500","name":"E01016500","parent":"E06000039","type":"LSOA","pop":1904,"r":537,"ff":207,"ffd":10871.8,"ffs":0.4726,"g":96,"co":0,"mo":2,"sa":0,"ic":0},"geometry":{"type":"Polygon","coordinates":[[[-0.55119,51.49947],[-0.55033,51.49913],[-0.54997,51.49976],[-0.54906,51.49958],[-0.54899,51.49887],[-0.55005,51.49854],[-0.5488,51.49766],[-0.5487,51.49665],[-0.54951,51.49626],[-0.54916,51.49521],[-0.54958,51.49456],[-0.55214,51.49575],[-0.5525,51.49487],[-0.56052,51.49724],[-0.56027,51.49764],[-0.56107,51.49829],[-0.56031,51.4987],[-0.56094,51.4989],[-0.56067,51.49921],[-0.56146,51.4996],[-0.56092,51.50038],[-0.56116,51.50069],[-0.56064,51.50136],[-0.55396,51.5001],[-0.55458,51.49844],[-0.55352,51.49814],[-0.55296,51.49836],[-0.55217,51.49949],[-0.552,51.50051],[-0.55324,51.5012],[-0.55315,51.50141],[-0.55106,51.501],[-0.55059,51.50057],[-0.55126,51.50054],[-0.55119,51.49947]]]}},{"type":"Feature","properties":{"id":"E01016501","name":"E01016501","parent":"E06000039","type":"LSOA","pop":1829,"r":424,"ff":167,"ffd":9130.7,"ffs":0.4665,"g":64,"co":0,"mo":2,"sa":0,"ic":0},"geometry":{"type":"Polygon","coordinates":[[[-0.55781,51.50442],[-0.55869,51.50243],[-0.55776,51.50317],[-0.55602,51.50365],[-0.55559,51.50342],[-0.5556,51.50252],[-0.55651,51.50203],[-0.5574,51.5022],[-0.557,51.50156],[-0.55803,51.50088],[-0.56064,51.50136],[-0.56116,51.50069],[-0.56092,51.50038],[-0.56146,51.4996],[-0.56388,51.50047],[-0.56311,51.50151],[-0.56355,51.50166],[-0.56292,51.50274],[-0.56402,51.50292],[-0.56426,51.50347],[-0.56273,51.50403],[-0.56215,51.5038],[-0.56062,51.5043],[-0.55955,51.50493],[-0.55781,51.50442]]]}},{"type":"Feature","properties":{"id":"E01016502","name":"E01016502","parent":"E06000039","type":"LSOA","pop":1646,"r":454,"ff":173,"ffd":10510.3,"ffs":0.4529,"g":69,"co":0,"mo":2,"sa":0,"ic":0},"geometry":{"type":"Polygon","coordinates":[[[-0.54953,51.50424],[-0.5461,51.50381],[-0.54368,51.50409],[-0.54222,51.50337],[-0.54289,51.50067],[-0.54373,51.49839],[-0.54453,51.49745],[-0.54518,51.49789],[-0.54564,51.49763],[-0.54624,51.49778],[-0.54625,51.49818],[-0.54719,51.49797],[-0.54721,51.4983],[-0.54662,51.49853],[-0.54677,51.4993],[-0.54724,51.49924],[-0.54725,51.49956],[-0.54601,51.49974],[-0.54553,51.50017],[-0.54643,51.50106],[-0.5474,51.50001],[-0.54866,51.50057],[-0.54799,51.50221],[-0.54841,51.50225],[-0.54905,51.50103],[-0.5512,51.5014],[-0.55107,51.50169],[-0.54937,51.50139],[-0.54886,51.50238],[-0.54925,51.50263],[-0.54831,51.50299],[-0.54852,51.50355],[-0.55195,51.50424],[-0.55178,51.5048],[-0.54953,51.50424]]]}},{"type":"Feature","properties":{"id":"E01016503","name":"E01016503","parent":"E06000039","type":"LSOA","pop":1742,"r":492,"ff":191,"ffd":10964.4,"ffs":0.4636,"g":77,"co":0,"mo":2,"sa":0,"ic":0},"geometry":{"type":"Polygon","coordinates":[[[-0.54799,51.50221],[-0.54866,51.50057],[-0.5474,51.50001],[-0.54643,51.50106],[-0.54553,51.50017],[-0.54601,51.49974],[-0.54725,51.49956],[-0.54724,51.49924],[-0.54677,51.4993],[-0.54662,51.49853],[-0.54721,51.4983],[-0.54719,51.49797],[-0.54625,51.49818],[-0.54624,51.49778],[-0.54564,51.49763],[-0.54518,51.49789],[-0.54453,51.49745],[-0.54606,51.49607],[-0.54785,51.4939],[-0.54958,51.49456],[-0.54916,51.49521],[-0.54951,51.49626],[-0.5487,51.49665],[-0.5488,51.49766],[-0.55005,51.49854],[-0.54899,51.49887],[-0.54906,51.49958],[-0.54997,51.49976],[-0.55033,51.49913],[-0.55119,51.49947],[-0.55126,51.50054],[-0.55059,51.50057],[-0.55106,51.501],[-0.55071,51.50131],[-0.54905,51.50103],[-0.54841,51.50225],[-0.54799,51.50221]]]}},{"type":"Feature","properties":{"id":"E01016504","name":"E01016504","parent":"E06000039","type":"LSOA","pop":1631,"r":443,"ff":173,"ffd":10607.0,"ffs":0.4638,"g":68,"co":0,"mo":2,"sa":0,"ic":0},"geometry":{"type":"Polygon","coordinates":[[[-0.55994,51.50561],[-0.56023,51.5053],[-0.55955,51.50493],[-0.56062,51.5043],[-0.56215,51.5038],[-0.56273,51.50403],[-0.56426,51.50347],[-0.56402,51.50292],[-0.56292,51.50274],[-0.56355,51.50166],[-0.56311,51.50151],[-0.56388,51.50047],[-0.56986,51.50344],[-0.57408,51.50519],[-0.57254,51.50583],[-0.57118,51.50594],[-0.56621,51.50562],[-0.56406,51.50613],[-0.56234,51.50605],[-0.55994,51.50561]]]}},{"type":"Feature","properties":{"id":"E01016505","name":"E01016505","parent":"E06000039","type":"LSOA","pop":1893,"r":442,"ff":170,"ffd":8980.5,"ffs":0.4595,"g":70,"co":0,"mo":2,"sa":0,"ic":0},"geometry":{"type":"Polygon","coordinates":[[[-0.55795,51.5052],[-0.55375,51.50476],[-0.55178,51.5048],[-0.55195,51.50424],[-0.54852,51.50355],[-0.54831,51.50299],[-0.54925,51.50263],[-0.54886,51.50238],[-0.54937,51.50139],[-0.55107,51.50169],[-0.5512,51.5014],[-0.55071,51.50131],[-0.55106,51.501],[-0.55315,51.50141],[-0.55324,51.5012],[-0.552,51.50051],[-0.55217,51.49949],[-0.55296,51.49836],[-0.55352,51.49814],[-0.55458,51.49844],[-0.55396,51.5001],[-0.55803,51.50088],[-0.557,51.50156],[-0.5574,51.5022],[-0.55651,51.50203],[-0.5556,51.50252],[-0.55559,51.50342],[-0.55602,51.50365],[-0.55776,51.50317],[-0.55869,51.50243],[-0.55781,51.50442],[-0.56023,51.5053],[-0.55994,51.50561],[-0.55795,51.5052]]]}},{"type":"Feature","properties":{"id":"E01016506","name":"E01016506","parent":"E06000039","type":"LSOA","pop":1881,"r":456,"ff":186,"ffd":9888.4,"ffs":0.4869,"g":72,"co":0,"mo":2,"sa":0,"ic":0},"geometry":{"type":"Polygon","coordinates":[[[-0.52912,51.50756],[-0.53102,51.50379],[-0.53422,51.50425],[-0.53518,51.50457],[-0.53553,51.50598],[-0.5376,51.50623],[-0.53788,51.50518],[-0.53854,51.5051],[-0.54074,51.507],[-0.5405,51.50824],[-0.54253,51.50864],[-0.54197,51.50939],[-0.52884,51.51008],[-0.52827,51.50996],[-0.52856,51.50826],[-0.52912,51.50756]]]}},{"type":"Feature","properties":{"id":"E01016507","name":"E01016507","parent":"E06000039","type":"LSOA","pop":1938,"r":436,"ff":174,"ffd":8978.3,"ffs":0.469,"g":63,"co":0,"mo":2,"sa":0,"ic":0},"geometry":{"type":"Polygon","coordinates":[[[-0.55218,51.50908],[-0.55298,51.5072],[-0.55151,51.50692],[-0.55159,51.50609],[-0.55199,51.50616],[-0.55203,51.5067],[-0.55257,51.5067],[-0.55246,51.50586],[-0.55165,51.50552],[-0.55301,51.50488],[-0.55375,51.50476],[-0.55795,51.5052],[-0.56234,51.50605],[-0.56213,51.50638],[-0.56128,51.50638],[-0.56133,51.50729],[-0.55976,51.50721],[-0.5598,51.50758],[-0.5626,51.50776],[-0.56253,51.50852],[-0.56033,51.50846],[-0.56028,51.50976],[-0.55218,51.50908]]]}},{"type":"Feature","properties":{"id":"E01016508","name":"E01016508","parent":"E06000039","type":"LSOA","pop":2359,"r":448,"ff":183,"ffd":7757.5,"ffs":0.4778,"g":63,"co":0,"mo":2,"sa":0,"ic":0},"geometry":{"type":"Polygon","coordinates":[[[-0.54256,51.50846],[-0.5436,51.50622],[-0.54277,51.50628],[-0.54347,51.50521],[-0.54413,51.50496],[-0.54368,51.50409],[-0.5461,51.50381],[-0.55301,51.50488],[-0.55165,51.50552],[-0.55246,51.50586],[-0.55257,51.5067],[-0.55203,51.5067],[-0.55199,51.50616],[-0.55159,51.50609],[-0.55151,51.50692],[-0.55298,51.5072],[-0.55218,51.50908],[-0.54247,51.5095],[-0.54238,51.50897],[-0.54256,51.50846]]]}},{"type":"Feature","properties":{"id":"E01016509","name":"E01016509","parent":"E06000039","type":"LSOA","pop":1765,"r":478,"ff":191,"ffd":10821.5,"ffs":0.4704,"g":70,"co":0,"mo":2,"sa":0,"ic":0},"geometry":{"type":"Polygon","coordinates":[[[-0.52747,51.50563],[-0.52891,51.50151],[-0.53094,51.50113],[-0.53142,51.50226],[-0.53335,51.50206],[-0.54219,51.50328],[-0.54368,51.50409],[-0.54413,51.50496],[-0.54347,51.50521],[-0.54277,51.50628],[-0.5436,51.50622],[-0.54253,51.50864],[-0.5405,51.50824],[-0.54074,51.507],[-0.53854,51.5051],[-0.53788,51.50518],[-0.5376,51.50623],[-0.53553,51.50598],[-0.53518,51.50457],[-0.53422,51.50425],[-0.53102,51.50379],[-0.52912,51.50756],[-0.52856,51.50826],[-0.52827,51.50996],[-0.52808,51.50971],[-0.52647,51.50916],[-0.52613,51.50783],[-0.52747,51.50563]]]}},{"type":"Feature","properties":{"id":"E01016510","name":"E01016510","parent":"E06000039","type":"LSOA","pop":2213,"r":439,"ff":174,"ffd":7862.6,"ffs":0.464,"g":62,"co":0,"mo":2,"sa":0,"ic":0},"geometry":{"type":"Polygon","coordinates":[[[-0.56028,51.50976],[-0.56033,51.50846],[-0.56253,51.50852],[-0.5626,51.50776],[-0.5598,51.50758],[-0.55976,51.50721],[-0.56133,51.50729],[-0.56128,51.50638],[-0.56213,51.50638],[-0.56234,51.50605],[-0.56406,51.50613],[-0.56621,51.50562],[-0.57118,51.50594],[-0.57254,51.50583],[-0.57408,51.50519],[-0.57471,51.50536],[-0.57519,51.50624],[-0.57623,51.50642],[-0.57618,51.5074],[-0.57429,51.50824],[-0.57547,51.50987],[-0.57453,51.50996],[-0.56984,51.5096],[-0.56879,51.51125],[-0.56397,51.5102],[-0.56028,51.50976]]]}},{"type":"Feature","properties":{"id":"E01016511","name":"E01016511","parent":"E06000039","type":"LSOA","pop":2855,"r":442,"ff":174,"ffd":6094.6,"ffs":0.4677,"g":67,"co":0,"mo":2,"sa":0,"ic":0},"geometry":{"type":"Polygon","coordinates":[[[-0.58067,51.50789],[-0.57884,51.50663],[-0.576,51.50567],[-0.577,51.50486],[-0.57789,51.50526],[-0.58061,51.50449],[-0.58065,51.50377],[-0.58203,51.5029],[-0.58281,51.50394],[-0.58507,51.503],[-0.58515,51.50184],[-0.58765,51.50253],[-0.58689,51.50313],[-0.58503,51.50374],[-0.5851,51.50416],[-0.58676,51.5037],[-0.58747,51.50441],[-0.5888,51.50442],[-0.58848,51.50594],[-0.58778,51.50622],[-0.58745,51.50762],[-0.58562,51.50727],[-0.58485,51.50731],[-0.58383,51.50888],[-0.58216,51.50859],[-0.58067,51.50789]]]}},{"type":"Feature","properties":{"id":"E01016514","name":"E01016514","parent":"E06000039","type":"LSOA","pop":2220,"r":438,"ff":177,"ffd":7973.0,"ffs":0.4823,"g":68,"co":0,"mo":2,"sa":0,"ic":0},"geometry":{"type":"Polygon","coordinates":[[[-0.59287,51.50661],[-0.59251,51.50651],[-0.59221,51.50679],[-0.59228,51.50645],[-0.59082,51.50614],[-0.59155,51.50547],[-0.59284,51.5058],[-0.59333,51.50477],[-0.59066,51.5037],[-0.58928,51.50276],[-0.58831,51.50281],[-0.58515,51.50184],[-0.58507,51.503],[-0.58281,51.50394],[-0.58203,51.5029],[-0.58322,51.50225],[-0.58369,51.50149],[-0.58399,51.49788],[-0.58943,51.4994],[-0.58983,51.49937],[-0.59104,51.49731],[-0.59187,51.49803],[-0.59751,51.50056],[-0.60056,51.50232],[-0.59769,51.50613],[-0.59499,51.50541],[-0.5937,51.50744],[-0.59248,51.50753],[-0.59287,51.50661]]]}},{"type":"Feature","properties":{"id":"E01016515","name":"E01016515","parent":"E06000039","type":"LSOA","pop":2132,"r":448,"ff":178,"ffd":8349.0,"ffs":0.4709,"g":68,"co":0,"mo":2,"sa":0,"ic":0},"geometry":{"type":"Polygon","coordinates":[[[-0.57353,51.50502],[-0.56773,51.50242],[-0.56829,51.50205],[-0.56906,51.50226],[-0.56974,51.50181],[-0.57205,51.50138],[-0.57187,51.50086],[-0.5705,51.50036],[-0.57105,51.49992],[-0.57332,51.50037],[-0.57978,51.50069],[-0.58369,51.50149],[-0.58322,51.50225],[-0.58065,51.50377],[-0.58061,51.50449],[-0.57789,51.50526],[-0.577,51.50486],[-0.576,51.50567],[-0.57353,51.50502]]]}},{"type":"Feature","properties":{"id":"E01016516","name":"E01016516","parent":"E06000039","type":"LSOA","pop":2154,"r":440,"ff":179,"ffd":8310.1,"ffs":0.4723,"g":59,"co":0,"mo":2,"sa":0,"ic":0},"geometry":{"type":"Polygon","coordinates":[[[-0.57826,51.51777],[-0.57781,51.51749],[-0.57685,51.51752],[-0.57676,51.51701],[-0.5773,51.51639],[-0.57519,51.51576],[-0.57527,51.51545],[-0.57352,51.515],[-0.57253,51.51611],[-0.57218,51.51597],[-0.57243,51.51554],[-0.57195,51.51542],[-0.57095,51.51705],[-0.56967,51.51683],[-0.57049,51.51535],[-0.57218,51.51385],[-0.57283,51.51417],[-0.57388,51.51312],[-0.5803,51.51484],[-0.57934,51.51542],[-0.57826,51.51777]]]}},{"type":"Feature","properties":{"id":"E01016517","name":"E01016517","parent":"E06000039","type":"LSOA","pop":1804,"r":420,"ff":170,"ffd":9423.5,"ffs":0.4709,"g":57,"co":0,"mo":2,"sa":0,"ic":0},"geometry":{"type":"Polygon","coordinates":[[[-0.57078,51.51799],[-0.57028,51.51768],[-0.57118,51.51748],[-0.57196,51.51783],[-0.57256,51.51744],[-0.57171,51.51706],[-0.57218,51.51597],[-0.57253,51.51611],[-0.57352,51.515],[-0.57527,51.51545],[-0.57519,51.51576],[-0.5773,51.51639],[-0.57676,51.51701],[-0.57685,51.51752],[-0.57781,51.51749],[-0.57826,51.51777],[-0.57809,51.51819],[-0.5753,51.51838],[-0.57529,51.51871],[-0.57461,51.51893],[-0.57047,51.51823],[-0.57078,51.51799]]]}},{"type":"Feature","properties":{"id":"E01016518","name":"E01016518","parent":"E06000039","type":"LSOA","pop":2047,"r":434,"ff":180,"ffd":8793.4,"ffs":0.4813,"g":58,"co":0,"mo":2,"sa":0,"ic":0},"geometry":{"type":"Polygon","coordinates":[[[-0.56897,51.51772],[-0.56667,51.51456],[-0.56869,51.51138],[-0.57388,51.51312],[-0.57283,51.51417],[-0.57218,51.51385],[-0.57049,51.51535],[-0.56967,51.51683],[-0.57095,51.51705],[-0.57195,51.51542],[-0.57243,51.51554],[-0.57171,51.51706],[-0.57256,51.51744],[-0.57196,51.51783],[-0.57118,51.51748],[-0.56917,51.51805],[-0.56897,51.51772]]]}},{"type":"Feature","properties":{"id":"E01016519","name":"E01016519","parent":"E06000039","type":"LSOA","pop":3175,"r":426,"ff":173,"ffd":5448.8,"ffs":0.4727,"g":58,"co":0,"mo":2,"sa":0,"ic":0},"geometry":{"type":"Polygon","coordinates":[[[-0.57275,51.53394],[-0.56899,51.53299],[-0.5672,51.53299],[-0.5679,51.53026],[-0.5701,51.52971],[-0.57251,51.52969],[-0.57509,51.5293],[-0.57415,51.52831],[-0.57273,51.5277],[-0.57229,51.52702],[-0.57151,51.52383],[-0.57297,51.52474],[-0.57406,51.52456],[-0.57396,51.52428],[-0.5745,51.52403],[-0.57525,51.52426],[-0.57582,51.52371],[-0.57503,51.52348],[-0.5751,51.52274],[-0.5766,51.52274],[-0.57647,51.52211],[-0.57567,51.52183],[-0.57657,51.52142],[-0.57671,51.52082],[-0.57729,51.52053],[-0.57793,51.52083],[-0.57838,51.52067],[-0.57942,51.52113],[-0.57992,51.52272],[-0.58099,51.52307],[-0.58106,51.52489],[-0.57963,51.52752],[-0.57823,51.53067],[-0.57598,51.53391],[-0.57275,51.53394]]]}},{"type":"Feature","properties":{"id":"E01016520","name":"E01016520","parent":"E06000039","type":"LSOA","pop":1833,"r":414,"ff":161,"ffd":8783.4,"ffs":0.4561,"g":59,"co":0,"mo":2,"sa":0,"ic":0},"geometry":{"type":"Polygon","coordinates":[[[-0.58099,51.52307],[-0.57992,51.52272],[-0.57942,51.52113],[-0.57838,51.52067],[-0.57793,51.52083],[-0.57729,51.52053],[-0.57671,51.52082],[-0.57657,51.52142],[-0.57567,51.52183],[-0.57647,51.52211],[-0.5766,51.52274],[-0.5751,51.52274],[-0.57461,51.52246],[-0.57544,51.52096],[-0.57437,51.52024],[-0.57395,51.52043],[-0.57363,51.52029],[-0.57478,51.51961],[-0.5743,51.51924],[-0.57557,51.51928],[-0.5753,51.51838],[-0.57809,51.51819],[-0.57906,51.5196],[-0.58606,51.51913],[-0.58812,51.51861],[-0.58826,51.51921],[-0.58985,51.51916],[-0.58983,51.52267],[-0.5886,51.52316],[-0.58099,51.52307]]]}},{"type":"Feature","properties":{"id":"E01016521","name":"E01016521","parent":"E06000039","type":"LSOA","pop":2163,"r":416,"ff":171,"ffd":7905.7,"ffs":0.4803,"g":58,"co":0,"mo":2,"sa":0,"ic":0},"geometry":{"type":"Polygon","coordinates":[[[-0.57297,51.52474],[-0.56805,51.5217],[-0.56688,51.52132],[-0.56536,51.52129],[-0.56502,51.52068],[-0.56897,51.51772],[-0.56917,51.51805],[-0.57028,51.51768],[-0.57078,51.51799],[-0.57047,51.51823],[-0.57127,51.51848],[-0.57461,51.51893],[-0.57529,51.51871],[-0.57557,51.51928],[-0.5743,51.51924],[-0.57478,51.51961],[-0.57363,51.52029],[-0.57395,51.52043],[-0.57437,51.52024],[-0.57544,51.52096],[-0.57461,51.52246],[-0.5751,51.52274],[-0.57503,51.52348],[-0.57582,51.52371],[-0.57525,51.52426],[-0.5745,51.52403],[-0.57396,51.52428],[-0.57406,51.52456],[-0.57297,51.52474]]]}},{"type":"Feature","properties":{"id":"E01032729","name":"E01032729","parent":"E06000039","type":"LSOA","pop":2101,"r":403,"ff":162,"ffd":7710.6,"ffs":0.4751,"g":60,"co":0,"mo":2,"sa":0,"ic":0},"geometry":{"type":"Polygon","coordinates":[[[-0.60107,51.51286],[-0.60212,51.51118],[-0.60006,51.51075],[-0.6004,51.51177],[-0.59991,51.51167],[-0.59931,51.51198],[-0.5987,51.51169],[-0.59989,51.51072],[-0.59916,51.51058],[-0.59945,51.51007],[-0.59903,51.50993],[-0.59982,51.50861],[-0.59939,51.50869],[-0.59978,51.50782],[-0.59926,51.508],[-0.59842,51.50779],[-0.59811,51.50714],[-0.59882,51.50645],[-0.59863,51.50621],[-0.6017,51.50617],[-0.60075,51.50871],[-0.60232,51.5092],[-0.6016,51.51077],[-0.60234,51.5108],[-0.60314,51.50933],[-0.60366,51.50929],[-0.60394,51.50877],[-0.6084,51.51125],[-0.60836,51.51157],[-0.60289,51.51132],[-0.60148,51.51307],[-0.60107,51.51286]]]}},{"type":"Feature","properties":{"id":"E01032730","name":"E01032730","parent":"E06000039","type":"LSOA","pop":2284,"r":326,"ff":126,"ffd":5516.6,"ffs":0.4791,"g":61,"co":0,"mo":2,"sa":0,"ic":0},"geometry":{"type":"Polygon","coordinates":[[[-0.59405,51.51239],[-0.59501,51.51065],[-0.59552,51.50911],[-0.59679,51.5074],[-0.59926,51.508],[-0.59978,51.50782],[-0.59939,51.50869],[-0.59982,51.50861],[-0.59903,51.50993],[-0.59945,51.51007],[-0.59916,51.51058],[-0.59989,51.51072],[-0.5987,51.51169],[-0.59931,51.51198],[-0.59991,51.51167],[-0.6004,51.51177],[-0.60006,51.51075],[-0.60212,51.51118],[-0.60107,51.51286],[-0.60148,51.51307],[-0.60106,51.51384],[-0.59405,51.51239]]]}},{"type":"Feature","properties":{"id":"E01032731","name":"E01032731","parent":"E06000039","type":"LSOA","pop":1538,"r":523,"ff":206,"ffd":13394.0,"ffs":0.4769,"g":88,"co":0,"mo":2,"sa":0,"ic":0},"geometry":{"type":"Polygon","coordinates":[[[-0.54958,51.49456],[-0.54785,51.4939],[-0.54734,51.49455],[-0.54673,51.49388],[-0.54549,51.49417],[-0.54527,51.49453],[-0.54422,51.49414],[-0.54471,51.49358],[-0.54593,51.49375],[-0.54573,51.49298],[-0.54445,51.49231],[-0.54491,51.49177],[-0.54932,51.4903],[-0.55162,51.49064],[-0.55416,51.49131],[-0.55214,51.49575],[-0.54958,51.49456]]]}},{"type":"Feature","properties":{"id":"E01032732","name":"E01032732","parent":"E06000039","type":"LSOA","pop":1800,"r":491,"ff":191,"ffd":10611.1,"ffs":0.4659,"g":78,"co":0,"mo":2,"sa":0,"ic":0},"geometry":{"type":"Polygon","coordinates":[[[-0.54243,51.49849],[-0.5413,51.49841],[-0.54076,51.49895],[-0.53738,51.49876],[-0.53749,51.49714],[-0.53875,51.4973],[-0.53977,51.49638],[-0.54045,51.49656],[-0.54101,51.49625],[-0.54177,51.49674],[-0.54218,51.4966],[-0.54134,51.49582],[-0.54409,51.49315],[-0.54471,51.49358],[-0.54422,51.49414],[-0.54527,51.49453],[-0.54549,51.49417],[-0.54673,51.49388],[-0.54734,51.49455],[-0.54373,51.49839],[-0.54323,51.49974],[-0.54281,51.49962],[-0.54306,51.49923],[-0.54243,51.49849]]]}},{"type":"Feature","properties":{"id":"E01035247","name":"E01035247","parent":"E06000039","type":"LSOA","pop":2019,"r":434,"ff":178,"ffd":8816.2,"ffs":0.4877,"g":66,"co":0,"mo":2,"sa":0,"ic":0},"geometry":{"type":"Polygon","coordinates":[[[-0.58457,51.50771],[-0.58485,51.50731],[-0.58562,51.50727],[-0.58745,51.50762],[-0.58759,51.50712],[-0.58786,51.50736],[-0.5891,51.50735],[-0.58919,51.50701],[-0.58962,51.50708],[-0.59014,51.50673],[-0.59084,51.50686],[-0.59122,51.50623],[-0.59228,51.50645],[-0.59221,51.50679],[-0.59251,51.50651],[-0.59287,51.50661],[-0.59248,51.50753],[-0.5937,51.50744],[-0.59499,51.50541],[-0.59769,51.50613],[-0.59552,51.50911],[-0.59501,51.51065],[-0.58383,51.50888],[-0.58457,51.50771]]]}},{"type":"Feature","properties":{"id":"E01035248","name":"E01035248","parent":"E06000039","type":"LSOA","pop":1750,"r":452,"ff":182,"ffd":10400.0,"ffs":0.4879,"g":76,"co":0,"mo":2,"sa":0,"ic":0},"geometry":{"type":"Polygon","coordinates":[[[-0.58759,51.50712],[-0.58778,51.50622],[-0.58848,51.50594],[-0.5888,51.50442],[-0.58747,51.50441],[-0.58676,51.5037],[-0.5851,51.50416],[-0.58503,51.50374],[-0.58689,51.50313],[-0.58765,51.50253],[-0.58831,51.50281],[-0.58928,51.50276],[-0.59066,51.5037],[-0.59333,51.50477],[-0.59284,51.5058],[-0.59155,51.50547],[-0.59082,51.50614],[-0.59122,51.50623],[-0.59084,51.50686],[-0.59014,51.50673],[-0.58962,51.50708],[-0.58919,51.50701],[-0.5891,51.50735],[-0.58786,51.50736],[-0.58759,51.50712]]]}},{"type":"Feature","properties":{"id":"E01035249","name":"E01035249","parent":"E06000039","type":"LSOA","pop":1368,"r":443,"ff":174,"ffd":12719.3,"ffs":0.4741,"g":73,"co":0,"mo":2,"sa":0,"ic":0},"geometry":{"type":"Polygon","coordinates":[[[-0.56733,51.50219],[-0.56388,51.50047],[-0.56067,51.49921],[-0.56094,51.4989],[-0.56031,51.4987],[-0.56107,51.49829],[-0.56198,51.49859],[-0.56304,51.49837],[-0.56403,51.49873],[-0.56532,51.49811],[-0.56634,51.49879],[-0.56687,51.49874],[-0.56666,51.49823],[-0.57012,51.49856],[-0.57031,51.49887],[-0.56976,51.49935],[-0.57051,51.49934],[-0.56983,51.49964],[-0.57105,51.49992],[-0.5705,51.50036],[-0.57187,51.50086],[-0.57205,51.50138],[-0.56974,51.50181],[-0.56906,51.50226],[-0.56829,51.50205],[-0.56773,51.50242],[-0.56733,51.50219]]]}},{"type":"Feature","properties":{"id":"E01035250","name":"E01035250","parent":"E06000039","type":"LSOA","pop":1837,"r":421,"ff":169,"ffd":9199.8,"ffs":0.4815,"g":68,"co":0,"mo":2,"sa":0,"ic":0},"geometry":{"type":"Polygon","coordinates":[[[-0.56983,51.49964],[-0.57051,51.49934],[-0.56976,51.49935],[-0.57031,51.49887],[-0.57012,51.49856],[-0.56666,51.49823],[-0.56687,51.49874],[-0.56634,51.49879],[-0.56532,51.49811],[-0.56403,51.49873],[-0.56304,51.49837],[-0.56198,51.49859],[-0.56107,51.49829],[-0.56027,51.49764],[-0.56503,51.49147],[-0.56592,51.49147],[-0.57021,51.49337],[-0.57192,51.49351],[-0.57576,51.49521],[-0.57608,51.49564],[-0.58399,51.49788],[-0.58369,51.50149],[-0.57978,51.50069],[-0.57332,51.50037],[-0.56983,51.49964]]]}},{"type":"Feature","properties":{"id":"E01035251","name":"E01035251","parent":"E06000039","type":"LSOA","pop":2772,"r":401,"ff":164,"ffd":5916.3,"ffs":0.4767,"g":55,"co":0,"mo":2,"sa":0,"ic":0},"geometry":{"type":"Polygon","coordinates":[[[-0.59197,51.51498],[-0.59357,51.5133],[-0.59407,51.51381],[-0.59439,51.51341],[-0.59487,51.51346],[-0.595,51.51265],[-0.60106,51.51384],[-0.60009,51.5156],[-0.59971,51.51674],[-0.59962,51.51948],[-0.59759,51.52073],[-0.59661,51.5199],[-0.59532,51.51952],[-0.59567,51.51855],[-0.59499,51.51799],[-0.59575,51.51768],[-0.59579,51.51734],[-0.59507,51.51702],[-0.59579,51.5166],[-0.59519,51.51611],[-0.59293,51.51587],[-0.59289,51.51532],[-0.59197,51.51498]]]}},{"type":"Feature","properties":{"id":"E01035252","name":"E01035252","parent":"E06000039","type":"LSOA","pop":1538,"r":417,"ff":164,"ffd":10663.2,"ffs":0.4607,"g":59,"co":0,"mo":2,"sa":0,"ic":0},"geometry":{"type":"Polygon","coordinates":[[[-0.59007,51.51741],[-0.59097,51.51631],[-0.58995,51.51603],[-0.59058,51.51576],[-0.58629,51.5147],[-0.58637,51.51402],[-0.58796,51.51465],[-0.58891,51.51469],[-0.58924,51.51418],[-0.58821,51.5141],[-0.58809,51.51377],[-0.58967,51.51349],[-0.58979,51.51388],[-0.59079,51.51414],[-0.59107,51.51468],[-0.59289,51.51532],[-0.59293,51.51587],[-0.59519,51.51611],[-0.5958,51.51662],[-0.59507,51.51702],[-0.59335,51.51684],[-0.5934,51.51733],[-0.5914,51.5171],[-0.59144,51.51761],[-0.59056,51.51807],[-0.58977,51.51807],[-0.59007,51.51741]]]}},{"type":"Feature","properties":{"id":"E01035253","name":"E01035253","parent":"E06000039","type":"LSOA","pop":1752,"r":410,"ff":165,"ffd":9417.8,"ffs":0.4714,"g":58,"co":0,"mo":2,"sa":0,"ic":0},"geometry":{"type":"Polygon","coordinates":[[[-0.58967,51.51349],[-0.59008,51.51316],[-0.59037,51.51197],[-0.595,51.51265],[-0.59487,51.51346],[-0.59439,51.51341],[-0.59407,51.51381],[-0.59357,51.5133],[-0.59197,51.51498],[-0.59107,51.51468],[-0.59079,51.51414],[-0.58979,51.51388],[-0.58967,51.51349]]]}},{"type":"Feature","properties":{"id":"E01035254","name":"E01035254","parent":"E06000039","type":"LSOA","pop":2057,"r":415,"ff":168,"ffd":8167.2,"ffs":0.4706,"g":56,"co":0,"mo":2,"sa":0,"ic":0},"geometry":{"type":"Polygon","coordinates":[[[-0.58824,51.51582],[-0.58826,51.51545],[-0.58611,51.51572],[-0.58526,51.51551],[-0.58537,51.51513],[-0.58354,51.51461],[-0.58271,51.5155],[-0.57399,51.51315],[-0.57604,51.51091],[-0.57703,51.51046],[-0.57992,51.51054],[-0.59037,51.51197],[-0.59008,51.51316],[-0.58967,51.51349],[-0.58809,51.51377],[-0.58821,51.5141],[-0.58924,51.51418],[-0.58891,51.51469],[-0.58796,51.51465],[-0.58637,51.51402],[-0.58629,51.5147],[-0.59058,51.51576],[-0.58866,51.51678],[-0.58903,51.51599],[-0.58824,51.51582]]]}}]}