{"type":"FeatureCollection","features":[{"type":"Feature","properties":{"id":"E01011949","name":"E01011949","parent":"E06000001","type":"LSOA","pop":1898,"r":149,"ff":60,"ffd":3161.2,"ffs":0.5405,"g":37,"co":3,"mo":0,"sa":0,"ic":0},"geometry":{"type":"Polygon","coordinates":[[[-1.233,54.67892],[-1.22956,54.67777],[-1.22707,54.67777],[-1.22493,54.67811],[-1.22326,54.67802],[-1.22323,54.67677],[-1.22378,54.67643],[-1.22307,54.67604],[-1.22348,54.67569],[-1.22331,54.6744],[-1.2227,54.67421],[-1.22425,54.67395],[-1.22436,54.67331],[-1.22829,54.67265],[-1.22812,54.67207],[-1.23074,54.6717],[-1.2308,54.67212],[-1.23479,54.67157],[-1.23514,54.67231],[-1.23614,54.67221],[-1.23629,54.67302],[-1.23567,54.6778],[-1.233,54.67892]]]}},{"type":"Feature","properties":{"id":"E01011950","name":"E01011950","parent":"E06000001","type":"LSOA","pop":1247,"r":149,"ff":60,"ffd":4811.5,"ffs":0.5405,"g":37,"co":3,"mo":0,"sa":0,"ic":0},"geometry":{"type":"Polygon","coordinates":[[[-1.21715,54.67789],[-1.21665,54.67687],[-1.21591,54.67692],[-1.21539,54.67546],[-1.2227,54.67421],[-1.22331,54.6744],[-1.22348,54.67569],[-1.22307,54.67604],[-1.22378,54.67643],[-1.22323,54.67677],[-1.22143,54.67711],[-1.22044,54.67657],[-1.21987,54.6768],[-1.22007,54.67743],[-1.21715,54.67789]]]}},{"type":"Feature","properties":{"id":"E01011951","name":"E01011951","parent":"E06000001","type":"LSOA","pop":1393,"r":151,"ff":60,"ffd":4307.3,"ffs":0.531,"g":37,"co":3,"mo":0,"sa":0,"ic":0},"geometry":{"type":"Polygon","coordinates":[[[-1.2326,54.67942],[-1.22946,54.67899],[-1.21651,54.67969],[-1.21591,54.67692],[-1.21665,54.67687],[-1.21715,54.67789],[-1.22007,54.67743],[-1.21987,54.6768],[-1.22044,54.67657],[-1.22143,54.67711],[-1.22323,54.67677],[-1.22326,54.67802],[-1.22493,54.67811],[-1.22707,54.67777],[-1.22956,54.67777],[-1.233,54.67892],[-1.23567,54.6778],[-1.2342,54.67992],[-1.2326,54.67942]]]}},{"type":"Feature","properties":{"id":"E01011952","name":"E01011952","parent":"E06000001","type":"LSOA","pop":1669,"r":142,"ff":55,"ffd":3295.4,"ffs":0.5288,"g":37,"co":3,"mo":0,"sa":0,"ic":0},"geometry":{"type":"Polygon","coordinates":[[[-1.23376,54.70736],[-1.23338,54.70592],[-1.23216,54.70594],[-1.23146,54.70484],[-1.22971,54.70455],[-1.22911,54.70499],[-1.22765,54.70513],[-1.22737,54.70452],[-1.22563,54.70503],[-1.22779,54.70593],[-1.22741,54.70632],[-1.22573,54.70648],[-1.22543,54.70711],[-1.22577,54.70741],[-1.22505,54.70776],[-1.2243,54.70719],[-1.22384,54.70734],[-1.22316,54.707],[-1.22299,54.70344],[-1.22159,54.6991],[-1.22872,54.69997],[-1.23791,54.70784],[-1.23503,54.70818],[-1.23376,54.70736]]]}},{"type":"Feature","properties":{"id":"E01011953","name":"E01011953","parent":"E06000001","type":"LSOA","pop":2303,"r":143,"ff":56,"ffd":2431.6,"ffs":0.5333,"g":37,"co":3,"mo":0,"sa":0,"ic":0},"geometry":{"type":"Polygon","coordinates":[[[-1.23126,54.71782],[-1.22571,54.71516],[-1.22524,54.7154],[-1.22564,54.71513],[-1.21878,54.71226],[-1.21808,54.71281],[-1.21874,54.71223],[-1.2183,54.71189],[-1.2208,54.71039],[-1.22316,54.707],[-1.22384,54.70734],[-1.2243,54.70719],[-1.22505,54.70776],[-1.22577,54.70741],[-1.22543,54.70711],[-1.22573,54.70648],[-1.22741,54.70632],[-1.22779,54.70593],[-1.22563,54.70503],[-1.22737,54.70452],[-1.22765,54.70513],[-1.22911,54.70499],[-1.22971,54.70455],[-1.23146,54.70484],[-1.23216,54.70594],[-1.23338,54.70592],[-1.23376,54.70736],[-1.23503,54.70818],[-1.23412,54.70828],[-1.23404,54.70853],[-1.22861,54.70904],[-1.23009,54.70927],[-1.23106,54.70984],[-1.23041,54.71035],[-1.23285,54.71076],[-1.23292,54.71155],[-1.23234,54.71265],[-1.23889,54.71473],[-1.23782,54.71542],[-1.23714,54.71524],[-1.23485,54.71592],[-1.23126,54.71782]]]}},{"type":"Feature","properties":{"id":"E01011954","name":"E01011954","parent":"E06000001","type":"LSOA","pop":2373,"r":138,"ff":55,"ffd":2317.7,"ffs":0.55,"g":37,"co":3,"mo":0,"sa":0,"ic":0},"geometry":{"type":"Polygon","coordinates":[[[-1.23503,54.70818],[-1.23791,54.70784],[-1.24542,54.71261],[-1.23889,54.71473],[-1.23234,54.71265],[-1.23292,54.71155],[-1.23285,54.71076],[-1.23041,54.71035],[-1.23106,54.70984],[-1.23009,54.70927],[-1.22861,54.70904],[-1.23404,54.70853],[-1.23412,54.70828],[-1.23503,54.70818]]]}},{"type":"Feature","properties":{"id":"E01011955","name":"E01011955","parent":"E06000001","type":"LSOA","pop":1283,"r":142,"ff":55,"ffd":4286.8,"ffs":0.5288,"g":37,"co":3,"mo":0,"sa":0,"ic":0},"geometry":{"type":"Polygon","coordinates":[[[-1.21245,54.6974],[-1.21186,54.69179],[-1.21826,54.69071],[-1.21902,54.69221],[-1.21668,54.69278],[-1.21736,54.69427],[-1.21579,54.69446],[-1.21581,54.69482],[-1.21525,54.69481],[-1.21526,54.69536],[-1.21584,54.69523],[-1.21791,54.69624],[-1.218,54.69727],[-1.22097,54.69875],[-1.22095,54.69903],[-1.2123,54.69793],[-1.21245,54.6974]]]}},{"type":"Feature","properties":{"id":"E01011957","name":"E01011957","parent":"E06000001","type":"LSOA","pop":1266,"r":145,"ff":57,"ffd":4502.4,"ffs":0.5327,"g":37,"co":3,"mo":0,"sa":0,"ic":0},"geometry":{"type":"Polygon","coordinates":[[[-1.22212,54.69545],[-1.22232,54.69524],[-1.22184,54.69514],[-1.22214,54.69467],[-1.2221,54.69315],[-1.2215,54.6932],[-1.22142,54.69274],[-1.21987,54.69307],[-1.2201,54.69349],[-1.21974,54.69374],[-1.21935,54.69337],[-1.21904,54.69263],[-1.21711,54.69295],[-1.21699,54.69341],[-1.21668,54.69278],[-1.21902,54.69221],[-1.21818,54.69065],[-1.22658,54.69016],[-1.22665,54.69107],[-1.22756,54.69447],[-1.22718,54.6945],[-1.22716,54.69482],[-1.22438,54.69504],[-1.22403,54.69538],[-1.22495,54.69536],[-1.22504,54.69581],[-1.22031,54.69591],[-1.22064,54.69558],[-1.22212,54.69545]]]}},{"type":"Feature","properties":{"id":"E01011959","name":"E01011959","parent":"E06000001","type":"LSOA","pop":3980,"r":34,"ff":17,"ffd":427.1,"ffs":0.5152,"g":1,"co":2,"mo":1,"sa":1,"ic":1},"geometry":{"type":"Polygon","coordinates":[[[-1.27025,54.72717],[-1.26822,54.72609],[-1.26741,54.72687],[-1.2659,54.72663],[-1.26471,54.72598],[-1.26322,54.72646],[-1.26058,54.72573],[-1.25856,54.72606],[-1.25884,54.72542],[-1.25745,54.72555],[-1.25541,54.72157],[-1.25374,54.72037],[-1.25187,54.71962],[-1.25495,54.71878],[-1.25983,54.71695],[-1.26407,54.71721],[-1.2623,54.71438],[-1.26077,54.71439],[-1.25746,54.71485],[-1.25584,54.71278],[-1.25668,54.71242],[-1.25652,54.71212],[-1.25609,54.71219],[-1.25305,54.70583],[-1.25055,54.70601],[-1.24871,54.70553],[-1.24737,54.70367],[-1.24426,54.70373],[-1.24413,54.70332],[-1.24345,54.70337],[-1.24252,54.70213],[-1.24067,54.70226],[-1.24037,54.70151],[-1.23892,54.70176],[-1.23837,54.70064],[-1.24117,54.70114],[-1.24119,54.70091],[-1.24479,54.70092],[-1.2527,54.70037],[-1.25462,54.69993],[-1.25646,54.701],[-1.26084,54.70003],[-1.26538,54.6997],[-1.26645,54.69501],[-1.26794,54.69502],[-1.26637,54.69353],[-1.26583,54.69246],[-1.26482,54.69229],[-1.26407,54.69247],[-1.26483,54.69026],[-1.26514,54.69024],[-1.26512,54.6864],[-1.26614,54.68151],[-1.2615,54.68082],[-1.26042,54.67822],[-1.25887,54.6777],[-1.25578,54.67575],[-1.25491,54.67483],[-1.25461,54.67373],[-1.25293,54.67276],[-1.25525,54.67032],[-1.25427,54.67034],[-1.25251,54.66623],[-1.24836,54.6667],[-1.2481,54.6658],[-1.2492,54.66562],[-1.25043,54.66193],[-1.25198,54.66075],[-1.25462,54.66174],[-1.25578,54.6616],[-1.25569,54.66109],[-1.25627,54.66066],[-1.2623,54.65971],[-1.26281,54.65945],[-1.26256,54.65876],[-1.26411,54.65896],[-1.26533,54.65801],[-1.26638,54.65782],[-1.26818,54.65665],[-1.26886,54.6572],[-1.27551,54.65554],[-1.28212,54.65434],[-1.28266,54.65353],[-1.28344,54.65318],[-1.28368,54.65248],[-1.28279,54.65183],[-1.28311,54.65147],[-1.28275,54.6506],[-1.28148,54.65015],[-1.28219,54.64931],[-1.28229,54.64825],[-1.28324,54.64722],[-1.28288,54.64569],[-1.28186,54.645],[-1.28002,54.64481],[-1.27927,54.64429],[-1.27368,54.64254],[-1.27343,54.6418],[-1.27545,54.64119],[-1.27842,54.64127],[-1.2795,54.64065],[-1.28182,54.64035],[-1.2835,54.6395],[-1.28491,54.6398],[-1.28647,54.63913],[-1.28626,54.63849],[-1.28709,54.63738],[-1.29079,54.63585],[-1.29173,54.6367],[-1.29377,54.63577],[-1.2968,54.63542],[-1.29701,54.635],[-1.29816,54.63523],[-1.29818,54.63551],[-1.29999,54.63573],[-1.30281,54.63576],[-1.30436,54.6367],[-1.30702,54.63698],[-1.30842,54.63828],[-1.30826,54.63858],[-1.31189,54.64094],[-1.31195,54.64121],[-1.31124,54.64123],[-1.31151,54.64191],[-1.31524,54.64345],[-1.31558,54.64393],[-1.31505,54.64409],[-1.31632,54.64522],[-1.31725,54.64479],[-1.31758,54.64529],[-1.318,54.64527],[-1.32071,54.645],[-1.32203,54.64455],[-1.3261,54.64513],[-1.32667,54.6444],[-1.32828,54.6444],[-1.32951,54.64308],[-1.32914,54.63761],[-1.3297,54.6362],[-1.33101,54.6347],[-1.33459,54.63155],[-1.33536,54.63136],[-1.33779,54.63514],[-1.33967,54.63621],[-1.34282,54.63671],[-1.3499,54.63881],[-1.35479,54.6381],[-1.35683,54.63838],[-1.36222,54.64058],[-1.36519,54.64239],[-1.36802,54.64355],[-1.37412,54.64378],[-1.37828,54.6433],[-1.38033,54.64351],[-1.38131,54.6443],[-1.3827,54.6444],[-1.38377,54.64624],[-1.37891,54.64618],[-1.37451,54.64656],[-1.36897,54.64781],[-1.36653,54.64883],[-1.36488,54.64842],[-1.36219,54.64922],[-1.35931,54.64947],[-1.35804,54.64858],[-1.3563,54.64866],[-1.35584,54.6483],[-1.35278,54.64897],[-1.34975,54.64859],[-1.3499,54.65072],[-1.3456,54.65075],[-1.34132,54.65017],[-1.34121,54.65102],[-1.3419,54.6522],[-1.34131,54.65326],[-1.34346,54.65569],[-1.34318,54.65757],[-1.34493,54.65847],[-1.34549,54.65831],[-1.34751,54.65858],[-1.34632,54.65929],[-1.3464,54.65999],[-1.34601,54.66011],[-1.34645,54.66073],[-1.34708,54.6609],[-1.34635,54.66113],[-1.34643,54.66151],[-1.34781,54.66254],[-1.3467,54.66294],[-1.34659,54.66403],[-1.34605,54.66447],[-1.34352,54.66516],[-1.34338,54.66579],[-1.34227,54.66611],[-1.34353,54.66862],[-1.34071,54.66876],[-1.3402,54.66927],[-1.33801,54.66961],[-1.33571,54.6713],[-1.33432,54.67122],[-1.33266,54.67316],[-1.33238,54.67434],[-1.33243,54.67558],[-1.33346,54.67721],[-1.33191,54.67746],[-1.33185,54.6812],[-1.3309,54.68124],[-1.33135,54.68368],[-1.33211,54.68391],[-1.33165,54.68513],[-1.33213,54.68685],[-1.33444,54.68905],[-1.33867,54.68947],[-1.34466,54.69082],[-1.34448,54.69113],[-1.33302,54.69202],[-1.33219,54.6902],[-1.32982,54.68955],[-1.32755,54.69138],[-1.32598,54.69116],[-1.31943,54.6913],[-1.31975,54.69267],[-1.31939,54.6933],[-1.31538,54.69458],[-1.3127,54.69591],[-1.31425,54.69795],[-1.31284,54.69872],[-1.31385,54.70123],[-1.30935,54.70156],[-1.30932,54.70249],[-1.30778,54.70278],[-1.30623,54.70381],[-1.30641,54.704],[-1.30412,54.70433],[-1.30422,54.70564],[-1.30322,54.70567],[-1.30381,54.70766],[-1.3013,54.70816],[-1.30202,54.70902],[-1.30156,54.7102],[-1.30274,54.71175],[-1.30414,54.71264],[-1.30362,54.71311],[-1.30552,54.71522],[-1.30462,54.71664],[-1.30552,54.71752],[-1.30367,54.71851],[-1.3032,54.71789],[-1.30324,54.71813],[-1.30178,54.71823],[-1.29932,54.71913],[-1.29617,54.71936],[-1.29444,54.71934],[-1.29219,54.71859],[-1.2903,54.7184],[-1.28553,54.72042],[-1.28271,54.72212],[-1.28236,54.72302],[-1.28122,54.72301],[-1.27794,54.7238],[-1.27653,54.72442],[-1.27563,54.72547],[-1.27491,54.72521],[-1.2723,54.72561],[-1.27025,54.72717]]]}},{"type":"Feature","properties":{"id":"E01011960","name":"E01011960","parent":"E06000001","type":"LSOA","pop":1287,"r":139,"ff":53,"ffd":4118.1,"ffs":0.5248,"g":37,"co":3,"mo":0,"sa":0,"ic":0},"geometry":{"type":"Polygon","coordinates":[[[-1.23924,54.65428],[-1.23867,54.65404],[-1.23921,54.65337],[-1.23749,54.65357],[-1.23671,54.65299],[-1.23642,54.65224],[-1.23268,54.65249],[-1.2328,54.65202],[-1.24014,54.65121],[-1.23989,54.64972],[-1.24461,54.64928],[-1.24511,54.64963],[-1.24572,54.64944],[-1.24694,54.64984],[-1.24857,54.6523],[-1.24635,54.65289],[-1.24647,54.65204],[-1.24493,54.6522],[-1.24462,54.65289],[-1.24501,54.65282],[-1.24525,54.65334],[-1.24455,54.65341],[-1.24423,54.65363],[-1.24346,54.6534],[-1.24294,54.65416],[-1.23984,54.65406],[-1.23924,54.65428]]]}},{"type":"Feature","properties":{"id":"E01011961","name":"E01011961","parent":"E06000001","type":"LSOA","pop":1372,"r":144,"ff":56,"ffd":4081.6,"ffs":0.5283,"g":37,"co":3,"mo":0,"sa":0,"ic":0},"geometry":{"type":"Polygon","coordinates":[[[-1.23317,54.65425],[-1.23314,54.65358],[-1.23247,54.6535],[-1.23268,54.65249],[-1.23642,54.65224],[-1.23671,54.65299],[-1.23749,54.65357],[-1.23921,54.65337],[-1.23867,54.65404],[-1.23924,54.65428],[-1.23984,54.65406],[-1.24294,54.65416],[-1.24286,54.65599],[-1.24107,54.65641],[-1.24123,54.65781],[-1.23334,54.65843],[-1.23278,54.65661],[-1.23263,54.65497],[-1.23317,54.65425]]]}},{"type":"Feature","properties":{"id":"E01011962","name":"E01011962","parent":"E06000001","type":"LSOA","pop":1446,"r":143,"ff":56,"ffd":3872.8,"ffs":0.5333,"g":37,"co":3,"mo":0,"sa":0,"ic":0},"geometry":{"type":"Polygon","coordinates":[[[-1.24889,54.65787],[-1.24754,54.65756],[-1.24123,54.65781],[-1.24107,54.65641],[-1.24286,54.65599],[-1.24294,54.65416],[-1.24346,54.6534],[-1.24423,54.65363],[-1.24455,54.65341],[-1.24525,54.65334],[-1.24501,54.65282],[-1.24462,54.65289],[-1.24493,54.6522],[-1.24647,54.65204],[-1.24635,54.65289],[-1.24857,54.6523],[-1.24875,54.65355],[-1.2478,54.65503],[-1.25265,54.65583],[-1.25196,54.65667],[-1.25215,54.65745],[-1.24889,54.65787]]]}},{"type":"Feature","properties":{"id":"E01011963","name":"E01011963","parent":"E06000001","type":"LSOA","pop":1341,"r":147,"ff":58,"ffd":4325.1,"ffs":0.5321,"g":37,"co":3,"mo":0,"sa":0,"ic":0},"geometry":{"type":"Polygon","coordinates":[[[-1.2271,54.65239],[-1.22875,54.65145],[-1.23094,54.65065],[-1.23115,54.65155],[-1.23042,54.65207],[-1.2328,54.65202],[-1.23247,54.6535],[-1.23314,54.65358],[-1.23317,54.65425],[-1.23263,54.65497],[-1.23272,54.65635],[-1.22887,54.65653],[-1.22719,54.65705],[-1.22283,54.65672],[-1.22354,54.65523],[-1.2245,54.65414],[-1.2271,54.65239]]]}},{"type":"Feature","properties":{"id":"E01011964","name":"E01011964","parent":"E06000001","type":"LSOA","pop":1382,"r":150,"ff":59,"ffd":4269.2,"ffs":0.5268,"g":37,"co":3,"mo":0,"sa":0,"ic":0},"geometry":{"type":"Polygon","coordinates":[[[-1.21965,54.68642],[-1.2202,54.6848],[-1.22037,54.68243],[-1.22387,54.68237],[-1.22349,54.68298],[-1.22455,54.68341],[-1.22718,54.68339],[-1.22789,54.68414],[-1.22832,54.68416],[-1.229,54.68454],[-1.22894,54.68483],[-1.22835,54.68491],[-1.22863,54.68555],[-1.22677,54.68559],[-1.22674,54.68591],[-1.22901,54.68601],[-1.22898,54.68627],[-1.22525,54.68611],[-1.22519,54.68632],[-1.2245,54.68629],[-1.22444,54.68666],[-1.21965,54.68642]]]}},{"type":"Feature","properties":{"id":"E01011965","name":"E01011965","parent":"E06000001","type":"LSOA","pop":1586,"r":151,"ff":60,"ffd":3783.1,"ffs":0.531,"g":37,"co":3,"mo":0,"sa":0,"ic":0},"geometry":{"type":"Polygon","coordinates":[[[-1.22674,54.68591],[-1.22677,54.68559],[-1.22863,54.68555],[-1.22835,54.68491],[-1.22894,54.68483],[-1.229,54.68454],[-1.22832,54.68416],[-1.22789,54.68414],[-1.22718,54.68339],[-1.22455,54.68341],[-1.22397,54.68305],[-1.22436,54.68305],[-1.22467,54.68237],[-1.22606,54.68233],[-1.22607,54.68206],[-1.22682,54.68183],[-1.22711,54.68041],[-1.22699,54.67973],[-1.22602,54.67914],[-1.22946,54.67899],[-1.2326,54.67942],[-1.2342,54.67992],[-1.23485,54.68553],[-1.23375,54.68551],[-1.23267,54.6859],[-1.23176,54.68564],[-1.23075,54.68579],[-1.23062,54.68632],[-1.23014,54.68639],[-1.22898,54.68627],[-1.22901,54.68601],[-1.22674,54.68591]]]}},{"type":"Feature","properties":{"id":"E01011966","name":"E01011966","parent":"E06000001","type":"LSOA","pop":1340,"r":150,"ff":59,"ffd":4403.0,"ffs":0.5268,"g":37,"co":3,"mo":0,"sa":0,"ic":0},"geometry":{"type":"Polygon","coordinates":[[[-1.22444,54.68666],[-1.2245,54.68629],[-1.22519,54.68632],[-1.22525,54.68611],[-1.23014,54.68639],[-1.23062,54.68632],[-1.23075,54.68579],[-1.23176,54.68564],[-1.23267,54.6859],[-1.23375,54.68551],[-1.23485,54.68553],[-1.23489,54.68756],[-1.23518,54.6892],[-1.235,54.69013],[-1.23407,54.69096],[-1.23032,54.6904],[-1.23046,54.68692],[-1.22444,54.68666]]]}},{"type":"Feature","properties":{"id":"E01011967","name":"E01011967","parent":"E06000001","type":"LSOA","pop":1569,"r":149,"ff":59,"ffd":3760.4,"ffs":0.5315,"g":37,"co":3,"mo":0,"sa":0,"ic":0},"geometry":{"type":"Polygon","coordinates":[[[-1.22349,54.68298],[-1.22387,54.68237],[-1.22037,54.68243],[-1.21998,54.67945],[-1.22602,54.67914],[-1.22699,54.67973],[-1.22711,54.68041],[-1.22682,54.68183],[-1.22607,54.68206],[-1.22606,54.68233],[-1.22467,54.68237],[-1.22436,54.68305],[-1.22349,54.68298]]]}},{"type":"Feature","properties":{"id":"E01011968","name":"E01011968","parent":"E06000001","type":"LSOA","pop":2103,"r":59,"ff":35,"ffd":1664.3,"ffs":0.5932,"g":0,"co":3,"mo":1,"sa":1,"ic":1},"geometry":{"type":"MultiPolygon","coordinates":[[[[-1.23413,54.62995],[-1.23427,54.62994],[-1.23427,54.62995],[-1.23413,54.62995]]],[[[-1.23334,54.63069],[-1.23356,54.63011],[-1.23365,54.63051],[-1.23334,54.63069]]],[[[-1.25299,54.65979],[-1.25196,54.65667],[-1.25265,54.65583],[-1.2478,54.65503],[-1.24875,54.65355],[-1.24867,54.65257],[-1.24694,54.64984],[-1.24572,54.64944],[-1.24511,54.64963],[-1.24461,54.64928],[-1.23989,54.64972],[-1.24014,54.65121],[-1.23345,54.65197],[-1.23042,54.65207],[-1.23115,54.65155],[-1.23094,54.65065],[-1.23147,54.65052],[-1.23048,54.64897],[-1.23218,54.64853],[-1.23411,54.64736],[-1.23088,54.64267],[-1.22775,54.64092],[-1.22727,54.63727],[-1.22436,54.63692],[-1.23413,54.63142],[-1.23606,54.63186],[-1.23594,54.63366],[-1.23615,54.63186],[-1.23419,54.63138],[-1.23327,54.63094],[-1.2338,54.63056],[-1.23374,54.63006],[-1.23421,54.63005],[-1.23447,54.62991],[-1.23427,54.629],[-1.23605,54.62879],[-1.23904,54.6279],[-1.23744,54.62646],[-1.23883,54.62648],[-1.24039,54.62551],[-1.24077,54.62475],[-1.24173,54.62527],[-1.24577,54.62609],[-1.24741,54.62595],[-1.24949,54.62526],[-1.25043,54.62529],[-1.25119,54.62584],[-1.25329,54.62637],[-1.25409,54.62693],[-1.25378,54.62746],[-1.25417,54.62686],[-1.25278,54.62604],[-1.2513,54.62581],[-1.25067,54.62531],[-1.25246,54.62396],[-1.25403,54.62413],[-1.25524,54.62343],[-1.25668,54.62339],[-1.25763,54.62406],[-1.25621,54.62562],[-1.25871,54.62647],[-1.25984,54.62459],[-1.26213,54.6249],[-1.26391,54.6243],[-1.2668,54.62416],[-1.26745,54.62457],[-1.26761,54.62605],[-1.26852,54.62564],[-1.26895,54.62636],[-1.27192,54.62533],[-1.27516,54.62688],[-1.28013,54.62829],[-1.28598,54.62769],[-1.28627,54.62824],[-1.29105,54.62702],[-1.29242,54.62875],[-1.29651,54.62799],[-1.29903,54.62801],[-1.29859,54.63116],[-1.29881,54.63347],[-1.29816,54.63523],[-1.29701,54.635],[-1.2968,54.63542],[-1.29377,54.63577],[-1.29173,54.6367],[-1.29079,54.63585],[-1.28709,54.63738],[-1.28626,54.63849],[-1.28647,54.63913],[-1.28491,54.6398],[-1.2835,54.6395],[-1.28182,54.64035],[-1.2795,54.64065],[-1.27842,54.64127],[-1.27545,54.64119],[-1.27343,54.6418],[-1.27368,54.64254],[-1.27927,54.64429],[-1.28002,54.64481],[-1.28186,54.645],[-1.28288,54.64569],[-1.28324,54.64722],[-1.28229,54.64825],[-1.28219,54.64931],[-1.28148,54.65015],[-1.28275,54.6506],[-1.28311,54.65147],[-1.28279,54.65183],[-1.28368,54.65248],[-1.28344,54.65318],[-1.28266,54.65353],[-1.28212,54.65434],[-1.27551,54.65554],[-1.26886,54.6572],[-1.26818,54.65665],[-1.26638,54.65782],[-1.26533,54.65801],[-1.26411,54.65896],[-1.26256,54.65876],[-1.26281,54.65945],[-1.2623,54.65971],[-1.25627,54.66066],[-1.25569,54.66109],[-1.25578,54.6616],[-1.25462,54.66174],[-1.25198,54.66075],[-1.25299,54.65979]]]]}},{"type":"Feature","properties":{"id":"E01011969","name":"E01011969","parent":"E06000001","type":"LSOA","pop":1315,"r":137,"ff":54,"ffd":4106.5,"ffs":0.551,"g":38,"co":3,"mo":0,"sa":0,"ic":0},"geometry":{"type":"Polygon","coordinates":[[[-1.24098,54.72319],[-1.2335,54.71889],[-1.23126,54.71782],[-1.23485,54.71592],[-1.23714,54.71524],[-1.23782,54.71542],[-1.23889,54.71473],[-1.24302,54.71335],[-1.24385,54.71313],[-1.24426,54.7135],[-1.24592,54.71359],[-1.24625,54.71317],[-1.2484,54.71263],[-1.24735,54.71178],[-1.24779,54.71143],[-1.24933,54.7112],[-1.24947,54.71203],[-1.25061,54.71178],[-1.25022,54.71204],[-1.25076,54.71281],[-1.25143,54.71358],[-1.25173,54.71345],[-1.25261,54.71447],[-1.25121,54.71458],[-1.25113,54.71496],[-1.25023,54.71499],[-1.24976,54.71583],[-1.24823,54.71621],[-1.24801,54.71665],[-1.24845,54.71693],[-1.24949,54.71677],[-1.24933,54.71717],[-1.25038,54.71799],[-1.24973,54.71847],[-1.25051,54.71854],[-1.25136,54.71976],[-1.24877,54.72073],[-1.24761,54.72241],[-1.2458,54.72229],[-1.24402,54.72158],[-1.24098,54.72319]]]}},{"type":"Feature","properties":{"id":"E01011970","name":"E01011970","parent":"E06000001","type":"LSOA","pop":1115,"r":131,"ff":49,"ffd":4394.6,"ffs":0.5326,"g":38,"co":3,"mo":0,"sa":0,"ic":0},"geometry":{"type":"Polygon","coordinates":[[[-1.24933,54.71717],[-1.24949,54.71677],[-1.24845,54.71693],[-1.24801,54.71665],[-1.24823,54.71621],[-1.24976,54.71583],[-1.25023,54.71499],[-1.25113,54.71496],[-1.25121,54.71458],[-1.25415,54.71427],[-1.2544,54.71455],[-1.25674,54.71396],[-1.25746,54.71485],[-1.26077,54.71439],[-1.2623,54.71438],[-1.26407,54.71721],[-1.25983,54.71695],[-1.25495,54.71878],[-1.25136,54.71976],[-1.25051,54.71854],[-1.24973,54.71847],[-1.25038,54.71799],[-1.24933,54.71717]]]}},{"type":"Feature","properties":{"id":"E01011971","name":"E01011971","parent":"E06000001","type":"LSOA","pop":1320,"r":129,"ff":48,"ffd":3636.4,"ffs":0.5333,"g":38,"co":3,"mo":0,"sa":0,"ic":0},"geometry":{"type":"Polygon","coordinates":[[[-1.2544,54.71455],[-1.25415,54.71427],[-1.25261,54.71447],[-1.25173,54.71345],[-1.25143,54.71358],[-1.25076,54.71281],[-1.25022,54.71204],[-1.25068,54.71185],[-1.25002,54.7116],[-1.2492,54.71056],[-1.24967,54.71022],[-1.249,54.70946],[-1.24985,54.70853],[-1.24944,54.70831],[-1.2502,54.7081],[-1.25275,54.70864],[-1.25474,54.70953],[-1.25609,54.71219],[-1.25652,54.71212],[-1.25668,54.71242],[-1.25584,54.71278],[-1.25674,54.71396],[-1.2544,54.71455]]]}},{"type":"Feature","properties":{"id":"E01011974","name":"E01011974","parent":"E06000001","type":"LSOA","pop":1688,"r":142,"ff":55,"ffd":3258.3,"ffs":0.5288,"g":37,"co":3,"mo":0,"sa":0,"ic":0},"geometry":{"type":"Polygon","coordinates":[[[-1.19565,54.6926],[-1.19619,54.69163],[-1.1946,54.69047],[-1.19457,54.68921],[-1.19485,54.69051],[-1.19616,54.69144],[-1.19632,54.69168],[-1.19626,54.69204],[-1.19785,54.69185],[-1.1982,54.69121],[-1.19783,54.6905],[-1.19837,54.69013],[-1.19776,54.68981],[-1.19787,54.68902],[-1.19661,54.68864],[-1.19553,54.68905],[-1.19864,54.68722],[-1.1986,54.6862],[-1.19744,54.68605],[-1.19608,54.6864],[-1.19471,54.68744],[-1.19468,54.68823],[-1.1941,54.68818],[-1.19437,54.68746],[-1.19497,54.68686],[-1.19562,54.68636],[-1.19674,54.68594],[-1.19938,54.68578],[-1.2006,54.6868],[-1.20379,54.68744],[-1.20824,54.68681],[-1.21,54.68706],[-1.21054,54.6873],[-1.21136,54.68721],[-1.21154,54.68551],[-1.21805,54.6854],[-1.2199,54.68556],[-1.21934,54.6872],[-1.21834,54.68687],[-1.21843,54.68661],[-1.2174,54.68672],[-1.21669,54.68785],[-1.21664,54.68897],[-1.21563,54.6883],[-1.21328,54.68891],[-1.21487,54.69059],[-1.2176,54.69011],[-1.21818,54.69065],[-1.20562,54.69303],[-1.20012,54.69336],[-1.19636,54.69338],[-1.19549,54.6945],[-1.1921,54.69353],[-1.19565,54.6926]]]}},{"type":"Feature","properties":{"id":"E01011975","name":"E01011975","parent":"E06000001","type":"LSOA","pop":1160,"r":150,"ff":59,"ffd":5086.2,"ffs":0.5268,"g":37,"co":3,"mo":0,"sa":0,"ic":0},"geometry":{"type":"Polygon","coordinates":[[[-1.22678,54.69016],[-1.22605,54.69016],[-1.22573,54.68962],[-1.22612,54.68914],[-1.22813,54.68895],[-1.22478,54.68801],[-1.22545,54.6867],[-1.23046,54.68692],[-1.23032,54.6904],[-1.22678,54.69016]]]}},{"type":"Feature","properties":{"id":"E01011977","name":"E01011977","parent":"E06000001","type":"LSOA","pop":1707,"r":145,"ff":57,"ffd":3339.2,"ffs":0.5327,"g":37,"co":3,"mo":0,"sa":0,"ic":0},"geometry":{"type":"Polygon","coordinates":[[[-1.2469,54.66122],[-1.24626,54.66114],[-1.2462,54.66197],[-1.24505,54.66219],[-1.24429,54.66196],[-1.24342,54.66244],[-1.24262,54.66228],[-1.24277,54.66148],[-1.24363,54.66122],[-1.24354,54.66034],[-1.24318,54.6597],[-1.24376,54.65937],[-1.24335,54.65924],[-1.24264,54.65942],[-1.24251,54.66002],[-1.24138,54.65938],[-1.24003,54.65947],[-1.23964,54.65832],[-1.24057,54.65814],[-1.24148,54.65859],[-1.24177,54.65844],[-1.24096,54.65783],[-1.24754,54.65756],[-1.24889,54.65787],[-1.25215,54.65745],[-1.25299,54.65979],[-1.25155,54.66118],[-1.25043,54.66193],[-1.24964,54.66393],[-1.24753,54.6626],[-1.24792,54.66166],[-1.24679,54.66154],[-1.2469,54.66122]]]}},{"type":"Feature","properties":{"id":"E01011978","name":"E01011978","parent":"E06000001","type":"LSOA","pop":1699,"r":148,"ff":59,"ffd":3472.6,"ffs":0.5364,"g":37,"co":3,"mo":0,"sa":0,"ic":0},"geometry":{"type":"Polygon","coordinates":[[[-1.24629,54.66704],[-1.24585,54.66376],[-1.24382,54.66345],[-1.24325,54.66352],[-1.24286,54.66324],[-1.2416,54.66352],[-1.2416,54.66326],[-1.24092,54.6632],[-1.24084,54.66294],[-1.24012,54.66319],[-1.23918,54.66306],[-1.23915,54.66204],[-1.23778,54.66195],[-1.23647,54.66316],[-1.23634,54.66195],[-1.23561,54.66186],[-1.23541,54.66082],[-1.23334,54.65843],[-1.24096,54.65783],[-1.24177,54.65844],[-1.24148,54.65859],[-1.24057,54.65814],[-1.23964,54.65832],[-1.24003,54.65947],[-1.24138,54.65938],[-1.24251,54.66002],[-1.24264,54.65942],[-1.24335,54.65924],[-1.24376,54.65937],[-1.24318,54.6597],[-1.24354,54.66034],[-1.24363,54.66122],[-1.24277,54.66148],[-1.24262,54.66228],[-1.24342,54.66244],[-1.24429,54.66196],[-1.24505,54.66219],[-1.2462,54.66197],[-1.24626,54.66114],[-1.2469,54.66122],[-1.24679,54.66154],[-1.24792,54.66166],[-1.24753,54.6626],[-1.24964,54.66393],[-1.2492,54.66562],[-1.2481,54.6658],[-1.24836,54.6667],[-1.25251,54.66623],[-1.25273,54.66675],[-1.24901,54.66723],[-1.24629,54.66704]]]}},{"type":"Feature","properties":{"id":"E01011979","name":"E01011979","parent":"E06000001","type":"LSOA","pop":1542,"r":148,"ff":59,"ffd":3826.2,"ffs":0.5364,"g":37,"co":3,"mo":0,"sa":0,"ic":0},"geometry":{"type":"Polygon","coordinates":[[[-1.23555,54.66494],[-1.23561,54.66186],[-1.23634,54.66195],[-1.23647,54.66316],[-1.23778,54.66195],[-1.23915,54.66204],[-1.23918,54.66306],[-1.24012,54.66319],[-1.24084,54.66294],[-1.24092,54.6632],[-1.2416,54.66326],[-1.2416,54.66352],[-1.24286,54.66324],[-1.24325,54.66352],[-1.24382,54.66345],[-1.24585,54.66376],[-1.24629,54.66704],[-1.24046,54.66574],[-1.23871,54.66516],[-1.23555,54.66494]]]}},{"type":"Feature","properties":{"id":"E01011980","name":"E01011980","parent":"E06000001","type":"LSOA","pop":1863,"r":148,"ff":59,"ffd":3166.9,"ffs":0.5364,"g":37,"co":3,"mo":0,"sa":0,"ic":0},"geometry":{"type":"Polygon","coordinates":[[[-1.24184,54.67647],[-1.24158,54.67436],[-1.24309,54.67447],[-1.24423,54.67381],[-1.24434,54.67314],[-1.24378,54.67318],[-1.24379,54.67297],[-1.24295,54.67277],[-1.24315,54.67189],[-1.24352,54.67184],[-1.24346,54.67229],[-1.24457,54.67231],[-1.24492,54.67153],[-1.24435,54.67114],[-1.24282,54.67107],[-1.24226,54.67136],[-1.24201,54.6724],[-1.24133,54.67217],[-1.24163,54.67105],[-1.23809,54.67093],[-1.23855,54.67057],[-1.23749,54.66981],[-1.23874,54.66887],[-1.23884,54.66959],[-1.24183,54.66948],[-1.2427,54.66922],[-1.24292,54.66865],[-1.24216,54.66847],[-1.24207,54.66893],[-1.24129,54.66889],[-1.24143,54.66802],[-1.23951,54.66684],[-1.24046,54.66574],[-1.24631,54.66704],[-1.24901,54.66723],[-1.25273,54.66675],[-1.25427,54.67034],[-1.25525,54.67032],[-1.25293,54.67276],[-1.25461,54.67373],[-1.25125,54.67471],[-1.24745,54.67671],[-1.24448,54.67746],[-1.24184,54.67647]]]}},{"type":"Feature","properties":{"id":"E01011981","name":"E01011981","parent":"E06000001","type":"LSOA","pop":1845,"r":149,"ff":60,"ffd":3252.0,"ffs":0.5405,"g":37,"co":3,"mo":0,"sa":0,"ic":0},"geometry":{"type":"Polygon","coordinates":[[[-1.2357,54.67703],[-1.23629,54.67302],[-1.23614,54.67221],[-1.23509,54.66993],[-1.23504,54.66855],[-1.23555,54.66494],[-1.23871,54.66516],[-1.24046,54.66574],[-1.23951,54.66684],[-1.24143,54.66802],[-1.24129,54.66889],[-1.24207,54.66893],[-1.24216,54.66847],[-1.24292,54.66865],[-1.2427,54.66922],[-1.24183,54.66948],[-1.23884,54.66959],[-1.23874,54.66887],[-1.23749,54.66981],[-1.23855,54.67057],[-1.23809,54.67093],[-1.24163,54.67105],[-1.24133,54.67217],[-1.24201,54.6724],[-1.24226,54.67136],[-1.24282,54.67107],[-1.24435,54.67114],[-1.24492,54.67153],[-1.24457,54.67231],[-1.24346,54.67229],[-1.24352,54.67184],[-1.24315,54.67189],[-1.24295,54.67277],[-1.24379,54.67297],[-1.24378,54.67318],[-1.24434,54.67314],[-1.24423,54.67381],[-1.24309,54.67447],[-1.24158,54.67436],[-1.24184,54.67647],[-1.23933,54.67592],[-1.2379,54.67689],[-1.2357,54.67703]]]}},{"type":"Feature","properties":{"id":"E01011982","name":"E01011982","parent":"E06000001","type":"LSOA","pop":1916,"r":151,"ff":60,"ffd":3131.5,"ffs":0.531,"g":37,"co":3,"mo":0,"sa":0,"ic":0},"geometry":{"type":"Polygon","coordinates":[[[-1.24811,54.68542],[-1.24734,54.68455],[-1.24134,54.68498],[-1.24079,54.68445],[-1.2389,54.68381],[-1.23892,54.68317],[-1.24109,54.68379],[-1.24265,54.68327],[-1.24078,54.68142],[-1.24184,54.67647],[-1.24448,54.67746],[-1.24745,54.67671],[-1.25125,54.67471],[-1.25461,54.67373],[-1.25491,54.67483],[-1.25578,54.67575],[-1.25887,54.6777],[-1.26042,54.67822],[-1.2615,54.68082],[-1.26614,54.68151],[-1.26512,54.6864],[-1.26514,54.69024],[-1.26257,54.68978],[-1.24612,54.68875],[-1.24663,54.68545],[-1.24811,54.68542]]]}},{"type":"Feature","properties":{"id":"E01011983","name":"E01011983","parent":"E06000001","type":"LSOA","pop":1678,"r":150,"ff":59,"ffd":3516.1,"ffs":0.5268,"g":37,"co":3,"mo":0,"sa":0,"ic":0},"geometry":{"type":"Polygon","coordinates":[[[-1.23485,54.68553],[-1.2342,54.67992],[-1.23567,54.6778],[-1.2357,54.67703],[-1.2379,54.67689],[-1.23933,54.67592],[-1.24184,54.67647],[-1.24078,54.68142],[-1.24265,54.68327],[-1.24109,54.68379],[-1.23892,54.68317],[-1.2389,54.68381],[-1.24079,54.68445],[-1.24134,54.68498],[-1.24734,54.68455],[-1.24811,54.68542],[-1.24663,54.68545],[-1.24612,54.68875],[-1.24577,54.68892],[-1.2453,54.68987],[-1.2412,54.69159],[-1.23407,54.69096],[-1.235,54.69013],[-1.23518,54.6892],[-1.23489,54.68756],[-1.23485,54.68553]]]}},{"type":"Feature","properties":{"id":"E01011984","name":"E01011984","parent":"E06000001","type":"LSOA","pop":1279,"r":149,"ff":60,"ffd":4691.2,"ffs":0.5405,"g":37,"co":3,"mo":0,"sa":0,"ic":0},"geometry":{"type":"Polygon","coordinates":[[[-1.23514,54.67231],[-1.23479,54.67157],[-1.2308,54.67212],[-1.23074,54.6717],[-1.22969,54.67185],[-1.22942,54.67109],[-1.22746,54.67052],[-1.22691,54.67015],[-1.22448,54.66979],[-1.22389,54.66932],[-1.21996,54.66974],[-1.21967,54.67008],[-1.21881,54.66988],[-1.22012,54.66869],[-1.2223,54.66794],[-1.22383,54.66647],[-1.22574,54.66636],[-1.22579,54.66487],[-1.22918,54.6653],[-1.2339,54.66557],[-1.23518,54.66531],[-1.23555,54.66494],[-1.23504,54.66855],[-1.23509,54.66993],[-1.23614,54.67221],[-1.23514,54.67231]]]}},{"type":"Feature","properties":{"id":"E01011985","name":"E01011985","parent":"E06000001","type":"LSOA","pop":1242,"r":149,"ff":60,"ffd":4830.9,"ffs":0.5405,"g":37,"co":3,"mo":0,"sa":0,"ic":0},"geometry":{"type":"Polygon","coordinates":[[[-1.21355,54.6719],[-1.21219,54.66861],[-1.22003,54.66447],[-1.22579,54.66487],[-1.22574,54.66636],[-1.22383,54.66647],[-1.2223,54.66794],[-1.22012,54.66869],[-1.21881,54.66988],[-1.21615,54.67142],[-1.21555,54.6713],[-1.21496,54.67039],[-1.2143,54.67062],[-1.21495,54.67188],[-1.21355,54.6719]]]}},{"type":"Feature","properties":{"id":"E01011986","name":"E01011986","parent":"E06000001","type":"LSOA","pop":1289,"r":149,"ff":60,"ffd":4654.8,"ffs":0.5405,"g":37,"co":3,"mo":0,"sa":0,"ic":0},"geometry":{"type":"Polygon","coordinates":[[[-1.22144,54.67356],[-1.22178,54.67323],[-1.2208,54.67335],[-1.22041,54.67221],[-1.21965,54.67263],[-1.21932,54.67229],[-1.21723,54.67298],[-1.21708,54.67199],[-1.21845,54.67134],[-1.21892,54.67018],[-1.21863,54.66998],[-1.21881,54.66988],[-1.21967,54.67008],[-1.21996,54.66974],[-1.22389,54.66932],[-1.22448,54.66979],[-1.22691,54.67015],[-1.22746,54.67052],[-1.22942,54.67109],[-1.22969,54.67185],[-1.22812,54.67207],[-1.22829,54.67265],[-1.22436,54.67331],[-1.22425,54.67395],[-1.22188,54.67435],[-1.22144,54.67356]]]}},{"type":"Feature","properties":{"id":"E01011987","name":"E01011987","parent":"E06000001","type":"LSOA","pop":1432,"r":149,"ff":60,"ffd":4189.9,"ffs":0.5405,"g":37,"co":3,"mo":0,"sa":0,"ic":0},"geometry":{"type":"Polygon","coordinates":[[[-1.21436,54.67345],[-1.21355,54.6719],[-1.21495,54.67188],[-1.2143,54.67062],[-1.21496,54.67039],[-1.21555,54.6713],[-1.21615,54.67142],[-1.21863,54.66998],[-1.21892,54.67018],[-1.21845,54.67134],[-1.21708,54.67199],[-1.21723,54.67298],[-1.21932,54.67229],[-1.21965,54.67263],[-1.22041,54.67221],[-1.2208,54.67335],[-1.22178,54.67323],[-1.22144,54.67356],[-1.22188,54.67435],[-1.21539,54.67546],[-1.21436,54.67345]]]}},{"type":"Feature","properties":{"id":"E01011988","name":"E01011988","parent":"E06000001","type":"LSOA","pop":1811,"r":67,"ff":41,"ffd":2263.9,"ffs":0.6119,"g":0,"co":3,"mo":1,"sa":1,"ic":1},"geometry":{"type":"Polygon","coordinates":[[[-1.22199,54.66384],[-1.22198,54.66311],[-1.22285,54.66374],[-1.22391,54.66384],[-1.22401,54.66318],[-1.22266,54.66313],[-1.22254,54.66188],[-1.22371,54.661],[-1.22505,54.66115],[-1.22523,54.66049],[-1.22663,54.6603],[-1.22761,54.66045],[-1.22771,54.66009],[-1.22831,54.66014],[-1.22903,54.65946],[-1.22953,54.65975],[-1.23168,54.65974],[-1.2332,54.6593],[-1.23416,54.65941],[-1.23541,54.66082],[-1.23561,54.66186],[-1.23555,54.66494],[-1.23518,54.66531],[-1.2339,54.66557],[-1.22099,54.66462],[-1.22199,54.66384]]]}},{"type":"Feature","properties":{"id":"E01011989","name":"E01011989","parent":"E06000001","type":"LSOA","pop":1978,"r":148,"ff":59,"ffd":2982.8,"ffs":0.5364,"g":37,"co":3,"mo":0,"sa":0,"ic":0},"geometry":{"type":"Polygon","coordinates":[[[-1.21125,54.66587],[-1.20921,54.65881],[-1.20455,54.65065],[-1.208,54.64703],[-1.21079,54.64482],[-1.22436,54.63692],[-1.22727,54.63727],[-1.22775,54.64092],[-1.23088,54.64267],[-1.23411,54.64736],[-1.23218,54.64853],[-1.23048,54.64897],[-1.23147,54.65052],[-1.22875,54.65145],[-1.2271,54.65239],[-1.21965,54.64726],[-1.21176,54.65167],[-1.21228,54.65451],[-1.21442,54.65433],[-1.21339,54.65556],[-1.21418,54.65664],[-1.21468,54.65852],[-1.22072,54.65827],[-1.22167,54.65896],[-1.22274,54.65879],[-1.22266,54.65915],[-1.22325,54.65939],[-1.22421,54.65896],[-1.22628,54.65919],[-1.22663,54.6603],[-1.22523,54.66049],[-1.22505,54.66115],[-1.22371,54.661],[-1.22254,54.66188],[-1.22266,54.66313],[-1.22401,54.66318],[-1.22391,54.66384],[-1.22285,54.66374],[-1.22198,54.66311],[-1.22199,54.66384],[-1.22099,54.66462],[-1.22003,54.66447],[-1.21219,54.66861],[-1.21125,54.66587]]]}},{"type":"Feature","properties":{"id":"E01011990","name":"E01011990","parent":"E06000001","type":"LSOA","pop":1934,"r":148,"ff":59,"ffd":3050.7,"ffs":0.5364,"g":37,"co":3,"mo":0,"sa":0,"ic":0},"geometry":{"type":"Polygon","coordinates":[[[-1.22663,54.6603],[-1.22628,54.65919],[-1.22421,54.65896],[-1.22325,54.65939],[-1.22266,54.65915],[-1.22274,54.65879],[-1.22167,54.65896],[-1.22072,54.65827],[-1.21468,54.65852],[-1.21418,54.65664],[-1.21339,54.65556],[-1.21442,54.65433],[-1.21228,54.65451],[-1.21176,54.65167],[-1.21965,54.64726],[-1.2271,54.65239],[-1.2245,54.65414],[-1.22354,54.65523],[-1.22283,54.65672],[-1.22719,54.65705],[-1.22887,54.65653],[-1.23272,54.65635],[-1.23313,54.65803],[-1.23416,54.65941],[-1.2332,54.6593],[-1.23168,54.65974],[-1.22953,54.65975],[-1.22903,54.65946],[-1.22831,54.66014],[-1.22771,54.66009],[-1.22761,54.66045],[-1.22663,54.6603]]]}},{"type":"Feature","properties":{"id":"E01011991","name":"E01011991","parent":"E06000001","type":"LSOA","pop":1686,"r":142,"ff":54,"ffd":3202.8,"ffs":0.5192,"g":37,"co":3,"mo":0,"sa":0,"ic":0},"geometry":{"type":"Polygon","coordinates":[[[-1.1839,54.7],[-1.1843,54.69919],[-1.18366,54.69869],[-1.18233,54.69834],[-1.18257,54.69871],[-1.18102,54.69917],[-1.1808,54.6988],[-1.17792,54.69922],[-1.17535,54.69654],[-1.17714,54.69491],[-1.17486,54.69267],[-1.17706,54.69468],[-1.1784,54.694],[-1.18161,54.69323],[-1.18288,54.69366],[-1.18455,54.69338],[-1.18313,54.69387],[-1.18353,54.6945],[-1.18516,54.69506],[-1.18696,54.69514],[-1.18946,54.6964],[-1.18892,54.6968],[-1.1884,54.69669],[-1.18848,54.69633],[-1.185,54.69558],[-1.18465,54.69606],[-1.18295,54.69652],[-1.18301,54.69691],[-1.18237,54.69699],[-1.18249,54.69778],[-1.18415,54.69765],[-1.18467,54.69833],[-1.18526,54.69811],[-1.18704,54.69862],[-1.18686,54.69891],[-1.18723,54.69897],[-1.18783,54.69947],[-1.18754,54.69991],[-1.18667,54.69956],[-1.18652,54.69994],[-1.18591,54.69982],[-1.18447,54.70022],[-1.1839,54.7]]]}},{"type":"Feature","properties":{"id":"E01011992","name":"E01011992","parent":"E06000001","type":"LSOA","pop":2121,"r":142,"ff":55,"ffd":2593.1,"ffs":0.5288,"g":37,"co":3,"mo":0,"sa":0,"ic":0},"geometry":{"type":"Polygon","coordinates":[[[-1.20922,54.70666],[-1.207,54.70556],[-1.20893,54.70551],[-1.21023,54.70505],[-1.2126,54.70593],[-1.21209,54.69928],[-1.21124,54.69927],[-1.21084,54.69955],[-1.21007,54.69901],[-1.21037,54.69877],[-1.20942,54.69834],[-1.20842,54.69707],[-1.2035,54.69746],[-1.20252,54.69495],[-1.20057,54.69333],[-1.20562,54.69303],[-1.21186,54.69179],[-1.21245,54.6974],[-1.2123,54.69793],[-1.22159,54.6991],[-1.22299,54.70344],[-1.22316,54.707],[-1.2208,54.71039],[-1.2183,54.71189],[-1.21784,54.71155],[-1.21412,54.7107],[-1.20987,54.70882],[-1.21196,54.70756],[-1.20922,54.70666]]]}},{"type":"Feature","properties":{"id":"E01011993","name":"E01011993","parent":"E06000001","type":"LSOA","pop":1857,"r":142,"ff":54,"ffd":2907.9,"ffs":0.5192,"g":37,"co":3,"mo":0,"sa":0,"ic":0},"geometry":{"type":"MultiPolygon","coordinates":[[[[-1.18892,54.6968],[-1.18946,54.6964],[-1.19021,54.69678],[-1.18996,54.69702],[-1.18892,54.6968]]],[[[-1.18342,54.7011],[-1.17806,54.69927],[-1.1808,54.6988],[-1.18102,54.69917],[-1.18257,54.69871],[-1.18233,54.69834],[-1.18366,54.69869],[-1.1843,54.69919],[-1.1839,54.7],[-1.18447,54.70022],[-1.18591,54.69982],[-1.18652,54.69994],[-1.18667,54.69956],[-1.18754,54.69991],[-1.18783,54.69947],[-1.18723,54.69897],[-1.18686,54.69891],[-1.18704,54.69862],[-1.18526,54.69811],[-1.18467,54.69833],[-1.18415,54.69765],[-1.18249,54.69778],[-1.18237,54.69699],[-1.18301,54.69691],[-1.18295,54.69652],[-1.18465,54.69606],[-1.185,54.69558],[-1.18848,54.69633],[-1.1884,54.69669],[-1.18663,54.69631],[-1.18587,54.69751],[-1.18883,54.69828],[-1.19255,54.70042],[-1.19312,54.70031],[-1.19296,54.7006],[-1.19483,54.69945],[-1.19714,54.70146],[-1.19546,54.70173],[-1.19765,54.70287],[-1.21196,54.70756],[-1.20987,54.70882],[-1.20244,54.70615],[-1.19451,54.70415],[-1.18765,54.70183],[-1.18342,54.7011]]]]}},{"type":"Feature","properties":{"id":"E01011994","name":"E01011994","parent":"E06000001","type":"LSOA","pop":1486,"r":141,"ff":54,"ffd":3633.9,"ffs":0.5243,"g":37,"co":3,"mo":0,"sa":0,"ic":0},"geometry":{"type":"MultiPolygon","coordinates":[[[[-1.18883,54.69828],[-1.18883,54.69828],[-1.19183,54.70001],[-1.1903,54.69922],[-1.18883,54.69828]]],[[[-1.19261,54.70041],[-1.19317,54.70024],[-1.19277,54.70049],[-1.19261,54.70041]]],[[[-1.20561,54.70554],[-1.19765,54.70287],[-1.19546,54.70173],[-1.19714,54.70146],[-1.19483,54.69945],[-1.19626,54.69858],[-1.19069,54.69524],[-1.19091,54.69463],[-1.18999,54.69447],[-1.18803,54.69343],[-1.18835,54.69333],[-1.1896,54.69405],[-1.1921,54.69353],[-1.19549,54.6945],[-1.19636,54.69338],[-1.20057,54.69333],[-1.20252,54.69495],[-1.2035,54.69746],[-1.20842,54.69707],[-1.20942,54.69834],[-1.21037,54.69877],[-1.21007,54.69901],[-1.21084,54.69955],[-1.21124,54.69927],[-1.21209,54.69928],[-1.2126,54.70593],[-1.21023,54.70505],[-1.20893,54.70551],[-1.207,54.70556],[-1.20922,54.70666],[-1.20561,54.70554]]]]}},{"type":"Feature","properties":{"id":"E01011995","name":"E01011995","parent":"E06000001","type":"LSOA","pop":1252,"r":147,"ff":58,"ffd":4632.6,"ffs":0.5321,"g":37,"co":3,"mo":0,"sa":0,"ic":0},"geometry":{"type":"Polygon","coordinates":[[[-1.1946,54.66073],[-1.19407,54.65923],[-1.19497,54.65838],[-1.19449,54.6575],[-1.19324,54.65662],[-1.19128,54.65663],[-1.19161,54.65767],[-1.19094,54.65841],[-1.19051,54.65794],[-1.19027,54.65622],[-1.19072,54.65618],[-1.19069,54.65589],[-1.1938,54.65577],[-1.19526,54.65664],[-1.1958,54.65667],[-1.19711,54.65824],[-1.19669,54.65866],[-1.19727,54.65886],[-1.19649,54.65968],[-1.19842,54.65941],[-1.20001,54.66003],[-1.19961,54.66165],[-1.19734,54.66165],[-1.19669,54.66242],[-1.19745,54.66292],[-1.19767,54.66362],[-1.19707,54.66431],[-1.19533,54.66512],[-1.19185,54.6644],[-1.19221,54.66334],[-1.19373,54.66303],[-1.19373,54.66267],[-1.19449,54.66259],[-1.19439,54.66169],[-1.19381,54.66131],[-1.1946,54.66073]]]}},{"type":"Feature","properties":{"id":"E01011996","name":"E01011996","parent":"E06000001","type":"LSOA","pop":1408,"r":147,"ff":58,"ffd":4119.3,"ffs":0.5321,"g":37,"co":3,"mo":0,"sa":0,"ic":0},"geometry":{"type":"Polygon","coordinates":[[[-1.18968,54.66871],[-1.18796,54.66585],[-1.18748,54.66423],[-1.18546,54.66162],[-1.18847,54.66126],[-1.18881,54.66089],[-1.18789,54.66054],[-1.18771,54.65991],[-1.18921,54.66015],[-1.1901,54.66131],[-1.19084,54.66122],[-1.18999,54.6596],[-1.18929,54.65973],[-1.1894,54.65907],[-1.19041,54.65875],[-1.19189,54.65926],[-1.19183,54.65998],[-1.1936,54.65966],[-1.19351,54.65935],[-1.19407,54.65923],[-1.1946,54.66073],[-1.19381,54.66131],[-1.19439,54.66169],[-1.19449,54.66259],[-1.19373,54.66267],[-1.19373,54.66303],[-1.19221,54.66334],[-1.19185,54.6644],[-1.19533,54.66512],[-1.19582,54.66484],[-1.1955,54.6658],[-1.19312,54.66613],[-1.19265,54.66649],[-1.19166,54.66619],[-1.19049,54.66641],[-1.1908,54.66704],[-1.19182,54.66712],[-1.192,54.66753],[-1.19087,54.66766],[-1.19123,54.66824],[-1.19044,54.66838],[-1.1908,54.66872],[-1.18968,54.66871]]]}},{"type":"Feature","properties":{"id":"E01011997","name":"E01011997","parent":"E06000001","type":"LSOA","pop":2083,"r":148,"ff":59,"ffd":2832.5,"ffs":0.5364,"g":37,"co":3,"mo":0,"sa":0,"ic":0},"geometry":{"type":"Polygon","coordinates":[[[-1.20497,54.67107],[-1.2053,54.66879],[-1.1908,54.66872],[-1.19044,54.66838],[-1.19123,54.66824],[-1.19087,54.66766],[-1.192,54.66753],[-1.19182,54.66712],[-1.1908,54.66704],[-1.19049,54.66641],[-1.19166,54.66619],[-1.19265,54.66649],[-1.19312,54.66613],[-1.1955,54.6658],[-1.19582,54.66484],[-1.19707,54.66431],[-1.19767,54.66362],[-1.19745,54.66292],[-1.19669,54.66242],[-1.19734,54.66165],[-1.19961,54.66165],[-1.20001,54.66003],[-1.19842,54.65941],[-1.19649,54.65968],[-1.19727,54.65886],[-1.19669,54.65866],[-1.19711,54.65824],[-1.1958,54.65667],[-1.19711,54.65604],[-1.19802,54.65425],[-1.19722,54.65455],[-1.19661,54.65418],[-1.19701,54.6529],[-1.20058,54.65344],[-1.19968,54.65415],[-1.20009,54.65438],[-1.19978,54.65501],[-1.20543,54.65556],[-1.20713,54.65497],[-1.20921,54.65881],[-1.21219,54.66861],[-1.21054,54.66961],[-1.20984,54.67102],[-1.20497,54.67107]]]}},{"type":"Feature","properties":{"id":"E01011998","name":"E01011998","parent":"E06000001","type":"LSOA","pop":2239,"r":142,"ff":54,"ffd":2411.8,"ffs":0.5192,"g":37,"co":3,"mo":0,"sa":0,"ic":0},"geometry":{"type":"MultiPolygon","coordinates":[[[[-1.22456,54.62416],[-1.22445,54.62402],[-1.22457,54.6241],[-1.22456,54.62416]]],[[[-1.22486,54.62602],[-1.22493,54.62596],[-1.22493,54.62599],[-1.22486,54.62602]]],[[[-1.23337,54.63118],[-1.23332,54.63106],[-1.23425,54.63135],[-1.23419,54.63138],[-1.23337,54.63118]]],[[[-1.18456,54.66046],[-1.17588,54.65342],[-1.16936,54.65032],[-1.1641,54.64731],[-1.15764,54.64821],[-1.15904,54.64789],[-1.16101,54.64674],[-1.16439,54.64553],[-1.16278,54.64646],[-1.16439,54.64688],[-1.16755,54.64628],[-1.16885,54.64394],[-1.16764,54.63909],[-1.16832,54.63782],[-1.16956,54.63692],[-1.17016,54.63559],[-1.17315,54.63349],[-1.16794,54.63322],[-1.16687,54.63367],[-1.1678,54.63384],[-1.16711,54.63428],[-1.16552,54.63354],[-1.16043,54.63516],[-1.16101,54.63466],[-1.16737,54.63261],[-1.16851,54.63314],[-1.17407,54.63335],[-1.17632,54.633],[-1.17612,54.63233],[-1.17691,54.6324],[-1.17664,54.63274],[-1.17722,54.63309],[-1.18191,54.6333],[-1.18825,54.6326],[-1.19057,54.63174],[-1.18992,54.6312],[-1.19232,54.63029],[-1.20065,54.62294],[-1.20386,54.62288],[-1.20986,54.6219],[-1.21285,54.6221],[-1.21281,54.62276],[-1.21369,54.62271],[-1.21356,54.62299],[-1.21402,54.62335],[-1.21323,54.62341],[-1.2135,54.62362],[-1.21459,54.62366],[-1.21384,54.62305],[-1.21407,54.62285],[-1.21589,54.62362],[-1.21819,54.62374],[-1.21656,54.62351],[-1.21873,54.62329],[-1.21956,54.62346],[-1.21991,54.62394],[-1.21942,54.62462],[-1.21983,54.62509],[-1.22069,54.62531],[-1.22323,54.625],[-1.22239,54.62492],[-1.2237,54.62401],[-1.22472,54.62538],[-1.22312,54.62541],[-1.22226,54.62581],[-1.22232,54.62615],[-1.22314,54.62657],[-1.22379,54.62655],[-1.22485,54.62616],[-1.22526,54.62568],[-1.22616,54.62556],[-1.22583,54.62641],[-1.22695,54.62706],[-1.22909,54.62635],[-1.22938,54.62516],[-1.22974,54.6252],[-1.22967,54.626],[-1.23022,54.62643],[-1.23087,54.62644],[-1.23196,54.62583],[-1.23237,54.6269],[-1.23325,54.62763],[-1.23312,54.62852],[-1.23412,54.62905],[-1.2343,54.62963],[-1.23427,54.62994],[-1.23353,54.62994],[-1.23312,54.63111],[-1.23413,54.63142],[-1.21079,54.64482],[-1.208,54.64703],[-1.20455,54.65065],[-1.20713,54.65497],[-1.20543,54.65556],[-1.19978,54.65501],[-1.20009,54.65438],[-1.19968,54.65415],[-1.20058,54.65344],[-1.19701,54.6529],[-1.19661,54.65418],[-1.19722,54.65455],[-1.19802,54.65425],[-1.19711,54.65604],[-1.1958,54.65667],[-1.19526,54.65664],[-1.1938,54.65577],[-1.19069,54.65589],[-1.19072,54.65618],[-1.19027,54.65622],[-1.19051,54.65794],[-1.19094,54.65841],[-1.19161,54.65767],[-1.19128,54.65663],[-1.19324,54.65662],[-1.19449,54.6575],[-1.19497,54.65838],[-1.19407,54.65923],[-1.19351,54.65935],[-1.1936,54.65966],[-1.19183,54.65998],[-1.19189,54.65926],[-1.19041,54.65875],[-1.1894,54.65907],[-1.18929,54.65973],[-1.18999,54.6596],[-1.19084,54.66122],[-1.1901,54.66131],[-1.18921,54.66015],[-1.18771,54.65991],[-1.18789,54.66054],[-1.18881,54.66089],[-1.18847,54.66126],[-1.18546,54.66162],[-1.18456,54.66046]]]]}},{"type":"Feature","properties":{"id":"E01011999","name":"E01011999","parent":"E06000001","type":"LSOA","pop":2044,"r":151,"ff":60,"ffd":2935.4,"ffs":0.531,"g":37,"co":3,"mo":0,"sa":0,"ic":0},"geometry":{"type":"Polygon","coordinates":[[[-1.21154,54.68551],[-1.21101,54.68298],[-1.20958,54.68285],[-1.20949,54.68104],[-1.20603,54.68127],[-1.20614,54.68161],[-1.20554,54.68133],[-1.20083,54.68195],[-1.2011,54.68008],[-1.19923,54.67917],[-1.19739,54.67603],[-1.20002,54.67572],[-1.20756,54.67796],[-1.20755,54.6786],[-1.21148,54.67893],[-1.21191,54.67924],[-1.21161,54.67998],[-1.21261,54.67992],[-1.21285,54.67913],[-1.21367,54.67914],[-1.21353,54.67877],[-1.21298,54.67869],[-1.21271,54.67769],[-1.21299,54.67742],[-1.21345,54.67857],[-1.21453,54.67874],[-1.21412,54.67745],[-1.21296,54.67718],[-1.21285,54.6769],[-1.2151,54.67662],[-1.2153,54.67701],[-1.21591,54.67692],[-1.21651,54.67969],[-1.21998,54.67945],[-1.22043,54.68301],[-1.22015,54.68402],[-1.2202,54.6848],[-1.2199,54.68556],[-1.21805,54.6854],[-1.21154,54.68551]]]}},{"type":"Feature","properties":{"id":"E01012000","name":"E01012000","parent":"E06000001","type":"LSOA","pop":1364,"r":142,"ff":55,"ffd":4032.3,"ffs":0.5288,"g":37,"co":3,"mo":0,"sa":0,"ic":0},"geometry":{"type":"Polygon","coordinates":[[[-1.2006,54.6868],[-1.19938,54.68578],[-1.19691,54.68592],[-1.19834,54.6858],[-1.19882,54.68546],[-1.19913,54.68073],[-1.19829,54.67955],[-1.19832,54.67861],[-1.19661,54.67614],[-1.19739,54.67603],[-1.19923,54.67917],[-1.2011,54.68008],[-1.20083,54.68195],[-1.20554,54.68133],[-1.20614,54.68161],[-1.20603,54.68127],[-1.20949,54.68104],[-1.20958,54.68285],[-1.21101,54.68298],[-1.21154,54.68551],[-1.21136,54.68721],[-1.21054,54.6873],[-1.21,54.68706],[-1.20824,54.68681],[-1.20379,54.68744],[-1.2006,54.6868]]]}},{"type":"Feature","properties":{"id":"E01012001","name":"E01012001","parent":"E06000001","type":"LSOA","pop":2169,"r":149,"ff":60,"ffd":2766.3,"ffs":0.5405,"g":37,"co":3,"mo":0,"sa":0,"ic":0},"geometry":{"type":"Polygon","coordinates":[[[-1.21191,54.67924],[-1.21148,54.67893],[-1.20755,54.6786],[-1.20756,54.67796],[-1.20002,54.67572],[-1.19661,54.67614],[-1.1948,54.67403],[-1.1909,54.67075],[-1.18968,54.66871],[-1.2053,54.66879],[-1.20497,54.67107],[-1.20984,54.67102],[-1.21054,54.66961],[-1.21219,54.66861],[-1.21591,54.67692],[-1.2153,54.67701],[-1.2151,54.67662],[-1.21285,54.6769],[-1.21296,54.67718],[-1.21412,54.67745],[-1.21453,54.67874],[-1.21345,54.67857],[-1.21299,54.67742],[-1.21271,54.67769],[-1.21298,54.67869],[-1.21353,54.67877],[-1.21367,54.67914],[-1.21285,54.67913],[-1.21261,54.67992],[-1.21161,54.67998],[-1.21191,54.67924]]]}},{"type":"Feature","properties":{"id":"E01012002","name":"E01012002","parent":"E06000001","type":"LSOA","pop":1417,"r":150,"ff":59,"ffd":4163.7,"ffs":0.5268,"g":37,"co":3,"mo":0,"sa":0,"ic":0},"geometry":{"type":"Polygon","coordinates":[[[-1.22756,54.69447],[-1.22665,54.69107],[-1.22658,54.69016],[-1.23032,54.6904],[-1.23407,54.69096],[-1.2387,54.69136],[-1.23844,54.69354],[-1.23788,54.69424],[-1.23658,54.69421],[-1.23606,54.6935],[-1.23516,54.69411],[-1.23359,54.69408],[-1.23361,54.69382],[-1.23117,54.6939],[-1.22959,54.69528],[-1.22779,54.69536],[-1.22756,54.69447]]]}},{"type":"Feature","properties":{"id":"E01012003","name":"E01012003","parent":"E06000001","type":"LSOA","pop":2067,"r":149,"ff":59,"ffd":2854.4,"ffs":0.5315,"g":37,"co":3,"mo":0,"sa":0,"ic":0},"geometry":{"type":"Polygon","coordinates":[[[-1.24964,54.69536],[-1.24985,54.6949],[-1.25082,54.69476],[-1.25158,54.69377],[-1.25194,54.69221],[-1.25797,54.69252],[-1.25762,54.69192],[-1.25233,54.69111],[-1.25233,54.69076],[-1.25166,54.69051],[-1.25085,54.69061],[-1.251,54.69089],[-1.25046,54.69102],[-1.25124,54.69115],[-1.25141,54.69153],[-1.25072,54.69203],[-1.25061,54.69257],[-1.251,54.69273],[-1.25027,54.6932],[-1.24984,54.69296],[-1.24922,54.69311],[-1.24962,54.69337],[-1.24869,54.69347],[-1.24841,54.69392],[-1.2489,54.69474],[-1.24719,54.69518],[-1.245,54.69375],[-1.24356,54.69438],[-1.24401,54.69465],[-1.24374,54.69481],[-1.24194,54.69408],[-1.24392,54.69304],[-1.2412,54.69159],[-1.2453,54.68987],[-1.24577,54.68892],[-1.24612,54.68875],[-1.26257,54.68978],[-1.26483,54.69026],[-1.26407,54.69247],[-1.26482,54.69229],[-1.26583,54.69246],[-1.26637,54.69353],[-1.26794,54.69502],[-1.26645,54.69501],[-1.26538,54.6997],[-1.26084,54.70003],[-1.25646,54.701],[-1.2512,54.69826],[-1.25153,54.69737],[-1.25038,54.69731],[-1.24964,54.69536]]]}},{"type":"Feature","properties":{"id":"E01012005","name":"E01012005","parent":"E06000001","type":"LSOA","pop":1941,"r":147,"ff":59,"ffd":3039.7,"ffs":0.5413,"g":37,"co":3,"mo":0,"sa":0,"ic":0},"geometry":{"type":"Polygon","coordinates":[[[-1.24576,54.69648],[-1.24524,54.69496],[-1.24481,54.69493],[-1.24432,54.69409],[-1.245,54.69375],[-1.24719,54.69518],[-1.2489,54.69474],[-1.24841,54.69392],[-1.24869,54.69347],[-1.24962,54.69337],[-1.24922,54.69311],[-1.24984,54.69296],[-1.25027,54.6932],[-1.251,54.69273],[-1.25061,54.69257],[-1.25072,54.69203],[-1.25141,54.69153],[-1.25124,54.69115],[-1.25046,54.69102],[-1.251,54.69089],[-1.25085,54.69061],[-1.25166,54.69051],[-1.25233,54.69076],[-1.25233,54.69111],[-1.25762,54.69192],[-1.25797,54.69252],[-1.25194,54.69221],[-1.25158,54.69377],[-1.25082,54.69476],[-1.24985,54.6949],[-1.24964,54.69536],[-1.25038,54.69731],[-1.25153,54.69737],[-1.2512,54.69826],[-1.25462,54.69993],[-1.2527,54.70037],[-1.24479,54.70092],[-1.24175,54.70091],[-1.24083,54.69941],[-1.24148,54.69883],[-1.24502,54.69699],[-1.24507,54.69659],[-1.24576,54.69648]]]}},{"type":"Feature","properties":{"id":"E01032540","name":"E01032540","parent":"E06000001","type":"LSOA","pop":1024,"r":147,"ff":59,"ffd":5761.7,"ffs":0.5413,"g":37,"co":3,"mo":0,"sa":0,"ic":0},"geometry":{"type":"Polygon","coordinates":[[[-1.2322,54.70293],[-1.22872,54.69997],[-1.22555,54.69948],[-1.22557,54.69916],[-1.22703,54.69929],[-1.22747,54.69899],[-1.22709,54.6975],[-1.22651,54.69735],[-1.22701,54.69631],[-1.22805,54.69639],[-1.22779,54.69536],[-1.22959,54.69528],[-1.2302,54.69601],[-1.22955,54.69846],[-1.23054,54.69904],[-1.23137,54.69888],[-1.23178,54.69911],[-1.23185,54.69979],[-1.23834,54.69945],[-1.24148,54.69883],[-1.24083,54.69941],[-1.24175,54.70091],[-1.24119,54.70091],[-1.24117,54.70114],[-1.23837,54.70064],[-1.23892,54.70176],[-1.2322,54.70293]]]}},{"type":"Feature","properties":{"id":"E01032541","name":"E01032541","parent":"E06000001","type":"LSOA","pop":2099,"r":148,"ff":59,"ffd":2810.9,"ffs":0.5364,"g":37,"co":3,"mo":0,"sa":0,"ic":0},"geometry":{"type":"Polygon","coordinates":[[[-1.23178,54.69911],[-1.23137,54.69888],[-1.23054,54.69904],[-1.22955,54.69846],[-1.2302,54.69601],[-1.22959,54.69528],[-1.23117,54.6939],[-1.23361,54.69382],[-1.23359,54.69408],[-1.23516,54.69411],[-1.23606,54.6935],[-1.23658,54.69421],[-1.23788,54.69424],[-1.23844,54.69354],[-1.2387,54.69136],[-1.2412,54.69159],[-1.24392,54.69304],[-1.24194,54.69408],[-1.24374,54.69481],[-1.24401,54.69465],[-1.24356,54.69438],[-1.24432,54.69409],[-1.24481,54.69493],[-1.24524,54.69496],[-1.24576,54.69648],[-1.24507,54.69659],[-1.24502,54.69699],[-1.24148,54.69883],[-1.23834,54.69945],[-1.23185,54.69979],[-1.23178,54.69911]]]}},{"type":"Feature","properties":{"id":"E01033465","name":"E01033465","parent":"E06000001","type":"LSOA","pop":2255,"r":144,"ff":57,"ffd":2527.7,"ffs":0.5377,"g":37,"co":3,"mo":0,"sa":0,"ic":0},"geometry":{"type":"Polygon","coordinates":[[[-1.24542,54.71261],[-1.24219,54.71056],[-1.24316,54.7102],[-1.24634,54.71209],[-1.24727,54.71179],[-1.24567,54.71095],[-1.24719,54.71057],[-1.24621,54.71007],[-1.24575,54.7089],[-1.24625,54.70831],[-1.24737,54.7079],[-1.24348,54.70791],[-1.24447,54.70906],[-1.24359,54.70946],[-1.243,54.70907],[-1.24028,54.70891],[-1.24316,54.70817],[-1.24316,54.70781],[-1.24132,54.7078],[-1.24129,54.70724],[-1.24017,54.707],[-1.24049,54.70632],[-1.24124,54.70641],[-1.24153,54.70609],[-1.24101,54.70502],[-1.241,54.70457],[-1.24292,54.70437],[-1.24257,54.70394],[-1.24344,54.70372],[-1.244,54.70424],[-1.24574,54.704],[-1.24561,54.7037],[-1.24737,54.70367],[-1.24871,54.70553],[-1.25055,54.70601],[-1.25305,54.70583],[-1.25474,54.70953],[-1.25275,54.70864],[-1.2502,54.7081],[-1.24944,54.70831],[-1.24985,54.70853],[-1.249,54.70946],[-1.24967,54.71022],[-1.2492,54.71056],[-1.25002,54.7116],[-1.25061,54.71178],[-1.24947,54.71203],[-1.24933,54.7112],[-1.24779,54.71143],[-1.24735,54.71178],[-1.2484,54.71263],[-1.24625,54.71317],[-1.24592,54.71359],[-1.24426,54.7135],[-1.24385,54.71313],[-1.24542,54.71261]]]}},{"type":"Feature","properties":{"id":"E01033466","name":"E01033466","parent":"E06000001","type":"LSOA","pop":2457,"r":145,"ff":57,"ffd":2319.9,"ffs":0.5327,"g":37,"co":3,"mo":0,"sa":0,"ic":0},"geometry":{"type":"Polygon","coordinates":[[[-1.22159,54.6991],[-1.22095,54.69903],[-1.22097,54.69875],[-1.218,54.69727],[-1.21791,54.69624],[-1.21584,54.69523],[-1.21526,54.69536],[-1.21525,54.69481],[-1.21581,54.69482],[-1.21579,54.69446],[-1.21736,54.69427],[-1.21699,54.69341],[-1.21711,54.69295],[-1.21904,54.69263],[-1.21935,54.69337],[-1.21974,54.69374],[-1.2201,54.69349],[-1.21987,54.69307],[-1.22142,54.69274],[-1.2215,54.6932],[-1.2221,54.69315],[-1.22214,54.69467],[-1.22184,54.69514],[-1.22232,54.69524],[-1.22212,54.69545],[-1.22064,54.69558],[-1.22031,54.69591],[-1.22504,54.69581],[-1.22495,54.69536],[-1.22403,54.69538],[-1.22438,54.69504],[-1.22716,54.69482],[-1.22718,54.6945],[-1.22756,54.69447],[-1.22805,54.69639],[-1.22701,54.69631],[-1.22651,54.69735],[-1.22709,54.6975],[-1.22747,54.69899],[-1.22703,54.69929],[-1.22557,54.69916],[-1.22555,54.69948],[-1.22159,54.6991]]]}},{"type":"Feature","properties":{"id":"E01033467","name":"E01033467","parent":"E06000001","type":"LSOA","pop":2327,"r":145,"ff":58,"ffd":2492.5,"ffs":0.5421,"g":37,"co":3,"mo":0,"sa":0,"ic":0},"geometry":{"type":"Polygon","coordinates":[[[-1.24634,54.71209],[-1.24316,54.7102],[-1.24219,54.71056],[-1.23758,54.70767],[-1.2322,54.70293],[-1.24037,54.70151],[-1.24067,54.70226],[-1.24252,54.70213],[-1.24345,54.70337],[-1.24413,54.70332],[-1.24426,54.70373],[-1.24561,54.7037],[-1.24574,54.704],[-1.244,54.70424],[-1.24344,54.70372],[-1.24257,54.70394],[-1.24292,54.70437],[-1.241,54.70457],[-1.24101,54.70502],[-1.24153,54.70609],[-1.24124,54.70641],[-1.24049,54.70632],[-1.24017,54.707],[-1.24129,54.70724],[-1.24132,54.7078],[-1.24316,54.70781],[-1.24316,54.70817],[-1.24028,54.70891],[-1.243,54.70907],[-1.24359,54.70946],[-1.24447,54.70906],[-1.24348,54.70791],[-1.24737,54.7079],[-1.24625,54.70831],[-1.24575,54.7089],[-1.24621,54.71007],[-1.24719,54.71057],[-1.24567,54.71095],[-1.24727,54.71179],[-1.24634,54.71209]]]}},{"type":"Feature","properties":{"id":"E01035188","name":"E01035188","parent":"E06000001","type":"LSOA","pop":2233,"r":150,"ff":59,"ffd":2642.2,"ffs":0.5268,"g":37,"co":3,"mo":0,"sa":0,"ic":0},"geometry":{"type":"Polygon","coordinates":[[[-1.21818,54.69065],[-1.2176,54.69011],[-1.21487,54.69059],[-1.21328,54.68891],[-1.21563,54.6883],[-1.21664,54.68897],[-1.21669,54.68785],[-1.2174,54.68672],[-1.21843,54.68661],[-1.21834,54.68687],[-1.21934,54.6872],[-1.21965,54.68642],[-1.22545,54.6867],[-1.22478,54.68801],[-1.22813,54.68895],[-1.22612,54.68914],[-1.22573,54.68962],[-1.22605,54.69016],[-1.21818,54.69065]]]}}]}