{"type":"FeatureCollection","features":[{"type":"Feature","properties":{"id":"E01012007","name":"E01012007","parent":"E06000002","type":"LSOA","pop":1468,"r":437,"ff":161,"ffd":10967.3,"ffs":0.521,"g":125,"co":0,"mo":0,"sa":0,"ic":0},"geometry":{"type":"Polygon","coordinates":[[[-1.24742,54.54946],[-1.24549,54.54888],[-1.2422,54.54907],[-1.2422,54.54848],[-1.24164,54.5485],[-1.24162,54.54783],[-1.2414,54.54787],[-1.24112,54.54761],[-1.23801,54.54824],[-1.23884,54.54719],[-1.24042,54.5468],[-1.23982,54.54659],[-1.23944,54.54691],[-1.23798,54.54691],[-1.23772,54.54629],[-1.23674,54.54599],[-1.23715,54.54511],[-1.23608,54.54437],[-1.23673,54.54404],[-1.23612,54.54334],[-1.23664,54.54218],[-1.23619,54.54129],[-1.23489,54.54029],[-1.24185,54.53818],[-1.24121,54.53756],[-1.24581,54.53597],[-1.24792,54.53695],[-1.24875,54.54372],[-1.24531,54.54424],[-1.24568,54.54737],[-1.24604,54.5479],[-1.24847,54.54798],[-1.24996,54.54768],[-1.24994,54.54882],[-1.24982,54.54993],[-1.24789,54.55028],[-1.24742,54.54946]]]}},{"type":"Feature","properties":{"id":"E01012008","name":"E01012008","parent":"E06000002","type":"LSOA","pop":1472,"r":441,"ff":164,"ffd":11141.3,"ffs":0.5206,"g":123,"co":0,"mo":0,"sa":0,"ic":0},"geometry":{"type":"Polygon","coordinates":[[[-1.24338,54.55264],[-1.24341,54.55229],[-1.24206,54.55261],[-1.24206,54.55223],[-1.23935,54.55214],[-1.23686,54.55213],[-1.23608,54.55254],[-1.23637,54.55174],[-1.23605,54.5507],[-1.23644,54.54913],[-1.23597,54.5483],[-1.23707,54.54801],[-1.23798,54.54691],[-1.23944,54.54691],[-1.23982,54.54659],[-1.24042,54.5468],[-1.23884,54.54719],[-1.23801,54.54824],[-1.24112,54.54761],[-1.2414,54.54787],[-1.24162,54.54783],[-1.24164,54.5485],[-1.2422,54.54848],[-1.2422,54.54907],[-1.24549,54.54888],[-1.24742,54.54946],[-1.24789,54.55028],[-1.24592,54.55123],[-1.2462,54.55189],[-1.24388,54.55232],[-1.24412,54.55266],[-1.24338,54.55264]]]}},{"type":"Feature","properties":{"id":"E01012009","name":"E01012009","parent":"E06000002","type":"LSOA","pop":2020,"r":449,"ff":166,"ffd":8217.8,"ffs":0.5171,"g":125,"co":0,"mo":0,"sa":0,"ic":0},"geometry":{"type":"Polygon","coordinates":[[[-1.24778,54.55211],[-1.24718,54.55173],[-1.2462,54.55189],[-1.24592,54.55123],[-1.24789,54.55028],[-1.24982,54.54993],[-1.24996,54.54768],[-1.24847,54.54798],[-1.24604,54.5479],[-1.24568,54.54737],[-1.24531,54.54424],[-1.25116,54.54338],[-1.25133,54.54474],[-1.25095,54.54467],[-1.2518,54.54554],[-1.25166,54.54604],[-1.25188,54.54639],[-1.25044,54.54676],[-1.24998,54.54655],[-1.24997,54.54769],[-1.2506,54.54755],[-1.25064,54.54718],[-1.25279,54.54682],[-1.25351,54.54779],[-1.25661,54.54724],[-1.25637,54.54663],[-1.25769,54.54636],[-1.25904,54.54671],[-1.26064,54.54997],[-1.25491,54.55055],[-1.25505,54.55092],[-1.25255,54.55133],[-1.25238,54.5509],[-1.24981,54.55126],[-1.24946,54.55182],[-1.24778,54.55211]]]}},{"type":"Feature","properties":{"id":"E01012010","name":"E01012010","parent":"E06000002","type":"LSOA","pop":1519,"r":453,"ff":166,"ffd":10928.2,"ffs":0.5188,"g":130,"co":0,"mo":0,"sa":0,"ic":0},"geometry":{"type":"Polygon","coordinates":[[[-1.25351,54.54779],[-1.25279,54.54682],[-1.25064,54.54718],[-1.2506,54.54755],[-1.24997,54.54769],[-1.24998,54.54655],[-1.25044,54.54676],[-1.25188,54.54639],[-1.25166,54.54604],[-1.2518,54.54554],[-1.25095,54.54467],[-1.25133,54.54474],[-1.25116,54.54338],[-1.24875,54.54372],[-1.24792,54.53695],[-1.25589,54.54214],[-1.2582,54.54481],[-1.25904,54.54671],[-1.25769,54.54636],[-1.25637,54.54663],[-1.25661,54.54724],[-1.25351,54.54779]]]}},{"type":"Feature","properties":{"id":"E01012011","name":"E01012011","parent":"E06000002","type":"LSOA","pop":2277,"r":445,"ff":163,"ffd":7158.5,"ffs":0.5142,"g":125,"co":0,"mo":0,"sa":0,"ic":0},"geometry":{"type":"Polygon","coordinates":[[[-1.26683,54.5614],[-1.26597,54.56088],[-1.26454,54.56119],[-1.2642,54.5606],[-1.26286,54.56062],[-1.26317,54.55996],[-1.26697,54.5597],[-1.26663,54.55951],[-1.26404,54.55964],[-1.26265,54.55909],[-1.2627,54.55882],[-1.26364,54.55866],[-1.2633,54.55787],[-1.26201,54.55756],[-1.26135,54.55705],[-1.26308,54.55275],[-1.26259,54.55179],[-1.26205,54.55128],[-1.26252,54.55044],[-1.26534,54.55019],[-1.26676,54.54975],[-1.26731,54.54983],[-1.26614,54.55039],[-1.2678,54.55073],[-1.26803,54.55116],[-1.26793,54.55144],[-1.26841,54.55215],[-1.26735,54.55271],[-1.27111,54.55374],[-1.27167,54.55373],[-1.27091,54.55492],[-1.27063,54.55615],[-1.27062,54.55659],[-1.27112,54.55722],[-1.2752,54.55875],[-1.27813,54.56092],[-1.27046,54.56316],[-1.26836,54.563],[-1.26827,54.56223],[-1.26628,54.56182],[-1.26683,54.5614]]]}},{"type":"Feature","properties":{"id":"E01012012","name":"E01012012","parent":"E06000002","type":"LSOA","pop":1739,"r":454,"ff":166,"ffd":9545.7,"ffs":0.5139,"g":128,"co":0,"mo":0,"sa":0,"ic":0},"geometry":{"type":"MultiPolygon","coordinates":[[[[-1.27562,54.55177],[-1.27627,54.54897],[-1.27629,54.54898],[-1.27562,54.55177]]],[[[-1.27222,54.55336],[-1.27226,54.55334],[-1.27221,54.55337],[-1.27222,54.55336]]],[[[-1.26731,54.54983],[-1.26676,54.54975],[-1.26534,54.55019],[-1.26252,54.55044],[-1.26205,54.55128],[-1.26064,54.54997],[-1.25903,54.54668],[-1.26674,54.54815],[-1.27361,54.54877],[-1.27413,54.54823],[-1.27544,54.5484],[-1.27616,54.54889],[-1.27545,54.55176],[-1.27408,54.55204],[-1.27167,54.55373],[-1.27111,54.55374],[-1.26735,54.55271],[-1.26841,54.55215],[-1.26793,54.55144],[-1.26803,54.55116],[-1.2678,54.55073],[-1.26614,54.55039],[-1.26731,54.54983]]]]}},{"type":"Feature","properties":{"id":"E01012013","name":"E01012013","parent":"E06000002","type":"LSOA","pop":1582,"r":445,"ff":163,"ffd":10303.4,"ffs":0.5142,"g":125,"co":0,"mo":0,"sa":0,"ic":0},"geometry":{"type":"Polygon","coordinates":[[[-1.26543,54.56603],[-1.26157,54.56589],[-1.26122,54.56604],[-1.26065,54.56564],[-1.2595,54.56601],[-1.25833,54.56571],[-1.25973,54.56434],[-1.25879,54.56258],[-1.25905,54.56118],[-1.26135,54.55705],[-1.26201,54.55756],[-1.2633,54.55787],[-1.26364,54.55866],[-1.2627,54.55882],[-1.26265,54.55909],[-1.26404,54.55964],[-1.26663,54.55951],[-1.26697,54.5597],[-1.26317,54.55996],[-1.26286,54.56062],[-1.2642,54.5606],[-1.26454,54.56119],[-1.26597,54.56088],[-1.26683,54.5614],[-1.26628,54.56182],[-1.26827,54.56223],[-1.26836,54.563],[-1.27046,54.56316],[-1.27813,54.56092],[-1.28189,54.56514],[-1.27792,54.56617],[-1.26915,54.56705],[-1.26588,54.5679],[-1.26249,54.56945],[-1.26051,54.57162],[-1.25892,54.57117],[-1.26021,54.56968],[-1.26022,54.56849],[-1.26543,54.56603]]]}},{"type":"Feature","properties":{"id":"E01012014","name":"E01012014","parent":"E06000002","type":"LSOA","pop":1728,"r":448,"ff":165,"ffd":9548.6,"ffs":0.5156,"g":125,"co":0,"mo":0,"sa":0,"ic":0},"geometry":{"type":"Polygon","coordinates":[[[-1.25505,54.57077],[-1.25582,54.56875],[-1.25546,54.56769],[-1.2545,54.5662],[-1.25435,54.56549],[-1.25879,54.56258],[-1.25973,54.56434],[-1.25833,54.56571],[-1.2595,54.56601],[-1.26065,54.56564],[-1.26122,54.56604],[-1.26157,54.56589],[-1.26543,54.56603],[-1.26022,54.56849],[-1.26021,54.56968],[-1.25892,54.57117],[-1.25834,54.57075],[-1.25646,54.57135],[-1.25559,54.5714],[-1.25505,54.57077]]]}},{"type":"Feature","properties":{"id":"E01012015","name":"E01012015","parent":"E06000002","type":"LSOA","pop":1507,"r":400,"ff":139,"ffd":9223.6,"ffs":0.5148,"g":126,"co":2,"mo":0,"sa":0,"ic":0},"geometry":{"type":"Polygon","coordinates":[[[-1.18263,54.55591],[-1.18269,54.55528],[-1.18217,54.55562],[-1.18122,54.55561],[-1.18056,54.55532],[-1.17986,54.55541],[-1.17961,54.55451],[-1.18011,54.55425],[-1.1806,54.55435],[-1.18015,54.55456],[-1.18076,54.55492],[-1.18175,54.55492],[-1.18195,54.55447],[-1.18229,54.55467],[-1.18301,54.5545],[-1.18285,54.55407],[-1.18343,54.55378],[-1.18375,54.55397],[-1.18411,54.55379],[-1.18358,54.55333],[-1.18509,54.55248],[-1.18633,54.55415],[-1.18688,54.55414],[-1.18721,54.5523],[-1.1892,54.5521],[-1.18956,54.5514],[-1.19056,54.55102],[-1.19023,54.55082],[-1.19141,54.5505],[-1.19299,54.55242],[-1.19461,54.55317],[-1.19278,54.55412],[-1.19042,54.55459],[-1.18641,54.55577],[-1.18611,54.55555],[-1.18354,54.55615],[-1.18263,54.55591]]]}},{"type":"Feature","properties":{"id":"E01012016","name":"E01012016","parent":"E06000002","type":"LSOA","pop":1777,"r":424,"ff":145,"ffd":8159.8,"ffs":0.507,"g":134,"co":2,"mo":0,"sa":0,"ic":0},"geometry":{"type":"Polygon","coordinates":[[[-1.1723,54.55933],[-1.17072,54.55741],[-1.16963,54.55705],[-1.16671,54.55442],[-1.16664,54.55408],[-1.17306,54.55292],[-1.17685,54.55156],[-1.1784,54.55068],[-1.17941,54.55176],[-1.17676,54.55215],[-1.17757,54.55346],[-1.17886,54.55326],[-1.17955,54.55403],[-1.18141,54.55398],[-1.18195,54.55447],[-1.18175,54.55492],[-1.18076,54.55492],[-1.18015,54.55456],[-1.1806,54.55435],[-1.18011,54.55425],[-1.17961,54.55451],[-1.17986,54.55541],[-1.18056,54.55532],[-1.18122,54.55561],[-1.18217,54.55562],[-1.18269,54.55528],[-1.18263,54.55591],[-1.18354,54.55615],[-1.17601,54.55814],[-1.17478,54.55907],[-1.17392,54.55883],[-1.1723,54.55933]]]}},{"type":"Feature","properties":{"id":"E01012017","name":"E01012017","parent":"E06000002","type":"LSOA","pop":1496,"r":407,"ff":140,"ffd":9358.3,"ffs":0.5109,"g":129,"co":2,"mo":0,"sa":0,"ic":0},"geometry":{"type":"Polygon","coordinates":[[[-1.18195,54.55447],[-1.18141,54.55398],[-1.17955,54.55403],[-1.17886,54.55326],[-1.17757,54.55346],[-1.17676,54.55215],[-1.17941,54.55176],[-1.1784,54.55068],[-1.17867,54.55051],[-1.18203,54.54955],[-1.18461,54.54924],[-1.18961,54.54822],[-1.19141,54.5505],[-1.19023,54.55082],[-1.19056,54.55102],[-1.18956,54.5514],[-1.1892,54.5521],[-1.18721,54.5523],[-1.18688,54.55414],[-1.18633,54.55415],[-1.18509,54.55248],[-1.18358,54.55333],[-1.18411,54.55379],[-1.18375,54.55397],[-1.18343,54.55378],[-1.18285,54.55407],[-1.18301,54.5545],[-1.18229,54.55467],[-1.18195,54.55447]]]}},{"type":"Feature","properties":{"id":"E01012018","name":"E01012018","parent":"E06000002","type":"LSOA","pop":1629,"r":419,"ff":152,"ffd":9330.9,"ffs":0.5278,"g":128,"co":0,"mo":0,"sa":0,"ic":0},"geometry":{"type":"Polygon","coordinates":[[[-1.22097,54.55922],[-1.22054,54.55876],[-1.21941,54.55907],[-1.21916,54.55854],[-1.21576,54.55897],[-1.21519,54.5577],[-1.21394,54.55626],[-1.20794,54.55162],[-1.21678,54.54849],[-1.21799,54.55033],[-1.21898,54.55052],[-1.22,54.55025],[-1.22069,54.55052],[-1.22045,54.55106],[-1.22131,54.55086],[-1.22319,54.55127],[-1.22282,54.55182],[-1.2234,54.55219],[-1.22299,54.55252],[-1.22378,54.55286],[-1.22192,54.5534],[-1.22223,54.55404],[-1.22171,54.55393],[-1.22076,54.55451],[-1.2216,54.55475],[-1.22211,54.55448],[-1.22264,54.55458],[-1.22249,54.55498],[-1.22318,54.55513],[-1.22367,54.55574],[-1.22531,54.55546],[-1.22556,54.5557],[-1.22452,54.55599],[-1.22563,54.55598],[-1.22618,54.55693],[-1.2252,54.55709],[-1.22547,54.55772],[-1.22464,54.55841],[-1.22297,54.55818],[-1.22304,54.5587],[-1.22097,54.55922]]]}},{"type":"Feature","properties":{"id":"E01012019","name":"E01012019","parent":"E06000002","type":"LSOA","pop":1190,"r":419,"ff":154,"ffd":12941.2,"ffs":0.531,"g":126,"co":0,"mo":0,"sa":0,"ic":0},"geometry":{"type":"Polygon","coordinates":[[[-1.22617,54.55177],[-1.22735,54.55107],[-1.22844,54.55096],[-1.22832,54.55046],[-1.22896,54.54995],[-1.2288,54.54921],[-1.23072,54.54865],[-1.23054,54.5495],[-1.23148,54.55014],[-1.232,54.54962],[-1.23289,54.54981],[-1.23423,54.55208],[-1.23411,54.55285],[-1.22884,54.55437],[-1.22801,54.55421],[-1.22799,54.55378],[-1.2274,54.55365],[-1.22775,54.55314],[-1.22617,54.55177]]]}},{"type":"Feature","properties":{"id":"E01012020","name":"E01012020","parent":"E06000002","type":"LSOA","pop":1597,"r":420,"ff":155,"ffd":9705.7,"ffs":0.5326,"g":126,"co":0,"mo":0,"sa":0,"ic":0},"geometry":{"type":"Polygon","coordinates":[[[-1.22367,54.55574],[-1.22318,54.55513],[-1.22249,54.55498],[-1.22264,54.55458],[-1.22211,54.55448],[-1.2216,54.55475],[-1.22076,54.55451],[-1.22171,54.55393],[-1.22223,54.55404],[-1.22192,54.5534],[-1.22378,54.55286],[-1.22299,54.55252],[-1.2234,54.55219],[-1.22282,54.55182],[-1.22319,54.55127],[-1.22131,54.55086],[-1.22045,54.55106],[-1.22069,54.55052],[-1.22,54.55025],[-1.21898,54.55052],[-1.21799,54.55033],[-1.21635,54.54787],[-1.22305,54.54543],[-1.22422,54.54738],[-1.22539,54.54817],[-1.22386,54.54876],[-1.22522,54.54981],[-1.22701,54.54885],[-1.22789,54.5489],[-1.22855,54.54942],[-1.22756,54.54978],[-1.22787,54.55042],[-1.227,54.55031],[-1.22735,54.55107],[-1.22617,54.55177],[-1.22775,54.55314],[-1.2274,54.55365],[-1.22799,54.55378],[-1.22801,54.55421],[-1.22884,54.55437],[-1.22556,54.5557],[-1.22531,54.55546],[-1.22367,54.55574]]]}},{"type":"Feature","properties":{"id":"E01012021","name":"E01012021","parent":"E06000002","type":"LSOA","pop":1447,"r":421,"ff":154,"ffd":10642.7,"ffs":0.5274,"g":126,"co":0,"mo":0,"sa":0,"ic":0},"geometry":{"type":"Polygon","coordinates":[[[-1.23289,54.54981],[-1.232,54.54962],[-1.23148,54.55014],[-1.23054,54.5495],[-1.23072,54.54865],[-1.22993,54.5488],[-1.2288,54.54921],[-1.22896,54.54995],[-1.22832,54.55046],[-1.22844,54.55096],[-1.22735,54.55107],[-1.227,54.55031],[-1.22787,54.55042],[-1.22756,54.54978],[-1.22855,54.54942],[-1.22789,54.5489],[-1.22701,54.54885],[-1.22522,54.54981],[-1.22386,54.54876],[-1.22539,54.54817],[-1.22422,54.54738],[-1.22305,54.54543],[-1.22355,54.54526],[-1.22159,54.5441],[-1.22367,54.54313],[-1.22257,54.54193],[-1.22241,54.54133],[-1.2269,54.54253],[-1.22965,54.54123],[-1.23341,54.54345],[-1.23608,54.54437],[-1.23715,54.54511],[-1.23674,54.54599],[-1.23772,54.54629],[-1.23798,54.54691],[-1.23707,54.54801],[-1.23597,54.5483],[-1.23644,54.54913],[-1.23605,54.5507],[-1.23637,54.55174],[-1.23608,54.55254],[-1.23411,54.55285],[-1.23423,54.55208],[-1.23289,54.54981]]]}},{"type":"Feature","properties":{"id":"E01012022","name":"E01012022","parent":"E06000002","type":"LSOA","pop":3424,"r":443,"ff":159,"ffd":4643.7,"ffs":0.5179,"g":133,"co":0,"mo":0,"sa":0,"ic":0},"geometry":{"type":"MultiPolygon","coordinates":[[[[-1.27489,54.54658],[-1.27477,54.54489],[-1.27201,54.54385],[-1.27066,54.54233],[-1.2688,54.54192],[-1.26849,54.54153],[-1.26876,54.54046],[-1.26709,54.53826],[-1.26823,54.53567],[-1.26679,54.53538],[-1.26712,54.53436],[-1.26476,54.53431],[-1.26159,54.53483],[-1.26234,54.53726],[-1.26173,54.53725],[-1.26144,54.53606],[-1.26005,54.53531],[-1.26085,54.53411],[-1.26131,54.53401],[-1.26052,54.53292],[-1.25977,54.5324],[-1.25771,54.53192],[-1.25717,54.5312],[-1.2589,54.52885],[-1.25871,54.52756],[-1.26279,54.5276],[-1.27829,54.52917],[-1.27847,54.52866],[-1.27939,54.52829],[-1.28426,54.52857],[-1.28497,54.53041],[-1.28455,54.53158],[-1.28488,54.53445],[-1.28539,54.53624],[-1.2846,54.53672],[-1.28458,54.53751],[-1.28398,54.53812],[-1.28354,54.53798],[-1.28196,54.53866],[-1.2788,54.54241],[-1.27864,54.54347],[-1.27868,54.54573],[-1.27791,54.54599],[-1.27806,54.54704],[-1.27701,54.54718],[-1.27721,54.54783],[-1.2763,54.54882],[-1.2772,54.54782],[-1.27695,54.54718],[-1.27713,54.54785],[-1.27489,54.54658]]],[[[-1.27489,54.54658],[-1.27707,54.54786],[-1.27616,54.54889],[-1.27544,54.5484],[-1.27413,54.54823],[-1.27489,54.54658]]],[[[-1.27627,54.54897],[-1.27628,54.54889],[-1.27629,54.54898],[-1.27627,54.54897]]]]}},{"type":"Feature","properties":{"id":"E01012023","name":"E01012023","parent":"E06000002","type":"LSOA","pop":1572,"r":452,"ff":156,"ffd":9923.7,"ffs":0.5016,"g":137,"co":0,"mo":0,"sa":0,"ic":0},"geometry":{"type":"Polygon","coordinates":[[[-1.25191,54.53419],[-1.25129,54.53402],[-1.25004,54.53446],[-1.24993,54.53361],[-1.24587,54.53222],[-1.24568,54.53107],[-1.24441,54.53041],[-1.24322,54.53025],[-1.24374,54.52997],[-1.2503,54.52853],[-1.25459,54.52786],[-1.25871,54.52756],[-1.2589,54.52885],[-1.25717,54.5312],[-1.25771,54.53192],[-1.25618,54.53223],[-1.25609,54.53242],[-1.25702,54.53248],[-1.25733,54.53294],[-1.25663,54.53321],[-1.25685,54.53342],[-1.25557,54.53401],[-1.25377,54.53558],[-1.25219,54.53476],[-1.25191,54.53419]]]}},{"type":"Feature","properties":{"id":"E01012024","name":"E01012024","parent":"E06000002","type":"LSOA","pop":1626,"r":440,"ff":160,"ffd":9840.1,"ffs":0.5212,"g":130,"co":0,"mo":0,"sa":0,"ic":0},"geometry":{"type":"Polygon","coordinates":[[[-1.25628,54.53814],[-1.25788,54.53688],[-1.2584,54.53701],[-1.25833,54.53613],[-1.25867,54.53559],[-1.25915,54.53611],[-1.26005,54.53531],[-1.26144,54.53606],[-1.26173,54.53725],[-1.26234,54.53726],[-1.26159,54.53483],[-1.26476,54.53431],[-1.26712,54.53436],[-1.26679,54.53538],[-1.26823,54.53567],[-1.26709,54.53826],[-1.26876,54.54046],[-1.26849,54.54153],[-1.25972,54.53926],[-1.25628,54.53814]]]}},{"type":"Feature","properties":{"id":"E01012025","name":"E01012025","parent":"E06000002","type":"LSOA","pop":1235,"r":440,"ff":160,"ffd":12955.5,"ffs":0.5229,"g":131,"co":0,"mo":0,"sa":0,"ic":0},"geometry":{"type":"Polygon","coordinates":[[[-1.25401,54.53702],[-1.25282,54.53658],[-1.25186,54.53576],[-1.2511,54.53593],[-1.25091,54.53518],[-1.25044,54.53539],[-1.2506,54.53505],[-1.25013,54.53503],[-1.25004,54.53446],[-1.25129,54.53402],[-1.25191,54.53419],[-1.25219,54.53476],[-1.25377,54.53558],[-1.25557,54.53401],[-1.25685,54.53342],[-1.25663,54.53321],[-1.25733,54.53294],[-1.25702,54.53248],[-1.25609,54.53242],[-1.25618,54.53223],[-1.25771,54.53192],[-1.25977,54.5324],[-1.26052,54.53292],[-1.26131,54.53401],[-1.26085,54.53411],[-1.26005,54.53531],[-1.25915,54.53611],[-1.25867,54.53559],[-1.25833,54.53613],[-1.2584,54.53701],[-1.25788,54.53688],[-1.25628,54.53814],[-1.25401,54.53702]]]}},{"type":"Feature","properties":{"id":"E01012026","name":"E01012026","parent":"E06000002","type":"LSOA","pop":2341,"r":440,"ff":156,"ffd":6663.8,"ffs":0.5098,"g":131,"co":0,"mo":0,"sa":0,"ic":0},"geometry":{"type":"Polygon","coordinates":[[[-1.21533,54.56634],[-1.21561,54.56361],[-1.21587,54.56294],[-1.21952,54.56221],[-1.22126,54.5623],[-1.22066,54.56195],[-1.22415,54.56125],[-1.22415,54.5617],[-1.22487,54.56159],[-1.22527,54.56252],[-1.22645,54.56234],[-1.22739,54.56279],[-1.23074,54.5627],[-1.22788,54.56651],[-1.22738,54.56643],[-1.22633,54.56507],[-1.22427,54.56509],[-1.22305,54.5657],[-1.21665,54.56667],[-1.21533,54.56634]]]}},{"type":"Feature","properties":{"id":"E01012027","name":"E01012027","parent":"E06000002","type":"LSOA","pop":2074,"r":431,"ff":157,"ffd":7569.9,"ffs":0.5233,"g":128,"co":0,"mo":0,"sa":0,"ic":0},"geometry":{"type":"Polygon","coordinates":[[[-1.21587,54.56294],[-1.21602,54.56003],[-1.21576,54.55897],[-1.21916,54.55854],[-1.21941,54.55907],[-1.22054,54.55876],[-1.22097,54.55922],[-1.22304,54.5587],[-1.22297,54.55818],[-1.22464,54.55841],[-1.22544,54.55775],[-1.22586,54.55898],[-1.22756,54.5586],[-1.22936,54.55853],[-1.23008,54.55893],[-1.22972,54.55949],[-1.22897,54.55915],[-1.22864,54.55954],[-1.22902,54.5596],[-1.22884,54.56005],[-1.2281,54.56019],[-1.23069,54.56179],[-1.23081,54.56241],[-1.23074,54.5627],[-1.22836,54.56278],[-1.22739,54.56279],[-1.22645,54.56234],[-1.22527,54.56252],[-1.22487,54.56159],[-1.22415,54.5617],[-1.22415,54.56125],[-1.22066,54.56195],[-1.22126,54.5623],[-1.21952,54.56221],[-1.21587,54.56294]]]}},{"type":"Feature","properties":{"id":"E01012030","name":"E01012030","parent":"E06000002","type":"LSOA","pop":1383,"r":359,"ff":111,"ffd":8026.0,"ffs":0.4847,"g":127,"co":0,"mo":0,"sa":0,"ic":0},"geometry":{"type":"Polygon","coordinates":[[[-1.22148,54.52779],[-1.22017,54.5268],[-1.22007,54.5271],[-1.21892,54.52738],[-1.21755,54.52702],[-1.21668,54.52821],[-1.21509,54.52709],[-1.21443,54.52621],[-1.21288,54.52508],[-1.21267,54.52419],[-1.21427,54.52382],[-1.21405,54.523],[-1.2149,54.52163],[-1.21331,54.52145],[-1.21334,54.52117],[-1.21511,54.52071],[-1.21499,54.51965],[-1.21593,54.51983],[-1.21603,54.51774],[-1.21691,54.51781],[-1.21872,54.5172],[-1.21987,54.51857],[-1.22052,54.5184],[-1.22122,54.5192],[-1.22329,54.51864],[-1.22415,54.51987],[-1.227,54.52267],[-1.22228,54.52275],[-1.22266,54.52368],[-1.22123,54.52383],[-1.2197,54.52446],[-1.21996,54.52554],[-1.22222,54.52583],[-1.22317,54.52628],[-1.22367,54.52762],[-1.22348,54.52883],[-1.22148,54.52875],[-1.22148,54.52779]]]}},{"type":"Feature","properties":{"id":"E01012031","name":"E01012031","parent":"E06000002","type":"LSOA","pop":1509,"r":438,"ff":137,"ffd":9078.9,"ffs":0.4676,"g":141,"co":0,"mo":0,"sa":0,"ic":0},"geometry":{"type":"Polygon","coordinates":[[[-1.22228,54.52275],[-1.227,54.52267],[-1.22944,54.52474],[-1.23481,54.52864],[-1.23887,54.53087],[-1.23205,54.5319],[-1.22476,54.53245],[-1.22476,54.53055],[-1.22346,54.52956],[-1.22367,54.52762],[-1.22317,54.52628],[-1.22222,54.52583],[-1.21996,54.52554],[-1.2197,54.52446],[-1.22123,54.52383],[-1.22266,54.52368],[-1.22228,54.52275]]]}},{"type":"Feature","properties":{"id":"E01012032","name":"E01012032","parent":"E06000002","type":"LSOA","pop":1689,"r":361,"ff":114,"ffd":6749.6,"ffs":0.4914,"g":126,"co":0,"mo":0,"sa":0,"ic":0},"geometry":{"type":"Polygon","coordinates":[[[-1.2082,54.52533],[-1.20719,54.52518],[-1.20661,54.52561],[-1.20553,54.52556],[-1.20356,54.52466],[-1.20288,54.52407],[-1.20228,54.52404],[-1.20188,54.52356],[-1.2021,54.52302],[-1.20173,54.52269],[-1.2012,54.52275],[-1.20108,54.52241],[-1.20129,54.52045],[-1.20178,54.51901],[-1.20441,54.51828],[-1.20407,54.51757],[-1.20716,54.51684],[-1.20879,54.51712],[-1.21024,54.51683],[-1.21113,54.51632],[-1.21166,54.51511],[-1.21239,54.51424],[-1.21606,54.5146],[-1.21516,54.51516],[-1.21561,54.51528],[-1.2159,54.51719],[-1.21369,54.51751],[-1.21311,54.51719],[-1.21329,54.51746],[-1.21163,54.51818],[-1.21086,54.51772],[-1.21239,54.51949],[-1.20756,54.51956],[-1.20737,54.52034],[-1.20811,54.52153],[-1.20524,54.52183],[-1.20563,54.52184],[-1.20556,54.52278],[-1.20675,54.52383],[-1.20709,54.52359],[-1.20894,54.52461],[-1.21097,54.5237],[-1.21185,54.52359],[-1.21267,54.52419],[-1.21288,54.52508],[-1.21185,54.52507],[-1.2092,54.52627],[-1.20888,54.52615],[-1.20921,54.5255],[-1.2082,54.52533]]]}},{"type":"Feature","properties":{"id":"E01012033","name":"E01012033","parent":"E06000002","type":"LSOA","pop":1217,"r":386,"ff":120,"ffd":9860.3,"ffs":0.4839,"g":134,"co":0,"mo":0,"sa":0,"ic":0},"geometry":{"type":"Polygon","coordinates":[[[-1.20894,54.52461],[-1.20709,54.52359],[-1.20675,54.52383],[-1.2063,54.5236],[-1.20556,54.52278],[-1.20563,54.52184],[-1.20524,54.52183],[-1.20811,54.52153],[-1.20737,54.52034],[-1.20756,54.51956],[-1.21239,54.51949],[-1.21086,54.51772],[-1.21163,54.51818],[-1.21329,54.51746],[-1.21311,54.51719],[-1.21369,54.51751],[-1.2159,54.51719],[-1.21561,54.51528],[-1.21516,54.51516],[-1.21606,54.5146],[-1.21694,54.5148],[-1.21838,54.51574],[-1.21872,54.5172],[-1.21691,54.51781],[-1.21603,54.51774],[-1.21593,54.51983],[-1.21499,54.51965],[-1.21511,54.52071],[-1.21334,54.52117],[-1.21331,54.52145],[-1.2149,54.52163],[-1.21405,54.523],[-1.21427,54.52382],[-1.21267,54.52419],[-1.21185,54.52359],[-1.21097,54.5237],[-1.20894,54.52461]]]}},{"type":"Feature","properties":{"id":"E01012034","name":"E01012034","parent":"E06000002","type":"LSOA","pop":1338,"r":348,"ff":108,"ffd":8071.7,"ffs":0.4887,"g":124,"co":0,"mo":0,"sa":0,"ic":0},"geometry":{"type":"Polygon","coordinates":[[[-1.19623,54.51688],[-1.19824,54.51586],[-1.19979,54.51392],[-1.1987,54.51348],[-1.19949,54.51284],[-1.19445,54.50857],[-1.19442,54.50777],[-1.19548,54.50663],[-1.19678,54.50619],[-1.20217,54.50695],[-1.20391,54.50691],[-1.20687,54.50794],[-1.2085,54.50889],[-1.21411,54.51004],[-1.21898,54.51015],[-1.22014,54.51094],[-1.21907,54.5108],[-1.21959,54.51261],[-1.22161,54.51617],[-1.22346,54.51881],[-1.22329,54.51864],[-1.22122,54.5192],[-1.22052,54.5184],[-1.21987,54.51857],[-1.21872,54.5172],[-1.21838,54.51574],[-1.21694,54.5148],[-1.21239,54.51424],[-1.21166,54.51511],[-1.21113,54.51632],[-1.21024,54.51683],[-1.20879,54.51712],[-1.20716,54.51684],[-1.20407,54.51757],[-1.20441,54.51828],[-1.20178,54.51901],[-1.20129,54.52045],[-1.19881,54.51995],[-1.19671,54.51916],[-1.19728,54.51793],[-1.19623,54.51688]]]}},{"type":"Feature","properties":{"id":"E01012035","name":"E01012035","parent":"E06000002","type":"LSOA","pop":1185,"r":408,"ff":129,"ffd":10886.1,"ffs":0.4796,"g":135,"co":0,"mo":0,"sa":0,"ic":0},"geometry":{"type":"Polygon","coordinates":[[[-1.2123,54.52872],[-1.21086,54.52803],[-1.21069,54.5276],[-1.20894,54.52707],[-1.2092,54.52627],[-1.21185,54.52507],[-1.21288,54.52508],[-1.21443,54.52621],[-1.21509,54.52709],[-1.21668,54.52821],[-1.21755,54.52702],[-1.21892,54.52738],[-1.22007,54.5271],[-1.22017,54.5268],[-1.22148,54.52779],[-1.22148,54.52875],[-1.22348,54.52883],[-1.22346,54.52956],[-1.22476,54.53055],[-1.22476,54.53245],[-1.21647,54.53258],[-1.21549,54.53153],[-1.21422,54.53126],[-1.21364,54.53029],[-1.21271,54.52975],[-1.2123,54.52872]]]}},{"type":"Feature","properties":{"id":"E01012036","name":"E01012036","parent":"E06000002","type":"LSOA","pop":1851,"r":434,"ff":156,"ffd":8427.9,"ffs":0.5098,"g":125,"co":0,"mo":0,"sa":0,"ic":0},"geometry":{"type":"Polygon","coordinates":[[[-1.24439,54.57163],[-1.24368,54.57062],[-1.24304,54.57041],[-1.24481,54.56953],[-1.24438,54.56943],[-1.2429,54.57019],[-1.24272,54.57072],[-1.2424,54.57068],[-1.24266,54.57001],[-1.24111,54.56979],[-1.24126,54.56942],[-1.24092,54.56937],[-1.24132,54.56834],[-1.24226,54.56868],[-1.24193,54.56809],[-1.24259,54.56782],[-1.24413,54.56819],[-1.24435,54.56895],[-1.24541,54.5685],[-1.24575,54.56861],[-1.24556,54.56938],[-1.2463,54.56886],[-1.24621,54.56847],[-1.24768,54.56853],[-1.24821,54.56893],[-1.2471,54.56938],[-1.24673,54.56989],[-1.24721,54.56997],[-1.24731,54.5708],[-1.24539,54.57152],[-1.24518,54.57132],[-1.24439,54.57163]]]}},{"type":"Feature","properties":{"id":"E01012037","name":"E01012037","parent":"E06000002","type":"LSOA","pop":1812,"r":434,"ff":156,"ffd":8609.3,"ffs":0.5098,"g":125,"co":0,"mo":0,"sa":0,"ic":0},"geometry":{"type":"Polygon","coordinates":[[[-1.25256,54.57144],[-1.25098,54.5704],[-1.24953,54.57096],[-1.24876,54.57024],[-1.24731,54.5708],[-1.24721,54.56997],[-1.24673,54.56989],[-1.2471,54.56938],[-1.24821,54.56893],[-1.24971,54.56905],[-1.25036,54.56812],[-1.25202,54.56847],[-1.25227,54.56809],[-1.25198,54.568],[-1.25246,54.56677],[-1.25277,54.56683],[-1.25369,54.56564],[-1.25402,54.56614],[-1.2545,54.5662],[-1.25546,54.56769],[-1.25582,54.56875],[-1.25505,54.57077],[-1.25402,54.57049],[-1.25384,54.57072],[-1.25286,54.5707],[-1.25256,54.57144]]]}},{"type":"Feature","properties":{"id":"E01012038","name":"E01012038","parent":"E06000002","type":"LSOA","pop":1714,"r":435,"ff":157,"ffd":9159.9,"ffs":0.5114,"g":125,"co":0,"mo":0,"sa":0,"ic":0},"geometry":{"type":"Polygon","coordinates":[[[-1.24768,54.56853],[-1.24832,54.56763],[-1.24933,54.56782],[-1.24962,54.56745],[-1.24865,54.5672],[-1.24964,54.56577],[-1.24848,54.56573],[-1.24847,54.56556],[-1.25435,54.56549],[-1.2545,54.5662],[-1.25402,54.56614],[-1.25369,54.56564],[-1.25277,54.56683],[-1.25246,54.56677],[-1.25198,54.568],[-1.25227,54.56809],[-1.25202,54.56847],[-1.25036,54.56812],[-1.24971,54.56905],[-1.24821,54.56893],[-1.24768,54.56853]]]}},{"type":"Feature","properties":{"id":"E01012039","name":"E01012039","parent":"E06000002","type":"LSOA","pop":1868,"r":432,"ff":155,"ffd":8297.6,"ffs":0.5099,"g":125,"co":0,"mo":0,"sa":0,"ic":0},"geometry":{"type":"Polygon","coordinates":[[[-1.23916,54.56935],[-1.24116,54.56536],[-1.24544,54.56553],[-1.24431,54.56646],[-1.24553,54.5665],[-1.24557,54.56699],[-1.24492,54.56792],[-1.24413,54.56819],[-1.24259,54.56782],[-1.24193,54.56809],[-1.24226,54.56868],[-1.24132,54.56834],[-1.24092,54.56937],[-1.24126,54.56942],[-1.24111,54.56979],[-1.24266,54.57001],[-1.2424,54.57068],[-1.24272,54.57072],[-1.24258,54.57106],[-1.24162,54.57126],[-1.23856,54.57082],[-1.23916,54.56935]]]}},{"type":"Feature","properties":{"id":"E01012040","name":"E01012040","parent":"E06000002","type":"LSOA","pop":1641,"r":433,"ff":156,"ffd":9506.4,"ffs":0.5115,"g":125,"co":0,"mo":0,"sa":0,"ic":0},"geometry":{"type":"Polygon","coordinates":[[[-1.24575,54.56861],[-1.24541,54.5685],[-1.24435,54.56895],[-1.24413,54.56819],[-1.24492,54.56792],[-1.24557,54.56699],[-1.24553,54.5665],[-1.24431,54.56646],[-1.24544,54.56553],[-1.24847,54.56556],[-1.24848,54.56573],[-1.24964,54.56577],[-1.24865,54.5672],[-1.24962,54.56745],[-1.24933,54.56782],[-1.24832,54.56763],[-1.24768,54.56853],[-1.24621,54.56847],[-1.2463,54.56886],[-1.24556,54.56938],[-1.24575,54.56861]]]}},{"type":"Feature","properties":{"id":"E01012041","name":"E01012041","parent":"E06000002","type":"LSOA","pop":1212,"r":436,"ff":156,"ffd":12871.3,"ffs":0.5081,"g":126,"co":2,"mo":0,"sa":0,"ic":0},"geometry":{"type":"Polygon","coordinates":[[[-1.24082,54.57324],[-1.24162,54.57126],[-1.24258,54.57106],[-1.2429,54.57019],[-1.24438,54.56943],[-1.24481,54.56953],[-1.24304,54.57041],[-1.24368,54.57062],[-1.24439,54.57163],[-1.24518,54.57132],[-1.24539,54.57152],[-1.24876,54.57024],[-1.24953,54.57096],[-1.25098,54.5704],[-1.25256,54.57144],[-1.25286,54.5707],[-1.25384,54.57072],[-1.25402,54.57049],[-1.25505,54.57077],[-1.25559,54.5714],[-1.25646,54.57135],[-1.25586,54.57316],[-1.25486,54.57443],[-1.25212,54.57586],[-1.24581,54.57732],[-1.24494,54.57721],[-1.24082,54.57324]]]}},{"type":"Feature","properties":{"id":"E01012042","name":"E01012042","parent":"E06000002","type":"LSOA","pop":1315,"r":422,"ff":138,"ffd":10494.3,"ffs":0.4876,"g":135,"co":0,"mo":0,"sa":0,"ic":0},"geometry":{"type":"Polygon","coordinates":[[[-1.24693,54.52464],[-1.24822,54.52341],[-1.24893,54.52411],[-1.25015,54.52435],[-1.25063,54.52416],[-1.25459,54.52786],[-1.2503,54.52853],[-1.24331,54.53006],[-1.24201,54.52903],[-1.24131,54.5289],[-1.23995,54.52751],[-1.24019,54.5272],[-1.24156,54.5265],[-1.24402,54.52623],[-1.24517,54.5251],[-1.24693,54.52464]]]}},{"type":"Feature","properties":{"id":"E01012043","name":"E01012043","parent":"E06000002","type":"LSOA","pop":1264,"r":435,"ff":139,"ffd":10996.8,"ffs":0.476,"g":139,"co":0,"mo":0,"sa":0,"ic":0},"geometry":{"type":"Polygon","coordinates":[[[-1.22944,54.52474],[-1.22693,54.5226],[-1.22921,54.52183],[-1.22946,54.52235],[-1.23163,54.52337],[-1.23288,54.52327],[-1.23321,54.52397],[-1.23829,54.52433],[-1.23766,54.52654],[-1.24019,54.5272],[-1.23995,54.52751],[-1.24131,54.5289],[-1.24201,54.52903],[-1.24331,54.53006],[-1.23887,54.53087],[-1.23481,54.52864],[-1.22944,54.52474]]]}},{"type":"Feature","properties":{"id":"E01012044","name":"E01012044","parent":"E06000002","type":"LSOA","pop":1572,"r":406,"ff":130,"ffd":8269.7,"ffs":0.4851,"g":134,"co":0,"mo":0,"sa":0,"ic":0},"geometry":{"type":"Polygon","coordinates":[[[-1.2384,54.52405],[-1.23886,54.52292],[-1.23984,54.52292],[-1.23988,54.52257],[-1.2406,54.52245],[-1.23983,54.52145],[-1.24092,54.52089],[-1.24319,54.52048],[-1.24261,54.51889],[-1.24192,54.51874],[-1.24105,54.51904],[-1.24025,54.51852],[-1.24291,54.5177],[-1.24501,54.51761],[-1.24888,54.51814],[-1.24833,54.51894],[-1.24693,54.51987],[-1.2478,54.52158],[-1.24851,54.52232],[-1.24942,54.5225],[-1.24816,54.52336],[-1.24693,54.52464],[-1.24517,54.5251],[-1.24402,54.52623],[-1.24156,54.5265],[-1.24019,54.5272],[-1.23766,54.52654],[-1.2384,54.52405]]]}},{"type":"Feature","properties":{"id":"E01012045","name":"E01012045","parent":"E06000002","type":"LSOA","pop":1462,"r":406,"ff":129,"ffd":8823.5,"ffs":0.4813,"g":134,"co":0,"mo":0,"sa":0,"ic":0},"geometry":{"type":"Polygon","coordinates":[[[-1.23321,54.52397],[-1.23288,54.52327],[-1.23163,54.52337],[-1.22946,54.52235],[-1.22921,54.52183],[-1.23712,54.51981],[-1.24025,54.51852],[-1.24105,54.51904],[-1.24192,54.51874],[-1.24261,54.51889],[-1.24319,54.52048],[-1.24092,54.52089],[-1.23983,54.52145],[-1.2406,54.52245],[-1.23988,54.52257],[-1.23984,54.52292],[-1.23886,54.52292],[-1.23829,54.52433],[-1.23321,54.52397]]]}},{"type":"Feature","properties":{"id":"E01012046","name":"E01012046","parent":"E06000002","type":"LSOA","pop":2460,"r":457,"ff":155,"ffd":6300.8,"ffs":0.4905,"g":137,"co":0,"mo":0,"sa":0,"ic":0},"geometry":{"type":"Polygon","coordinates":[[[-1.22635,54.53993],[-1.22663,54.53933],[-1.22568,54.53936],[-1.22398,54.5377],[-1.22207,54.53739],[-1.22143,54.53639],[-1.21855,54.53567],[-1.21647,54.53258],[-1.22476,54.53245],[-1.23205,54.5319],[-1.24374,54.52997],[-1.24322,54.53025],[-1.24441,54.53041],[-1.24568,54.53107],[-1.24587,54.53222],[-1.24993,54.53361],[-1.25013,54.53503],[-1.2506,54.53505],[-1.25044,54.53539],[-1.25091,54.53518],[-1.2511,54.53593],[-1.25186,54.53576],[-1.25282,54.53658],[-1.25401,54.53702],[-1.25208,54.53778],[-1.25162,54.53866],[-1.25081,54.53819],[-1.25025,54.53847],[-1.24792,54.53695],[-1.24581,54.53597],[-1.24121,54.53756],[-1.24185,54.53818],[-1.23489,54.54029],[-1.23619,54.54129],[-1.23664,54.54218],[-1.23612,54.54334],[-1.23673,54.54404],[-1.23608,54.54437],[-1.23341,54.54345],[-1.22965,54.54123],[-1.22635,54.53993]]]}},{"type":"Feature","properties":{"id":"E01012047","name":"E01012047","parent":"E06000002","type":"LSOA","pop":1712,"r":448,"ff":162,"ffd":9462.6,"ffs":0.511,"g":128,"co":0,"mo":0,"sa":0,"ic":0},"geometry":{"type":"Polygon","coordinates":[[[-1.25903,54.54668],[-1.2582,54.54481],[-1.25949,54.54436],[-1.25999,54.54451],[-1.26186,54.54416],[-1.26214,54.54466],[-1.26045,54.54519],[-1.26073,54.54588],[-1.26255,54.54544],[-1.26243,54.54521],[-1.26471,54.54488],[-1.26536,54.54417],[-1.26616,54.54554],[-1.27277,54.54408],[-1.27477,54.54489],[-1.27491,54.54653],[-1.27413,54.54823],[-1.27361,54.54877],[-1.26674,54.54815],[-1.25903,54.54668]]]}},{"type":"Feature","properties":{"id":"E01012048","name":"E01012048","parent":"E06000002","type":"LSOA","pop":1827,"r":457,"ff":168,"ffd":9195.4,"ffs":0.525,"g":133,"co":0,"mo":0,"sa":0,"ic":0},"geometry":{"type":"Polygon","coordinates":[[[-1.26214,54.54466],[-1.26186,54.54416],[-1.25999,54.54451],[-1.25949,54.54436],[-1.2582,54.54481],[-1.25589,54.54214],[-1.25025,54.53847],[-1.25081,54.53819],[-1.25162,54.53866],[-1.25208,54.53778],[-1.25401,54.53702],[-1.25628,54.53814],[-1.25972,54.53926],[-1.26849,54.54153],[-1.2688,54.54192],[-1.27066,54.54233],[-1.27201,54.54385],[-1.27277,54.54408],[-1.26616,54.54554],[-1.26536,54.54417],[-1.26471,54.54488],[-1.26243,54.54521],[-1.26255,54.54544],[-1.26073,54.54588],[-1.26045,54.54519],[-1.26214,54.54466]]]}},{"type":"Feature","properties":{"id":"E01012049","name":"E01012049","parent":"E06000002","type":"LSOA","pop":1264,"r":421,"ff":141,"ffd":11155.1,"ffs":0.5,"g":135,"co":0,"mo":0,"sa":0,"ic":0},"geometry":{"type":"Polygon","coordinates":[[[-1.20631,54.53659],[-1.20768,54.53601],[-1.2065,54.53513],[-1.20889,54.53352],[-1.20727,54.53236],[-1.21054,54.5323],[-1.21647,54.53258],[-1.21711,54.53336],[-1.21431,54.53473],[-1.21356,54.53474],[-1.21386,54.53507],[-1.21521,54.53492],[-1.21554,54.53511],[-1.2156,54.53542],[-1.21431,54.53562],[-1.21589,54.53739],[-1.21505,54.53716],[-1.21356,54.53747],[-1.2132,54.53802],[-1.21233,54.53791],[-1.2113,54.53728],[-1.21036,54.53764],[-1.20972,54.53719],[-1.2098,54.53655],[-1.20917,54.53629],[-1.20852,54.5364],[-1.20838,54.53699],[-1.20945,54.53745],[-1.20905,54.53756],[-1.20936,54.5379],[-1.20837,54.53825],[-1.20631,54.53659]]]}},{"type":"Feature","properties":{"id":"E01012050","name":"E01012050","parent":"E06000002","type":"LSOA","pop":1485,"r":403,"ff":145,"ffd":9764.3,"ffs":0.5254,"g":124,"co":0,"mo":0,"sa":0,"ic":0},"geometry":{"type":"Polygon","coordinates":[[[-1.21586,54.5472],[-1.21354,54.54413],[-1.21612,54.5435],[-1.21673,54.54364],[-1.21653,54.54401],[-1.21721,54.54434],[-1.21682,54.54467],[-1.2173,54.54514],[-1.21813,54.54526],[-1.21948,54.54471],[-1.21893,54.54392],[-1.21987,54.54394],[-1.21904,54.54304],[-1.22006,54.54243],[-1.22257,54.54193],[-1.22367,54.54313],[-1.22159,54.5441],[-1.22355,54.54526],[-1.21635,54.54787],[-1.21586,54.5472]]]}},{"type":"Feature","properties":{"id":"E01012051","name":"E01012051","parent":"E06000002","type":"LSOA","pop":1318,"r":405,"ff":144,"ffd":10925.6,"ffs":0.5217,"g":125,"co":0,"mo":0,"sa":0,"ic":0},"geometry":{"type":"Polygon","coordinates":[[[-1.21653,54.54401],[-1.21673,54.54364],[-1.21612,54.5435],[-1.21354,54.54413],[-1.21094,54.54063],[-1.21239,54.53989],[-1.21273,54.54016],[-1.21311,54.54002],[-1.21324,54.54055],[-1.21785,54.5391],[-1.21457,54.54079],[-1.21579,54.54164],[-1.21609,54.5415],[-1.21645,54.54178],[-1.2175,54.54086],[-1.2182,54.54115],[-1.21882,54.54094],[-1.22006,54.54243],[-1.21904,54.54304],[-1.21987,54.54394],[-1.21893,54.54392],[-1.21948,54.54471],[-1.21813,54.54526],[-1.2173,54.54514],[-1.21682,54.54467],[-1.21721,54.54434],[-1.21653,54.54401]]]}},{"type":"Feature","properties":{"id":"E01012052","name":"E01012052","parent":"E06000002","type":"LSOA","pop":1271,"r":421,"ff":143,"ffd":11251.0,"ffs":0.5035,"g":133,"co":0,"mo":0,"sa":0,"ic":0},"geometry":{"type":"Polygon","coordinates":[[[-1.2269,54.54253],[-1.22241,54.54133],[-1.22257,54.54193],[-1.22006,54.54243],[-1.21882,54.54094],[-1.2182,54.54115],[-1.2175,54.54086],[-1.21645,54.54178],[-1.21609,54.5415],[-1.21579,54.54164],[-1.21457,54.54079],[-1.21785,54.5391],[-1.21324,54.54055],[-1.21311,54.54002],[-1.21273,54.54016],[-1.21239,54.53989],[-1.21094,54.54063],[-1.20837,54.53825],[-1.20936,54.5379],[-1.20905,54.53756],[-1.20945,54.53745],[-1.20838,54.53699],[-1.20852,54.5364],[-1.20917,54.53629],[-1.2098,54.53655],[-1.20972,54.53719],[-1.21036,54.53764],[-1.2113,54.53728],[-1.21233,54.53791],[-1.2132,54.53802],[-1.21356,54.53747],[-1.21505,54.53716],[-1.21589,54.53739],[-1.21431,54.53562],[-1.2156,54.53542],[-1.21554,54.53511],[-1.21521,54.53492],[-1.21386,54.53507],[-1.21356,54.53474],[-1.21431,54.53473],[-1.21711,54.53336],[-1.21855,54.53567],[-1.22143,54.53639],[-1.22207,54.53739],[-1.22398,54.5377],[-1.22568,54.53936],[-1.22663,54.53933],[-1.22635,54.53993],[-1.22965,54.54123],[-1.2269,54.54253]]]}},{"type":"Feature","properties":{"id":"E01012053","name":"E01012053","parent":"E06000002","type":"LSOA","pop":1854,"r":448,"ff":165,"ffd":8899.7,"ffs":0.5156,"g":125,"co":0,"mo":0,"sa":0,"ic":0},"geometry":{"type":"Polygon","coordinates":[[[-1.25038,54.5554],[-1.24981,54.55452],[-1.2502,54.55448],[-1.25021,54.55478],[-1.25101,54.55467],[-1.25117,54.55404],[-1.25187,54.55396],[-1.25148,54.55231],[-1.25085,54.55213],[-1.25015,54.55253],[-1.24946,54.55182],[-1.24981,54.55126],[-1.25238,54.5509],[-1.25255,54.55133],[-1.25505,54.55092],[-1.25491,54.55055],[-1.26064,54.54997],[-1.26259,54.55179],[-1.26206,54.55185],[-1.26216,54.55221],[-1.25869,54.55243],[-1.25907,54.55368],[-1.25836,54.55451],[-1.25481,54.55473],[-1.25398,54.55447],[-1.25393,54.55516],[-1.25378,54.55487],[-1.25325,54.55489],[-1.25215,54.55564],[-1.25038,54.5554]]]}},{"type":"Feature","properties":{"id":"E01012054","name":"E01012054","parent":"E06000002","type":"LSOA","pop":1869,"r":447,"ff":165,"ffd":8828.3,"ffs":0.5172,"g":125,"co":0,"mo":0,"sa":0,"ic":0},"geometry":{"type":"Polygon","coordinates":[[[-1.25617,54.55785],[-1.25648,54.55689],[-1.25381,54.55671],[-1.25379,54.55707],[-1.25318,54.55705],[-1.25299,54.55661],[-1.25386,54.55622],[-1.25215,54.55564],[-1.25325,54.55489],[-1.25378,54.55487],[-1.25393,54.55516],[-1.25398,54.55447],[-1.25481,54.55473],[-1.25836,54.55451],[-1.25907,54.55368],[-1.25869,54.55243],[-1.26216,54.55221],[-1.26206,54.55185],[-1.26259,54.55179],[-1.26308,54.55275],[-1.26119,54.55738],[-1.26045,54.55737],[-1.2607,54.55703],[-1.25862,54.55707],[-1.25861,54.55783],[-1.25617,54.55785]]]}},{"type":"Feature","properties":{"id":"E01012055","name":"E01012055","parent":"E06000002","type":"LSOA","pop":2080,"r":448,"ff":165,"ffd":7932.7,"ffs":0.5156,"g":125,"co":0,"mo":0,"sa":0,"ic":0},"geometry":{"type":"Polygon","coordinates":[[[-1.24745,54.55544],[-1.2473,54.55518],[-1.24521,54.55527],[-1.24099,54.55554],[-1.2401,54.55589],[-1.23957,54.5545],[-1.23489,54.55458],[-1.23479,54.55381],[-1.23608,54.55254],[-1.23686,54.55213],[-1.24206,54.55223],[-1.24206,54.55261],[-1.24341,54.55229],[-1.24338,54.55264],[-1.24412,54.55266],[-1.24388,54.55232],[-1.24718,54.55173],[-1.24778,54.55211],[-1.24946,54.55182],[-1.25015,54.55253],[-1.25085,54.55213],[-1.25148,54.55231],[-1.25187,54.55396],[-1.25117,54.55404],[-1.25101,54.55467],[-1.25021,54.55478],[-1.2502,54.55448],[-1.24981,54.55452],[-1.25038,54.5554],[-1.24878,54.55647],[-1.2479,54.55665],[-1.24698,54.5556],[-1.24745,54.55544]]]}},{"type":"Feature","properties":{"id":"E01012056","name":"E01012056","parent":"E06000002","type":"LSOA","pop":2542,"r":443,"ff":161,"ffd":6333.6,"ffs":0.5111,"g":125,"co":0,"mo":0,"sa":0,"ic":0},"geometry":{"type":"Polygon","coordinates":[[[-1.24542,54.56234],[-1.24531,54.55995],[-1.24835,54.55988],[-1.24808,54.55834],[-1.24952,54.55836],[-1.24913,54.55953],[-1.25001,54.56017],[-1.25131,54.55997],[-1.25064,54.55906],[-1.25132,54.55873],[-1.25201,54.55976],[-1.2518,54.5601],[-1.25414,54.56192],[-1.25403,54.56219],[-1.25167,54.56157],[-1.24978,54.56159],[-1.25387,54.56538],[-1.25147,54.56556],[-1.24546,54.56552],[-1.24542,54.56234]]]}},{"type":"Feature","properties":{"id":"E01012057","name":"E01012057","parent":"E06000002","type":"LSOA","pop":1998,"r":444,"ff":165,"ffd":8258.3,"ffs":0.5222,"g":125,"co":0,"mo":0,"sa":0,"ic":0},"geometry":{"type":"Polygon","coordinates":[[[-1.25033,54.56225],[-1.24978,54.56159],[-1.25167,54.56157],[-1.25403,54.56219],[-1.25414,54.56192],[-1.2518,54.5601],[-1.25201,54.55976],[-1.25132,54.55873],[-1.25064,54.55906],[-1.25131,54.55997],[-1.25001,54.56017],[-1.24913,54.55953],[-1.24952,54.55836],[-1.24808,54.55834],[-1.24615,54.55525],[-1.2473,54.55518],[-1.24745,54.55544],[-1.24698,54.5556],[-1.2479,54.55665],[-1.24878,54.55647],[-1.25038,54.5554],[-1.25215,54.55564],[-1.25386,54.55622],[-1.25299,54.55661],[-1.25318,54.55705],[-1.25379,54.55707],[-1.25381,54.55671],[-1.25648,54.55689],[-1.25617,54.55785],[-1.25861,54.55783],[-1.25862,54.55707],[-1.2607,54.55703],[-1.26045,54.55737],[-1.26119,54.55738],[-1.25905,54.56118],[-1.25879,54.56258],[-1.25435,54.56549],[-1.25387,54.56538],[-1.25033,54.56225]]]}},{"type":"Feature","properties":{"id":"E01012058","name":"E01012058","parent":"E06000002","type":"LSOA","pop":2414,"r":419,"ff":146,"ffd":6048.1,"ffs":0.5105,"g":129,"co":2,"mo":0,"sa":0,"ic":0},"geometry":{"type":"Polygon","coordinates":[[[-1.20797,54.5724],[-1.2076,54.57196],[-1.20722,54.57219],[-1.20487,54.56971],[-1.20721,54.56917],[-1.20754,54.56881],[-1.2086,54.56841],[-1.20754,54.56742],[-1.21165,54.56656],[-1.2137,54.56638],[-1.21269,54.56831],[-1.21154,54.56852],[-1.21124,54.56903],[-1.21047,54.56842],[-1.21026,54.56881],[-1.21123,54.56947],[-1.2106,54.56982],[-1.21017,54.56953],[-1.20969,54.56964],[-1.20989,54.57003],[-1.20905,54.57033],[-1.20952,54.57062],[-1.20868,54.57091],[-1.20945,54.57166],[-1.20907,54.57202],[-1.20797,54.5724]]]}},{"type":"Feature","properties":{"id":"E01012059","name":"E01012059","parent":"E06000002","type":"LSOA","pop":1916,"r":424,"ff":145,"ffd":7567.8,"ffs":0.507,"g":134,"co":2,"mo":0,"sa":0,"ic":0},"geometry":{"type":"Polygon","coordinates":[[[-1.2062,54.57267],[-1.2076,54.57196],[-1.20797,54.5724],[-1.20907,54.57202],[-1.20945,54.57166],[-1.20868,54.57091],[-1.20952,54.57062],[-1.20905,54.57033],[-1.20989,54.57003],[-1.20969,54.56964],[-1.21017,54.56953],[-1.2106,54.56982],[-1.21123,54.56947],[-1.21026,54.56881],[-1.21047,54.56842],[-1.21124,54.56903],[-1.21154,54.56852],[-1.21269,54.56831],[-1.2137,54.56638],[-1.21533,54.56634],[-1.21657,54.56884],[-1.21955,54.57209],[-1.21623,54.57269],[-1.21624,54.57322],[-1.21034,54.5746],[-1.20638,54.57469],[-1.20623,54.57424],[-1.20521,54.57415],[-1.2068,54.57307],[-1.2062,54.57267]]]}},{"type":"Feature","properties":{"id":"E01012060","name":"E01012060","parent":"E06000002","type":"LSOA","pop":1736,"r":400,"ff":137,"ffd":7891.7,"ffs":0.5093,"g":127,"co":2,"mo":0,"sa":0,"ic":0},"geometry":{"type":"Polygon","coordinates":[[[-1.18517,54.5664],[-1.19149,54.56439],[-1.19148,54.56481],[-1.18854,54.56572],[-1.18913,54.56612],[-1.18975,54.56613],[-1.18972,54.56646],[-1.19038,54.56652],[-1.19011,54.5669],[-1.19144,54.5674],[-1.19094,54.56816],[-1.19208,54.56872],[-1.19203,54.56908],[-1.19366,54.56946],[-1.19271,54.57066],[-1.19603,54.5739],[-1.1904,54.57487],[-1.18676,54.5727],[-1.18527,54.57031],[-1.18402,54.56945],[-1.17946,54.56868],[-1.18517,54.5664]]]}},{"type":"Feature","properties":{"id":"E01012061","name":"E01012061","parent":"E06000002","type":"LSOA","pop":1282,"r":413,"ff":142,"ffd":11076.4,"ffs":0.509,"g":130,"co":2,"mo":0,"sa":0,"ic":0},"geometry":{"type":"Polygon","coordinates":[[[-1.20521,54.57415],[-1.19896,54.57357],[-1.19603,54.5739],[-1.19271,54.57066],[-1.19366,54.56946],[-1.19203,54.56908],[-1.19208,54.56872],[-1.19094,54.56816],[-1.19144,54.5674],[-1.19011,54.5669],[-1.19038,54.56652],[-1.18972,54.56646],[-1.18975,54.56613],[-1.18913,54.56612],[-1.18854,54.56572],[-1.19148,54.56481],[-1.19149,54.56439],[-1.19177,54.5643],[-1.19276,54.56493],[-1.19535,54.56565],[-1.19872,54.56893],[-1.20304,54.56842],[-1.20754,54.56742],[-1.2086,54.56841],[-1.20754,54.56881],[-1.20721,54.56917],[-1.20487,54.56971],[-1.20722,54.57219],[-1.2062,54.57267],[-1.2068,54.57307],[-1.20521,54.57415]]]}},{"type":"Feature","properties":{"id":"E01012062","name":"E01012062","parent":"E06000002","type":"LSOA","pop":2097,"r":354,"ff":117,"ffd":5579.4,"ffs":0.5154,"g":123,"co":0,"mo":0,"sa":0,"ic":0},"geometry":{"type":"Polygon","coordinates":[[[-1.19002,54.53861],[-1.18078,54.53345],[-1.18003,54.53301],[-1.18267,54.53163],[-1.1855,54.53092],[-1.18663,54.53104],[-1.18819,54.53075],[-1.18835,54.53097],[-1.18979,54.53052],[-1.19154,54.53039],[-1.192,54.53084],[-1.19573,54.53072],[-1.19772,54.53273],[-1.19724,54.53293],[-1.19635,54.53217],[-1.19518,54.53191],[-1.1947,54.53275],[-1.19368,54.53313],[-1.19352,54.53351],[-1.19277,54.5338],[-1.19206,54.53352],[-1.19085,54.53378],[-1.19286,54.53578],[-1.19085,54.53657],[-1.19201,54.53689],[-1.19331,54.53662],[-1.19386,54.53678],[-1.19002,54.53861]]]}},{"type":"Feature","properties":{"id":"E01012063","name":"E01012063","parent":"E06000002","type":"LSOA","pop":1381,"r":398,"ff":131,"ffd":9485.9,"ffs":0.5038,"g":134,"co":0,"mo":0,"sa":0,"ic":0},"geometry":{"type":"Polygon","coordinates":[[[-1.19772,54.53273],[-1.19573,54.53072],[-1.192,54.53084],[-1.19154,54.53039],[-1.18979,54.53052],[-1.18835,54.53097],[-1.18819,54.53075],[-1.18663,54.53104],[-1.1855,54.53092],[-1.1916,54.52635],[-1.19625,54.52841],[-1.19986,54.53119],[-1.19926,54.53185],[-1.20049,54.5327],[-1.19884,54.53337],[-1.19772,54.53273]]]}},{"type":"Feature","properties":{"id":"E01012065","name":"E01012065","parent":"E06000002","type":"LSOA","pop":1911,"r":383,"ff":122,"ffd":6384.1,"ffs":0.498,"g":134,"co":0,"mo":0,"sa":0,"ic":0},"geometry":{"type":"Polygon","coordinates":[[[-1.20305,54.52921],[-1.20256,54.52887],[-1.20178,54.52892],[-1.20184,54.52845],[-1.20233,54.52838],[-1.20184,54.52806],[-1.19939,54.52819],[-1.19811,54.52728],[-1.19764,54.52745],[-1.19789,54.52816],[-1.19703,54.52784],[-1.19679,54.52806],[-1.19719,54.52831],[-1.19625,54.52841],[-1.19116,54.52616],[-1.19133,54.52578],[-1.19239,54.52573],[-1.19284,54.52539],[-1.1901,54.52364],[-1.19001,54.52287],[-1.19181,54.52183],[-1.19176,54.52105],[-1.19305,54.52044],[-1.1941,54.5212],[-1.19544,54.52051],[-1.19611,54.52108],[-1.19881,54.51995],[-1.20129,54.52045],[-1.20108,54.52241],[-1.2012,54.52275],[-1.20173,54.52269],[-1.2021,54.52302],[-1.20188,54.52356],[-1.20228,54.52404],[-1.20288,54.52407],[-1.20356,54.52466],[-1.20553,54.52556],[-1.20661,54.52561],[-1.20719,54.52518],[-1.2082,54.52533],[-1.20756,54.5273],[-1.20598,54.52849],[-1.20305,54.52921]]]}},{"type":"Feature","properties":{"id":"E01012066","name":"E01012066","parent":"E06000002","type":"LSOA","pop":2056,"r":341,"ff":104,"ffd":5058.4,"ffs":0.4883,"g":124,"co":0,"mo":0,"sa":0,"ic":0},"geometry":{"type":"Polygon","coordinates":[[[-1.18079,54.52096],[-1.17913,54.52011],[-1.18073,54.51998],[-1.18133,54.51966],[-1.1848,54.51671],[-1.18524,54.5159],[-1.18493,54.51539],[-1.185,54.51442],[-1.18903,54.51277],[-1.19442,54.50777],[-1.19445,54.50857],[-1.19949,54.51284],[-1.1987,54.51348],[-1.19979,54.51392],[-1.19824,54.51586],[-1.19623,54.51688],[-1.19728,54.51793],[-1.19671,54.51916],[-1.19881,54.51995],[-1.19611,54.52108],[-1.19544,54.52051],[-1.1941,54.5212],[-1.19305,54.52044],[-1.19176,54.52105],[-1.19181,54.52183],[-1.19001,54.52287],[-1.1901,54.52364],[-1.19284,54.52539],[-1.19239,54.52573],[-1.19133,54.52578],[-1.19116,54.52616],[-1.18079,54.52096]]]}},{"type":"Feature","properties":{"id":"E01012067","name":"E01012067","parent":"E06000002","type":"LSOA","pop":1593,"r":394,"ff":131,"ffd":8223.5,"ffs":0.5078,"g":132,"co":0,"mo":0,"sa":0,"ic":0},"geometry":{"type":"Polygon","coordinates":[[[-1.2016,54.53242],[-1.19625,54.52841],[-1.19719,54.52831],[-1.19679,54.52806],[-1.19703,54.52784],[-1.19789,54.52816],[-1.19764,54.52745],[-1.19811,54.52728],[-1.19939,54.52819],[-1.20184,54.52806],[-1.20233,54.52838],[-1.20184,54.52845],[-1.20178,54.52892],[-1.20256,54.52887],[-1.20305,54.52921],[-1.20598,54.52849],[-1.20756,54.5273],[-1.2082,54.52533],[-1.20921,54.5255],[-1.20888,54.52615],[-1.2092,54.52627],[-1.20894,54.52707],[-1.21069,54.5276],[-1.21086,54.52803],[-1.2123,54.52872],[-1.21271,54.52975],[-1.21364,54.53029],[-1.21422,54.53126],[-1.21549,54.53153],[-1.21647,54.53258],[-1.21054,54.5323],[-1.20727,54.53236],[-1.20272,54.53317],[-1.2016,54.53242]]]}},{"type":"Feature","properties":{"id":"E01012068","name":"E01012068","parent":"E06000002","type":"LSOA","pop":2032,"r":436,"ff":156,"ffd":7677.2,"ffs":0.5081,"g":126,"co":0,"mo":0,"sa":0,"ic":0},"geometry":{"type":"Polygon","coordinates":[[[-1.2327,54.57653],[-1.23232,54.57611],[-1.23288,54.57616],[-1.23314,54.57509],[-1.22979,54.5748],[-1.23011,54.57354],[-1.23111,54.5736],[-1.23151,54.57253],[-1.23125,54.57223],[-1.22924,54.57208],[-1.2296,54.57099],[-1.2291,54.57115],[-1.22899,54.57095],[-1.22986,54.5708],[-1.22961,54.57041],[-1.23046,54.57054],[-1.23049,54.57024],[-1.23677,54.57068],[-1.24162,54.57126],[-1.24082,54.57324],[-1.24117,54.57356],[-1.24036,54.57349],[-1.23941,54.57314],[-1.23775,54.57302],[-1.23724,54.57439],[-1.23847,54.57447],[-1.23838,54.57486],[-1.23894,54.5749],[-1.23884,54.57536],[-1.23771,54.57518],[-1.23765,54.5755],[-1.23714,54.57545],[-1.23812,54.57648],[-1.23525,54.57634],[-1.23483,54.57811],[-1.23374,54.57802],[-1.23389,54.57671],[-1.2327,54.57653]]]}},{"type":"Feature","properties":{"id":"E01012071","name":"E01012071","parent":"E06000002","type":"LSOA","pop":1457,"r":344,"ff":106,"ffd":7275.2,"ffs":0.493,"g":125,"co":2,"mo":0,"sa":0,"ic":0},"geometry":{"type":"Polygon","coordinates":[[[-1.18272,54.52447],[-1.18232,54.52428],[-1.18201,54.52458],[-1.18327,54.52511],[-1.18247,54.5259],[-1.1805,54.52568],[-1.18064,54.52537],[-1.17971,54.52482],[-1.17858,54.52498],[-1.17761,54.52541],[-1.17655,54.52512],[-1.17449,54.52536],[-1.17481,54.52455],[-1.17435,54.52422],[-1.17489,54.52385],[-1.1744,54.52335],[-1.17401,54.52339],[-1.17493,54.52292],[-1.17424,54.52098],[-1.17309,54.52066],[-1.17369,54.52155],[-1.17349,54.52218],[-1.17044,54.52328],[-1.16927,54.52275],[-1.16852,54.5213],[-1.16995,54.51951],[-1.17099,54.51885],[-1.17156,54.519],[-1.17192,54.51876],[-1.17501,54.5187],[-1.17682,54.5191],[-1.17913,54.52011],[-1.18952,54.52546],[-1.18857,54.52608],[-1.18727,54.52612],[-1.18777,54.52678],[-1.18657,54.52611],[-1.18507,54.52581],[-1.18406,54.52531],[-1.18431,54.52507],[-1.18272,54.52447]]]}},{"type":"Feature","properties":{"id":"E01012073","name":"E01012073","parent":"E06000002","type":"LSOA","pop":1407,"r":360,"ff":116,"ffd":8244.5,"ffs":0.5043,"g":126,"co":2,"mo":0,"sa":0,"ic":0},"geometry":{"type":"Polygon","coordinates":[[[-1.17664,54.52973],[-1.17683,54.52919],[-1.17728,54.52923],[-1.17861,54.52833],[-1.17834,54.52803],[-1.17921,54.52778],[-1.17985,54.52824],[-1.1798,54.52886],[-1.18122,54.52834],[-1.18162,54.52869],[-1.18215,54.52858],[-1.18113,54.52757],[-1.18159,54.52661],[-1.18295,54.52669],[-1.18247,54.5259],[-1.18327,54.52511],[-1.18201,54.52458],[-1.18232,54.52428],[-1.18431,54.52507],[-1.18406,54.52531],[-1.18507,54.52581],[-1.18657,54.52611],[-1.18777,54.52678],[-1.18727,54.52612],[-1.18857,54.52608],[-1.18952,54.52546],[-1.1916,54.52635],[-1.1855,54.53092],[-1.18267,54.53163],[-1.18003,54.53301],[-1.17765,54.53174],[-1.17844,54.53125],[-1.17765,54.5299],[-1.17664,54.52973]]]}},{"type":"Feature","properties":{"id":"E01012074","name":"E01012074","parent":"E06000002","type":"LSOA","pop":1582,"r":412,"ff":144,"ffd":9102.4,"ffs":0.5143,"g":129,"co":2,"mo":0,"sa":0,"ic":0},"geometry":{"type":"Polygon","coordinates":[[[-1.21561,54.56361],[-1.21376,54.56319],[-1.2124,54.56328],[-1.21198,54.56288],[-1.2123,54.56212],[-1.21197,54.5607],[-1.21143,54.56096],[-1.21019,54.56056],[-1.2093,54.56146],[-1.20753,54.56154],[-1.20799,54.56197],[-1.2075,54.56207],[-1.20734,54.56286],[-1.20561,54.56293],[-1.20486,54.56217],[-1.20529,54.56169],[-1.20418,54.56138],[-1.20673,54.55927],[-1.20854,54.55841],[-1.20808,54.558],[-1.2085,54.55772],[-1.21096,54.55755],[-1.21155,54.55696],[-1.2122,54.55711],[-1.21248,54.55668],[-1.21519,54.5577],[-1.21602,54.56003],[-1.21587,54.56294],[-1.21561,54.56361]]]}},{"type":"Feature","properties":{"id":"E01012075","name":"E01012075","parent":"E06000002","type":"LSOA","pop":1603,"r":427,"ff":147,"ffd":9170.3,"ffs":0.5087,"g":134,"co":2,"mo":0,"sa":0,"ic":0},"geometry":{"type":"Polygon","coordinates":[[[-1.20105,54.56334],[-1.19984,54.56246],[-1.1995,54.56255],[-1.19745,54.56059],[-1.19648,54.56052],[-1.19602,54.55991],[-1.19553,54.56008],[-1.19468,54.55879],[-1.19326,54.55787],[-1.19259,54.55653],[-1.19094,54.55457],[-1.19278,54.55412],[-1.19461,54.55317],[-1.19602,54.55389],[-1.19812,54.55551],[-1.1998,54.55809],[-1.20206,54.55753],[-1.20179,54.55665],[-1.20479,54.5569],[-1.20535,54.55822],[-1.2085,54.55772],[-1.20808,54.558],[-1.20854,54.55841],[-1.20673,54.55927],[-1.20418,54.56138],[-1.20529,54.56169],[-1.20486,54.56217],[-1.20561,54.56293],[-1.20481,54.56286],[-1.20322,54.5641],[-1.20105,54.56334]]]}},{"type":"Feature","properties":{"id":"E01012076","name":"E01012076","parent":"E06000002","type":"LSOA","pop":1445,"r":423,"ff":147,"ffd":10173.0,"ffs":0.5104,"g":131,"co":2,"mo":0,"sa":0,"ic":0},"geometry":{"type":"Polygon","coordinates":[[[-1.1995,54.56255],[-1.19984,54.56246],[-1.20105,54.56334],[-1.20322,54.5641],[-1.20321,54.56455],[-1.20073,54.56516],[-1.20125,54.56617],[-1.20215,54.56722],[-1.20287,54.56739],[-1.20304,54.56842],[-1.19872,54.56893],[-1.19535,54.56565],[-1.19669,54.56463],[-1.19688,54.56319],[-1.19653,54.56272],[-1.1995,54.56255]]]}},{"type":"Feature","properties":{"id":"E01012077","name":"E01012077","parent":"E06000002","type":"LSOA","pop":1560,"r":423,"ff":148,"ffd":9487.2,"ffs":0.5086,"g":128,"co":2,"mo":0,"sa":0,"ic":0},"geometry":{"type":"Polygon","coordinates":[[[-1.20322,54.5641],[-1.20481,54.56286],[-1.20734,54.56286],[-1.2075,54.56207],[-1.20799,54.56197],[-1.20753,54.56154],[-1.2093,54.56146],[-1.21019,54.56056],[-1.21143,54.56096],[-1.21197,54.5607],[-1.2123,54.56212],[-1.21198,54.56288],[-1.2124,54.56328],[-1.21376,54.56319],[-1.21561,54.56361],[-1.21533,54.56634],[-1.21165,54.56656],[-1.20304,54.56842],[-1.20287,54.56739],[-1.20215,54.56722],[-1.20125,54.56617],[-1.20073,54.56516],[-1.20321,54.56455],[-1.20322,54.5641]]]}},{"type":"Feature","properties":{"id":"E01012078","name":"E01012078","parent":"E06000002","type":"LSOA","pop":1810,"r":443,"ff":160,"ffd":8839.8,"ffs":0.5079,"g":125,"co":0,"mo":0,"sa":0,"ic":0},"geometry":{"type":"Polygon","coordinates":[[[-1.2405,54.56201],[-1.24133,54.56177],[-1.2427,54.56188],[-1.24352,54.56163],[-1.24464,54.56186],[-1.24424,54.56116],[-1.24537,54.56113],[-1.24546,54.56552],[-1.24034,54.56529],[-1.24112,54.56241],[-1.2405,54.56201]]]}},{"type":"Feature","properties":{"id":"E01012079","name":"E01012079","parent":"E06000002","type":"LSOA","pop":1512,"r":435,"ff":160,"ffd":10582.0,"ffs":0.5195,"g":124,"co":0,"mo":0,"sa":0,"ic":0},"geometry":{"type":"Polygon","coordinates":[[[-1.23422,54.56015],[-1.23405,54.55955],[-1.23288,54.55927],[-1.23297,54.55907],[-1.23247,54.55897],[-1.23326,54.55754],[-1.23489,54.55739],[-1.23995,54.55747],[-1.2401,54.55589],[-1.24099,54.55554],[-1.24521,54.55527],[-1.24432,54.55589],[-1.24437,54.55738],[-1.24323,54.55784],[-1.24278,54.55865],[-1.24127,54.55877],[-1.24126,54.55944],[-1.24064,54.55998],[-1.23784,54.56003],[-1.23765,54.55968],[-1.23645,54.55975],[-1.23625,54.56004],[-1.2359,54.55976],[-1.2346,54.55977],[-1.23422,54.56015]]]}},{"type":"Feature","properties":{"id":"E01012080","name":"E01012080","parent":"E06000002","type":"LSOA","pop":1245,"r":426,"ff":155,"ffd":12449.8,"ffs":0.515,"g":122,"co":0,"mo":0,"sa":0,"ic":0},"geometry":{"type":"Polygon","coordinates":[[[-1.2309,54.56237],[-1.23247,54.55897],[-1.23297,54.55907],[-1.23288,54.55927],[-1.23405,54.55955],[-1.23422,54.56015],[-1.2346,54.55977],[-1.2359,54.55976],[-1.23625,54.56004],[-1.23645,54.55975],[-1.23765,54.55968],[-1.23784,54.56003],[-1.24154,54.55998],[-1.24106,54.56049],[-1.23927,54.56047],[-1.23911,54.56167],[-1.23783,54.56174],[-1.23767,54.56201],[-1.23702,54.56202],[-1.23708,54.56235],[-1.24112,54.56241],[-1.24034,54.56529],[-1.23857,54.56633],[-1.23663,54.56675],[-1.22788,54.56651],[-1.2309,54.56237]]]}},{"type":"Feature","properties":{"id":"E01012081","name":"E01012081","parent":"E06000002","type":"LSOA","pop":1879,"r":443,"ff":163,"ffd":8674.8,"ffs":0.5142,"g":123,"co":0,"mo":0,"sa":0,"ic":0},"geometry":{"type":"Polygon","coordinates":[[[-1.23767,54.56201],[-1.23783,54.56174],[-1.23911,54.56167],[-1.23927,54.56047],[-1.24106,54.56049],[-1.24154,54.55998],[-1.24064,54.55998],[-1.24126,54.55944],[-1.24127,54.55877],[-1.24278,54.55865],[-1.24323,54.55784],[-1.24437,54.55738],[-1.24432,54.55589],[-1.24521,54.55527],[-1.24615,54.55525],[-1.24818,54.5585],[-1.24835,54.55988],[-1.24531,54.55995],[-1.24537,54.56113],[-1.24424,54.56116],[-1.24464,54.56186],[-1.24352,54.56163],[-1.2427,54.56188],[-1.24133,54.56177],[-1.2405,54.56201],[-1.24112,54.56241],[-1.23708,54.56235],[-1.23702,54.56202],[-1.23767,54.56201]]]}},{"type":"Feature","properties":{"id":"E01012082","name":"E01012082","parent":"E06000002","type":"LSOA","pop":1608,"r":404,"ff":142,"ffd":8830.8,"ffs":0.5201,"g":127,"co":2,"mo":0,"sa":0,"ic":0},"geometry":{"type":"Polygon","coordinates":[[[-1.19518,54.55143],[-1.1942,54.55045],[-1.19394,54.55074],[-1.19337,54.55065],[-1.19191,54.55118],[-1.18961,54.54822],[-1.19187,54.5474],[-1.19574,54.54517],[-1.19875,54.54455],[-1.20068,54.54603],[-1.19954,54.54665],[-1.19946,54.54703],[-1.19968,54.54764],[-1.1994,54.54751],[-1.19941,54.54793],[-1.19881,54.54789],[-1.19731,54.54852],[-1.19823,54.54882],[-1.19874,54.54958],[-1.19681,54.54917],[-1.19531,54.55027],[-1.19561,54.55087],[-1.19677,54.55067],[-1.19578,54.55149],[-1.19518,54.55143]]]}},{"type":"Feature","properties":{"id":"E01012083","name":"E01012083","parent":"E06000002","type":"LSOA","pop":1624,"r":400,"ff":140,"ffd":8620.7,"ffs":0.5166,"g":125,"co":2,"mo":0,"sa":0,"ic":0},"geometry":{"type":"Polygon","coordinates":[[[-1.20476,54.55706],[-1.20589,54.5555],[-1.20529,54.55519],[-1.20401,54.55598],[-1.20283,54.55604],[-1.20286,54.55574],[-1.20139,54.55567],[-1.20149,54.55535],[-1.20335,54.55447],[-1.20487,54.5534],[-1.20375,54.55329],[-1.2036,54.55298],[-1.20262,54.553],[-1.20301,54.55263],[-1.20187,54.55177],[-1.20285,54.55202],[-1.20357,54.55183],[-1.20363,54.55228],[-1.20501,54.55237],[-1.20553,54.55291],[-1.20624,54.55288],[-1.20604,54.55255],[-1.20655,54.55216],[-1.2067,54.55265],[-1.20738,54.55273],[-1.2088,54.55221],[-1.21394,54.55626],[-1.21519,54.5577],[-1.21248,54.55668],[-1.2122,54.55711],[-1.21155,54.55696],[-1.21096,54.55755],[-1.2085,54.55772],[-1.20535,54.55822],[-1.20476,54.55706]]]}},{"type":"Feature","properties":{"id":"E01012084","name":"E01012084","parent":"E06000002","type":"LSOA","pop":1694,"r":411,"ff":144,"ffd":8500.6,"ffs":0.518,"g":129,"co":2,"mo":0,"sa":0,"ic":0},"geometry":{"type":"Polygon","coordinates":[[[-1.1998,54.55809],[-1.19812,54.55551],[-1.19602,54.55389],[-1.19299,54.55242],[-1.19191,54.55118],[-1.19337,54.55065],[-1.19394,54.55074],[-1.1942,54.55045],[-1.19518,54.55143],[-1.19578,54.55149],[-1.19677,54.55067],[-1.19561,54.55087],[-1.19531,54.55027],[-1.19681,54.54917],[-1.19874,54.54958],[-1.19885,54.54917],[-1.19998,54.54855],[-1.20073,54.54856],[-1.20087,54.54902],[-1.1988,54.55001],[-1.1991,54.55059],[-1.19766,54.55154],[-1.19781,54.55199],[-1.19726,54.55212],[-1.19824,54.55262],[-1.19845,54.55233],[-1.19921,54.55241],[-1.1986,54.55281],[-1.19932,54.55328],[-1.20031,54.55342],[-1.20026,54.55295],[-1.20095,54.55295],[-1.20166,54.55332],[-1.20152,54.55358],[-1.20198,54.55381],[-1.20229,54.55361],[-1.20335,54.55417],[-1.20335,54.55447],[-1.20149,54.55535],[-1.20139,54.55567],[-1.20286,54.55574],[-1.20283,54.55604],[-1.20401,54.55598],[-1.20529,54.55519],[-1.20589,54.5555],[-1.20479,54.5569],[-1.20179,54.55665],[-1.20206,54.55753],[-1.1998,54.55809]]]}},{"type":"Feature","properties":{"id":"E01012085","name":"E01012085","parent":"E06000002","type":"LSOA","pop":1623,"r":406,"ff":143,"ffd":8810.8,"ffs":0.5181,"g":126,"co":2,"mo":0,"sa":0,"ic":0},"geometry":{"type":"Polygon","coordinates":[[[-1.20335,54.55417],[-1.20229,54.55361],[-1.20198,54.55381],[-1.20152,54.55358],[-1.20166,54.55332],[-1.20095,54.55295],[-1.20026,54.55295],[-1.20031,54.55342],[-1.19932,54.55328],[-1.1986,54.55281],[-1.19921,54.55241],[-1.19845,54.55233],[-1.19824,54.55262],[-1.19726,54.55212],[-1.19781,54.55199],[-1.19766,54.55154],[-1.1991,54.55059],[-1.1988,54.55001],[-1.20087,54.54902],[-1.20073,54.54856],[-1.19998,54.54855],[-1.19885,54.54917],[-1.19874,54.54958],[-1.19823,54.54882],[-1.19731,54.54852],[-1.19881,54.54789],[-1.19941,54.54793],[-1.1994,54.54751],[-1.19968,54.54764],[-1.19946,54.54703],[-1.19954,54.54665],[-1.20068,54.54603],[-1.20586,54.55023],[-1.2088,54.55221],[-1.20738,54.55273],[-1.2067,54.55265],[-1.20655,54.55216],[-1.20604,54.55255],[-1.20624,54.55288],[-1.20553,54.55291],[-1.20501,54.55237],[-1.20363,54.55228],[-1.20357,54.55183],[-1.20285,54.55202],[-1.20187,54.55177],[-1.20301,54.55263],[-1.20262,54.553],[-1.2036,54.55298],[-1.20375,54.55329],[-1.20487,54.5534],[-1.20335,54.55447],[-1.20335,54.55417]]]}},{"type":"Feature","properties":{"id":"E01012088","name":"E01012088","parent":"E06000002","type":"LSOA","pop":1799,"r":417,"ff":142,"ffd":7893.3,"ffs":0.5053,"g":132,"co":2,"mo":0,"sa":0,"ic":0},"geometry":{"type":"Polygon","coordinates":[[[-1.19232,54.5641],[-1.19229,54.56367],[-1.19303,54.56372],[-1.19322,54.56335],[-1.19408,54.56345],[-1.19351,54.56289],[-1.19119,54.56355],[-1.19018,54.56106],[-1.1909,54.56123],[-1.19127,54.56098],[-1.19083,54.56097],[-1.19054,54.56032],[-1.18976,54.55973],[-1.19088,54.55896],[-1.19259,54.55653],[-1.19326,54.55787],[-1.19468,54.55879],[-1.19553,54.56008],[-1.19602,54.55991],[-1.19648,54.56052],[-1.19745,54.56059],[-1.1995,54.56255],[-1.19653,54.56272],[-1.19688,54.56319],[-1.19669,54.56463],[-1.19535,54.56565],[-1.19276,54.56493],[-1.19163,54.56414],[-1.19232,54.5641]]]}},{"type":"Feature","properties":{"id":"E01012089","name":"E01012089","parent":"E06000002","type":"LSOA","pop":1650,"r":394,"ff":136,"ffd":8242.4,"ffs":0.5152,"g":126,"co":2,"mo":0,"sa":0,"ic":0},"geometry":{"type":"Polygon","coordinates":[[[-1.17584,54.56372],[-1.17592,54.56141],[-1.17716,54.56105],[-1.18005,54.56096],[-1.18107,54.56111],[-1.18075,54.56219],[-1.1811,54.56266],[-1.18196,54.56285],[-1.1822,54.56315],[-1.18386,54.56237],[-1.18441,54.56262],[-1.18528,54.56321],[-1.18461,54.56343],[-1.18539,54.5638],[-1.18575,54.56483],[-1.18412,54.56606],[-1.18487,54.56657],[-1.17946,54.56868],[-1.17779,54.5685],[-1.1764,54.56652],[-1.17658,54.56617],[-1.17584,54.56372]]]}},{"type":"Feature","properties":{"id":"E01012090","name":"E01012090","parent":"E06000002","type":"LSOA","pop":1530,"r":403,"ff":139,"ffd":9085.0,"ffs":0.511,"g":127,"co":2,"mo":0,"sa":0,"ic":0},"geometry":{"type":"Polygon","coordinates":[[[-1.18539,54.5638],[-1.18461,54.56343],[-1.18528,54.56321],[-1.18441,54.56262],[-1.1851,54.56237],[-1.18398,54.56102],[-1.18422,54.56059],[-1.18468,54.56044],[-1.18386,54.55942],[-1.18492,54.55888],[-1.18474,54.55852],[-1.18723,54.5578],[-1.18864,54.558],[-1.18976,54.55973],[-1.19054,54.56032],[-1.19083,54.56097],[-1.19127,54.56098],[-1.1909,54.56123],[-1.19018,54.56106],[-1.19119,54.56355],[-1.19351,54.56289],[-1.19408,54.56345],[-1.19322,54.56335],[-1.19303,54.56372],[-1.19229,54.56367],[-1.19232,54.5641],[-1.19163,54.56414],[-1.19177,54.5643],[-1.18487,54.56657],[-1.18412,54.56606],[-1.18575,54.56483],[-1.18539,54.5638]]]}},{"type":"Feature","properties":{"id":"E01012091","name":"E01012091","parent":"E06000002","type":"LSOA","pop":2126,"r":394,"ff":137,"ffd":6444.0,"ffs":0.5189,"g":126,"co":2,"mo":0,"sa":0,"ic":0},"geometry":{"type":"Polygon","coordinates":[[[-1.1811,54.56266],[-1.18075,54.56219],[-1.18107,54.56111],[-1.18005,54.56096],[-1.17716,54.56105],[-1.17592,54.56141],[-1.1723,54.55933],[-1.17392,54.55883],[-1.17478,54.55907],[-1.17601,54.55814],[-1.18482,54.55579],[-1.18611,54.55555],[-1.18641,54.55577],[-1.19042,54.55459],[-1.19094,54.55457],[-1.19259,54.55653],[-1.19088,54.55896],[-1.18976,54.55973],[-1.18864,54.558],[-1.18723,54.5578],[-1.18474,54.55852],[-1.18492,54.55888],[-1.18386,54.55942],[-1.18468,54.56044],[-1.18422,54.56059],[-1.18398,54.56102],[-1.1851,54.56237],[-1.18441,54.56262],[-1.18386,54.56237],[-1.1822,54.56315],[-1.18196,54.56285],[-1.1811,54.56266]]]}},{"type":"Feature","properties":{"id":"E01012092","name":"E01012092","parent":"E06000002","type":"LSOA","pop":2349,"r":436,"ff":156,"ffd":6641.1,"ffs":0.5081,"g":126,"co":0,"mo":0,"sa":0,"ic":0},"geometry":{"type":"Polygon","coordinates":[[[-1.23118,54.56934],[-1.23137,54.56863],[-1.23094,54.56902],[-1.23031,54.56897],[-1.23136,54.56757],[-1.23193,54.56756],[-1.22895,54.56717],[-1.22991,54.56664],[-1.23663,54.56675],[-1.23857,54.56633],[-1.24034,54.56529],[-1.24116,54.56536],[-1.24018,54.56705],[-1.23856,54.57082],[-1.23203,54.57035],[-1.23256,54.56954],[-1.23118,54.56934]]]}},{"type":"Feature","properties":{"id":"E01012093","name":"E01012093","parent":"E06000002","type":"LSOA","pop":2354,"r":433,"ff":153,"ffd":6499.6,"ffs":0.5066,"g":127,"co":0,"mo":0,"sa":0,"ic":0},"geometry":{"type":"Polygon","coordinates":[[[-1.22589,54.56956],[-1.2264,54.56891],[-1.22602,54.56803],[-1.22684,54.56772],[-1.22701,54.56694],[-1.22738,54.56643],[-1.22991,54.56664],[-1.22895,54.56717],[-1.23193,54.56756],[-1.23136,54.56757],[-1.23031,54.56897],[-1.23094,54.56902],[-1.23137,54.56863],[-1.23118,54.56934],[-1.23256,54.56954],[-1.23203,54.57035],[-1.2276,54.57004],[-1.22769,54.56984],[-1.2274,54.56971],[-1.22589,54.56956]]]}},{"type":"Feature","properties":{"id":"E01032552","name":"E01032552","parent":"E06000002","type":"LSOA","pop":1654,"r":409,"ff":130,"ffd":7859.7,"ffs":0.4762,"g":132,"co":0,"mo":0,"sa":0,"ic":0},"geometry":{"type":"Polygon","coordinates":[[[-1.25254,54.52607],[-1.25063,54.52416],[-1.25015,54.52435],[-1.24893,54.52411],[-1.24816,54.52336],[-1.24942,54.5225],[-1.24851,54.52232],[-1.2478,54.52158],[-1.24693,54.51987],[-1.24833,54.51894],[-1.24888,54.51814],[-1.2508,54.51875],[-1.25234,54.51983],[-1.25459,54.52247],[-1.25769,54.52454],[-1.25864,54.52621],[-1.25872,54.52755],[-1.25459,54.52786],[-1.25254,54.52607]]]}},{"type":"Feature","properties":{"id":"E01032593","name":"E01032593","parent":"E06000002","type":"LSOA","pop":2775,"r":327,"ff":98,"ffd":3531.5,"ffs":0.4876,"g":122,"co":2,"mo":0,"sa":0,"ic":0},"geometry":{"type":"Polygon","coordinates":[[[-1.17311,54.52948],[-1.16352,54.52537],[-1.16138,54.5249],[-1.16305,54.52307],[-1.16498,54.52192],[-1.16185,54.52019],[-1.16154,54.51845],[-1.15974,54.51583],[-1.15611,54.51625],[-1.15327,54.51608],[-1.14832,54.51444],[-1.14726,54.51528],[-1.14241,54.51596],[-1.13988,54.51579],[-1.13733,54.51491],[-1.13963,54.50913],[-1.14104,54.50781],[-1.14282,54.50483],[-1.14405,54.50383],[-1.14627,54.50307],[-1.1462,54.50282],[-1.14669,54.50137],[-1.14806,54.50113],[-1.15267,54.50191],[-1.15744,54.50224],[-1.16311,54.50354],[-1.16407,54.50341],[-1.16418,54.50315],[-1.16535,54.50355],[-1.16603,54.50311],[-1.16664,54.50372],[-1.16698,54.50338],[-1.16897,54.50353],[-1.16946,54.50291],[-1.16995,54.50299],[-1.16995,54.5026],[-1.17067,54.50235],[-1.17179,54.50268],[-1.17232,54.50256],[-1.17273,54.50288],[-1.17356,54.50251],[-1.17439,54.50289],[-1.17391,54.50321],[-1.17421,54.50384],[-1.17348,54.50405],[-1.17386,54.50472],[-1.17555,54.50469],[-1.17614,54.50431],[-1.17938,54.506],[-1.18001,54.5062],[-1.18116,54.50577],[-1.18509,54.50729],[-1.18973,54.50629],[-1.19548,54.50663],[-1.18903,54.51277],[-1.185,54.51442],[-1.18493,54.51539],[-1.18524,54.5159],[-1.1848,54.51671],[-1.18133,54.51966],[-1.18073,54.51998],[-1.17913,54.52011],[-1.17682,54.5191],[-1.17501,54.5187],[-1.17192,54.51876],[-1.17156,54.519],[-1.17099,54.51885],[-1.16995,54.51951],[-1.16852,54.5213],[-1.16927,54.52275],[-1.17044,54.52328],[-1.17349,54.52218],[-1.17369,54.52155],[-1.17309,54.52066],[-1.17424,54.52098],[-1.17493,54.52292],[-1.17401,54.52339],[-1.1744,54.52335],[-1.17489,54.52385],[-1.17435,54.52422],[-1.17481,54.52455],[-1.17449,54.52536],[-1.17655,54.52512],[-1.17761,54.52541],[-1.17858,54.52498],[-1.17971,54.52482],[-1.18064,54.52537],[-1.1805,54.52568],[-1.18247,54.5259],[-1.18295,54.52669],[-1.18159,54.52661],[-1.18141,54.5269],[-1.18113,54.52757],[-1.18215,54.52858],[-1.18162,54.52869],[-1.18122,54.52834],[-1.1798,54.52886],[-1.17985,54.52824],[-1.17921,54.52778],[-1.17834,54.52803],[-1.17861,54.52833],[-1.17728,54.52923],[-1.17683,54.52919],[-1.17664,54.52973],[-1.17765,54.5299],[-1.17844,54.53125],[-1.17765,54.53174],[-1.17311,54.52948]]]}},{"type":"Feature","properties":{"id":"E01033469","name":"E01033469","parent":"E06000002","type":"LSOA","pop":2266,"r":449,"ff":154,"ffd":6796.1,"ffs":0.4968,"g":135,"co":0,"mo":0,"sa":0,"ic":0},"geometry":{"type":"Polygon","coordinates":[[[-1.22864,54.55954],[-1.22897,54.55915],[-1.22972,54.55949],[-1.23008,54.55893],[-1.22936,54.55853],[-1.22756,54.5586],[-1.22586,54.55898],[-1.2252,54.55709],[-1.22618,54.55693],[-1.22563,54.55598],[-1.22452,54.55599],[-1.23136,54.55359],[-1.23411,54.55285],[-1.23608,54.55254],[-1.23479,54.55381],[-1.23489,54.55458],[-1.23957,54.5545],[-1.24007,54.55555],[-1.23995,54.55747],[-1.23489,54.55739],[-1.23326,54.55754],[-1.23081,54.56241],[-1.23069,54.56179],[-1.2281,54.56019],[-1.22884,54.56005],[-1.22902,54.5596],[-1.22864,54.55954]]]}},{"type":"Feature","properties":{"id":"E01035189","name":"E01035189","parent":"E06000002","type":"LSOA","pop":1549,"r":436,"ff":156,"ffd":10071.0,"ffs":0.5081,"g":126,"co":2,"mo":0,"sa":0,"ic":0},"geometry":{"type":"Polygon","coordinates":[[[-1.23002,54.58412],[-1.23017,54.58377],[-1.22981,54.58408],[-1.22978,54.58368],[-1.22939,54.58396],[-1.22865,54.58364],[-1.22671,54.58355],[-1.22406,54.58266],[-1.22316,54.58288],[-1.21531,54.5811],[-1.21535,54.58062],[-1.21806,54.5802],[-1.21987,54.58023],[-1.21951,54.57892],[-1.218,54.5792],[-1.21949,54.57818],[-1.22017,54.57852],[-1.21972,54.57711],[-1.22143,54.57685],[-1.22196,54.57609],[-1.22258,54.57606],[-1.22399,54.57509],[-1.22574,54.57603],[-1.22725,54.57575],[-1.22717,54.57544],[-1.22833,54.57514],[-1.2279,54.57468],[-1.22815,54.57367],[-1.22743,54.57361],[-1.22736,54.57291],[-1.22771,54.57251],[-1.22842,54.57253],[-1.2282,54.57337],[-1.23064,54.57357],[-1.23011,54.57354],[-1.22979,54.5748],[-1.23314,54.57509],[-1.23288,54.57616],[-1.23232,54.57611],[-1.2327,54.57653],[-1.23389,54.57671],[-1.23374,54.57802],[-1.23483,54.57811],[-1.23525,54.57634],[-1.23812,54.57648],[-1.23714,54.57545],[-1.23765,54.5755],[-1.23771,54.57518],[-1.23884,54.57536],[-1.23894,54.5749],[-1.23838,54.57486],[-1.23847,54.57447],[-1.23724,54.57439],[-1.23775,54.57302],[-1.23941,54.57314],[-1.24036,54.57349],[-1.24117,54.57356],[-1.24494,54.57721],[-1.24581,54.57732],[-1.25212,54.57586],[-1.25486,54.57443],[-1.25586,54.57316],[-1.25646,54.57135],[-1.25834,54.57075],[-1.25892,54.57117],[-1.26051,54.57162],[-1.25674,54.58783],[-1.2559,54.58897],[-1.25436,54.58986],[-1.25157,54.5907],[-1.24782,54.59059],[-1.24593,54.59021],[-1.23742,54.58631],[-1.23002,54.58412]]]}},{"type":"Feature","properties":{"id":"E01035190","name":"E01035190","parent":"E06000002","type":"LSOA","pop":1986,"r":404,"ff":146,"ffd":7351.5,"ffs":0.5252,"g":123,"co":0,"mo":0,"sa":0,"ic":0},"geometry":{"type":"MultiPolygon","coordinates":[[[[-1.19981,54.57669],[-1.19421,54.57419],[-1.19896,54.57357],[-1.20623,54.57424],[-1.20638,54.57469],[-1.21034,54.5746],[-1.21624,54.57322],[-1.21623,54.57269],[-1.21955,54.57209],[-1.2216,54.57182],[-1.22582,54.57209],[-1.22491,54.56994],[-1.23049,54.57024],[-1.23046,54.57054],[-1.22961,54.57041],[-1.22986,54.5708],[-1.22899,54.57095],[-1.2291,54.57115],[-1.2296,54.57099],[-1.22924,54.57208],[-1.23125,54.57223],[-1.23151,54.57253],[-1.23111,54.5736],[-1.2282,54.57337],[-1.22842,54.57253],[-1.22771,54.57251],[-1.22736,54.57291],[-1.22743,54.57361],[-1.22815,54.57367],[-1.2279,54.57468],[-1.22833,54.57514],[-1.22717,54.57544],[-1.22725,54.57575],[-1.22574,54.57603],[-1.22399,54.57509],[-1.22258,54.57606],[-1.22196,54.57609],[-1.22143,54.57685],[-1.21972,54.57711],[-1.22017,54.57852],[-1.21949,54.57818],[-1.218,54.5792],[-1.21209,54.58027],[-1.20962,54.57989],[-1.20486,54.58007],[-1.20359,54.57712],[-1.20698,54.57684],[-1.2066,54.5766],[-1.20352,54.57704],[-1.20423,54.57989],[-1.20276,54.58022],[-1.20224,54.57894],[-1.2003,54.5769],[-1.19981,54.57669]]],[[[-1.19751,54.58211],[-1.19433,54.57989],[-1.1974,54.57848],[-1.20088,54.57762],[-1.20222,54.57907],[-1.20245,54.58038],[-1.19831,54.5817],[-1.19737,54.58153],[-1.19751,54.58211]]]]}},{"type":"Feature","properties":{"id":"E01035191","name":"E01035191","parent":"E06000002","type":"LSOA","pop":1945,"r":441,"ff":152,"ffd":7814.9,"ffs":0.5,"g":133,"co":0,"mo":0,"sa":0,"ic":0},"geometry":{"type":"Polygon","coordinates":[[[-1.21955,54.57209],[-1.21657,54.56884],[-1.21533,54.56634],[-1.21665,54.56667],[-1.22129,54.56599],[-1.22151,54.56648],[-1.22246,54.56636],[-1.22361,54.56914],[-1.22452,54.56901],[-1.22582,54.57209],[-1.2216,54.57182],[-1.21955,54.57209]]]}},{"type":"Feature","properties":{"id":"E01035192","name":"E01035192","parent":"E06000002","type":"LSOA","pop":1511,"r":404,"ff":146,"ffd":9662.5,"ffs":0.5252,"g":123,"co":0,"mo":0,"sa":0,"ic":0},"geometry":{"type":"Polygon","coordinates":[[[-1.2276,54.57004],[-1.22491,54.56994],[-1.22452,54.56901],[-1.22361,54.56914],[-1.22246,54.56636],[-1.22151,54.56648],[-1.22129,54.56599],[-1.22305,54.5657],[-1.22427,54.56509],[-1.22633,54.56507],[-1.22738,54.56643],[-1.22701,54.56694],[-1.22684,54.56772],[-1.22602,54.56803],[-1.2264,54.56891],[-1.22589,54.56956],[-1.2274,54.56971],[-1.22769,54.56984],[-1.2276,54.57004]]]}},{"type":"Feature","properties":{"id":"E01035193","name":"E01035193","parent":"E06000002","type":"LSOA","pop":1784,"r":404,"ff":127,"ffd":7118.8,"ffs":0.4721,"g":132,"co":0,"mo":0,"sa":0,"ic":0},"geometry":{"type":"Polygon","coordinates":[[[-1.26933,54.52825],[-1.26279,54.5276],[-1.25872,54.52755],[-1.25864,54.52621],[-1.25769,54.52454],[-1.25459,54.52247],[-1.25298,54.5207],[-1.255,54.52054],[-1.25526,54.51971],[-1.25566,54.51967],[-1.25627,54.52013],[-1.256,54.52091],[-1.25814,54.52116],[-1.25801,54.52065],[-1.25701,54.52067],[-1.25726,54.51992],[-1.25793,54.51984],[-1.25777,54.52025],[-1.25828,54.5204],[-1.25925,54.5202],[-1.25934,54.52055],[-1.25992,54.52068],[-1.26035,54.52052],[-1.25997,54.51991],[-1.26063,54.51892],[-1.25871,54.51866],[-1.2584,54.51916],[-1.25761,54.5194],[-1.25746,54.51915],[-1.25629,54.51919],[-1.25713,54.51871],[-1.25672,54.5183],[-1.25288,54.5174],[-1.25152,54.51617],[-1.2506,54.51445],[-1.25135,54.5131],[-1.25645,54.51235],[-1.25637,54.51138],[-1.25844,54.51258],[-1.25932,54.51273],[-1.26385,54.51255],[-1.26421,54.51297],[-1.2662,54.51354],[-1.26731,54.51446],[-1.2678,54.51435],[-1.26837,54.5147],[-1.26999,54.51461],[-1.27279,54.5151],[-1.27337,54.51478],[-1.27431,54.51493],[-1.27678,54.51656],[-1.27765,54.51659],[-1.27846,54.51726],[-1.27895,54.51727],[-1.2786,54.51747],[-1.27943,54.51762],[-1.27952,54.51789],[-1.2823,54.51841],[-1.2821,54.51974],[-1.28153,54.52028],[-1.28061,54.52046],[-1.28201,54.52251],[-1.28285,54.523],[-1.28206,54.52437],[-1.28248,54.52539],[-1.28206,54.52641],[-1.28299,54.52655],[-1.28336,54.52751],[-1.28391,54.52779],[-1.28349,54.52782],[-1.28438,54.52798],[-1.28426,54.52857],[-1.27939,54.52829],[-1.27847,54.52866],[-1.27829,54.52917],[-1.26933,54.52825]]]}},{"type":"Feature","properties":{"id":"E01035194","name":"E01035194","parent":"E06000002","type":"LSOA","pop":2280,"r":389,"ff":124,"ffd":5438.6,"ffs":0.4921,"g":133,"co":0,"mo":0,"sa":0,"ic":0},"geometry":{"type":"Polygon","coordinates":[[[-1.22346,54.51881],[-1.22161,54.51617],[-1.21959,54.51261],[-1.21907,54.5108],[-1.22761,54.512],[-1.2306,54.51188],[-1.23044,54.511],[-1.23173,54.51143],[-1.2334,54.51057],[-1.23487,54.51032],[-1.23652,54.51073],[-1.2379,54.51068],[-1.23921,54.5115],[-1.2403,54.51147],[-1.2415,54.51207],[-1.24219,54.51155],[-1.24366,54.5114],[-1.24527,54.51156],[-1.24678,54.51129],[-1.24889,54.51198],[-1.24986,54.51173],[-1.25061,54.512],[-1.25135,54.5131],[-1.2506,54.51445],[-1.25152,54.51617],[-1.25288,54.5174],[-1.25672,54.5183],[-1.25713,54.51871],[-1.25629,54.51919],[-1.25746,54.51915],[-1.25761,54.5194],[-1.2584,54.51916],[-1.25871,54.51866],[-1.26063,54.51892],[-1.25997,54.51991],[-1.26035,54.52052],[-1.25992,54.52068],[-1.25934,54.52055],[-1.25925,54.5202],[-1.25828,54.5204],[-1.25777,54.52025],[-1.25793,54.51984],[-1.25726,54.51992],[-1.25701,54.52067],[-1.25801,54.52065],[-1.25814,54.52116],[-1.256,54.52091],[-1.25627,54.52013],[-1.25566,54.51967],[-1.25526,54.51971],[-1.255,54.52054],[-1.25298,54.5207],[-1.25234,54.51983],[-1.2508,54.51875],[-1.24888,54.51814],[-1.24501,54.51761],[-1.24291,54.5177],[-1.24025,54.51852],[-1.23712,54.51981],[-1.22921,54.52183],[-1.22693,54.5226],[-1.22415,54.51987],[-1.22346,54.51881]]]}},{"type":"Feature","properties":{"id":"E01035195","name":"E01035195","parent":"E06000002","type":"LSOA","pop":2454,"r":400,"ff":145,"ffd":5908.7,"ffs":0.5273,"g":122,"co":0,"mo":0,"sa":0,"ic":0},"geometry":{"type":"Polygon","coordinates":[[[-1.19887,54.54435],[-1.19002,54.53861],[-1.19483,54.53636],[-1.197,54.53555],[-1.19725,54.53583],[-1.19839,54.53543],[-1.20019,54.53622],[-1.19646,54.53771],[-1.19602,54.5385],[-1.19722,54.53813],[-1.19777,54.53845],[-1.20316,54.53934],[-1.20447,54.54031],[-1.21024,54.5409],[-1.21094,54.54063],[-1.21678,54.54849],[-1.20794,54.55162],[-1.20266,54.54777],[-1.19875,54.54455],[-1.19887,54.54435]]]}},{"type":"Feature","properties":{"id":"E01035196","name":"E01035196","parent":"E06000002","type":"LSOA","pop":1250,"r":423,"ff":135,"ffd":10800.0,"ffs":0.4821,"g":139,"co":0,"mo":0,"sa":0,"ic":0},"geometry":{"type":"Polygon","coordinates":[[[-1.19777,54.53845],[-1.19722,54.53813],[-1.19602,54.5385],[-1.19646,54.53771],[-1.20019,54.53622],[-1.19839,54.53543],[-1.19725,54.53583],[-1.197,54.53555],[-1.19386,54.53678],[-1.19331,54.53662],[-1.19201,54.53689],[-1.19085,54.53657],[-1.19286,54.53578],[-1.19085,54.53378],[-1.19206,54.53352],[-1.19277,54.5338],[-1.19352,54.53351],[-1.19368,54.53313],[-1.1947,54.53275],[-1.19518,54.53191],[-1.19635,54.53217],[-1.19713,54.53288],[-1.19772,54.53273],[-1.19884,54.53337],[-1.20049,54.5327],[-1.19926,54.53185],[-1.19986,54.53119],[-1.20272,54.53317],[-1.20727,54.53236],[-1.20889,54.53352],[-1.2065,54.53513],[-1.20768,54.53601],[-1.20631,54.53659],[-1.21094,54.54063],[-1.21024,54.5409],[-1.20447,54.54031],[-1.20316,54.53934],[-1.19777,54.53845]]]}}]}