{"type":"FeatureCollection","features":[{"type":"Feature","properties":{"id":"E01030812","name":"E01030812","parent":"E07000215","type":"LSOA","pop":1670,"r":135,"ff":51,"ffd":3053.9,"ffs":0.5543,"g":40,"co":2,"mo":2,"sa":2,"ic":0},"geometry":{"type":"Polygon","coordinates":[[[-0.07168,51.24438],[-0.07109,51.24411],[-0.06997,51.24428],[-0.07056,51.24257],[-0.06921,51.24238],[-0.06874,51.24189],[-0.06905,51.24144],[-0.06843,51.23989],[-0.06833,51.23643],[-0.06958,51.2347],[-0.07144,51.23433],[-0.07256,51.23305],[-0.07262,51.23209],[-0.07172,51.23045],[-0.07198,51.22862],[-0.07084,51.22728],[-0.07235,51.22364],[-0.0718,51.22148],[-0.07193,51.21827],[-0.07261,51.21683],[-0.07254,51.21577],[-0.07421,51.21417],[-0.07443,51.21324],[-0.0686,51.21373],[-0.06879,51.21258],[-0.0687,51.20828],[-0.06964,51.20532],[-0.06939,51.19988],[-0.06892,51.19763],[-0.07125,51.19635],[-0.07318,51.19576],[-0.076,51.19523],[-0.08283,51.19461],[-0.08477,51.19409],[-0.08802,51.19373],[-0.09082,51.19429],[-0.09329,51.19424],[-0.09697,51.1929],[-0.09972,51.19281],[-0.09981,51.19554],[-0.09803,51.19753],[-0.0977,51.20357],[-0.09792,51.2059],[-0.10068,51.20982],[-0.10033,51.21178],[-0.10098,51.21289],[-0.10017,51.21411],[-0.10054,51.21585],[-0.09864,51.21867],[-0.10004,51.22115],[-0.10072,51.22164],[-0.10435,51.22181],[-0.10647,51.22223],[-0.1083,51.22194],[-0.10967,51.22207],[-0.11624,51.22063],[-0.11671,51.22475],[-0.11467,51.22747],[-0.11433,51.2287],[-0.11297,51.22988],[-0.11172,51.23296],[-0.10955,51.23309],[-0.10349,51.23593],[-0.10356,51.23658],[-0.10255,51.23777],[-0.10262,51.23904],[-0.1021,51.23938],[-0.10242,51.23987],[-0.1019,51.24059],[-0.10414,51.24028],[-0.10436,51.24055],[-0.10376,51.24132],[-0.10247,51.24173],[-0.10198,51.24398],[-0.09798,51.24751],[-0.09571,51.24762],[-0.09676,51.2444],[-0.0981,51.24246],[-0.09872,51.24192],[-0.09953,51.24185],[-0.09945,51.24135],[-0.09889,51.24126],[-0.09899,51.24101],[-0.09955,51.2411],[-0.09905,51.24062],[-0.09837,51.24058],[-0.09861,51.24008],[-0.09934,51.24013],[-0.09891,51.23959],[-0.09651,51.23876],[-0.0954,51.2394],[-0.09527,51.24016],[-0.09294,51.24023],[-0.09181,51.2398],[-0.08984,51.23948],[-0.08998,51.24113],[-0.08421,51.24447],[-0.07973,51.24662],[-0.08344,51.24719],[-0.08921,51.25038],[-0.08983,51.25319],[-0.09269,51.25429],[-0.09181,51.25737],[-0.08666,51.2573],[-0.0837,51.25907],[-0.08256,51.26025],[-0.08209,51.26172],[-0.07926,51.2633],[-0.07468,51.26205],[-0.07473,51.26011],[-0.07171,51.25306],[-0.0702,51.24851],[-0.07293,51.24803],[-0.07148,51.24575],[-0.07168,51.24438]]]}},{"type":"Feature","properties":{"id":"E01030813","name":"E01030813","parent":"E07000215","type":"LSOA","pop":1557,"r":190,"ff":74,"ffd":4752.7,"ffs":0.5362,"g":49,"co":2,"mo":2,"sa":0,"ic":0},"geometry":{"type":"Polygon","coordinates":[[[-0.13514,51.25472],[-0.13179,51.25417],[-0.13112,51.25428],[-0.13019,51.25351],[-0.12812,51.25337],[-0.1268,51.25224],[-0.12546,51.25034],[-0.122,51.24945],[-0.12151,51.24692],[-0.12077,51.24681],[-0.12038,51.24595],[-0.11844,51.24356],[-0.12014,51.24303],[-0.12244,51.24279],[-0.12454,51.23999],[-0.11764,51.24112],[-0.11759,51.236],[-0.11818,51.23605],[-0.12233,51.23463],[-0.1248,51.23351],[-0.12597,51.23345],[-0.1269,51.23174],[-0.1304,51.2314],[-0.13046,51.2308],[-0.13126,51.23073],[-0.13071,51.22854],[-0.13085,51.2274],[-0.12961,51.22665],[-0.13133,51.22663],[-0.13143,51.2255],[-0.13315,51.22587],[-0.1353,51.22488],[-0.13647,51.22537],[-0.13675,51.22588],[-0.13483,51.22607],[-0.13486,51.22702],[-0.13863,51.22742],[-0.14135,51.22587],[-0.14144,51.22542],[-0.13941,51.22459],[-0.13934,51.22098],[-0.14449,51.21431],[-0.14473,51.21626],[-0.14537,51.21645],[-0.14741,51.21996],[-0.14956,51.22207],[-0.1529,51.22631],[-0.15244,51.22676],[-0.15336,51.22713],[-0.15496,51.23066],[-0.15366,51.23337],[-0.15223,51.23504],[-0.15145,51.23492],[-0.15067,51.23599],[-0.15008,51.23582],[-0.14928,51.23454],[-0.14802,51.2342],[-0.14531,51.2373],[-0.14602,51.23957],[-0.14533,51.24059],[-0.14529,51.24159],[-0.14308,51.24388],[-0.14273,51.24579],[-0.14437,51.24793],[-0.14447,51.2488],[-0.14566,51.25135],[-0.1442,51.25181],[-0.14296,51.25332],[-0.13945,51.25334],[-0.13527,51.25455],[-0.13514,51.25472]]]}},{"type":"Feature","properties":{"id":"E01030814","name":"E01030814","parent":"E07000215","type":"LSOA","pop":1383,"r":196,"ff":77,"ffd":5567.6,"ffs":0.5347,"g":49,"co":2,"mo":2,"sa":0,"ic":0},"geometry":{"type":"Polygon","coordinates":[[[-0.11384,51.24119],[-0.1152,51.23697],[-0.11437,51.23518],[-0.11466,51.23304],[-0.11433,51.2287],[-0.11467,51.22747],[-0.11671,51.22475],[-0.11624,51.22063],[-0.1163,51.21748],[-0.11869,51.21375],[-0.11871,51.21185],[-0.12154,51.20681],[-0.12195,51.20256],[-0.12368,51.19827],[-0.12601,51.19539],[-0.12665,51.1937],[-0.12708,51.19055],[-0.12667,51.1825],[-0.12621,51.17892],[-0.12524,51.17704],[-0.12765,51.17683],[-0.12774,51.17569],[-0.1291,51.17496],[-0.13221,51.17554],[-0.1322,51.17589],[-0.13492,51.17651],[-0.13513,51.17736],[-0.13637,51.17793],[-0.13588,51.17926],[-0.13634,51.18006],[-0.13607,51.18033],[-0.13675,51.18126],[-0.13918,51.1824],[-0.14167,51.18485],[-0.14032,51.18597],[-0.14151,51.18645],[-0.14351,51.18653],[-0.14324,51.18971],[-0.14295,51.19039],[-0.14187,51.19062],[-0.14156,51.19147],[-0.13933,51.19303],[-0.13778,51.19597],[-0.13702,51.20057],[-0.1374,51.20298],[-0.13804,51.20419],[-0.13775,51.20661],[-0.13732,51.2066],[-0.13658,51.20803],[-0.13565,51.21053],[-0.13592,51.21113],[-0.13596,51.2121],[-0.14374,51.21074],[-0.1455,51.21073],[-0.14449,51.21431],[-0.13934,51.22098],[-0.13941,51.22459],[-0.14144,51.22542],[-0.14135,51.22587],[-0.13863,51.22742],[-0.13486,51.22702],[-0.13483,51.22607],[-0.13675,51.22588],[-0.13647,51.22537],[-0.1353,51.22488],[-0.13315,51.22587],[-0.13143,51.2255],[-0.13133,51.22663],[-0.12961,51.22665],[-0.13085,51.2274],[-0.13071,51.22854],[-0.13126,51.23073],[-0.13046,51.2308],[-0.1304,51.2314],[-0.1269,51.23174],[-0.12597,51.23345],[-0.1248,51.23351],[-0.12233,51.23463],[-0.11818,51.23605],[-0.11759,51.236],[-0.11764,51.24112],[-0.12454,51.23999],[-0.12244,51.24279],[-0.12014,51.24303],[-0.11844,51.24356],[-0.11548,51.24126],[-0.11384,51.24119]]]}},{"type":"Feature","properties":{"id":"E01030815","name":"E01030815","parent":"E07000215","type":"LSOA","pop":1553,"r":169,"ff":63,"ffd":4056.7,"ffs":0.5294,"g":47,"co":2,"mo":2,"sa":0,"ic":0},"geometry":{"type":"Polygon","coordinates":[[[-0.12198,51.27196],[-0.12122,51.27101],[-0.12058,51.27126],[-0.11937,51.27072],[-0.11744,51.27077],[-0.11225,51.26996],[-0.11021,51.26994],[-0.10928,51.27023],[-0.1067,51.26971],[-0.10079,51.26752],[-0.1007,51.2673],[-0.09962,51.26671],[-0.10028,51.26632],[-0.09929,51.26502],[-0.09905,51.26295],[-0.09729,51.26257],[-0.09257,51.26296],[-0.08842,51.26245],[-0.08511,51.26098],[-0.08209,51.26172],[-0.08256,51.26025],[-0.0837,51.25907],[-0.08666,51.2573],[-0.09181,51.25737],[-0.09269,51.25429],[-0.08983,51.25319],[-0.08921,51.25038],[-0.08344,51.24719],[-0.07973,51.24662],[-0.08421,51.24447],[-0.08998,51.24113],[-0.08984,51.23948],[-0.09181,51.2398],[-0.09294,51.24023],[-0.09527,51.24016],[-0.0954,51.2394],[-0.09651,51.23876],[-0.09891,51.23959],[-0.09934,51.24013],[-0.09861,51.24008],[-0.09837,51.24058],[-0.09905,51.24062],[-0.09955,51.2411],[-0.09899,51.24101],[-0.09889,51.24126],[-0.09945,51.24135],[-0.09953,51.24185],[-0.09872,51.24192],[-0.0981,51.24246],[-0.09676,51.2444],[-0.09571,51.24762],[-0.09798,51.24751],[-0.10198,51.24398],[-0.10247,51.24173],[-0.10376,51.24132],[-0.10436,51.24055],[-0.10414,51.24028],[-0.1019,51.24059],[-0.10242,51.23987],[-0.1021,51.23938],[-0.10262,51.23904],[-0.10255,51.23777],[-0.10356,51.23658],[-0.10349,51.23593],[-0.10955,51.23309],[-0.11172,51.23296],[-0.11297,51.22988],[-0.11433,51.2287],[-0.11466,51.23304],[-0.11437,51.23518],[-0.1152,51.23697],[-0.11384,51.24119],[-0.11548,51.24126],[-0.11844,51.24356],[-0.12038,51.24595],[-0.12077,51.24681],[-0.12151,51.24692],[-0.122,51.24945],[-0.12546,51.25034],[-0.1268,51.25224],[-0.12812,51.25337],[-0.13019,51.25351],[-0.13112,51.25428],[-0.13179,51.25417],[-0.13152,51.25656],[-0.12962,51.25989],[-0.12761,51.26165],[-0.1268,51.26174],[-0.12682,51.26409],[-0.12776,51.26432],[-0.12863,51.26415],[-0.13009,51.26561],[-0.12967,51.26652],[-0.13137,51.26822],[-0.13208,51.26955],[-0.12998,51.27249],[-0.12811,51.27216],[-0.12198,51.27196]]]}},{"type":"Feature","properties":{"id":"E01030816","name":"E01030816","parent":"E07000215","type":"LSOA","pop":1751,"r":219,"ff":82,"ffd":4683.0,"ffs":0.519,"g":57,"co":0,"mo":2,"sa":2,"ic":0},"geometry":{"type":"Polygon","coordinates":[[[-0.06866,51.19193],[-0.06846,51.19006],[-0.06801,51.18943],[-0.06833,51.18636],[-0.0691,51.18433],[-0.06753,51.18096],[-0.06638,51.17951],[-0.06455,51.1788],[-0.06304,51.17737],[-0.06005,51.17792],[-0.05615,51.18014],[-0.05401,51.18223],[-0.05155,51.18099],[-0.05045,51.18139],[-0.04678,51.18408],[-0.04163,51.18305],[-0.0367,51.18058],[-0.03802,51.17961],[-0.03925,51.17232],[-0.03906,51.17005],[-0.03784,51.1676],[-0.05009,51.16347],[-0.05544,51.16205],[-0.06425,51.15841],[-0.07883,51.15168],[-0.08173,51.15094],[-0.08507,51.14944],[-0.09336,51.15185],[-0.0975,51.15231],[-0.09708,51.15657],[-0.09455,51.16006],[-0.09423,51.16158],[-0.09518,51.16371],[-0.10059,51.16681],[-0.10113,51.16526],[-0.10286,51.16513],[-0.10706,51.16636],[-0.11306,51.16551],[-0.11309,51.16454],[-0.11434,51.16417],[-0.11462,51.16442],[-0.11574,51.17089],[-0.11518,51.17095],[-0.11474,51.17052],[-0.11446,51.17069],[-0.1145,51.17172],[-0.1127,51.17133],[-0.11315,51.17194],[-0.11238,51.1719],[-0.11238,51.17376],[-0.11084,51.17391],[-0.11124,51.17445],[-0.11253,51.17444],[-0.11417,51.17615],[-0.11465,51.17526],[-0.11662,51.17587],[-0.12045,51.17631],[-0.11966,51.1791],[-0.1183,51.17902],[-0.11781,51.17937],[-0.11691,51.18146],[-0.11381,51.18111],[-0.11319,51.18081],[-0.11174,51.18114],[-0.11003,51.18229],[-0.10977,51.18318],[-0.10837,51.18442],[-0.10505,51.18441],[-0.10496,51.18464],[-0.1023,51.18484],[-0.10197,51.18432],[-0.09856,51.18454],[-0.09982,51.18743],[-0.09935,51.18942],[-0.09624,51.18997],[-0.09672,51.19071],[-0.09578,51.19148],[-0.09282,51.19166],[-0.0923,51.19275],[-0.08937,51.19218],[-0.08668,51.19253],[-0.08696,51.19316],[-0.08543,51.19358],[-0.08477,51.19409],[-0.08283,51.19461],[-0.076,51.19523],[-0.07318,51.19576],[-0.07125,51.19635],[-0.06892,51.19763],[-0.06848,51.19676],[-0.06871,51.19429],[-0.06826,51.19202],[-0.06866,51.19193]]]}},{"type":"Feature","properties":{"id":"E01030817","name":"E01030817","parent":"E07000215","type":"LSOA","pop":1589,"r":227,"ff":86,"ffd":5412.2,"ffs":0.5181,"g":57,"co":0,"mo":2,"sa":2,"ic":0},"geometry":{"type":"Polygon","coordinates":[[[-0.10647,51.22223],[-0.10435,51.22181],[-0.10072,51.22164],[-0.10004,51.22115],[-0.09864,51.21867],[-0.10054,51.21585],[-0.10017,51.21411],[-0.10098,51.21289],[-0.10033,51.21178],[-0.10068,51.20982],[-0.09792,51.2059],[-0.0977,51.20357],[-0.09803,51.19753],[-0.09981,51.19554],[-0.09972,51.19281],[-0.09697,51.1929],[-0.09329,51.19424],[-0.09082,51.19429],[-0.08802,51.19373],[-0.08477,51.19409],[-0.08543,51.19358],[-0.08696,51.19316],[-0.08668,51.19253],[-0.08937,51.19218],[-0.0923,51.19275],[-0.09282,51.19166],[-0.09578,51.19148],[-0.09672,51.19071],[-0.09624,51.18997],[-0.09935,51.18942],[-0.09982,51.18743],[-0.09856,51.18454],[-0.10197,51.18432],[-0.1023,51.18484],[-0.10496,51.18464],[-0.10505,51.18441],[-0.10837,51.18442],[-0.10977,51.18318],[-0.11003,51.18229],[-0.11174,51.18114],[-0.11319,51.18081],[-0.11381,51.18111],[-0.11691,51.18146],[-0.11781,51.17937],[-0.1183,51.17902],[-0.11966,51.1791],[-0.12045,51.17631],[-0.12087,51.17601],[-0.12126,51.17406],[-0.12295,51.17429],[-0.12325,51.17147],[-0.12167,51.17049],[-0.1213,51.16974],[-0.12429,51.16946],[-0.12428,51.16988],[-0.12851,51.16978],[-0.1291,51.17496],[-0.12774,51.17569],[-0.12765,51.17683],[-0.12524,51.17704],[-0.12621,51.17892],[-0.12667,51.1825],[-0.12708,51.19055],[-0.12665,51.1937],[-0.12601,51.19539],[-0.12368,51.19827],[-0.12195,51.20256],[-0.12154,51.20681],[-0.11871,51.21185],[-0.11869,51.21375],[-0.1163,51.21748],[-0.11624,51.22063],[-0.10967,51.22207],[-0.1083,51.22194],[-0.10647,51.22223]]]}},{"type":"Feature","properties":{"id":"E01030818","name":"E01030818","parent":"E07000215","type":"LSOA","pop":1294,"r":231,"ff":88,"ffd":6800.6,"ffs":0.5176,"g":57,"co":0,"mo":2,"sa":2,"ic":0},"geometry":{"type":"Polygon","coordinates":[[[-0.11662,51.17587],[-0.11465,51.17526],[-0.11417,51.17615],[-0.11253,51.17444],[-0.11124,51.17445],[-0.11084,51.17391],[-0.11238,51.17376],[-0.11238,51.1719],[-0.11315,51.17194],[-0.1127,51.17133],[-0.1145,51.17172],[-0.11446,51.17069],[-0.11474,51.17052],[-0.11518,51.17095],[-0.11574,51.17089],[-0.11598,51.17194],[-0.11569,51.17166],[-0.1153,51.17203],[-0.11602,51.17213],[-0.11615,51.17315],[-0.11817,51.17341],[-0.11884,51.17261],[-0.11868,51.17226],[-0.1204,51.17191],[-0.12106,51.17223],[-0.12225,51.1719],[-0.12308,51.17206],[-0.12295,51.17429],[-0.12126,51.17406],[-0.12087,51.17601],[-0.12045,51.17631],[-0.11662,51.17587]]]}},{"type":"Feature","properties":{"id":"E01030819","name":"E01030819","parent":"E07000215","type":"LSOA","pop":1850,"r":231,"ff":88,"ffd":4756.8,"ffs":0.5029,"g":52,"co":0,"mo":2,"sa":2,"ic":0},"geometry":{"type":"Polygon","coordinates":[[[-0.1153,51.17203],[-0.11569,51.17166],[-0.11598,51.17194],[-0.11462,51.16442],[-0.11434,51.16417],[-0.11309,51.16454],[-0.11306,51.16551],[-0.10706,51.16636],[-0.10286,51.16513],[-0.10113,51.16526],[-0.10059,51.16681],[-0.09518,51.16371],[-0.09423,51.16158],[-0.09455,51.16006],[-0.09708,51.15657],[-0.0975,51.15231],[-0.09369,51.13843],[-0.10917,51.13937],[-0.11177,51.14008],[-0.11164,51.14037],[-0.11493,51.14075],[-0.1148,51.14116],[-0.11726,51.1416],[-0.11795,51.14056],[-0.11867,51.1405],[-0.11898,51.1408],[-0.12098,51.14073],[-0.12454,51.14032],[-0.12512,51.14089],[-0.12757,51.14033],[-0.1274,51.13954],[-0.13104,51.1395],[-0.13173,51.14148],[-0.13757,51.14216],[-0.13674,51.14462],[-0.13503,51.15598],[-0.13419,51.15772],[-0.13296,51.15888],[-0.13314,51.15923],[-0.13598,51.15974],[-0.14046,51.16005],[-0.14036,51.16041],[-0.13586,51.16073],[-0.12825,51.16279],[-0.12786,51.16426],[-0.12851,51.16978],[-0.12428,51.16988],[-0.12429,51.16946],[-0.1213,51.16974],[-0.12167,51.17049],[-0.12325,51.17147],[-0.12308,51.17206],[-0.12225,51.1719],[-0.12106,51.17223],[-0.1204,51.17191],[-0.11868,51.17226],[-0.11884,51.17261],[-0.11817,51.17341],[-0.11615,51.17315],[-0.11602,51.17213],[-0.1153,51.17203]]]}},{"type":"Feature","properties":{"id":"E01030820","name":"E01030820","parent":"E07000215","type":"LSOA","pop":1906,"r":176,"ff":84,"ffd":4407.1,"ffs":0.5874,"g":33,"co":0,"mo":0,"sa":2,"ic":1},"geometry":{"type":"Polygon","coordinates":[[[-0.10544,51.28872],[-0.10061,51.28258],[-0.0998,51.28293],[-0.0995,51.28265],[-0.09911,51.28275],[-0.0971,51.28078],[-0.09439,51.28098],[-0.09286,51.27725],[-0.08988,51.27755],[-0.09005,51.2741],[-0.09229,51.27437],[-0.09465,51.27292],[-0.09592,51.27162],[-0.09703,51.27159],[-0.09903,51.26802],[-0.1007,51.2673],[-0.10079,51.26752],[-0.1067,51.26971],[-0.10928,51.27023],[-0.11021,51.26994],[-0.11225,51.26996],[-0.11744,51.27077],[-0.11937,51.27072],[-0.12058,51.27126],[-0.12122,51.27101],[-0.12198,51.27196],[-0.12811,51.27216],[-0.12998,51.27249],[-0.13025,51.27436],[-0.13149,51.27683],[-0.13048,51.27948],[-0.13037,51.28326],[-0.13106,51.28482],[-0.1268,51.28492],[-0.12734,51.28644],[-0.11777,51.28709],[-0.11698,51.28937],[-0.11573,51.29073],[-0.10925,51.29059],[-0.10631,51.29032],[-0.10544,51.28872]]]}},{"type":"Feature","properties":{"id":"E01030821","name":"E01030821","parent":"E07000215","type":"LSOA","pop":1946,"r":55,"ff":18,"ffd":925.0,"ffs":0.4865,"g":17,"co":0,"mo":2,"sa":0,"ic":0},"geometry":{"type":"Polygon","coordinates":[[[0.0404,51.19789],[0.04053,51.19638],[0.04115,51.19605],[0.04224,51.19421],[0.04257,51.19424],[0.04208,51.19371],[0.04299,51.1929],[0.04409,51.1926],[0.04447,51.19192],[0.04601,51.19218],[0.04691,51.19173],[0.04779,51.19177],[0.04723,51.18996],[0.04518,51.18865],[0.0444,51.18903],[0.04274,51.18824],[0.04237,51.18762],[0.03976,51.18715],[0.03934,51.18683],[0.0386,51.1871],[0.03776,51.18642],[0.0366,51.18614],[0.03436,51.18598],[0.03352,51.18473],[0.0323,51.18421],[0.032,51.18437],[0.03168,51.18409],[0.03068,51.1848],[0.02942,51.18428],[0.02719,51.18427],[0.02731,51.18381],[0.0289,51.18297],[0.03207,51.18236],[0.03277,51.17694],[0.03726,51.17558],[0.03491,51.1726],[0.03378,51.17254],[0.03366,51.17289],[0.03198,51.17327],[0.03165,51.17667],[0.02432,51.17501],[0.02608,51.17223],[0.02605,51.17098],[0.02825,51.17067],[0.02952,51.17093],[0.02974,51.16972],[0.03268,51.17031],[0.03482,51.16954],[0.03575,51.16887],[0.03505,51.16774],[0.03093,51.16552],[0.03262,51.16069],[0.02756,51.15974],[0.02179,51.15917],[0.02094,51.16433],[0.01585,51.16353],[0.01499,51.1631],[0.01587,51.16044],[0.01688,51.15929],[0.01907,51.15835],[0.01905,51.1577],[0.0142,51.15558],[0.01444,51.15522],[0.009,51.15493],[0.00129,51.15524],[-0.00015,51.15634],[0.00044,51.15733],[-0.00039,51.15852],[-0.00048,51.16],[0.00089,51.15956],[0.00258,51.15949],[0.00408,51.15979],[0.00384,51.15917],[0.00433,51.15857],[0.00495,51.15873],[0.00554,51.15942],[0.00452,51.1598],[0.00552,51.16041],[0.00478,51.16112],[0.00482,51.16174],[0.004,51.16168],[0.00372,51.16193],[0.00385,51.16266],[0.00459,51.16314],[0.00496,51.16398],[0.00462,51.16426],[0.00531,51.16511],[0.00423,51.16519],[0.00409,51.1655],[0.00557,51.16587],[0.00519,51.16634],[-0.0007,51.16638],[-0.00234,51.17203],[-0.00531,51.17461],[-0.00713,51.17658],[-0.00961,51.1829],[-0.00983,51.18689],[-0.00846,51.19232],[-0.00444,51.19472],[-0.00113,51.19598],[0.0023,51.19611],[0.00624,51.19541],[0.00618,51.1946],[0.00728,51.19459],[0.01035,51.19503],[0.01303,51.19604],[0.01339,51.19545],[0.01528,51.1954],[0.0265,51.19755],[0.03038,51.19773],[0.03708,51.19729],[0.03959,51.19789],[0.0404,51.19789]]]}},{"type":"Feature","properties":{"id":"E01030822","name":"E01030822","parent":"E07000215","type":"LSOA","pop":2018,"r":62,"ff":21,"ffd":1040.6,"ffs":0.4884,"g":18,"co":0,"mo":2,"sa":0,"ic":0},"geometry":{"type":"Polygon","coordinates":[[[0.04627,51.18736],[0.04729,51.18642],[0.04743,51.18554],[0.04891,51.18488],[0.04944,51.18502],[0.04981,51.1829],[0.05229,51.18123],[0.05265,51.1804],[0.05168,51.1787],[0.05176,51.17773],[0.0509,51.17718],[0.0505,51.17628],[0.0487,51.17559],[0.04823,51.17433],[0.04729,51.17406],[0.04669,51.17348],[0.04618,51.17183],[0.04656,51.17147],[0.04625,51.16919],[0.04703,51.16892],[0.04668,51.16845],[0.04709,51.16772],[0.04639,51.16621],[0.04694,51.16487],[0.04862,51.16442],[0.04751,51.16124],[0.0489,51.15882],[0.05149,51.15724],[0.05143,51.15437],[0.05084,51.15351],[0.05122,51.15168],[0.05241,51.15075],[0.05468,51.15043],[0.05481,51.14956],[0.05425,51.14832],[0.05308,51.14746],[0.05185,51.14493],[0.05093,51.14471],[0.04989,51.14391],[0.05002,51.14265],[0.04294,51.14163],[0.04171,51.14101],[0.04121,51.14119],[0.03837,51.14029],[0.03524,51.14038],[0.0316,51.13979],[0.02933,51.14001],[0.02736,51.13985],[0.02329,51.13905],[0.02099,51.1393],[0.01992,51.13995],[0.01678,51.13909],[0.00702,51.139],[0.00128,51.13959],[-0.00056,51.13918],[-0.00323,51.1381],[-0.00432,51.13796],[-0.00535,51.13822],[-0.00659,51.13757],[-0.00626,51.13839],[-0.00683,51.13917],[-0.00948,51.13824],[-0.01134,51.13909],[-0.0122,51.13888],[-0.01337,51.1396],[-0.01443,51.13969],[-0.01436,51.14005],[-0.01617,51.14039],[-0.01669,51.14102],[-0.01779,51.1412],[-0.01836,51.14119],[-0.01873,51.14079],[-0.02036,51.14101],[-0.02005,51.1393],[-0.02059,51.13934],[-0.0246,51.13858],[-0.03123,51.13867],[-0.03324,51.13926],[-0.03341,51.1421],[-0.03413,51.14309],[-0.03404,51.14534],[-0.03353,51.14746],[-0.03366,51.14999],[-0.03464,51.15255],[-0.03465,51.15397],[-0.03572,51.15572],[-0.03483,51.16026],[-0.03556,51.16478],[-0.03454,51.16621],[-0.03286,51.16738],[-0.03073,51.16818],[-0.02996,51.16879],[-0.02915,51.16876],[-0.02843,51.16931],[-0.02762,51.1693],[-0.02745,51.16897],[-0.02443,51.16946],[-0.02058,51.16923],[-0.01706,51.16831],[-0.0164,51.16627],[-0.01605,51.16634],[-0.01506,51.16522],[-0.00914,51.16314],[-0.00727,51.16339],[-0.00692,51.16897],[-0.00783,51.16899],[-0.01004,51.17025],[-0.00719,51.1731],[-0.00734,51.17339],[-0.00575,51.17382],[-0.00575,51.17444],[-0.00531,51.17461],[-0.00234,51.17203],[-0.0007,51.16638],[0.00519,51.16634],[0.00557,51.16587],[0.00409,51.1655],[0.00423,51.16519],[0.00531,51.16511],[0.00462,51.16426],[0.00496,51.16398],[0.00459,51.16314],[0.00385,51.16266],[0.00372,51.16193],[0.004,51.16168],[0.00482,51.16174],[0.00478,51.16112],[0.00552,51.16041],[0.00452,51.1598],[0.00554,51.15942],[0.00495,51.15873],[0.00433,51.15857],[0.00384,51.15917],[0.00408,51.15979],[0.00258,51.15949],[0.00089,51.15956],[-0.00048,51.16],[-0.00039,51.15852],[0.00044,51.15733],[-0.00015,51.15634],[0.00129,51.15524],[0.009,51.15493],[0.01444,51.15522],[0.0142,51.15558],[0.01905,51.1577],[0.01907,51.15835],[0.01688,51.15929],[0.01587,51.16044],[0.01499,51.1631],[0.01585,51.16353],[0.02094,51.16433],[0.02179,51.15917],[0.02756,51.15974],[0.03262,51.16069],[0.03093,51.16552],[0.03505,51.16774],[0.03575,51.16887],[0.03482,51.16954],[0.03268,51.17031],[0.02974,51.16972],[0.02952,51.17093],[0.02825,51.17067],[0.02605,51.17098],[0.02608,51.17223],[0.02432,51.17501],[0.03165,51.17667],[0.03198,51.17327],[0.03366,51.17289],[0.03378,51.17254],[0.03491,51.1726],[0.03726,51.17558],[0.03277,51.17694],[0.03207,51.18236],[0.0289,51.18297],[0.02731,51.18381],[0.02719,51.18427],[0.02942,51.18428],[0.03068,51.1848],[0.03168,51.18409],[0.032,51.18437],[0.0323,51.18421],[0.03352,51.18473],[0.03436,51.18598],[0.0366,51.18614],[0.03776,51.18642],[0.0386,51.1871],[0.03934,51.18683],[0.03976,51.18715],[0.04237,51.18762],[0.04274,51.18824],[0.0444,51.18903],[0.04677,51.18786],[0.04627,51.18736]]]}},{"type":"Feature","properties":{"id":"E01030823","name":"E01030823","parent":"E07000215","type":"LSOA","pop":2301,"r":172,"ff":62,"ffd":2694.5,"ffs":0.4769,"g":40,"co":0,"mo":2,"sa":0,"ic":0},"geometry":{"type":"Polygon","coordinates":[[[-0.03366,51.14999],[-0.03353,51.14746],[-0.03404,51.14534],[-0.03413,51.14309],[-0.03341,51.1421],[-0.03324,51.13926],[-0.04268,51.1395],[-0.04645,51.13913],[-0.05462,51.13744],[-0.05633,51.13677],[-0.0632,51.14126],[-0.06608,51.14106],[-0.06997,51.14137],[-0.07631,51.1423],[-0.08152,51.14236],[-0.08539,51.14275],[-0.09369,51.13843],[-0.0975,51.15231],[-0.09336,51.15185],[-0.08507,51.14944],[-0.08173,51.15094],[-0.07883,51.15168],[-0.06425,51.15841],[-0.05544,51.16205],[-0.05009,51.16347],[-0.03784,51.1676],[-0.03556,51.16478],[-0.03483,51.16026],[-0.03572,51.15572],[-0.03465,51.15397],[-0.03464,51.15255],[-0.03366,51.14999]]]}},{"type":"Feature","properties":{"id":"E01030824","name":"E01030824","parent":"E07000215","type":"LSOA","pop":1524,"r":108,"ff":48,"ffd":3149.6,"ffs":0.6234,"g":31,"co":2,"mo":0,"sa":0,"ic":1},"geometry":{"type":"Polygon","coordinates":[[[-0.06089,51.25211],[-0.06214,51.25143],[-0.06253,51.25152],[-0.06196,51.25021],[-0.06225,51.24867],[-0.06415,51.24888],[-0.0653,51.25001],[-0.06657,51.25064],[-0.06646,51.25092],[-0.06703,51.25095],[-0.06599,51.25153],[-0.06615,51.25172],[-0.06703,51.2516],[-0.06689,51.25262],[-0.07171,51.25306],[-0.07399,51.25827],[-0.06514,51.25942],[-0.06513,51.25792],[-0.06325,51.25763],[-0.05833,51.25524],[-0.05878,51.25324],[-0.06089,51.25211]]]}},{"type":"Feature","properties":{"id":"E01030825","name":"E01030825","parent":"E07000215","type":"LSOA","pop":1418,"r":95,"ff":43,"ffd":3032.4,"ffs":0.6324,"g":27,"co":2,"mo":0,"sa":0,"ic":1},"geometry":{"type":"Polygon","coordinates":[[[-0.05458,51.26632],[-0.05376,51.2655],[-0.05261,51.26511],[-0.05012,51.26266],[-0.04748,51.26192],[-0.04401,51.2623],[-0.0398,51.26444],[-0.04088,51.26209],[-0.0422,51.26122],[-0.04353,51.26099],[-0.04678,51.26126],[-0.04757,51.25962],[-0.04731,51.25753],[-0.04856,51.25646],[-0.04986,51.25372],[-0.0502,51.25005],[-0.04977,51.24913],[-0.05011,51.24776],[-0.04758,51.24331],[-0.04636,51.24207],[-0.04633,51.23729],[-0.04437,51.23473],[-0.04465,51.23306],[-0.04424,51.23201],[-0.04396,51.23042],[-0.04287,51.22884],[-0.04293,51.22737],[-0.04721,51.22721],[-0.04678,51.22461],[-0.04705,51.22338],[-0.05264,51.22404],[-0.05239,51.2251],[-0.05298,51.22739],[-0.05734,51.22755],[-0.06104,51.22726],[-0.0574,51.22848],[-0.05796,51.22909],[-0.05788,51.23117],[-0.05465,51.23404],[-0.05924,51.23607],[-0.06243,51.23627],[-0.06324,51.23574],[-0.06307,51.23542],[-0.06956,51.23393],[-0.07183,51.23394],[-0.07144,51.23433],[-0.06958,51.2347],[-0.06833,51.23643],[-0.06843,51.23989],[-0.06905,51.24144],[-0.06874,51.24189],[-0.06921,51.24238],[-0.07056,51.24257],[-0.06997,51.24428],[-0.07109,51.24411],[-0.07168,51.24438],[-0.07148,51.24575],[-0.07293,51.24803],[-0.0702,51.24851],[-0.07171,51.25306],[-0.06689,51.25262],[-0.06703,51.2516],[-0.06615,51.25172],[-0.06599,51.25153],[-0.06703,51.25095],[-0.06646,51.25092],[-0.06657,51.25064],[-0.0653,51.25001],[-0.06415,51.24888],[-0.06225,51.24867],[-0.06196,51.25021],[-0.06253,51.25152],[-0.06214,51.25143],[-0.05878,51.25324],[-0.05833,51.25524],[-0.06325,51.25763],[-0.06513,51.25792],[-0.06514,51.25942],[-0.07399,51.25827],[-0.07473,51.26011],[-0.07468,51.26205],[-0.07036,51.26369],[-0.06906,51.26493],[-0.06762,51.26519],[-0.06591,51.2661],[-0.06451,51.26621],[-0.06314,51.26594],[-0.05977,51.26639],[-0.05458,51.26632]]]}},{"type":"Feature","properties":{"id":"E01030826","name":"E01030826","parent":"E07000215","type":"LSOA","pop":1557,"r":10,"ff":4,"ffd":256.9,"ffs":0.4444,"g":1,"co":3,"mo":1,"sa":3,"ic":1},"geometry":{"type":"Polygon","coordinates":[[[-0.04358,51.22506],[-0.04273,51.22329],[-0.04037,51.22125],[-0.0377,51.21668],[-0.05248,51.21825],[-0.05264,51.22404],[-0.04705,51.22338],[-0.04678,51.22461],[-0.04721,51.22721],[-0.04293,51.22737],[-0.04358,51.22506]]]}},{"type":"Feature","properties":{"id":"E01030827","name":"E01030827","parent":"E07000215","type":"LSOA","pop":1832,"r":9,"ff":4,"ffd":218.3,"ffs":0.4444,"g":0,"co":1,"mo":3,"sa":3,"ic":1},"geometry":{"type":"Polygon","coordinates":[[[-0.0574,51.22848],[-0.06104,51.22726],[-0.05734,51.22755],[-0.05298,51.22739],[-0.05239,51.2251],[-0.05264,51.22404],[-0.05248,51.21825],[-0.0377,51.21668],[-0.03622,51.21401],[-0.03652,51.21132],[-0.03412,51.20855],[-0.0362,51.20605],[-0.03798,51.20208],[-0.04047,51.19912],[-0.04154,51.19685],[-0.04163,51.19469],[-0.04061,51.19095],[-0.04152,51.18958],[-0.04368,51.18786],[-0.04342,51.18329],[-0.04678,51.18408],[-0.05045,51.18139],[-0.05155,51.18099],[-0.05401,51.18223],[-0.05615,51.18014],[-0.06005,51.17792],[-0.06304,51.17737],[-0.06455,51.1788],[-0.06638,51.17951],[-0.06753,51.18096],[-0.0691,51.18433],[-0.06833,51.18636],[-0.06801,51.18943],[-0.06846,51.19006],[-0.06866,51.19193],[-0.06826,51.19202],[-0.06871,51.19429],[-0.06848,51.19676],[-0.06892,51.19763],[-0.06939,51.19988],[-0.06964,51.20532],[-0.0687,51.20828],[-0.06879,51.21258],[-0.0686,51.21373],[-0.07443,51.21324],[-0.07421,51.21417],[-0.07254,51.21577],[-0.07261,51.21683],[-0.07193,51.21827],[-0.0718,51.22148],[-0.07235,51.22364],[-0.07084,51.22728],[-0.07198,51.22862],[-0.07172,51.23045],[-0.07262,51.23209],[-0.07256,51.23305],[-0.07183,51.23394],[-0.06956,51.23393],[-0.06307,51.23542],[-0.06324,51.23574],[-0.06243,51.23627],[-0.05924,51.23607],[-0.05465,51.23404],[-0.05788,51.23117],[-0.05796,51.22909],[-0.0574,51.22848]]]}},{"type":"Feature","properties":{"id":"E01030828","name":"E01030828","parent":"E07000215","type":"LSOA","pop":1510,"r":147,"ff":70,"ffd":4635.8,"ffs":0.5785,"g":26,"co":0,"mo":0,"sa":0,"ic":1},"geometry":{"type":"Polygon","coordinates":[[[-0.05856,51.27105],[-0.05849,51.26779],[-0.05977,51.26639],[-0.06314,51.26594],[-0.06451,51.26621],[-0.06591,51.2661],[-0.06762,51.26519],[-0.06906,51.26493],[-0.07036,51.26369],[-0.07468,51.26205],[-0.07926,51.2633],[-0.08209,51.26172],[-0.08511,51.26098],[-0.08842,51.26245],[-0.09257,51.26296],[-0.09729,51.26257],[-0.09905,51.26295],[-0.09929,51.26502],[-0.10028,51.26632],[-0.09962,51.26671],[-0.1007,51.2673],[-0.09903,51.26802],[-0.09703,51.27159],[-0.09592,51.27162],[-0.09465,51.27292],[-0.09229,51.27437],[-0.09005,51.2741],[-0.08988,51.2763],[-0.08868,51.27633],[-0.08796,51.27766],[-0.08672,51.27713],[-0.08635,51.27752],[-0.08597,51.27726],[-0.08484,51.27891],[-0.08314,51.27813],[-0.08297,51.27759],[-0.08195,51.27789],[-0.08116,51.27725],[-0.08104,51.27655],[-0.08238,51.27594],[-0.08268,51.27549],[-0.08075,51.27489],[-0.08143,51.27249],[-0.0795,51.27292],[-0.07887,51.27221],[-0.08085,51.27153],[-0.08126,51.27104],[-0.07763,51.26946],[-0.07593,51.26829],[-0.07538,51.26842],[-0.07511,51.26924],[-0.07641,51.27004],[-0.07468,51.27035],[-0.07395,51.27127],[-0.07158,51.27108],[-0.07042,51.27033],[-0.06705,51.26956],[-0.06775,51.27342],[-0.07106,51.2761],[-0.07143,51.2773],[-0.07075,51.28119],[-0.07029,51.28121],[-0.06979,51.28193],[-0.06866,51.28235],[-0.06742,51.282],[-0.06206,51.27276],[-0.05796,51.27264],[-0.05856,51.27105]]]}},{"type":"Feature","properties":{"id":"E01030829","name":"E01030829","parent":"E07000215","type":"LSOA","pop":1814,"r":169,"ff":81,"ffd":4465.3,"ffs":0.5956,"g":33,"co":0,"mo":0,"sa":0,"ic":1},"geometry":{"type":"Polygon","coordinates":[[[-0.07964,51.28212],[-0.07883,51.28195],[-0.07719,51.2822],[-0.07739,51.28247],[-0.07598,51.28245],[-0.07564,51.2817],[-0.07492,51.28135],[-0.07392,51.28137],[-0.07321,51.28179],[-0.07283,51.28156],[-0.07335,51.28134],[-0.07281,51.28118],[-0.07327,51.28113],[-0.07495,51.2793],[-0.0757,51.27896],[-0.07677,51.27704],[-0.07626,51.27624],[-0.07724,51.27615],[-0.07767,51.27578],[-0.07824,51.27613],[-0.07895,51.27434],[-0.0782,51.27237],[-0.07887,51.27221],[-0.0795,51.27292],[-0.08143,51.27249],[-0.08075,51.27489],[-0.08268,51.27549],[-0.08238,51.27594],[-0.08104,51.27655],[-0.08116,51.27725],[-0.08195,51.27789],[-0.08297,51.27759],[-0.08314,51.27813],[-0.08484,51.27891],[-0.08597,51.27726],[-0.08635,51.27752],[-0.08672,51.27713],[-0.08796,51.27766],[-0.08658,51.27983],[-0.0856,51.28066],[-0.08435,51.2812],[-0.08484,51.28133],[-0.08246,51.28163],[-0.08089,51.2827],[-0.07964,51.28212]]]}},{"type":"Feature","properties":{"id":"E01030830","name":"E01030830","parent":"E07000215","type":"LSOA","pop":1354,"r":151,"ff":70,"ffd":5169.9,"ffs":0.5882,"g":32,"co":0,"mo":0,"sa":0,"ic":1},"geometry":{"type":"Polygon","coordinates":[[[-0.07385,51.28297],[-0.07163,51.2812],[-0.07075,51.28119],[-0.07143,51.2773],[-0.07106,51.2761],[-0.06775,51.27342],[-0.06705,51.26956],[-0.07042,51.27033],[-0.07158,51.27108],[-0.07395,51.27127],[-0.07468,51.27035],[-0.07641,51.27004],[-0.07511,51.26924],[-0.07538,51.26842],[-0.07593,51.26829],[-0.07763,51.26946],[-0.08126,51.27104],[-0.08085,51.27153],[-0.0782,51.27237],[-0.07895,51.27434],[-0.07824,51.27613],[-0.07767,51.27578],[-0.07724,51.27615],[-0.07626,51.27624],[-0.07677,51.27704],[-0.0757,51.27896],[-0.07495,51.2793],[-0.07327,51.28113],[-0.07281,51.28118],[-0.07335,51.28134],[-0.07283,51.28156],[-0.07321,51.28179],[-0.07392,51.28137],[-0.07492,51.28135],[-0.07564,51.2817],[-0.07598,51.28245],[-0.07739,51.28247],[-0.07763,51.28279],[-0.07525,51.28345],[-0.07385,51.28297]]]}},{"type":"Feature","properties":{"id":"E01030831","name":"E01030831","parent":"E07000215","type":"LSOA","pop":2252,"r":80,"ff":30,"ffd":1332.1,"ffs":0.566,"g":27,"co":2,"mo":0,"sa":0,"ic":3},"geometry":{"type":"Polygon","coordinates":[[[-0.01439,51.2856],[-0.00972,51.28413],[-0.00609,51.28352],[-0.002,51.28176],[-0.00063,51.28153],[-0.00037,51.28189],[0.00213,51.28095],[0.00279,51.28127],[0.00386,51.28106],[0.00429,51.28051],[0.00348,51.27853],[0.004,51.27744],[0.00337,51.27603],[0.01011,51.27015],[0.01121,51.26843],[0.01295,51.26696],[0.00937,51.2648],[0.00885,51.26478],[0.00867,51.26383],[0.00984,51.26243],[0.00916,51.26225],[0.00964,51.261],[0.01115,51.26189],[0.01302,51.2615],[0.01294,51.26077],[0.01375,51.25987],[0.01466,51.25953],[0.01406,51.25928],[0.01532,51.25793],[0.01569,51.25775],[0.01693,51.25796],[0.01766,51.25744],[0.01672,51.25691],[0.01575,51.25687],[0.01494,51.25602],[0.01929,51.25597],[0.02172,51.25654],[0.02218,51.25387],[0.02794,51.25073],[0.02858,51.2505],[0.03114,51.25117],[0.03273,51.25082],[0.03418,51.25105],[0.03445,51.24988],[0.03556,51.24961],[0.03657,51.24978],[0.03766,51.2486],[0.03652,51.24853],[0.0362,51.24755],[0.03506,51.24761],[0.03582,51.24716],[0.03464,51.24661],[0.03461,51.24558],[0.03274,51.24338],[0.03162,51.24322],[0.03076,51.24355],[0.02605,51.24345],[0.02405,51.24534],[0.0241,51.24652],[0.02164,51.24771],[0.02114,51.2474],[0.02157,51.247],[0.02033,51.24648],[0.01606,51.24662],[0.01481,51.24618],[0.01484,51.24539],[0.01474,51.24584],[0.01135,51.24587],[0.01117,51.24708],[0.01029,51.24705],[0.00752,51.24935],[0.00437,51.25074],[0.00277,51.25171],[0.00195,51.25244],[0.00254,51.25263],[0.00225,51.25369],[-0.00165,51.25688],[-0.00165,51.25741],[-0.00081,51.25796],[-0.00113,51.26204],[-0.00084,51.26342],[-0.00294,51.2669],[-0.0035,51.26694],[-0.00475,51.2681],[-0.00716,51.26917],[-0.00897,51.271],[-0.00948,51.27392],[-0.01133,51.27724],[-0.01182,51.27914],[-0.01395,51.2804],[-0.01588,51.28525],[-0.01498,51.28503],[-0.01439,51.2856]]]}},{"type":"Feature","properties":{"id":"E01030832","name":"E01030832","parent":"E07000215","type":"LSOA","pop":1420,"r":49,"ff":17,"ffd":1197.2,"ffs":0.5862,"g":20,"co":2,"mo":0,"sa":0,"ic":3},"geometry":{"type":"Polygon","coordinates":[[[0.01596,51.26589],[0.01766,51.26433],[0.01792,51.26446],[0.01915,51.26381],[0.02389,51.26242],[0.02526,51.26267],[0.03124,51.26244],[0.03563,51.2628],[0.03506,51.26105],[0.03722,51.26141],[0.0413,51.26113],[0.04599,51.26153],[0.04873,51.26227],[0.0518,51.26269],[0.05268,51.26108],[0.05355,51.25742],[0.05427,51.25659],[0.05388,51.254],[0.05513,51.25238],[0.05705,51.25129],[0.05799,51.24892],[0.05824,51.24778],[0.05736,51.24406],[0.05624,51.24318],[0.0556,51.24084],[0.05356,51.23933],[0.05393,51.23814],[0.05308,51.23676],[0.05225,51.23595],[0.05004,51.23478],[0.04573,51.23304],[0.04514,51.23195],[0.04381,51.23089],[0.04386,51.22978],[0.04267,51.22842],[0.04232,51.2273],[0.04353,51.22631],[0.04372,51.22557],[0.04283,51.22461],[0.04231,51.22258],[0.04311,51.22016],[0.04145,51.21825],[0.04115,51.21662],[0.0363,51.21658],[0.03359,51.21434],[0.03472,51.21348],[0.03403,51.21203],[0.03405,51.21174],[0.0346,51.21166],[0.03359,51.21132],[0.03399,51.21088],[0.03377,51.21056],[0.03538,51.20848],[0.03639,51.20815],[0.0362,51.20796],[0.03726,51.20706],[0.03669,51.20517],[0.03579,51.20421],[0.03896,51.20115],[0.03825,51.19979],[0.03838,51.19886],[0.03959,51.19789],[0.03708,51.19729],[0.03038,51.19773],[0.0265,51.19755],[0.02598,51.20124],[0.02667,51.2029],[0.02851,51.20473],[0.02859,51.2053],[0.0271,51.20627],[0.02263,51.21148],[0.01931,51.21383],[0.01791,51.21612],[0.0167,51.2171],[0.01632,51.21802],[0.01656,51.22059],[0.01507,51.22498],[0.01415,51.23359],[0.0155,51.24071],[0.01628,51.24234],[0.01484,51.24539],[0.01481,51.24618],[0.01606,51.24662],[0.02033,51.24648],[0.02157,51.247],[0.02114,51.2474],[0.02164,51.24771],[0.0241,51.24652],[0.02405,51.24534],[0.02605,51.24345],[0.03076,51.24355],[0.03162,51.24322],[0.03274,51.24338],[0.03461,51.24558],[0.03464,51.24661],[0.03582,51.24716],[0.03506,51.24761],[0.0362,51.24755],[0.03652,51.24853],[0.03766,51.2486],[0.03657,51.24978],[0.03556,51.24961],[0.03445,51.24988],[0.03418,51.25105],[0.03273,51.25082],[0.03114,51.25117],[0.02858,51.2505],[0.02794,51.25073],[0.02218,51.25387],[0.02172,51.25654],[0.01929,51.25597],[0.01494,51.25602],[0.01575,51.25687],[0.01672,51.25691],[0.01766,51.25744],[0.01693,51.25796],[0.01569,51.25775],[0.01532,51.25793],[0.01406,51.25928],[0.01466,51.25953],[0.01375,51.25987],[0.01294,51.26077],[0.01302,51.2615],[0.01115,51.26189],[0.00964,51.261],[0.00916,51.26225],[0.00984,51.26243],[0.00867,51.26383],[0.00885,51.26478],[0.00937,51.2648],[0.01295,51.26696],[0.01364,51.26608],[0.01596,51.26589]]]}},{"type":"Feature","properties":{"id":"E01030833","name":"E01030833","parent":"E07000215","type":"LSOA","pop":1494,"r":92,"ff":30,"ffd":2008.0,"ffs":0.4918,"g":29,"co":0,"mo":2,"sa":2,"ic":0},"geometry":{"type":"Polygon","coordinates":[[[-0.02152,51.17862],[-0.02063,51.17714],[-0.02082,51.17643],[-0.02015,51.17524],[-0.01863,51.17517],[-0.017,51.17567],[-0.01493,51.17566],[-0.01471,51.1765],[-0.01234,51.17631],[-0.01147,51.17568],[-0.0133,51.17443],[-0.01417,51.17437],[-0.01439,51.17477],[-0.01521,51.17475],[-0.01508,51.17435],[-0.0156,51.17439],[-0.01511,51.17337],[-0.01536,51.17198],[-0.01457,51.17089],[-0.01201,51.1702],[-0.00707,51.16657],[-0.00727,51.16339],[-0.00914,51.16314],[-0.01506,51.16522],[-0.01605,51.16634],[-0.0164,51.16627],[-0.01706,51.16831],[-0.01752,51.16854],[-0.02058,51.16923],[-0.02443,51.16946],[-0.02745,51.16897],[-0.02762,51.1693],[-0.02843,51.16931],[-0.02915,51.16876],[-0.02996,51.16879],[-0.03073,51.16818],[-0.03286,51.16738],[-0.03454,51.16621],[-0.03556,51.16478],[-0.03784,51.1676],[-0.03906,51.17005],[-0.03925,51.17232],[-0.03802,51.17961],[-0.03673,51.18055],[-0.02893,51.17844],[-0.02855,51.18022],[-0.03106,51.18233],[-0.02849,51.18353],[-0.02688,51.18284],[-0.02617,51.18192],[-0.02454,51.18138],[-0.02358,51.17955],[-0.0214,51.17908],[-0.02152,51.17862]]]}},{"type":"Feature","properties":{"id":"E01030834","name":"E01030834","parent":"E07000215","type":"LSOA","pop":1456,"r":60,"ff":19,"ffd":1304.9,"ffs":0.5,"g":21,"co":0,"mo":2,"sa":2,"ic":0},"geometry":{"type":"Polygon","coordinates":[[[-0.01536,51.22148],[-0.01519,51.22074],[-0.01344,51.22073],[-0.01168,51.22104],[-0.01122,51.22142],[-0.00815,51.22127],[-0.00483,51.21811],[-0.00353,51.21756],[-0.00174,51.21722],[0.00022,51.21776],[0.00069,51.21817],[0.00134,51.21803],[0.00111,51.21767],[0.00181,51.21707],[0.00202,51.21564],[0.0028,51.21562],[0.00281,51.21497],[0.0039,51.21489],[0.00375,51.21436],[0.00676,51.21233],[0.00915,51.21312],[0.01275,51.21544],[0.0167,51.2171],[0.01791,51.21612],[0.01931,51.21383],[0.02263,51.21148],[0.0271,51.20627],[0.02859,51.2053],[0.02851,51.20473],[0.02667,51.2029],[0.02598,51.20124],[0.0265,51.19755],[0.01528,51.1954],[0.01339,51.19545],[0.01303,51.19604],[0.01035,51.19503],[0.00728,51.19459],[0.00618,51.1946],[0.00624,51.19541],[0.0023,51.19611],[-0.00113,51.19598],[-0.00444,51.19472],[-0.00846,51.19232],[-0.00983,51.18689],[-0.01407,51.18601],[-0.01276,51.18375],[-0.01147,51.18401],[-0.01116,51.18367],[-0.01082,51.18281],[-0.01147,51.1829],[-0.01124,51.18244],[-0.01203,51.18263],[-0.01175,51.18222],[-0.00937,51.18067],[-0.00868,51.17905],[-0.00996,51.17995],[-0.01265,51.18014],[-0.01388,51.17961],[-0.01498,51.17881],[-0.01655,51.17858],[-0.01639,51.1792],[-0.01708,51.18062],[-0.01897,51.17972],[-0.0214,51.17908],[-0.02358,51.17955],[-0.02454,51.18138],[-0.02617,51.18192],[-0.02688,51.18284],[-0.02849,51.18353],[-0.03106,51.18233],[-0.02855,51.18022],[-0.02893,51.17844],[-0.03673,51.18055],[-0.03616,51.184],[-0.03532,51.18503],[-0.03532,51.18679],[-0.03151,51.1924],[-0.0311,51.19358],[-0.0313,51.19514],[-0.03059,51.19702],[-0.03091,51.19806],[-0.03152,51.19846],[-0.02982,51.20042],[-0.02878,51.20252],[-0.02865,51.2039],[-0.02418,51.20868],[-0.02405,51.21008],[-0.02369,51.21007],[-0.02308,51.21118],[-0.02303,51.21292],[-0.02039,51.21576],[-0.01989,51.21838],[-0.02056,51.21997],[-0.02029,51.22122],[-0.01952,51.22157],[-0.01916,51.22272],[-0.01806,51.22259],[-0.0174,51.22216],[-0.01611,51.22208],[-0.01536,51.22148]]]}},{"type":"Feature","properties":{"id":"E01030835","name":"E01030835","parent":"E07000215","type":"LSOA","pop":1544,"r":68,"ff":22,"ffd":1424.9,"ffs":0.5,"g":23,"co":0,"mo":2,"sa":2,"ic":0},"geometry":{"type":"Polygon","coordinates":[[[-0.00983,51.18689],[-0.00961,51.1829],[-0.00713,51.17658],[-0.00531,51.17461],[-0.00575,51.17444],[-0.00575,51.17382],[-0.00734,51.17339],[-0.00719,51.1731],[-0.01004,51.17025],[-0.00783,51.16899],[-0.00692,51.16897],[-0.00707,51.16657],[-0.01201,51.1702],[-0.01457,51.17089],[-0.01536,51.17198],[-0.01511,51.17337],[-0.0156,51.17439],[-0.01508,51.17435],[-0.01521,51.17475],[-0.01439,51.17477],[-0.01417,51.17437],[-0.0133,51.17443],[-0.01147,51.17568],[-0.01234,51.17631],[-0.01471,51.1765],[-0.01493,51.17566],[-0.017,51.17567],[-0.01863,51.17517],[-0.02015,51.17524],[-0.02082,51.17643],[-0.02063,51.17714],[-0.02152,51.17862],[-0.0214,51.17908],[-0.01897,51.17972],[-0.01708,51.18062],[-0.01639,51.1792],[-0.01655,51.17858],[-0.01498,51.17881],[-0.01388,51.17961],[-0.01265,51.18014],[-0.00996,51.17995],[-0.00868,51.17905],[-0.00937,51.18067],[-0.01175,51.18222],[-0.01203,51.18263],[-0.01124,51.18244],[-0.01147,51.1829],[-0.01082,51.18281],[-0.01116,51.18367],[-0.01147,51.18401],[-0.01276,51.18375],[-0.01407,51.18601],[-0.00983,51.18689]]]}},{"type":"Feature","properties":{"id":"E01030836","name":"E01030836","parent":"E07000215","type":"LSOA","pop":1778,"r":89,"ff":38,"ffd":2137.2,"ffs":0.6129,"g":27,"co":2,"mo":0,"sa":0,"ic":3},"geometry":{"type":"Polygon","coordinates":[[[-0.01009,51.26439],[-0.01006,51.26395],[-0.0084,51.26424],[-0.00811,51.26333],[-0.00755,51.26345],[-0.00635,51.26304],[-0.00084,51.26342],[-0.00113,51.26204],[-0.00081,51.25796],[-0.00165,51.25741],[-0.00165,51.25688],[-0.00011,51.25563],[-0.00124,51.25523],[-0.00229,51.25413],[-0.00424,51.25274],[-0.00453,51.25205],[-0.0054,51.25195],[-0.00599,51.25216],[-0.00544,51.25248],[-0.00586,51.25288],[-0.0054,51.25326],[-0.00472,51.25307],[-0.00371,51.25422],[-0.00439,51.25448],[-0.00442,51.25494],[-0.00628,51.25471],[-0.0065,51.25575],[-0.00712,51.25569],[-0.00655,51.25596],[-0.00651,51.25642],[-0.00729,51.25675],[-0.00689,51.25862],[-0.00605,51.25882],[-0.00683,51.25946],[-0.00722,51.25946],[-0.00763,51.26112],[-0.01032,51.26205],[-0.013,51.26332],[-0.01235,51.26359],[-0.01256,51.26471],[-0.01327,51.26526],[-0.01277,51.26541],[-0.01282,51.26599],[-0.01129,51.26582],[-0.01183,51.26515],[-0.01009,51.26439]]]}},{"type":"Feature","properties":{"id":"E01030837","name":"E01030837","parent":"E07000215","type":"LSOA","pop":1548,"r":92,"ff":40,"ffd":2584.0,"ffs":0.6349,"g":29,"co":2,"mo":0,"sa":0,"ic":1},"geometry":{"type":"Polygon","coordinates":[[[-0.01725,51.28861],[-0.01395,51.2804],[-0.01182,51.27914],[-0.01133,51.27724],[-0.00948,51.27392],[-0.00897,51.271],[-0.00716,51.26917],[-0.00475,51.2681],[-0.0035,51.26694],[-0.00294,51.2669],[-0.00084,51.26342],[-0.00635,51.26304],[-0.00755,51.26345],[-0.00811,51.26333],[-0.0084,51.26424],[-0.01006,51.26395],[-0.01009,51.26439],[-0.01183,51.26515],[-0.01129,51.26582],[-0.01282,51.26599],[-0.01277,51.26541],[-0.01327,51.26526],[-0.01256,51.26471],[-0.01235,51.26359],[-0.013,51.26332],[-0.01032,51.26205],[-0.01311,51.26185],[-0.01259,51.26067],[-0.01461,51.25816],[-0.01927,51.2586],[-0.01998,51.2572],[-0.02107,51.25619],[-0.02219,51.2558],[-0.023,51.25479],[-0.02038,51.25358],[-0.01986,51.25253],[-0.01926,51.25228],[-0.02375,51.2507],[-0.02339,51.25125],[-0.02385,51.25379],[-0.02701,51.25557],[-0.02947,51.25908],[-0.03014,51.25904],[-0.03049,51.25941],[-0.03231,51.25992],[-0.03154,51.26167],[-0.03257,51.26311],[-0.03523,51.26357],[-0.03613,51.26409],[-0.03621,51.26462],[-0.03517,51.26622],[-0.03213,51.26744],[-0.0322,51.26852],[-0.03102,51.27031],[-0.02723,51.27122],[-0.02593,51.27196],[-0.02465,51.27179],[-0.02361,51.27213],[-0.02382,51.27358],[-0.02169,51.27442],[-0.02314,51.2767],[-0.0221,51.27821],[-0.02567,51.28238],[-0.02748,51.28363],[-0.02775,51.28436],[-0.02668,51.28638],[-0.02613,51.28636],[-0.02652,51.28975],[-0.02341,51.28915],[-0.01725,51.28861]]]}},{"type":"Feature","properties":{"id":"E01030838","name":"E01030838","parent":"E07000215","type":"LSOA","pop":1461,"r":80,"ff":34,"ffd":2327.2,"ffs":0.6071,"g":24,"co":2,"mo":0,"sa":0,"ic":3},"geometry":{"type":"Polygon","coordinates":[[[-0.03154,51.26167],[-0.03231,51.25992],[-0.03049,51.25941],[-0.03014,51.25904],[-0.02947,51.25908],[-0.02701,51.25557],[-0.02385,51.25379],[-0.02339,51.25125],[-0.02375,51.2507],[-0.0175,51.25275],[-0.01686,51.25225],[-0.01458,51.25296],[-0.01441,51.25343],[-0.01515,51.25387],[-0.01487,51.25452],[-0.01271,51.25445],[-0.01187,51.25483],[-0.01088,51.25469],[-0.01057,51.25429],[-0.01086,51.2537],[-0.00903,51.25409],[-0.00901,51.25355],[-0.01094,51.25272],[-0.01077,51.25215],[-0.01162,51.25218],[-0.01095,51.25273],[-0.01155,51.25345],[-0.01238,51.25305],[-0.0127,51.25228],[-0.0123,51.25086],[-0.01096,51.24974],[-0.01039,51.24959],[-0.00948,51.24989],[-0.00801,51.24929],[-0.00779,51.24867],[-0.0107,51.2487],[-0.01324,51.24803],[-0.01503,51.24559],[-0.02082,51.24642],[-0.02144,51.24594],[-0.02217,51.24392],[-0.02292,51.24332],[-0.02218,51.24111],[-0.02066,51.23871],[-0.02079,51.23592],[-0.02038,51.23526],[-0.02029,51.23207],[-0.01924,51.22896],[-0.0196,51.22539],[-0.01916,51.22272],[-0.01952,51.22157],[-0.02029,51.22122],[-0.02056,51.21997],[-0.01989,51.21838],[-0.02039,51.21576],[-0.02303,51.21292],[-0.02308,51.21118],[-0.02369,51.21007],[-0.02405,51.21008],[-0.02418,51.20868],[-0.02865,51.2039],[-0.02878,51.20252],[-0.02982,51.20042],[-0.03152,51.19846],[-0.03091,51.19806],[-0.03059,51.19702],[-0.0313,51.19514],[-0.0311,51.19358],[-0.03151,51.1924],[-0.03532,51.18679],[-0.03532,51.18503],[-0.03616,51.184],[-0.0367,51.18058],[-0.04163,51.18305],[-0.04342,51.18329],[-0.04368,51.18786],[-0.04152,51.18958],[-0.04061,51.19095],[-0.04163,51.19469],[-0.04154,51.19685],[-0.04047,51.19912],[-0.03798,51.20208],[-0.0362,51.20605],[-0.03412,51.20855],[-0.03652,51.21132],[-0.03622,51.21401],[-0.0377,51.21668],[-0.04037,51.22125],[-0.04273,51.22329],[-0.04358,51.22506],[-0.04293,51.22737],[-0.04287,51.22884],[-0.04396,51.23042],[-0.04424,51.23201],[-0.04465,51.23306],[-0.04437,51.23473],[-0.04633,51.23729],[-0.04636,51.24207],[-0.04758,51.24331],[-0.05011,51.24776],[-0.04977,51.24913],[-0.0502,51.25005],[-0.04986,51.25372],[-0.04856,51.25646],[-0.04731,51.25753],[-0.04757,51.25962],[-0.04678,51.26126],[-0.04353,51.26099],[-0.0422,51.26122],[-0.04088,51.26209],[-0.0398,51.26444],[-0.03517,51.26622],[-0.03621,51.26462],[-0.03613,51.26409],[-0.03523,51.26357],[-0.03257,51.26311],[-0.03154,51.26167]]]}},{"type":"Feature","properties":{"id":"E01030839","name":"E01030839","parent":"E07000215","type":"LSOA","pop":1525,"r":89,"ff":37,"ffd":2426.2,"ffs":0.6066,"g":28,"co":2,"mo":0,"sa":0,"ic":3},"geometry":{"type":"Polygon","coordinates":[[[-0.00763,51.26112],[-0.00722,51.25946],[-0.00683,51.25946],[-0.00605,51.25882],[-0.00689,51.25862],[-0.00729,51.25675],[-0.00651,51.25642],[-0.00655,51.25596],[-0.00712,51.25569],[-0.0065,51.25575],[-0.00628,51.25471],[-0.00442,51.25494],[-0.00439,51.25448],[-0.00371,51.25422],[-0.00472,51.25307],[-0.0054,51.25326],[-0.00586,51.25288],[-0.00544,51.25248],[-0.00599,51.25216],[-0.0054,51.25195],[-0.00453,51.25205],[-0.00424,51.25274],[-0.00229,51.25413],[-0.00124,51.25523],[-0.00011,51.25563],[0.00225,51.25369],[0.00254,51.25263],[0.00195,51.25244],[0.00277,51.25171],[0.00437,51.25074],[0.00074,51.24904],[-0.00183,51.24973],[-0.00452,51.24966],[-0.00779,51.24867],[-0.00801,51.24929],[-0.00948,51.24989],[-0.01039,51.24959],[-0.01096,51.24974],[-0.0123,51.25086],[-0.0127,51.25228],[-0.01238,51.25305],[-0.01155,51.25345],[-0.01095,51.25273],[-0.01162,51.25218],[-0.01077,51.25215],[-0.01094,51.25272],[-0.00901,51.25355],[-0.00903,51.25409],[-0.01086,51.2537],[-0.01057,51.25429],[-0.01088,51.25469],[-0.01187,51.25483],[-0.01271,51.25445],[-0.01487,51.25452],[-0.01515,51.25387],[-0.01441,51.25343],[-0.01458,51.25296],[-0.01686,51.25225],[-0.0175,51.25275],[-0.01926,51.25228],[-0.01986,51.25253],[-0.02038,51.25358],[-0.023,51.25479],[-0.02219,51.2558],[-0.02107,51.25619],[-0.01998,51.2572],[-0.01927,51.2586],[-0.01461,51.25816],[-0.01259,51.26067],[-0.01311,51.26185],[-0.01032,51.26205],[-0.00763,51.26112]]]}},{"type":"Feature","properties":{"id":"E01030840","name":"E01030840","parent":"E07000215","type":"LSOA","pop":1451,"r":57,"ff":19,"ffd":1309.4,"ffs":0.5429,"g":22,"co":2,"mo":0,"sa":0,"ic":3},"geometry":{"type":"Polygon","coordinates":[[[0.01014,51.24732],[0.01029,51.24705],[0.01117,51.24708],[0.01135,51.24587],[0.01474,51.24584],[0.01628,51.24234],[0.01559,51.24245],[0.01546,51.24316],[0.0148,51.24343],[0.01125,51.24304],[0.01051,51.2426],[0.01017,51.24277],[0.0106,51.24465],[0.01027,51.24503],[0.00995,51.24509],[0.0097,51.24387],[0.00883,51.24343],[0.00749,51.24382],[0.00698,51.24452],[0.00625,51.24437],[0.00775,51.24258],[0.00882,51.24229],[0.00912,51.24168],[0.00951,51.24194],[0.01136,51.24174],[0.01156,51.24108],[0.00956,51.24069],[0.00859,51.24112],[0.00862,51.24066],[0.00948,51.23999],[0.0093,51.23931],[0.00795,51.23924],[0.00788,51.23983],[0.00847,51.23995],[0.00777,51.24037],[0.00759,51.23993],[0.0061,51.23965],[0.00568,51.24004],[0.00664,51.2406],[0.0059,51.24122],[0.0065,51.24212],[0.00588,51.24239],[0.0062,51.24264],[0.00441,51.24395],[0.00546,51.24506],[0.00669,51.24559],[0.00664,51.24613],[0.00772,51.24639],[0.00783,51.24705],[0.00894,51.24687],[0.01014,51.24732]]]}},{"type":"Feature","properties":{"id":"E01030841","name":"E01030841","parent":"E07000215","type":"LSOA","pop":1406,"r":59,"ff":21,"ffd":1493.6,"ffs":0.5526,"g":21,"co":2,"mo":1,"sa":0,"ic":3},"geometry":{"type":"Polygon","coordinates":[[[0.00752,51.24935],[0.01014,51.24732],[0.00894,51.24687],[0.00783,51.24705],[0.00772,51.24639],[0.00664,51.24613],[0.00669,51.24559],[0.00546,51.24506],[0.00441,51.24395],[0.0062,51.24264],[0.00588,51.24239],[0.0065,51.24212],[0.0059,51.24122],[0.00664,51.2406],[0.00568,51.24004],[0.0061,51.23965],[0.00626,51.23848],[0.005,51.23806],[0.00402,51.23984],[0.00286,51.24004],[0.00312,51.24072],[0.0026,51.24106],[0.00292,51.24163],[0.0024,51.24171],[0.00158,51.24261],[0.00123,51.24248],[0.00083,51.24311],[9e-05,51.24322],[-0.00042,51.24271],[-0.00302,51.24264],[-0.00283,51.24376],[-0.00377,51.24503],[-0.00618,51.24523],[-0.00917,51.24633],[-0.00828,51.24795],[-0.00861,51.24869],[-0.00779,51.24867],[-0.00452,51.24966],[-0.00183,51.24973],[0.00074,51.24904],[0.00437,51.25074],[0.00752,51.24935]]]}},{"type":"Feature","properties":{"id":"E01030842","name":"E01030842","parent":"E07000215","type":"LSOA","pop":2371,"r":53,"ff":19,"ffd":801.3,"ffs":0.5758,"g":20,"co":2,"mo":1,"sa":0,"ic":3},"geometry":{"type":"Polygon","coordinates":[[[0.0106,51.24465],[0.01017,51.24277],[0.01051,51.2426],[0.01125,51.24304],[0.0148,51.24343],[0.01546,51.24316],[0.01559,51.24245],[0.01628,51.24234],[0.0155,51.24071],[0.01415,51.23359],[0.01462,51.22885],[0.01178,51.22879],[0.01073,51.22946],[0.00759,51.23013],[0.00571,51.23139],[0.00772,51.23285],[0.00801,51.23402],[0.00921,51.23536],[0.00783,51.23773],[0.00877,51.23791],[0.00909,51.23852],[0.01058,51.23937],[0.00979,51.23988],[0.01183,51.23939],[0.01234,51.23942],[0.00956,51.24069],[0.01156,51.24108],[0.01136,51.24174],[0.00951,51.24194],[0.00912,51.24168],[0.00882,51.24229],[0.00775,51.24258],[0.00625,51.24437],[0.00698,51.24452],[0.00749,51.24382],[0.00883,51.24343],[0.0097,51.24387],[0.00995,51.24509],[0.01027,51.24503],[0.0106,51.24465]]]}},{"type":"Feature","properties":{"id":"E01030843","name":"E01030843","parent":"E07000215","type":"LSOA","pop":1491,"r":47,"ff":16,"ffd":1073.1,"ffs":0.5333,"g":17,"co":2,"mo":1,"sa":0,"ic":3},"geometry":{"type":"Polygon","coordinates":[[[-0.00917,51.24633],[-0.00618,51.24523],[-0.00377,51.24503],[-0.00283,51.24376],[-0.00302,51.24264],[-0.00042,51.24271],[9e-05,51.24322],[0.00083,51.24311],[0.00123,51.24248],[0.00158,51.24261],[0.0024,51.24171],[0.00292,51.24163],[0.0026,51.24106],[0.00312,51.24072],[0.00286,51.24004],[0.00402,51.23984],[0.005,51.23806],[0.00626,51.23848],[0.0061,51.23965],[0.00759,51.23993],[0.00777,51.24037],[0.00847,51.23995],[0.00788,51.23983],[0.00795,51.23924],[0.0093,51.23931],[0.00948,51.23999],[0.00862,51.24066],[0.00859,51.24112],[0.01234,51.23942],[0.01183,51.23939],[0.00979,51.23988],[0.01058,51.23937],[0.00909,51.23852],[0.00877,51.23791],[0.00783,51.23773],[0.00921,51.23536],[0.00801,51.23402],[0.00772,51.23285],[0.00571,51.23139],[0.00759,51.23013],[0.01073,51.22946],[0.01178,51.22879],[0.01462,51.22885],[0.01507,51.22498],[0.01656,51.22059],[0.01632,51.21802],[0.0167,51.2171],[0.01275,51.21544],[0.00915,51.21312],[0.00676,51.21233],[0.00375,51.21436],[0.0039,51.21489],[0.00281,51.21497],[0.0028,51.21562],[0.00202,51.21564],[0.00181,51.21707],[0.00111,51.21767],[0.00134,51.21803],[0.00069,51.21817],[0.00022,51.21776],[-0.00174,51.21722],[-0.00353,51.21756],[-0.00483,51.21811],[-0.00815,51.22127],[-0.01122,51.22142],[-0.01168,51.22104],[-0.01344,51.22073],[-0.01519,51.22074],[-0.01536,51.22148],[-0.01611,51.22208],[-0.0174,51.22216],[-0.01806,51.22259],[-0.01916,51.22272],[-0.0196,51.22539],[-0.01924,51.22896],[-0.02029,51.23207],[-0.02038,51.23526],[-0.02079,51.23592],[-0.02066,51.23871],[-0.02218,51.24111],[-0.02292,51.24332],[-0.02217,51.24392],[-0.02144,51.24594],[-0.02082,51.24642],[-0.01503,51.24559],[-0.01324,51.24803],[-0.0107,51.2487],[-0.00861,51.24869],[-0.00828,51.24795],[-0.00917,51.24633]]]}},{"type":"Feature","properties":{"id":"E01030844","name":"E01030844","parent":"E07000215","type":"LSOA","pop":1827,"r":227,"ff":101,"ffd":5528.2,"ffs":0.5706,"g":50,"co":0,"mo":0,"sa":0,"ic":0},"geometry":{"type":"Polygon","coordinates":[[[-0.08625,51.30528],[-0.08823,51.30148],[-0.08867,51.30203],[-0.0901,51.30181],[-0.09095,51.30091],[-0.09004,51.29898],[-0.09321,51.29805],[-0.09278,51.2976],[-0.09176,51.29757],[-0.09096,51.29626],[-0.09231,51.29583],[-0.09158,51.29458],[-0.09308,51.29427],[-0.09318,51.29313],[-0.09393,51.2933],[-0.09414,51.29175],[-0.09485,51.29179],[-0.09494,51.29225],[-0.09633,51.29251],[-0.09655,51.29383],[-0.09768,51.29381],[-0.09814,51.29588],[-0.09751,51.29645],[-0.0959,51.29666],[-0.09611,51.29705],[-0.09524,51.29716],[-0.09616,51.29851],[-0.09428,51.29944],[-0.09577,51.2996],[-0.09724,51.3003],[-0.09738,51.30111],[-0.09603,51.30152],[-0.09528,51.30133],[-0.09478,51.30069],[-0.09397,51.30071],[-0.09117,51.30147],[-0.09088,51.30318],[-0.09117,51.30339],[-0.09072,51.30395],[-0.08971,51.30397],[-0.08873,51.3051],[-0.08758,51.30542],[-0.08625,51.30528]]]}},{"type":"Feature","properties":{"id":"E01030845","name":"E01030845","parent":"E07000215","type":"LSOA","pop":1234,"r":217,"ff":100,"ffd":8103.7,"ffs":0.5848,"g":46,"co":0,"mo":0,"sa":0,"ic":0},"geometry":{"type":"Polygon","coordinates":[[[-0.09782,51.29443],[-0.09768,51.29381],[-0.09655,51.29383],[-0.09633,51.29251],[-0.09707,51.29145],[-0.09521,51.29132],[-0.09563,51.29072],[-0.09899,51.2916],[-0.10045,51.29254],[-0.10104,51.29314],[-0.10128,51.29438],[-0.10099,51.29563],[-0.10114,51.29629],[-0.09616,51.29851],[-0.09524,51.29716],[-0.09611,51.29705],[-0.0959,51.29666],[-0.09751,51.29645],[-0.09814,51.29588],[-0.09782,51.29443]]]}},{"type":"Feature","properties":{"id":"E01030846","name":"E01030846","parent":"E07000215","type":"LSOA","pop":1704,"r":219,"ff":100,"ffd":5868.5,"ffs":0.5882,"g":49,"co":0,"mo":0,"sa":0,"ic":0},"geometry":{"type":"Polygon","coordinates":[[[-0.08823,51.30148],[-0.08852,51.29939],[-0.08699,51.29996],[-0.086,51.29974],[-0.08432,51.29656],[-0.0833,51.29661],[-0.08173,51.29607],[-0.08215,51.29437],[-0.08171,51.29432],[-0.08128,51.29211],[-0.08528,51.29251],[-0.09087,51.29018],[-0.09418,51.29038],[-0.09563,51.29072],[-0.09521,51.29132],[-0.09707,51.29145],[-0.09633,51.29251],[-0.09494,51.29225],[-0.09485,51.29179],[-0.09414,51.29175],[-0.09393,51.2933],[-0.09318,51.29313],[-0.09308,51.29427],[-0.09158,51.29458],[-0.09231,51.29583],[-0.09096,51.29626],[-0.09176,51.29757],[-0.09278,51.2976],[-0.09321,51.29805],[-0.09004,51.29898],[-0.09095,51.30091],[-0.0901,51.30181],[-0.08867,51.30203],[-0.08823,51.30148]]]}},{"type":"Feature","properties":{"id":"E01030847","name":"E01030847","parent":"E07000215","type":"LSOA","pop":1556,"r":195,"ff":91,"ffd":5848.3,"ffs":0.5909,"g":41,"co":0,"mo":0,"sa":0,"ic":1},"geometry":{"type":"Polygon","coordinates":[[[-0.07975,51.29055],[-0.08084,51.28873],[-0.08117,51.2888],[-0.08252,51.2872],[-0.0831,51.28537],[-0.08211,51.28522],[-0.08178,51.28429],[-0.08046,51.28301],[-0.08246,51.28163],[-0.08484,51.28133],[-0.08435,51.2812],[-0.0856,51.28066],[-0.08658,51.27983],[-0.08868,51.27633],[-0.08988,51.2763],[-0.08988,51.27755],[-0.09286,51.27725],[-0.09439,51.28098],[-0.09393,51.28105],[-0.09394,51.28257],[-0.09261,51.28197],[-0.09217,51.28231],[-0.09359,51.2832],[-0.09338,51.28372],[-0.08877,51.28424],[-0.08852,51.28498],[-0.08804,51.28501],[-0.08717,51.2844],[-0.08717,51.28538],[-0.08845,51.28616],[-0.08777,51.28639],[-0.08759,51.28682],[-0.08807,51.28683],[-0.08837,51.28773],[-0.08916,51.28775],[-0.08893,51.28722],[-0.08983,51.28724],[-0.08978,51.28782],[-0.0905,51.2879],[-0.08995,51.28849],[-0.09056,51.28891],[-0.08982,51.28946],[-0.08913,51.28876],[-0.08936,51.29088],[-0.08528,51.29251],[-0.08088,51.29209],[-0.07963,51.29162],[-0.08022,51.29076],[-0.07975,51.29055]]]}},{"type":"Feature","properties":{"id":"E01030848","name":"E01030848","parent":"E07000215","type":"LSOA","pop":2340,"r":196,"ff":93,"ffd":3974.4,"ffs":0.5924,"g":39,"co":0,"mo":0,"sa":0,"ic":1},"geometry":{"type":"Polygon","coordinates":[[[-0.08936,51.29082],[-0.08913,51.28876],[-0.08982,51.28946],[-0.09056,51.28891],[-0.08995,51.28849],[-0.0905,51.2879],[-0.08978,51.28782],[-0.08983,51.28724],[-0.08893,51.28722],[-0.08916,51.28775],[-0.08837,51.28773],[-0.08807,51.28683],[-0.08759,51.28682],[-0.08777,51.28639],[-0.08845,51.28616],[-0.08717,51.28538],[-0.08717,51.2844],[-0.08804,51.28501],[-0.08852,51.28498],[-0.08877,51.28424],[-0.09338,51.28372],[-0.09359,51.2832],[-0.09217,51.28231],[-0.09261,51.28197],[-0.09394,51.28257],[-0.09393,51.28105],[-0.09439,51.28098],[-0.0971,51.28078],[-0.09911,51.28275],[-0.0995,51.28265],[-0.0998,51.28293],[-0.09676,51.28445],[-0.09686,51.28545],[-0.09619,51.28576],[-0.09662,51.28648],[-0.09598,51.28679],[-0.0963,51.28703],[-0.09499,51.28767],[-0.09566,51.28775],[-0.09552,51.28814],[-0.09592,51.28822],[-0.09505,51.29009],[-0.09445,51.28994],[-0.09418,51.29038],[-0.09087,51.29018],[-0.08936,51.29082]]]}},{"type":"Feature","properties":{"id":"E01030850","name":"E01030850","parent":"E07000215","type":"LSOA","pop":2652,"r":194,"ff":91,"ffd":3431.4,"ffs":0.5871,"g":39,"co":0,"mo":0,"sa":0,"ic":1},"geometry":{"type":"Polygon","coordinates":[[[-0.07687,51.29071],[-0.0759,51.29037],[-0.07572,51.29056],[-0.07449,51.29018],[-0.0754,51.28896],[-0.07483,51.28885],[-0.07394,51.28929],[-0.07328,51.28901],[-0.07273,51.28917],[-0.07144,51.28808],[-0.07114,51.28597],[-0.07078,51.28624],[-0.07037,51.28613],[-0.07089,51.28557],[-0.06829,51.28299],[-0.06813,51.28263],[-0.06979,51.28193],[-0.07029,51.28121],[-0.07075,51.28119],[-0.07163,51.2812],[-0.07385,51.28297],[-0.07525,51.28345],[-0.07763,51.28279],[-0.07719,51.2822],[-0.07883,51.28195],[-0.08089,51.2827],[-0.08046,51.28301],[-0.08178,51.28429],[-0.08211,51.28522],[-0.0831,51.28537],[-0.08264,51.28699],[-0.08117,51.2888],[-0.08026,51.28856],[-0.07911,51.29014],[-0.07819,51.28968],[-0.07687,51.29071]]]}},{"type":"Feature","properties":{"id":"E01030851","name":"E01030851","parent":"E07000215","type":"LSOA","pop":2143,"r":208,"ff":94,"ffd":4386.4,"ffs":0.5767,"g":45,"co":0,"mo":0,"sa":0,"ic":1},"geometry":{"type":"Polygon","coordinates":[[[-0.06933,51.29626],[-0.06918,51.29247],[-0.06738,51.29097],[-0.06678,51.29016],[-0.067,51.28901],[-0.07037,51.28613],[-0.07078,51.28624],[-0.07114,51.28597],[-0.07144,51.28808],[-0.07273,51.28917],[-0.07328,51.28901],[-0.07394,51.28929],[-0.07483,51.28885],[-0.0754,51.28896],[-0.07449,51.29018],[-0.07572,51.29056],[-0.0759,51.29037],[-0.07687,51.29071],[-0.07819,51.28968],[-0.07911,51.29014],[-0.08026,51.28856],[-0.08084,51.28873],[-0.07975,51.29055],[-0.08022,51.29076],[-0.07963,51.29162],[-0.08088,51.29209],[-0.07776,51.29438],[-0.07659,51.29435],[-0.07551,51.29483],[-0.07449,51.29617],[-0.07306,51.29694],[-0.07068,51.29767],[-0.06971,51.29701],[-0.06933,51.29626]]]}},{"type":"Feature","properties":{"id":"E01030852","name":"E01030852","parent":"E07000215","type":"LSOA","pop":1995,"r":205,"ff":93,"ffd":4661.7,"ffs":0.5776,"g":44,"co":2,"mo":0,"sa":0,"ic":1},"geometry":{"type":"Polygon","coordinates":[[[-0.02237,51.33821],[-0.02056,51.33714],[-0.01778,51.33293],[-0.01703,51.3329],[-0.01594,51.33201],[-0.01433,51.32981],[-0.01352,51.33153],[-0.01189,51.33289],[-0.01066,51.33309],[-0.01099,51.33356],[-0.01066,51.33376],[-0.00887,51.3339],[-0.00713,51.33367],[-0.00721,51.33339],[-0.00168,51.33031],[-0.0005,51.32878],[0.00229,51.32914],[0.00491,51.32195],[0.00555,51.31844],[0.00658,51.31565],[0.01035,51.31614],[0.00839,51.31036],[0.01216,51.2996],[0.00672,51.2978],[-0.00032,51.29632],[-0.00295,51.29408],[-0.00657,51.29193],[-0.01222,51.29107],[-0.01497,51.29015],[-0.01725,51.28861],[-0.02341,51.28915],[-0.02652,51.28975],[-0.02676,51.29035],[-0.02594,51.29132],[-0.02645,51.29761],[-0.02727,51.29925],[-0.0293,51.30063],[-0.03042,51.30378],[-0.0318,51.30406],[-0.03087,51.30243],[-0.03087,51.30152],[-0.03177,51.30056],[-0.03313,51.30092],[-0.03744,51.30073],[-0.03785,51.30296],[-0.0406,51.30506],[-0.04152,51.30477],[-0.041,51.30363],[-0.04437,51.30298],[-0.04508,51.30374],[-0.05063,51.30234],[-0.05175,51.30163],[-0.05304,51.30203],[-0.05338,51.3016],[-0.05372,51.30182],[-0.05321,51.30229],[-0.05316,51.30318],[-0.05388,51.30413],[-0.05111,51.30459],[-0.05027,51.30533],[-0.04842,51.30552],[-0.04855,51.30772],[-0.04318,51.30702],[-0.0425,51.30709],[-0.04079,51.3065],[-0.04011,51.30699],[-0.04119,51.30727],[-0.04174,51.30796],[-0.04021,51.31004],[-0.03476,51.31267],[-0.03372,51.31478],[-0.03474,51.31507],[-0.03582,51.31587],[-0.03752,51.3152],[-0.04087,51.31724],[-0.04185,51.31739],[-0.04271,51.31704],[-0.04338,51.31723],[-0.04246,51.31969],[-0.04282,51.31996],[-0.04248,51.32264],[-0.04527,51.32271],[-0.0512,51.32205],[-0.05127,51.32344],[-0.04977,51.32527],[-0.04787,51.32525],[-0.04783,51.32651],[-0.04907,51.32861],[-0.04875,51.32872],[-0.05108,51.33085],[-0.05104,51.33159],[-0.05007,51.33205],[-0.05026,51.33264],[-0.04847,51.33279],[-0.04655,51.33348],[-0.04197,51.33381],[-0.03947,51.33761],[-0.03797,51.33864],[-0.03428,51.338],[-0.03277,51.33744],[-0.03068,51.33752],[-0.02596,51.33856],[-0.02237,51.33821]]]}},{"type":"Feature","properties":{"id":"E01030853","name":"E01030853","parent":"E07000215","type":"LSOA","pop":1719,"r":286,"ff":120,"ffd":6980.8,"ffs":0.5455,"g":64,"co":2,"mo":0,"sa":0,"ic":0},"geometry":{"type":"Polygon","coordinates":[[[-0.05679,51.31783],[-0.0533,51.31758],[-0.04991,51.3189],[-0.04883,51.31707],[-0.04502,51.31577],[-0.04549,51.31531],[-0.0468,51.3158],[-0.04948,51.31535],[-0.05161,51.31419],[-0.05202,51.31268],[-0.05342,51.31301],[-0.05422,51.31363],[-0.05589,51.31282],[-0.05598,51.31237],[-0.0551,51.31167],[-0.05444,51.31191],[-0.05371,51.31154],[-0.0524,51.31159],[-0.05349,51.31055],[-0.05442,51.31059],[-0.05444,51.30949],[-0.05062,51.30922],[-0.05084,51.3083],[-0.05198,51.30802],[-0.05186,51.307],[-0.05389,51.30703],[-0.05354,51.30565],[-0.05253,51.30445],[-0.05388,51.30413],[-0.05661,51.31018],[-0.05787,51.31115],[-0.06042,51.31389],[-0.06399,51.31864],[-0.06208,51.3192],[-0.06066,51.32006],[-0.05839,51.32038],[-0.05625,51.32166],[-0.05594,51.31988],[-0.05679,51.31783]]]}},{"type":"Feature","properties":{"id":"E01030854","name":"E01030854","parent":"E07000215","type":"LSOA","pop":1985,"r":205,"ff":93,"ffd":4685.1,"ffs":0.5776,"g":44,"co":2,"mo":0,"sa":0,"ic":1},"geometry":{"type":"Polygon","coordinates":[[[-0.04248,51.32264],[-0.04282,51.31996],[-0.04246,51.31969],[-0.04338,51.31723],[-0.04271,51.31704],[-0.04185,51.31739],[-0.04087,51.31724],[-0.03752,51.3152],[-0.03582,51.31587],[-0.03474,51.31507],[-0.03372,51.31478],[-0.03476,51.31267],[-0.04021,51.31004],[-0.04174,51.30796],[-0.04119,51.30727],[-0.04011,51.30699],[-0.04079,51.3065],[-0.0425,51.30709],[-0.04318,51.30702],[-0.04855,51.30772],[-0.04842,51.30552],[-0.05027,51.30533],[-0.05111,51.30459],[-0.05253,51.30445],[-0.05354,51.30565],[-0.05389,51.30703],[-0.05186,51.307],[-0.05198,51.30802],[-0.05084,51.3083],[-0.05062,51.30922],[-0.05444,51.30949],[-0.05442,51.31059],[-0.05349,51.31055],[-0.0524,51.31159],[-0.05371,51.31154],[-0.05444,51.31191],[-0.0551,51.31167],[-0.05598,51.31237],[-0.05589,51.31282],[-0.05422,51.31363],[-0.05342,51.31301],[-0.05202,51.31268],[-0.05161,51.31419],[-0.04948,51.31535],[-0.0468,51.3158],[-0.04549,51.31531],[-0.04502,51.31577],[-0.04883,51.31707],[-0.04991,51.3189],[-0.0533,51.31758],[-0.05679,51.31783],[-0.05594,51.31988],[-0.05614,51.32159],[-0.05488,51.32126],[-0.05248,51.32238],[-0.05131,51.32245],[-0.0512,51.32205],[-0.05057,51.32205],[-0.04527,51.32271],[-0.04248,51.32264]]]}},{"type":"Feature","properties":{"id":"E01030855","name":"E01030855","parent":"E07000215","type":"LSOA","pop":2130,"r":242,"ff":112,"ffd":5258.2,"ffs":0.5833,"g":48,"co":2,"mo":0,"sa":0,"ic":0},"geometry":{"type":"Polygon","coordinates":[[[-0.07173,51.30984],[-0.0715,51.30914],[-0.06946,51.30842],[-0.0671,51.30691],[-0.06515,51.30619],[-0.06371,51.3064],[-0.06128,51.30755],[-0.06006,51.30779],[-0.0586,51.30651],[-0.05811,51.30674],[-0.05616,51.30617],[-0.05439,51.3032],[-0.05569,51.3026],[-0.05743,51.30229],[-0.05771,51.30273],[-0.05705,51.30394],[-0.05761,51.30444],[-0.05876,51.30475],[-0.05965,51.30363],[-0.06027,51.30359],[-0.06011,51.30311],[-0.06068,51.30293],[-0.06036,51.30246],[-0.05893,51.30282],[-0.05652,51.30059],[-0.05628,51.29994],[-0.05748,51.29875],[-0.05665,51.29697],[-0.05899,51.29676],[-0.06007,51.29627],[-0.06246,51.29693],[-0.06214,51.29778],[-0.06738,51.30005],[-0.06792,51.29985],[-0.06877,51.30096],[-0.07001,51.30029],[-0.07206,51.30161],[-0.07357,51.30356],[-0.07504,51.30442],[-0.07557,51.30528],[-0.07104,51.30554],[-0.07148,51.30592],[-0.07263,51.30629],[-0.07536,51.3065],[-0.07603,51.30677],[-0.07569,51.30724],[-0.07515,51.30883],[-0.07464,51.30878],[-0.07429,51.3093],[-0.0734,51.3095],[-0.0723,51.3093],[-0.07203,51.3095],[-0.0729,51.31038],[-0.07173,51.30984]]]}},{"type":"Feature","properties":{"id":"E01030856","name":"E01030856","parent":"E07000215","type":"LSOA","pop":1563,"r":205,"ff":93,"ffd":5950.1,"ffs":0.5776,"g":44,"co":2,"mo":0,"sa":0,"ic":1},"geometry":{"type":"Polygon","coordinates":[[[-0.06941,51.31887],[-0.06399,51.31864],[-0.06042,51.31389],[-0.05787,51.31115],[-0.05661,51.31018],[-0.05388,51.30413],[-0.05316,51.30318],[-0.05321,51.30229],[-0.05372,51.30182],[-0.05338,51.3016],[-0.05628,51.29994],[-0.05652,51.30059],[-0.05893,51.30282],[-0.06036,51.30246],[-0.06068,51.30293],[-0.06011,51.30311],[-0.06027,51.30359],[-0.05965,51.30363],[-0.05876,51.30475],[-0.05761,51.30444],[-0.05705,51.30394],[-0.05771,51.30273],[-0.05743,51.30229],[-0.05569,51.3026],[-0.05439,51.3032],[-0.05616,51.30617],[-0.05811,51.30674],[-0.0586,51.30651],[-0.06006,51.30779],[-0.06128,51.30755],[-0.06371,51.3064],[-0.06502,51.3062],[-0.0671,51.30691],[-0.06946,51.30842],[-0.0715,51.30914],[-0.07173,51.30984],[-0.0729,51.31038],[-0.07238,51.31094],[-0.06925,51.31151],[-0.06883,51.31186],[-0.06899,51.31232],[-0.07004,51.31279],[-0.0789,51.31298],[-0.08216,51.31692],[-0.08133,51.31679],[-0.08019,51.31782],[-0.07883,51.31814],[-0.07886,51.31977],[-0.07587,51.32006],[-0.07102,51.32123],[-0.07003,51.31889],[-0.06941,51.31887]]]}},{"type":"Feature","properties":{"id":"E01030857","name":"E01030857","parent":"E07000215","type":"LSOA","pop":2215,"r":197,"ff":94,"ffd":4243.8,"ffs":0.5987,"g":40,"co":0,"mo":0,"sa":0,"ic":0},"geometry":{"type":"Polygon","coordinates":[[[-0.10104,51.29314],[-0.10045,51.29254],[-0.10207,51.2931],[-0.10258,51.29275],[-0.10152,51.29101],[-0.10076,51.29126],[-0.09999,51.29021],[-0.1006,51.2902],[-0.10031,51.2889],[-0.10098,51.28882],[-0.10104,51.28847],[-0.10229,51.28824],[-0.10263,51.28869],[-0.10309,51.28851],[-0.10286,51.28824],[-0.10343,51.28814],[-0.10428,51.28877],[-0.10527,51.28852],[-0.10631,51.29032],[-0.10925,51.29059],[-0.11573,51.29073],[-0.11512,51.29146],[-0.11459,51.29153],[-0.11482,51.29243],[-0.11105,51.29225],[-0.10254,51.29604],[-0.10114,51.29629],[-0.10099,51.29563],[-0.10128,51.29438],[-0.10104,51.29314]]]}},{"type":"Feature","properties":{"id":"E01030858","name":"E01030858","parent":"E07000215","type":"LSOA","pop":2751,"r":196,"ff":93,"ffd":3380.6,"ffs":0.5924,"g":39,"co":0,"mo":0,"sa":0,"ic":1},"geometry":{"type":"Polygon","coordinates":[[[-0.09899,51.2916],[-0.09418,51.29038],[-0.09445,51.28994],[-0.09505,51.29009],[-0.09592,51.28822],[-0.09552,51.28814],[-0.09566,51.28775],[-0.09499,51.28767],[-0.0963,51.28703],[-0.09598,51.28679],[-0.09662,51.28648],[-0.09619,51.28576],[-0.09686,51.28545],[-0.09676,51.28445],[-0.10061,51.28258],[-0.10544,51.28872],[-0.10527,51.28852],[-0.10428,51.28877],[-0.10343,51.28814],[-0.10286,51.28824],[-0.10309,51.28851],[-0.10263,51.28869],[-0.10229,51.28824],[-0.10104,51.28847],[-0.10098,51.28882],[-0.10031,51.2889],[-0.1006,51.2902],[-0.09999,51.29021],[-0.10076,51.29126],[-0.10152,51.29101],[-0.10258,51.29275],[-0.10207,51.2931],[-0.10045,51.29254],[-0.09899,51.2916]]]}},{"type":"Feature","properties":{"id":"E01030859","name":"E01030859","parent":"E07000215","type":"LSOA","pop":2304,"r":238,"ff":114,"ffd":4947.9,"ffs":0.5969,"g":46,"co":0,"mo":0,"sa":0,"ic":1},"geometry":{"type":"Polygon","coordinates":[[[-0.08387,51.30987],[-0.08387,51.30801],[-0.08239,51.30834],[-0.0815,51.30889],[-0.08185,51.30956],[-0.08086,51.30929],[-0.08061,51.30863],[-0.07995,51.30876],[-0.07974,51.30804],[-0.07887,51.308],[-0.07925,51.30738],[-0.07725,51.30497],[-0.07608,51.30555],[-0.07557,51.30528],[-0.07504,51.30442],[-0.07357,51.30356],[-0.07206,51.30161],[-0.07001,51.30029],[-0.06877,51.30096],[-0.06792,51.29985],[-0.06738,51.30005],[-0.06214,51.29778],[-0.06246,51.29693],[-0.06007,51.29627],[-0.06111,51.29581],[-0.06309,51.29563],[-0.0672,51.29684],[-0.06907,51.29777],[-0.07025,51.29777],[-0.07306,51.29694],[-0.07449,51.29617],[-0.07551,51.29483],[-0.07659,51.29435],[-0.07776,51.29438],[-0.08088,51.29209],[-0.08128,51.29211],[-0.08171,51.29432],[-0.08215,51.29437],[-0.08173,51.29607],[-0.0833,51.29661],[-0.08432,51.29656],[-0.086,51.29974],[-0.08699,51.29996],[-0.08852,51.29939],[-0.08823,51.30148],[-0.08625,51.30528],[-0.08758,51.30542],[-0.08873,51.3051],[-0.08879,51.30708],[-0.08665,51.30882],[-0.08387,51.30987]]]}},{"type":"Feature","properties":{"id":"E01030861","name":"E01030861","parent":"E07000215","type":"LSOA","pop":2646,"r":183,"ff":77,"ffd":2910.1,"ffs":0.5662,"g":47,"co":2,"mo":0,"sa":0,"ic":1},"geometry":{"type":"Polygon","coordinates":[[[-0.03785,51.30296],[-0.03744,51.30073],[-0.03313,51.30092],[-0.03177,51.30056],[-0.03087,51.30152],[-0.03087,51.30243],[-0.0318,51.30406],[-0.03042,51.30378],[-0.0293,51.30063],[-0.02727,51.29925],[-0.02645,51.29761],[-0.02594,51.29132],[-0.02676,51.29035],[-0.02652,51.28975],[-0.02613,51.28636],[-0.02668,51.28638],[-0.02775,51.28436],[-0.02748,51.28363],[-0.02567,51.28238],[-0.0221,51.27821],[-0.02314,51.2767],[-0.02169,51.27442],[-0.02382,51.27358],[-0.02361,51.27213],[-0.02465,51.27179],[-0.02593,51.27196],[-0.02723,51.27122],[-0.03102,51.27031],[-0.0322,51.26852],[-0.03213,51.26744],[-0.0398,51.26444],[-0.04401,51.2623],[-0.04748,51.26192],[-0.05012,51.26266],[-0.05261,51.26511],[-0.05376,51.2655],[-0.05458,51.26632],[-0.05977,51.26639],[-0.05849,51.26779],[-0.05856,51.27105],[-0.05796,51.27264],[-0.06206,51.27276],[-0.06742,51.282],[-0.06866,51.28235],[-0.06813,51.28263],[-0.06829,51.28299],[-0.07089,51.28557],[-0.067,51.28901],[-0.06678,51.29016],[-0.06738,51.29097],[-0.06918,51.29247],[-0.06933,51.29626],[-0.06971,51.29701],[-0.07068,51.29767],[-0.06907,51.29777],[-0.0672,51.29684],[-0.06309,51.29563],[-0.06111,51.29581],[-0.05899,51.29676],[-0.05665,51.29697],[-0.05748,51.29875],[-0.05628,51.29994],[-0.05338,51.3016],[-0.05304,51.30203],[-0.05175,51.30163],[-0.05063,51.30234],[-0.04508,51.30374],[-0.04437,51.30298],[-0.041,51.30363],[-0.04152,51.30477],[-0.0406,51.30506],[-0.03785,51.30296]]]}},{"type":"Feature","properties":{"id":"E01032571","name":"E01032571","parent":"E07000215","type":"LSOA","pop":2039,"r":103,"ff":38,"ffd":1863.7,"ffs":0.5846,"g":38,"co":0,"mo":2,"sa":0,"ic":0},"geometry":{"type":"Polygon","coordinates":[[[0.03758,51.30489],[0.04092,51.30272],[0.04149,51.30296],[0.04262,51.30141],[0.04331,51.29906],[0.04426,51.2986],[0.04331,51.29658],[0.0424,51.29268],[0.04263,51.29204],[0.04479,51.29072],[0.04674,51.28859],[0.04821,51.28552],[0.04633,51.27955],[0.04536,51.27789],[0.04544,51.27645],[0.04606,51.27566],[0.0468,51.27297],[0.04803,51.27012],[0.04961,51.26803],[0.04966,51.26574],[0.05041,51.26439],[0.0518,51.26269],[0.04873,51.26227],[0.04599,51.26153],[0.0413,51.26113],[0.03722,51.26141],[0.03506,51.26105],[0.03563,51.2628],[0.03124,51.26244],[0.02526,51.26267],[0.02389,51.26242],[0.01915,51.26381],[0.01792,51.26446],[0.01766,51.26433],[0.01596,51.26589],[0.01364,51.26608],[0.01295,51.26696],[0.01121,51.26843],[0.01011,51.27015],[0.00337,51.27603],[0.004,51.27744],[0.00348,51.27853],[0.00429,51.28051],[0.00386,51.28106],[0.00279,51.28127],[0.00213,51.28095],[-0.00037,51.28189],[-0.00063,51.28153],[-0.002,51.28176],[-0.00609,51.28352],[-0.00972,51.28413],[-0.01439,51.2856],[-0.01498,51.28503],[-0.01588,51.28525],[-0.01725,51.28861],[-0.01497,51.29015],[-0.01222,51.29107],[-0.00657,51.29193],[-0.00295,51.29408],[-0.00032,51.29632],[0.00672,51.2978],[0.01216,51.2996],[0.01501,51.29179],[0.0191,51.29168],[0.01995,51.2934],[0.02095,51.29678],[0.0236,51.2997],[0.02484,51.30215],[0.02798,51.30469],[0.03039,51.30562],[0.0329,51.30751],[0.03758,51.30489]]]}},{"type":"Feature","properties":{"id":"E01035363","name":"E01035363","parent":"E07000215","type":"LSOA","pop":1526,"r":288,"ff":125,"ffd":8191.3,"ffs":0.5556,"g":61,"co":0,"mo":0,"sa":0,"ic":0},"geometry":{"type":"Polygon","coordinates":[[[-0.07971,51.31018],[-0.07995,51.30876],[-0.08061,51.30863],[-0.08086,51.30929],[-0.08185,51.30956],[-0.0815,51.30889],[-0.08239,51.30834],[-0.08387,51.30801],[-0.08387,51.30987],[-0.08193,51.31065],[-0.08153,51.31208],[-0.08238,51.31351],[-0.08475,51.31588],[-0.08363,51.31632],[-0.08364,51.31661],[-0.08216,51.31692],[-0.0789,51.31298],[-0.07906,51.31284],[-0.07846,51.31101],[-0.07915,51.31018],[-0.07971,51.31018]]]}},{"type":"Feature","properties":{"id":"E01035364","name":"E01035364","parent":"E07000215","type":"LSOA","pop":1233,"r":273,"ff":119,"ffd":9651.3,"ffs":0.5587,"g":58,"co":2,"mo":0,"sa":0,"ic":0},"geometry":{"type":"Polygon","coordinates":[[[-0.06925,51.31151],[-0.07238,51.31094],[-0.0729,51.31038],[-0.07203,51.3095],[-0.0723,51.3093],[-0.0734,51.3095],[-0.07429,51.3093],[-0.07464,51.30878],[-0.07515,51.30883],[-0.07569,51.30724],[-0.07603,51.30677],[-0.07536,51.3065],[-0.07263,51.30629],[-0.07148,51.30592],[-0.07104,51.30554],[-0.07557,51.30528],[-0.07608,51.30555],[-0.07725,51.30497],[-0.07925,51.30738],[-0.07887,51.308],[-0.07974,51.30804],[-0.07995,51.30876],[-0.07971,51.31018],[-0.07915,51.31018],[-0.07846,51.31101],[-0.07906,51.31284],[-0.0789,51.31298],[-0.07004,51.31279],[-0.06899,51.31232],[-0.06883,51.31186],[-0.06925,51.31151]]]}}]}