{"type":"FeatureCollection","features":[{"type":"Feature","properties":{"id":"E01032279","name":"E01032279","parent":"E07000237","type":"LSOA","pop":1271,"r":205,"ff":88,"ffd":6923.7,"ffs":0.5535,"g":46,"co":0,"mo":2,"sa":0,"ic":0},"geometry":{"type":"Polygon","coordinates":[[[-2.21323,52.20452],[-2.21157,52.20202],[-2.21225,52.20141],[-2.21377,52.19858],[-2.21591,52.20097],[-2.21478,52.20138],[-2.21507,52.20218],[-2.21716,52.20209],[-2.21755,52.20294],[-2.21832,52.20286],[-2.21882,52.20331],[-2.21944,52.20296],[-2.22091,52.20475],[-2.21972,52.20447],[-2.21408,52.20547],[-2.21323,52.20452]]]}},{"type":"Feature","properties":{"id":"E01032280","name":"E01032280","parent":"E07000237","type":"LSOA","pop":1654,"r":201,"ff":84,"ffd":5078.6,"ffs":0.5419,"g":46,"co":0,"mo":2,"sa":0,"ic":0},"geometry":{"type":"Polygon","coordinates":[[[-2.23185,52.20766],[-2.2302,52.20673],[-2.2293,52.20694],[-2.22888,52.2063],[-2.22722,52.20583],[-2.22689,52.20428],[-2.22643,52.20436],[-2.22657,52.20468],[-2.22265,52.20463],[-2.22269,52.20431],[-2.22345,52.20411],[-2.22421,52.20439],[-2.22392,52.20352],[-2.22276,52.2037],[-2.22217,52.203],[-2.22432,52.20216],[-2.22376,52.20162],[-2.22437,52.20116],[-2.22518,52.20106],[-2.22589,52.20226],[-2.22639,52.20219],[-2.22637,52.20199],[-2.22963,52.20135],[-2.23017,52.20218],[-2.23278,52.20502],[-2.233,52.20497],[-2.2342,52.20643],[-2.23466,52.20599],[-2.23604,52.2064],[-2.23538,52.20783],[-2.23307,52.20798],[-2.23185,52.20766]]]}},{"type":"Feature","properties":{"id":"E01032281","name":"E01032281","parent":"E07000237","type":"LSOA","pop":1347,"r":203,"ff":86,"ffd":6384.6,"ffs":0.5478,"g":46,"co":0,"mo":2,"sa":0,"ic":0},"geometry":{"type":"Polygon","coordinates":[[[-2.22091,52.20475],[-2.21873,52.2022],[-2.21754,52.20115],[-2.21873,52.20082],[-2.21843,52.20002],[-2.21767,52.19972],[-2.21686,52.19999],[-2.21593,52.19819],[-2.21684,52.19776],[-2.21728,52.19882],[-2.21895,52.19923],[-2.22073,52.1983],[-2.2214,52.19831],[-2.22124,52.19881],[-2.22275,52.20035],[-2.22156,52.20059],[-2.22116,52.20133],[-2.22215,52.20129],[-2.22192,52.20103],[-2.22236,52.20096],[-2.22289,52.20141],[-2.22333,52.20118],[-2.22432,52.20216],[-2.22217,52.203],[-2.22276,52.2037],[-2.22392,52.20352],[-2.22421,52.20439],[-2.22345,52.20411],[-2.22269,52.20431],[-2.22265,52.20463],[-2.22121,52.20496],[-2.22091,52.20475]]]}},{"type":"Feature","properties":{"id":"E01032282","name":"E01032282","parent":"E07000237","type":"LSOA","pop":1900,"r":203,"ff":87,"ffd":4578.9,"ffs":0.5541,"g":46,"co":0,"mo":2,"sa":0,"ic":0},"geometry":{"type":"Polygon","coordinates":[[[-2.21882,52.20331],[-2.21832,52.20286],[-2.21755,52.20294],[-2.21716,52.20209],[-2.21507,52.20218],[-2.21478,52.20138],[-2.21591,52.20097],[-2.21449,52.19922],[-2.21321,52.19818],[-2.21375,52.1976],[-2.21563,52.19733],[-2.2203,52.19543],[-2.22195,52.19509],[-2.22318,52.1971],[-2.22405,52.19808],[-2.22518,52.20106],[-2.22437,52.20116],[-2.22376,52.20162],[-2.22333,52.20118],[-2.22289,52.20141],[-2.22236,52.20096],[-2.22192,52.20103],[-2.22215,52.20129],[-2.22116,52.20133],[-2.22156,52.20059],[-2.22275,52.20035],[-2.22124,52.19881],[-2.2214,52.19831],[-2.22073,52.1983],[-2.21895,52.19923],[-2.21728,52.19882],[-2.21684,52.19776],[-2.21593,52.19819],[-2.21686,52.19999],[-2.21767,52.19972],[-2.21843,52.20002],[-2.21873,52.20082],[-2.21754,52.20115],[-2.21944,52.20296],[-2.21882,52.20331]]]}},{"type":"Feature","properties":{"id":"E01032283","name":"E01032283","parent":"E07000237","type":"LSOA","pop":1753,"r":218,"ff":90,"ffd":5134.1,"ffs":0.5488,"g":54,"co":2,"mo":2,"sa":0,"ic":0},"geometry":{"type":"Polygon","coordinates":[[[-2.21006,52.18128],[-2.2063,52.17897],[-2.20733,52.17797],[-2.20517,52.17672],[-2.20338,52.17519],[-2.20636,52.17449],[-2.20815,52.17498],[-2.20923,52.17422],[-2.21084,52.17399],[-2.21039,52.17258],[-2.21063,52.17232],[-2.21253,52.17224],[-2.21378,52.16901],[-2.21924,52.16953],[-2.21879,52.17053],[-2.21887,52.17181],[-2.21966,52.17298],[-2.21785,52.17325],[-2.21721,52.17484],[-2.21625,52.17503],[-2.21672,52.17572],[-2.21628,52.17584],[-2.21509,52.17685],[-2.21395,52.17693],[-2.21539,52.17952],[-2.21506,52.18051],[-2.21361,52.18022],[-2.21316,52.18093],[-2.21247,52.18074],[-2.21152,52.18097],[-2.21063,52.18055],[-2.21006,52.18128]]]}},{"type":"Feature","properties":{"id":"E01032284","name":"E01032284","parent":"E07000237","type":"LSOA","pop":2003,"r":211,"ff":89,"ffd":4443.3,"ffs":0.5563,"g":51,"co":0,"mo":2,"sa":0,"ic":0},"geometry":{"type":"Polygon","coordinates":[[[-2.1973,52.18214],[-2.19275,52.18169],[-2.18961,52.18008],[-2.1885,52.17923],[-2.19048,52.17807],[-2.19172,52.17797],[-2.19475,52.17659],[-2.19604,52.17671],[-2.19803,52.17587],[-2.20338,52.17519],[-2.20517,52.17672],[-2.20733,52.17797],[-2.2063,52.17897],[-2.21006,52.18128],[-2.21063,52.18055],[-2.21152,52.18097],[-2.21247,52.18074],[-2.21316,52.18093],[-2.21212,52.1827],[-2.21121,52.18238],[-2.20984,52.18319],[-2.20848,52.18258],[-2.2081,52.182],[-2.20753,52.18211],[-2.20821,52.18304],[-2.2078,52.18348],[-2.20665,52.18389],[-2.20519,52.1848],[-2.19924,52.18262],[-2.1973,52.18214]]]}},{"type":"Feature","properties":{"id":"E01032285","name":"E01032285","parent":"E07000237","type":"LSOA","pop":1716,"r":215,"ff":89,"ffd":5186.5,"ffs":0.5494,"g":53,"co":0,"mo":2,"sa":0,"ic":0},"geometry":{"type":"Polygon","coordinates":[[[-2.2078,52.18348],[-2.20821,52.18304],[-2.20753,52.18211],[-2.2081,52.182],[-2.20848,52.18258],[-2.20984,52.18319],[-2.21121,52.18238],[-2.21212,52.1827],[-2.21361,52.18022],[-2.21506,52.18051],[-2.21539,52.17952],[-2.21773,52.18211],[-2.21682,52.18232],[-2.21711,52.18273],[-2.21527,52.18323],[-2.21503,52.18365],[-2.21589,52.18388],[-2.21694,52.18456],[-2.21549,52.18636],[-2.21364,52.18615],[-2.21172,52.18561],[-2.20659,52.18523],[-2.20519,52.1848],[-2.20665,52.18389],[-2.2078,52.18348]]]}},{"type":"Feature","properties":{"id":"E01032286","name":"E01032286","parent":"E07000237","type":"LSOA","pop":2974,"r":214,"ff":87,"ffd":2925.4,"ffs":0.5404,"g":53,"co":0,"mo":0,"sa":0,"ic":0},"geometry":{"type":"Polygon","coordinates":[[[-2.25935,52.18918],[-2.25741,52.18848],[-2.25702,52.18871],[-2.25675,52.18811],[-2.25498,52.18749],[-2.25397,52.18645],[-2.25307,52.18695],[-2.25246,52.18679],[-2.25113,52.18729],[-2.25026,52.18677],[-2.24596,52.18816],[-2.24512,52.18704],[-2.24441,52.18719],[-2.24397,52.18668],[-2.2432,52.18684],[-2.24319,52.1859],[-2.2409,52.18625],[-2.24072,52.18537],[-2.24206,52.18469],[-2.24167,52.18434],[-2.24444,52.1836],[-2.24409,52.18333],[-2.24454,52.18306],[-2.24444,52.18261],[-2.24392,52.18257],[-2.24442,52.1823],[-2.2442,52.18182],[-2.24311,52.18233],[-2.24336,52.18308],[-2.24248,52.18332],[-2.24244,52.18242],[-2.2413,52.18167],[-2.24091,52.17971],[-2.24207,52.17968],[-2.24198,52.17929],[-2.24254,52.17918],[-2.24251,52.17897],[-2.243,52.1787],[-2.24613,52.179],[-2.24896,52.17889],[-2.24951,52.18033],[-2.25033,52.18098],[-2.251,52.18119],[-2.25125,52.18075],[-2.25214,52.18078],[-2.25295,52.18054],[-2.25275,52.1812],[-2.2533,52.18132],[-2.2538,52.18202],[-2.25261,52.18349],[-2.25315,52.18366],[-2.26181,52.18189],[-2.26087,52.18249],[-2.26145,52.1842],[-2.26301,52.18462],[-2.26294,52.18531],[-2.26233,52.18547],[-2.26184,52.1898],[-2.26136,52.18974],[-2.26148,52.18937],[-2.25935,52.18918]]]}},{"type":"Feature","properties":{"id":"E01032287","name":"E01032287","parent":"E07000237","type":"LSOA","pop":1726,"r":214,"ff":87,"ffd":5040.6,"ffs":0.5404,"g":53,"co":2,"mo":0,"sa":0,"ic":0},"geometry":{"type":"Polygon","coordinates":[[[-2.23534,52.18371],[-2.23545,52.18227],[-2.2365,52.18197],[-2.23639,52.1835],[-2.23848,52.1822],[-2.24043,52.18134],[-2.24244,52.18242],[-2.24248,52.18332],[-2.24336,52.18308],[-2.24311,52.18233],[-2.2442,52.18182],[-2.24442,52.1823],[-2.24392,52.18257],[-2.24444,52.18261],[-2.24454,52.18306],[-2.24409,52.18333],[-2.24444,52.1836],[-2.24167,52.18434],[-2.24206,52.18469],[-2.24072,52.18537],[-2.2409,52.18625],[-2.23599,52.18685],[-2.23449,52.18842],[-2.2335,52.18873],[-2.233,52.18703],[-2.23505,52.18528],[-2.2346,52.18422],[-2.23534,52.18371]]]}},{"type":"Feature","properties":{"id":"E01032288","name":"E01032288","parent":"E07000237","type":"LSOA","pop":1555,"r":215,"ff":88,"ffd":5659.2,"ffs":0.5432,"g":53,"co":2,"mo":0,"sa":0,"ic":0},"geometry":{"type":"Polygon","coordinates":[[[-2.22331,52.18353],[-2.22483,52.18076],[-2.22618,52.17928],[-2.2259,52.17787],[-2.22433,52.17589],[-2.21966,52.17298],[-2.21887,52.17181],[-2.22935,52.17375],[-2.23017,52.17415],[-2.23035,52.17489],[-2.22994,52.17493],[-2.23023,52.17596],[-2.22968,52.17601],[-2.22943,52.17653],[-2.2308,52.17588],[-2.23204,52.17581],[-2.23199,52.17552],[-2.23347,52.17539],[-2.23398,52.17584],[-2.23344,52.17715],[-2.23239,52.17821],[-2.23403,52.17744],[-2.23512,52.17747],[-2.23549,52.17892],[-2.23546,52.18011],[-2.23788,52.17988],[-2.2378,52.1812],[-2.23848,52.1822],[-2.23639,52.1835],[-2.2365,52.18197],[-2.23545,52.18227],[-2.23534,52.18371],[-2.2346,52.18422],[-2.23505,52.18528],[-2.233,52.18703],[-2.2335,52.18873],[-2.22943,52.18926],[-2.22783,52.18982],[-2.22603,52.19114],[-2.22345,52.18973],[-2.22293,52.18886],[-2.22331,52.18353]]]}},{"type":"Feature","properties":{"id":"E01032289","name":"E01032289","parent":"E07000237","type":"LSOA","pop":1491,"r":218,"ff":90,"ffd":6036.2,"ffs":0.5488,"g":54,"co":2,"mo":0,"sa":0,"ic":0},"geometry":{"type":"Polygon","coordinates":[[[-2.23848,52.1822],[-2.2378,52.1812],[-2.23788,52.17988],[-2.23546,52.18011],[-2.23549,52.17892],[-2.23512,52.17747],[-2.23403,52.17744],[-2.23239,52.17821],[-2.23344,52.17715],[-2.23398,52.17584],[-2.23347,52.17539],[-2.23199,52.17552],[-2.23204,52.17581],[-2.2308,52.17588],[-2.22943,52.17653],[-2.22968,52.17601],[-2.23023,52.17596],[-2.22994,52.17493],[-2.23035,52.17489],[-2.23017,52.17415],[-2.22935,52.17375],[-2.21887,52.17181],[-2.21879,52.17053],[-2.22048,52.16735],[-2.222,52.16833],[-2.22573,52.16811],[-2.22733,52.16699],[-2.22736,52.16659],[-2.22533,52.16643],[-2.22407,52.16552],[-2.22576,52.16484],[-2.22658,52.16385],[-2.22762,52.16367],[-2.22837,52.16454],[-2.2282,52.16605],[-2.22886,52.1678],[-2.23007,52.16866],[-2.23167,52.16898],[-2.23282,52.16972],[-2.23482,52.16934],[-2.23336,52.17278],[-2.23431,52.1732],[-2.23488,52.17412],[-2.2356,52.17379],[-2.23576,52.17324],[-2.23666,52.173],[-2.23691,52.17341],[-2.23641,52.17367],[-2.2368,52.17382],[-2.23997,52.17365],[-2.24126,52.17457],[-2.24002,52.17478],[-2.23896,52.17403],[-2.23849,52.1741],[-2.23873,52.17455],[-2.24048,52.17519],[-2.23996,52.17545],[-2.24064,52.17662],[-2.24205,52.17641],[-2.24165,52.17687],[-2.24254,52.17918],[-2.24198,52.17929],[-2.24207,52.17968],[-2.24091,52.17971],[-2.2413,52.18167],[-2.24043,52.18134],[-2.23848,52.1822]]]}},{"type":"Feature","properties":{"id":"E01032290","name":"E01032290","parent":"E07000237","type":"LSOA","pop":1405,"r":217,"ff":89,"ffd":6334.5,"ffs":0.546,"g":54,"co":2,"mo":0,"sa":0,"ic":0},"geometry":{"type":"Polygon","coordinates":[[[-2.24613,52.179],[-2.243,52.1787],[-2.24251,52.17897],[-2.24165,52.17687],[-2.24205,52.17641],[-2.24064,52.17662],[-2.23996,52.17545],[-2.24048,52.17519],[-2.23873,52.17455],[-2.23849,52.1741],[-2.23896,52.17403],[-2.24002,52.17478],[-2.24127,52.17467],[-2.23997,52.17365],[-2.2368,52.17382],[-2.23641,52.17367],[-2.23691,52.17341],[-2.23666,52.173],[-2.23576,52.17324],[-2.2356,52.17379],[-2.23488,52.17412],[-2.23431,52.1732],[-2.23336,52.17278],[-2.23482,52.16934],[-2.23694,52.16954],[-2.23895,52.16913],[-2.2411,52.16977],[-2.24158,52.17016],[-2.24256,52.17022],[-2.24347,52.16902],[-2.24418,52.16889],[-2.24602,52.16918],[-2.24731,52.16972],[-2.24527,52.17122],[-2.24432,52.17139],[-2.24541,52.17191],[-2.24557,52.17298],[-2.24657,52.17316],[-2.24634,52.1736],[-2.24706,52.17397],[-2.24638,52.17422],[-2.24689,52.1745],[-2.24632,52.17529],[-2.24706,52.17606],[-2.24663,52.1768],[-2.24759,52.17781],[-2.24899,52.17852],[-2.24896,52.17889],[-2.24613,52.179]]]}},{"type":"Feature","properties":{"id":"E01032292","name":"E01032292","parent":"E07000237","type":"LSOA","pop":1657,"r":211,"ff":89,"ffd":5371.2,"ffs":0.546,"g":48,"co":0,"mo":2,"sa":0,"ic":0},"geometry":{"type":"Polygon","coordinates":[[[-2.20859,52.1936],[-2.20487,52.18756],[-2.20639,52.18701],[-2.20763,52.18816],[-2.20838,52.18803],[-2.20801,52.18744],[-2.20868,52.18728],[-2.2083,52.18717],[-2.20818,52.18636],[-2.20968,52.18692],[-2.21003,52.1879],[-2.211,52.18802],[-2.21231,52.18773],[-2.21247,52.18834],[-2.21281,52.18875],[-2.21336,52.18876],[-2.21328,52.18902],[-2.21265,52.1892],[-2.21335,52.19094],[-2.21372,52.19088],[-2.21317,52.19233],[-2.2127,52.1926],[-2.21207,52.19183],[-2.21088,52.19207],[-2.21039,52.19149],[-2.20948,52.19146],[-2.20929,52.19176],[-2.20973,52.19222],[-2.2108,52.19249],[-2.21064,52.19272],[-2.2119,52.19354],[-2.21304,52.19337],[-2.21311,52.19297],[-2.21506,52.19297],[-2.21511,52.19384],[-2.21379,52.19414],[-2.21491,52.19561],[-2.20984,52.1961],[-2.20859,52.1936]]]}},{"type":"Feature","properties":{"id":"E01032294","name":"E01032294","parent":"E07000237","type":"LSOA","pop":1643,"r":209,"ff":89,"ffd":5416.9,"ffs":0.5528,"g":48,"co":0,"mo":2,"sa":0,"ic":0},"geometry":{"type":"Polygon","coordinates":[[[-2.21281,52.18875],[-2.21247,52.18834],[-2.21231,52.18773],[-2.211,52.18802],[-2.21003,52.1879],[-2.20968,52.18692],[-2.20818,52.18636],[-2.2083,52.18717],[-2.20868,52.18728],[-2.20801,52.18744],[-2.20838,52.18803],[-2.20763,52.18816],[-2.20639,52.18701],[-2.20487,52.18756],[-2.20429,52.18678],[-2.20148,52.18724],[-2.20066,52.18662],[-2.19924,52.18262],[-2.20075,52.18328],[-2.20659,52.18523],[-2.21172,52.18561],[-2.21437,52.18626],[-2.21484,52.18744],[-2.21585,52.18776],[-2.21556,52.1882],[-2.21509,52.18821],[-2.21518,52.18864],[-2.21372,52.18856],[-2.21328,52.18902],[-2.21336,52.18876],[-2.21281,52.18875]]]}},{"type":"Feature","properties":{"id":"E01032296","name":"E01032296","parent":"E07000237","type":"LSOA","pop":1609,"r":210,"ff":88,"ffd":5469.2,"ffs":0.55,"g":50,"co":0,"mo":2,"sa":0,"ic":0},"geometry":{"type":"Polygon","coordinates":[[[-2.22652,52.21305],[-2.22652,52.2114],[-2.22605,52.21126],[-2.22572,52.21161],[-2.22426,52.2114],[-2.22481,52.21053],[-2.22446,52.20999],[-2.22483,52.20935],[-2.22716,52.20678],[-2.22722,52.20583],[-2.22888,52.2063],[-2.2293,52.20694],[-2.2302,52.20673],[-2.23185,52.20766],[-2.23184,52.20867],[-2.23008,52.20858],[-2.2299,52.20884],[-2.23078,52.20897],[-2.23103,52.20968],[-2.23204,52.2093],[-2.23215,52.21073],[-2.23161,52.21073],[-2.23113,52.21145],[-2.23015,52.21151],[-2.23026,52.21248],[-2.22981,52.21254],[-2.22952,52.21299],[-2.22729,52.21272],[-2.22706,52.21316],[-2.22654,52.21324],[-2.22652,52.21305]]]}},{"type":"Feature","properties":{"id":"E01032297","name":"E01032297","parent":"E07000237","type":"LSOA","pop":1707,"r":203,"ff":87,"ffd":5096.7,"ffs":0.5506,"g":45,"co":0,"mo":2,"sa":0,"ic":0},"geometry":{"type":"Polygon","coordinates":[[[-2.21299,52.22651],[-2.20871,52.22472],[-2.19648,52.22367],[-2.19976,52.21643],[-2.20636,52.21511],[-2.20732,52.21463],[-2.21042,52.21158],[-2.21415,52.21176],[-2.21506,52.21208],[-2.2148,52.21286],[-2.21548,52.21303],[-2.21484,52.21425],[-2.21513,52.21561],[-2.21774,52.21452],[-2.21952,52.21457],[-2.22081,52.21504],[-2.21867,52.21775],[-2.22179,52.2183],[-2.22147,52.21875],[-2.22178,52.21925],[-2.2229,52.21936],[-2.22361,52.21983],[-2.22306,52.22018],[-2.22379,52.22052],[-2.22463,52.21999],[-2.22443,52.2193],[-2.22516,52.21896],[-2.22617,52.21858],[-2.22657,52.21898],[-2.22726,52.2189],[-2.22831,52.22143],[-2.22782,52.22167],[-2.22838,52.2222],[-2.2276,52.22273],[-2.22734,52.22476],[-2.22813,52.22503],[-2.22835,52.22486],[-2.22712,52.22713],[-2.22341,52.23078],[-2.22247,52.23138],[-2.22158,52.23141],[-2.22121,52.23084],[-2.21857,52.2297],[-2.21299,52.22651]]]}},{"type":"Feature","properties":{"id":"E01032298","name":"E01032298","parent":"E07000237","type":"LSOA","pop":1936,"r":202,"ff":87,"ffd":4493.8,"ffs":0.5541,"g":45,"co":0,"mo":2,"sa":0,"ic":0},"geometry":{"type":"Polygon","coordinates":[[[-2.23198,52.22622],[-2.22835,52.22486],[-2.22813,52.22503],[-2.22734,52.22476],[-2.2276,52.22273],[-2.22838,52.2222],[-2.22782,52.22167],[-2.22831,52.22143],[-2.22726,52.2189],[-2.22848,52.21904],[-2.22884,52.21947],[-2.23086,52.21937],[-2.23204,52.22008],[-2.23284,52.21977],[-2.23262,52.21931],[-2.23342,52.21933],[-2.23334,52.21834],[-2.2339,52.21817],[-2.23375,52.21782],[-2.23799,52.21711],[-2.23903,52.21807],[-2.24103,52.21713],[-2.24081,52.21682],[-2.24139,52.21615],[-2.24327,52.2172],[-2.24387,52.21813],[-2.24393,52.2204],[-2.24327,52.22185],[-2.23992,52.22144],[-2.2399,52.22272],[-2.23802,52.22248],[-2.23794,52.2222],[-2.23586,52.22235],[-2.23554,52.22212],[-2.23506,52.22533],[-2.2334,52.22676],[-2.23198,52.22622]]]}},{"type":"Feature","properties":{"id":"E01032299","name":"E01032299","parent":"E07000237","type":"LSOA","pop":1546,"r":204,"ff":87,"ffd":5627.4,"ffs":0.5472,"g":45,"co":0,"mo":2,"sa":0,"ic":0},"geometry":{"type":"Polygon","coordinates":[[[-2.22147,52.21875],[-2.22179,52.2183],[-2.21867,52.21775],[-2.22446,52.20999],[-2.22481,52.21053],[-2.22426,52.2114],[-2.22572,52.21161],[-2.22605,52.21126],[-2.22652,52.2114],[-2.22654,52.21324],[-2.22729,52.2136],[-2.22654,52.21406],[-2.22705,52.21446],[-2.22668,52.21547],[-2.22606,52.2162],[-2.22631,52.21723],[-2.22711,52.21854],[-2.22827,52.21812],[-2.22848,52.21904],[-2.22657,52.21898],[-2.22617,52.21858],[-2.22443,52.2193],[-2.22463,52.21999],[-2.22379,52.22052],[-2.22306,52.22018],[-2.22361,52.21983],[-2.2229,52.21936],[-2.22178,52.21925],[-2.22147,52.21875]]]}},{"type":"Feature","properties":{"id":"E01032300","name":"E01032300","parent":"E07000237","type":"LSOA","pop":1641,"r":203,"ff":87,"ffd":5301.6,"ffs":0.5506,"g":45,"co":0,"mo":2,"sa":0,"ic":0},"geometry":{"type":"Polygon","coordinates":[[[-2.23204,52.22008],[-2.23086,52.21937],[-2.22884,52.21947],[-2.22848,52.21904],[-2.22827,52.21812],[-2.22711,52.21854],[-2.22631,52.21723],[-2.22606,52.2162],[-2.22668,52.21547],[-2.22705,52.21446],[-2.22654,52.21406],[-2.22729,52.2136],[-2.22654,52.21324],[-2.22706,52.21316],[-2.22729,52.21272],[-2.22952,52.21299],[-2.22981,52.21254],[-2.23026,52.21248],[-2.23015,52.21151],[-2.23113,52.21145],[-2.23161,52.21073],[-2.23215,52.21073],[-2.23204,52.2093],[-2.23103,52.20968],[-2.23078,52.20897],[-2.2299,52.20884],[-2.23008,52.20858],[-2.23184,52.20867],[-2.23185,52.20766],[-2.23307,52.20798],[-2.23538,52.20783],[-2.23491,52.21153],[-2.23775,52.2142],[-2.23946,52.21538],[-2.24139,52.21615],[-2.24081,52.21682],[-2.24103,52.21713],[-2.23903,52.21807],[-2.23799,52.21711],[-2.23375,52.21782],[-2.2339,52.21817],[-2.23334,52.21834],[-2.23342,52.21933],[-2.23262,52.21931],[-2.23284,52.21977],[-2.23204,52.22008]]]}},{"type":"Feature","properties":{"id":"E01032301","name":"E01032301","parent":"E07000237","type":"LSOA","pop":1434,"r":206,"ff":89,"ffd":6206.4,"ffs":0.5563,"g":46,"co":0,"mo":2,"sa":0,"ic":0},"geometry":{"type":"Polygon","coordinates":[[[-2.18644,52.20433],[-2.18576,52.2038],[-2.18513,52.2043],[-2.18468,52.20409],[-2.18765,52.20172],[-2.19073,52.19959],[-2.19042,52.19912],[-2.19166,52.19815],[-2.19238,52.19893],[-2.19409,52.19894],[-2.19467,52.19844],[-2.19362,52.19811],[-2.19409,52.19769],[-2.19519,52.19814],[-2.19558,52.19854],[-2.19513,52.19877],[-2.19532,52.199],[-2.19766,52.19886],[-2.19783,52.19991],[-2.19906,52.20059],[-2.1989,52.2012],[-2.20165,52.20129],[-2.20179,52.20174],[-2.19723,52.2026],[-2.19348,52.2026],[-2.1919,52.2037],[-2.18972,52.20287],[-2.18628,52.20497],[-2.18582,52.20473],[-2.18644,52.20433]]]}},{"type":"Feature","properties":{"id":"E01032302","name":"E01032302","parent":"E07000237","type":"LSOA","pop":1482,"r":204,"ff":89,"ffd":6005.4,"ffs":0.5563,"g":44,"co":0,"mo":2,"sa":0,"ic":0},"geometry":{"type":"Polygon","coordinates":[[[-2.19783,52.19991],[-2.19766,52.19886],[-2.19532,52.199],[-2.19513,52.19877],[-2.19558,52.19854],[-2.19519,52.19814],[-2.19409,52.19769],[-2.19362,52.19811],[-2.19467,52.19844],[-2.19409,52.19894],[-2.19238,52.19893],[-2.19166,52.19815],[-2.19388,52.1968],[-2.19617,52.1959],[-2.19772,52.1963],[-2.19806,52.19679],[-2.19839,52.19634],[-2.19949,52.19648],[-2.20083,52.19736],[-2.20067,52.19808],[-2.19989,52.19826],[-2.20165,52.20129],[-2.1989,52.2012],[-2.19906,52.20059],[-2.19783,52.19991]]]}},{"type":"Feature","properties":{"id":"E01032303","name":"E01032303","parent":"E07000237","type":"LSOA","pop":1321,"r":208,"ff":89,"ffd":6737.3,"ffs":0.5563,"g":48,"co":0,"mo":2,"sa":0,"ic":0},"geometry":{"type":"Polygon","coordinates":[[[-2.19042,52.20754],[-2.18898,52.20687],[-2.18864,52.20709],[-2.18829,52.20691],[-2.18901,52.20627],[-2.18796,52.20633],[-2.18756,52.20698],[-2.18686,52.20725],[-2.18613,52.20681],[-2.18472,52.20653],[-2.18367,52.20573],[-2.18362,52.2052],[-2.18442,52.20488],[-2.18405,52.2045],[-2.18468,52.20409],[-2.18513,52.2043],[-2.18576,52.2038],[-2.18644,52.20433],[-2.18582,52.20473],[-2.18628,52.20497],[-2.18972,52.20287],[-2.1919,52.2037],[-2.19235,52.20538],[-2.19165,52.2054],[-2.1921,52.20624],[-2.19042,52.20754]]]}},{"type":"Feature","properties":{"id":"E01032304","name":"E01032304","parent":"E07000237","type":"LSOA","pop":1544,"r":206,"ff":88,"ffd":5699.5,"ffs":0.557,"g":48,"co":0,"mo":2,"sa":0,"ic":0},"geometry":{"type":"Polygon","coordinates":[[[-2.18036,52.20936],[-2.1805,52.20863],[-2.18146,52.20653],[-2.18405,52.2045],[-2.18442,52.20488],[-2.18362,52.2052],[-2.18367,52.20573],[-2.18472,52.20653],[-2.18613,52.20681],[-2.18686,52.20725],[-2.18756,52.20698],[-2.18796,52.20633],[-2.18901,52.20627],[-2.18829,52.20691],[-2.18864,52.20709],[-2.18898,52.20687],[-2.19042,52.20754],[-2.18932,52.20908],[-2.1882,52.20879],[-2.18764,52.20921],[-2.18699,52.20909],[-2.18598,52.20931],[-2.1842,52.20914],[-2.18407,52.20971],[-2.18274,52.20908],[-2.18248,52.20956],[-2.18234,52.21074],[-2.1819,52.21096],[-2.1802,52.21053],[-2.18036,52.20936]]]}},{"type":"Feature","properties":{"id":"E01032305","name":"E01032305","parent":"E07000237","type":"LSOA","pop":1813,"r":205,"ff":89,"ffd":4909.0,"ffs":0.5597,"g":46,"co":0,"mo":2,"sa":0,"ic":0},"geometry":{"type":"Polygon","coordinates":[[[-2.19949,52.19648],[-2.19839,52.19634],[-2.19806,52.19679],[-2.19772,52.1963],[-2.19846,52.1953],[-2.1984,52.19459],[-2.19775,52.19459],[-2.19803,52.19423],[-2.19976,52.19392],[-2.20102,52.19419],[-2.20123,52.19331],[-2.19966,52.19347],[-2.1998,52.1927],[-2.19882,52.19268],[-2.19982,52.19205],[-2.20071,52.19264],[-2.20178,52.19242],[-2.20133,52.19148],[-2.20317,52.19126],[-2.20293,52.19231],[-2.20347,52.19248],[-2.20357,52.19223],[-2.20419,52.19224],[-2.2051,52.19258],[-2.20603,52.19175],[-2.2073,52.1914],[-2.2098,52.19601],[-2.20762,52.19615],[-2.20486,52.19741],[-2.2027,52.19763],[-2.20067,52.19808],[-2.20083,52.19736],[-2.19949,52.19648]]]}},{"type":"Feature","properties":{"id":"E01032306","name":"E01032306","parent":"E07000237","type":"LSOA","pop":1546,"r":205,"ff":89,"ffd":5756.8,"ffs":0.5597,"g":46,"co":0,"mo":2,"sa":0,"ic":0},"geometry":{"type":"Polygon","coordinates":[[[-2.19246,52.19442],[-2.19194,52.19368],[-2.19256,52.19323],[-2.19208,52.19278],[-2.19223,52.19237],[-2.19404,52.1911],[-2.19404,52.19059],[-2.19363,52.19033],[-2.19402,52.19015],[-2.19522,52.19064],[-2.1977,52.19048],[-2.19939,52.1916],[-2.20092,52.19107],[-2.20127,52.18973],[-2.20443,52.18982],[-2.20604,52.18943],[-2.2073,52.1914],[-2.20603,52.19175],[-2.2051,52.19258],[-2.20419,52.19224],[-2.20357,52.19223],[-2.20347,52.19248],[-2.20293,52.19231],[-2.20317,52.19126],[-2.20133,52.19148],[-2.20178,52.19242],[-2.20071,52.19264],[-2.19982,52.19205],[-2.19882,52.19268],[-2.1998,52.1927],[-2.19966,52.19347],[-2.20123,52.19331],[-2.20102,52.19419],[-2.19976,52.19392],[-2.19803,52.19423],[-2.19775,52.19459],[-2.1984,52.19459],[-2.19846,52.1953],[-2.19772,52.1963],[-2.19617,52.1959],[-2.19534,52.19459],[-2.19246,52.19442]]]}},{"type":"Feature","properties":{"id":"E01032307","name":"E01032307","parent":"E07000237","type":"LSOA","pop":1979,"r":209,"ff":89,"ffd":4497.2,"ffs":0.5563,"g":49,"co":0,"mo":2,"sa":0,"ic":0},"geometry":{"type":"Polygon","coordinates":[[[-2.18225,52.19347],[-2.18168,52.19206],[-2.18336,52.19177],[-2.18372,52.19227],[-2.18435,52.19233],[-2.18398,52.19164],[-2.18736,52.19071],[-2.19,52.18954],[-2.19102,52.19004],[-2.19187,52.18993],[-2.19185,52.1895],[-2.19294,52.1891],[-2.19381,52.18968],[-2.19471,52.1892],[-2.19669,52.18988],[-2.1977,52.19048],[-2.19522,52.19064],[-2.19402,52.19015],[-2.19363,52.19033],[-2.19404,52.19059],[-2.19404,52.1911],[-2.19223,52.19237],[-2.19208,52.19278],[-2.19256,52.19323],[-2.19194,52.19368],[-2.19246,52.19442],[-2.18444,52.19394],[-2.18225,52.19347]]]}},{"type":"Feature","properties":{"id":"E01032308","name":"E01032308","parent":"E07000237","type":"LSOA","pop":2177,"r":214,"ff":89,"ffd":4088.2,"ffs":0.5494,"g":52,"co":0,"mo":2,"sa":0,"ic":0},"geometry":{"type":"Polygon","coordinates":[[[-2.19305,52.1862],[-2.1925,52.18492],[-2.18791,52.18561],[-2.18446,52.18508],[-2.18403,52.1859],[-2.18036,52.18602],[-2.18045,52.18463],[-2.1823,52.18436],[-2.18243,52.18395],[-2.17996,52.1841],[-2.17968,52.18367],[-2.18288,52.18288],[-2.18278,52.18187],[-2.18486,52.17993],[-2.18495,52.17858],[-2.18738,52.17817],[-2.18961,52.18008],[-2.19275,52.18169],[-2.19824,52.18233],[-2.19681,52.18301],[-2.19516,52.18271],[-2.19463,52.1837],[-2.19609,52.18424],[-2.19574,52.1847],[-2.19641,52.1854],[-2.19523,52.18602],[-2.19305,52.1862]]]}},{"type":"Feature","properties":{"id":"E01032309","name":"E01032309","parent":"E07000237","type":"LSOA","pop":2040,"r":209,"ff":89,"ffd":4362.7,"ffs":0.5528,"g":48,"co":0,"mo":2,"sa":0,"ic":0},"geometry":{"type":"Polygon","coordinates":[[[-2.18085,52.19199],[-2.18015,52.19061],[-2.178,52.1909],[-2.17663,52.18651],[-2.17589,52.18572],[-2.17653,52.1849],[-2.17705,52.1851],[-2.17953,52.18471],[-2.18013,52.1845],[-2.17996,52.1841],[-2.18243,52.18395],[-2.1823,52.18436],[-2.18045,52.18463],[-2.18036,52.18602],[-2.18403,52.1859],[-2.18446,52.18508],[-2.18791,52.18561],[-2.1925,52.18492],[-2.19305,52.1862],[-2.19523,52.18602],[-2.19641,52.1854],[-2.19574,52.1847],[-2.19609,52.18424],[-2.19463,52.1837],[-2.19516,52.18271],[-2.19681,52.18301],[-2.19824,52.18233],[-2.19924,52.18262],[-2.20066,52.18662],[-2.20148,52.18724],[-2.20429,52.18678],[-2.20604,52.18943],[-2.20443,52.18982],[-2.20127,52.18973],[-2.20092,52.19107],[-2.19939,52.1916],[-2.19669,52.18988],[-2.19471,52.1892],[-2.19381,52.18968],[-2.19294,52.1891],[-2.19185,52.1895],[-2.19187,52.18993],[-2.19102,52.19004],[-2.19,52.18954],[-2.18736,52.19071],[-2.18398,52.19164],[-2.18435,52.19233],[-2.18372,52.19227],[-2.18336,52.19177],[-2.18168,52.19206],[-2.18225,52.19347],[-2.1807,52.19311],[-2.18085,52.19199]]]}},{"type":"Feature","properties":{"id":"E01032310","name":"E01032310","parent":"E07000237","type":"LSOA","pop":1501,"r":204,"ff":87,"ffd":5796.1,"ffs":0.5506,"g":46,"co":0,"mo":2,"sa":0,"ic":0},"geometry":{"type":"Polygon","coordinates":[[[-2.20175,52.20972],[-2.20138,52.20936],[-2.20045,52.20984],[-2.19841,52.20911],[-2.19851,52.20884],[-2.1978,52.20865],[-2.19777,52.20779],[-2.19809,52.20744],[-2.19716,52.20712],[-2.19767,52.20598],[-2.19817,52.20577],[-2.19833,52.20544],[-2.19777,52.20536],[-2.19813,52.20486],[-2.19966,52.20426],[-2.20078,52.20582],[-2.20265,52.20425],[-2.20387,52.20426],[-2.20729,52.20313],[-2.20719,52.20213],[-2.20804,52.20238],[-2.20865,52.20218],[-2.20886,52.20269],[-2.2081,52.20347],[-2.20834,52.20368],[-2.20818,52.20453],[-2.20979,52.20493],[-2.21025,52.20551],[-2.20623,52.20561],[-2.20503,52.20667],[-2.20434,52.20654],[-2.20259,52.21026],[-2.20175,52.20972]]]}},{"type":"Feature","properties":{"id":"E01032311","name":"E01032311","parent":"E07000237","type":"LSOA","pop":1538,"r":202,"ff":87,"ffd":5656.7,"ffs":0.5506,"g":44,"co":0,"mo":2,"sa":0,"ic":0},"geometry":{"type":"Polygon","coordinates":[[[-2.19235,52.20538],[-2.1919,52.2037],[-2.19348,52.2026],[-2.19723,52.2026],[-2.20179,52.20174],[-2.20172,52.2015],[-2.20563,52.20111],[-2.20607,52.20166],[-2.2073,52.20154],[-2.20729,52.20313],[-2.20387,52.20426],[-2.20265,52.20425],[-2.20078,52.20582],[-2.19966,52.20426],[-2.19813,52.20486],[-2.19777,52.20536],[-2.19833,52.20544],[-2.19817,52.20577],[-2.19767,52.20598],[-2.19769,52.2057],[-2.19235,52.20538]]]}},{"type":"Feature","properties":{"id":"E01032312","name":"E01032312","parent":"E07000237","type":"LSOA","pop":1468,"r":206,"ff":88,"ffd":5994.6,"ffs":0.55,"g":46,"co":0,"mo":2,"sa":0,"ic":0},"geometry":{"type":"Polygon","coordinates":[[[-2.20836,52.19981],[-2.20859,52.1982],[-2.21114,52.19883],[-2.21141,52.19859],[-2.21053,52.19848],[-2.21132,52.19811],[-2.21143,52.19735],[-2.21375,52.1976],[-2.21321,52.19818],[-2.21377,52.19858],[-2.21225,52.20141],[-2.21157,52.20202],[-2.21323,52.20452],[-2.21408,52.20547],[-2.21025,52.20551],[-2.20979,52.20493],[-2.20818,52.20453],[-2.20834,52.20368],[-2.2081,52.20347],[-2.20886,52.20269],[-2.20865,52.20218],[-2.20891,52.20183],[-2.20997,52.20165],[-2.20836,52.19981]]]}},{"type":"Feature","properties":{"id":"E01032313","name":"E01032313","parent":"E07000237","type":"LSOA","pop":1364,"r":204,"ff":89,"ffd":6524.9,"ffs":0.5597,"g":45,"co":0,"mo":2,"sa":0,"ic":0},"geometry":{"type":"Polygon","coordinates":[[[-2.20719,52.20213],[-2.2073,52.20154],[-2.20607,52.20166],[-2.20563,52.20111],[-2.20172,52.2015],[-2.19989,52.19826],[-2.2027,52.19763],[-2.20486,52.19741],[-2.20762,52.19615],[-2.2098,52.19601],[-2.21143,52.19735],[-2.21132,52.19811],[-2.21053,52.19848],[-2.21141,52.19859],[-2.21114,52.19883],[-2.20859,52.1982],[-2.20836,52.19981],[-2.20997,52.20165],[-2.20891,52.20183],[-2.20865,52.20218],[-2.20804,52.20238],[-2.20719,52.20213]]]}},{"type":"Feature","properties":{"id":"E01032314","name":"E01032314","parent":"E07000237","type":"LSOA","pop":1183,"r":204,"ff":80,"ffd":6762.5,"ffs":0.5263,"g":52,"co":0,"mo":2,"sa":0,"ic":0},"geometry":{"type":"Polygon","coordinates":[[[-2.24766,52.20153],[-2.24706,52.2004],[-2.24678,52.20071],[-2.24519,52.20074],[-2.24529,52.20051],[-2.24411,52.20031],[-2.24394,52.2],[-2.2445,52.19922],[-2.24404,52.19808],[-2.24428,52.19738],[-2.24373,52.19692],[-2.2429,52.19692],[-2.24102,52.19739],[-2.24165,52.19568],[-2.24116,52.1952],[-2.24254,52.1952],[-2.24325,52.19478],[-2.2449,52.19521],[-2.24487,52.19585],[-2.24525,52.19565],[-2.24686,52.19632],[-2.24781,52.19598],[-2.24683,52.19667],[-2.24798,52.19658],[-2.24866,52.1972],[-2.25024,52.19743],[-2.25091,52.19976],[-2.24766,52.20153]]]}},{"type":"Feature","properties":{"id":"E01032315","name":"E01032315","parent":"E07000237","type":"LSOA","pop":1997,"r":206,"ff":84,"ffd":4206.3,"ffs":0.5455,"g":52,"co":0,"mo":2,"sa":0,"ic":0},"geometry":{"type":"Polygon","coordinates":[[[-2.24194,52.20056],[-2.23807,52.19933],[-2.23721,52.20017],[-2.23326,52.19571],[-2.22967,52.19323],[-2.2344,52.19114],[-2.23641,52.19059],[-2.23733,52.19283],[-2.2387,52.19257],[-2.23923,52.19279],[-2.2386,52.19295],[-2.23912,52.19446],[-2.23957,52.19442],[-2.23963,52.1948],[-2.23918,52.19497],[-2.24042,52.19514],[-2.24046,52.19454],[-2.24118,52.19449],[-2.24185,52.19517],[-2.24116,52.1952],[-2.24165,52.19568],[-2.24102,52.19739],[-2.2429,52.19692],[-2.24373,52.19692],[-2.24428,52.19738],[-2.24404,52.19808],[-2.2445,52.19922],[-2.24394,52.2],[-2.24319,52.20046],[-2.24292,52.20013],[-2.24183,52.19995],[-2.24194,52.20056]]]}},{"type":"Feature","properties":{"id":"E01032316","name":"E01032316","parent":"E07000237","type":"LSOA","pop":1227,"r":196,"ff":78,"ffd":6357.0,"ffs":0.5306,"g":49,"co":0,"mo":2,"sa":0,"ic":0},"geometry":{"type":"Polygon","coordinates":[[[-2.23489,52.21146],[-2.23538,52.20783],[-2.2359,52.20666],[-2.24147,52.2057],[-2.24172,52.20606],[-2.24232,52.20594],[-2.2422,52.20558],[-2.24278,52.2054],[-2.24339,52.20617],[-2.24426,52.20616],[-2.24404,52.20575],[-2.24467,52.20523],[-2.24556,52.20532],[-2.24535,52.20577],[-2.24621,52.20586],[-2.24642,52.20561],[-2.2459,52.20499],[-2.2466,52.2047],[-2.24714,52.2037],[-2.24725,52.20411],[-2.2488,52.2043],[-2.24968,52.20591],[-2.24914,52.20606],[-2.24892,52.20665],[-2.24944,52.2071],[-2.24878,52.2073],[-2.24776,52.20845],[-2.24846,52.20992],[-2.24861,52.21087],[-2.24813,52.21046],[-2.24567,52.21132],[-2.24302,52.20897],[-2.24134,52.20939],[-2.2378,52.21079],[-2.23489,52.21146]]]}},{"type":"Feature","properties":{"id":"E01032317","name":"E01032317","parent":"E07000237","type":"LSOA","pop":1556,"r":202,"ff":81,"ffd":5205.7,"ffs":0.5364,"g":51,"co":0,"mo":2,"sa":0,"ic":0},"geometry":{"type":"Polygon","coordinates":[[[-2.23604,52.2064],[-2.23844,52.20366],[-2.23903,52.20204],[-2.23721,52.20017],[-2.23807,52.19933],[-2.24194,52.20056],[-2.24183,52.19995],[-2.24292,52.20013],[-2.24319,52.20046],[-2.24394,52.2],[-2.24411,52.20031],[-2.24529,52.20051],[-2.24519,52.20074],[-2.24678,52.20071],[-2.24706,52.2004],[-2.24766,52.20153],[-2.2471,52.20189],[-2.24757,52.20262],[-2.24702,52.20316],[-2.24715,52.2037],[-2.2466,52.2047],[-2.2459,52.20499],[-2.24642,52.20561],[-2.24621,52.20586],[-2.24535,52.20577],[-2.24556,52.20532],[-2.24467,52.20523],[-2.24404,52.20575],[-2.24426,52.20616],[-2.24339,52.20617],[-2.24278,52.2054],[-2.2422,52.20558],[-2.24232,52.20594],[-2.24172,52.20606],[-2.24147,52.2057],[-2.2359,52.20666],[-2.23604,52.2064]]]}},{"type":"Feature","properties":{"id":"E01032318","name":"E01032318","parent":"E07000237","type":"LSOA","pop":1805,"r":204,"ff":81,"ffd":4487.5,"ffs":0.5294,"g":51,"co":0,"mo":0,"sa":0,"ic":0},"geometry":{"type":"Polygon","coordinates":[[[-2.25708,52.1967],[-2.25512,52.19618],[-2.25579,52.19586],[-2.25618,52.19631],[-2.25808,52.19622],[-2.258,52.19555],[-2.25627,52.19549],[-2.25617,52.19499],[-2.25667,52.19484],[-2.25648,52.19443],[-2.25557,52.19489],[-2.25131,52.19467],[-2.25017,52.19165],[-2.25062,52.19032],[-2.25123,52.19051],[-2.25077,52.19146],[-2.25141,52.19321],[-2.2518,52.19317],[-2.25188,52.19267],[-2.25165,52.19168],[-2.25252,52.19176],[-2.25267,52.19248],[-2.25405,52.19253],[-2.25566,52.19175],[-2.25572,52.19138],[-2.25995,52.19077],[-2.25995,52.19112],[-2.25928,52.19125],[-2.25947,52.19149],[-2.2581,52.19131],[-2.25736,52.19212],[-2.26044,52.1921],[-2.26046,52.19401],[-2.26002,52.19506],[-2.26053,52.19634],[-2.25708,52.1967]]]}},{"type":"Feature","properties":{"id":"E01032319","name":"E01032319","parent":"E07000237","type":"LSOA","pop":1984,"r":202,"ff":79,"ffd":3981.9,"ffs":0.5267,"g":52,"co":0,"mo":0,"sa":0,"ic":0},"geometry":{"type":"Polygon","coordinates":[[[-2.24866,52.1972],[-2.24798,52.19658],[-2.24683,52.19667],[-2.24781,52.19598],[-2.24686,52.19632],[-2.24525,52.19565],[-2.24487,52.19585],[-2.2449,52.19521],[-2.24325,52.19478],[-2.24254,52.1952],[-2.24185,52.19517],[-2.24118,52.19449],[-2.24248,52.1943],[-2.24273,52.19361],[-2.24231,52.19292],[-2.24266,52.1925],[-2.24461,52.19264],[-2.24517,52.19199],[-2.24435,52.19106],[-2.24497,52.1904],[-2.24513,52.18912],[-2.24457,52.18857],[-2.24955,52.18702],[-2.24919,52.1894],[-2.24813,52.18979],[-2.24802,52.19073],[-2.24851,52.19129],[-2.2482,52.19195],[-2.24856,52.19138],[-2.24963,52.19186],[-2.25017,52.19165],[-2.25131,52.19467],[-2.25557,52.19489],[-2.25648,52.19443],[-2.25667,52.19484],[-2.25617,52.19499],[-2.25627,52.19549],[-2.258,52.19555],[-2.25808,52.19622],[-2.25618,52.19631],[-2.25579,52.19586],[-2.25512,52.19618],[-2.25128,52.19671],[-2.25024,52.19743],[-2.24866,52.1972]]]}},{"type":"Feature","properties":{"id":"E01032320","name":"E01032320","parent":"E07000237","type":"LSOA","pop":1751,"r":206,"ff":83,"ffd":4740.1,"ffs":0.539,"g":52,"co":0,"mo":0,"sa":0,"ic":0},"geometry":{"type":"Polygon","coordinates":[[[-2.23963,52.1948],[-2.23957,52.19442],[-2.23912,52.19446],[-2.2386,52.19295],[-2.23923,52.19279],[-2.2387,52.19257],[-2.23733,52.19283],[-2.23641,52.19059],[-2.23577,52.19074],[-2.23874,52.19003],[-2.23887,52.19049],[-2.23951,52.1903],[-2.239,52.18892],[-2.24042,52.18877],[-2.24043,52.18904],[-2.2409,52.18873],[-2.24103,52.1882],[-2.24062,52.18823],[-2.24047,52.18794],[-2.24121,52.18779],[-2.24099,52.18746],[-2.24016,52.18744],[-2.24031,52.18707],[-2.24169,52.1867],[-2.24259,52.18688],[-2.24311,52.18666],[-2.2432,52.18684],[-2.24397,52.18668],[-2.24441,52.18719],[-2.24512,52.18704],[-2.24596,52.18816],[-2.24457,52.18857],[-2.24513,52.18912],[-2.24497,52.1904],[-2.24435,52.19106],[-2.24517,52.19199],[-2.24461,52.19264],[-2.24266,52.1925],[-2.24231,52.19292],[-2.24273,52.19361],[-2.24248,52.1943],[-2.24046,52.19454],[-2.24042,52.19514],[-2.23918,52.19497],[-2.23963,52.1948]]]}},{"type":"Feature","properties":{"id":"E01032321","name":"E01032321","parent":"E07000237","type":"LSOA","pop":1949,"r":206,"ff":83,"ffd":4258.6,"ffs":0.5355,"g":51,"co":0,"mo":0,"sa":0,"ic":0},"geometry":{"type":"Polygon","coordinates":[[[-2.25141,52.19321],[-2.25077,52.19146],[-2.25123,52.19051],[-2.25062,52.19032],[-2.25017,52.19165],[-2.24963,52.19186],[-2.24856,52.19138],[-2.2482,52.19195],[-2.24851,52.19129],[-2.24802,52.19073],[-2.24813,52.18979],[-2.24919,52.1894],[-2.24955,52.18702],[-2.25026,52.18677],[-2.25113,52.18729],[-2.25246,52.18679],[-2.25307,52.18695],[-2.25397,52.18645],[-2.25498,52.18749],[-2.25675,52.18811],[-2.25702,52.18871],[-2.25741,52.18848],[-2.25935,52.18918],[-2.26148,52.18937],[-2.26136,52.18974],[-2.26184,52.1898],[-2.26124,52.19071],[-2.25572,52.19138],[-2.25566,52.19175],[-2.25405,52.19253],[-2.25267,52.19248],[-2.25252,52.19176],[-2.25165,52.19168],[-2.25188,52.19267],[-2.2518,52.19317],[-2.25141,52.19321]]]}},{"type":"Feature","properties":{"id":"E01032322","name":"E01032322","parent":"E07000237","type":"LSOA","pop":1974,"r":210,"ff":85,"ffd":4306.0,"ffs":0.538,"g":52,"co":0,"mo":0,"sa":0,"ic":0},"geometry":{"type":"Polygon","coordinates":[[[-2.22603,52.19114],[-2.22783,52.18982],[-2.22943,52.18926],[-2.2335,52.18873],[-2.23449,52.18842],[-2.23599,52.18685],[-2.24319,52.1859],[-2.24311,52.18666],[-2.24259,52.18688],[-2.24169,52.1867],[-2.24031,52.18707],[-2.24016,52.18744],[-2.24099,52.18746],[-2.24121,52.18779],[-2.24047,52.18794],[-2.24062,52.18823],[-2.24103,52.1882],[-2.2409,52.18873],[-2.24043,52.18904],[-2.24042,52.18877],[-2.239,52.18892],[-2.23951,52.1903],[-2.23887,52.19049],[-2.23874,52.19003],[-2.2344,52.19114],[-2.22967,52.19323],[-2.22603,52.19114]]]}},{"type":"Feature","properties":{"id":"E01032323","name":"E01032323","parent":"E07000237","type":"LSOA","pop":1447,"r":220,"ff":90,"ffd":6219.8,"ffs":0.5422,"g":54,"co":2,"mo":2,"sa":0,"ic":0},"geometry":{"type":"Polygon","coordinates":[[[-2.20881,52.16926],[-2.20843,52.16899],[-2.20876,52.16877],[-2.20853,52.16831],[-2.20805,52.16837],[-2.20823,52.16751],[-2.20956,52.16666],[-2.2099,52.16692],[-2.21031,52.16675],[-2.21001,52.1665],[-2.21052,52.16627],[-2.2111,52.16617],[-2.21143,52.16648],[-2.21256,52.1655],[-2.2131,52.16543],[-2.21308,52.16572],[-2.21404,52.16527],[-2.21281,52.16414],[-2.2117,52.16444],[-2.21155,52.1642],[-2.21168,52.16337],[-2.21104,52.16254],[-2.21432,52.16167],[-2.21635,52.16165],[-2.2176,52.162],[-2.21777,52.1631],[-2.21968,52.16544],[-2.22048,52.16735],[-2.21924,52.16953],[-2.21378,52.16901],[-2.21359,52.16922],[-2.2098,52.17036],[-2.20948,52.1699],[-2.20817,52.16977],[-2.20881,52.16926]]]}},{"type":"Feature","properties":{"id":"E01032324","name":"E01032324","parent":"E07000237","type":"LSOA","pop":1332,"r":218,"ff":90,"ffd":6756.8,"ffs":0.5455,"g":53,"co":2,"mo":2,"sa":0,"ic":0},"geometry":{"type":"Polygon","coordinates":[[[-2.20214,52.16924],[-2.20023,52.169],[-2.19984,52.16821],[-2.20337,52.16732],[-2.2034,52.16687],[-2.20459,52.16648],[-2.20533,52.16563],[-2.20644,52.16536],[-2.20741,52.16445],[-2.21155,52.1642],[-2.2117,52.16444],[-2.21281,52.16414],[-2.21404,52.16527],[-2.21308,52.16572],[-2.2131,52.16543],[-2.21256,52.1655],[-2.21143,52.16648],[-2.2111,52.16617],[-2.21052,52.16627],[-2.21001,52.1665],[-2.21031,52.16675],[-2.2099,52.16692],[-2.20956,52.16666],[-2.20823,52.16751],[-2.20805,52.16837],[-2.20853,52.16831],[-2.20876,52.16877],[-2.20843,52.16899],[-2.20881,52.16926],[-2.2079,52.16997],[-2.2061,52.16913],[-2.20484,52.16991],[-2.20447,52.17088],[-2.20494,52.17243],[-2.203,52.1727],[-2.20196,52.17219],[-2.20121,52.17096],[-2.2011,52.17013],[-2.20214,52.16924]]]}},{"type":"Feature","properties":{"id":"E01032325","name":"E01032325","parent":"E07000237","type":"LSOA","pop":1470,"r":216,"ff":90,"ffd":6122.4,"ffs":0.5521,"g":53,"co":2,"mo":2,"sa":0,"ic":0},"geometry":{"type":"Polygon","coordinates":[[[-2.18606,52.1767],[-2.18849,52.17561],[-2.18699,52.17457],[-2.18634,52.17452],[-2.18672,52.1726],[-2.18937,52.17055],[-2.19019,52.1705],[-2.191,52.17091],[-2.19183,52.1703],[-2.19648,52.17019],[-2.19675,52.16974],[-2.2001,52.16947],[-2.20023,52.169],[-2.20214,52.16924],[-2.2011,52.17013],[-2.20121,52.17096],[-2.20196,52.17219],[-2.203,52.1727],[-2.20094,52.17362],[-2.20097,52.17419],[-2.20242,52.17321],[-2.20375,52.17331],[-2.20347,52.17418],[-2.20383,52.17509],[-2.19803,52.17587],[-2.19604,52.17671],[-2.19475,52.17659],[-2.19172,52.17797],[-2.19048,52.17807],[-2.1885,52.17923],[-2.18606,52.1767]]]}},{"type":"Feature","properties":{"id":"E01032326","name":"E01032326","parent":"E07000237","type":"LSOA","pop":1311,"r":219,"ff":90,"ffd":6865.0,"ffs":0.5455,"g":54,"co":2,"mo":2,"sa":0,"ic":0},"geometry":{"type":"Polygon","coordinates":[[[-2.20383,52.17509],[-2.20347,52.17418],[-2.20375,52.17331],[-2.20242,52.17321],[-2.20097,52.17419],[-2.20094,52.17362],[-2.203,52.1727],[-2.20494,52.17243],[-2.20447,52.17088],[-2.20484,52.16991],[-2.2061,52.16913],[-2.2079,52.16997],[-2.20817,52.16977],[-2.20948,52.1699],[-2.2098,52.17036],[-2.21359,52.16922],[-2.21253,52.17224],[-2.21063,52.17232],[-2.21039,52.17258],[-2.21084,52.17399],[-2.20923,52.17422],[-2.20815,52.17498],[-2.20636,52.17449],[-2.20383,52.17509]]]}},{"type":"Feature","properties":{"id":"E01032327","name":"E01032327","parent":"E07000237","type":"LSOA","pop":2161,"r":204,"ff":85,"ffd":3933.4,"ffs":0.5414,"g":47,"co":0,"mo":2,"sa":0,"ic":0},"geometry":{"type":"Polygon","coordinates":[[[-2.21754,52.21055],[-2.21883,52.20971],[-2.22005,52.20948],[-2.22033,52.209],[-2.21991,52.20892],[-2.21945,52.20756],[-2.21505,52.20921],[-2.21447,52.20877],[-2.21481,52.20711],[-2.21574,52.20649],[-2.21549,52.2052],[-2.21972,52.20447],[-2.22121,52.20496],[-2.22265,52.20463],[-2.22657,52.20468],[-2.22643,52.20436],[-2.22689,52.20428],[-2.22722,52.20583],[-2.22716,52.20678],[-2.22469,52.20959],[-2.22407,52.20969],[-2.22357,52.21025],[-2.22122,52.21005],[-2.22079,52.21054],[-2.21995,52.21067],[-2.21954,52.20991],[-2.21805,52.2108],[-2.21754,52.21055]]]}},{"type":"Feature","properties":{"id":"E01032328","name":"E01032328","parent":"E07000237","type":"LSOA","pop":1373,"r":204,"ff":87,"ffd":6336.5,"ffs":0.5472,"g":45,"co":0,"mo":2,"sa":0,"ic":0},"geometry":{"type":"Polygon","coordinates":[[[-2.20058,52.21463],[-2.20434,52.20654],[-2.20503,52.20667],[-2.20623,52.20561],[-2.21408,52.20547],[-2.21549,52.2052],[-2.21574,52.20649],[-2.21481,52.20711],[-2.21178,52.20707],[-2.21027,52.20769],[-2.20977,52.20723],[-2.20933,52.20725],[-2.20793,52.20762],[-2.20746,52.2081],[-2.20792,52.20845],[-2.20625,52.20911],[-2.20586,52.20991],[-2.20589,52.21067],[-2.20679,52.21101],[-2.20677,52.21139],[-2.20528,52.21151],[-2.20485,52.21172],[-2.20521,52.21201],[-2.20374,52.21251],[-2.20486,52.21315],[-2.20588,52.21233],[-2.20641,52.21331],[-2.20558,52.21328],[-2.20533,52.21424],[-2.20572,52.21461],[-2.20617,52.21453],[-2.20636,52.21511],[-2.19976,52.21643],[-2.20058,52.21463]]]}},{"type":"Feature","properties":{"id":"E01032329","name":"E01032329","parent":"E07000237","type":"LSOA","pop":2014,"r":204,"ff":87,"ffd":4319.8,"ffs":0.5472,"g":45,"co":0,"mo":2,"sa":0,"ic":0},"geometry":{"type":"Polygon","coordinates":[[[-2.21513,52.21561],[-2.21484,52.21425],[-2.21548,52.21303],[-2.2148,52.21286],[-2.21506,52.21208],[-2.21415,52.21176],[-2.21042,52.21158],[-2.20732,52.21463],[-2.20636,52.21511],[-2.20617,52.21453],[-2.20572,52.21461],[-2.20533,52.21424],[-2.20558,52.21328],[-2.20641,52.21331],[-2.20588,52.21233],[-2.20486,52.21315],[-2.20374,52.21251],[-2.20521,52.21201],[-2.20485,52.21172],[-2.20528,52.21151],[-2.20677,52.21139],[-2.20679,52.21101],[-2.20589,52.21067],[-2.20586,52.20991],[-2.20625,52.20911],[-2.20792,52.20845],[-2.20746,52.2081],[-2.20793,52.20762],[-2.20933,52.20725],[-2.20977,52.20723],[-2.21027,52.20769],[-2.21178,52.20707],[-2.21481,52.20711],[-2.21447,52.20877],[-2.21505,52.20921],[-2.21945,52.20756],[-2.21991,52.20892],[-2.22033,52.209],[-2.22005,52.20948],[-2.21883,52.20971],[-2.21754,52.21055],[-2.21805,52.2108],[-2.21954,52.20991],[-2.21995,52.21067],[-2.22079,52.21054],[-2.22122,52.21005],[-2.22357,52.21025],[-2.22407,52.20969],[-2.22469,52.20959],[-2.2208,52.21504],[-2.21952,52.21457],[-2.21774,52.21452],[-2.21513,52.21561]]]}},{"type":"Feature","properties":{"id":"E01032330","name":"E01032330","parent":"E07000237","type":"LSOA","pop":1144,"r":202,"ff":86,"ffd":7517.5,"ffs":0.5513,"g":46,"co":0,"mo":2,"sa":0,"ic":0},"geometry":{"type":"Polygon","coordinates":[[[-2.18888,52.2212],[-2.17113,52.21767],[-2.16829,52.21685],[-2.16763,52.21638],[-2.16923,52.21594],[-2.17193,52.21582],[-2.18707,52.21845],[-2.19537,52.21679],[-2.19575,52.2161],[-2.19237,52.21571],[-2.19269,52.21452],[-2.19383,52.21461],[-2.19432,52.21428],[-2.19359,52.21377],[-2.19398,52.2135],[-2.19375,52.21331],[-2.19455,52.21302],[-2.19409,52.21215],[-2.19502,52.21172],[-2.19741,52.21147],[-2.19543,52.21064],[-2.19646,52.2092],[-2.19734,52.20869],[-2.1968,52.20864],[-2.19712,52.2079],[-2.19777,52.20779],[-2.1978,52.20865],[-2.19851,52.20884],[-2.19841,52.20911],[-2.20045,52.20984],[-2.20138,52.20936],[-2.20259,52.21026],[-2.19648,52.22367],[-2.19425,52.22349],[-2.19209,52.22239],[-2.18888,52.2212]]]}},{"type":"Feature","properties":{"id":"E01032331","name":"E01032331","parent":"E07000237","type":"LSOA","pop":1427,"r":205,"ff":88,"ffd":6166.8,"ffs":0.557,"g":47,"co":0,"mo":2,"sa":0,"ic":0},"geometry":{"type":"Polygon","coordinates":[[[-2.18844,52.21541],[-2.18828,52.21446],[-2.18888,52.21421],[-2.18796,52.21333],[-2.18835,52.21321],[-2.18804,52.21263],[-2.18754,52.21272],[-2.1874,52.21245],[-2.18788,52.21229],[-2.18761,52.21097],[-2.18712,52.21064],[-2.18774,52.20906],[-2.1906,52.20957],[-2.19052,52.21023],[-2.18981,52.21058],[-2.19039,52.21066],[-2.19153,52.2112],[-2.19207,52.21093],[-2.19215,52.21167],[-2.1927,52.21149],[-2.19409,52.21215],[-2.19455,52.21302],[-2.19375,52.21331],[-2.19398,52.2135],[-2.19359,52.21377],[-2.19432,52.21428],[-2.19383,52.21461],[-2.19269,52.21452],[-2.19237,52.21571],[-2.18844,52.21541]]]}},{"type":"Feature","properties":{"id":"E01032332","name":"E01032332","parent":"E07000237","type":"LSOA","pop":1310,"r":205,"ff":88,"ffd":6717.6,"ffs":0.557,"g":47,"co":0,"mo":2,"sa":0,"ic":0},"geometry":{"type":"Polygon","coordinates":[[[-2.18231,52.21338],[-2.1829,52.21215],[-2.18127,52.21179],[-2.1819,52.21096],[-2.18234,52.21074],[-2.18248,52.20956],[-2.18274,52.20908],[-2.18407,52.20971],[-2.1842,52.20914],[-2.18598,52.20931],[-2.18699,52.20909],[-2.18764,52.20921],[-2.18712,52.21064],[-2.18761,52.21097],[-2.18788,52.21229],[-2.1874,52.21245],[-2.18754,52.21272],[-2.18804,52.21263],[-2.18835,52.21321],[-2.18796,52.21333],[-2.18888,52.21421],[-2.18828,52.21446],[-2.18844,52.21541],[-2.18408,52.21477],[-2.18312,52.21439],[-2.18351,52.2138],[-2.18231,52.21338]]]}},{"type":"Feature","properties":{"id":"E01032333","name":"E01032333","parent":"E07000237","type":"LSOA","pop":1977,"r":202,"ff":87,"ffd":4400.6,"ffs":0.5541,"g":45,"co":0,"mo":2,"sa":0,"ic":0},"geometry":{"type":"Polygon","coordinates":[[[-2.19336,52.21175],[-2.1927,52.21149],[-2.19215,52.21167],[-2.19207,52.21093],[-2.19153,52.2112],[-2.19039,52.21066],[-2.18981,52.21058],[-2.19052,52.21023],[-2.1906,52.20957],[-2.18774,52.20906],[-2.1882,52.20879],[-2.18932,52.20908],[-2.19042,52.20754],[-2.1921,52.20624],[-2.19165,52.2054],[-2.19769,52.2057],[-2.19716,52.20712],[-2.19809,52.20744],[-2.19777,52.20779],[-2.19712,52.2079],[-2.1968,52.20864],[-2.19734,52.20869],[-2.19646,52.2092],[-2.19543,52.21064],[-2.19741,52.21147],[-2.19502,52.21172],[-2.19409,52.21215],[-2.19336,52.21175]]]}},{"type":"Feature","properties":{"id":"E01032334","name":"E01032334","parent":"E07000237","type":"LSOA","pop":2317,"r":209,"ff":88,"ffd":3798.0,"ffs":0.557,"g":51,"co":0,"mo":2,"sa":0,"ic":0},"geometry":{"type":"Polygon","coordinates":[[[-2.17209,52.20878],[-2.17189,52.20852],[-2.17083,52.20881],[-2.17084,52.20778],[-2.17132,52.20745],[-2.17187,52.20775],[-2.17268,52.20759],[-2.17293,52.20698],[-2.17192,52.20724],[-2.17149,52.20695],[-2.17185,52.20672],[-2.17145,52.20623],[-2.17236,52.20502],[-2.17283,52.20514],[-2.17319,52.20486],[-2.17219,52.2046],[-2.17236,52.20386],[-2.17146,52.20386],[-2.17134,52.20329],[-2.17363,52.20276],[-2.17408,52.20326],[-2.17459,52.20448],[-2.17649,52.20381],[-2.18059,52.20346],[-2.18136,52.20384],[-2.18182,52.20317],[-2.1826,52.20285],[-2.18497,52.20268],[-2.18539,52.20345],[-2.18146,52.20653],[-2.1805,52.20863],[-2.18036,52.20936],[-2.17946,52.20938],[-2.17925,52.20865],[-2.17451,52.20846],[-2.17405,52.20934],[-2.17459,52.20943],[-2.17482,52.21007],[-2.17419,52.21033],[-2.17319,52.20955],[-2.17363,52.20943],[-2.17321,52.20907],[-2.17209,52.20878]]]}},{"type":"Feature","properties":{"id":"E01032335","name":"E01032335","parent":"E07000237","type":"LSOA","pop":1491,"r":204,"ff":87,"ffd":5835.0,"ffs":0.5613,"g":49,"co":0,"mo":2,"sa":0,"ic":0},"geometry":{"type":"Polygon","coordinates":[[[-2.16231,52.21405],[-2.1597,52.21328],[-2.15899,52.21362],[-2.15779,52.21339],[-2.15737,52.21263],[-2.15843,52.21212],[-2.16263,52.20339],[-2.16497,52.20013],[-2.16692,52.20059],[-2.1678,52.20051],[-2.1678,52.20107],[-2.16934,52.20145],[-2.17053,52.20091],[-2.17144,52.20105],[-2.17363,52.20276],[-2.17134,52.20329],[-2.17146,52.20386],[-2.17236,52.20386],[-2.17219,52.2046],[-2.17319,52.20486],[-2.17283,52.20514],[-2.17236,52.20502],[-2.17145,52.20623],[-2.17185,52.20672],[-2.17149,52.20695],[-2.17192,52.20724],[-2.17293,52.20698],[-2.17268,52.20759],[-2.17187,52.20775],[-2.17132,52.20745],[-2.17084,52.20778],[-2.17083,52.20881],[-2.17189,52.20852],[-2.17209,52.20878],[-2.17115,52.20969],[-2.17265,52.21025],[-2.17247,52.21096],[-2.17156,52.21119],[-2.17066,52.2108],[-2.16995,52.21097],[-2.16982,52.21064],[-2.16826,52.21003],[-2.16868,52.20931],[-2.16824,52.20924],[-2.16766,52.20952],[-2.16632,52.20948],[-2.16729,52.21015],[-2.16682,52.21094],[-2.16875,52.21115],[-2.16875,52.21152],[-2.17085,52.21173],[-2.17003,52.21336],[-2.16571,52.21329],[-2.16291,52.21268],[-2.16231,52.21405]]]}},{"type":"Feature","properties":{"id":"E01032336","name":"E01032336","parent":"E07000237","type":"LSOA","pop":1491,"r":206,"ff":88,"ffd":5902.1,"ffs":0.5605,"g":49,"co":0,"mo":2,"sa":0,"ic":0},"geometry":{"type":"Polygon","coordinates":[[[-2.18112,52.21733],[-2.17193,52.21582],[-2.16923,52.21594],[-2.16763,52.21638],[-2.16231,52.21405],[-2.16291,52.21268],[-2.16571,52.21329],[-2.17003,52.21336],[-2.17085,52.21173],[-2.16875,52.21152],[-2.16875,52.21115],[-2.16682,52.21094],[-2.16729,52.21015],[-2.16632,52.20948],[-2.16766,52.20952],[-2.16824,52.20924],[-2.16868,52.20931],[-2.16826,52.21003],[-2.16982,52.21064],[-2.16995,52.21097],[-2.17066,52.2108],[-2.17156,52.21119],[-2.17247,52.21096],[-2.17265,52.21025],[-2.17115,52.20969],[-2.17209,52.20878],[-2.17321,52.20907],[-2.17363,52.20943],[-2.17319,52.20955],[-2.17419,52.21033],[-2.17482,52.21007],[-2.17459,52.20943],[-2.17405,52.20934],[-2.17451,52.20846],[-2.17925,52.20865],[-2.17946,52.20938],[-2.18036,52.20936],[-2.1802,52.21053],[-2.1819,52.21096],[-2.18127,52.21179],[-2.1829,52.21215],[-2.18231,52.21338],[-2.18351,52.2138],[-2.18312,52.21439],[-2.18408,52.21477],[-2.18844,52.21541],[-2.19575,52.2161],[-2.19537,52.21679],[-2.18707,52.21845],[-2.18112,52.21733]]]}},{"type":"Feature","properties":{"id":"E01032337","name":"E01032337","parent":"E07000237","type":"LSOA","pop":2690,"r":209,"ff":89,"ffd":3308.6,"ffs":0.5597,"g":50,"co":0,"mo":2,"sa":0,"ic":0},"geometry":{"type":"Polygon","coordinates":[[[-2.18539,52.20345],[-2.18497,52.20268],[-2.1826,52.20285],[-2.18095,52.20251],[-2.18101,52.20316],[-2.17879,52.20341],[-2.17866,52.2022],[-2.17767,52.20274],[-2.17684,52.20249],[-2.17647,52.20277],[-2.17569,52.20271],[-2.1753,52.20219],[-2.17592,52.20173],[-2.17562,52.20142],[-2.17493,52.20142],[-2.17417,52.20213],[-2.17361,52.20159],[-2.17586,52.20072],[-2.17607,52.20128],[-2.17746,52.20135],[-2.1774,52.20158],[-2.17844,52.20093],[-2.17986,52.20053],[-2.18312,52.20015],[-2.18272,52.19889],[-2.18033,52.19682],[-2.17832,52.19581],[-2.17904,52.19536],[-2.18121,52.19609],[-2.18158,52.19482],[-2.18126,52.19453],[-2.18053,52.19461],[-2.18051,52.19437],[-2.18151,52.19426],[-2.18284,52.19484],[-2.18304,52.19436],[-2.18049,52.19363],[-2.1807,52.19311],[-2.18444,52.19394],[-2.19534,52.19459],[-2.19617,52.1959],[-2.19388,52.1968],[-2.19166,52.19815],[-2.19042,52.19912],[-2.19073,52.19959],[-2.18539,52.20345]]]}},{"type":"Feature","properties":{"id":"E01032338","name":"E01032338","parent":"E07000237","type":"LSOA","pop":1949,"r":211,"ff":88,"ffd":4515.1,"ffs":0.55,"g":51,"co":0,"mo":2,"sa":0,"ic":0},"geometry":{"type":"Polygon","coordinates":[[[-2.17459,52.20448],[-2.17408,52.20326],[-2.17363,52.20276],[-2.17144,52.20105],[-2.17053,52.20091],[-2.16934,52.20145],[-2.1678,52.20107],[-2.1678,52.20051],[-2.16692,52.20059],[-2.16795,52.19843],[-2.16924,52.19842],[-2.17,52.19872],[-2.1707,52.19934],[-2.17045,52.19991],[-2.17103,52.20013],[-2.17319,52.19984],[-2.1728,52.1993],[-2.17239,52.19951],[-2.1718,52.1993],[-2.17202,52.19877],[-2.173,52.19865],[-2.17419,52.1976],[-2.17298,52.19766],[-2.17249,52.19819],[-2.17161,52.19756],[-2.17061,52.19748],[-2.17084,52.19692],[-2.17165,52.19687],[-2.17217,52.19724],[-2.17444,52.19661],[-2.17266,52.19503],[-2.17209,52.19421],[-2.17246,52.1931],[-2.17327,52.19315],[-2.173,52.1938],[-2.17356,52.19382],[-2.1739,52.19424],[-2.17449,52.19401],[-2.17418,52.19305],[-2.17491,52.19274],[-2.17532,52.19384],[-2.17495,52.19408],[-2.17713,52.19411],[-2.17728,52.19449],[-2.17447,52.19491],[-2.17538,52.19532],[-2.17524,52.19577],[-2.17572,52.19556],[-2.17588,52.19614],[-2.17517,52.19638],[-2.17528,52.19675],[-2.17628,52.19665],[-2.17688,52.19757],[-2.17738,52.19761],[-2.17651,52.19816],[-2.17673,52.19856],[-2.17751,52.19862],[-2.17891,52.19816],[-2.17996,52.19751],[-2.18033,52.19682],[-2.18272,52.19889],[-2.18312,52.20015],[-2.17986,52.20053],[-2.17844,52.20093],[-2.1774,52.20158],[-2.17746,52.20135],[-2.17607,52.20128],[-2.17586,52.20072],[-2.17361,52.20159],[-2.17417,52.20213],[-2.17493,52.20142],[-2.17562,52.20142],[-2.17592,52.20173],[-2.1753,52.20219],[-2.17569,52.20271],[-2.17647,52.20277],[-2.17684,52.20249],[-2.17767,52.20274],[-2.17866,52.2022],[-2.17879,52.20341],[-2.18101,52.20316],[-2.18095,52.20251],[-2.1826,52.20285],[-2.18182,52.20317],[-2.18136,52.20384],[-2.18059,52.20346],[-2.17649,52.20381],[-2.17459,52.20448]]]}},{"type":"Feature","properties":{"id":"E01032339","name":"E01032339","parent":"E07000237","type":"LSOA","pop":1768,"r":216,"ff":89,"ffd":5033.9,"ffs":0.5494,"g":54,"co":0,"mo":2,"sa":0,"ic":0},"geometry":{"type":"Polygon","coordinates":[[[-2.16497,52.20013],[-2.16739,52.19648],[-2.16852,52.19191],[-2.17115,52.18456],[-2.17996,52.1841],[-2.18013,52.1845],[-2.17953,52.18471],[-2.17705,52.1851],[-2.17653,52.1849],[-2.17589,52.18572],[-2.17663,52.18651],[-2.178,52.1909],[-2.18015,52.19061],[-2.18085,52.19199],[-2.18049,52.19363],[-2.18304,52.19436],[-2.18284,52.19484],[-2.18151,52.19426],[-2.18051,52.19437],[-2.18053,52.19461],[-2.18126,52.19453],[-2.18158,52.19482],[-2.18121,52.19609],[-2.17904,52.19536],[-2.17832,52.19581],[-2.18033,52.19682],[-2.17996,52.19751],[-2.17891,52.19816],[-2.17751,52.19862],[-2.17673,52.19856],[-2.17651,52.19816],[-2.17738,52.19761],[-2.17688,52.19757],[-2.17628,52.19665],[-2.17528,52.19675],[-2.17517,52.19638],[-2.17588,52.19614],[-2.17572,52.19556],[-2.17524,52.19577],[-2.17538,52.19532],[-2.17447,52.19491],[-2.17728,52.19449],[-2.17713,52.19411],[-2.17495,52.19408],[-2.17532,52.19384],[-2.17491,52.19274],[-2.17418,52.19305],[-2.17449,52.19401],[-2.1739,52.19424],[-2.17356,52.19382],[-2.173,52.1938],[-2.17327,52.19315],[-2.17246,52.1931],[-2.17209,52.19421],[-2.17266,52.19503],[-2.17444,52.19661],[-2.17217,52.19724],[-2.17165,52.19687],[-2.17084,52.19692],[-2.17061,52.19748],[-2.17161,52.19756],[-2.17249,52.19819],[-2.17298,52.19766],[-2.17419,52.1976],[-2.173,52.19865],[-2.17202,52.19877],[-2.1718,52.1993],[-2.17239,52.19951],[-2.1728,52.1993],[-2.17319,52.19984],[-2.17103,52.20013],[-2.17045,52.19991],[-2.1707,52.19934],[-2.17,52.19872],[-2.16924,52.19842],[-2.16795,52.19843],[-2.16692,52.20059],[-2.16497,52.20013]]]}},{"type":"Feature","properties":{"id":"E01033246","name":"E01033246","parent":"E07000237","type":"LSOA","pop":1248,"r":214,"ff":86,"ffd":6891.0,"ffs":0.5342,"g":53,"co":0,"mo":2,"sa":0,"ic":0},"geometry":{"type":"Polygon","coordinates":[[[-2.2342,52.20643],[-2.233,52.20497],[-2.23278,52.20502],[-2.23017,52.20218],[-2.22963,52.20135],[-2.22637,52.20199],[-2.22639,52.20219],[-2.22589,52.20226],[-2.22522,52.2012],[-2.22671,52.20091],[-2.22574,52.1999],[-2.225,52.1987],[-2.22533,52.19832],[-2.22483,52.1983],[-2.22555,52.19785],[-2.22537,52.19629],[-2.22721,52.19553],[-2.22735,52.19462],[-2.22767,52.19401],[-2.22643,52.19315],[-2.22609,52.19324],[-2.22544,52.19241],[-2.2248,52.19261],[-2.22507,52.19229],[-2.22454,52.19212],[-2.22599,52.19232],[-2.22516,52.19183],[-2.22515,52.19144],[-2.22435,52.1915],[-2.2243,52.19214],[-2.22298,52.19226],[-2.22251,52.19178],[-2.22213,52.19084],[-2.22295,52.19078],[-2.22345,52.18973],[-2.22967,52.19323],[-2.23326,52.19571],[-2.23697,52.19995],[-2.23903,52.20204],[-2.23844,52.20366],[-2.23604,52.2064],[-2.23466,52.20599],[-2.2342,52.20643]]]}},{"type":"Feature","properties":{"id":"E01033247","name":"E01033247","parent":"E07000237","type":"LSOA","pop":1340,"r":214,"ff":86,"ffd":6417.9,"ffs":0.5342,"g":53,"co":0,"mo":2,"sa":0,"ic":0},"geometry":{"type":"Polygon","coordinates":[[[-2.22265,52.19631],[-2.22195,52.19509],[-2.2203,52.19543],[-2.21925,52.19485],[-2.21933,52.19439],[-2.21968,52.19439],[-2.21907,52.19412],[-2.22137,52.19372],[-2.22107,52.19291],[-2.21985,52.19254],[-2.22095,52.19244],[-2.22075,52.19184],[-2.22251,52.19178],[-2.22298,52.19226],[-2.2243,52.19214],[-2.22435,52.1915],[-2.22515,52.19144],[-2.22516,52.19183],[-2.22599,52.19232],[-2.22454,52.19212],[-2.22507,52.19229],[-2.2248,52.19261],[-2.22544,52.19241],[-2.22609,52.19324],[-2.22643,52.19315],[-2.22767,52.19401],[-2.22735,52.19462],[-2.22721,52.19553],[-2.22537,52.19629],[-2.22555,52.19785],[-2.22483,52.1983],[-2.22533,52.19832],[-2.225,52.1987],[-2.22574,52.1999],[-2.22671,52.20091],[-2.22522,52.2012],[-2.22405,52.19808],[-2.22265,52.19631]]]}},{"type":"Feature","properties":{"id":"E01033248","name":"E01033248","parent":"E07000237","type":"LSOA","pop":1404,"r":214,"ff":86,"ffd":6125.4,"ffs":0.5342,"g":53,"co":0,"mo":2,"sa":0,"ic":0},"geometry":{"type":"Polygon","coordinates":[[[-2.21491,52.19561],[-2.21379,52.19414],[-2.21511,52.19384],[-2.21506,52.19297],[-2.21459,52.19287],[-2.21392,52.19192],[-2.21414,52.19159],[-2.21458,52.19162],[-2.21449,52.19187],[-2.2152,52.19166],[-2.21532,52.19084],[-2.21775,52.19091],[-2.21778,52.19019],[-2.21598,52.19021],[-2.21602,52.1898],[-2.21763,52.18985],[-2.21747,52.18922],[-2.21787,52.18902],[-2.21873,52.18927],[-2.21918,52.18892],[-2.22003,52.18922],[-2.22035,52.19052],[-2.22078,52.19052],[-2.22085,52.19089],[-2.22213,52.19084],[-2.22251,52.19178],[-2.22075,52.19184],[-2.22095,52.19244],[-2.21985,52.19254],[-2.22107,52.19291],[-2.22137,52.19372],[-2.21907,52.19412],[-2.21968,52.19439],[-2.21933,52.19439],[-2.21925,52.19485],[-2.2203,52.19543],[-2.21846,52.19625],[-2.21563,52.19733],[-2.21375,52.1976],[-2.21143,52.19735],[-2.20984,52.1961],[-2.21491,52.19561]]]}},{"type":"Feature","properties":{"id":"E01033249","name":"E01033249","parent":"E07000237","type":"LSOA","pop":1604,"r":214,"ff":89,"ffd":5548.6,"ffs":0.546,"g":51,"co":0,"mo":2,"sa":0,"ic":0},"geometry":{"type":"Polygon","coordinates":[[[-2.21064,52.19272],[-2.2108,52.19249],[-2.20973,52.19222],[-2.20929,52.19176],[-2.20948,52.19146],[-2.21039,52.19149],[-2.21088,52.19207],[-2.21207,52.19183],[-2.2127,52.1926],[-2.21317,52.19233],[-2.21372,52.19088],[-2.21335,52.19094],[-2.21265,52.1892],[-2.21328,52.18902],[-2.21372,52.18856],[-2.21518,52.18864],[-2.21509,52.18821],[-2.21556,52.1882],[-2.21585,52.18776],[-2.21484,52.18744],[-2.21437,52.18626],[-2.21599,52.18629],[-2.21649,52.18675],[-2.21729,52.1863],[-2.21763,52.18665],[-2.21809,52.18619],[-2.22104,52.18611],[-2.22114,52.18569],[-2.22204,52.18594],[-2.22184,52.18682],[-2.22299,52.18704],[-2.22293,52.18886],[-2.22345,52.18973],[-2.22295,52.19078],[-2.22085,52.19089],[-2.22078,52.19052],[-2.22035,52.19052],[-2.22003,52.18922],[-2.21918,52.18892],[-2.21873,52.18927],[-2.21787,52.18902],[-2.21747,52.18922],[-2.21763,52.18985],[-2.21602,52.1898],[-2.21598,52.19021],[-2.21778,52.19019],[-2.21775,52.19091],[-2.21532,52.19084],[-2.2152,52.19166],[-2.21449,52.19187],[-2.21458,52.19162],[-2.21414,52.19159],[-2.21392,52.19192],[-2.21459,52.19287],[-2.21311,52.19297],[-2.21304,52.19337],[-2.2119,52.19354],[-2.21064,52.19272]]]}},{"type":"Feature","properties":{"id":"E01034323","name":"E01034323","parent":"E07000237","type":"LSOA","pop":1694,"r":215,"ff":89,"ffd":5253.8,"ffs":0.546,"g":52,"co":2,"mo":2,"sa":0,"ic":0},"geometry":{"type":"Polygon","coordinates":[[[-2.22204,52.18594],[-2.22114,52.18569],[-2.22104,52.18611],[-2.21809,52.18619],[-2.21763,52.18665],[-2.21729,52.1863],[-2.21649,52.18675],[-2.21599,52.18629],[-2.21549,52.18636],[-2.21694,52.18456],[-2.21589,52.18388],[-2.21503,52.18365],[-2.21527,52.18323],[-2.21711,52.18273],[-2.21682,52.18232],[-2.21921,52.18201],[-2.2204,52.18209],[-2.22102,52.18275],[-2.22077,52.18327],[-2.22131,52.18332],[-2.22122,52.18377],[-2.22183,52.18383],[-2.22331,52.18353],[-2.22299,52.18704],[-2.22184,52.18682],[-2.22204,52.18594]]]}},{"type":"Feature","properties":{"id":"E01034324","name":"E01034324","parent":"E07000237","type":"LSOA","pop":1542,"r":212,"ff":89,"ffd":5771.7,"ffs":0.5563,"g":52,"co":2,"mo":2,"sa":0,"ic":0},"geometry":{"type":"Polygon","coordinates":[[[-2.2204,52.18209],[-2.21921,52.18201],[-2.21778,52.18217],[-2.21537,52.1795],[-2.21395,52.17693],[-2.21509,52.17685],[-2.21628,52.17584],[-2.21672,52.17572],[-2.21625,52.17503],[-2.21721,52.17484],[-2.21785,52.17325],[-2.21966,52.17298],[-2.22433,52.17589],[-2.2259,52.17787],[-2.22618,52.17928],[-2.22483,52.18076],[-2.22331,52.18353],[-2.22183,52.18383],[-2.22122,52.18377],[-2.22131,52.18332],[-2.22077,52.18327],[-2.22102,52.18275],[-2.2204,52.18209]]]}}]}