{"type":"FeatureCollection","features":[{"type":"Feature","properties":{"id":"E01027925","name":"E01027925","parent":"E07000170","type":"LSOA","pop":2178,"r":326,"ff":94,"ffd":4315.9,"ffs":0.4372,"g":107,"co":0,"mo":0,"sa":0,"ic":0},"geometry":{"type":"Polygon","coordinates":[[[-1.21012,53.04099],[-1.21045,53.04027],[-1.20895,53.03933],[-1.20986,53.03881],[-1.21062,53.03961],[-1.21125,53.03951],[-1.21128,53.03906],[-1.21263,53.03911],[-1.21225,53.03711],[-1.2113,53.0371],[-1.211,53.03672],[-1.21155,53.03596],[-1.212,53.03623],[-1.21173,53.03562],[-1.2128,53.03458],[-1.20936,53.03226],[-1.21274,53.03044],[-1.21406,53.02923],[-1.21523,53.02896],[-1.21777,53.03116],[-1.21921,53.03375],[-1.21977,53.03772],[-1.21641,53.03836],[-1.21645,53.03927],[-1.21552,53.04004],[-1.21551,53.04111],[-1.21296,53.04056],[-1.21271,53.0424],[-1.21217,53.04246],[-1.2112,53.04138],[-1.21012,53.04099]]]}},{"type":"Feature","properties":{"id":"E01027926","name":"E01027926","parent":"E07000170","type":"LSOA","pop":1458,"r":307,"ff":93,"ffd":6378.6,"ffs":0.4366,"g":90,"co":0,"mo":0,"sa":0,"ic":0},"geometry":{"type":"Polygon","coordinates":[[[-1.2104,53.02925],[-1.20976,53.0292],[-1.20965,53.02959],[-1.20888,53.0299],[-1.20735,53.02932],[-1.20712,53.02872],[-1.20744,53.02878],[-1.20752,53.02791],[-1.20676,53.02799],[-1.2053,53.02853],[-1.20356,53.02661],[-1.20392,53.0255],[-1.20494,53.02506],[-1.20555,53.02517],[-1.20485,53.0233],[-1.209,53.02468],[-1.21171,53.02603],[-1.21523,53.02896],[-1.21406,53.02923],[-1.21317,53.02868],[-1.21226,53.02914],[-1.21176,53.03016],[-1.21132,53.0302],[-1.21048,53.02983],[-1.2104,53.02925]]]}},{"type":"Feature","properties":{"id":"E01027927","name":"E01027927","parent":"E07000170","type":"LSOA","pop":2189,"r":322,"ff":98,"ffd":4476.9,"ffs":0.4475,"g":99,"co":0,"mo":0,"sa":0,"ic":0},"geometry":{"type":"Polygon","coordinates":[[[-1.21009,53.03604],[-1.20964,53.03552],[-1.21007,53.03544],[-1.2094,53.0346],[-1.20878,53.03455],[-1.20793,53.0355],[-1.20665,53.03524],[-1.20622,53.03578],[-1.20492,53.03552],[-1.20496,53.03517],[-1.20446,53.03543],[-1.20226,53.03487],[-1.20528,53.03051],[-1.20432,53.02999],[-1.20523,53.02856],[-1.20676,53.02799],[-1.20752,53.02791],[-1.20744,53.02878],[-1.20712,53.02872],[-1.20735,53.02932],[-1.20888,53.0299],[-1.20965,53.02959],[-1.20976,53.0292],[-1.2104,53.02925],[-1.21048,53.02983],[-1.21132,53.0302],[-1.21176,53.03016],[-1.21226,53.02914],[-1.21317,53.02868],[-1.21406,53.02923],[-1.21274,53.03044],[-1.20936,53.03226],[-1.2128,53.03458],[-1.21173,53.03562],[-1.212,53.03623],[-1.21155,53.03596],[-1.211,53.03672],[-1.21062,53.03674],[-1.21045,53.0364],[-1.2098,53.0364],[-1.21009,53.03604]]]}},{"type":"Feature","properties":{"id":"E01027928","name":"E01027928","parent":"E07000170","type":"LSOA","pop":2257,"r":313,"ff":94,"ffd":4164.8,"ffs":0.4434,"g":97,"co":0,"mo":0,"sa":0,"ic":0},"geometry":{"type":"Polygon","coordinates":[[[-1.20463,53.03941],[-1.20479,53.03871],[-1.20289,53.03813],[-1.20043,53.03693],[-1.20226,53.03487],[-1.20446,53.03543],[-1.20496,53.03517],[-1.20492,53.03552],[-1.20622,53.03578],[-1.20665,53.03524],[-1.20793,53.0355],[-1.20878,53.03455],[-1.2094,53.0346],[-1.21007,53.03544],[-1.20964,53.03552],[-1.21009,53.03604],[-1.2098,53.0364],[-1.21045,53.0364],[-1.21062,53.03674],[-1.211,53.03672],[-1.2113,53.0371],[-1.21225,53.03711],[-1.21263,53.03911],[-1.21128,53.03906],[-1.21125,53.03951],[-1.21062,53.03961],[-1.20986,53.03881],[-1.20895,53.03933],[-1.21045,53.04027],[-1.21012,53.04099],[-1.20483,53.03976],[-1.20463,53.03941]]]}},{"type":"Feature","properties":{"id":"E01027930","name":"E01027930","parent":"E07000170","type":"LSOA","pop":1793,"r":322,"ff":101,"ffd":5633.0,"ffs":0.443,"g":90,"co":0,"mo":0,"sa":0,"ic":0},"geometry":{"type":"Polygon","coordinates":[[[-1.20115,53.03069],[-1.2005,53.03036],[-1.20009,53.0308],[-1.1973,53.02962],[-1.19567,53.02976],[-1.19557,53.02944],[-1.19638,53.02934],[-1.19717,53.0286],[-1.19639,53.02818],[-1.1946,53.02623],[-1.19563,53.02565],[-1.19529,53.02457],[-1.19747,53.02166],[-1.19998,53.02347],[-1.19856,53.02129],[-1.20485,53.02328],[-1.20555,53.02517],[-1.20494,53.02506],[-1.20392,53.0255],[-1.20356,53.02661],[-1.2053,53.02853],[-1.20432,53.02999],[-1.20528,53.03051],[-1.20458,53.03061],[-1.20372,53.03177],[-1.20134,53.03139],[-1.20115,53.03069]]]}},{"type":"Feature","properties":{"id":"E01027932","name":"E01027932","parent":"E07000170","type":"LSOA","pop":2324,"r":311,"ff":99,"ffd":4259.9,"ffs":0.4541,"g":90,"co":0,"mo":0,"sa":0,"ic":0},"geometry":{"type":"Polygon","coordinates":[[[-1.19728,53.03708],[-1.19593,53.03653],[-1.19379,53.03728],[-1.1929,53.03731],[-1.18952,53.03541],[-1.19049,53.03376],[-1.19259,53.0333],[-1.19228,53.03296],[-1.1929,53.03249],[-1.19495,53.03383],[-1.19523,53.0324],[-1.19619,53.0321],[-1.19667,53.03159],[-1.19766,53.03188],[-1.1979,53.03156],[-1.19673,53.03104],[-1.19639,53.0313],[-1.19639,53.03091],[-1.19577,53.03078],[-1.19567,53.02976],[-1.1973,53.02962],[-1.20009,53.0308],[-1.2005,53.03036],[-1.20115,53.03069],[-1.20134,53.03139],[-1.20315,53.03175],[-1.20372,53.03177],[-1.20458,53.03061],[-1.20528,53.03051],[-1.20226,53.03487],[-1.20043,53.03693],[-1.19849,53.0381],[-1.19728,53.03708]]]}},{"type":"Feature","properties":{"id":"E01027933","name":"E01027933","parent":"E07000170","type":"LSOA","pop":1671,"r":290,"ff":89,"ffd":5326.2,"ffs":0.4541,"g":90,"co":0,"mo":0,"sa":0,"ic":0},"geometry":{"type":"Polygon","coordinates":[[[-1.20218,53.0403],[-1.19952,53.04052],[-1.19892,53.03907],[-1.19879,53.04018],[-1.19926,53.04093],[-1.19819,53.04105],[-1.19767,53.04148],[-1.19664,53.04115],[-1.19559,53.04201],[-1.19494,53.0421],[-1.19475,53.04191],[-1.1962,53.04034],[-1.19649,53.03978],[-1.19589,53.03894],[-1.19849,53.0381],[-1.20043,53.03693],[-1.20289,53.03813],[-1.20479,53.03871],[-1.20463,53.03941],[-1.20483,53.03976],[-1.20565,53.03991],[-1.20453,53.04309],[-1.20163,53.04203],[-1.20218,53.0403]]]}},{"type":"Feature","properties":{"id":"E01027934","name":"E01027934","parent":"E07000170","type":"LSOA","pop":1246,"r":279,"ff":85,"ffd":6821.8,"ffs":0.457,"g":90,"co":0,"mo":0,"sa":0,"ic":0},"geometry":{"type":"Polygon","coordinates":[[[-1.202,53.05066],[-1.20018,53.04825],[-1.19987,53.04606],[-1.20075,53.04522],[-1.20051,53.04497],[-1.19917,53.04616],[-1.19882,53.04601],[-1.19823,53.04509],[-1.19906,53.04477],[-1.19892,53.04392],[-1.19794,53.04353],[-1.19684,53.04391],[-1.19585,53.04309],[-1.1955,53.04352],[-1.19448,53.04371],[-1.1945,53.04307],[-1.19524,53.04247],[-1.19494,53.0421],[-1.19559,53.04201],[-1.19664,53.04115],[-1.19767,53.04148],[-1.19819,53.04105],[-1.19926,53.04093],[-1.19879,53.04018],[-1.19892,53.03907],[-1.19952,53.04052],[-1.20218,53.0403],[-1.20163,53.04203],[-1.20323,53.04271],[-1.20302,53.04306],[-1.20418,53.0438],[-1.20365,53.04397],[-1.20386,53.0447],[-1.20304,53.04698],[-1.20489,53.04911],[-1.20431,53.04938],[-1.20368,53.04919],[-1.20367,53.04973],[-1.20227,53.05018],[-1.202,53.05066]]]}},{"type":"Feature","properties":{"id":"E01027935","name":"E01027935","parent":"E07000170","type":"LSOA","pop":1208,"r":320,"ff":96,"ffd":7947.0,"ffs":0.4528,"g":105,"co":0,"mo":0,"sa":0,"ic":0},"geometry":{"type":"Polygon","coordinates":[[[-1.202,53.05066],[-1.20227,53.05018],[-1.20367,53.04973],[-1.20368,53.04919],[-1.20431,53.04938],[-1.20489,53.04911],[-1.20304,53.04698],[-1.20386,53.0447],[-1.20638,53.04485],[-1.20678,53.0456],[-1.20977,53.04434],[-1.21034,53.04463],[-1.21235,53.0441],[-1.21254,53.04308],[-1.21448,53.04663],[-1.21532,53.04767],[-1.21742,53.04903],[-1.21386,53.04959],[-1.20868,53.0511],[-1.20833,53.05083],[-1.20678,53.05139],[-1.20607,53.05051],[-1.20421,53.05055],[-1.20235,53.05181],[-1.202,53.05066]]]}},{"type":"Feature","properties":{"id":"E01027936","name":"E01027936","parent":"E07000170","type":"LSOA","pop":1446,"r":281,"ff":84,"ffd":5809.1,"ffs":0.459,"g":95,"co":0,"mo":0,"sa":0,"ic":0},"geometry":{"type":"Polygon","coordinates":[[[-1.1999,53.05161],[-1.19707,53.04866],[-1.19641,53.04902],[-1.19172,53.04779],[-1.18995,53.04865],[-1.1896,53.04806],[-1.18999,53.0479],[-1.18942,53.04737],[-1.18583,53.04868],[-1.18538,53.04832],[-1.18875,53.04708],[-1.19247,53.04421],[-1.19475,53.04191],[-1.19524,53.04247],[-1.1945,53.04307],[-1.19448,53.04371],[-1.1955,53.04352],[-1.19585,53.04309],[-1.19684,53.04391],[-1.19794,53.04353],[-1.19892,53.04392],[-1.19906,53.04477],[-1.19823,53.04509],[-1.19882,53.04601],[-1.19917,53.04616],[-1.20051,53.04497],[-1.20075,53.04522],[-1.19987,53.04606],[-1.20018,53.04825],[-1.20202,53.05084],[-1.1999,53.05161]]]}},{"type":"Feature","properties":{"id":"E01027937","name":"E01027937","parent":"E07000170","type":"LSOA","pop":1354,"r":304,"ff":89,"ffd":6573.1,"ffs":0.4472,"g":102,"co":0,"mo":0,"sa":0,"ic":0},"geometry":{"type":"Polygon","coordinates":[[[-1.20386,53.0447],[-1.20365,53.04397],[-1.20418,53.0438],[-1.20302,53.04306],[-1.20323,53.04271],[-1.20453,53.04309],[-1.20565,53.03991],[-1.20968,53.04084],[-1.2112,53.04138],[-1.21256,53.04309],[-1.21235,53.0441],[-1.21034,53.04463],[-1.20977,53.04434],[-1.20678,53.0456],[-1.20638,53.04485],[-1.20386,53.0447]]]}},{"type":"Feature","properties":{"id":"E01027938","name":"E01027938","parent":"E07000170","type":"LSOA","pop":1230,"r":268,"ff":84,"ffd":6829.3,"ffs":0.4565,"g":80,"co":0,"mo":0,"sa":0,"ic":0},"geometry":{"type":"Polygon","coordinates":[[[-1.23455,53.02914],[-1.23413,53.02885],[-1.23485,53.02869],[-1.2349,53.02827],[-1.2354,53.02826],[-1.23516,53.02891],[-1.23582,53.02905],[-1.23628,53.02831],[-1.2388,53.02961],[-1.24126,53.03115],[-1.23891,53.03256],[-1.24711,53.03507],[-1.24746,53.03573],[-1.25126,53.03803],[-1.25343,53.03979],[-1.25769,53.04096],[-1.2557,53.04188],[-1.24671,53.04465],[-1.24408,53.04195],[-1.24393,53.03762],[-1.23331,53.03718],[-1.2297,53.03461],[-1.22988,53.03439],[-1.23494,53.03345],[-1.2351,53.03315],[-1.23386,53.03287],[-1.23368,53.03177],[-1.23428,53.0313],[-1.23445,53.03082],[-1.23327,53.03033],[-1.23446,53.0301],[-1.2341,53.02966],[-1.23455,53.02914]]]}},{"type":"Feature","properties":{"id":"E01027939","name":"E01027939","parent":"E07000170","type":"LSOA","pop":1524,"r":319,"ff":97,"ffd":6364.8,"ffs":0.447,"g":98,"co":0,"mo":0,"sa":0,"ic":0},"geometry":{"type":"Polygon","coordinates":[[[-1.21934,53.03465],[-1.21921,53.03375],[-1.21777,53.03116],[-1.21617,53.02971],[-1.217,53.0291],[-1.21756,53.02775],[-1.21847,53.02692],[-1.21987,53.02752],[-1.22042,53.02692],[-1.22185,53.02671],[-1.22249,53.02722],[-1.224,53.02736],[-1.22442,53.02794],[-1.22541,53.02778],[-1.22653,53.02826],[-1.22775,53.02767],[-1.22745,53.02719],[-1.22855,53.02702],[-1.22884,53.02737],[-1.22562,53.03052],[-1.22181,53.03222],[-1.22223,53.03313],[-1.22433,53.03294],[-1.22424,53.03442],[-1.2218,53.03419],[-1.21934,53.03465]]]}},{"type":"Feature","properties":{"id":"E01027940","name":"E01027940","parent":"E07000170","type":"LSOA","pop":1246,"r":287,"ff":89,"ffd":7142.9,"ffs":0.4564,"g":88,"co":0,"mo":0,"sa":0,"ic":0},"geometry":{"type":"Polygon","coordinates":[[[-1.2296,53.03161],[-1.22756,53.03103],[-1.22745,53.0313],[-1.2271,53.03074],[-1.22606,53.02993],[-1.22884,53.02737],[-1.23063,53.02737],[-1.23085,53.02718],[-1.23133,53.02746],[-1.23227,53.0261],[-1.23322,53.02635],[-1.23369,53.02607],[-1.23443,53.02661],[-1.23536,53.02792],[-1.23628,53.02831],[-1.23582,53.02905],[-1.23516,53.02891],[-1.2354,53.02826],[-1.2349,53.02827],[-1.23485,53.02869],[-1.23413,53.02885],[-1.23279,53.02858],[-1.23206,53.02969],[-1.23133,53.03018],[-1.23191,53.03097],[-1.23102,53.03094],[-1.2296,53.03161]]]}},{"type":"Feature","properties":{"id":"E01027941","name":"E01027941","parent":"E07000170","type":"LSOA","pop":1314,"r":266,"ff":87,"ffd":6621.0,"ffs":0.4628,"g":74,"co":0,"mo":0,"sa":0,"ic":0},"geometry":{"type":"Polygon","coordinates":[[[-1.23133,53.02746],[-1.23085,53.02718],[-1.23063,53.02737],[-1.22884,53.02737],[-1.22822,53.02633],[-1.22515,53.02502],[-1.22543,53.02471],[-1.22365,53.02441],[-1.22391,53.02412],[-1.22311,53.02378],[-1.22319,53.02335],[-1.22239,53.02315],[-1.22278,53.02287],[-1.22324,53.02314],[-1.22489,53.02176],[-1.22541,53.02188],[-1.22549,53.02242],[-1.22584,53.02221],[-1.22646,53.02237],[-1.2264,53.02268],[-1.22726,53.02241],[-1.22741,53.022],[-1.22693,53.02177],[-1.22864,53.02044],[-1.22792,53.01997],[-1.22826,53.01962],[-1.23081,53.02014],[-1.23183,53.02128],[-1.22908,53.02274],[-1.23369,53.02607],[-1.23322,53.02635],[-1.23227,53.0261],[-1.23133,53.02746]]]}},{"type":"Feature","properties":{"id":"E01027942","name":"E01027942","parent":"E07000170","type":"LSOA","pop":3641,"r":338,"ff":108,"ffd":2966.2,"ffs":0.4635,"g":101,"co":0,"mo":0,"sa":0,"ic":0},"geometry":{"type":"Polygon","coordinates":[[[-1.21523,53.02896],[-1.21171,53.02603],[-1.209,53.02468],[-1.20485,53.0233],[-1.20299,53.01981],[-1.20302,53.01834],[-1.2076,53.01865],[-1.21016,53.01804],[-1.21009,53.01773],[-1.21097,53.01516],[-1.21256,53.013],[-1.21708,53.01063],[-1.22239,53.00838],[-1.22474,53.00861],[-1.22515,53.0081],[-1.22775,53.00859],[-1.22823,53.00893],[-1.22933,53.00883],[-1.23109,53.00953],[-1.23149,53.01051],[-1.2326,53.01137],[-1.23219,53.01362],[-1.23068,53.01615],[-1.23108,53.01752],[-1.23096,53.01846],[-1.23197,53.01948],[-1.23183,53.02128],[-1.23081,53.02014],[-1.22826,53.01962],[-1.22792,53.01997],[-1.22864,53.02044],[-1.22693,53.02177],[-1.22741,53.022],[-1.22726,53.02241],[-1.2264,53.02268],[-1.22646,53.02237],[-1.22584,53.02221],[-1.22549,53.02242],[-1.22541,53.02188],[-1.22489,53.02176],[-1.22324,53.02314],[-1.22278,53.02287],[-1.22239,53.02315],[-1.22319,53.02335],[-1.22311,53.02378],[-1.22391,53.02412],[-1.22365,53.02441],[-1.22543,53.02471],[-1.22515,53.02502],[-1.22822,53.02633],[-1.22855,53.02702],[-1.22745,53.02719],[-1.22775,53.02767],[-1.22653,53.02826],[-1.22541,53.02778],[-1.22442,53.02794],[-1.224,53.02736],[-1.22249,53.02722],[-1.22185,53.02671],[-1.22042,53.02692],[-1.21987,53.02752],[-1.21847,53.02692],[-1.21756,53.02775],[-1.217,53.0291],[-1.21617,53.02971],[-1.21523,53.02896]]]}},{"type":"Feature","properties":{"id":"E01027943","name":"E01027943","parent":"E07000170","type":"LSOA","pop":1488,"r":313,"ff":90,"ffd":6048.4,"ffs":0.4369,"g":103,"co":0,"mo":0,"sa":0,"ic":0},"geometry":{"type":"Polygon","coordinates":[[[-1.22812,53.05457],[-1.21742,53.04903],[-1.21532,53.04767],[-1.21448,53.04663],[-1.21217,53.04246],[-1.21271,53.0424],[-1.21296,53.04056],[-1.21551,53.04111],[-1.21552,53.04004],[-1.21645,53.03927],[-1.21641,53.03836],[-1.21977,53.03772],[-1.21934,53.03465],[-1.2218,53.03419],[-1.22497,53.03458],[-1.22489,53.03489],[-1.22684,53.03545],[-1.22646,53.03568],[-1.22422,53.03576],[-1.22419,53.03622],[-1.22517,53.0364],[-1.22617,53.03599],[-1.22665,53.03611],[-1.22551,53.03683],[-1.22624,53.03695],[-1.22543,53.03764],[-1.22421,53.03752],[-1.22374,53.03867],[-1.22507,53.04176],[-1.22633,53.04202],[-1.22717,53.0439],[-1.23179,53.04296],[-1.23549,53.04277],[-1.23559,53.04033],[-1.23647,53.03884],[-1.23278,53.03845],[-1.23331,53.03718],[-1.24393,53.03762],[-1.24408,53.04195],[-1.24671,53.04465],[-1.24499,53.04563],[-1.24317,53.04735],[-1.24172,53.04777],[-1.23879,53.04947],[-1.23226,53.0503],[-1.22958,53.0517],[-1.22925,53.05155],[-1.22818,53.05254],[-1.22812,53.05457]]]}},{"type":"Feature","properties":{"id":"E01027944","name":"E01027944","parent":"E07000170","type":"LSOA","pop":1440,"r":307,"ff":91,"ffd":6319.4,"ffs":0.4461,"g":99,"co":0,"mo":0,"sa":0,"ic":0},"geometry":{"type":"Polygon","coordinates":[[[-1.22374,53.03867],[-1.22421,53.03752],[-1.22543,53.03764],[-1.22624,53.03695],[-1.22551,53.03683],[-1.22665,53.03611],[-1.22617,53.03599],[-1.22517,53.0364],[-1.22419,53.03622],[-1.22422,53.03576],[-1.22646,53.03568],[-1.22684,53.03545],[-1.22489,53.03489],[-1.22497,53.03458],[-1.22424,53.03442],[-1.22433,53.03294],[-1.22223,53.03313],[-1.22181,53.03222],[-1.22562,53.03052],[-1.22606,53.02993],[-1.2271,53.03074],[-1.22745,53.0313],[-1.22756,53.03103],[-1.2296,53.03161],[-1.23102,53.03094],[-1.23191,53.03097],[-1.23133,53.03018],[-1.23206,53.02969],[-1.23279,53.02858],[-1.23413,53.02885],[-1.23455,53.02914],[-1.2341,53.02966],[-1.23446,53.0301],[-1.23327,53.03033],[-1.23445,53.03082],[-1.23428,53.0313],[-1.23368,53.03177],[-1.23386,53.03287],[-1.2351,53.03315],[-1.23494,53.03345],[-1.22988,53.03439],[-1.2297,53.03461],[-1.23331,53.03718],[-1.23278,53.03845],[-1.23647,53.03884],[-1.23559,53.04033],[-1.23549,53.04277],[-1.23179,53.04296],[-1.22717,53.0439],[-1.22633,53.04202],[-1.22507,53.04176],[-1.22374,53.03867]]]}},{"type":"Feature","properties":{"id":"E01027945","name":"E01027945","parent":"E07000170","type":"LSOA","pop":1665,"r":243,"ff":69,"ffd":4144.1,"ffs":0.4367,"g":82,"co":0,"mo":0,"sa":0,"ic":0},"geometry":{"type":"Polygon","coordinates":[[[-1.33794,53.07058],[-1.33505,53.06957],[-1.33443,53.06994],[-1.33557,53.06919],[-1.33504,53.06819],[-1.33537,53.06678],[-1.33378,53.06534],[-1.33506,53.06423],[-1.33403,53.06363],[-1.33307,53.06474],[-1.33086,53.06243],[-1.3322,53.06209],[-1.33177,53.0603],[-1.33218,53.06007],[-1.332,53.05972],[-1.33069,53.05988],[-1.33098,53.05955],[-1.33064,53.05902],[-1.33231,53.05801],[-1.33339,53.05779],[-1.33295,53.05699],[-1.33105,53.05674],[-1.32941,53.05774],[-1.32809,53.05801],[-1.32621,53.05818],[-1.32458,53.05786],[-1.32368,53.05683],[-1.32007,53.05625],[-1.31498,53.05266],[-1.31565,53.05271],[-1.31882,53.05445],[-1.32228,53.05238],[-1.32335,53.05303],[-1.32579,53.05173],[-1.32962,53.05448],[-1.33104,53.05408],[-1.33263,53.05308],[-1.33348,53.05315],[-1.33519,53.05262],[-1.33639,53.05302],[-1.33616,53.05334],[-1.33657,53.05369],[-1.33605,53.05441],[-1.33739,53.05472],[-1.33751,53.05579],[-1.33698,53.05618],[-1.33744,53.05608],[-1.34012,53.05897],[-1.34026,53.0597],[-1.34118,53.06019],[-1.34094,53.06078],[-1.34185,53.0605],[-1.34194,53.06077],[-1.34411,53.06233],[-1.34459,53.06328],[-1.34443,53.06554],[-1.34368,53.06589],[-1.3442,53.06653],[-1.34347,53.06684],[-1.34406,53.06777],[-1.34383,53.06873],[-1.34259,53.07028],[-1.34118,53.0699],[-1.34075,53.07137],[-1.33777,53.07116],[-1.33816,53.07087],[-1.33794,53.07058]]]}},{"type":"Feature","properties":{"id":"E01027946","name":"E01027946","parent":"E07000170","type":"LSOA","pop":1399,"r":260,"ff":76,"ffd":5432.5,"ffs":0.4471,"g":87,"co":0,"mo":0,"sa":0,"ic":0},"geometry":{"type":"Polygon","coordinates":[[[-1.32652,53.06981],[-1.32523,53.06796],[-1.32611,53.06772],[-1.32595,53.06741],[-1.3221,53.06778],[-1.32192,53.06629],[-1.32075,53.06496],[-1.31643,53.06483],[-1.31598,53.06528],[-1.31419,53.06538],[-1.30617,53.06443],[-1.30218,53.06447],[-1.30358,53.06119],[-1.30611,53.05881],[-1.31025,53.05769],[-1.31296,53.05729],[-1.3139,53.05691],[-1.31424,53.05629],[-1.31473,53.05588],[-1.31445,53.05437],[-1.31498,53.05266],[-1.32007,53.05625],[-1.32368,53.05683],[-1.32458,53.05786],[-1.32621,53.05818],[-1.32809,53.05801],[-1.32941,53.05774],[-1.33105,53.05674],[-1.33295,53.05699],[-1.33339,53.05779],[-1.33231,53.05801],[-1.33064,53.05902],[-1.33098,53.05955],[-1.33069,53.05988],[-1.332,53.05972],[-1.33218,53.06007],[-1.33177,53.0603],[-1.3322,53.06209],[-1.33086,53.06243],[-1.33307,53.06474],[-1.33403,53.06363],[-1.33506,53.06423],[-1.33378,53.06534],[-1.33537,53.06678],[-1.33504,53.06819],[-1.33557,53.06919],[-1.33443,53.06994],[-1.3333,53.0695],[-1.33246,53.0702],[-1.33298,53.0706],[-1.32897,53.07188],[-1.32625,53.07242],[-1.32547,53.07048],[-1.32652,53.06981]]]}},{"type":"Feature","properties":{"id":"E01027947","name":"E01027947","parent":"E07000170","type":"LSOA","pop":1658,"r":283,"ff":92,"ffd":5548.9,"ffs":0.4868,"g":91,"co":2,"mo":0,"sa":2,"ic":0},"geometry":{"type":"Polygon","coordinates":[[[-1.28972,53.10632],[-1.28679,53.10505],[-1.2863,53.10553],[-1.28342,53.10554],[-1.28273,53.10469],[-1.28013,53.10367],[-1.27501,53.10338],[-1.26993,53.10363],[-1.26948,53.10234],[-1.26796,53.10235],[-1.26803,53.10388],[-1.26702,53.10393],[-1.26696,53.1028],[-1.26519,53.10281],[-1.26501,53.10115],[-1.26428,53.10114],[-1.2642,53.10089],[-1.26127,53.10063],[-1.26133,53.10022],[-1.26062,53.09998],[-1.26097,53.09955],[-1.26176,53.09954],[-1.26196,53.0991],[-1.26163,53.09798],[-1.26249,53.09761],[-1.26271,53.09787],[-1.26363,53.09792],[-1.26361,53.09871],[-1.26435,53.09884],[-1.26587,53.09815],[-1.26653,53.09753],[-1.26692,53.09582],[-1.26406,53.09452],[-1.26192,53.09225],[-1.26375,53.09175],[-1.26429,53.09123],[-1.26468,53.0913],[-1.26629,53.0899],[-1.27639,53.08793],[-1.27927,53.08606],[-1.28609,53.08543],[-1.28719,53.08446],[-1.29114,53.08316],[-1.29512,53.08065],[-1.30335,53.08805],[-1.30256,53.08852],[-1.30347,53.08948],[-1.3041,53.08945],[-1.30377,53.08968],[-1.30536,53.09077],[-1.3061,53.09192],[-1.30737,53.09244],[-1.30739,53.09286],[-1.30913,53.0945],[-1.30815,53.09495],[-1.30692,53.09476],[-1.30708,53.09541],[-1.30849,53.09584],[-1.30925,53.09678],[-1.30739,53.09946],[-1.30599,53.10034],[-1.30553,53.10014],[-1.30498,53.10055],[-1.30407,53.1004],[-1.30214,53.10107],[-1.30158,53.10101],[-1.3007,53.10167],[-1.29583,53.10438],[-1.29276,53.1057],[-1.28972,53.10632]]]}},{"type":"Feature","properties":{"id":"E01027948","name":"E01027948","parent":"E07000170","type":"LSOA","pop":2150,"r":248,"ff":83,"ffd":3860.5,"ffs":0.5,"g":79,"co":2,"mo":0,"sa":2,"ic":0},"geometry":{"type":"Polygon","coordinates":[[[-1.25374,53.09963],[-1.25124,53.09986],[-1.24361,53.09866],[-1.24391,53.09754],[-1.24555,53.0977],[-1.2461,53.09725],[-1.24596,53.0966],[-1.24728,53.0965],[-1.24698,53.097],[-1.24835,53.09713],[-1.24847,53.09475],[-1.25008,53.095],[-1.25185,53.08947],[-1.25271,53.08903],[-1.25382,53.08914],[-1.25613,53.09138],[-1.26041,53.09261],[-1.26192,53.09225],[-1.26406,53.09452],[-1.26692,53.09582],[-1.26653,53.09753],[-1.26587,53.09815],[-1.26435,53.09884],[-1.26361,53.09871],[-1.26363,53.09792],[-1.26271,53.09787],[-1.26249,53.09761],[-1.26163,53.09798],[-1.26196,53.0991],[-1.26176,53.09954],[-1.26097,53.09955],[-1.26062,53.09998],[-1.26133,53.10022],[-1.26127,53.10063],[-1.25374,53.09963]]]}},{"type":"Feature","properties":{"id":"E01027949","name":"E01027949","parent":"E07000170","type":"LSOA","pop":1408,"r":296,"ff":88,"ffd":6250.0,"ffs":0.4681,"g":103,"co":2,"mo":0,"sa":0,"ic":0},"geometry":{"type":"Polygon","coordinates":[[[-1.23963,53.09799],[-1.2325,53.097],[-1.23286,53.09539],[-1.23158,53.09313],[-1.23256,53.09259],[-1.23733,53.09387],[-1.23958,53.0941],[-1.24196,53.09377],[-1.24207,53.09413],[-1.2426,53.09406],[-1.2427,53.09379],[-1.24433,53.09381],[-1.24589,53.09415],[-1.2485,53.09634],[-1.24835,53.09713],[-1.24698,53.097],[-1.24728,53.0965],[-1.24596,53.0966],[-1.2461,53.09725],[-1.24555,53.0977],[-1.24391,53.09754],[-1.24361,53.09866],[-1.23963,53.09799]]]}},{"type":"Feature","properties":{"id":"E01027950","name":"E01027950","parent":"E07000170","type":"LSOA","pop":2352,"r":274,"ff":82,"ffd":3486.4,"ffs":0.4824,"g":100,"co":2,"mo":0,"sa":0,"ic":0},"geometry":{"type":"Polygon","coordinates":[[[-1.19491,53.09245],[-1.19972,53.0908],[-1.19976,53.08909],[-1.20179,53.08802],[-1.20251,53.08691],[-1.20682,53.08621],[-1.21016,53.08494],[-1.21158,53.08482],[-1.21348,53.08507],[-1.21612,53.08473],[-1.21822,53.08477],[-1.22117,53.084],[-1.22631,53.08104],[-1.23068,53.08105],[-1.23431,53.0841],[-1.2401,53.08625],[-1.24107,53.08476],[-1.24223,53.08528],[-1.24231,53.08698],[-1.24367,53.08693],[-1.24661,53.08818],[-1.24704,53.08901],[-1.25185,53.08947],[-1.25008,53.095],[-1.24847,53.09475],[-1.2485,53.09634],[-1.24589,53.09415],[-1.24433,53.09381],[-1.2427,53.09379],[-1.2426,53.09406],[-1.24207,53.09413],[-1.24196,53.09377],[-1.23958,53.0941],[-1.23733,53.09387],[-1.23256,53.09259],[-1.23158,53.09313],[-1.23286,53.09539],[-1.2325,53.097],[-1.19604,53.0945],[-1.19293,53.09262],[-1.19491,53.09245]]]}},{"type":"Feature","properties":{"id":"E01027951","name":"E01027951","parent":"E07000170","type":"LSOA","pop":1704,"r":255,"ff":86,"ffd":5046.9,"ffs":0.5,"g":79,"co":2,"mo":0,"sa":0,"ic":0},"geometry":{"type":"Polygon","coordinates":[[[-1.23076,53.1125],[-1.226,53.11151],[-1.22665,53.10893],[-1.23001,53.10648],[-1.23045,53.10405],[-1.22954,53.10346],[-1.2293,53.10381],[-1.22826,53.1036],[-1.22931,53.10233],[-1.22986,53.1025],[-1.23011,53.10215],[-1.22956,53.10091],[-1.22331,53.09898],[-1.22427,53.09881],[-1.22723,53.09929],[-1.23043,53.10005],[-1.23062,53.10048],[-1.23144,53.10032],[-1.23165,53.10071],[-1.23262,53.10093],[-1.23295,53.10066],[-1.23691,53.10173],[-1.2365,53.10268],[-1.23563,53.1031],[-1.23607,53.10361],[-1.23568,53.10445],[-1.23627,53.10414],[-1.23709,53.10461],[-1.23615,53.10602],[-1.23628,53.10628],[-1.23693,53.1063],[-1.23649,53.10731],[-1.23808,53.10756],[-1.23713,53.11019],[-1.24003,53.11031],[-1.23993,53.11191],[-1.24305,53.11131],[-1.24319,53.11045],[-1.24451,53.11053],[-1.24458,53.11389],[-1.24207,53.11669],[-1.23864,53.11615],[-1.23644,53.1154],[-1.23076,53.1125]]]}},{"type":"Feature","properties":{"id":"E01027952","name":"E01027952","parent":"E07000170","type":"LSOA","pop":1879,"r":255,"ff":86,"ffd":4576.9,"ffs":0.4971,"g":79,"co":2,"mo":0,"sa":0,"ic":0},"geometry":{"type":"Polygon","coordinates":[[[-1.23615,53.10602],[-1.23709,53.10461],[-1.23627,53.10414],[-1.23568,53.10445],[-1.23607,53.10361],[-1.23572,53.10311],[-1.24002,53.10383],[-1.24009,53.10352],[-1.23865,53.10316],[-1.23869,53.10255],[-1.23796,53.10225],[-1.2396,53.09845],[-1.24024,53.09842],[-1.24027,53.0981],[-1.25124,53.09986],[-1.25374,53.09963],[-1.25181,53.10245],[-1.25109,53.10649],[-1.24703,53.10642],[-1.24707,53.10598],[-1.24637,53.10594],[-1.24601,53.10544],[-1.24418,53.10531],[-1.24331,53.1045],[-1.24369,53.10397],[-1.24537,53.10314],[-1.24491,53.10231],[-1.24198,53.10213],[-1.24142,53.10411],[-1.24076,53.10407],[-1.24056,53.10508],[-1.24118,53.10522],[-1.24096,53.10595],[-1.23912,53.1054],[-1.23774,53.10574],[-1.23729,53.10671],[-1.23676,53.10669],[-1.23693,53.1063],[-1.23628,53.10628],[-1.23615,53.10602]]]}},{"type":"Feature","properties":{"id":"E01027953","name":"E01027953","parent":"E07000170","type":"LSOA","pop":1544,"r":262,"ff":87,"ffd":5634.7,"ffs":0.4943,"g":82,"co":2,"mo":0,"sa":0,"ic":0},"geometry":{"type":"Polygon","coordinates":[[[-1.219,53.10501],[-1.21377,53.10283],[-1.20588,53.09721],[-1.20513,53.09705],[-1.20545,53.09668],[-1.20605,53.0968],[-1.20724,53.09525],[-1.2325,53.097],[-1.23507,53.09724],[-1.24027,53.0981],[-1.24024,53.09842],[-1.2396,53.09845],[-1.23796,53.10225],[-1.23869,53.10255],[-1.23865,53.10316],[-1.24009,53.10352],[-1.24002,53.10383],[-1.23563,53.1031],[-1.2365,53.10268],[-1.23691,53.10173],[-1.23456,53.101],[-1.23295,53.10066],[-1.23262,53.10093],[-1.23165,53.10071],[-1.23144,53.10032],[-1.23062,53.10048],[-1.23043,53.10005],[-1.22723,53.09929],[-1.22427,53.09881],[-1.22331,53.09898],[-1.22956,53.10091],[-1.23011,53.10215],[-1.22986,53.1025],[-1.22931,53.10233],[-1.22826,53.1036],[-1.2293,53.10381],[-1.22954,53.10346],[-1.23045,53.10405],[-1.23001,53.10648],[-1.22665,53.10893],[-1.22795,53.10716],[-1.219,53.10501]]]}},{"type":"Feature","properties":{"id":"E01027954","name":"E01027954","parent":"E07000170","type":"LSOA","pop":1671,"r":263,"ff":89,"ffd":5326.2,"ffs":0.4917,"g":79,"co":2,"mo":0,"sa":0,"ic":0},"geometry":{"type":"Polygon","coordinates":[[[-1.24451,53.11053],[-1.24319,53.11045],[-1.24305,53.11131],[-1.23993,53.11191],[-1.24003,53.11031],[-1.23713,53.11019],[-1.23808,53.10756],[-1.23649,53.10731],[-1.23676,53.10669],[-1.23729,53.10671],[-1.23774,53.10574],[-1.23912,53.1054],[-1.24096,53.10595],[-1.24118,53.10522],[-1.24056,53.10508],[-1.24076,53.10407],[-1.24142,53.10411],[-1.24198,53.10213],[-1.24491,53.10231],[-1.24537,53.10314],[-1.24369,53.10397],[-1.24331,53.1045],[-1.24418,53.10531],[-1.24601,53.10544],[-1.24637,53.10594],[-1.24707,53.10598],[-1.24703,53.10642],[-1.25518,53.10659],[-1.25587,53.10726],[-1.25818,53.10814],[-1.25872,53.10874],[-1.25728,53.11114],[-1.25625,53.11409],[-1.25594,53.11425],[-1.25688,53.11462],[-1.25534,53.11699],[-1.25379,53.11875],[-1.25182,53.12003],[-1.25058,53.11977],[-1.24968,53.11809],[-1.24207,53.11669],[-1.24458,53.11389],[-1.24451,53.11053]]]}},{"type":"Feature","properties":{"id":"E01027955","name":"E01027955","parent":"E07000170","type":"LSOA","pop":1321,"r":270,"ff":88,"ffd":6661.6,"ffs":0.4889,"g":87,"co":2,"mo":0,"sa":2,"ic":0},"geometry":{"type":"Polygon","coordinates":[[[-1.25681,53.10247],[-1.25779,53.10178],[-1.25745,53.10139],[-1.25525,53.10106],[-1.25497,53.10169],[-1.25364,53.10156],[-1.25273,53.1026],[-1.25181,53.10245],[-1.25374,53.09963],[-1.2642,53.10089],[-1.26428,53.10114],[-1.26334,53.10138],[-1.26324,53.10184],[-1.26216,53.10207],[-1.26113,53.10188],[-1.26086,53.10219],[-1.26003,53.10207],[-1.25942,53.10306],[-1.26059,53.1037],[-1.25911,53.10394],[-1.2581,53.1037],[-1.25815,53.10325],[-1.25681,53.10247]]]}},{"type":"Feature","properties":{"id":"E01027956","name":"E01027956","parent":"E07000170","type":"LSOA","pop":1563,"r":267,"ff":87,"ffd":5566.2,"ffs":0.4833,"g":84,"co":2,"mo":0,"sa":2,"ic":0},"geometry":{"type":"Polygon","coordinates":[[[-1.25587,53.10726],[-1.25518,53.10659],[-1.25109,53.10649],[-1.25181,53.10245],[-1.25273,53.1026],[-1.25364,53.10156],[-1.25497,53.10169],[-1.25525,53.10106],[-1.25745,53.10139],[-1.25779,53.10178],[-1.25681,53.10247],[-1.25815,53.10325],[-1.2581,53.1037],[-1.25911,53.10394],[-1.26101,53.10357],[-1.25979,53.10546],[-1.25991,53.10584],[-1.26072,53.10605],[-1.26018,53.10667],[-1.2614,53.10658],[-1.26167,53.10696],[-1.26109,53.10758],[-1.25936,53.10727],[-1.25818,53.10814],[-1.25587,53.10726]]]}},{"type":"Feature","properties":{"id":"E01027957","name":"E01027957","parent":"E07000170","type":"LSOA","pop":1317,"r":275,"ff":90,"ffd":6833.7,"ffs":0.4865,"g":87,"co":2,"mo":0,"sa":2,"ic":0},"geometry":{"type":"Polygon","coordinates":[[[-1.26878,53.10738],[-1.26812,53.10726],[-1.26707,53.10929],[-1.26471,53.10813],[-1.26487,53.10753],[-1.26647,53.10764],[-1.26649,53.10728],[-1.26564,53.10683],[-1.26621,53.10658],[-1.26748,53.10668],[-1.26748,53.10537],[-1.26603,53.10536],[-1.26613,53.10501],[-1.26306,53.10488],[-1.26362,53.10386],[-1.26428,53.10351],[-1.26697,53.10361],[-1.26702,53.10393],[-1.26803,53.10388],[-1.26796,53.10235],[-1.26948,53.10234],[-1.26993,53.10363],[-1.27501,53.10338],[-1.28013,53.10367],[-1.28273,53.10469],[-1.28342,53.10554],[-1.2863,53.10553],[-1.28679,53.10505],[-1.28972,53.10632],[-1.29276,53.1057],[-1.29583,53.10438],[-1.3007,53.10167],[-1.30142,53.10417],[-1.30252,53.10393],[-1.30361,53.1032],[-1.3088,53.10772],[-1.31183,53.10871],[-1.31205,53.10914],[-1.31078,53.11012],[-1.30778,53.11064],[-1.29039,53.11212],[-1.28122,53.1137],[-1.27632,53.1138],[-1.2781,53.11237],[-1.27138,53.11007],[-1.27091,53.10963],[-1.26796,53.10905],[-1.26878,53.10738]]]}},{"type":"Feature","properties":{"id":"E01027958","name":"E01027958","parent":"E07000170","type":"LSOA","pop":1502,"r":268,"ff":87,"ffd":5792.3,"ffs":0.4888,"g":87,"co":2,"mo":0,"sa":2,"ic":0},"geometry":{"type":"Polygon","coordinates":[[[-1.2625,53.10887],[-1.2625,53.10831],[-1.26158,53.1081],[-1.26172,53.10764],[-1.26109,53.10758],[-1.26167,53.10696],[-1.2614,53.10658],[-1.26018,53.10667],[-1.26072,53.10605],[-1.25991,53.10584],[-1.25979,53.10546],[-1.26101,53.10357],[-1.26059,53.1037],[-1.25942,53.10306],[-1.26003,53.10207],[-1.26086,53.10219],[-1.26113,53.10188],[-1.26216,53.10207],[-1.26324,53.10184],[-1.26334,53.10138],[-1.26501,53.10115],[-1.26519,53.10281],[-1.26696,53.1028],[-1.26697,53.10361],[-1.26428,53.10351],[-1.26362,53.10386],[-1.26306,53.10488],[-1.26613,53.10501],[-1.26603,53.10536],[-1.26748,53.10537],[-1.26748,53.10668],[-1.26621,53.10658],[-1.26564,53.10683],[-1.26649,53.10728],[-1.26647,53.10764],[-1.26487,53.10753],[-1.26448,53.10864],[-1.26317,53.10861],[-1.26328,53.10916],[-1.2625,53.10887]]]}},{"type":"Feature","properties":{"id":"E01027959","name":"E01027959","parent":"E07000170","type":"LSOA","pop":2016,"r":267,"ff":91,"ffd":4513.9,"ffs":0.5,"g":82,"co":2,"mo":0,"sa":2,"ic":0},"geometry":{"type":"Polygon","coordinates":[[[-1.25625,53.11409],[-1.25728,53.11114],[-1.25872,53.10874],[-1.25818,53.10814],[-1.25936,53.10727],[-1.26172,53.10764],[-1.26158,53.1081],[-1.2625,53.10831],[-1.2625,53.10887],[-1.26328,53.10916],[-1.26317,53.10861],[-1.26448,53.10864],[-1.26471,53.10813],[-1.26707,53.10929],[-1.26812,53.10726],[-1.26878,53.10738],[-1.26796,53.10905],[-1.27091,53.10963],[-1.27138,53.11007],[-1.2781,53.11237],[-1.27632,53.1138],[-1.26199,53.11339],[-1.25967,53.11355],[-1.25771,53.11414],[-1.25688,53.11462],[-1.25594,53.11425],[-1.25625,53.11409]]]}},{"type":"Feature","properties":{"id":"E01027960","name":"E01027960","parent":"E07000170","type":"LSOA","pop":1538,"r":261,"ff":76,"ffd":4941.5,"ffs":0.4368,"g":85,"co":0,"mo":0,"sa":2,"ic":0},"geometry":{"type":"Polygon","coordinates":[[[-1.30114,53.08239],[-1.30537,53.08096],[-1.30473,53.07893],[-1.3069,53.08003],[-1.30639,53.08019],[-1.30634,53.08078],[-1.30708,53.08137],[-1.3089,53.0811],[-1.30928,53.08139],[-1.31145,53.08112],[-1.31147,53.07956],[-1.31185,53.07918],[-1.31203,53.07946],[-1.31308,53.07929],[-1.31558,53.07977],[-1.32203,53.07799],[-1.31751,53.07539],[-1.3161,53.07568],[-1.31555,53.07544],[-1.31523,53.0757],[-1.31265,53.07505],[-1.31072,53.07482],[-1.31044,53.07408],[-1.31237,53.07266],[-1.31257,53.07212],[-1.31431,53.07125],[-1.31289,53.06963],[-1.3145,53.06929],[-1.31492,53.06764],[-1.31455,53.06611],[-1.31408,53.06632],[-1.31419,53.06538],[-1.31598,53.06528],[-1.31643,53.06483],[-1.32075,53.06496],[-1.32192,53.06629],[-1.3221,53.06778],[-1.32595,53.06741],[-1.32611,53.06772],[-1.32523,53.06796],[-1.32652,53.06981],[-1.32547,53.07048],[-1.32625,53.07242],[-1.32897,53.07188],[-1.33298,53.0706],[-1.33246,53.0702],[-1.3333,53.0695],[-1.33443,53.06994],[-1.33505,53.06957],[-1.33794,53.07058],[-1.33816,53.07087],[-1.33777,53.07116],[-1.34075,53.07137],[-1.34118,53.0699],[-1.34259,53.07028],[-1.34303,53.071],[-1.34219,53.07096],[-1.33943,53.07211],[-1.33853,53.07219],[-1.33907,53.07259],[-1.33834,53.0727],[-1.33759,53.07321],[-1.33758,53.07363],[-1.33722,53.07349],[-1.33708,53.07398],[-1.33668,53.07385],[-1.33655,53.07439],[-1.33576,53.07459],[-1.33588,53.07522],[-1.33659,53.07569],[-1.33565,53.07625],[-1.3358,53.07717],[-1.33472,53.07757],[-1.33409,53.07895],[-1.33314,53.07931],[-1.33251,53.07992],[-1.33272,53.08033],[-1.33164,53.08099],[-1.33154,53.08135],[-1.32966,53.08239],[-1.32614,53.08388],[-1.32217,53.08493],[-1.30741,53.08639],[-1.30609,53.08421],[-1.30472,53.08345],[-1.30114,53.08239]]]}},{"type":"Feature","properties":{"id":"E01027961","name":"E01027961","parent":"E07000170","type":"LSOA","pop":1839,"r":281,"ff":79,"ffd":4295.8,"ffs":0.4341,"g":97,"co":0,"mo":0,"sa":2,"ic":0},"geometry":{"type":"Polygon","coordinates":[[[-1.2991,53.07915],[-1.29786,53.07816],[-1.29818,53.07799],[-1.29774,53.07776],[-1.30034,53.07605],[-1.29925,53.07606],[-1.29869,53.07559],[-1.29913,53.07538],[-1.29949,53.07562],[-1.30029,53.07519],[-1.29947,53.07458],[-1.29893,53.07482],[-1.29697,53.07476],[-1.29635,53.07388],[-1.29736,53.07349],[-1.29825,53.07432],[-1.29816,53.07381],[-1.29855,53.07373],[-1.29796,53.07302],[-1.29819,53.07277],[-1.29991,53.07238],[-1.30073,53.07255],[-1.30145,53.07182],[-1.30255,53.07134],[-1.30208,53.07047],[-1.30367,53.07009],[-1.30374,53.07029],[-1.30404,53.06992],[-1.30562,53.07005],[-1.30598,53.06983],[-1.30552,53.06969],[-1.30595,53.06928],[-1.30467,53.0686],[-1.306,53.06787],[-1.30487,53.06724],[-1.30218,53.06801],[-1.29972,53.06811],[-1.29352,53.06665],[-1.29335,53.06609],[-1.29401,53.06591],[-1.29331,53.06595],[-1.29301,53.065],[-1.2944,53.06428],[-1.29532,53.06511],[-1.29634,53.0646],[-1.29897,53.06473],[-1.30199,53.06601],[-1.30218,53.06447],[-1.30617,53.06443],[-1.31419,53.06538],[-1.31408,53.06632],[-1.31455,53.06611],[-1.31492,53.06764],[-1.3145,53.06929],[-1.31289,53.06963],[-1.31431,53.07125],[-1.31257,53.07212],[-1.31237,53.07266],[-1.31044,53.07408],[-1.31072,53.07482],[-1.31265,53.07505],[-1.31523,53.0757],[-1.31555,53.07544],[-1.3161,53.07568],[-1.31751,53.07539],[-1.32203,53.07799],[-1.31558,53.07977],[-1.31308,53.07929],[-1.31203,53.07946],[-1.31185,53.07918],[-1.31147,53.07956],[-1.31145,53.08112],[-1.30928,53.08139],[-1.3089,53.0811],[-1.30708,53.08137],[-1.30634,53.08078],[-1.30639,53.08019],[-1.3069,53.08003],[-1.30473,53.07893],[-1.30537,53.08096],[-1.30114,53.08239],[-1.29972,53.08191],[-1.29926,53.08105],[-1.2991,53.07915]]]}},{"type":"Feature","properties":{"id":"E01027962","name":"E01027962","parent":"E07000170","type":"LSOA","pop":1441,"r":283,"ff":80,"ffd":5551.7,"ffs":0.4444,"g":101,"co":0,"mo":0,"sa":2,"ic":0},"geometry":{"type":"Polygon","coordinates":[[[-1.29512,53.08065],[-1.28668,53.07491],[-1.28709,53.07489],[-1.28614,53.07345],[-1.28815,53.07311],[-1.2888,53.07249],[-1.28869,53.07172],[-1.29049,53.07124],[-1.29177,53.07045],[-1.29363,53.07322],[-1.29532,53.07625],[-1.29471,53.0761],[-1.29396,53.07653],[-1.29627,53.07717],[-1.29786,53.07816],[-1.2991,53.07915],[-1.29926,53.08105],[-1.29972,53.08191],[-1.30472,53.08345],[-1.30609,53.08421],[-1.30741,53.08639],[-1.30335,53.08805],[-1.29512,53.08065]]]}},{"type":"Feature","properties":{"id":"E01027963","name":"E01027963","parent":"E07000170","type":"LSOA","pop":1681,"r":290,"ff":83,"ffd":4937.5,"ffs":0.4486,"g":102,"co":0,"mo":0,"sa":2,"ic":0},"geometry":{"type":"Polygon","coordinates":[[[-1.29396,53.07653],[-1.29471,53.0761],[-1.29532,53.07625],[-1.29363,53.07322],[-1.29177,53.07045],[-1.29049,53.07124],[-1.28869,53.07172],[-1.28818,53.07146],[-1.29415,53.0692],[-1.29474,53.06858],[-1.29395,53.06813],[-1.29421,53.06772],[-1.29352,53.06665],[-1.29972,53.06811],[-1.30218,53.06801],[-1.30487,53.06724],[-1.306,53.06787],[-1.30467,53.0686],[-1.30595,53.06928],[-1.30552,53.06969],[-1.30598,53.06983],[-1.30562,53.07005],[-1.30404,53.06992],[-1.30374,53.07029],[-1.30367,53.07009],[-1.30208,53.07047],[-1.30255,53.07134],[-1.30145,53.07182],[-1.30073,53.07255],[-1.29991,53.07238],[-1.29819,53.07277],[-1.29796,53.07302],[-1.29855,53.07373],[-1.29816,53.07381],[-1.29825,53.07432],[-1.29736,53.07349],[-1.29635,53.07388],[-1.29697,53.07476],[-1.29893,53.07482],[-1.29947,53.07458],[-1.30029,53.07519],[-1.29949,53.07562],[-1.29913,53.07538],[-1.29869,53.07559],[-1.29925,53.07606],[-1.30034,53.07605],[-1.29774,53.07776],[-1.29818,53.07799],[-1.29786,53.07816],[-1.29627,53.07717],[-1.29396,53.07653]]]}},{"type":"Feature","properties":{"id":"E01027964","name":"E01027964","parent":"E07000170","type":"LSOA","pop":1536,"r":257,"ff":93,"ffd":6054.7,"ffs":0.511,"g":73,"co":0,"mo":0,"sa":0,"ic":0},"geometry":{"type":"Polygon","coordinates":[[[-1.2667,53.13982],[-1.26622,53.13662],[-1.26517,53.13478],[-1.26461,53.1345],[-1.26517,53.13442],[-1.26467,53.1332],[-1.26687,53.13265],[-1.26584,53.13212],[-1.26553,53.13131],[-1.26613,53.13089],[-1.26765,53.13162],[-1.26836,53.13113],[-1.26792,53.1306],[-1.2687,53.13052],[-1.26901,53.13078],[-1.26893,53.13159],[-1.27032,53.13273],[-1.2701,53.13306],[-1.27119,53.13321],[-1.27129,53.13373],[-1.27023,53.13423],[-1.27053,53.13459],[-1.27096,53.13441],[-1.27306,53.13231],[-1.27347,53.13274],[-1.27434,53.13236],[-1.27528,53.13301],[-1.279,53.13428],[-1.28088,53.13589],[-1.27923,53.13584],[-1.2767,53.1366],[-1.27563,53.13754],[-1.27429,53.13783],[-1.27264,53.1386],[-1.2726,53.1389],[-1.27208,53.1386],[-1.27014,53.13919],[-1.2667,53.13982]]]}},{"type":"Feature","properties":{"id":"E01027965","name":"E01027965","parent":"E07000170","type":"LSOA","pop":1481,"r":262,"ff":95,"ffd":6414.6,"ffs":0.5163,"g":76,"co":0,"mo":0,"sa":0,"ic":0},"geometry":{"type":"Polygon","coordinates":[[[-1.2617,53.13198],[-1.26025,53.12899],[-1.26,53.12915],[-1.25817,53.12698],[-1.25837,53.12675],[-1.26017,53.12529],[-1.26239,53.12453],[-1.26238,53.12592],[-1.26414,53.12597],[-1.26446,53.12624],[-1.26622,53.12575],[-1.26729,53.12608],[-1.26591,53.12635],[-1.26768,53.12814],[-1.26708,53.12962],[-1.26841,53.12927],[-1.26865,53.12961],[-1.26897,53.12951],[-1.26862,53.13003],[-1.26786,53.13029],[-1.26836,53.13113],[-1.26765,53.13162],[-1.26613,53.13089],[-1.26553,53.13131],[-1.26422,53.13075],[-1.26256,53.13073],[-1.2617,53.13198]]]}},{"type":"Feature","properties":{"id":"E01027966","name":"E01027966","parent":"E07000170","type":"LSOA","pop":1332,"r":263,"ff":95,"ffd":7132.1,"ffs":0.5135,"g":76,"co":0,"mo":0,"sa":2,"ic":0},"geometry":{"type":"Polygon","coordinates":[[[-1.27528,53.13301],[-1.27434,53.13236],[-1.27347,53.13274],[-1.27306,53.13231],[-1.27096,53.13441],[-1.27053,53.13459],[-1.27023,53.13423],[-1.27129,53.13373],[-1.27119,53.13321],[-1.2701,53.13306],[-1.27032,53.13273],[-1.26893,53.13159],[-1.26901,53.13078],[-1.2687,53.13052],[-1.26792,53.1306],[-1.26786,53.13029],[-1.26862,53.13003],[-1.26897,53.12951],[-1.27381,53.12791],[-1.27445,53.12914],[-1.2755,53.1289],[-1.27814,53.13012],[-1.28286,53.13033],[-1.28133,53.13131],[-1.28483,53.13134],[-1.28674,53.13177],[-1.28821,53.13271],[-1.284,53.13578],[-1.28504,53.1363],[-1.28253,53.13638],[-1.28088,53.13589],[-1.279,53.13428],[-1.27528,53.13301]]]}},{"type":"Feature","properties":{"id":"E01027967","name":"E01027967","parent":"E07000170","type":"LSOA","pop":1703,"r":279,"ff":98,"ffd":5754.6,"ffs":0.4975,"g":80,"co":0,"mo":0,"sa":0,"ic":0},"geometry":{"type":"Polygon","coordinates":[[[-1.25147,53.13455],[-1.25004,53.13231],[-1.25368,53.131],[-1.25817,53.12698],[-1.26,53.12915],[-1.25676,53.13092],[-1.25688,53.13115],[-1.25729,53.13075],[-1.25788,53.13115],[-1.25691,53.1315],[-1.25721,53.13171],[-1.25642,53.13318],[-1.25526,53.13293],[-1.25471,53.13318],[-1.25446,53.13418],[-1.25317,53.13501],[-1.25146,53.13503],[-1.25147,53.13455]]]}},{"type":"Feature","properties":{"id":"E01027968","name":"E01027968","parent":"E07000170","type":"LSOA","pop":1307,"r":252,"ff":92,"ffd":7039.0,"ffs":0.5227,"g":74,"co":0,"mo":0,"sa":0,"ic":0},"geometry":{"type":"Polygon","coordinates":[[[-1.27435,53.12119],[-1.27511,53.12122],[-1.27521,53.12157],[-1.27443,53.12131],[-1.27388,53.12183],[-1.27195,53.1228],[-1.27084,53.12302],[-1.2711,53.12372],[-1.27142,53.12361],[-1.27142,53.12441],[-1.27245,53.12432],[-1.27251,53.12404],[-1.27306,53.12598],[-1.27414,53.12787],[-1.27332,53.12796],[-1.26865,53.12961],[-1.26841,53.12927],[-1.26708,53.12962],[-1.26768,53.12814],[-1.26591,53.12635],[-1.26729,53.12608],[-1.26622,53.12575],[-1.26446,53.12624],[-1.26414,53.12597],[-1.26238,53.12592],[-1.26239,53.12453],[-1.26852,53.12274],[-1.26841,53.12262],[-1.26883,53.12227],[-1.27016,53.12245],[-1.27002,53.12217],[-1.27198,53.12185],[-1.27239,53.12135],[-1.27244,53.12159],[-1.27435,53.12119]]]}},{"type":"Feature","properties":{"id":"E01027969","name":"E01027969","parent":"E07000170","type":"LSOA","pop":1279,"r":265,"ff":95,"ffd":7427.7,"ffs":0.5191,"g":80,"co":0,"mo":0,"sa":2,"ic":0},"geometry":{"type":"Polygon","coordinates":[[[-1.27443,53.12131],[-1.27521,53.12157],[-1.27511,53.12122],[-1.27387,53.12121],[-1.27244,53.12159],[-1.27239,53.12135],[-1.27198,53.12185],[-1.27002,53.12217],[-1.27016,53.12245],[-1.26883,53.12227],[-1.26841,53.12262],[-1.26725,53.12136],[-1.26909,53.12004],[-1.26946,53.11995],[-1.26987,53.12026],[-1.27288,53.11967],[-1.27346,53.11977],[-1.27326,53.12073],[-1.27438,53.12076],[-1.27491,53.11987],[-1.27554,53.12014],[-1.27527,53.12059],[-1.27962,53.12083],[-1.2799,53.12135],[-1.27993,53.12317],[-1.27685,53.12499],[-1.27247,53.12385],[-1.27245,53.12432],[-1.27142,53.12441],[-1.27142,53.12361],[-1.2711,53.12372],[-1.27084,53.12302],[-1.27195,53.1228],[-1.27388,53.12183],[-1.27443,53.12131]]]}},{"type":"Feature","properties":{"id":"E01027970","name":"E01027970","parent":"E07000170","type":"LSOA","pop":1421,"r":273,"ff":96,"ffd":6755.8,"ffs":0.4974,"g":78,"co":0,"mo":0,"sa":0,"ic":0},"geometry":{"type":"Polygon","coordinates":[[[-1.25743,53.13472],[-1.25666,53.13434],[-1.25671,53.13412],[-1.2561,53.13415],[-1.25573,53.13511],[-1.25317,53.13501],[-1.25446,53.13418],[-1.25471,53.13318],[-1.25526,53.13293],[-1.25642,53.13318],[-1.25721,53.13171],[-1.25691,53.1315],[-1.25788,53.13115],[-1.25729,53.13075],[-1.25688,53.13115],[-1.25676,53.13092],[-1.26025,53.12899],[-1.2617,53.13198],[-1.26256,53.13073],[-1.26422,53.13075],[-1.26553,53.13131],[-1.26584,53.13212],[-1.26687,53.13265],[-1.26467,53.1332],[-1.26332,53.133],[-1.26305,53.13344],[-1.26213,53.13317],[-1.26242,53.13463],[-1.2616,53.13491],[-1.26152,53.13527],[-1.26085,53.13524],[-1.26113,53.13442],[-1.2606,53.13441],[-1.26025,53.13524],[-1.25724,53.13566],[-1.25743,53.13472]]]}},{"type":"Feature","properties":{"id":"E01027971","name":"E01027971","parent":"E07000170","type":"LSOA","pop":1249,"r":255,"ff":92,"ffd":7365.9,"ffs":0.5169,"g":75,"co":0,"mo":0,"sa":0,"ic":0},"geometry":{"type":"Polygon","coordinates":[[[-1.2614,53.14086],[-1.26173,53.13943],[-1.25899,53.1402],[-1.25635,53.13841],[-1.256,53.13782],[-1.25347,53.13734],[-1.25329,53.13709],[-1.25336,53.1368],[-1.25399,53.13687],[-1.25452,53.13581],[-1.25609,53.1361],[-1.25573,53.13511],[-1.2561,53.13415],[-1.25671,53.13412],[-1.25666,53.13434],[-1.25743,53.13472],[-1.25724,53.13566],[-1.26025,53.13524],[-1.2606,53.13441],[-1.26113,53.13442],[-1.26085,53.13524],[-1.26152,53.13527],[-1.2616,53.13491],[-1.26242,53.13463],[-1.26213,53.13317],[-1.26305,53.13344],[-1.26332,53.133],[-1.26467,53.1332],[-1.26517,53.13442],[-1.26461,53.1345],[-1.26517,53.13478],[-1.26622,53.13662],[-1.2667,53.13982],[-1.26495,53.1403],[-1.26468,53.14005],[-1.26387,53.14001],[-1.2632,53.14087],[-1.2614,53.14086]]]}},{"type":"Feature","properties":{"id":"E01027972","name":"E01027972","parent":"E07000170","type":"LSOA","pop":2456,"r":291,"ff":97,"ffd":3949.5,"ffs":0.4826,"g":87,"co":0,"mo":0,"sa":0,"ic":0},"geometry":{"type":"Polygon","coordinates":[[[-1.22661,53.12621],[-1.23639,53.12184],[-1.23715,53.12091],[-1.23776,53.12089],[-1.23749,53.12006],[-1.23914,53.11888],[-1.23996,53.1188],[-1.23983,53.11798],[-1.24035,53.11713],[-1.2398,53.11686],[-1.239,53.11746],[-1.23854,53.11736],[-1.23797,53.11686],[-1.23864,53.11615],[-1.24968,53.11809],[-1.25058,53.11977],[-1.25182,53.12003],[-1.25379,53.11875],[-1.25415,53.12005],[-1.25688,53.11967],[-1.25701,53.12],[-1.25756,53.11992],[-1.25777,53.12019],[-1.25721,53.12155],[-1.25637,53.12229],[-1.2566,53.12245],[-1.25469,53.12283],[-1.25438,53.12315],[-1.25309,53.12329],[-1.25272,53.12257],[-1.25243,53.12336],[-1.252,53.12241],[-1.25097,53.12176],[-1.25048,53.12169],[-1.25006,53.12216],[-1.2489,53.12251],[-1.24835,53.12234],[-1.24543,53.12403],[-1.24244,53.12502],[-1.24059,53.12676],[-1.23841,53.12605],[-1.23608,53.12772],[-1.23369,53.13082],[-1.23405,53.13183],[-1.23476,53.13209],[-1.23093,53.13382],[-1.2293,53.13417],[-1.22461,53.13163],[-1.22293,53.1303],[-1.22154,53.12981],[-1.22165,53.12944],[-1.22222,53.12935],[-1.22661,53.12621]]]}},{"type":"Feature","properties":{"id":"E01027973","name":"E01027973","parent":"E07000170","type":"LSOA","pop":1543,"r":280,"ff":94,"ffd":6092.0,"ffs":0.487,"g":83,"co":0,"mo":0,"sa":0,"ic":0},"geometry":{"type":"Polygon","coordinates":[[[-1.18775,53.11888],[-1.18631,53.11711],[-1.18585,53.11581],[-1.18299,53.11518],[-1.17789,53.11481],[-1.17558,53.11231],[-1.17275,53.11119],[-1.16999,53.10947],[-1.16778,53.10751],[-1.16425,53.10327],[-1.17802,53.10103],[-1.18303,53.09942],[-1.18443,53.0994],[-1.18667,53.09878],[-1.19604,53.0945],[-1.20724,53.09525],[-1.20605,53.0968],[-1.20545,53.09668],[-1.20513,53.09705],[-1.20588,53.09721],[-1.21377,53.10283],[-1.219,53.10501],[-1.22795,53.10716],[-1.22665,53.10893],[-1.226,53.11151],[-1.23076,53.1125],[-1.23644,53.1154],[-1.23864,53.11615],[-1.23797,53.11686],[-1.23854,53.11736],[-1.239,53.11746],[-1.2398,53.11686],[-1.24035,53.11713],[-1.23983,53.11798],[-1.23996,53.1188],[-1.23914,53.11888],[-1.23749,53.12006],[-1.23776,53.12089],[-1.23715,53.12091],[-1.23639,53.12184],[-1.22661,53.12621],[-1.22222,53.12935],[-1.22165,53.12944],[-1.22154,53.12981],[-1.22029,53.12967],[-1.21736,53.12829],[-1.21007,53.12576],[-1.20249,53.12446],[-1.20197,53.1228],[-1.20091,53.1219],[-1.19884,53.12177],[-1.19378,53.11991],[-1.18847,53.11974],[-1.18775,53.11888]]]}},{"type":"Feature","properties":{"id":"E01027974","name":"E01027974","parent":"E07000170","type":"LSOA","pop":1554,"r":263,"ff":94,"ffd":6048.9,"ffs":0.5109,"g":77,"co":0,"mo":0,"sa":0,"ic":0},"geometry":{"type":"Polygon","coordinates":[[[-1.2575,53.11961],[-1.25623,53.1174],[-1.25534,53.11699],[-1.25688,53.11462],[-1.25771,53.11414],[-1.25967,53.11355],[-1.26199,53.11339],[-1.26762,53.11351],[-1.26773,53.11387],[-1.26866,53.11426],[-1.26861,53.11459],[-1.2679,53.11452],[-1.2679,53.11424],[-1.26719,53.11432],[-1.26748,53.11478],[-1.26683,53.11578],[-1.26477,53.11603],[-1.26519,53.11762],[-1.26469,53.11824],[-1.26417,53.11844],[-1.264,53.11767],[-1.26155,53.11715],[-1.26177,53.11797],[-1.26153,53.11828],[-1.26117,53.11819],[-1.26131,53.1186],[-1.26055,53.11858],[-1.26022,53.11787],[-1.25904,53.11767],[-1.2594,53.11835],[-1.25798,53.11858],[-1.25791,53.11953],[-1.2575,53.11961]]]}},{"type":"Feature","properties":{"id":"E01027975","name":"E01027975","parent":"E07000170","type":"LSOA","pop":1731,"r":261,"ff":96,"ffd":5545.9,"ffs":0.5275,"g":77,"co":0,"mo":0,"sa":2,"ic":0},"geometry":{"type":"Polygon","coordinates":[[[-1.26395,53.12164],[-1.26385,53.12104],[-1.26308,53.12121],[-1.26269,53.12079],[-1.26311,53.12075],[-1.26312,53.12025],[-1.26412,53.12035],[-1.26479,53.12006],[-1.26445,53.11938],[-1.26501,53.11945],[-1.26518,53.11863],[-1.26469,53.11824],[-1.26519,53.11762],[-1.26477,53.11603],[-1.26683,53.11578],[-1.26748,53.11478],[-1.26719,53.11432],[-1.2679,53.11424],[-1.2679,53.11452],[-1.26861,53.11459],[-1.26866,53.11426],[-1.26773,53.11387],[-1.26762,53.11351],[-1.27192,53.11369],[-1.2726,53.11679],[-1.27086,53.11742],[-1.27174,53.1193],[-1.26909,53.12004],[-1.26775,53.12098],[-1.26663,53.12111],[-1.26644,53.12137],[-1.26529,53.12143],[-1.26437,53.12171],[-1.26395,53.12164]]]}},{"type":"Feature","properties":{"id":"E01027976","name":"E01027976","parent":"E07000170","type":"LSOA","pop":2139,"r":268,"ff":98,"ffd":4581.6,"ffs":0.5185,"g":77,"co":0,"mo":0,"sa":0,"ic":0},"geometry":{"type":"Polygon","coordinates":[[[-1.25637,53.12229],[-1.25721,53.12155],[-1.25777,53.12019],[-1.25756,53.11992],[-1.25701,53.12],[-1.25688,53.11967],[-1.25415,53.12005],[-1.25379,53.11875],[-1.25534,53.11699],[-1.25623,53.1174],[-1.2575,53.11961],[-1.25791,53.11953],[-1.25798,53.11858],[-1.2594,53.11835],[-1.25904,53.11767],[-1.26022,53.11787],[-1.26055,53.11858],[-1.26131,53.1186],[-1.26117,53.11819],[-1.26153,53.11828],[-1.26177,53.11797],[-1.26155,53.11715],[-1.264,53.11767],[-1.26417,53.11844],[-1.26469,53.11824],[-1.26518,53.11863],[-1.26501,53.11945],[-1.26445,53.11938],[-1.26479,53.12006],[-1.26412,53.12035],[-1.26312,53.12025],[-1.26311,53.12075],[-1.26269,53.12079],[-1.26308,53.12121],[-1.26385,53.12104],[-1.26395,53.12164],[-1.26437,53.12171],[-1.26775,53.12098],[-1.26725,53.12136],[-1.26852,53.12274],[-1.26017,53.12529],[-1.2587,53.12417],[-1.25469,53.12283],[-1.2566,53.12245],[-1.25637,53.12229]]]}},{"type":"Feature","properties":{"id":"E01027977","name":"E01027977","parent":"E07000170","type":"LSOA","pop":2253,"r":285,"ff":100,"ffd":4438.5,"ffs":0.5,"g":82,"co":0,"mo":0,"sa":0,"ic":0},"geometry":{"type":"Polygon","coordinates":[[[-1.2477,53.13108],[-1.24556,53.12859],[-1.24451,53.12824],[-1.24267,53.12929],[-1.23476,53.13209],[-1.23405,53.13183],[-1.23369,53.13082],[-1.23608,53.12772],[-1.23841,53.12605],[-1.24059,53.12676],[-1.24244,53.12502],[-1.24543,53.12403],[-1.24835,53.12234],[-1.2489,53.12251],[-1.25006,53.12216],[-1.25048,53.12169],[-1.25097,53.12176],[-1.252,53.12241],[-1.25243,53.12336],[-1.25272,53.12257],[-1.25395,53.1249],[-1.25575,53.12416],[-1.25738,53.12612],[-1.25647,53.12652],[-1.25617,53.12708],[-1.25309,53.12711],[-1.25246,53.12668],[-1.25135,53.1271],[-1.24927,53.12655],[-1.24913,53.12697],[-1.24852,53.12704],[-1.24857,53.12786],[-1.24999,53.12791],[-1.24999,53.12853],[-1.24909,53.13005],[-1.24954,53.1304],[-1.2498,53.13019],[-1.25306,53.13127],[-1.25004,53.13231],[-1.24948,53.1322],[-1.2477,53.13108]]]}},{"type":"Feature","properties":{"id":"E01027978","name":"E01027978","parent":"E07000170","type":"LSOA","pop":1960,"r":274,"ff":97,"ffd":4949.0,"ffs":0.5,"g":78,"co":0,"mo":0,"sa":0,"ic":0},"geometry":{"type":"Polygon","coordinates":[[[-1.25306,53.13127],[-1.2498,53.13019],[-1.24954,53.1304],[-1.24909,53.13005],[-1.24999,53.12853],[-1.24999,53.12791],[-1.24857,53.12786],[-1.24852,53.12704],[-1.24913,53.12697],[-1.24927,53.12655],[-1.25135,53.1271],[-1.25246,53.12668],[-1.25309,53.12711],[-1.25617,53.12708],[-1.25647,53.12652],[-1.25738,53.12612],[-1.25575,53.12416],[-1.25395,53.1249],[-1.25309,53.12329],[-1.25438,53.12315],[-1.25469,53.12283],[-1.2587,53.12417],[-1.26017,53.12529],[-1.25478,53.12987],[-1.25368,53.131],[-1.25306,53.13127]]]}},{"type":"Feature","properties":{"id":"E01027979","name":"E01027979","parent":"E07000170","type":"LSOA","pop":1559,"r":271,"ff":96,"ffd":6157.8,"ffs":0.5026,"g":78,"co":0,"mo":0,"sa":0,"ic":0},"geometry":{"type":"Polygon","coordinates":[[[-1.26087,53.14647],[-1.26006,53.14631],[-1.25967,53.14719],[-1.25856,53.14723],[-1.25841,53.14916],[-1.25507,53.14938],[-1.25578,53.14813],[-1.25172,53.14577],[-1.24734,53.14568],[-1.24646,53.14635],[-1.24119,53.14626],[-1.24059,53.14537],[-1.23713,53.14623],[-1.23991,53.13961],[-1.24439,53.13945],[-1.24464,53.13985],[-1.24546,53.14001],[-1.24375,53.14258],[-1.24502,53.14308],[-1.24821,53.14077],[-1.24946,53.14037],[-1.2502,53.14055],[-1.25069,53.13993],[-1.25181,53.1399],[-1.25254,53.13937],[-1.25312,53.1394],[-1.25287,53.14009],[-1.25331,53.14026],[-1.25282,53.14067],[-1.25386,53.14127],[-1.25595,53.14206],[-1.25682,53.14183],[-1.25753,53.14099],[-1.2577,53.1414],[-1.25994,53.14022],[-1.25949,53.13995],[-1.26173,53.13943],[-1.2614,53.14086],[-1.2632,53.14087],[-1.26387,53.14001],[-1.26468,53.14005],[-1.26665,53.14249],[-1.26938,53.14251],[-1.27062,53.14296],[-1.27023,53.14357],[-1.26945,53.1433],[-1.26804,53.14336],[-1.26714,53.14406],[-1.26557,53.1435],[-1.26495,53.14428],[-1.26502,53.14482],[-1.26595,53.14559],[-1.26546,53.14579],[-1.26583,53.14613],[-1.26434,53.1469],[-1.26501,53.14709],[-1.26487,53.14775],[-1.26385,53.14899],[-1.26438,53.14964],[-1.26563,53.15],[-1.26412,53.14995],[-1.26249,53.14927],[-1.26087,53.14647]]]}},{"type":"Feature","properties":{"id":"E01027980","name":"E01027980","parent":"E07000170","type":"LSOA","pop":1616,"r":260,"ff":92,"ffd":5693.1,"ffs":0.5083,"g":77,"co":0,"mo":0,"sa":2,"ic":0},"geometry":{"type":"Polygon","coordinates":[[[-1.2672,53.14552],[-1.26672,53.14503],[-1.26714,53.14406],[-1.26804,53.14336],[-1.26945,53.1433],[-1.27023,53.14357],[-1.27062,53.14296],[-1.27265,53.14238],[-1.27266,53.14312],[-1.27357,53.14346],[-1.27504,53.14311],[-1.27588,53.14319],[-1.2771,53.14272],[-1.27811,53.14335],[-1.27883,53.14332],[-1.28,53.14263],[-1.27896,53.14181],[-1.28317,53.14139],[-1.28403,53.14229],[-1.28367,53.14333],[-1.28269,53.14376],[-1.286,53.14512],[-1.28925,53.14686],[-1.28794,53.14804],[-1.28758,53.14795],[-1.2887,53.1473],[-1.28662,53.14763],[-1.28643,53.14568],[-1.28562,53.14534],[-1.28492,53.14543],[-1.28151,53.14824],[-1.2721,53.14844],[-1.26974,53.14895],[-1.26762,53.14734],[-1.26737,53.14683],[-1.26784,53.14642],[-1.2672,53.14552]]]}},{"type":"Feature","properties":{"id":"E01027981","name":"E01027981","parent":"E07000170","type":"LSOA","pop":1834,"r":256,"ff":91,"ffd":4961.8,"ffs":0.5028,"g":73,"co":0,"mo":0,"sa":2,"ic":0},"geometry":{"type":"Polygon","coordinates":[[[-1.2847,53.16875],[-1.28192,53.16742],[-1.27657,53.16736],[-1.2749,53.16815],[-1.27374,53.16793],[-1.27343,53.16819],[-1.27247,53.16787],[-1.27129,53.16824],[-1.27116,53.16799],[-1.26927,53.16794],[-1.26896,53.16819],[-1.2687,53.16792],[-1.26578,53.16749],[-1.26513,53.16696],[-1.26235,53.16663],[-1.26178,53.16592],[-1.26034,53.16535],[-1.26028,53.16476],[-1.25865,53.1635],[-1.25799,53.16133],[-1.25702,53.16016],[-1.25684,53.15639],[-1.25533,53.15462],[-1.25419,53.15473],[-1.25128,53.15438],[-1.24752,53.15304],[-1.24375,53.1542],[-1.24182,53.15358],[-1.24098,53.15309],[-1.24018,53.15124],[-1.23985,53.14871],[-1.23782,53.14876],[-1.23713,53.14625],[-1.24059,53.14537],[-1.24119,53.14626],[-1.24646,53.14635],[-1.24734,53.14568],[-1.25172,53.14577],[-1.25578,53.14813],[-1.25507,53.14938],[-1.25841,53.14916],[-1.25856,53.14723],[-1.25967,53.14719],[-1.26006,53.14631],[-1.26087,53.14647],[-1.26249,53.14927],[-1.26412,53.14995],[-1.26563,53.15],[-1.26438,53.14964],[-1.26385,53.14899],[-1.26487,53.14775],[-1.26501,53.14709],[-1.26434,53.1469],[-1.26583,53.14613],[-1.26546,53.14579],[-1.26595,53.14559],[-1.26502,53.14482],[-1.26495,53.14428],[-1.26557,53.1435],[-1.26714,53.14406],[-1.26672,53.14503],[-1.26784,53.14642],[-1.26737,53.14683],[-1.26762,53.14734],[-1.26974,53.14895],[-1.2721,53.14844],[-1.28151,53.14824],[-1.28492,53.14543],[-1.28562,53.14534],[-1.28643,53.14568],[-1.28662,53.14763],[-1.2887,53.1473],[-1.28758,53.14795],[-1.28794,53.14804],[-1.28925,53.14686],[-1.286,53.14512],[-1.28269,53.14376],[-1.28367,53.14333],[-1.28403,53.14229],[-1.28317,53.14139],[-1.28025,53.14165],[-1.28088,53.14103],[-1.27944,53.13925],[-1.27975,53.13884],[-1.27867,53.13857],[-1.27776,53.13901],[-1.2781,53.13926],[-1.27742,53.13958],[-1.27708,53.13935],[-1.27592,53.13994],[-1.27663,53.13984],[-1.27674,53.14033],[-1.27565,53.14013],[-1.2726,53.1389],[-1.27264,53.1386],[-1.27429,53.13783],[-1.27563,53.13754],[-1.2767,53.1366],[-1.27923,53.13584],[-1.28088,53.13589],[-1.28253,53.13638],[-1.28504,53.1363],[-1.28523,53.13653],[-1.29259,53.13674],[-1.29515,53.13717],[-1.29986,53.13859],[-1.3025,53.13898],[-1.306,53.13886],[-1.3112,53.13697],[-1.31522,53.1362],[-1.31882,53.13972],[-1.32026,53.14254],[-1.32167,53.14427],[-1.3223,53.1482],[-1.32224,53.15101],[-1.32315,53.15389],[-1.3246,53.15485],[-1.32558,53.15647],[-1.32547,53.15788],[-1.32346,53.15954],[-1.32345,53.16234],[-1.31908,53.16319],[-1.3165,53.16537],[-1.3155,53.16525],[-1.31483,53.16457],[-1.31439,53.16473],[-1.31392,53.16444],[-1.31428,53.16426],[-1.31362,53.16421],[-1.31257,53.16348],[-1.30961,53.16318],[-1.30806,53.1634],[-1.30452,53.16547],[-1.30264,53.16387],[-1.30071,53.16421],[-1.30084,53.16581],[-1.30026,53.1681],[-1.29892,53.1678],[-1.29752,53.16886],[-1.29665,53.17078],[-1.29596,53.17122],[-1.28876,53.17146],[-1.28791,53.17061],[-1.28541,53.16967],[-1.2847,53.16875]]]}},{"type":"Feature","properties":{"id":"E01027982","name":"E01027982","parent":"E07000170","type":"LSOA","pop":1406,"r":276,"ff":99,"ffd":7041.3,"ffs":0.5077,"g":79,"co":0,"mo":0,"sa":0,"ic":0},"geometry":{"type":"Polygon","coordinates":[[[-1.25595,53.14206],[-1.25386,53.14127],[-1.25282,53.14067],[-1.25331,53.14026],[-1.25287,53.14009],[-1.25312,53.1394],[-1.25254,53.13937],[-1.25181,53.1399],[-1.25069,53.13993],[-1.25022,53.13958],[-1.24867,53.13924],[-1.24827,53.13949],[-1.24814,53.13908],[-1.24935,53.13776],[-1.24954,53.13691],[-1.24865,53.13706],[-1.24823,53.13687],[-1.25085,53.13522],[-1.25146,53.13503],[-1.25573,53.13511],[-1.25609,53.1361],[-1.25452,53.13581],[-1.25399,53.13687],[-1.25336,53.1368],[-1.25329,53.13709],[-1.25347,53.13734],[-1.256,53.13782],[-1.25635,53.13841],[-1.25899,53.1402],[-1.25949,53.13995],[-1.25994,53.14022],[-1.2577,53.1414],[-1.25753,53.14099],[-1.25682,53.14183],[-1.25595,53.14206]]]}},{"type":"Feature","properties":{"id":"E01027983","name":"E01027983","parent":"E07000170","type":"LSOA","pop":1608,"r":261,"ff":95,"ffd":5908.0,"ffs":0.5163,"g":75,"co":0,"mo":0,"sa":2,"ic":0},"geometry":{"type":"Polygon","coordinates":[[[-1.27266,53.14312],[-1.27265,53.14238],[-1.27062,53.14296],[-1.26938,53.14251],[-1.26665,53.14249],[-1.26468,53.14005],[-1.26495,53.1403],[-1.27014,53.13919],[-1.27208,53.1386],[-1.27565,53.14013],[-1.27674,53.14033],[-1.27663,53.13984],[-1.27592,53.13994],[-1.27708,53.13935],[-1.27742,53.13958],[-1.2781,53.13926],[-1.27776,53.13901],[-1.27867,53.13857],[-1.27975,53.13884],[-1.27944,53.13925],[-1.28088,53.14103],[-1.28025,53.14165],[-1.27896,53.14181],[-1.28,53.14263],[-1.27883,53.14332],[-1.27811,53.14335],[-1.2771,53.14272],[-1.27588,53.14319],[-1.27504,53.14311],[-1.27357,53.14346],[-1.27266,53.14312]]]}},{"type":"Feature","properties":{"id":"E01027984","name":"E01027984","parent":"E07000170","type":"LSOA","pop":1500,"r":277,"ff":99,"ffd":6600.0,"ffs":0.5051,"g":79,"co":0,"mo":0,"sa":0,"ic":0},"geometry":{"type":"Polygon","coordinates":[[[-1.24375,53.14258],[-1.24546,53.14001],[-1.24464,53.13985],[-1.24439,53.13945],[-1.24357,53.13949],[-1.24357,53.1387],[-1.24461,53.13871],[-1.24576,53.13786],[-1.24522,53.13713],[-1.24351,53.13755],[-1.24271,53.13657],[-1.24352,53.13599],[-1.24457,53.13608],[-1.24464,53.13565],[-1.24349,53.13485],[-1.2439,53.13404],[-1.24302,53.13346],[-1.24488,53.13378],[-1.24506,53.13406],[-1.24596,53.13379],[-1.24596,53.13362],[-1.24653,53.13331],[-1.2456,53.13304],[-1.24663,53.13224],[-1.24798,53.13331],[-1.24948,53.1322],[-1.25004,53.13231],[-1.25147,53.13455],[-1.25146,53.13503],[-1.25085,53.13522],[-1.24823,53.13687],[-1.24865,53.13706],[-1.24954,53.13691],[-1.24935,53.13776],[-1.24814,53.13908],[-1.24827,53.13949],[-1.24867,53.13924],[-1.25022,53.13958],[-1.25069,53.13993],[-1.2502,53.14055],[-1.24946,53.14037],[-1.24821,53.14077],[-1.24502,53.14308],[-1.24375,53.14258]]]}},{"type":"Feature","properties":{"id":"E01027985","name":"E01027985","parent":"E07000170","type":"LSOA","pop":2177,"r":281,"ff":100,"ffd":4593.5,"ffs":0.5051,"g":81,"co":0,"mo":0,"sa":0,"ic":0},"geometry":{"type":"Polygon","coordinates":[[[-1.23793,53.13968],[-1.2293,53.13417],[-1.23093,53.13382],[-1.23476,53.13209],[-1.24267,53.12929],[-1.24451,53.12824],[-1.24556,53.12859],[-1.2477,53.13108],[-1.24948,53.1322],[-1.24798,53.13331],[-1.24663,53.13224],[-1.2456,53.13304],[-1.24653,53.13331],[-1.24596,53.13362],[-1.24596,53.13379],[-1.24506,53.13406],[-1.24488,53.13378],[-1.24302,53.13346],[-1.2439,53.13404],[-1.24349,53.13485],[-1.24464,53.13565],[-1.24457,53.13608],[-1.24352,53.13599],[-1.24271,53.13657],[-1.24351,53.13755],[-1.24522,53.13713],[-1.24576,53.13786],[-1.24461,53.13871],[-1.24357,53.1387],[-1.24357,53.13949],[-1.23793,53.13968]]]}},{"type":"Feature","properties":{"id":"E01027986","name":"E01027986","parent":"E07000170","type":"LSOA","pop":1378,"r":218,"ff":73,"ffd":5297.5,"ffs":0.4932,"g":68,"co":2,"mo":0,"sa":2,"ic":0},"geometry":{"type":"Polygon","coordinates":[[[-1.284,53.13578],[-1.28821,53.13271],[-1.29349,53.13066],[-1.29591,53.13371],[-1.29645,53.13304],[-1.29639,53.13227],[-1.2968,53.13044],[-1.30019,53.13094],[-1.30181,53.13046],[-1.30191,53.13005],[-1.30256,53.1298],[-1.30243,53.12768],[-1.30561,53.12655],[-1.3075,53.12671],[-1.30707,53.12563],[-1.308,53.12538],[-1.30779,53.12561],[-1.30831,53.1257],[-1.30918,53.12533],[-1.31112,53.12518],[-1.31195,53.12448],[-1.31285,53.12533],[-1.31454,53.12499],[-1.31481,53.12568],[-1.31789,53.12703],[-1.31871,53.12817],[-1.31987,53.12825],[-1.32044,53.12874],[-1.32178,53.13065],[-1.32018,53.13216],[-1.32009,53.13272],[-1.31805,53.13489],[-1.31504,53.13579],[-1.31522,53.1362],[-1.3112,53.13697],[-1.306,53.13886],[-1.3025,53.13898],[-1.29986,53.13859],[-1.29515,53.13717],[-1.29259,53.13674],[-1.28523,53.13653],[-1.284,53.13578]]]}},{"type":"Feature","properties":{"id":"E01027987","name":"E01027987","parent":"E07000170","type":"LSOA","pop":2271,"r":229,"ff":78,"ffd":3434.6,"ffs":0.5098,"g":74,"co":2,"mo":0,"sa":2,"ic":0},"geometry":{"type":"Polygon","coordinates":[[[-1.29582,53.1307],[-1.2949,53.12975],[-1.29547,53.12898],[-1.29464,53.12857],[-1.29473,53.12834],[-1.29394,53.12822],[-1.29391,53.12786],[-1.29317,53.12806],[-1.29315,53.12778],[-1.29259,53.12781],[-1.29261,53.12645],[-1.29372,53.12553],[-1.29114,53.12536],[-1.28938,53.12491],[-1.28838,53.12449],[-1.28651,53.12324],[-1.29023,53.12253],[-1.29253,53.11912],[-1.2983,53.118],[-1.30114,53.1182],[-1.30158,53.1205],[-1.29689,53.12059],[-1.2968,53.12262],[-1.29729,53.12306],[-1.29928,53.12318],[-1.30099,53.12293],[-1.30201,53.12333],[-1.3014,53.12375],[-1.30165,53.12421],[-1.29889,53.12441],[-1.29919,53.12513],[-1.30132,53.12503],[-1.30174,53.12523],[-1.30176,53.12572],[-1.29938,53.12613],[-1.29998,53.12638],[-1.30078,53.12786],[-1.3004,53.12819],[-1.29858,53.12864],[-1.29856,53.12898],[-1.30191,53.13005],[-1.30181,53.13046],[-1.30019,53.13094],[-1.2968,53.13044],[-1.29639,53.13227],[-1.29582,53.1307]]]}},{"type":"Feature","properties":{"id":"E01027988","name":"E01027988","parent":"E07000170","type":"LSOA","pop":1450,"r":238,"ff":83,"ffd":5724.1,"ffs":0.5061,"g":72,"co":0,"mo":0,"sa":2,"ic":0},"geometry":{"type":"Polygon","coordinates":[[[-1.29591,53.13371],[-1.29349,53.13066],[-1.28821,53.13271],[-1.28674,53.13177],[-1.28483,53.13134],[-1.28133,53.13131],[-1.28286,53.13033],[-1.27814,53.13012],[-1.27789,53.12995],[-1.27826,53.12952],[-1.28022,53.1296],[-1.28026,53.12864],[-1.27943,53.12853],[-1.27864,53.12779],[-1.28071,53.12829],[-1.28436,53.12813],[-1.28464,53.12781],[-1.28554,53.12802],[-1.28619,53.1277],[-1.2855,53.12763],[-1.28565,53.12681],[-1.28628,53.1269],[-1.28652,53.12666],[-1.28786,53.12689],[-1.2892,53.12566],[-1.28938,53.12491],[-1.29114,53.12536],[-1.29318,53.12539],[-1.29372,53.12553],[-1.29261,53.12645],[-1.29259,53.12781],[-1.29315,53.12778],[-1.29317,53.12806],[-1.29391,53.12786],[-1.29394,53.12822],[-1.29473,53.12834],[-1.29464,53.12857],[-1.29547,53.12898],[-1.2949,53.12975],[-1.29582,53.1307],[-1.29639,53.13227],[-1.29645,53.13304],[-1.29591,53.13371]]]}},{"type":"Feature","properties":{"id":"E01027989","name":"E01027989","parent":"E07000170","type":"LSOA","pop":1555,"r":243,"ff":88,"ffd":5659.2,"ffs":0.5207,"g":72,"co":0,"mo":0,"sa":2,"ic":0},"geometry":{"type":"Polygon","coordinates":[[[-1.27789,53.12995],[-1.2755,53.1289],[-1.27445,53.12914],[-1.27381,53.12791],[-1.27414,53.12787],[-1.27306,53.12598],[-1.27247,53.12385],[-1.27721,53.12515],[-1.27762,53.12479],[-1.27979,53.12471],[-1.28017,53.12525],[-1.28374,53.12587],[-1.2868,53.12593],[-1.28838,53.12449],[-1.28938,53.12491],[-1.2892,53.12566],[-1.28786,53.12689],[-1.28652,53.12666],[-1.28628,53.1269],[-1.28565,53.12681],[-1.2855,53.12763],[-1.28619,53.1277],[-1.28554,53.12802],[-1.28464,53.12781],[-1.28436,53.12813],[-1.28071,53.12829],[-1.27864,53.12779],[-1.27943,53.12853],[-1.28026,53.12864],[-1.28022,53.1296],[-1.27826,53.12952],[-1.27789,53.12995]]]}},{"type":"Feature","properties":{"id":"E01027990","name":"E01027990","parent":"E07000170","type":"LSOA","pop":1840,"r":232,"ff":75,"ffd":4076.1,"ffs":0.5,"g":80,"co":2,"mo":0,"sa":2,"ic":0},"geometry":{"type":"Polygon","coordinates":[[[-1.30078,53.12786],[-1.29998,53.12638],[-1.29938,53.12613],[-1.30176,53.12572],[-1.30174,53.12523],[-1.30132,53.12503],[-1.29919,53.12513],[-1.29889,53.12441],[-1.30165,53.12421],[-1.3014,53.12375],[-1.30201,53.12333],[-1.30099,53.12293],[-1.29928,53.12318],[-1.29729,53.12306],[-1.2968,53.12262],[-1.29689,53.12059],[-1.30158,53.1205],[-1.30114,53.1182],[-1.2983,53.118],[-1.29883,53.11297],[-1.29798,53.11242],[-1.29781,53.11143],[-1.30778,53.11064],[-1.31078,53.11012],[-1.30969,53.11171],[-1.30967,53.11315],[-1.31208,53.11605],[-1.31202,53.11662],[-1.31104,53.11693],[-1.31099,53.11847],[-1.31454,53.12499],[-1.31285,53.12533],[-1.31195,53.12448],[-1.31112,53.12518],[-1.30918,53.12533],[-1.30831,53.1257],[-1.30779,53.12561],[-1.308,53.12538],[-1.30707,53.12563],[-1.3075,53.12671],[-1.30561,53.12655],[-1.30243,53.12768],[-1.30256,53.1298],[-1.30191,53.13005],[-1.29856,53.12898],[-1.29858,53.12864],[-1.3004,53.12819],[-1.30078,53.12786]]]}},{"type":"Feature","properties":{"id":"E01027991","name":"E01027991","parent":"E07000170","type":"LSOA","pop":1245,"r":253,"ff":84,"ffd":6747.0,"ffs":0.497,"g":82,"co":0,"mo":0,"sa":2,"ic":0},"geometry":{"type":"Polygon","coordinates":[[[-1.27979,53.12471],[-1.27762,53.12479],[-1.27721,53.12515],[-1.27685,53.12499],[-1.27993,53.12317],[-1.27988,53.12131],[-1.28042,53.12119],[-1.28438,53.11863],[-1.28233,53.11845],[-1.2823,53.11796],[-1.28176,53.11786],[-1.28181,53.11746],[-1.28266,53.11768],[-1.28423,53.11622],[-1.28528,53.11654],[-1.28636,53.11557],[-1.29023,53.11601],[-1.28777,53.11903],[-1.2855,53.12101],[-1.28943,53.12266],[-1.28651,53.12324],[-1.28838,53.12449],[-1.2868,53.12593],[-1.28374,53.12587],[-1.28017,53.12525],[-1.27979,53.12471]]]}},{"type":"Feature","properties":{"id":"E01027992","name":"E01027992","parent":"E07000170","type":"LSOA","pop":2769,"r":249,"ff":90,"ffd":3250.3,"ffs":0.5202,"g":74,"co":0,"mo":0,"sa":2,"ic":0},"geometry":{"type":"Polygon","coordinates":[[[-1.29023,53.11601],[-1.28636,53.11557],[-1.28528,53.11654],[-1.28423,53.11622],[-1.28266,53.11768],[-1.28181,53.11746],[-1.28176,53.11786],[-1.2823,53.11796],[-1.28233,53.11845],[-1.28438,53.11863],[-1.28042,53.12119],[-1.27988,53.12131],[-1.27962,53.12083],[-1.27527,53.12059],[-1.27554,53.12014],[-1.27491,53.11987],[-1.27438,53.12076],[-1.27326,53.12073],[-1.27346,53.11977],[-1.27288,53.11967],[-1.26987,53.12026],[-1.26946,53.11995],[-1.27174,53.1193],[-1.27086,53.11742],[-1.2726,53.11679],[-1.27192,53.11369],[-1.28121,53.1137],[-1.29039,53.11212],[-1.29781,53.11143],[-1.29798,53.11242],[-1.29883,53.11297],[-1.2983,53.118],[-1.29253,53.11912],[-1.29023,53.12253],[-1.28943,53.12266],[-1.2855,53.12101],[-1.28777,53.11903],[-1.29023,53.11601]]]}},{"type":"Feature","properties":{"id":"E01027993","name":"E01027993","parent":"E07000170","type":"LSOA","pop":1515,"r":300,"ff":89,"ffd":5874.6,"ffs":0.4635,"g":104,"co":0,"mo":0,"sa":2,"ic":0},"geometry":{"type":"Polygon","coordinates":[[[-1.28739,53.06764],[-1.28958,53.06589],[-1.28953,53.06477],[-1.28882,53.06452],[-1.28918,53.0641],[-1.28777,53.06309],[-1.28638,53.0637],[-1.28639,53.0643],[-1.2831,53.06432],[-1.28234,53.06478],[-1.28033,53.06497],[-1.27738,53.06494],[-1.27479,53.06559],[-1.2719,53.06543],[-1.27023,53.06514],[-1.2683,53.06313],[-1.26972,53.06277],[-1.26865,53.06098],[-1.26921,53.05975],[-1.26829,53.05905],[-1.27057,53.05593],[-1.27058,53.05538],[-1.27212,53.05469],[-1.27208,53.05366],[-1.27334,53.05135],[-1.27553,53.04879],[-1.2756,53.04754],[-1.27746,53.04624],[-1.27875,53.04709],[-1.2805,53.04704],[-1.28149,53.04775],[-1.28483,53.04823],[-1.28802,53.04826],[-1.29529,53.04611],[-1.29811,53.04651],[-1.2991,53.04632],[-1.30094,53.04417],[-1.30111,53.04328],[-1.30353,53.04188],[-1.30514,53.04485],[-1.30784,53.04301],[-1.30696,53.04505],[-1.30577,53.04616],[-1.30682,53.04726],[-1.30956,53.0481],[-1.31101,53.04831],[-1.31045,53.04637],[-1.31461,53.04823],[-1.31745,53.04799],[-1.319,53.04733],[-1.32014,53.04782],[-1.32105,53.04903],[-1.3226,53.04924],[-1.32579,53.05173],[-1.32335,53.05303],[-1.32228,53.05238],[-1.31882,53.05445],[-1.31565,53.05271],[-1.31498,53.05266],[-1.31445,53.05437],[-1.31473,53.05588],[-1.31424,53.05629],[-1.3139,53.05691],[-1.31296,53.05729],[-1.31025,53.05769],[-1.30611,53.05881],[-1.30358,53.06119],[-1.30218,53.06447],[-1.30199,53.06601],[-1.29897,53.06473],[-1.29634,53.0646],[-1.29532,53.06511],[-1.2944,53.06428],[-1.29301,53.065],[-1.29331,53.06595],[-1.29401,53.06591],[-1.29335,53.06609],[-1.29421,53.06772],[-1.29395,53.06813],[-1.29474,53.06858],[-1.29415,53.0692],[-1.28742,53.07165],[-1.287,53.07082],[-1.28812,53.069],[-1.28685,53.06861],[-1.28739,53.06764]],[[-1.29153,53.05693],[-1.29331,53.05642],[-1.29429,53.0554],[-1.29937,53.0565],[-1.30049,53.05647],[-1.30277,53.05567],[-1.3013,53.05213],[-1.2989,53.04962],[-1.29499,53.04929],[-1.29398,53.05038],[-1.29083,53.0526],[-1.28914,53.05174],[-1.28673,53.05351],[-1.28903,53.05563],[-1.29005,53.05514],[-1.29017,53.0582],[-1.2909,53.05862],[-1.29226,53.05762],[-1.29153,53.05693]]]}},{"type":"Feature","properties":{"id":"E01027994","name":"E01027994","parent":"E07000170","type":"LSOA","pop":1383,"r":342,"ff":104,"ffd":7519.9,"ffs":0.4837,"g":123,"co":0,"mo":0,"sa":2,"ic":0},"geometry":{"type":"Polygon","coordinates":[[[-1.29017,53.0582],[-1.29005,53.05514],[-1.28903,53.05563],[-1.28673,53.05351],[-1.28914,53.05174],[-1.29083,53.0526],[-1.29398,53.05038],[-1.29499,53.04929],[-1.2989,53.04962],[-1.3013,53.05213],[-1.30277,53.05567],[-1.30049,53.05647],[-1.29937,53.0565],[-1.29429,53.0554],[-1.29331,53.05642],[-1.29153,53.05693],[-1.29226,53.05762],[-1.2909,53.05862],[-1.29017,53.0582]]]}},{"type":"Feature","properties":{"id":"E01027995","name":"E01027995","parent":"E07000170","type":"LSOA","pop":1619,"r":276,"ff":84,"ffd":5188.4,"ffs":0.497,"g":103,"co":0,"mo":0,"sa":2,"ic":0},"geometry":{"type":"Polygon","coordinates":[[[-1.254,53.08115],[-1.25312,53.08053],[-1.25293,53.07989],[-1.25437,53.07921],[-1.25614,53.07923],[-1.25618,53.0789],[-1.25727,53.07908],[-1.25762,53.07873],[-1.25916,53.07862],[-1.25931,53.07832],[-1.25851,53.07804],[-1.2575,53.07619],[-1.25789,53.07613],[-1.25751,53.07569],[-1.2519,53.07645],[-1.25196,53.07663],[-1.24441,53.07817],[-1.24456,53.07853],[-1.2434,53.07871],[-1.24303,53.07819],[-1.24261,53.07859],[-1.24282,53.07721],[-1.24211,53.07712],[-1.24187,53.07833],[-1.24057,53.0785],[-1.23928,53.07761],[-1.23842,53.07613],[-1.23603,53.07558],[-1.23237,53.07571],[-1.23121,53.07529],[-1.23083,53.07388],[-1.22892,53.06948],[-1.2293,53.06875],[-1.23023,53.06438],[-1.23129,53.06206],[-1.22888,53.05804],[-1.22812,53.05457],[-1.22818,53.05254],[-1.22925,53.05155],[-1.22958,53.0517],[-1.23226,53.0503],[-1.23879,53.04947],[-1.24172,53.04777],[-1.24317,53.04735],[-1.24499,53.04563],[-1.24671,53.04465],[-1.2557,53.04188],[-1.25769,53.04096],[-1.25824,53.04043],[-1.2629,53.03926],[-1.2638,53.03843],[-1.2664,53.03842],[-1.26709,53.0389],[-1.26859,53.03904],[-1.2693,53.03942],[-1.27033,53.04051],[-1.27072,53.04188],[-1.27283,53.04209],[-1.27572,53.04328],[-1.27869,53.04405],[-1.27771,53.0445],[-1.27676,53.04553],[-1.27746,53.04624],[-1.2756,53.04754],[-1.27553,53.04879],[-1.27334,53.05135],[-1.27208,53.05366],[-1.27212,53.05469],[-1.27058,53.05538],[-1.27057,53.05593],[-1.26829,53.05905],[-1.26921,53.05975],[-1.26865,53.06098],[-1.26972,53.06277],[-1.2683,53.06313],[-1.27023,53.06514],[-1.2719,53.06543],[-1.27479,53.06559],[-1.27738,53.06494],[-1.28033,53.06497],[-1.28234,53.06478],[-1.2831,53.06432],[-1.28639,53.0643],[-1.28638,53.0637],[-1.28777,53.06309],[-1.28918,53.0641],[-1.28882,53.06452],[-1.28953,53.06477],[-1.28958,53.06589],[-1.28739,53.06764],[-1.28685,53.06861],[-1.28812,53.069],[-1.287,53.07082],[-1.28742,53.07165],[-1.28818,53.07146],[-1.28869,53.07172],[-1.2888,53.07249],[-1.28815,53.07311],[-1.28614,53.07345],[-1.28709,53.07489],[-1.28058,53.07511],[-1.2789,53.0767],[-1.27664,53.07771],[-1.27587,53.07828],[-1.27603,53.07869],[-1.27511,53.07895],[-1.27101,53.07907],[-1.26459,53.07877],[-1.26444,53.07952],[-1.26368,53.08028],[-1.26114,53.0798],[-1.26107,53.08183],[-1.26031,53.08185],[-1.25849,53.08107],[-1.25801,53.08136],[-1.25854,53.08149],[-1.25821,53.08183],[-1.25745,53.0819],[-1.25722,53.08158],[-1.254,53.08115]]]}},{"type":"Feature","properties":{"id":"E01027996","name":"E01027996","parent":"E07000170","type":"LSOA","pop":2052,"r":278,"ff":86,"ffd":4191.0,"ffs":0.4971,"g":101,"co":0,"mo":0,"sa":2,"ic":0},"geometry":{"type":"Polygon","coordinates":[[[-1.25613,53.09138],[-1.25382,53.08914],[-1.25271,53.08903],[-1.25185,53.08947],[-1.24704,53.08901],[-1.24661,53.08818],[-1.24367,53.08693],[-1.24231,53.08698],[-1.24223,53.08528],[-1.24522,53.08456],[-1.24556,53.08393],[-1.24454,53.08387],[-1.24398,53.0825],[-1.24497,53.08259],[-1.2454,53.08317],[-1.24589,53.08305],[-1.24617,53.08339],[-1.24738,53.08361],[-1.2482,53.0834],[-1.24829,53.083],[-1.2468,53.08179],[-1.24444,53.07908],[-1.24486,53.07862],[-1.24568,53.07891],[-1.24669,53.07881],[-1.24815,53.0818],[-1.24945,53.08316],[-1.2504,53.08326],[-1.25357,53.08221],[-1.2534,53.08108],[-1.25722,53.08158],[-1.25745,53.0819],[-1.25821,53.08183],[-1.25854,53.08149],[-1.25801,53.08136],[-1.25849,53.08107],[-1.26031,53.08185],[-1.26107,53.08183],[-1.26114,53.0798],[-1.26368,53.08028],[-1.26444,53.07952],[-1.26459,53.07877],[-1.27101,53.07907],[-1.27511,53.07895],[-1.27603,53.07869],[-1.27587,53.07828],[-1.27664,53.07771],[-1.2789,53.0767],[-1.28058,53.07511],[-1.28638,53.07484],[-1.28709,53.07489],[-1.28668,53.07491],[-1.29512,53.08065],[-1.29114,53.08316],[-1.28719,53.08446],[-1.28609,53.08543],[-1.27927,53.08606],[-1.27639,53.08793],[-1.26629,53.0899],[-1.26468,53.0913],[-1.26429,53.09123],[-1.26375,53.09175],[-1.26041,53.09261],[-1.25613,53.09138]]]}},{"type":"Feature","properties":{"id":"E01027997","name":"E01027997","parent":"E07000170","type":"LSOA","pop":2392,"r":261,"ff":70,"ffd":2926.4,"ffs":0.4348,"g":95,"co":0,"mo":0,"sa":0,"ic":0},"geometry":{"type":"Polygon","coordinates":[[[-1.2401,53.08625],[-1.23431,53.0841],[-1.23068,53.08105],[-1.22631,53.08104],[-1.22634,53.07727],[-1.22757,53.07412],[-1.228,53.07077],[-1.22892,53.06948],[-1.23083,53.07388],[-1.23121,53.07529],[-1.23237,53.07571],[-1.23603,53.07558],[-1.23842,53.07613],[-1.23928,53.07761],[-1.24057,53.0785],[-1.24187,53.07833],[-1.24211,53.07712],[-1.24282,53.07721],[-1.24261,53.07859],[-1.24303,53.07819],[-1.2434,53.07871],[-1.24486,53.07862],[-1.24444,53.07908],[-1.2468,53.08179],[-1.24829,53.083],[-1.2482,53.0834],[-1.24738,53.08361],[-1.24617,53.08339],[-1.24589,53.08305],[-1.2454,53.08317],[-1.24497,53.08259],[-1.24398,53.0825],[-1.24454,53.08387],[-1.24556,53.08393],[-1.24522,53.08456],[-1.24223,53.08528],[-1.24107,53.08476],[-1.2401,53.08625]]]}},{"type":"Feature","properties":{"id":"E01027998","name":"E01027998","parent":"E07000170","type":"LSOA","pop":1705,"r":278,"ff":83,"ffd":4868.0,"ffs":0.4854,"g":103,"co":0,"mo":0,"sa":2,"ic":0},"geometry":{"type":"Polygon","coordinates":[[[-1.24783,53.08123],[-1.24669,53.07881],[-1.24568,53.07891],[-1.2442,53.07858],[-1.24456,53.07853],[-1.24441,53.07817],[-1.25196,53.07663],[-1.2519,53.07645],[-1.25751,53.07569],[-1.25789,53.07613],[-1.2575,53.07619],[-1.25851,53.07804],[-1.25931,53.07832],[-1.25916,53.07862],[-1.25762,53.07873],[-1.25727,53.07908],[-1.25618,53.0789],[-1.25614,53.07923],[-1.25437,53.07921],[-1.25293,53.07989],[-1.25312,53.08053],[-1.25388,53.08103],[-1.2534,53.08108],[-1.25357,53.08221],[-1.2504,53.08326],[-1.24945,53.08316],[-1.24783,53.08123]]]}},{"type":"Feature","properties":{"id":"E01033778","name":"E01033778","parent":"E07000170","type":"LSOA","pop":1340,"r":285,"ff":86,"ffd":6417.9,"ffs":0.4526,"g":92,"co":0,"mo":0,"sa":0,"ic":0},"geometry":{"type":"Polygon","coordinates":[[[-1.18159,53.04789],[-1.18158,53.0455],[-1.18303,53.04556],[-1.18281,53.04479],[-1.18364,53.04421],[-1.18593,53.04422],[-1.18507,53.04386],[-1.18465,53.04405],[-1.18466,53.04334],[-1.18428,53.04326],[-1.18508,53.04279],[-1.18916,53.04281],[-1.19247,53.04421],[-1.18875,53.04708],[-1.18538,53.04832],[-1.18355,53.04865],[-1.18218,53.04849],[-1.18159,53.04789]]]}},{"type":"Feature","properties":{"id":"E01033779","name":"E01033779","parent":"E07000170","type":"LSOA","pop":1344,"r":260,"ff":79,"ffd":5878.0,"ffs":0.4514,"g":82,"co":0,"mo":0,"sa":0,"ic":0},"geometry":{"type":"Polygon","coordinates":[[[-1.18158,53.0455],[-1.18081,53.04256],[-1.17843,53.04002],[-1.17747,53.03835],[-1.17865,53.03674],[-1.19081,53.04072],[-1.19406,53.038],[-1.19521,53.03862],[-1.19454,53.03903],[-1.1962,53.04034],[-1.19247,53.04421],[-1.18916,53.04281],[-1.18508,53.04279],[-1.18428,53.04326],[-1.18466,53.04334],[-1.18465,53.04405],[-1.18507,53.04386],[-1.18593,53.04422],[-1.18364,53.04421],[-1.18281,53.04479],[-1.18303,53.04556],[-1.18158,53.0455]]]}},{"type":"Feature","properties":{"id":"E01033781","name":"E01033781","parent":"E07000170","type":"LSOA","pop":1304,"r":310,"ff":98,"ffd":7515.3,"ffs":0.4434,"g":86,"co":0,"mo":0,"sa":0,"ic":0},"geometry":{"type":"Polygon","coordinates":[[[-1.18383,53.03852],[-1.17865,53.03674],[-1.18396,53.02926],[-1.19007,53.0299],[-1.19089,53.03102],[-1.19441,53.03041],[-1.19639,53.03091],[-1.19639,53.0313],[-1.19673,53.03104],[-1.1979,53.03156],[-1.19766,53.03188],[-1.19667,53.03159],[-1.19619,53.0321],[-1.19523,53.0324],[-1.19495,53.03383],[-1.1929,53.03249],[-1.19228,53.03296],[-1.19259,53.0333],[-1.19049,53.03376],[-1.18952,53.03541],[-1.1929,53.03731],[-1.19379,53.03728],[-1.19593,53.03653],[-1.19728,53.03708],[-1.19849,53.0381],[-1.19589,53.03894],[-1.19649,53.03978],[-1.1962,53.04034],[-1.19454,53.03903],[-1.19521,53.03862],[-1.19406,53.038],[-1.19081,53.04072],[-1.18383,53.03852]]]}},{"type":"Feature","properties":{"id":"E01033782","name":"E01033782","parent":"E07000170","type":"LSOA","pop":1356,"r":320,"ff":105,"ffd":7743.4,"ffs":0.4545,"g":85,"co":0,"mo":0,"sa":0,"ic":0},"geometry":{"type":"Polygon","coordinates":[[[-1.17816,53.02963],[-1.17938,53.02718],[-1.17966,53.02419],[-1.18264,53.02226],[-1.18485,53.02348],[-1.18451,53.02496],[-1.18849,53.02484],[-1.18928,53.02518],[-1.18904,53.02605],[-1.19038,53.02659],[-1.19132,53.02623],[-1.19137,53.02598],[-1.19234,53.02636],[-1.19214,53.02616],[-1.19289,53.02601],[-1.19422,53.02732],[-1.19592,53.02773],[-1.19717,53.0286],[-1.19638,53.02934],[-1.19557,53.02944],[-1.19566,53.03063],[-1.19441,53.03041],[-1.19089,53.03102],[-1.19007,53.0299],[-1.18396,53.02926],[-1.17747,53.03835],[-1.17688,53.03537],[-1.17776,53.03304],[-1.17816,53.02963]]]}},{"type":"Feature","properties":{"id":"E01033783","name":"E01033783","parent":"E07000170","type":"LSOA","pop":1755,"r":355,"ff":116,"ffd":6609.7,"ffs":0.4549,"g":96,"co":0,"mo":0,"sa":0,"ic":0},"geometry":{"type":"Polygon","coordinates":[[[-1.19422,53.02732],[-1.19289,53.02601],[-1.19214,53.02616],[-1.19234,53.02636],[-1.19137,53.02598],[-1.19132,53.02623],[-1.19038,53.02659],[-1.18981,53.02647],[-1.18904,53.02605],[-1.18928,53.02518],[-1.18849,53.02484],[-1.18451,53.02496],[-1.18485,53.02348],[-1.18264,53.02226],[-1.18369,53.02073],[-1.18275,53.01857],[-1.18321,53.01794],[-1.18403,53.01761],[-1.18453,53.01639],[-1.18683,53.01777],[-1.18831,53.01796],[-1.18913,53.01734],[-1.19519,53.01545],[-1.19782,53.01592],[-1.19995,53.01681],[-1.20051,53.01763],[-1.20302,53.01834],[-1.20299,53.01981],[-1.20485,53.02328],[-1.19856,53.02129],[-1.19998,53.02347],[-1.19747,53.02166],[-1.19529,53.02457],[-1.19563,53.02565],[-1.1946,53.02623],[-1.19592,53.02773],[-1.19422,53.02732]]]}}]}