{"type":"FeatureCollection","features":[{"type":"Feature","properties":{"id":"E01024190","name":"E01024190","parent":"E07000108","type":"LSOA","pop":1571,"r":6,"ff":5,"ffd":318.3,"ffs":1.0,"g":0,"co":1,"mo":3,"sa":3,"ic":3},"geometry":{"type":"Polygon","coordinates":[[[1.21679,51.23868],[1.21899,51.237],[1.22,51.23788],[1.22526,51.23503],[1.22587,51.23542],[1.228,51.23432],[1.23071,51.23342],[1.23168,51.23357],[1.23349,51.23451],[1.23434,51.23421],[1.23785,51.23555],[1.23855,51.23511],[1.23946,51.23552],[1.23916,51.23572],[1.24007,51.23631],[1.24058,51.23589],[1.24146,51.23654],[1.24575,51.2351],[1.25317,51.23359],[1.25366,51.23322],[1.2536,51.23224],[1.25522,51.22866],[1.25914,51.22793],[1.26074,51.22717],[1.26197,51.2271],[1.27334,51.22264],[1.26764,51.21603],[1.25624,51.20837],[1.25523,51.20717],[1.24693,51.21085],[1.24082,51.21414],[1.23877,51.2116],[1.23629,51.20748],[1.23458,51.20195],[1.23177,51.19546],[1.22706,51.19667],[1.21994,51.1999],[1.21565,51.20128],[1.21972,51.20429],[1.22219,51.2074],[1.21945,51.20939],[1.21715,51.21034],[1.20845,51.21316],[1.20428,51.21642],[1.20174,51.21791],[1.20565,51.22127],[1.20431,51.22319],[1.20424,51.22386],[1.20353,51.22361],[1.2038,51.22413],[1.20279,51.22414],[1.20288,51.22464],[1.20767,51.22559],[1.2081,51.22613],[1.21008,51.22676],[1.21275,51.22871],[1.21219,51.23108],[1.21002,51.23317],[1.20568,51.23308],[1.20297,51.23334],[1.19883,51.23532],[1.19703,51.23546],[1.1988,51.23833],[1.20094,51.23994],[1.20634,51.24626],[1.21836,51.243],[1.21563,51.24016],[1.21434,51.23963],[1.21679,51.23868]]]}},{"type":"Feature","properties":{"id":"E01024192","name":"E01024192","parent":"E07000108","type":"LSOA","pop":2113,"r":10,"ff":10,"ffd":473.3,"ffs":1.0,"g":0,"co":1,"mo":1,"sa":3,"ic":1},"geometry":{"type":"Polygon","coordinates":[[[1.19376,51.22608],[1.19463,51.22522],[1.19517,51.22537],[1.19536,51.22512],[1.19642,51.22511],[1.19698,51.22545],[1.19628,51.22622],[1.19618,51.22806],[1.19701,51.22771],[1.19779,51.22708],[1.19805,51.22586],[1.1995,51.22686],[1.20011,51.22655],[1.2005,51.22669],[1.20082,51.22726],[1.20246,51.22848],[1.20296,51.22816],[1.20345,51.22855],[1.20382,51.22821],[1.20477,51.22901],[1.20569,51.22857],[1.2045,51.22757],[1.20424,51.22674],[1.20443,51.22643],[1.20565,51.22689],[1.20577,51.22597],[1.20445,51.2258],[1.20389,51.22557],[1.20397,51.22528],[1.20771,51.22564],[1.20288,51.22464],[1.20279,51.22414],[1.2038,51.22413],[1.20353,51.22361],[1.20424,51.22386],[1.20431,51.22319],[1.20565,51.22127],[1.20174,51.21791],[1.19714,51.21964],[1.19326,51.22013],[1.19038,51.21956],[1.18555,51.21782],[1.18742,51.21975],[1.18905,51.22331],[1.19153,51.22654],[1.19313,51.22937],[1.19549,51.22887],[1.19454,51.22659],[1.19376,51.22608]]]}},{"type":"Feature","properties":{"id":"E01024193","name":"E01024193","parent":"E07000108","type":"LSOA","pop":1497,"r":110,"ff":60,"ffd":4008.0,"ffs":0.6593,"g":18,"co":0,"mo":0,"sa":3,"ic":0},"geometry":{"type":"Polygon","coordinates":[[[1.30057,51.14351],[1.30063,51.14205],[1.30108,51.1422],[1.30247,51.14171],[1.30332,51.14236],[1.30298,51.14148],[1.3021,51.14081],[1.30018,51.14038],[1.30046,51.14003],[1.29952,51.13945],[1.29898,51.13979],[1.29842,51.13945],[1.29882,51.13868],[1.29725,51.13845],[1.29956,51.13716],[1.29934,51.13693],[1.29772,51.13754],[1.29546,51.13769],[1.29315,51.13929],[1.29399,51.1401],[1.29501,51.14002],[1.29643,51.13918],[1.29768,51.14054],[1.29779,51.1409],[1.2968,51.14131],[1.29747,51.14223],[1.29826,51.14291],[1.29858,51.14353],[1.3,51.14366],[1.30057,51.14351]]]}},{"type":"Feature","properties":{"id":"E01024194","name":"E01024194","parent":"E07000108","type":"LSOA","pop":1504,"r":108,"ff":60,"ffd":3989.4,"ffs":0.6593,"g":17,"co":0,"mo":0,"sa":3,"ic":0},"geometry":{"type":"Polygon","coordinates":[[[1.30361,51.13954],[1.30238,51.13843],[1.30319,51.13826],[1.30254,51.13833],[1.30192,51.13803],[1.30275,51.13777],[1.30232,51.13733],[1.3052,51.1367],[1.30618,51.13676],[1.30532,51.13515],[1.30774,51.1352],[1.30713,51.13434],[1.3014,51.13599],[1.29934,51.13693],[1.29956,51.13716],[1.29725,51.13845],[1.29882,51.13868],[1.29842,51.13945],[1.29898,51.13979],[1.29952,51.13945],[1.30017,51.13985],[1.30361,51.13954]]]}},{"type":"Feature","properties":{"id":"E01024195","name":"E01024195","parent":"E07000108","type":"LSOA","pop":1445,"r":110,"ff":60,"ffd":4152.2,"ffs":0.6593,"g":18,"co":0,"mo":0,"sa":3,"ic":0},"geometry":{"type":"Polygon","coordinates":[[[1.31658,51.14271],[1.31416,51.14099],[1.31032,51.13904],[1.31059,51.13848],[1.31014,51.137],[1.30774,51.1352],[1.30532,51.13515],[1.30618,51.13676],[1.3052,51.1367],[1.30232,51.13733],[1.30275,51.13777],[1.30192,51.13803],[1.30254,51.13833],[1.30319,51.13826],[1.30238,51.13843],[1.30361,51.13954],[1.30017,51.13985],[1.30046,51.14003],[1.30018,51.14038],[1.3021,51.14081],[1.30298,51.14148],[1.30332,51.14236],[1.30247,51.14171],[1.30108,51.1422],[1.30063,51.14205],[1.30057,51.14351],[1.3,51.14366],[1.3006,51.1456],[1.30126,51.14688],[1.3016,51.14827],[1.3026,51.14939],[1.31658,51.14271]]]}},{"type":"Feature","properties":{"id":"E01024196","name":"E01024196","parent":"E07000108","type":"LSOA","pop":1500,"r":110,"ff":60,"ffd":4000.0,"ffs":0.6593,"g":18,"co":0,"mo":0,"sa":3,"ic":0},"geometry":{"type":"Polygon","coordinates":[[[1.30005,51.14965],[1.30058,51.14944],[1.30123,51.15006],[1.3026,51.14939],[1.3016,51.14827],[1.30126,51.14688],[1.3006,51.1456],[1.3,51.14366],[1.29858,51.14353],[1.29826,51.14291],[1.29747,51.14223],[1.29673,51.14246],[1.29691,51.14291],[1.29646,51.14286],[1.29647,51.14329],[1.29413,51.14256],[1.2935,51.1427],[1.29334,51.14189],[1.29187,51.14223],[1.29158,51.14268],[1.29339,51.14314],[1.2937,51.14359],[1.2931,51.14388],[1.29161,51.14387],[1.29195,51.14443],[1.29414,51.14422],[1.29495,51.14702],[1.29551,51.14997],[1.29715,51.1509],[1.30005,51.14965]]]}},{"type":"Feature","properties":{"id":"E01024197","name":"E01024197","parent":"E07000108","type":"LSOA","pop":1512,"r":109,"ff":60,"ffd":3968.3,"ffs":0.6593,"g":18,"co":0,"mo":0,"sa":3,"ic":0},"geometry":{"type":"Polygon","coordinates":[[[1.28761,51.14457],[1.29161,51.14387],[1.2931,51.14388],[1.2937,51.14359],[1.29339,51.14314],[1.29158,51.14268],[1.29187,51.14223],[1.29334,51.14189],[1.2935,51.1427],[1.29413,51.14256],[1.29647,51.14329],[1.29646,51.14286],[1.29691,51.14291],[1.29673,51.14246],[1.29747,51.14223],[1.2968,51.14131],[1.29779,51.1409],[1.29768,51.14054],[1.29643,51.13918],[1.29501,51.14002],[1.29399,51.1401],[1.29315,51.13929],[1.28613,51.14259],[1.28761,51.14457]]]}},{"type":"Feature","properties":{"id":"E01024198","name":"E01024198","parent":"E07000108","type":"LSOA","pop":2456,"r":124,"ff":52,"ffd":2117.3,"ffs":0.5361,"g":26,"co":2,"mo":0,"sa":0,"ic":0},"geometry":{"type":"Polygon","coordinates":[[[1.24146,51.13479],[1.24407,51.13319],[1.24472,51.13336],[1.24723,51.133],[1.25214,51.1333],[1.25628,51.13304],[1.26489,51.13398],[1.26645,51.13387],[1.26734,51.13136],[1.26691,51.13042],[1.26846,51.12902],[1.26722,51.12436],[1.27171,51.1183],[1.26832,51.11699],[1.26489,51.11624],[1.26529,51.11577],[1.26272,51.11473],[1.2597,51.11251],[1.25789,51.11168],[1.26012,51.11124],[1.2623,51.10898],[1.26287,51.10744],[1.25915,51.10658],[1.26146,51.10262],[1.25303,51.10146],[1.2515,51.10102],[1.24995,51.09981],[1.24882,51.09991],[1.24825,51.10062],[1.24717,51.10092],[1.23858,51.10061],[1.22659,51.0996],[1.22119,51.0981],[1.22047,51.10121],[1.21953,51.10135],[1.21389,51.10017],[1.21326,51.09971],[1.20945,51.09923],[1.20904,51.09897],[1.20914,51.09845],[1.20617,51.09789],[1.20439,51.0972],[1.2043,51.09897],[1.19668,51.10193],[1.19493,51.10307],[1.19676,51.1045],[1.1951,51.10568],[1.19542,51.10788],[1.19462,51.11067],[1.194,51.11115],[1.19557,51.11404],[1.19573,51.11596],[1.19737,51.11809],[1.19889,51.11868],[1.20105,51.12009],[1.20201,51.11962],[1.203,51.12077],[1.20588,51.12017],[1.20631,51.12226],[1.21342,51.11914],[1.21691,51.12115],[1.21923,51.11904],[1.22222,51.11966],[1.22508,51.1205],[1.22644,51.12185],[1.22356,51.12357],[1.23125,51.12791],[1.23553,51.12977],[1.23268,51.13236],[1.23386,51.13318],[1.24094,51.13563],[1.24146,51.13479]]]}},{"type":"Feature","properties":{"id":"E01024200","name":"E01024200","parent":"E07000108","type":"LSOA","pop":1597,"r":68,"ff":31,"ffd":1941.1,"ffs":0.62,"g":17,"co":0,"mo":2,"sa":3,"ic":0},"geometry":{"type":"Polygon","coordinates":[[[1.32393,51.25758],[1.32295,51.25677],[1.325,51.25554],[1.32556,51.2545],[1.32897,51.25532],[1.33032,51.25239],[1.33093,51.25236],[1.33124,51.25164],[1.33189,51.25161],[1.33185,51.25194],[1.3346,51.25214],[1.33524,51.25088],[1.33795,51.25031],[1.33664,51.24913],[1.33153,51.24604],[1.32699,51.24406],[1.32167,51.2407],[1.31454,51.23483],[1.31498,51.23449],[1.31241,51.23179],[1.30823,51.2286],[1.30792,51.2278],[1.30432,51.22456],[1.30355,51.22328],[1.30504,51.22291],[1.30391,51.22141],[1.30519,51.22096],[1.30362,51.21895],[1.30327,51.21785],[1.30692,51.21688],[1.30429,51.21414],[1.30484,51.212],[1.30375,51.20949],[1.30634,51.20849],[1.3087,51.21001],[1.30904,51.20889],[1.30958,51.20818],[1.31657,51.21012],[1.32014,51.21081],[1.32059,51.21037],[1.32736,51.20916],[1.32726,51.20885],[1.3288,51.20914],[1.32936,51.20861],[1.3338,51.20895],[1.33533,51.20942],[1.33233,51.2118],[1.33507,51.21348],[1.33836,51.21594],[1.33819,51.2161],[1.34076,51.21714],[1.34254,51.21564],[1.34908,51.21263],[1.34791,51.21166],[1.34986,51.21027],[1.35245,51.20722],[1.35194,51.2065],[1.3507,51.20583],[1.35277,51.20306],[1.35333,51.20096],[1.35262,51.20056],[1.35309,51.20026],[1.35674,51.19986],[1.35565,51.19521],[1.35355,51.19244],[1.3514,51.19409],[1.35043,51.1936],[1.34779,51.1916],[1.34992,51.19069],[1.3467,51.18754],[1.33946,51.18339],[1.34123,51.18015],[1.34045,51.17826],[1.33459,51.18206],[1.33929,51.18523],[1.33507,51.18726],[1.33174,51.18455],[1.3271,51.18146],[1.32481,51.18242],[1.32144,51.18338],[1.3204,51.18309],[1.31368,51.17845],[1.31229,51.17665],[1.30795,51.17313],[1.30529,51.16995],[1.29861,51.17461],[1.29798,51.17553],[1.29084,51.17167],[1.28748,51.17014],[1.28577,51.1698],[1.28492,51.17175],[1.28346,51.174],[1.27976,51.17687],[1.27853,51.17749],[1.27767,51.17752],[1.27544,51.17831],[1.2805,51.18263],[1.27935,51.18502],[1.27499,51.18673],[1.26992,51.1871],[1.27078,51.18749],[1.27288,51.18987],[1.27717,51.19353],[1.27779,51.19335],[1.27851,51.19384],[1.27968,51.19581],[1.28284,51.19892],[1.2794,51.19991],[1.28307,51.20688],[1.2869,51.20877],[1.28335,51.20952],[1.27166,51.21382],[1.26996,51.2152],[1.26764,51.21603],[1.27334,51.22264],[1.26197,51.2271],[1.26074,51.22717],[1.26418,51.22929],[1.26884,51.23075],[1.2723,51.23321],[1.2737,51.23322],[1.27588,51.23542],[1.28346,51.23231],[1.28441,51.23246],[1.29318,51.23937],[1.29401,51.23557],[1.29922,51.23577],[1.30068,51.23885],[1.29799,51.24139],[1.29807,51.24271],[1.29946,51.24376],[1.30281,51.24369],[1.30228,51.24463],[1.30364,51.24573],[1.30473,51.24593],[1.30525,51.24664],[1.30691,51.24676],[1.30706,51.24497],[1.30649,51.24478],[1.30646,51.24504],[1.30595,51.24505],[1.30571,51.24471],[1.30611,51.24448],[1.30672,51.24459],[1.30706,51.24334],[1.30817,51.24357],[1.31001,51.24217],[1.31088,51.24125],[1.31511,51.24063],[1.31685,51.24229],[1.31528,51.24497],[1.3146,51.24475],[1.31409,51.24505],[1.31467,51.24566],[1.31369,51.24593],[1.31355,51.2475],[1.31455,51.24879],[1.31329,51.24883],[1.31138,51.24923],[1.30902,51.25047],[1.30897,51.25123],[1.31059,51.25171],[1.31198,51.25163],[1.31244,51.252],[1.31239,51.25603],[1.31351,51.25669],[1.31373,51.25739],[1.32393,51.25758]]]}},{"type":"Feature","properties":{"id":"E01024201","name":"E01024201","parent":"E07000108","type":"LSOA","pop":1489,"r":71,"ff":31,"ffd":2081.9,"ffs":0.5849,"g":17,"co":0,"mo":2,"sa":1,"ic":0},"geometry":{"type":"Polygon","coordinates":[[[1.34316,51.24616],[1.3439,51.24576],[1.34436,51.24584],[1.34768,51.24361],[1.34982,51.24103],[1.35034,51.23959],[1.35135,51.23918],[1.35108,51.23847],[1.35369,51.23902],[1.35685,51.23488],[1.36131,51.23136],[1.36318,51.22909],[1.36674,51.22654],[1.35958,51.22313],[1.36075,51.22179],[1.36237,51.22105],[1.36309,51.22131],[1.36788,51.21705],[1.36877,51.21746],[1.37329,51.21414],[1.37037,51.21279],[1.36819,51.21149],[1.36594,51.2091],[1.36377,51.20976],[1.36024,51.20358],[1.35245,51.20722],[1.34986,51.21027],[1.34791,51.21166],[1.34908,51.21263],[1.34254,51.21564],[1.34076,51.21714],[1.33819,51.2161],[1.33836,51.21594],[1.33507,51.21348],[1.33233,51.2118],[1.33533,51.20942],[1.3338,51.20895],[1.32936,51.20861],[1.3288,51.20914],[1.32726,51.20885],[1.32736,51.20916],[1.32059,51.21037],[1.32014,51.21081],[1.31657,51.21012],[1.30958,51.20818],[1.30904,51.20889],[1.3087,51.21001],[1.30634,51.20849],[1.30375,51.20949],[1.30484,51.212],[1.30429,51.21414],[1.30692,51.21688],[1.30327,51.21785],[1.30362,51.21895],[1.30519,51.22096],[1.30391,51.22141],[1.30504,51.22291],[1.30355,51.22328],[1.30432,51.22456],[1.30792,51.2278],[1.30823,51.2286],[1.31241,51.23179],[1.31498,51.23449],[1.31454,51.23483],[1.32167,51.2407],[1.32699,51.24406],[1.33153,51.24604],[1.33664,51.24913],[1.33795,51.25031],[1.33912,51.24961],[1.34095,51.24733],[1.34311,51.24675],[1.34316,51.24616]]]}},{"type":"Feature","properties":{"id":"E01024202","name":"E01024202","parent":"E07000108","type":"LSOA","pop":1861,"r":63,"ff":28,"ffd":1504.6,"ffs":0.6222,"g":17,"co":0,"mo":2,"sa":3,"ic":0},"geometry":{"type":"Polygon","coordinates":[[[1.31244,51.252],[1.31198,51.25163],[1.31059,51.25171],[1.30897,51.25123],[1.30902,51.25047],[1.31138,51.24923],[1.31329,51.24883],[1.31455,51.24879],[1.31355,51.2475],[1.31369,51.24593],[1.31467,51.24566],[1.31409,51.24505],[1.3146,51.24475],[1.31528,51.24497],[1.31685,51.24229],[1.31511,51.24063],[1.31088,51.24125],[1.31001,51.24217],[1.30817,51.24357],[1.30706,51.24334],[1.30672,51.24459],[1.30611,51.24448],[1.30571,51.24471],[1.30595,51.24505],[1.30646,51.24504],[1.30649,51.24478],[1.30706,51.24497],[1.30691,51.24676],[1.30525,51.24664],[1.30473,51.24593],[1.30364,51.24573],[1.30228,51.24463],[1.30281,51.24369],[1.29946,51.24376],[1.29807,51.24271],[1.29799,51.24139],[1.30068,51.23885],[1.29922,51.23577],[1.29401,51.23557],[1.29318,51.23937],[1.28441,51.23246],[1.28346,51.23231],[1.27588,51.23542],[1.27881,51.23905],[1.28191,51.24116],[1.28083,51.24152],[1.28327,51.24337],[1.28375,51.24318],[1.28842,51.24737],[1.28782,51.24764],[1.28823,51.24991],[1.29314,51.25544],[1.29365,51.25688],[1.30181,51.25667],[1.3104,51.2575],[1.31373,51.25739],[1.31351,51.25669],[1.31239,51.25603],[1.31244,51.252]]]}},{"type":"Feature","properties":{"id":"E01024203","name":"E01024203","parent":"E07000108","type":"LSOA","pop":1720,"r":70,"ff":33,"ffd":1918.6,"ffs":0.6346,"g":18,"co":0,"mo":2,"sa":3,"ic":0},"geometry":{"type":"Polygon","coordinates":[[[1.23219,51.19053],[1.2328,51.19024],[1.23324,51.19055],[1.23384,51.19033],[1.23437,51.1907],[1.23472,51.19061],[1.23469,51.18972],[1.23632,51.1888],[1.23789,51.18968],[1.23935,51.19002],[1.24115,51.19122],[1.24197,51.19009],[1.24198,51.18852],[1.24288,51.18849],[1.24214,51.18807],[1.24271,51.1875],[1.24189,51.18743],[1.24165,51.18779],[1.23982,51.18682],[1.23946,51.18702],[1.23873,51.18678],[1.23794,51.18735],[1.23751,51.18706],[1.23788,51.18664],[1.23701,51.18626],[1.23597,51.18482],[1.23459,51.18582],[1.23384,51.18565],[1.23406,51.18514],[1.23193,51.18056],[1.23547,51.17955],[1.23643,51.18096],[1.23824,51.18189],[1.23986,51.18041],[1.24319,51.18148],[1.24598,51.18355],[1.25065,51.18418],[1.24962,51.18616],[1.24654,51.18828],[1.24901,51.19036],[1.24892,51.1922],[1.2551,51.18982],[1.25704,51.19147],[1.25836,51.19125],[1.2642,51.18942],[1.2647,51.1872],[1.26956,51.18675],[1.26992,51.1871],[1.27499,51.18673],[1.27935,51.18502],[1.2805,51.18263],[1.27544,51.17831],[1.27767,51.17752],[1.27853,51.17749],[1.27976,51.17687],[1.28346,51.174],[1.28492,51.17175],[1.28244,51.17103],[1.2825,51.17055],[1.27272,51.16709],[1.27239,51.16737],[1.27122,51.16686],[1.27047,51.16699],[1.26329,51.16343],[1.25337,51.16796],[1.25246,51.16725],[1.24687,51.16853],[1.24512,51.16928],[1.24418,51.17133],[1.2425,51.17125],[1.24057,51.17242],[1.23724,51.17232],[1.23507,51.17056],[1.2331,51.17123],[1.2304,51.17148],[1.22903,51.17063],[1.22732,51.17043],[1.22538,51.17098],[1.22271,51.16988],[1.21824,51.1684],[1.21715,51.16922],[1.21472,51.1693],[1.20791,51.17106],[1.20759,51.16988],[1.20915,51.16728],[1.20629,51.16424],[1.20508,51.16323],[1.20177,51.16261],[1.19864,51.16142],[1.20304,51.15515],[1.20128,51.15529],[1.19418,51.15423],[1.19071,51.15404],[1.18803,51.15485],[1.18303,51.15794],[1.18191,51.15736],[1.18127,51.15616],[1.17954,51.15672],[1.17709,51.15692],[1.17756,51.15933],[1.17653,51.16245],[1.17574,51.16225],[1.17536,51.16245],[1.17159,51.16066],[1.17104,51.16123],[1.17073,51.16314],[1.16896,51.16266],[1.16584,51.16005],[1.16582,51.1585],[1.16195,51.15802],[1.15698,51.15987],[1.15642,51.16036],[1.15634,51.16127],[1.15201,51.16324],[1.14376,51.16574],[1.14278,51.16906],[1.1442,51.1737],[1.14764,51.17718],[1.15005,51.1856],[1.15151,51.18516],[1.152,51.18822],[1.15265,51.18865],[1.15359,51.19095],[1.1578,51.19101],[1.15968,51.18768],[1.16371,51.18515],[1.16344,51.18422],[1.17004,51.18411],[1.17439,51.18641],[1.17765,51.18737],[1.17931,51.18818],[1.18067,51.1896],[1.18055,51.19054],[1.18272,51.19025],[1.18396,51.18962],[1.18798,51.18612],[1.19227,51.18383],[1.19636,51.18443],[1.19466,51.18512],[1.19821,51.18663],[1.19769,51.18709],[1.20309,51.19135],[1.20608,51.19311],[1.20782,51.19507],[1.21565,51.20128],[1.21994,51.1999],[1.22532,51.1975],[1.22503,51.19743],[1.2273,51.19309],[1.22815,51.19303],[1.23219,51.19053]]]}},{"type":"Feature","properties":{"id":"E01024204","name":"E01024204","parent":"E07000108","type":"LSOA","pop":1695,"r":19,"ff":14,"ffd":826.0,"ffs":0.8235,"g":1,"co":1,"mo":3,"sa":3,"ic":3},"geometry":{"type":"Polygon","coordinates":[[[1.24693,51.21085],[1.25523,51.20717],[1.25624,51.20837],[1.26044,51.21133],[1.26104,51.20929],[1.26193,51.20876],[1.26225,51.20899],[1.26283,51.2087],[1.26328,51.20811],[1.26012,51.20618],[1.25927,51.20692],[1.25887,51.20684],[1.25892,51.20723],[1.25817,51.20739],[1.25368,51.20552],[1.25306,51.20472],[1.25498,51.20406],[1.257,51.20378],[1.25938,51.20389],[1.26348,51.20542],[1.26629,51.20579],[1.26678,51.20461],[1.26895,51.203],[1.27046,51.20397],[1.26932,51.20179],[1.26355,51.1991],[1.26307,51.19788],[1.25498,51.1944],[1.24846,51.19241],[1.24892,51.1922],[1.24901,51.19036],[1.24654,51.18828],[1.24962,51.18616],[1.25065,51.18418],[1.24598,51.18355],[1.24319,51.18148],[1.23986,51.18041],[1.23824,51.18189],[1.23643,51.18096],[1.23547,51.17955],[1.23193,51.18056],[1.23406,51.18514],[1.23384,51.18565],[1.23459,51.18582],[1.23597,51.18482],[1.23701,51.18626],[1.23788,51.18664],[1.23751,51.18706],[1.23794,51.18735],[1.23873,51.18678],[1.23946,51.18702],[1.23982,51.18682],[1.24165,51.18779],[1.24189,51.18743],[1.24271,51.1875],[1.24214,51.18807],[1.24288,51.18849],[1.24198,51.18852],[1.24197,51.19009],[1.24115,51.19122],[1.23935,51.19002],[1.23789,51.18968],[1.23632,51.1888],[1.23469,51.18972],[1.23472,51.19061],[1.23437,51.1907],[1.23384,51.19033],[1.23324,51.19055],[1.2328,51.19024],[1.23219,51.19053],[1.22815,51.19303],[1.2273,51.19309],[1.22503,51.19743],[1.22532,51.1975],[1.22706,51.19667],[1.23177,51.19546],[1.23458,51.20195],[1.23629,51.20748],[1.23877,51.2116],[1.24082,51.21414],[1.24693,51.21085]]]}},{"type":"Feature","properties":{"id":"E01024205","name":"E01024205","parent":"E07000108","type":"LSOA","pop":1498,"r":21,"ff":15,"ffd":1001.3,"ffs":0.7895,"g":1,"co":1,"mo":3,"sa":3,"ic":3},"geometry":{"type":"Polygon","coordinates":[[[1.2869,51.20877],[1.28307,51.20688],[1.2794,51.19991],[1.28284,51.19892],[1.27968,51.19581],[1.27851,51.19384],[1.27779,51.19335],[1.27717,51.19353],[1.27288,51.18987],[1.27078,51.18749],[1.26956,51.18675],[1.2647,51.1872],[1.2642,51.18942],[1.25836,51.19125],[1.25704,51.19147],[1.2551,51.18982],[1.24846,51.19241],[1.25498,51.1944],[1.26307,51.19788],[1.26355,51.1991],[1.26932,51.20179],[1.27046,51.20397],[1.26895,51.203],[1.26678,51.20461],[1.26629,51.20579],[1.26348,51.20542],[1.25938,51.20389],[1.257,51.20378],[1.25498,51.20406],[1.25306,51.20472],[1.25368,51.20552],[1.25817,51.20739],[1.25892,51.20723],[1.25887,51.20684],[1.25927,51.20692],[1.26012,51.20618],[1.26328,51.20811],[1.26283,51.2087],[1.26225,51.20899],[1.26193,51.20876],[1.26104,51.20929],[1.26044,51.21133],[1.26764,51.21603],[1.26996,51.2152],[1.27166,51.21382],[1.28335,51.20952],[1.2869,51.20877]]]}},{"type":"Feature","properties":{"id":"E01024206","name":"E01024206","parent":"E07000108","type":"LSOA","pop":2258,"r":14,"ff":10,"ffd":442.9,"ffs":0.7143,"g":0,"co":1,"mo":3,"sa":3,"ic":1},"geometry":{"type":"MultiPolygon","coordinates":[[[[1.28091,51.32022],[1.28015,51.32022],[1.28105,51.32029],[1.28091,51.32022]]],[[[1.26354,51.32223],[1.26331,51.32222],[1.26329,51.32223],[1.26354,51.32223]]],[[[1.25215,51.3284],[1.25216,51.32833],[1.25212,51.32842],[1.25215,51.3284]]],[[[1.23407,51.33205],[1.23517,51.33063],[1.2415,51.33063],[1.24574,51.32857],[1.24827,51.32837],[1.2507,51.32929],[1.25198,51.32838],[1.25264,51.32618],[1.25474,51.32482],[1.25027,51.32583],[1.248,51.3256],[1.24301,51.3249],[1.24006,51.32396],[1.23551,51.32387],[1.22846,51.3214],[1.23548,51.32378],[1.23994,51.32386],[1.2429,51.32479],[1.25029,51.32575],[1.25511,51.32462],[1.25619,51.324],[1.25568,51.32401],[1.25731,51.32329],[1.26322,51.32206],[1.2684,51.32206],[1.27088,51.32152],[1.27303,51.32044],[1.27507,51.3201],[1.27733,51.31988],[1.28086,51.31999],[1.28368,51.32127],[1.28973,51.32132],[1.29553,51.32014],[1.30042,51.31824],[1.30496,51.31749],[1.28738,51.30462],[1.28257,51.29688],[1.28112,51.29509],[1.28046,51.29502],[1.28036,51.29372],[1.27897,51.29225],[1.27952,51.29073],[1.27893,51.28838],[1.28002,51.28668],[1.28115,51.28645],[1.28015,51.28421],[1.27977,51.28428],[1.27902,51.28239],[1.27777,51.28276],[1.2772,51.28249],[1.27643,51.28274],[1.27338,51.28143],[1.2734,51.28111],[1.27444,51.2813],[1.27439,51.28061],[1.27487,51.28023],[1.27426,51.27996],[1.2742,51.27951],[1.27281,51.27884],[1.27214,51.27947],[1.27081,51.27993],[1.2708,51.28058],[1.27006,51.28074],[1.26779,51.28005],[1.26515,51.28155],[1.26197,51.27952],[1.25874,51.27885],[1.25876,51.27827],[1.25388,51.27465],[1.25179,51.27841],[1.2522,51.27978],[1.25157,51.28271],[1.2447,51.28379],[1.24378,51.28353],[1.23372,51.28478],[1.23435,51.28646],[1.23124,51.28744],[1.23029,51.28806],[1.22422,51.28942],[1.22163,51.28906],[1.21763,51.29086],[1.21464,51.29166],[1.2144,51.29127],[1.21099,51.29166],[1.21051,51.29109],[1.20439,51.29333],[1.20385,51.2938],[1.20423,51.29451],[1.20311,51.29504],[1.20419,51.29687],[1.20394,51.29757],[1.20525,51.29772],[1.20612,51.29874],[1.20444,51.29913],[1.20497,51.30065],[1.20584,51.30131],[1.2075,51.30125],[1.20811,51.30202],[1.20746,51.30253],[1.2083,51.30367],[1.20993,51.30444],[1.20978,51.3051],[1.21101,51.30535],[1.21196,51.30513],[1.21295,51.30588],[1.21254,51.30664],[1.21325,51.30741],[1.21318,51.31007],[1.21401,51.31136],[1.21651,51.31041],[1.21705,51.30977],[1.21854,51.30984],[1.21981,51.30887],[1.2217,51.30888],[1.22185,51.3101],[1.21977,51.31064],[1.21922,51.31216],[1.22164,51.31301],[1.22359,51.3123],[1.22476,51.31248],[1.22474,51.31379],[1.22572,51.31424],[1.22633,51.31419],[1.22927,51.31594],[1.22937,51.31636],[1.22862,51.31647],[1.22782,51.31709],[1.22787,51.31765],[1.22584,51.31803],[1.22549,51.31873],[1.22595,51.31927],[1.22543,51.31984],[1.22595,51.32016],[1.22569,51.32092],[1.22505,51.32115],[1.2248,51.32184],[1.2227,51.32204],[1.22276,51.32295],[1.22085,51.32258],[1.22036,51.32292],[1.22098,51.32377],[1.22318,51.32412],[1.22458,51.3252],[1.22731,51.32532],[1.22997,51.32501],[1.22963,51.32596],[1.22812,51.32686],[1.2304,51.32847],[1.23168,51.32866],[1.23199,51.32811],[1.23124,51.32675],[1.23307,51.32596],[1.23417,51.32613],[1.23453,51.32674],[1.23415,51.32773],[1.2324,51.32883],[1.23211,51.33031],[1.23088,51.33147],[1.23259,51.33228],[1.23407,51.33205]]]]}},{"type":"Feature","properties":{"id":"E01024207","name":"E01024207","parent":"E07000108","type":"LSOA","pop":1818,"r":11,"ff":8,"ffd":440.0,"ffs":0.8,"g":0,"co":1,"mo":3,"sa":3,"ic":3},"geometry":{"type":"Polygon","coordinates":[[[1.24229,51.28373],[1.24378,51.28353],[1.2447,51.28379],[1.25157,51.28271],[1.2522,51.27978],[1.25179,51.27841],[1.25388,51.27465],[1.25876,51.27827],[1.25874,51.27885],[1.26197,51.27952],[1.26515,51.28155],[1.26779,51.28005],[1.27006,51.28074],[1.2708,51.28058],[1.27081,51.27993],[1.27214,51.27947],[1.27281,51.27884],[1.2742,51.27951],[1.27426,51.27996],[1.27487,51.28023],[1.27534,51.27914],[1.2768,51.27898],[1.27685,51.27855],[1.27864,51.27846],[1.27882,51.27695],[1.27999,51.27796],[1.2798,51.27871],[1.2817,51.27845],[1.28195,51.27803],[1.28116,51.27828],[1.28139,51.27725],[1.2839,51.27645],[1.28476,51.27559],[1.28603,51.27576],[1.28647,51.27552],[1.28777,51.27571],[1.28815,51.27618],[1.28654,51.27701],[1.28733,51.27872],[1.29124,51.27868],[1.2932,51.27829],[1.29439,51.27858],[1.29501,51.27937],[1.2993,51.27922],[1.29964,51.27952],[1.29989,51.2792],[1.30262,51.27909],[1.29831,51.27661],[1.30014,51.27476],[1.29506,51.27212],[1.29241,51.2743],[1.28569,51.2715],[1.27842,51.27206],[1.27817,51.27278],[1.27925,51.27344],[1.27925,51.27546],[1.27638,51.27593],[1.27387,51.27578],[1.26911,51.27471],[1.26851,51.27393],[1.26523,51.27215],[1.26387,51.26842],[1.26516,51.26813],[1.26499,51.26742],[1.26508,51.26615],[1.26725,51.26593],[1.27017,51.26622],[1.26962,51.26398],[1.27465,51.26433],[1.27433,51.26323],[1.27369,51.26237],[1.27323,51.26247],[1.27173,51.2613],[1.26981,51.25896],[1.2666,51.26045],[1.26468,51.26085],[1.26239,51.25728],[1.2575,51.25316],[1.26578,51.25283],[1.26672,51.25201],[1.26639,51.25069],[1.26952,51.25059],[1.27126,51.24947],[1.27394,51.24863],[1.27358,51.2451],[1.27469,51.24573],[1.27685,51.2456],[1.28165,51.24857],[1.28782,51.24764],[1.28842,51.24737],[1.28375,51.24318],[1.28327,51.24337],[1.28083,51.24152],[1.28191,51.24116],[1.27881,51.23905],[1.27588,51.23542],[1.2737,51.23322],[1.2723,51.23321],[1.26884,51.23075],[1.26418,51.22929],[1.26074,51.22717],[1.25914,51.22793],[1.25522,51.22866],[1.2536,51.23224],[1.25366,51.23322],[1.25317,51.23359],[1.24575,51.2351],[1.24146,51.23654],[1.24058,51.23589],[1.24007,51.23631],[1.23916,51.23572],[1.23946,51.23552],[1.23855,51.23511],[1.23785,51.23555],[1.23434,51.23421],[1.23349,51.23451],[1.23168,51.23357],[1.23071,51.23342],[1.228,51.23432],[1.22587,51.23542],[1.22526,51.23503],[1.22,51.23788],[1.21899,51.237],[1.21679,51.23868],[1.21434,51.23963],[1.21563,51.24016],[1.21836,51.243],[1.20634,51.24626],[1.2086,51.24818],[1.21051,51.25079],[1.21116,51.25092],[1.2139,51.24988],[1.21572,51.25168],[1.21686,51.25116],[1.21708,51.25092],[1.2165,51.25043],[1.21747,51.24991],[1.22106,51.24827],[1.22129,51.24852],[1.22302,51.24778],[1.22535,51.25048],[1.23115,51.25432],[1.22597,51.25731],[1.23019,51.25908],[1.23488,51.2628],[1.24021,51.26217],[1.24101,51.26372],[1.24476,51.26317],[1.24497,51.26454],[1.2431,51.26484],[1.24248,51.26521],[1.24313,51.27306],[1.2393,51.27364],[1.23701,51.27265],[1.23406,51.27231],[1.23409,51.27306],[1.23757,51.27767],[1.23308,51.27848],[1.23269,51.27863],[1.23291,51.27889],[1.23246,51.27891],[1.23372,51.2823],[1.23315,51.28234],[1.23372,51.28478],[1.24229,51.28373]]]}},{"type":"Feature","properties":{"id":"E01024208","name":"E01024208","parent":"E07000108","type":"LSOA","pop":1675,"r":57,"ff":23,"ffd":1373.1,"ffs":0.6765,"g":22,"co":0,"mo":2,"sa":2,"ic":0},"geometry":{"type":"MultiPolygon","coordinates":[[[[1.33216,51.31302],[1.33179,51.31294],[1.33178,51.31294],[1.33216,51.31302]]],[[[1.3386,51.31313],[1.33877,51.31305],[1.33762,51.31331],[1.3386,51.31313]]],[[[1.31043,51.31698],[1.3102,51.31695],[1.30671,51.31749],[1.31043,51.31698]]],[[[1.32523,51.31682],[1.33026,51.31418],[1.33166,51.31278],[1.33213,51.31269],[1.33537,51.31363],[1.33974,51.31254],[1.34334,51.31024],[1.34506,51.30812],[1.34552,51.30617],[1.34574,51.30435],[1.34568,51.3022],[1.34303,51.29683],[1.34011,51.29366],[1.33771,51.29262],[1.33552,51.29354],[1.33447,51.29347],[1.33114,51.29064],[1.32983,51.28843],[1.32813,51.2869],[1.3282,51.28617],[1.32915,51.28513],[1.33144,51.28396],[1.33072,51.28212],[1.3279,51.28106],[1.32633,51.28148],[1.32561,51.28231],[1.32468,51.28249],[1.32133,51.28227],[1.32132,51.28249],[1.3205,51.28246],[1.32014,51.28181],[1.31956,51.28203],[1.31732,51.28124],[1.31647,51.28137],[1.31593,51.28089],[1.31426,51.28099],[1.31377,51.2816],[1.31269,51.28194],[1.3118,51.28268],[1.31186,51.28334],[1.31333,51.28444],[1.31168,51.28543],[1.30839,51.28389],[1.30762,51.28265],[1.3083,51.28218],[1.30728,51.2815],[1.30698,51.2798],[1.30514,51.27853],[1.30262,51.27909],[1.29989,51.2792],[1.29964,51.27952],[1.2993,51.27922],[1.29501,51.27937],[1.29439,51.27858],[1.2932,51.27829],[1.29124,51.27868],[1.28733,51.27872],[1.28654,51.27701],[1.28815,51.27618],[1.28777,51.27571],[1.28647,51.27552],[1.28603,51.27576],[1.28476,51.27559],[1.2839,51.27645],[1.28139,51.27725],[1.28116,51.27828],[1.28195,51.27803],[1.2817,51.27845],[1.2798,51.27871],[1.27999,51.27796],[1.27882,51.27695],[1.27864,51.27846],[1.27685,51.27855],[1.2768,51.27898],[1.27534,51.27914],[1.27487,51.28023],[1.27439,51.28061],[1.27444,51.2813],[1.2734,51.28111],[1.27338,51.28143],[1.27643,51.28274],[1.2772,51.28249],[1.27777,51.28276],[1.27902,51.28239],[1.27977,51.28428],[1.28015,51.28421],[1.28115,51.28645],[1.28002,51.28668],[1.27893,51.28838],[1.27952,51.29073],[1.27897,51.29225],[1.28036,51.29372],[1.28046,51.29502],[1.28112,51.29509],[1.28257,51.29688],[1.28738,51.30462],[1.30496,51.31749],[1.30937,51.31676],[1.31158,51.31685],[1.3131,51.3177],[1.31442,51.3179],[1.32154,51.31699],[1.32523,51.31682]]],[[[1.31342,51.31794],[1.31304,51.31781],[1.31335,51.31793],[1.31342,51.31794]]]]}},{"type":"Feature","properties":{"id":"E01024209","name":"E01024209","parent":"E07000108","type":"LSOA","pop":1828,"r":98,"ff":42,"ffd":2297.6,"ffs":0.5526,"g":21,"co":0,"mo":2,"sa":2,"ic":0},"geometry":{"type":"Polygon","coordinates":[[[1.20439,51.29333],[1.21051,51.29109],[1.21099,51.29166],[1.2144,51.29127],[1.21464,51.29166],[1.21763,51.29086],[1.22163,51.28906],[1.22422,51.28942],[1.23029,51.28806],[1.23124,51.28744],[1.23435,51.28646],[1.23372,51.28478],[1.23315,51.28234],[1.23372,51.2823],[1.23246,51.27891],[1.23291,51.27889],[1.23269,51.27863],[1.23308,51.27848],[1.23757,51.27767],[1.23409,51.27306],[1.23406,51.27231],[1.23701,51.27265],[1.2393,51.27364],[1.24313,51.27306],[1.24248,51.26521],[1.2431,51.26484],[1.24497,51.26454],[1.24476,51.26317],[1.24101,51.26372],[1.24021,51.26217],[1.23488,51.2628],[1.23019,51.25908],[1.22597,51.25731],[1.23115,51.25432],[1.22535,51.25048],[1.22302,51.24778],[1.22129,51.24852],[1.22106,51.24827],[1.21747,51.24991],[1.2165,51.25043],[1.21708,51.25092],[1.21686,51.25116],[1.21572,51.25168],[1.2139,51.24988],[1.21116,51.25092],[1.21051,51.25079],[1.21158,51.2524],[1.20768,51.25519],[1.20566,51.25455],[1.20438,51.25544],[1.20438,51.25644],[1.2004,51.25748],[1.20104,51.2587],[1.19686,51.25907],[1.19647,51.25766],[1.19526,51.25609],[1.19264,51.25719],[1.19345,51.25906],[1.19498,51.25888],[1.19643,51.26185],[1.19459,51.26223],[1.19521,51.26542],[1.19709,51.26789],[1.19575,51.2683],[1.19482,51.26932],[1.20345,51.27555],[1.2045,51.27616],[1.20536,51.27622],[1.20675,51.27777],[1.20672,51.27833],[1.20807,51.27914],[1.20897,51.28037],[1.2103,51.28082],[1.21058,51.28169],[1.20977,51.28177],[1.21043,51.28231],[1.21139,51.28226],[1.21235,51.28269],[1.21207,51.28295],[1.21241,51.28347],[1.21177,51.28392],[1.21193,51.28445],[1.21143,51.28507],[1.21069,51.28493],[1.21039,51.28449],[1.20844,51.28441],[1.20878,51.28544],[1.20684,51.28592],[1.20626,51.28518],[1.20565,51.28545],[1.20365,51.28722],[1.20274,51.28874],[1.20353,51.28916],[1.20347,51.28963],[1.20265,51.28994],[1.20275,51.29035],[1.20196,51.29007],[1.2,51.29157],[1.20072,51.2921],[1.20302,51.29279],[1.20282,51.29319],[1.20385,51.2938],[1.20439,51.29333]]]}},{"type":"Feature","properties":{"id":"E01024212","name":"E01024212","parent":"E07000108","type":"LSOA","pop":1443,"r":107,"ff":60,"ffd":4158.0,"ffs":0.6667,"g":17,"co":0,"mo":0,"sa":3,"ic":0},"geometry":{"type":"Polygon","coordinates":[[[1.28376,51.12539],[1.28344,51.12507],[1.28176,51.12502],[1.28112,51.12532],[1.27956,51.12496],[1.27446,51.12271],[1.27528,51.11992],[1.27948,51.12043],[1.28095,51.12018],[1.28513,51.12084],[1.28671,51.12061],[1.2899,51.12095],[1.29019,51.12078],[1.2915,51.12178],[1.29295,51.1222],[1.29352,51.12177],[1.29453,51.12219],[1.2961,51.12068],[1.29846,51.12079],[1.29937,51.12097],[1.29949,51.12125],[1.30056,51.12153],[1.30115,51.12109],[1.3002,51.12089],[1.30042,51.11981],[1.29629,51.11895],[1.29543,51.11989],[1.29454,51.11972],[1.29492,51.11857],[1.29312,51.11727],[1.29114,51.11721],[1.28971,51.11564],[1.28627,51.11435],[1.28369,51.11395],[1.28151,51.1139],[1.27774,51.11507],[1.27464,51.11464],[1.27256,51.11329],[1.26767,51.11156],[1.2623,51.10898],[1.26012,51.11124],[1.25789,51.11168],[1.2597,51.11251],[1.26272,51.11473],[1.26529,51.11577],[1.26489,51.11624],[1.26832,51.11699],[1.27171,51.1183],[1.26722,51.12436],[1.27346,51.12584],[1.2772,51.12845],[1.281,51.12841],[1.28376,51.12539]]]}},{"type":"Feature","properties":{"id":"E01024213","name":"E01024213","parent":"E07000108","type":"LSOA","pop":1423,"r":107,"ff":60,"ffd":4216.4,"ffs":0.6667,"g":17,"co":0,"mo":0,"sa":3,"ic":0},"geometry":{"type":"Polygon","coordinates":[[[1.28112,51.1284],[1.2866,51.12762],[1.28763,51.12808],[1.2884,51.12793],[1.28758,51.12688],[1.29049,51.12533],[1.29188,51.12523],[1.2917,51.12425],[1.29015,51.12445],[1.29005,51.12416],[1.29091,51.12401],[1.29075,51.1238],[1.28964,51.12393],[1.28935,51.12342],[1.28989,51.12316],[1.28941,51.12261],[1.28513,51.12084],[1.28095,51.12018],[1.27948,51.12043],[1.27528,51.11992],[1.27446,51.12271],[1.27956,51.12496],[1.28112,51.12532],[1.28176,51.12502],[1.28344,51.12507],[1.28376,51.12539],[1.281,51.12841],[1.28112,51.1284]]]}},{"type":"Feature","properties":{"id":"E01024214","name":"E01024214","parent":"E07000108","type":"LSOA","pop":1733,"r":108,"ff":60,"ffd":3462.2,"ffs":0.6593,"g":17,"co":0,"mo":0,"sa":3,"ic":0},"geometry":{"type":"Polygon","coordinates":[[[1.30064,51.1257],[1.30124,51.12435],[1.30311,51.12477],[1.30332,51.12442],[1.30146,51.12385],[1.30206,51.12324],[1.29874,51.12228],[1.29949,51.12125],[1.29937,51.12097],[1.2961,51.12068],[1.2951,51.12162],[1.29684,51.12201],[1.29688,51.12305],[1.29613,51.12337],[1.29617,51.12419],[1.29731,51.12401],[1.29672,51.12548],[1.29749,51.12546],[1.29725,51.1261],[1.30091,51.12663],[1.30064,51.1257]]]}},{"type":"Feature","properties":{"id":"E01024215","name":"E01024215","parent":"E07000108","type":"LSOA","pop":1690,"r":109,"ff":61,"ffd":3609.5,"ffs":0.663,"g":17,"co":0,"mo":0,"sa":3,"ic":0},"geometry":{"type":"Polygon","coordinates":[[[1.31139,51.12788],[1.31212,51.12772],[1.31237,51.12795],[1.31281,51.12766],[1.30796,51.12498],[1.30612,51.12377],[1.30375,51.12174],[1.30338,51.12114],[1.30223,51.12052],[1.30056,51.12153],[1.29949,51.12125],[1.29874,51.12228],[1.30206,51.12324],[1.30146,51.12385],[1.30332,51.12442],[1.30311,51.12477],[1.30124,51.12435],[1.30064,51.1257],[1.30091,51.12663],[1.30267,51.12709],[1.3054,51.12824],[1.30661,51.12767],[1.30844,51.12814],[1.30928,51.12874],[1.31139,51.12788]]]}},{"type":"Feature","properties":{"id":"E01024216","name":"E01024216","parent":"E07000108","type":"LSOA","pop":1505,"r":108,"ff":60,"ffd":3986.7,"ffs":0.6593,"g":17,"co":0,"mo":0,"sa":3,"ic":0},"geometry":{"type":"Polygon","coordinates":[[[1.29672,51.12548],[1.29731,51.12401],[1.29617,51.12419],[1.29613,51.12337],[1.29688,51.12305],[1.29684,51.12201],[1.2951,51.12162],[1.29453,51.12219],[1.29352,51.12177],[1.29295,51.1222],[1.2915,51.12178],[1.29019,51.12078],[1.2899,51.12095],[1.28671,51.12061],[1.28513,51.12084],[1.28941,51.12261],[1.28989,51.12316],[1.28935,51.12342],[1.28964,51.12393],[1.29075,51.1238],[1.29091,51.12401],[1.29005,51.12416],[1.29015,51.12445],[1.2917,51.12425],[1.29188,51.12523],[1.2942,51.12507],[1.29418,51.12544],[1.29672,51.12548]]]}},{"type":"Feature","properties":{"id":"E01024218","name":"E01024218","parent":"E07000108","type":"LSOA","pop":1376,"r":63,"ff":30,"ffd":2180.2,"ffs":0.6522,"g":16,"co":0,"mo":2,"sa":1,"ic":0},"geometry":{"type":"Polygon","coordinates":[[[1.3924,51.21949],[1.39322,51.21898],[1.39437,51.2191],[1.39438,51.21873],[1.39311,51.21864],[1.39304,51.21808],[1.39588,51.21677],[1.39762,51.21683],[1.39605,51.21389],[1.39485,51.21246],[1.39329,51.21324],[1.39231,51.21251],[1.39182,51.21278],[1.39094,51.2121],[1.38759,51.21397],[1.3878,51.21429],[1.38744,51.21456],[1.38935,51.21613],[1.39151,51.21654],[1.39175,51.21674],[1.391,51.21712],[1.39156,51.21732],[1.38953,51.21865],[1.39068,51.2193],[1.39114,51.2191],[1.3924,51.21949]]]}},{"type":"Feature","properties":{"id":"E01024219","name":"E01024219","parent":"E07000108","type":"LSOA","pop":1375,"r":39,"ff":20,"ffd":1454.5,"ffs":0.7407,"g":11,"co":0,"mo":2,"sa":1,"ic":0},"geometry":{"type":"Polygon","coordinates":[[[1.37149,51.22366],[1.3724,51.22294],[1.37413,51.22373],[1.37499,51.22305],[1.37631,51.2236],[1.37613,51.22412],[1.37696,51.22415],[1.37763,51.22373],[1.37753,51.22296],[1.38002,51.22233],[1.37929,51.22136],[1.37963,51.2206],[1.38206,51.22137],[1.38225,51.22115],[1.38378,51.22146],[1.38422,51.22093],[1.38504,51.22098],[1.38576,51.22011],[1.38554,51.21958],[1.38473,51.21974],[1.38372,51.21944],[1.38257,51.21873],[1.38292,51.21827],[1.38399,51.21826],[1.38528,51.21885],[1.38613,51.21876],[1.38609,51.21829],[1.38699,51.21837],[1.38753,51.21789],[1.38658,51.21751],[1.38597,51.21632],[1.38429,51.2163],[1.38423,51.216],[1.37697,51.21969],[1.37519,51.21936],[1.37321,51.22121],[1.3727,51.22098],[1.36872,51.22434],[1.3698,51.22503],[1.37149,51.22366]]]}},{"type":"Feature","properties":{"id":"E01024220","name":"E01024220","parent":"E07000108","type":"LSOA","pop":1708,"r":41,"ff":20,"ffd":1171.0,"ffs":0.7143,"g":12,"co":0,"mo":2,"sa":1,"ic":0},"geometry":{"type":"Polygon","coordinates":[[[1.39913,51.2216],[1.39904,51.21989],[1.39762,51.21683],[1.39588,51.21677],[1.39304,51.21808],[1.39311,51.21864],[1.39438,51.21873],[1.39437,51.2191],[1.39322,51.21898],[1.39225,51.21959],[1.39341,51.22042],[1.39434,51.22016],[1.39465,51.2197],[1.39552,51.22004],[1.39457,51.22105],[1.39481,51.22153],[1.39439,51.22172],[1.39378,51.2213],[1.39331,51.22154],[1.39374,51.22191],[1.39221,51.22246],[1.39132,51.22322],[1.39184,51.22389],[1.39061,51.22446],[1.39041,51.22505],[1.38891,51.22512],[1.38428,51.22738],[1.38615,51.22891],[1.38488,51.23038],[1.38456,51.23189],[1.38343,51.23364],[1.38187,51.23416],[1.38491,51.23708],[1.38832,51.23621],[1.39519,51.22924],[1.39638,51.22776],[1.39766,51.22567],[1.39913,51.2216]]]}},{"type":"Feature","properties":{"id":"E01024221","name":"E01024221","parent":"E07000108","type":"LSOA","pop":1378,"r":46,"ff":22,"ffd":1596.5,"ffs":0.7097,"g":14,"co":0,"mo":2,"sa":1,"ic":0},"geometry":{"type":"Polygon","coordinates":[[[1.39331,51.22154],[1.39378,51.2213],[1.39439,51.22172],[1.39481,51.22153],[1.39457,51.22105],[1.39552,51.22004],[1.39465,51.2197],[1.39434,51.22016],[1.39341,51.22042],[1.39225,51.21959],[1.3924,51.21949],[1.39114,51.2191],[1.39068,51.2193],[1.38953,51.21865],[1.39156,51.21732],[1.391,51.21712],[1.39175,51.21674],[1.39151,51.21654],[1.38935,51.21613],[1.38744,51.21456],[1.3878,51.21429],[1.38759,51.21397],[1.38423,51.216],[1.38429,51.2163],[1.38597,51.21632],[1.38658,51.21751],[1.38753,51.21789],[1.38699,51.21837],[1.38609,51.21829],[1.38613,51.21876],[1.38528,51.21885],[1.38399,51.21826],[1.38292,51.21827],[1.38257,51.21873],[1.38372,51.21944],[1.38473,51.21974],[1.38554,51.21958],[1.38576,51.22011],[1.38759,51.2207],[1.38794,51.22124],[1.39132,51.22322],[1.39221,51.22246],[1.39374,51.22191],[1.39331,51.22154]]]}},{"type":"Feature","properties":{"id":"E01024222","name":"E01024222","parent":"E07000108","type":"LSOA","pop":1597,"r":65,"ff":31,"ffd":1941.1,"ffs":0.6458,"g":16,"co":0,"mo":2,"sa":1,"ic":0},"geometry":{"type":"Polygon","coordinates":[[[1.38423,51.216],[1.39094,51.2121],[1.39182,51.21278],[1.39231,51.21251],[1.39329,51.21324],[1.39485,51.21246],[1.38883,51.208],[1.38766,51.20857],[1.38907,51.20909],[1.38729,51.21031],[1.38522,51.2123],[1.38459,51.21226],[1.38455,51.21273],[1.38357,51.21271],[1.38345,51.21329],[1.3839,51.21353],[1.38276,51.21452],[1.38208,51.21437],[1.38135,51.21488],[1.38165,51.21544],[1.38257,51.21578],[1.38179,51.21641],[1.38219,51.21668],[1.382,51.21722],[1.38423,51.216]]]}},{"type":"Feature","properties":{"id":"E01024223","name":"E01024223","parent":"E07000108","type":"LSOA","pop":1636,"r":65,"ff":31,"ffd":1894.9,"ffs":0.6458,"g":16,"co":0,"mo":2,"sa":1,"ic":0},"geometry":{"type":"Polygon","coordinates":[[[1.38019,51.21744],[1.38092,51.21707],[1.38175,51.21735],[1.382,51.21722],[1.38219,51.21668],[1.38179,51.21641],[1.38257,51.21578],[1.38165,51.21544],[1.38135,51.21488],[1.3804,51.21437],[1.37914,51.21523],[1.37865,51.2146],[1.37962,51.21435],[1.37891,51.21338],[1.37922,51.21312],[1.37994,51.21315],[1.38132,51.21182],[1.382,51.21172],[1.38112,51.21092],[1.3819,51.21052],[1.38065,51.20984],[1.38148,51.20961],[1.38139,51.20899],[1.38334,51.20822],[1.38245,51.20786],[1.38162,51.20834],[1.38118,51.20808],[1.38066,51.20854],[1.38081,51.20888],[1.37996,51.20834],[1.37949,51.20861],[1.37653,51.20819],[1.37586,51.20864],[1.37543,51.21002],[1.37222,51.21204],[1.37458,51.21333],[1.37425,51.2136],[1.37451,51.21396],[1.37653,51.21486],[1.37605,51.21537],[1.37578,51.21526],[1.37583,51.21569],[1.37655,51.21555],[1.37691,51.21586],[1.37646,51.21681],[1.37824,51.21645],[1.37839,51.21617],[1.37942,51.21657],[1.38019,51.21744]]]}},{"type":"Feature","properties":{"id":"E01024224","name":"E01024224","parent":"E07000108","type":"LSOA","pop":1525,"r":79,"ff":40,"ffd":2623.0,"ffs":0.6452,"g":16,"co":0,"mo":2,"sa":1,"ic":0},"geometry":{"type":"Polygon","coordinates":[[[1.37586,51.20864],[1.37653,51.20819],[1.37949,51.20861],[1.37996,51.20834],[1.38081,51.20888],[1.38066,51.20854],[1.38118,51.20808],[1.38162,51.20834],[1.38245,51.20786],[1.38334,51.20822],[1.38563,51.20758],[1.38656,51.20881],[1.38541,51.20953],[1.38582,51.20955],[1.38729,51.21031],[1.38907,51.20909],[1.38766,51.20857],[1.38883,51.208],[1.38277,51.20341],[1.37805,51.19916],[1.3754,51.20083],[1.37197,51.20402],[1.36848,51.20583],[1.36675,51.20869],[1.36594,51.2091],[1.36819,51.21149],[1.37037,51.21279],[1.37222,51.21204],[1.37543,51.21002],[1.37586,51.20864]]]}},{"type":"Feature","properties":{"id":"E01024225","name":"E01024225","parent":"E07000108","type":"LSOA","pop":1668,"r":76,"ff":38,"ffd":2278.2,"ffs":0.6441,"g":16,"co":0,"mo":2,"sa":1,"ic":0},"geometry":{"type":"Polygon","coordinates":[[[1.37914,51.21523],[1.3804,51.21437],[1.38135,51.21488],[1.38208,51.21437],[1.38276,51.21452],[1.3839,51.21353],[1.38345,51.21329],[1.38357,51.21271],[1.38455,51.21273],[1.38459,51.21226],[1.38522,51.2123],[1.38698,51.21076],[1.38729,51.21031],[1.38582,51.20955],[1.38541,51.20953],[1.38656,51.20881],[1.38563,51.20758],[1.38139,51.20899],[1.38148,51.20961],[1.38065,51.20984],[1.3819,51.21052],[1.38112,51.21092],[1.382,51.21172],[1.38132,51.21182],[1.37994,51.21315],[1.37922,51.21312],[1.37891,51.21338],[1.37962,51.21435],[1.37865,51.2146],[1.37914,51.21523]]]}},{"type":"Feature","properties":{"id":"E01024226","name":"E01024226","parent":"E07000108","type":"LSOA","pop":1484,"r":65,"ff":31,"ffd":2088.9,"ffs":0.6458,"g":16,"co":0,"mo":2,"sa":1,"ic":0},"geometry":{"type":"Polygon","coordinates":[[[1.36872,51.22434],[1.3727,51.22098],[1.37321,51.22121],[1.37519,51.21936],[1.37697,51.21969],[1.38175,51.21735],[1.38092,51.21707],[1.38019,51.21744],[1.37942,51.21657],[1.37839,51.21617],[1.37824,51.21645],[1.37657,51.21687],[1.37646,51.21681],[1.37691,51.21586],[1.37655,51.21555],[1.37583,51.21569],[1.37578,51.21526],[1.37605,51.21537],[1.37653,51.21486],[1.37451,51.21396],[1.37425,51.2136],[1.37458,51.21333],[1.37222,51.21204],[1.37037,51.21279],[1.37329,51.21414],[1.36877,51.21746],[1.36788,51.21705],[1.36309,51.22131],[1.36237,51.22105],[1.36075,51.22179],[1.35958,51.22313],[1.36621,51.22626],[1.36872,51.22434]]]}},{"type":"Feature","properties":{"id":"E01024227","name":"E01024227","parent":"E07000108","type":"LSOA","pop":1381,"r":29,"ff":16,"ffd":1158.6,"ffs":0.7619,"g":7,"co":0,"mo":2,"sa":1,"ic":1},"geometry":{"type":"Polygon","coordinates":[[[1.40239,51.23865],[1.40402,51.23448],[1.40428,51.2329],[1.40405,51.23288],[1.40412,51.23243],[1.40355,51.23242],[1.40353,51.23283],[1.40301,51.23292],[1.40234,51.23287],[1.40234,51.23259],[1.4012,51.23254],[1.40104,51.23227],[1.4004,51.23226],[1.4003,51.23271],[1.40111,51.2328],[1.40101,51.23329],[1.40151,51.23357],[1.40188,51.23318],[1.40235,51.23324],[1.40225,51.23459],[1.4029,51.23478],[1.40216,51.23509],[1.4018,51.23462],[1.40103,51.23458],[1.40007,51.23555],[1.39938,51.23524],[1.39952,51.23494],[1.39893,51.23473],[1.39903,51.23369],[1.39761,51.23382],[1.39829,51.23297],[1.39736,51.23259],[1.39693,51.23279],[1.39544,51.23085],[1.39592,51.2305],[1.39554,51.23036],[1.39638,51.22996],[1.3962,51.22955],[1.39519,51.22924],[1.39034,51.23418],[1.39106,51.23424],[1.39306,51.23363],[1.39569,51.23536],[1.39686,51.23665],[1.40239,51.23865]]]}},{"type":"Feature","properties":{"id":"E01024228","name":"E01024228","parent":"E07000108","type":"LSOA","pop":1212,"r":75,"ff":37,"ffd":3052.8,"ffs":0.6491,"g":17,"co":0,"mo":2,"sa":1,"ic":0},"geometry":{"type":"Polygon","coordinates":[[[1.40505,51.22827],[1.40505,51.2231],[1.40442,51.22323],[1.40342,51.22297],[1.40342,51.22232],[1.40395,51.22239],[1.40403,51.22215],[1.40318,51.22197],[1.40313,51.22137],[1.40266,51.22138],[1.40262,51.22075],[1.40209,51.22076],[1.40146,51.22033],[1.40075,51.22033],[1.40057,51.21988],[1.39904,51.21989],[1.39913,51.2216],[1.39804,51.22477],[1.39892,51.2254],[1.39993,51.22521],[1.4004,51.22686],[1.40211,51.22655],[1.40259,51.22664],[1.40244,51.22819],[1.40407,51.22816],[1.40448,51.22788],[1.40452,51.22908],[1.40405,51.23288],[1.40428,51.2329],[1.40505,51.22827]]]}},{"type":"Feature","properties":{"id":"E01024229","name":"E01024229","parent":"E07000108","type":"LSOA","pop":1375,"r":30,"ff":16,"ffd":1163.6,"ffs":0.7273,"g":7,"co":0,"mo":2,"sa":1,"ic":1},"geometry":{"type":"Polygon","coordinates":[[[1.40007,51.23555],[1.40103,51.23458],[1.4018,51.23462],[1.40216,51.23509],[1.4029,51.23478],[1.40225,51.23459],[1.40235,51.23324],[1.40188,51.23318],[1.40151,51.23357],[1.40101,51.23329],[1.40111,51.2328],[1.4003,51.23271],[1.4004,51.23226],[1.40104,51.23227],[1.4012,51.23254],[1.40234,51.23259],[1.40234,51.23287],[1.40353,51.23283],[1.40355,51.23242],[1.40412,51.23243],[1.40419,51.23143],[1.40361,51.23139],[1.40381,51.23105],[1.40252,51.23124],[1.40204,51.23087],[1.40208,51.23056],[1.40159,51.23055],[1.4013,51.23095],[1.40055,51.23078],[1.39971,51.23125],[1.399,51.23082],[1.39902,51.23047],[1.39835,51.23018],[1.39862,51.22946],[1.39929,51.22978],[1.3998,51.22931],[1.39943,51.22927],[1.39938,51.22879],[1.40028,51.2286],[1.39984,51.22783],[1.40016,51.22757],[1.39931,51.22762],[1.39921,51.22721],[1.39871,51.22723],[1.39923,51.22792],[1.39837,51.22863],[1.39638,51.22776],[1.39519,51.22924],[1.3962,51.22955],[1.39638,51.22996],[1.39554,51.23036],[1.39592,51.2305],[1.39544,51.23085],[1.39693,51.23279],[1.39736,51.23259],[1.39829,51.23297],[1.39761,51.23382],[1.39903,51.23369],[1.39893,51.23473],[1.39952,51.23494],[1.39938,51.23524],[1.40007,51.23555]]]}},{"type":"Feature","properties":{"id":"E01024230","name":"E01024230","parent":"E07000108","type":"LSOA","pop":1282,"r":36,"ff":18,"ffd":1404.1,"ffs":0.75,"g":11,"co":0,"mo":2,"sa":1,"ic":0},"geometry":{"type":"Polygon","coordinates":[[[1.40419,51.23143],[1.40452,51.22908],[1.40448,51.22788],[1.40407,51.22816],[1.40244,51.22819],[1.40259,51.22664],[1.40211,51.22655],[1.4004,51.22686],[1.39993,51.22521],[1.39892,51.2254],[1.39804,51.22477],[1.39638,51.22776],[1.39837,51.22863],[1.39923,51.22792],[1.39871,51.22723],[1.39921,51.22721],[1.39931,51.22762],[1.40016,51.22757],[1.39984,51.22783],[1.40028,51.22845],[1.40028,51.2286],[1.39938,51.22879],[1.39943,51.22927],[1.3998,51.22931],[1.39929,51.22978],[1.39862,51.22946],[1.39835,51.23018],[1.39902,51.23047],[1.399,51.23082],[1.39971,51.23125],[1.40055,51.23078],[1.4013,51.23095],[1.40159,51.23055],[1.40208,51.23056],[1.40204,51.23087],[1.40252,51.23124],[1.40381,51.23105],[1.40361,51.23139],[1.40419,51.23143]]]}},{"type":"Feature","properties":{"id":"E01024231","name":"E01024231","parent":"E07000108","type":"LSOA","pop":1291,"r":61,"ff":28,"ffd":2168.9,"ffs":0.6364,"g":16,"co":0,"mo":2,"sa":1,"ic":0},"geometry":{"type":"Polygon","coordinates":[[[1.40505,51.2231],[1.40504,51.21843],[1.40282,51.21861],[1.4028,51.21891],[1.39605,51.21389],[1.39904,51.21989],[1.40057,51.21988],[1.40075,51.22033],[1.40146,51.22033],[1.40209,51.22076],[1.40262,51.22075],[1.40266,51.22138],[1.40313,51.22137],[1.40318,51.22197],[1.40403,51.22215],[1.40395,51.22239],[1.40342,51.22232],[1.40342,51.22297],[1.40442,51.22323],[1.40505,51.2231]]]}},{"type":"Feature","properties":{"id":"E01024232","name":"E01024232","parent":"E07000108","type":"LSOA","pop":1976,"r":80,"ff":40,"ffd":2024.3,"ffs":0.6349,"g":16,"co":0,"mo":2,"sa":1,"ic":0},"geometry":{"type":"Polygon","coordinates":[[[1.393,51.19173],[1.39419,51.19069],[1.39964,51.18907],[1.40023,51.18976],[1.40101,51.18942],[1.40093,51.19049],[1.40244,51.19054],[1.40256,51.18885],[1.4055,51.18934],[1.40555,51.186],[1.4039,51.1808],[1.40416,51.18003],[1.40481,51.18007],[1.40512,51.1797],[1.40462,51.17572],[1.40531,51.17434],[1.40466,51.17402],[1.40358,51.17093],[1.40198,51.16831],[1.40211,51.16701],[1.40102,51.16518],[1.39534,51.16873],[1.39058,51.16629],[1.38231,51.16945],[1.37742,51.17226],[1.37536,51.17125],[1.3689,51.17436],[1.36897,51.17492],[1.37305,51.17645],[1.36733,51.18129],[1.36475,51.18219],[1.36606,51.1826],[1.36849,51.18511],[1.36754,51.18554],[1.37179,51.19063],[1.372,51.19077],[1.37346,51.19016],[1.37466,51.19096],[1.37591,51.1903],[1.37792,51.19197],[1.37883,51.19158],[1.38014,51.19265],[1.38149,51.19196],[1.38619,51.19554],[1.3848,51.19595],[1.38598,51.1975],[1.38792,51.19705],[1.39444,51.19475],[1.393,51.19173]]]}},{"type":"Feature","properties":{"id":"E01024233","name":"E01024233","parent":"E07000108","type":"LSOA","pop":1598,"r":109,"ff":60,"ffd":3754.7,"ffs":0.6593,"g":18,"co":0,"mo":0,"sa":3,"ic":0},"geometry":{"type":"Polygon","coordinates":[[[1.27237,51.14472],[1.2736,51.14424],[1.2751,51.1442],[1.27587,51.14394],[1.27599,51.14348],[1.27659,51.1435],[1.27853,51.14249],[1.27974,51.14255],[1.27974,51.14288],[1.28104,51.14258],[1.28086,51.14235],[1.2818,51.14183],[1.28254,51.14225],[1.28311,51.14159],[1.28256,51.14155],[1.28224,51.14117],[1.28402,51.14102],[1.28489,51.14034],[1.28376,51.13917],[1.28384,51.13869],[1.2829,51.13856],[1.28113,51.13767],[1.28069,51.13801],[1.2776,51.13597],[1.27638,51.13715],[1.27503,51.13717],[1.27613,51.13858],[1.27699,51.13882],[1.27815,51.13849],[1.27894,51.13902],[1.27834,51.13937],[1.2766,51.13945],[1.27708,51.14016],[1.27637,51.14083],[1.27328,51.13959],[1.27286,51.14054],[1.27342,51.14087],[1.27234,51.14135],[1.2719,51.1421],[1.27136,51.14242],[1.26979,51.14226],[1.26963,51.14252],[1.26887,51.14195],[1.26842,51.14221],[1.26893,51.14241],[1.26858,51.14265],[1.27257,51.14405],[1.27237,51.14472]]]}},{"type":"Feature","properties":{"id":"E01024234","name":"E01024234","parent":"E07000108","type":"LSOA","pop":1446,"r":103,"ff":57,"ffd":3941.9,"ffs":0.6706,"g":18,"co":2,"mo":2,"sa":3,"ic":0},"geometry":{"type":"Polygon","coordinates":[[[1.21346,51.14909],[1.21499,51.14706],[1.22169,51.14789],[1.22453,51.14725],[1.22812,51.14876],[1.23301,51.14735],[1.2425,51.14808],[1.24531,51.14615],[1.25369,51.14853],[1.25849,51.14936],[1.25878,51.14868],[1.25967,51.14888],[1.26046,51.14688],[1.25983,51.14657],[1.26065,51.14569],[1.2666,51.14703],[1.26935,51.14807],[1.26919,51.14681],[1.27141,51.1453],[1.27241,51.14503],[1.27257,51.14405],[1.26858,51.14265],[1.26893,51.14241],[1.26842,51.14221],[1.26887,51.14195],[1.26963,51.14252],[1.26979,51.14226],[1.27136,51.14242],[1.2719,51.1421],[1.27234,51.14135],[1.27342,51.14087],[1.27286,51.14054],[1.27328,51.13959],[1.27637,51.14083],[1.27708,51.14016],[1.2766,51.13945],[1.27834,51.13937],[1.27894,51.13902],[1.27815,51.13849],[1.27699,51.13882],[1.27613,51.13858],[1.27503,51.13717],[1.27638,51.13715],[1.2776,51.13597],[1.27319,51.13399],[1.26489,51.13398],[1.25628,51.13304],[1.25214,51.1333],[1.24723,51.133],[1.24472,51.13336],[1.24407,51.13319],[1.24146,51.13479],[1.24094,51.13563],[1.23386,51.13318],[1.23268,51.13236],[1.23553,51.12977],[1.23125,51.12791],[1.22356,51.12357],[1.22644,51.12185],[1.22508,51.1205],[1.22222,51.11966],[1.21923,51.11904],[1.21691,51.12115],[1.21342,51.11914],[1.20631,51.12226],[1.20588,51.12017],[1.203,51.12077],[1.20201,51.11962],[1.20105,51.12009],[1.19889,51.11868],[1.19737,51.11809],[1.19243,51.11916],[1.18898,51.11924],[1.18776,51.11887],[1.18775,51.11999],[1.18581,51.12137],[1.18087,51.1192],[1.17915,51.12087],[1.17905,51.12281],[1.17801,51.12371],[1.17487,51.12226],[1.17305,51.12253],[1.17258,51.12303],[1.17157,51.1248],[1.17396,51.12673],[1.17415,51.12699],[1.17349,51.12735],[1.17529,51.12925],[1.17576,51.12909],[1.17546,51.12847],[1.17584,51.12844],[1.17651,51.1302],[1.17612,51.13049],[1.17693,51.13115],[1.17682,51.13181],[1.17904,51.13448],[1.18217,51.13336],[1.18447,51.13476],[1.18592,51.13415],[1.1885,51.13482],[1.19012,51.13599],[1.18921,51.13651],[1.18915,51.13876],[1.19351,51.14127],[1.19504,51.14259],[1.19783,51.14368],[1.19902,51.14481],[1.20227,51.14566],[1.20314,51.14718],[1.20662,51.14956],[1.21106,51.15148],[1.21092,51.14943],[1.21346,51.14909]]]}},{"type":"Feature","properties":{"id":"E01024235","name":"E01024235","parent":"E07000108","type":"LSOA","pop":1598,"r":109,"ff":60,"ffd":3754.7,"ffs":0.6593,"g":18,"co":0,"mo":0,"sa":3,"ic":0},"geometry":{"type":"Polygon","coordinates":[[[1.28268,51.14466],[1.28613,51.14259],[1.28953,51.14093],[1.28925,51.14068],[1.28828,51.14091],[1.28772,51.14057],[1.28805,51.14026],[1.28742,51.13956],[1.28668,51.13979],[1.28501,51.13855],[1.28384,51.13869],[1.28376,51.13917],[1.28489,51.14034],[1.28402,51.14102],[1.28224,51.14117],[1.28256,51.14155],[1.28311,51.14159],[1.28254,51.14225],[1.2818,51.14183],[1.28086,51.14235],[1.28104,51.14258],[1.27974,51.14288],[1.27974,51.14255],[1.27853,51.14249],[1.27659,51.1435],[1.27599,51.14348],[1.27587,51.14394],[1.2751,51.1442],[1.2736,51.14424],[1.27237,51.14472],[1.27241,51.14503],[1.27141,51.1453],[1.26919,51.14681],[1.26935,51.14807],[1.2726,51.14805],[1.27399,51.14896],[1.27724,51.14707],[1.28268,51.14466]]]}},{"type":"Feature","properties":{"id":"E01024236","name":"E01024236","parent":"E07000108","type":"LSOA","pop":1706,"r":99,"ff":53,"ffd":3106.7,"ffs":0.6543,"g":17,"co":0,"mo":0,"sa":3,"ic":0},"geometry":{"type":"Polygon","coordinates":[[[1.37197,51.20402],[1.3754,51.20083],[1.37805,51.19916],[1.38013,51.19815],[1.38036,51.19835],[1.38464,51.19738],[1.3848,51.19773],[1.38598,51.1975],[1.3848,51.19595],[1.38619,51.19554],[1.38149,51.19196],[1.38014,51.19265],[1.37883,51.19158],[1.37792,51.19197],[1.37591,51.1903],[1.37466,51.19096],[1.37346,51.19016],[1.372,51.19077],[1.36754,51.18554],[1.36849,51.18511],[1.36606,51.1826],[1.36475,51.18219],[1.36733,51.18129],[1.37305,51.17645],[1.36897,51.17492],[1.3689,51.17436],[1.37536,51.17125],[1.37664,51.16626],[1.37618,51.16583],[1.37786,51.16459],[1.3773,51.1643],[1.37559,51.16553],[1.37447,51.16495],[1.37249,51.16578],[1.36899,51.16568],[1.36647,51.1666],[1.3632,51.16619],[1.36274,51.164],[1.36453,51.16272],[1.36239,51.16146],[1.36502,51.16016],[1.36128,51.15773],[1.36305,51.15671],[1.36416,51.15449],[1.35719,51.14745],[1.35784,51.14703],[1.35829,51.14342],[1.36708,51.14816],[1.36809,51.14894],[1.36705,51.14966],[1.36834,51.14968],[1.36785,51.15086],[1.36895,51.15161],[1.36745,51.15347],[1.36684,51.15382],[1.36838,51.15433],[1.36992,51.15553],[1.36991,51.15604],[1.37121,51.15761],[1.37146,51.15686],[1.37091,51.15471],[1.37141,51.15509],[1.37189,51.15493],[1.37203,51.15555],[1.37275,51.15587],[1.37307,51.15564],[1.37344,51.15605],[1.37403,51.15591],[1.37439,51.1562],[1.37513,51.15618],[1.3777,51.15553],[1.37621,51.15499],[1.37445,51.15478],[1.374,51.15354],[1.3744,51.15302],[1.37537,51.15344],[1.37656,51.15247],[1.37641,51.15177],[1.37774,51.15129],[1.37791,51.15089],[1.37774,51.15063],[1.3761,51.15104],[1.37305,51.14805],[1.37237,51.14657],[1.37305,51.14703],[1.37433,51.14653],[1.37008,51.14379],[1.37089,51.14336],[1.37125,51.14362],[1.37251,51.14331],[1.37502,51.14357],[1.37825,51.14509],[1.38149,51.14486],[1.38181,51.14468],[1.37677,51.1408],[1.37231,51.13882],[1.36406,51.13594],[1.36172,51.13563],[1.35732,51.13415],[1.35611,51.13441],[1.35286,51.13356],[1.35084,51.13354],[1.34743,51.13294],[1.34543,51.13171],[1.34436,51.13171],[1.34125,51.13069],[1.34156,51.13095],[1.33807,51.13586],[1.33542,51.13489],[1.33406,51.13881],[1.33858,51.14114],[1.33164,51.14701],[1.33773,51.15072],[1.34649,51.15743],[1.34961,51.16026],[1.34469,51.16166],[1.33938,51.16385],[1.34167,51.16527],[1.33865,51.16645],[1.34536,51.16898],[1.34379,51.16995],[1.34205,51.16897],[1.33992,51.17136],[1.33418,51.17295],[1.33431,51.17837],[1.33043,51.17871],[1.32589,51.18034],[1.32363,51.18035],[1.32481,51.18242],[1.3271,51.18146],[1.33174,51.18455],[1.33507,51.18726],[1.33929,51.18523],[1.33459,51.18206],[1.34045,51.17826],[1.34123,51.18015],[1.33946,51.18339],[1.3467,51.18754],[1.34992,51.19069],[1.34779,51.1916],[1.35043,51.1936],[1.3514,51.19409],[1.35355,51.19244],[1.35565,51.19521],[1.35674,51.19986],[1.35309,51.20026],[1.35262,51.20056],[1.35333,51.20096],[1.35277,51.20306],[1.3507,51.20583],[1.35194,51.2065],[1.35245,51.20722],[1.36024,51.20358],[1.36377,51.20976],[1.36675,51.20869],[1.36848,51.20583],[1.37197,51.20402]]]}},{"type":"Feature","properties":{"id":"E01024237","name":"E01024237","parent":"E07000108","type":"LSOA","pop":1533,"r":98,"ff":51,"ffd":3326.8,"ffs":0.6456,"g":18,"co":0,"mo":0,"sa":3,"ic":0},"geometry":{"type":"Polygon","coordinates":[[[1.38231,51.16945],[1.39058,51.16629],[1.39534,51.16873],[1.40102,51.16518],[1.39696,51.15943],[1.39492,51.1573],[1.39531,51.1564],[1.39396,51.15589],[1.39086,51.15371],[1.38891,51.15281],[1.38895,51.1524],[1.38456,51.1498],[1.38398,51.14905],[1.3844,51.14849],[1.38328,51.14581],[1.38181,51.14468],[1.38149,51.14486],[1.37825,51.14509],[1.37502,51.14357],[1.37251,51.14331],[1.37125,51.14362],[1.37089,51.14336],[1.37008,51.14379],[1.37433,51.14653],[1.37305,51.14703],[1.37237,51.14657],[1.37305,51.14805],[1.3761,51.15104],[1.37774,51.15063],[1.37791,51.15089],[1.37774,51.15129],[1.37641,51.15177],[1.37656,51.15247],[1.37537,51.15344],[1.3744,51.15302],[1.374,51.15354],[1.37445,51.15478],[1.37621,51.15499],[1.3777,51.15553],[1.37513,51.15618],[1.37439,51.1562],[1.37403,51.15591],[1.37344,51.15605],[1.37307,51.15564],[1.37275,51.15587],[1.37203,51.15555],[1.37189,51.15493],[1.37141,51.15509],[1.37091,51.15471],[1.37146,51.15686],[1.37121,51.15761],[1.36991,51.15604],[1.36992,51.15553],[1.36838,51.15433],[1.36684,51.15382],[1.36745,51.15347],[1.36895,51.15161],[1.36785,51.15086],[1.36834,51.14968],[1.36705,51.14966],[1.36809,51.14894],[1.36708,51.14816],[1.35829,51.14342],[1.35784,51.14703],[1.35719,51.14745],[1.36416,51.15449],[1.36305,51.15671],[1.36128,51.15773],[1.36502,51.16016],[1.36239,51.16146],[1.36453,51.16272],[1.36274,51.164],[1.3632,51.16619],[1.36647,51.1666],[1.36899,51.16568],[1.37249,51.16578],[1.37447,51.16495],[1.37559,51.16553],[1.3773,51.1643],[1.37786,51.16459],[1.37618,51.16583],[1.37664,51.16626],[1.37536,51.17125],[1.37742,51.17226],[1.38231,51.16945]]]}},{"type":"Feature","properties":{"id":"E01024238","name":"E01024238","parent":"E07000108","type":"LSOA","pop":2045,"r":110,"ff":61,"ffd":2982.9,"ffs":0.663,"g":17,"co":0,"mo":0,"sa":3,"ic":0},"geometry":{"type":"Polygon","coordinates":[[[1.32481,51.18242],[1.32363,51.18035],[1.32589,51.18034],[1.33043,51.17871],[1.33431,51.17837],[1.33418,51.17295],[1.33992,51.17136],[1.34205,51.16897],[1.34379,51.16995],[1.34536,51.16898],[1.33865,51.16645],[1.34167,51.16527],[1.33938,51.16385],[1.34469,51.16166],[1.34961,51.16026],[1.34649,51.15743],[1.33773,51.15072],[1.33164,51.14701],[1.33858,51.14114],[1.33406,51.13881],[1.33542,51.13489],[1.33807,51.13586],[1.34156,51.13095],[1.34125,51.13069],[1.33645,51.12997],[1.33105,51.12855],[1.33002,51.12927],[1.32935,51.13071],[1.32626,51.13145],[1.32564,51.13178],[1.32126,51.13165],[1.31814,51.13256],[1.3159,51.13466],[1.31305,51.1358],[1.3148,51.13697],[1.31326,51.1378],[1.31912,51.14194],[1.31658,51.14271],[1.31095,51.1454],[1.31138,51.14727],[1.31092,51.1579],[1.31618,51.16199],[1.31862,51.16466],[1.31422,51.16718],[1.31342,51.16816],[1.31275,51.16779],[1.31144,51.16804],[1.30833,51.16936],[1.30731,51.16892],[1.30626,51.16898],[1.30529,51.16995],[1.30795,51.17313],[1.31229,51.17665],[1.31368,51.17845],[1.3204,51.18309],[1.32144,51.18338],[1.32481,51.18242]]]}},{"type":"Feature","properties":{"id":"E01024239","name":"E01024239","parent":"E07000108","type":"LSOA","pop":1893,"r":108,"ff":60,"ffd":3169.6,"ffs":0.6593,"g":17,"co":0,"mo":0,"sa":3,"ic":0},"geometry":{"type":"Polygon","coordinates":[[[1.29924,51.1365],[1.30048,51.1361],[1.30068,51.13631],[1.30592,51.13467],[1.30509,51.13337],[1.30337,51.13234],[1.30263,51.13256],[1.30227,51.1324],[1.30289,51.13151],[1.30245,51.13093],[1.30215,51.1309],[1.30172,51.13219],[1.30082,51.13203],[1.29818,51.13362],[1.29818,51.13325],[1.29684,51.13442],[1.29774,51.13533],[1.29823,51.13543],[1.2978,51.13567],[1.29828,51.13598],[1.2986,51.13583],[1.29924,51.1365]]]}},{"type":"Feature","properties":{"id":"E01024240","name":"E01024240","parent":"E07000108","type":"LSOA","pop":1838,"r":108,"ff":60,"ffd":3264.4,"ffs":0.6593,"g":17,"co":0,"mo":0,"sa":3,"ic":0},"geometry":{"type":"Polygon","coordinates":[[[1.28937,51.13493],[1.28986,51.1333],[1.29059,51.13353],[1.29108,51.13331],[1.29207,51.13342],[1.29187,51.13272],[1.29367,51.1333],[1.29423,51.13298],[1.29585,51.13354],[1.29818,51.13325],[1.29818,51.13362],[1.30082,51.13203],[1.30172,51.13219],[1.30206,51.13113],[1.30097,51.13057],[1.30071,51.13083],[1.29863,51.13056],[1.29408,51.13093],[1.29222,51.13024],[1.29238,51.12998],[1.2866,51.12762],[1.281,51.12841],[1.2772,51.12845],[1.27346,51.12584],[1.26722,51.12436],[1.26846,51.12902],[1.26691,51.13042],[1.26734,51.13136],[1.26645,51.13387],[1.27319,51.13399],[1.27377,51.13374],[1.27807,51.13368],[1.28175,51.13244],[1.28286,51.13257],[1.28315,51.13291],[1.28937,51.13493]]]}},{"type":"Feature","properties":{"id":"E01024241","name":"E01024241","parent":"E07000108","type":"LSOA","pop":2268,"r":108,"ff":60,"ffd":2645.5,"ffs":0.6593,"g":17,"co":0,"mo":0,"sa":3,"ic":0},"geometry":{"type":"Polygon","coordinates":[[[1.28953,51.14093],[1.29315,51.13929],[1.29546,51.13769],[1.29772,51.13754],[1.30068,51.13631],[1.30048,51.1361],[1.29924,51.1365],[1.2986,51.13583],[1.29828,51.13598],[1.2978,51.13567],[1.29823,51.13543],[1.29774,51.13533],[1.29684,51.13442],[1.29818,51.13325],[1.29585,51.13354],[1.29423,51.13298],[1.29367,51.1333],[1.29187,51.13272],[1.29207,51.13342],[1.29108,51.13331],[1.29059,51.13353],[1.28986,51.1333],[1.28937,51.13493],[1.28315,51.13291],[1.28286,51.13257],[1.28175,51.13244],[1.27807,51.13368],[1.27377,51.13374],[1.27319,51.13399],[1.2776,51.13597],[1.28069,51.13801],[1.28113,51.13767],[1.2829,51.13856],[1.28384,51.13869],[1.28501,51.13855],[1.28668,51.13979],[1.28742,51.13956],[1.28805,51.14026],[1.28772,51.14057],[1.28828,51.14091],[1.28925,51.14068],[1.28953,51.14093]]]}},{"type":"Feature","properties":{"id":"E01024242","name":"E01024242","parent":"E07000108","type":"LSOA","pop":1839,"r":20,"ff":8,"ffd":435.0,"ffs":0.6154,"g":6,"co":0,"mo":3,"sa":3,"ic":1},"geometry":{"type":"MultiPolygon","coordinates":[[[[1.35633,51.27781],[1.35626,51.27777],[1.35479,51.27788],[1.35633,51.27781]]],[[[1.35672,51.2781],[1.35653,51.27796],[1.35652,51.27835],[1.35672,51.2781]]],[[[1.35559,51.29653],[1.35528,51.29634],[1.35558,51.29662],[1.35559,51.29653]]],[[[1.37241,51.31331],[1.37422,51.30722],[1.37367,51.31029],[1.37447,51.30786],[1.37579,51.29709],[1.37801,51.2888],[1.37811,51.28697],[1.38201,51.27856],[1.39059,51.26352],[1.39395,51.25655],[1.3886,51.25486],[1.38556,51.25445],[1.3854,51.25384],[1.38463,51.25365],[1.38117,51.25019],[1.37476,51.25161],[1.37379,51.25158],[1.37316,51.25122],[1.37208,51.25167],[1.36962,51.25196],[1.36796,51.25084],[1.36809,51.25042],[1.36892,51.25021],[1.36856,51.24997],[1.36835,51.24895],[1.3671,51.24933],[1.36678,51.24918],[1.36712,51.24867],[1.36646,51.24831],[1.36685,51.24778],[1.36576,51.24719],[1.3646,51.2474],[1.36481,51.24653],[1.3636,51.24652],[1.36437,51.24574],[1.36344,51.24562],[1.36379,51.24508],[1.36341,51.24453],[1.36099,51.24336],[1.36086,51.24252],[1.3565,51.23961],[1.35108,51.23847],[1.35135,51.23918],[1.35034,51.23959],[1.34982,51.24103],[1.34768,51.24361],[1.34436,51.24584],[1.3439,51.24576],[1.34316,51.24616],[1.34311,51.24675],[1.34095,51.24733],[1.33912,51.24961],[1.33795,51.25031],[1.33524,51.25088],[1.3346,51.25214],[1.33185,51.25194],[1.33189,51.25161],[1.33124,51.25164],[1.33093,51.25236],[1.33032,51.25239],[1.32897,51.25532],[1.32556,51.2545],[1.325,51.25554],[1.32295,51.25677],[1.32877,51.26155],[1.32991,51.26058],[1.33198,51.25795],[1.33583,51.25948],[1.3355,51.26167],[1.33637,51.26209],[1.33742,51.26354],[1.33715,51.26406],[1.33613,51.26451],[1.33446,51.26349],[1.33004,51.2665],[1.3347,51.26905],[1.33503,51.26886],[1.33492,51.26813],[1.33573,51.26822],[1.33819,51.26727],[1.34,51.26805],[1.34043,51.26864],[1.34246,51.26861],[1.34222,51.26999],[1.34472,51.26903],[1.3452,51.26988],[1.34437,51.26978],[1.34328,51.27108],[1.3419,51.27104],[1.34179,51.27138],[1.34082,51.27165],[1.34134,51.27194],[1.3429,51.27216],[1.34286,51.27306],[1.34355,51.27374],[1.34449,51.2738],[1.34444,51.27316],[1.34521,51.27279],[1.34572,51.27301],[1.34611,51.2727],[1.34676,51.27353],[1.34606,51.27359],[1.34653,51.27448],[1.34689,51.2746],[1.34836,51.27385],[1.34775,51.27419],[1.35112,51.27472],[1.35197,51.27513],[1.35193,51.27594],[1.35161,51.27673],[1.35224,51.27747],[1.35333,51.27774],[1.35614,51.27755],[1.35693,51.27777],[1.35701,51.27842],[1.35635,51.27913],[1.35703,51.27916],[1.35616,51.27926],[1.35639,51.27944],[1.35596,51.27935],[1.35376,51.28058],[1.35158,51.2804],[1.351,51.28074],[1.35168,51.28303],[1.35259,51.28433],[1.35029,51.28569],[1.34982,51.2883],[1.35057,51.28863],[1.35132,51.28857],[1.35335,51.28741],[1.35298,51.28703],[1.35339,51.28733],[1.35341,51.2874],[1.3532,51.2876],[1.35401,51.28777],[1.35489,51.28853],[1.35455,51.28964],[1.35081,51.29042],[1.34784,51.2922],[1.34849,51.29262],[1.3477,51.2923],[1.34702,51.29296],[1.34838,51.29482],[1.3489,51.29628],[1.35051,51.2971],[1.35158,51.29724],[1.35156,51.29685],[1.35206,51.29715],[1.35473,51.29581],[1.35614,51.29626],[1.35627,51.29712],[1.35524,51.29879],[1.35339,51.29945],[1.35137,51.29914],[1.35026,51.29934],[1.34905,51.30101],[1.3502,51.30101],[1.35048,51.3007],[1.35034,51.30101],[1.35116,51.30106],[1.34925,51.30109],[1.34927,51.30157],[1.35361,51.30707],[1.35613,51.30934],[1.35688,51.30928],[1.35714,51.30952],[1.35682,51.30932],[1.35641,51.3095],[1.35772,51.31022],[1.35784,51.31011],[1.35837,51.30996],[1.35944,51.31],[1.35847,51.30997],[1.35777,51.31029],[1.35905,51.31135],[1.35957,51.31131],[1.35995,51.31057],[1.36023,51.31051],[1.35987,51.31043],[1.36096,51.31043],[1.36011,51.3106],[1.35959,51.31133],[1.35926,51.31143],[1.36021,51.31181],[1.36075,51.31179],[1.36083,51.31136],[1.36243,51.31086],[1.36101,51.3114],[1.36084,51.31178],[1.3604,51.31188],[1.36195,51.31218],[1.36231,51.31184],[1.36207,51.31214],[1.36277,51.31223],[1.36308,51.31138],[1.36327,51.31191],[1.36288,51.31225],[1.364,51.31218],[1.36343,51.31162],[1.36395,51.31118],[1.36662,51.31048],[1.36617,51.31033],[1.36679,51.30999],[1.3664,51.30908],[1.36685,51.30992],[1.36683,51.31],[1.36661,51.31017],[1.36621,51.31032],[1.36672,51.31041],[1.36741,51.31022],[1.36637,51.31065],[1.36403,51.3112],[1.36367,51.31177],[1.36417,51.31205],[1.36525,51.31165],[1.36482,51.31159],[1.36541,51.31129],[1.36509,51.3115],[1.36539,51.31158],[1.36634,51.31127],[1.36857,51.31093],[1.36606,51.31137],[1.36434,51.31216],[1.36523,51.31276],[1.36577,51.31262],[1.36528,51.31283],[1.36546,51.31309],[1.37135,51.31391],[1.37241,51.31331]]]]}},{"type":"Feature","properties":{"id":"E01024243","name":"E01024243","parent":"E07000108","type":"LSOA","pop":1895,"r":37,"ff":14,"ffd":738.8,"ffs":0.6667,"g":15,"co":0,"mo":2,"sa":3,"ic":0},"geometry":{"type":"Polygon","coordinates":[[[1.33382,51.27334],[1.33406,51.27282],[1.33525,51.27365],[1.33613,51.27365],[1.33591,51.27436],[1.3366,51.27398],[1.33645,51.27348],[1.33747,51.2731],[1.33746,51.27273],[1.33659,51.27267],[1.33795,51.27188],[1.34222,51.26999],[1.34246,51.26861],[1.34043,51.26864],[1.34,51.26805],[1.33819,51.26727],[1.33573,51.26822],[1.33492,51.26813],[1.33503,51.26886],[1.3347,51.26905],[1.33202,51.2675],[1.33159,51.26742],[1.33151,51.26821],[1.32939,51.26919],[1.3296,51.26969],[1.32897,51.26973],[1.32831,51.26937],[1.32607,51.27035],[1.32496,51.27145],[1.32748,51.27356],[1.32799,51.2751],[1.33172,51.27598],[1.33278,51.2758],[1.33359,51.27499],[1.33271,51.27397],[1.33382,51.27334]]]}},{"type":"Feature","properties":{"id":"E01024244","name":"E01024244","parent":"E07000108","type":"LSOA","pop":1749,"r":31,"ff":12,"ffd":686.1,"ffs":0.75,"g":14,"co":0,"mo":2,"sa":3,"ic":0},"geometry":{"type":"MultiPolygon","coordinates":[[[[1.34975,51.27448],[1.34947,51.27446],[1.34989,51.27453],[1.34975,51.27448]]],[[[1.35193,51.27594],[1.35186,51.27564],[1.35165,51.27653],[1.35193,51.27594]]],[[[1.35262,51.28044],[1.3517,51.28033],[1.35158,51.2804],[1.35262,51.28044]]],[[[1.33217,51.28087],[1.33345,51.28062],[1.33535,51.28188],[1.33651,51.28182],[1.33999,51.27969],[1.33858,51.27845],[1.33858,51.27773],[1.34217,51.27576],[1.34582,51.27515],[1.34689,51.2746],[1.34653,51.27448],[1.34606,51.27359],[1.34676,51.27353],[1.34611,51.2727],[1.34572,51.27301],[1.34521,51.27279],[1.34444,51.27316],[1.34449,51.2738],[1.34355,51.27374],[1.34286,51.27306],[1.3429,51.27216],[1.34134,51.27194],[1.34082,51.27165],[1.34179,51.27138],[1.3419,51.27104],[1.34328,51.27108],[1.34437,51.26978],[1.3452,51.26988],[1.34472,51.26903],[1.34222,51.26999],[1.33698,51.27243],[1.33659,51.27267],[1.33746,51.27273],[1.33747,51.2731],[1.33645,51.27348],[1.3366,51.27398],[1.33591,51.27436],[1.33613,51.27365],[1.33525,51.27365],[1.33406,51.27282],[1.33382,51.27334],[1.33271,51.27397],[1.33359,51.27499],[1.33278,51.2758],[1.33551,51.27585],[1.3356,51.27561],[1.3371,51.27692],[1.33608,51.27687],[1.3358,51.27784],[1.33492,51.27788],[1.33487,51.2784],[1.33329,51.27861],[1.33346,51.2792],[1.33055,51.28206],[1.33072,51.28212],[1.33217,51.28087]]],[[[1.34702,51.29296],[1.34703,51.29285],[1.34698,51.2929],[1.34702,51.29296]]],[[[1.35439,51.29876],[1.35551,51.29708],[1.35558,51.29662],[1.35528,51.29634],[1.35514,51.29625],[1.35194,51.29755],[1.35061,51.29755],[1.34918,51.297],[1.34824,51.29627],[1.3464,51.29289],[1.34667,51.29243],[1.3505,51.29012],[1.35344,51.28958],[1.35439,51.28911],[1.35439,51.28858],[1.35338,51.28796],[1.3509,51.28894],[1.34986,51.28874],[1.34925,51.28818],[1.34994,51.28553],[1.35214,51.28434],[1.35114,51.28281],[1.35059,51.28067],[1.35126,51.28016],[1.35376,51.28029],[1.35372,51.28005],[1.35411,51.28015],[1.35504,51.27935],[1.3559,51.2791],[1.35652,51.27835],[1.35653,51.27796],[1.35633,51.27781],[1.35381,51.27796],[1.35216,51.27764],[1.35126,51.27663],[1.35171,51.27525],[1.3481,51.27436],[1.34546,51.27555],[1.34205,51.27608],[1.34059,51.27689],[1.33891,51.27828],[1.34023,51.27943],[1.34012,51.27998],[1.33653,51.28202],[1.33525,51.28204],[1.33367,51.28082],[1.33245,51.28098],[1.33095,51.28232],[1.33169,51.28412],[1.32965,51.28502],[1.32838,51.28659],[1.33021,51.28843],[1.33134,51.29046],[1.33478,51.29328],[1.33539,51.29338],[1.33768,51.29242],[1.33864,51.29257],[1.34033,51.29355],[1.34341,51.29699],[1.34568,51.30161],[1.34823,51.30138],[1.34869,51.29996],[1.35008,51.29897],[1.35439,51.29876]]],[[[1.34576,51.30516],[1.34574,51.30435],[1.34552,51.30617],[1.34576,51.30516]]],[[[1.35433,51.30917],[1.35334,51.30808],[1.35289,51.30813],[1.35256,51.30715],[1.34838,51.30177],[1.34603,51.30195],[1.34607,51.30511],[1.34542,51.30799],[1.3465,51.30814],[1.34677,51.30906],[1.35097,51.31171],[1.3517,51.31301],[1.35789,51.31149],[1.35433,51.30917]]]]}},{"type":"Feature","properties":{"id":"E01024245","name":"E01024245","parent":"E07000108","type":"LSOA","pop":2062,"r":41,"ff":17,"ffd":824.4,"ffs":0.68,"g":15,"co":0,"mo":2,"sa":3,"ic":0},"geometry":{"type":"Polygon","coordinates":[[[1.31426,51.28099],[1.31593,51.28089],[1.31647,51.28137],[1.31732,51.28124],[1.31956,51.28203],[1.32014,51.28181],[1.3205,51.28246],[1.32132,51.28249],[1.32133,51.28227],[1.32468,51.28249],[1.32561,51.28231],[1.32633,51.28148],[1.3279,51.28106],[1.33055,51.28206],[1.33346,51.2792],[1.33329,51.27861],[1.33487,51.2784],[1.33492,51.27788],[1.3358,51.27784],[1.33608,51.27687],[1.3371,51.27692],[1.3356,51.27561],[1.33551,51.27585],[1.33278,51.2758],[1.33172,51.27598],[1.32799,51.2751],[1.32748,51.27356],[1.32496,51.27145],[1.32607,51.27035],[1.32831,51.26937],[1.32897,51.26973],[1.3296,51.26969],[1.32939,51.26919],[1.33151,51.26821],[1.33159,51.26742],[1.33202,51.2675],[1.33004,51.2665],[1.33446,51.26349],[1.33613,51.26451],[1.33715,51.26406],[1.33742,51.26354],[1.33637,51.26209],[1.3355,51.26167],[1.33583,51.25948],[1.33198,51.25795],[1.32991,51.26058],[1.32877,51.26155],[1.32393,51.25758],[1.3148,51.25736],[1.3104,51.2575],[1.30181,51.25667],[1.29365,51.25688],[1.29314,51.25544],[1.28823,51.24991],[1.28782,51.24764],[1.28165,51.24857],[1.27685,51.2456],[1.27469,51.24573],[1.27358,51.2451],[1.27394,51.24863],[1.27126,51.24947],[1.26952,51.25059],[1.26639,51.25069],[1.26672,51.25201],[1.26578,51.25283],[1.2575,51.25316],[1.26239,51.25728],[1.26468,51.26085],[1.2666,51.26045],[1.26981,51.25896],[1.27173,51.2613],[1.27323,51.26247],[1.27369,51.26237],[1.27433,51.26323],[1.27465,51.26433],[1.26962,51.26398],[1.27017,51.26622],[1.26725,51.26593],[1.26508,51.26615],[1.26499,51.26742],[1.26516,51.26813],[1.26387,51.26842],[1.26523,51.27215],[1.26851,51.27393],[1.26911,51.27471],[1.27387,51.27578],[1.27638,51.27593],[1.27925,51.27546],[1.27925,51.27344],[1.27817,51.27278],[1.27842,51.27206],[1.28569,51.2715],[1.29241,51.2743],[1.29506,51.27212],[1.30014,51.27476],[1.29831,51.27661],[1.30262,51.27909],[1.30514,51.27853],[1.30698,51.2798],[1.30728,51.2815],[1.3083,51.28218],[1.30762,51.28265],[1.30839,51.28389],[1.31168,51.28543],[1.31333,51.28444],[1.31186,51.28334],[1.3118,51.28268],[1.31269,51.28194],[1.31377,51.2816],[1.31426,51.28099]]]}},{"type":"Feature","properties":{"id":"E01024246","name":"E01024246","parent":"E07000108","type":"LSOA","pop":2172,"r":108,"ff":60,"ffd":2762.4,"ffs":0.6593,"g":17,"co":0,"mo":0,"sa":3,"ic":0},"geometry":{"type":"Polygon","coordinates":[[[1.30637,51.13227],[1.3083,51.13087],[1.30732,51.13033],[1.30787,51.12939],[1.30706,51.129],[1.30803,51.12834],[1.30739,51.1283],[1.30614,51.12892],[1.3054,51.12824],[1.30267,51.12709],[1.30056,51.12647],[1.30011,51.12751],[1.2994,51.12758],[1.29957,51.12797],[1.29725,51.12786],[1.29733,51.1282],[1.29833,51.1283],[1.29815,51.12878],[1.2975,51.12869],[1.29735,51.12915],[1.29913,51.12937],[1.29897,51.12991],[1.30054,51.13],[1.30118,51.12947],[1.30053,51.1293],[1.30087,51.12888],[1.30038,51.12872],[1.30049,51.12842],[1.3023,51.12867],[1.30193,51.12926],[1.30306,51.12968],[1.30268,51.13045],[1.30384,51.13029],[1.30481,51.13068],[1.30416,51.13191],[1.3047,51.13183],[1.3053,51.13215],[1.30589,51.1318],[1.30637,51.13227]]]}},{"type":"Feature","properties":{"id":"E01024247","name":"E01024247","parent":"E07000108","type":"LSOA","pop":2235,"r":108,"ff":60,"ffd":2684.6,"ffs":0.6593,"g":17,"co":0,"mo":0,"sa":3,"ic":0},"geometry":{"type":"Polygon","coordinates":[[[1.30827,51.13364],[1.31348,51.13158],[1.31359,51.13115],[1.31069,51.12973],[1.31041,51.12951],[1.3108,51.12928],[1.31018,51.12845],[1.30928,51.12874],[1.30844,51.12814],[1.30661,51.12767],[1.3054,51.12824],[1.30614,51.12892],[1.30739,51.1283],[1.30803,51.12834],[1.30706,51.129],[1.30787,51.12939],[1.30732,51.13033],[1.3083,51.13087],[1.30637,51.13227],[1.30589,51.1318],[1.3053,51.13215],[1.3047,51.13183],[1.30416,51.13191],[1.30481,51.13068],[1.30384,51.13029],[1.30268,51.13045],[1.30245,51.13093],[1.30289,51.13151],[1.30227,51.1324],[1.30263,51.13256],[1.30337,51.13234],[1.30509,51.13337],[1.30592,51.13467],[1.30713,51.13434],[1.30827,51.13364]]]}},{"type":"Feature","properties":{"id":"E01024248","name":"E01024248","parent":"E07000108","type":"LSOA","pop":2034,"r":108,"ff":60,"ffd":2949.9,"ffs":0.6593,"g":17,"co":0,"mo":0,"sa":3,"ic":0},"geometry":{"type":"Polygon","coordinates":[[[1.30206,51.13113],[1.30215,51.1309],[1.30245,51.13093],[1.30306,51.12968],[1.30193,51.12926],[1.3023,51.12867],[1.30049,51.12842],[1.30038,51.12872],[1.30087,51.12888],[1.30053,51.1293],[1.30118,51.12947],[1.30054,51.13],[1.29897,51.12991],[1.29913,51.12937],[1.29735,51.12915],[1.2975,51.12869],[1.29815,51.12878],[1.29833,51.1283],[1.29733,51.1282],[1.29725,51.12786],[1.29957,51.12797],[1.2994,51.12758],[1.30011,51.12751],[1.30056,51.12647],[1.29725,51.1261],[1.29749,51.12546],[1.29418,51.12544],[1.2942,51.12507],[1.29368,51.12505],[1.29049,51.12533],[1.28758,51.12688],[1.2884,51.12793],[1.28763,51.12808],[1.29238,51.12998],[1.29222,51.13024],[1.29408,51.13093],[1.29863,51.13056],[1.30071,51.13083],[1.30097,51.13057],[1.30206,51.13113]]]}},{"type":"Feature","properties":{"id":"E01024249","name":"E01024249","parent":"E07000108","type":"LSOA","pop":2082,"r":108,"ff":60,"ffd":2881.8,"ffs":0.6593,"g":17,"co":0,"mo":0,"sa":3,"ic":0},"geometry":{"type":"Polygon","coordinates":[[[1.31163,51.12501],[1.31325,51.12349],[1.31421,51.12355],[1.31452,51.12292],[1.3157,51.12215],[1.31366,51.11989],[1.31995,51.11853],[1.31357,51.11986],[1.31338,51.11947],[1.31535,51.11831],[1.31809,51.11755],[1.31924,51.11758],[1.32173,51.11832],[1.32006,51.11763],[1.32227,51.11531],[1.32164,51.11508],[1.32265,51.1143],[1.31854,51.11642],[1.3163,51.11454],[1.31581,51.11485],[1.3164,51.11524],[1.31644,51.11548],[1.31293,51.117],[1.31245,51.11779],[1.31198,51.11773],[1.31251,51.1179],[1.31261,51.11889],[1.31137,51.11908],[1.31126,51.11937],[1.31097,51.11923],[1.31096,51.11785],[1.3106,51.11786],[1.31011,51.11679],[1.31197,51.11646],[1.31226,51.11681],[1.31215,51.11642],[1.31295,51.11645],[1.31504,51.11549],[1.31464,51.11527],[1.31517,51.11504],[1.31362,51.1152],[1.31339,51.11499],[1.3149,51.11406],[1.31541,51.11465],[1.31503,51.11398],[1.31921,51.11205],[1.32403,51.11195],[1.32406,51.11156],[1.32789,51.11136],[1.31819,51.11151],[1.31455,51.11282],[1.31279,51.11441],[1.3023,51.11337],[1.29691,51.11214],[1.29604,51.1116],[1.29572,51.11061],[1.29444,51.10955],[1.28219,51.10796],[1.28122,51.10752],[1.28187,51.10638],[1.28161,51.10578],[1.26766,51.10174],[1.26231,51.10184],[1.26146,51.10262],[1.25915,51.10658],[1.26287,51.10744],[1.2623,51.10898],[1.26767,51.11156],[1.27256,51.11329],[1.27464,51.11464],[1.27774,51.11507],[1.28151,51.1139],[1.28369,51.11395],[1.28627,51.11435],[1.28971,51.11564],[1.29114,51.11721],[1.29312,51.11727],[1.29492,51.11857],[1.29454,51.11972],[1.29543,51.11989],[1.29629,51.11895],[1.30042,51.11981],[1.3002,51.12089],[1.30115,51.12109],[1.30223,51.12052],[1.30338,51.12114],[1.30375,51.12174],[1.30612,51.12377],[1.31022,51.12617],[1.31163,51.12501]]]}},{"type":"Feature","properties":{"id":"E01024250","name":"E01024250","parent":"E07000108","type":"LSOA","pop":1558,"r":80,"ff":40,"ffd":2567.4,"ffs":0.6349,"g":16,"co":0,"mo":2,"sa":1,"ic":0},"geometry":{"type":"Polygon","coordinates":[[[1.39289,51.20955],[1.39373,51.20918],[1.3948,51.21028],[1.39623,51.21082],[1.39721,51.21041],[1.39752,51.20986],[1.39839,51.20974],[1.39845,51.20898],[1.39886,51.209],[1.40196,51.20785],[1.40264,51.20785],[1.40242,51.20517],[1.40187,51.20507],[1.40173,51.20388],[1.3999,51.20419],[1.39984,51.20506],[1.3988,51.20546],[1.39846,51.20627],[1.39704,51.20631],[1.39555,51.20563],[1.39494,51.2059],[1.394,51.20571],[1.39341,51.20665],[1.39081,51.20602],[1.39119,51.20672],[1.39028,51.20722],[1.38907,51.20655],[1.38772,51.20722],[1.39367,51.21145],[1.39448,51.21091],[1.39289,51.20955]]]}},{"type":"Feature","properties":{"id":"E01024251","name":"E01024251","parent":"E07000108","type":"LSOA","pop":1608,"r":81,"ff":41,"ffd":2549.8,"ffs":0.6406,"g":16,"co":0,"mo":2,"sa":1,"ic":0},"geometry":{"type":"Polygon","coordinates":[[[1.39119,51.20672],[1.39081,51.20602],[1.39341,51.20665],[1.394,51.20571],[1.39494,51.2059],[1.39555,51.20563],[1.39536,51.20483],[1.3929,51.20378],[1.39288,51.20312],[1.39389,51.20275],[1.39445,51.203],[1.39535,51.20261],[1.39485,51.20234],[1.39441,51.20249],[1.39408,51.20211],[1.39522,51.20183],[1.39567,51.20207],[1.39599,51.2016],[1.39706,51.20164],[1.3965,51.20118],[1.39605,51.20136],[1.39449,51.20058],[1.39465,51.20014],[1.39405,51.19989],[1.39406,51.19923],[1.39234,51.19997],[1.39232,51.20057],[1.39032,51.20087],[1.38936,51.20133],[1.38859,51.2013],[1.38919,51.2016],[1.38909,51.20191],[1.38775,51.20142],[1.38623,51.20134],[1.38399,51.20175],[1.3842,51.20137],[1.38348,51.20045],[1.38328,51.19932],[1.38422,51.19952],[1.38327,51.19773],[1.38036,51.19835],[1.38013,51.19815],[1.37805,51.19916],[1.38277,51.20341],[1.38772,51.20722],[1.38907,51.20655],[1.39028,51.20722],[1.39119,51.20672]]]}},{"type":"Feature","properties":{"id":"E01024252","name":"E01024252","parent":"E07000108","type":"LSOA","pop":2178,"r":73,"ff":36,"ffd":1652.9,"ffs":0.6429,"g":16,"co":0,"mo":2,"sa":1,"ic":0},"geometry":{"type":"Polygon","coordinates":[[[1.40463,51.21543],[1.40421,51.21014],[1.4027,51.21019],[1.40264,51.20785],[1.40196,51.20785],[1.39886,51.209],[1.39845,51.20898],[1.39839,51.20974],[1.39752,51.20986],[1.39721,51.21041],[1.39623,51.21082],[1.3948,51.21028],[1.39373,51.20918],[1.39289,51.20955],[1.39448,51.21091],[1.39367,51.21145],[1.39485,51.21246],[1.39605,51.21389],[1.4028,51.21891],[1.40282,51.21861],[1.40504,51.21843],[1.40463,51.21543]]]}},{"type":"Feature","properties":{"id":"E01024253","name":"E01024253","parent":"E07000108","type":"LSOA","pop":1748,"r":81,"ff":41,"ffd":2345.5,"ffs":0.6406,"g":16,"co":0,"mo":2,"sa":1,"ic":0},"geometry":{"type":"Polygon","coordinates":[[[1.40421,51.21014],[1.40498,51.20342],[1.4055,51.18934],[1.40256,51.18885],[1.40244,51.19054],[1.40093,51.19049],[1.40101,51.18942],[1.40023,51.18976],[1.39964,51.18907],[1.39419,51.19069],[1.393,51.19173],[1.39444,51.19475],[1.38792,51.19705],[1.3848,51.19773],[1.38464,51.19738],[1.38327,51.19773],[1.38422,51.19952],[1.38328,51.19932],[1.38348,51.20045],[1.3842,51.20137],[1.38399,51.20175],[1.38623,51.20134],[1.38775,51.20142],[1.38909,51.20191],[1.38919,51.2016],[1.38859,51.2013],[1.38936,51.20133],[1.39032,51.20087],[1.39232,51.20057],[1.39234,51.19997],[1.39406,51.19923],[1.39405,51.19989],[1.39465,51.20014],[1.39449,51.20058],[1.39605,51.20136],[1.3965,51.20118],[1.39706,51.20164],[1.39599,51.2016],[1.39567,51.20207],[1.39522,51.20183],[1.39408,51.20211],[1.39441,51.20249],[1.39485,51.20234],[1.39535,51.20261],[1.39445,51.203],[1.39389,51.20275],[1.39288,51.20312],[1.3929,51.20378],[1.39536,51.20483],[1.39555,51.20563],[1.39704,51.20631],[1.39846,51.20627],[1.3988,51.20546],[1.39984,51.20506],[1.3999,51.20419],[1.40173,51.20388],[1.40187,51.20507],[1.40242,51.20517],[1.4027,51.21019],[1.40421,51.21014]]]}},{"type":"Feature","properties":{"id":"E01024254","name":"E01024254","parent":"E07000108","type":"LSOA","pop":2517,"r":110,"ff":60,"ffd":2383.8,"ffs":0.6593,"g":18,"co":0,"mo":0,"sa":3,"ic":0},"geometry":{"type":"Polygon","coordinates":[[[1.28566,51.15975],[1.28587,51.15934],[1.28683,51.15953],[1.28751,51.15813],[1.28832,51.15707],[1.28903,51.15691],[1.28914,51.1573],[1.29009,51.157],[1.29236,51.15701],[1.29305,51.15743],[1.29405,51.15674],[1.29613,51.15757],[1.29739,51.15655],[1.29758,51.15618],[1.29576,51.15544],[1.29617,51.15502],[1.29975,51.15482],[1.30855,51.15359],[1.30925,51.1542],[1.31117,51.15312],[1.31138,51.14727],[1.31095,51.1454],[1.30123,51.15006],[1.30058,51.14944],[1.29715,51.1509],[1.29551,51.14997],[1.29495,51.14702],[1.29414,51.14422],[1.29195,51.14443],[1.29161,51.14387],[1.28761,51.14457],[1.28613,51.14259],[1.28268,51.14466],[1.27724,51.14707],[1.28077,51.14816],[1.28385,51.14955],[1.28696,51.15375],[1.28555,51.15471],[1.28563,51.15508],[1.27783,51.15783],[1.28145,51.15965],[1.28343,51.15977],[1.28454,51.16066],[1.28572,51.16065],[1.28608,51.16029],[1.28566,51.15975]]]}},{"type":"Feature","properties":{"id":"E01024255","name":"E01024255","parent":"E07000108","type":"LSOA","pop":1880,"r":106,"ff":57,"ffd":3031.9,"ffs":0.6552,"g":18,"co":0,"mo":0,"sa":3,"ic":0},"geometry":{"type":"Polygon","coordinates":[[[1.30121,51.17266],[1.29697,51.16815],[1.29839,51.16658],[1.29819,51.16514],[1.30025,51.16283],[1.29899,51.16088],[1.29516,51.16239],[1.29302,51.16144],[1.29208,51.16152],[1.29182,51.16024],[1.2892,51.16047],[1.28852,51.15775],[1.28914,51.1573],[1.28903,51.15691],[1.28832,51.15707],[1.28751,51.15813],[1.28683,51.15953],[1.28587,51.15934],[1.28566,51.15975],[1.28608,51.16029],[1.28572,51.16065],[1.28454,51.16066],[1.28343,51.15977],[1.28145,51.15965],[1.27783,51.15783],[1.26329,51.16343],[1.27047,51.16699],[1.27122,51.16686],[1.27239,51.16737],[1.27272,51.16709],[1.2825,51.17055],[1.28244,51.17103],[1.28492,51.17175],[1.28577,51.1698],[1.28748,51.17014],[1.29084,51.17167],[1.29798,51.17553],[1.29861,51.17461],[1.30121,51.17266]]]}},{"type":"Feature","properties":{"id":"E01024256","name":"E01024256","parent":"E07000108","type":"LSOA","pop":2176,"r":109,"ff":60,"ffd":2757.4,"ffs":0.6667,"g":18,"co":0,"mo":0,"sa":3,"ic":0},"geometry":{"type":"Polygon","coordinates":[[[1.30626,51.16898],[1.30731,51.16892],[1.30833,51.16936],[1.31144,51.16804],[1.31275,51.16779],[1.31342,51.16816],[1.31422,51.16718],[1.31862,51.16466],[1.31618,51.16199],[1.31092,51.1579],[1.31117,51.15312],[1.30925,51.1542],[1.30855,51.15359],[1.29975,51.15482],[1.29617,51.15502],[1.29576,51.15544],[1.29758,51.15618],[1.29739,51.15655],[1.29613,51.15757],[1.29405,51.15674],[1.29305,51.15743],[1.29236,51.15701],[1.29009,51.157],[1.28914,51.1573],[1.28852,51.15775],[1.2892,51.16047],[1.29182,51.16024],[1.29208,51.16152],[1.29302,51.16144],[1.29516,51.16239],[1.29899,51.16088],[1.30025,51.16283],[1.29819,51.16514],[1.29839,51.16658],[1.29697,51.16815],[1.30121,51.17266],[1.30529,51.16995],[1.30626,51.16898]]]}},{"type":"Feature","properties":{"id":"E01033209","name":"E01033209","parent":"E07000108","type":"LSOA","pop":1135,"r":108,"ff":60,"ffd":5286.3,"ffs":0.6593,"g":17,"co":0,"mo":0,"sa":3,"ic":0},"geometry":{"type":"Polygon","coordinates":[[[1.31814,51.13256],[1.32126,51.13165],[1.32564,51.13178],[1.32626,51.13145],[1.32935,51.13071],[1.33002,51.12927],[1.33105,51.12855],[1.33645,51.12997],[1.34125,51.13069],[1.34383,51.13147],[1.34256,51.13048],[1.34333,51.12177],[1.34301,51.12186],[1.34272,51.12689],[1.33934,51.1268],[1.33847,51.12743],[1.33853,51.12728],[1.33834,51.1274],[1.33892,51.12587],[1.33804,51.12727],[1.33666,51.12705],[1.33799,51.12494],[1.33679,51.12664],[1.33585,51.12633],[1.33694,51.12456],[1.33575,51.12631],[1.33448,51.12657],[1.33351,51.12625],[1.33431,51.12527],[1.33566,51.12427],[1.33404,51.12522],[1.33577,51.12392],[1.33331,51.12546],[1.33373,51.12504],[1.33333,51.12468],[1.32898,51.12325],[1.32753,51.12541],[1.32668,51.12564],[1.32193,51.12484],[1.32183,51.12504],[1.31963,51.12445],[1.31914,51.12476],[1.31788,51.12429],[1.31733,51.12477],[1.31831,51.12517],[1.31749,51.12595],[1.31773,51.12683],[1.31717,51.12712],[1.31567,51.12739],[1.31443,51.1281],[1.31511,51.12864],[1.3144,51.12904],[1.31492,51.12929],[1.31548,51.12889],[1.31618,51.12977],[1.31586,51.12957],[1.31341,51.13105],[1.31359,51.13115],[1.31348,51.13158],[1.30827,51.13364],[1.30713,51.13434],[1.30793,51.13538],[1.31014,51.137],[1.31059,51.13848],[1.31032,51.13904],[1.31416,51.14099],[1.31658,51.14271],[1.31912,51.14194],[1.31326,51.1378],[1.3148,51.13697],[1.31305,51.1358],[1.3159,51.13466],[1.31814,51.13256]]]}},{"type":"Feature","properties":{"id":"E01033210","name":"E01033210","parent":"E07000108","type":"LSOA","pop":2622,"r":108,"ff":60,"ffd":2288.3,"ffs":0.6667,"g":18,"co":0,"mo":0,"sa":3,"ic":0},"geometry":{"type":"Polygon","coordinates":[[[1.24057,51.17242],[1.2425,51.17125],[1.24418,51.17133],[1.24512,51.16928],[1.24687,51.16853],[1.25246,51.16725],[1.25337,51.16796],[1.26329,51.16343],[1.27783,51.15783],[1.28563,51.15508],[1.28555,51.15471],[1.28696,51.15375],[1.28385,51.14955],[1.28077,51.14816],[1.27724,51.14707],[1.27399,51.14896],[1.2726,51.14805],[1.26935,51.14807],[1.2666,51.14703],[1.26065,51.14569],[1.25983,51.14657],[1.26046,51.14688],[1.25967,51.14888],[1.25878,51.14868],[1.25849,51.14936],[1.25369,51.14853],[1.24531,51.14615],[1.2425,51.14808],[1.23301,51.14735],[1.22812,51.14876],[1.22453,51.14725],[1.22169,51.14789],[1.21499,51.14706],[1.21346,51.14909],[1.21092,51.14943],[1.21106,51.15148],[1.21081,51.15267],[1.20769,51.1568],[1.20304,51.15515],[1.19864,51.16142],[1.20177,51.16261],[1.20508,51.16323],[1.20629,51.16424],[1.20915,51.16728],[1.20759,51.16988],[1.20791,51.17106],[1.21472,51.1693],[1.21715,51.16922],[1.21824,51.1684],[1.22271,51.16988],[1.22538,51.17098],[1.22732,51.17043],[1.22903,51.17063],[1.2304,51.17148],[1.2331,51.17123],[1.23507,51.17056],[1.23724,51.17232],[1.24057,51.17242]]]}},{"type":"Feature","properties":{"id":"E01033211","name":"E01033211","parent":"E07000108","type":"LSOA","pop":1592,"r":108,"ff":60,"ffd":3768.8,"ffs":0.6593,"g":17,"co":0,"mo":0,"sa":3,"ic":0},"geometry":{"type":"Polygon","coordinates":[[[1.31552,51.12975],[1.31586,51.12957],[1.31618,51.12977],[1.31548,51.12889],[1.31492,51.12929],[1.3144,51.12904],[1.31511,51.12864],[1.31443,51.1281],[1.31567,51.12739],[1.31717,51.12712],[1.31773,51.12683],[1.31749,51.12595],[1.31831,51.12517],[1.31733,51.12477],[1.31788,51.12429],[1.31914,51.12476],[1.31963,51.12445],[1.32183,51.12504],[1.32193,51.12484],[1.32,51.12441],[1.3202,51.12416],[1.31995,51.12441],[1.31651,51.12304],[1.3157,51.12215],[1.31452,51.12292],[1.31421,51.12355],[1.31325,51.12349],[1.31022,51.12617],[1.31281,51.12766],[1.31237,51.12795],[1.31212,51.12772],[1.31139,51.12788],[1.31018,51.12845],[1.3108,51.12928],[1.31041,51.12951],[1.31069,51.12973],[1.31341,51.13105],[1.31552,51.12975]]]}},{"type":"Feature","properties":{"id":"E01035312","name":"E01035312","parent":"E07000108","type":"LSOA","pop":1813,"r":36,"ff":20,"ffd":1103.1,"ffs":0.7692,"g":9,"co":0,"mo":2,"sa":1,"ic":0},"geometry":{"type":"Polygon","coordinates":[[[1.39395,51.25654],[1.39939,51.24636],[1.40239,51.23865],[1.39686,51.23665],[1.39569,51.23536],[1.39306,51.23363],[1.39106,51.23424],[1.39034,51.23418],[1.38832,51.23621],[1.38491,51.23708],[1.38187,51.23416],[1.38343,51.23364],[1.38456,51.23189],[1.38488,51.23038],[1.38615,51.22891],[1.38428,51.22738],[1.38318,51.22562],[1.38455,51.22487],[1.38244,51.22331],[1.38373,51.22212],[1.38458,51.22242],[1.38678,51.22211],[1.38794,51.22124],[1.38759,51.2207],[1.38576,51.22011],[1.38504,51.22098],[1.38422,51.22093],[1.38378,51.22146],[1.38225,51.22115],[1.38206,51.22137],[1.37963,51.2206],[1.37929,51.22136],[1.38002,51.22233],[1.37753,51.22296],[1.37763,51.22373],[1.37696,51.22415],[1.37613,51.22412],[1.37631,51.2236],[1.37499,51.22305],[1.37413,51.22373],[1.3724,51.22294],[1.3698,51.22503],[1.36872,51.22434],[1.36621,51.22626],[1.36674,51.22654],[1.36318,51.22909],[1.36131,51.23136],[1.35685,51.23488],[1.35369,51.23902],[1.3565,51.23961],[1.36086,51.24252],[1.36099,51.24336],[1.36341,51.24453],[1.36379,51.24508],[1.36344,51.24562],[1.36437,51.24574],[1.3636,51.24652],[1.36481,51.24653],[1.3646,51.2474],[1.36576,51.24719],[1.36685,51.24778],[1.36646,51.24831],[1.36712,51.24867],[1.36678,51.24918],[1.3671,51.24933],[1.36835,51.24895],[1.36856,51.24997],[1.36892,51.25021],[1.36809,51.25042],[1.36796,51.25084],[1.36962,51.25196],[1.37208,51.25167],[1.37316,51.25122],[1.37379,51.25158],[1.37476,51.25161],[1.38117,51.25019],[1.38463,51.25365],[1.3854,51.25384],[1.38556,51.25445],[1.3886,51.25486],[1.39395,51.25654]]]}},{"type":"Feature","properties":{"id":"E01035313","name":"E01035313","parent":"E07000108","type":"LSOA","pop":1505,"r":39,"ff":20,"ffd":1328.9,"ffs":0.7407,"g":11,"co":0,"mo":2,"sa":1,"ic":0},"geometry":{"type":"Polygon","coordinates":[[[1.3901,51.22238],[1.38794,51.22124],[1.38678,51.22211],[1.38573,51.22238],[1.38523,51.22225],[1.38458,51.22242],[1.38373,51.22212],[1.38244,51.22331],[1.38455,51.22487],[1.38318,51.22562],[1.38428,51.22738],[1.38891,51.22512],[1.39041,51.22505],[1.39061,51.22446],[1.39184,51.22389],[1.39132,51.22322],[1.3901,51.22238]]]}},{"type":"Feature","properties":{"id":"E01035314","name":"E01035314","parent":"E07000108","type":"LSOA","pop":2290,"r":10,"ff":10,"ffd":436.7,"ffs":1.0,"g":0,"co":1,"mo":1,"sa":3,"ic":1},"geometry":{"type":"Polygon","coordinates":[[[1.20219,51.23055],[1.20113,51.23004],[1.20038,51.23007],[1.20012,51.22949],[1.2001,51.22974],[1.19959,51.22957],[1.19989,51.22924],[1.19914,51.22937],[1.19965,51.22971],[1.19856,51.22978],[1.1991,51.2293],[1.19882,51.22864],[1.19926,51.22875],[1.20082,51.22726],[1.2005,51.22669],[1.20011,51.22655],[1.1995,51.22686],[1.19805,51.22586],[1.19779,51.22708],[1.19701,51.22771],[1.19618,51.22806],[1.19628,51.22622],[1.19698,51.22545],[1.19642,51.22511],[1.19536,51.22512],[1.19517,51.22537],[1.19463,51.22522],[1.19376,51.22608],[1.19454,51.22659],[1.19549,51.22887],[1.19313,51.22937],[1.19546,51.23213],[1.19703,51.23546],[1.19883,51.23532],[1.20194,51.23384],[1.20111,51.23249],[1.20131,51.23154],[1.20228,51.23138],[1.20219,51.23055]]]}},{"type":"Feature","properties":{"id":"E01035315","name":"E01035315","parent":"E07000108","type":"LSOA","pop":2058,"r":10,"ff":10,"ffd":485.9,"ffs":1.0,"g":0,"co":1,"mo":1,"sa":3,"ic":1},"geometry":{"type":"Polygon","coordinates":[[[1.20297,51.23334],[1.20568,51.23308],[1.21002,51.23317],[1.21219,51.23108],[1.21275,51.22871],[1.21008,51.22676],[1.2081,51.22613],[1.20771,51.22564],[1.20397,51.22528],[1.20389,51.22557],[1.20445,51.2258],[1.20577,51.22597],[1.20565,51.22689],[1.20443,51.22643],[1.20424,51.22674],[1.2045,51.22757],[1.20569,51.22857],[1.20477,51.22901],[1.20382,51.22821],[1.20345,51.22855],[1.20296,51.22816],[1.20246,51.22848],[1.20082,51.22726],[1.19926,51.22875],[1.19882,51.22864],[1.1991,51.2293],[1.19856,51.22978],[1.19965,51.22971],[1.19914,51.22937],[1.19989,51.22924],[1.19959,51.22957],[1.2001,51.22974],[1.20012,51.22949],[1.20038,51.23007],[1.20113,51.23004],[1.20219,51.23055],[1.20228,51.23138],[1.20131,51.23154],[1.20111,51.23249],[1.20194,51.23384],[1.20297,51.23334]]]}}]}