{"type":"FeatureCollection","features":[{"type":"Feature","properties":{"id":"E01024486","name":"E01024486","parent":"E07000112","type":"LSOA","pop":1881,"r":17,"ff":9,"ffd":478.5,"ffs":0.5625,"g":1,"co":3,"mo":3,"sa":3,"ic":1},"geometry":{"type":"Polygon","coordinates":[[[0.98717,51.03852],[0.98798,51.03736],[0.98943,51.03671],[0.99073,51.03649],[0.99194,51.03691],[0.99341,51.03689],[0.99534,51.03631],[0.99836,51.03479],[0.99927,51.03565],[1.0043,51.03656],[1.00432,51.03616],[0.99926,51.03211],[1.00007,51.03193],[1.00376,51.03235],[1.00123,51.02988],[1.00118,51.02945],[1.00204,51.02958],[1.00281,51.02906],[1.00764,51.03227],[1.0115,51.03448],[1.01098,51.0346],[1.01338,51.03536],[1.01375,51.03513],[1.0068,51.03163],[0.99675,51.02459],[0.98989,51.01882],[0.98454,51.01342],[0.98242,51.01451],[0.98,51.01683],[0.97769,51.01743],[0.97563,51.01999],[0.97393,51.0198],[0.97241,51.02112],[0.97077,51.02124],[0.97072,51.02245],[0.9694,51.02234],[0.96902,51.02391],[0.96872,51.02412],[0.97119,51.02947],[0.97089,51.02995],[0.97195,51.03034],[0.97297,51.03129],[0.97735,51.03022],[0.97922,51.03032],[0.97972,51.03061],[0.98,51.02939],[0.98093,51.02973],[0.98083,51.03097],[0.97945,51.03149],[0.97762,51.03358],[0.97836,51.03452],[0.98034,51.03502],[0.97996,51.03581],[0.98272,51.03629],[0.98076,51.03762],[0.98314,51.03856],[0.9845,51.03781],[0.98561,51.03849],[0.98717,51.03852]]]}},{"type":"Feature","properties":{"id":"E01024487","name":"E01024487","parent":"E07000112","type":"LSOA","pop":1382,"r":17,"ff":9,"ffd":651.2,"ffs":0.5625,"g":1,"co":3,"mo":3,"sa":3,"ic":1},"geometry":{"type":"Polygon","coordinates":[[[0.97737,51.0179],[0.97769,51.01743],[0.98,51.01683],[0.98242,51.01451],[0.98454,51.01342],[0.9773,51.00273],[0.97623,51.0028],[0.97485,51.00443],[0.97478,51.00531],[0.96981,51.0026],[0.96435,50.99884],[0.9604,50.99674],[0.96057,50.9982],[0.96131,50.9994],[0.96461,51.00228],[0.96738,51.00391],[0.96907,51.00353],[0.97083,51.00374],[0.97202,51.00508],[0.97164,51.00543],[0.97111,51.0054],[0.9713,51.00592],[0.97193,51.00603],[0.97296,51.00511],[0.97369,51.00548],[0.97275,51.00602],[0.97652,51.00636],[0.97666,51.00604],[0.97759,51.00679],[0.97708,51.00713],[0.97732,51.00797],[0.97808,51.00855],[0.97688,51.00917],[0.97603,51.00901],[0.97586,51.00929],[0.97522,51.00916],[0.97514,51.00937],[0.97624,51.00974],[0.97428,51.01123],[0.97468,51.01163],[0.97374,51.01227],[0.97336,51.01208],[0.97246,51.01278],[0.9701,51.01364],[0.96808,51.01392],[0.96749,51.01573],[0.96994,51.01569],[0.9703,51.01648],[0.97256,51.01622],[0.97466,51.01795],[0.97557,51.01768],[0.97619,51.01824],[0.97737,51.0179]]]}},{"type":"Feature","properties":{"id":"E01024488","name":"E01024488","parent":"E07000112","type":"LSOA","pop":1268,"r":17,"ff":9,"ffd":709.8,"ffs":0.5625,"g":1,"co":3,"mo":3,"sa":3,"ic":1},"geometry":{"type":"Polygon","coordinates":[[[0.97246,51.01278],[0.97336,51.01208],[0.97374,51.01227],[0.97468,51.01163],[0.97428,51.01123],[0.97624,51.00974],[0.97514,51.00937],[0.97522,51.00916],[0.97586,51.00929],[0.97603,51.00901],[0.97688,51.00917],[0.97808,51.00855],[0.97732,51.00797],[0.97708,51.00713],[0.97759,51.00679],[0.97666,51.00604],[0.97652,51.00636],[0.97275,51.00602],[0.97369,51.00548],[0.97296,51.00511],[0.97193,51.00603],[0.9713,51.00592],[0.97111,51.0054],[0.97164,51.00543],[0.97202,51.00508],[0.97083,51.00374],[0.96907,51.00353],[0.96738,51.00391],[0.96811,51.00471],[0.96981,51.0089],[0.96807,51.01151],[0.96992,51.01265],[0.96781,51.01365],[0.96808,51.01392],[0.9701,51.01364],[0.97246,51.01278]]]}},{"type":"Feature","properties":{"id":"E01024489","name":"E01024489","parent":"E07000112","type":"LSOA","pop":1602,"r":16,"ff":10,"ffd":624.2,"ffs":0.625,"g":0,"co":3,"mo":3,"sa":3,"ic":1},"geometry":{"type":"Polygon","coordinates":[[[1.02856,51.05629],[1.03397,51.04751],[1.03462,51.04704],[1.02105,51.03945],[1.01631,51.03642],[1.01375,51.03513],[1.01338,51.03536],[1.01098,51.0346],[1.0115,51.03448],[1.00764,51.03227],[1.00281,51.02906],[1.00204,51.02958],[1.00118,51.02945],[1.00123,51.02988],[1.00376,51.03235],[1.00007,51.03193],[0.99926,51.03211],[1.00432,51.03616],[1.00424,51.03687],[1.00525,51.0369],[1.00573,51.03725],[1.00614,51.03804],[1.0066,51.03796],[1.00777,51.03868],[1.0088,51.04065],[1.01045,51.04036],[1.01162,51.04067],[1.01216,51.0412],[1.01349,51.04105],[1.01402,51.04188],[1.01482,51.04205],[1.01566,51.04306],[1.01679,51.04368],[1.01704,51.04481],[1.01843,51.04482],[1.019,51.04625],[1.01873,51.04782],[1.01994,51.04946],[1.02031,51.05161],[1.02051,51.05176],[1.02087,51.05137],[1.02168,51.05129],[1.02522,51.05264],[1.02762,51.05424],[1.02856,51.05629]]]}},{"type":"Feature","properties":{"id":"E01024490","name":"E01024490","parent":"E07000112","type":"LSOA","pop":1991,"r":5,"ff":5,"ffd":251.1,"ffs":1.0,"g":0,"co":3,"mo":3,"sa":3,"ic":3},"geometry":{"type":"Polygon","coordinates":[[[1.08976,51.18973],[1.0912,51.18902],[1.09245,51.18932],[1.095,51.18865],[1.09731,51.18892],[1.10897,51.18696],[1.11274,51.18865],[1.11359,51.18952],[1.11509,51.19423],[1.1148,51.19695],[1.11815,51.19633],[1.11846,51.19614],[1.11776,51.19362],[1.11796,51.19259],[1.1167,51.19091],[1.11603,51.1878],[1.12036,51.18657],[1.1232,51.18632],[1.12688,51.18555],[1.13134,51.1857],[1.13451,51.18494],[1.13856,51.18332],[1.14001,51.1816],[1.14379,51.17851],[1.14764,51.17718],[1.1442,51.1737],[1.14278,51.16906],[1.14376,51.16574],[1.15201,51.16324],[1.15379,51.16237],[1.15336,51.16245],[1.15359,51.16216],[1.15123,51.16004],[1.15037,51.15755],[1.15145,51.15515],[1.14926,51.15121],[1.14999,51.14832],[1.14849,51.14628],[1.1481,51.14656],[1.14633,51.14655],[1.14269,51.14748],[1.13976,51.14782],[1.13797,51.14564],[1.13706,51.14362],[1.13491,51.14293],[1.12981,51.137],[1.12605,51.13465],[1.12108,51.13305],[1.11985,51.13184],[1.11874,51.13134],[1.11824,51.12999],[1.12008,51.12907],[1.12111,51.12794],[1.11909,51.12736],[1.11869,51.12578],[1.11717,51.12503],[1.11492,51.12539],[1.11442,51.12514],[1.11173,51.12941],[1.11051,51.13062],[1.10923,51.13059],[1.10577,51.12936],[1.10355,51.13135],[1.10121,51.13281],[1.09675,51.13326],[1.09173,51.13491],[1.08536,51.13792],[1.08437,51.13773],[1.08183,51.13863],[1.08052,51.13955],[1.07777,51.1402],[1.07485,51.14419],[1.08008,51.15057],[1.08133,51.15133],[1.08413,51.15518],[1.08555,51.15659],[1.08602,51.15773],[1.08615,51.15914],[1.08532,51.16074],[1.08381,51.16263],[1.08079,51.16387],[1.0775,51.16732],[1.07596,51.16616],[1.07488,51.16579],[1.07276,51.16755],[1.07113,51.16604],[1.06935,51.16329],[1.06385,51.16236],[1.05836,51.15857],[1.05605,51.15745],[1.0569,51.15821],[1.0563,51.15854],[1.05623,51.16023],[1.05172,51.16218],[1.0551,51.19173],[1.05826,51.205],[1.05941,51.20483],[1.06073,51.20379],[1.06391,51.20215],[1.06654,51.20127],[1.07014,51.20074],[1.06997,51.19936],[1.07706,51.19494],[1.07829,51.19298],[1.08036,51.19165],[1.08525,51.19026],[1.08976,51.18973]]]}},{"type":"Feature","properties":{"id":"E01024491","name":"E01024491","parent":"E07000112","type":"LSOA","pop":1459,"r":138,"ff":54,"ffd":3701.2,"ffs":0.4865,"g":26,"co":0,"mo":0,"sa":0,"ic":0},"geometry":{"type":"Polygon","coordinates":[[[1.13853,51.0908],[1.1377,51.08824],[1.13847,51.08813],[1.13863,51.08773],[1.14066,51.08809],[1.14028,51.0897],[1.14097,51.0901],[1.14275,51.08986],[1.14246,51.08876],[1.1431,51.08871],[1.14292,51.08811],[1.14166,51.08791],[1.14105,51.08655],[1.14019,51.08671],[1.14008,51.08638],[1.13822,51.08577],[1.13671,51.08586],[1.13632,51.08532],[1.13506,51.08512],[1.13508,51.08577],[1.13463,51.08586],[1.13528,51.08615],[1.13429,51.08651],[1.13529,51.0869],[1.13523,51.08662],[1.13651,51.08633],[1.13678,51.0872],[1.13715,51.08721],[1.13629,51.08733],[1.13659,51.0877],[1.1374,51.08752],[1.13752,51.08775],[1.13583,51.0884],[1.13564,51.0879],[1.13434,51.08846],[1.13457,51.08867],[1.13418,51.08889],[1.13441,51.08924],[1.13544,51.08889],[1.13611,51.09025],[1.13674,51.09018],[1.13699,51.09094],[1.13853,51.0908]]]}},{"type":"Feature","properties":{"id":"E01024492","name":"E01024492","parent":"E07000112","type":"LSOA","pop":1606,"r":138,"ff":54,"ffd":3362.4,"ffs":0.4865,"g":26,"co":0,"mo":0,"sa":0,"ic":0},"geometry":{"type":"Polygon","coordinates":[[[1.14113,51.10232],[1.14485,51.10156],[1.1473,51.10173],[1.14983,51.10128],[1.15702,51.10157],[1.15974,51.10124],[1.15979,51.10008],[1.1603,51.09994],[1.15888,51.09953],[1.15748,51.09696],[1.15577,51.09651],[1.15548,51.09605],[1.14779,51.09552],[1.14765,51.09506],[1.14637,51.09495],[1.14652,51.09445],[1.14605,51.09408],[1.14652,51.09351],[1.14305,51.09366],[1.14276,51.09295],[1.142,51.09237],[1.1391,51.09262],[1.13889,51.09193],[1.14012,51.09184],[1.14074,51.09209],[1.14105,51.09174],[1.14054,51.09149],[1.14173,51.09139],[1.14099,51.09091],[1.14097,51.0901],[1.14028,51.0897],[1.14066,51.08809],[1.13863,51.08773],[1.13847,51.08813],[1.1377,51.08824],[1.13853,51.0908],[1.13699,51.09094],[1.13674,51.09018],[1.13611,51.09025],[1.13544,51.08889],[1.13441,51.08924],[1.13418,51.08889],[1.13284,51.08974],[1.13321,51.08973],[1.1329,51.09093],[1.1334,51.0912],[1.13481,51.09071],[1.13502,51.09088],[1.13327,51.09153],[1.13292,51.09199],[1.13442,51.09272],[1.13408,51.09323],[1.13622,51.09387],[1.13483,51.09511],[1.13442,51.09507],[1.13277,51.09673],[1.13624,51.09706],[1.13528,51.09801],[1.12981,51.0976],[1.12554,51.09772],[1.12635,51.0996],[1.12723,51.09999],[1.1271,51.10037],[1.12919,51.10075],[1.13112,51.10065],[1.13137,51.10096],[1.13762,51.10244],[1.14113,51.10232]]]}},{"type":"Feature","properties":{"id":"E01024493","name":"E01024493","parent":"E07000112","type":"LSOA","pop":1578,"r":138,"ff":54,"ffd":3422.1,"ffs":0.4865,"g":26,"co":0,"mo":0,"sa":0,"ic":0},"geometry":{"type":"Polygon","coordinates":[[[1.14652,51.09351],[1.14638,51.09236],[1.14545,51.09243],[1.14581,51.09144],[1.14573,51.09103],[1.14601,51.09086],[1.14499,51.08857],[1.1455,51.08841],[1.14538,51.08817],[1.14437,51.08835],[1.1442,51.08796],[1.14292,51.08811],[1.1431,51.08871],[1.14246,51.08876],[1.14275,51.08986],[1.14097,51.0901],[1.14099,51.09091],[1.14173,51.09139],[1.14054,51.09149],[1.14105,51.09174],[1.14074,51.09209],[1.14012,51.09184],[1.13889,51.09193],[1.1391,51.09262],[1.142,51.09237],[1.14276,51.09295],[1.14305,51.09366],[1.14652,51.09351]]]}},{"type":"Feature","properties":{"id":"E01024494","name":"E01024494","parent":"E07000112","type":"LSOA","pop":2037,"r":137,"ff":53,"ffd":2601.9,"ffs":0.4818,"g":26,"co":0,"mo":0,"sa":0,"ic":0},"geometry":{"type":"Polygon","coordinates":[[[1.13528,51.09801],[1.13624,51.09706],[1.13277,51.09673],[1.13442,51.09507],[1.13483,51.09511],[1.13622,51.09387],[1.13408,51.09323],[1.13442,51.09272],[1.13292,51.09199],[1.13327,51.09153],[1.13502,51.09088],[1.13481,51.09071],[1.1334,51.0912],[1.1329,51.09093],[1.13321,51.08973],[1.13284,51.08974],[1.13457,51.08867],[1.13434,51.08846],[1.13564,51.0879],[1.13583,51.0884],[1.13752,51.08775],[1.1374,51.08752],[1.13659,51.0877],[1.13629,51.08733],[1.13715,51.08721],[1.13678,51.0872],[1.13651,51.08633],[1.13523,51.08662],[1.13529,51.0869],[1.13429,51.08651],[1.13528,51.08615],[1.13463,51.08586],[1.13508,51.08577],[1.13506,51.08512],[1.13332,51.08437],[1.13231,51.08447],[1.13016,51.08401],[1.13044,51.08472],[1.12963,51.08481],[1.12905,51.08332],[1.12993,51.08072],[1.12731,51.0814],[1.1262,51.08139],[1.12547,51.08177],[1.12484,51.08168],[1.1235,51.08248],[1.12443,51.0832],[1.12461,51.08452],[1.12263,51.08521],[1.12468,51.08716],[1.12553,51.0885],[1.1193,51.08961],[1.12173,51.09292],[1.12274,51.09349],[1.12248,51.09382],[1.12487,51.09645],[1.12554,51.09772],[1.12981,51.0976],[1.13528,51.09801]]]}},{"type":"Feature","properties":{"id":"E01024495","name":"E01024495","parent":"E07000112","type":"LSOA","pop":2504,"r":140,"ff":54,"ffd":2156.5,"ffs":0.4779,"g":26,"co":0,"mo":0,"sa":0,"ic":0},"geometry":{"type":"Polygon","coordinates":[[[1.1419,51.08616],[1.14081,51.08562],[1.14186,51.08555],[1.14171,51.08237],[1.14103,51.08228],[1.14087,51.08194],[1.13924,51.08226],[1.13826,51.08166],[1.13754,51.07974],[1.12993,51.08072],[1.12905,51.08332],[1.12963,51.08481],[1.13044,51.08472],[1.13016,51.08401],[1.13231,51.08447],[1.13332,51.08437],[1.13506,51.08512],[1.13632,51.08532],[1.13671,51.08586],[1.13822,51.08577],[1.14008,51.08638],[1.14019,51.08671],[1.1408,51.08665],[1.1419,51.08616]]]}},{"type":"Feature","properties":{"id":"E01024496","name":"E01024496","parent":"E07000112","type":"LSOA","pop":1409,"r":134,"ff":52,"ffd":3690.6,"ffs":0.486,"g":26,"co":0,"mo":0,"sa":0,"ic":0},"geometry":{"type":"Polygon","coordinates":[[[1.18902,51.0968],[1.18984,51.09562],[1.18899,51.09552],[1.18848,51.09594],[1.18709,51.09604],[1.18674,51.09556],[1.18722,51.09538],[1.18673,51.0949],[1.18509,51.09525],[1.18465,51.09438],[1.1838,51.09447],[1.18363,51.09413],[1.18309,51.09381],[1.18213,51.09428],[1.18129,51.09435],[1.18153,51.09354],[1.18009,51.09298],[1.17931,51.09431],[1.1794,51.09492],[1.17352,51.09536],[1.1693,51.09707],[1.16736,51.09733],[1.15813,51.09483],[1.15664,51.09519],[1.15548,51.09605],[1.15577,51.09651],[1.15748,51.09696],[1.15888,51.09953],[1.1603,51.09994],[1.15979,51.10008],[1.15974,51.10124],[1.16381,51.10148],[1.16603,51.10281],[1.17193,51.10525],[1.17319,51.10358],[1.17546,51.10234],[1.18219,51.1],[1.1848,51.09985],[1.18457,51.09922],[1.1867,51.09861],[1.18606,51.09848],[1.18736,51.09739],[1.18902,51.0968]]]}},{"type":"Feature","properties":{"id":"E01024497","name":"E01024497","parent":"E07000112","type":"LSOA","pop":1561,"r":132,"ff":51,"ffd":3267.1,"ffs":0.4857,"g":26,"co":0,"mo":0,"sa":0,"ic":0},"geometry":{"type":"Polygon","coordinates":[[[1.21571,51.09825],[1.20173,51.09287],[1.18695,51.08676],[1.18939,51.08954],[1.18556,51.09084],[1.18649,51.09178],[1.18714,51.09119],[1.18873,51.09083],[1.18897,51.09122],[1.18774,51.09163],[1.18794,51.09225],[1.18726,51.09259],[1.18706,51.09331],[1.18792,51.09285],[1.18889,51.09286],[1.18936,51.09219],[1.19053,51.09194],[1.19009,51.09243],[1.19054,51.09452],[1.19277,51.09445],[1.19042,51.09518],[1.18984,51.09562],[1.18902,51.0968],[1.18736,51.09739],[1.18606,51.09848],[1.1867,51.09861],[1.18457,51.09922],[1.1848,51.09985],[1.19526,51.09674],[1.19913,51.09697],[1.20205,51.09887],[1.20266,51.09961],[1.2043,51.09897],[1.20439,51.0972],[1.20617,51.09789],[1.20914,51.09845],[1.20904,51.09897],[1.20945,51.09923],[1.21326,51.09971],[1.21389,51.10017],[1.21953,51.10135],[1.22047,51.10121],[1.22086,51.09947],[1.21571,51.09825]]]}},{"type":"Feature","properties":{"id":"E01024498","name":"E01024498","parent":"E07000112","type":"LSOA","pop":1611,"r":134,"ff":52,"ffd":3227.8,"ffs":0.486,"g":26,"co":0,"mo":0,"sa":0,"ic":0},"geometry":{"type":"Polygon","coordinates":[[[1.18848,51.09594],[1.18899,51.09552],[1.18984,51.09562],[1.19042,51.09518],[1.19277,51.09445],[1.19054,51.09452],[1.19009,51.09243],[1.19053,51.09194],[1.18936,51.09219],[1.18889,51.09286],[1.18792,51.09285],[1.18706,51.09331],[1.18726,51.09259],[1.18794,51.09225],[1.18774,51.09163],[1.18897,51.09122],[1.18873,51.09083],[1.18714,51.09119],[1.18649,51.09178],[1.18556,51.09084],[1.18172,51.09211],[1.18129,51.09435],[1.18213,51.09428],[1.18309,51.09381],[1.18363,51.09413],[1.1838,51.09447],[1.18465,51.09438],[1.18509,51.09525],[1.18673,51.0949],[1.18722,51.09538],[1.18674,51.09556],[1.18709,51.09604],[1.18848,51.09594]]]}},{"type":"Feature","properties":{"id":"E01024499","name":"E01024499","parent":"E07000112","type":"LSOA","pop":1648,"r":133,"ff":51,"ffd":3094.7,"ffs":0.4811,"g":26,"co":0,"mo":0,"sa":0,"ic":0},"geometry":{"type":"Polygon","coordinates":[[[1.18887,51.08969],[1.18939,51.08954],[1.18702,51.0869],[1.18626,51.08756],[1.18657,51.08799],[1.18602,51.08867],[1.18568,51.08879],[1.18589,51.08961],[1.1846,51.08839],[1.18476,51.08861],[1.1841,51.08882],[1.18453,51.08938],[1.18357,51.08975],[1.18316,51.08927],[1.18346,51.08877],[1.18237,51.089],[1.18198,51.08858],[1.18068,51.08899],[1.1814,51.09051],[1.18172,51.09211],[1.18887,51.08969]]]}},{"type":"Feature","properties":{"id":"E01024500","name":"E01024500","parent":"E07000112","type":"LSOA","pop":1288,"r":133,"ff":51,"ffd":3959.6,"ffs":0.4811,"g":26,"co":0,"mo":0,"sa":0,"ic":0},"geometry":{"type":"Polygon","coordinates":[[[1.1841,51.08882],[1.18476,51.08861],[1.1846,51.08839],[1.18589,51.08961],[1.18568,51.08879],[1.18602,51.08867],[1.18657,51.08799],[1.18626,51.08756],[1.18702,51.0869],[1.18695,51.08676],[1.17996,51.0841],[1.17963,51.08493],[1.18168,51.08566],[1.1805,51.08621],[1.18062,51.08651],[1.18199,51.08665],[1.18233,51.08714],[1.18133,51.08794],[1.18123,51.08825],[1.18157,51.08869],[1.18198,51.08858],[1.18237,51.089],[1.18346,51.08877],[1.18316,51.08927],[1.18357,51.08975],[1.18453,51.08938],[1.1841,51.08882]]]}},{"type":"Feature","properties":{"id":"E01024501","name":"E01024501","parent":"E07000112","type":"LSOA","pop":1483,"r":134,"ff":51,"ffd":3439.0,"ffs":0.4766,"g":26,"co":0,"mo":0,"sa":0,"ic":0},"geometry":{"type":"Polygon","coordinates":[[[1.18157,51.08869],[1.18123,51.08825],[1.18133,51.08794],[1.18233,51.08714],[1.18199,51.08665],[1.18062,51.08651],[1.18039,51.08713],[1.1794,51.08702],[1.17941,51.08724],[1.17878,51.08733],[1.17834,51.08652],[1.17797,51.08621],[1.17711,51.08665],[1.17672,51.08625],[1.17567,51.08652],[1.17602,51.08856],[1.17818,51.08872],[1.18026,51.0886],[1.18068,51.08899],[1.18157,51.08869]]]}},{"type":"Feature","properties":{"id":"E01024502","name":"E01024502","parent":"E07000112","type":"LSOA","pop":1534,"r":134,"ff":51,"ffd":3324.6,"ffs":0.4766,"g":26,"co":0,"mo":0,"sa":0,"ic":0},"geometry":{"type":"Polygon","coordinates":[[[1.17567,51.08652],[1.17672,51.08625],[1.17711,51.08665],[1.17797,51.08621],[1.17834,51.08652],[1.17878,51.08733],[1.17941,51.08724],[1.1794,51.08702],[1.18039,51.08713],[1.18062,51.08651],[1.1805,51.08621],[1.18168,51.08566],[1.17963,51.08493],[1.17996,51.0841],[1.17677,51.08332],[1.1732,51.08527],[1.17415,51.08612],[1.17502,51.08656],[1.17473,51.08836],[1.17602,51.08856],[1.17567,51.08652]]]}},{"type":"Feature","properties":{"id":"E01024503","name":"E01024503","parent":"E07000112","type":"LSOA","pop":1719,"r":132,"ff":51,"ffd":2966.8,"ffs":0.4857,"g":26,"co":0,"mo":0,"sa":0,"ic":0},"geometry":{"type":"Polygon","coordinates":[[[1.21038,51.09432],[1.20889,51.09372],[1.20847,51.09413],[1.20571,51.09271],[1.2013,51.08868],[1.20109,51.08499],[1.19932,51.08319],[1.19528,51.08277],[1.19497,51.08326],[1.19138,51.0827],[1.19091,51.08303],[1.19119,51.08355],[1.19174,51.08357],[1.19214,51.08396],[1.18897,51.08509],[1.18934,51.08561],[1.18845,51.08609],[1.18795,51.08601],[1.18813,51.08645],[1.18746,51.08643],[1.18686,51.08672],[1.20173,51.09287],[1.21571,51.09825],[1.22086,51.09947],[1.22119,51.0981],[1.21555,51.09716],[1.21328,51.09621],[1.21038,51.09432]]]}},{"type":"Feature","properties":{"id":"E01024504","name":"E01024504","parent":"E07000112","type":"LSOA","pop":1927,"r":135,"ff":51,"ffd":2646.6,"ffs":0.4722,"g":26,"co":0,"mo":0,"sa":0,"ic":0},"geometry":{"type":"MultiPolygon","coordinates":[[[[1.19009,51.08078],[1.18992,51.08037],[1.19003,51.08082],[1.19009,51.08078]]],[[[1.18534,51.08445],[1.18583,51.08381],[1.18636,51.08407],[1.18669,51.08364],[1.18731,51.08383],[1.18814,51.08336],[1.18775,51.08301],[1.18912,51.08254],[1.18848,51.08217],[1.18708,51.08233],[1.18674,51.08197],[1.18833,51.08138],[1.18818,51.08111],[1.18731,51.08115],[1.18601,51.08194],[1.18537,51.08095],[1.18604,51.08091],[1.18629,51.08032],[1.18966,51.08104],[1.19001,51.08083],[1.18738,51.08029],[1.18551,51.07942],[1.1862,51.07849],[1.18994,51.07906],[1.18962,51.07796],[1.19148,51.07673],[1.19249,51.07627],[1.19494,51.07597],[1.19211,51.07615],[1.18981,51.07739],[1.18874,51.07679],[1.18652,51.07638],[1.18571,51.07634],[1.18538,51.07713],[1.18438,51.07695],[1.18426,51.07721],[1.18523,51.07739],[1.18445,51.07799],[1.18403,51.07889],[1.18527,51.0795],[1.18535,51.07992],[1.18501,51.08039],[1.18359,51.08061],[1.18123,51.08232],[1.18188,51.08288],[1.18296,51.08319],[1.18252,51.08386],[1.18534,51.08445]]]]}},{"type":"Feature","properties":{"id":"E01024505","name":"E01024505","parent":"E07000112","type":"LSOA","pop":1816,"r":134,"ff":51,"ffd":2808.4,"ffs":0.4766,"g":26,"co":0,"mo":0,"sa":0,"ic":0},"geometry":{"type":"Polygon","coordinates":[[[1.18686,51.08672],[1.18746,51.08643],[1.18813,51.08645],[1.18795,51.08601],[1.18845,51.08609],[1.18934,51.08561],[1.18897,51.08509],[1.19214,51.08396],[1.19174,51.08357],[1.19119,51.08355],[1.19091,51.08303],[1.19138,51.0827],[1.19497,51.08326],[1.19528,51.08277],[1.19156,51.08206],[1.19017,51.08133],[1.19026,51.08107],[1.18972,51.07956],[1.19009,51.08078],[1.18966,51.08104],[1.18629,51.08032],[1.18604,51.08091],[1.18537,51.08095],[1.18601,51.08194],[1.18731,51.08115],[1.18818,51.08111],[1.18833,51.08138],[1.18674,51.08197],[1.18708,51.08233],[1.18848,51.08217],[1.18912,51.08254],[1.18775,51.08301],[1.18814,51.08336],[1.18731,51.08383],[1.18669,51.08364],[1.18636,51.08407],[1.18583,51.08381],[1.18534,51.08445],[1.18252,51.08386],[1.18229,51.08404],[1.18332,51.08441],[1.18036,51.08376],[1.18009,51.08413],[1.18686,51.08672]]]}},{"type":"Feature","properties":{"id":"E01024507","name":"E01024507","parent":"E07000112","type":"LSOA","pop":1894,"r":136,"ff":51,"ffd":2692.7,"ffs":0.4679,"g":26,"co":0,"mo":0,"sa":0,"ic":0},"geometry":{"type":"Polygon","coordinates":[[[1.18252,51.08386],[1.18296,51.08319],[1.18188,51.08288],[1.18123,51.08232],[1.17944,51.08241],[1.17862,51.08213],[1.17886,51.08169],[1.17847,51.08147],[1.17828,51.08164],[1.17669,51.08077],[1.17528,51.08129],[1.17477,51.0805],[1.17262,51.08125],[1.17223,51.08163],[1.17268,51.0818],[1.17172,51.08212],[1.17196,51.08272],[1.17554,51.08308],[1.18009,51.08413],[1.18036,51.08376],[1.18332,51.08441],[1.18229,51.08404],[1.18252,51.08386]]]}},{"type":"Feature","properties":{"id":"E01024508","name":"E01024508","parent":"E07000112","type":"LSOA","pop":2147,"r":138,"ff":52,"ffd":2422.0,"ffs":0.4685,"g":26,"co":0,"mo":0,"sa":0,"ic":0},"geometry":{"type":"Polygon","coordinates":[[[1.16769,51.08276],[1.17196,51.08272],[1.17172,51.08212],[1.17268,51.0818],[1.17223,51.08163],[1.17262,51.08125],[1.17477,51.0805],[1.17428,51.07929],[1.17488,51.07881],[1.17402,51.07863],[1.17448,51.07763],[1.17216,51.07705],[1.17176,51.07778],[1.16862,51.0774],[1.16833,51.07795],[1.16544,51.07783],[1.16465,51.08311],[1.16769,51.08276]]]}},{"type":"Feature","properties":{"id":"E01024509","name":"E01024509","parent":"E07000112","type":"LSOA","pop":1480,"r":137,"ff":52,"ffd":3513.5,"ffs":0.4727,"g":26,"co":0,"mo":0,"sa":0,"ic":0},"geometry":{"type":"Polygon","coordinates":[[[1.16833,51.07795],[1.16862,51.0774],[1.17176,51.07778],[1.17278,51.07595],[1.17287,51.07462],[1.17151,51.0743],[1.17066,51.07334],[1.1717,51.07317],[1.16683,51.07326],[1.16721,51.07409],[1.1659,51.07528],[1.16454,51.07526],[1.165,51.07636],[1.16447,51.07633],[1.16419,51.07737],[1.16467,51.0774],[1.16463,51.07779],[1.16833,51.07795]]]}},{"type":"Feature","properties":{"id":"E01024510","name":"E01024510","parent":"E07000112","type":"LSOA","pop":1541,"r":137,"ff":52,"ffd":3374.4,"ffs":0.4727,"g":26,"co":0,"mo":0,"sa":0,"ic":0},"geometry":{"type":"Polygon","coordinates":[[[1.16248,51.08115],[1.16484,51.08107],[1.16543,51.07784],[1.16463,51.07779],[1.16467,51.0774],[1.16419,51.07737],[1.16447,51.07633],[1.165,51.07636],[1.16454,51.07526],[1.1659,51.07528],[1.16721,51.07409],[1.16683,51.07326],[1.16349,51.07312],[1.16299,51.07272],[1.16307,51.07423],[1.15784,51.07466],[1.15808,51.07521],[1.15876,51.07513],[1.15883,51.07533],[1.1582,51.07549],[1.15829,51.07586],[1.15773,51.07627],[1.15787,51.07753],[1.15905,51.07766],[1.15904,51.0772],[1.16028,51.07744],[1.15946,51.07835],[1.15939,51.07965],[1.16019,51.08004],[1.16009,51.08094],[1.16083,51.08075],[1.16249,51.08076],[1.16248,51.08115]]]}},{"type":"Feature","properties":{"id":"E01024511","name":"E01024511","parent":"E07000112","type":"LSOA","pop":1917,"r":138,"ff":52,"ffd":2712.6,"ffs":0.4685,"g":26,"co":0,"mo":0,"sa":0,"ic":0},"geometry":{"type":"Polygon","coordinates":[[[1.15823,51.08406],[1.16465,51.08311],[1.165,51.08107],[1.16248,51.08115],[1.16249,51.08076],[1.16083,51.08075],[1.16009,51.08094],[1.16019,51.08004],[1.15939,51.07965],[1.15946,51.07835],[1.16028,51.07744],[1.15904,51.0772],[1.15905,51.07766],[1.15787,51.07753],[1.15773,51.07627],[1.15829,51.07586],[1.1582,51.07549],[1.15883,51.07533],[1.15876,51.07513],[1.15808,51.07521],[1.15784,51.07466],[1.15333,51.0751],[1.15481,51.07646],[1.15295,51.07706],[1.15269,51.07761],[1.15233,51.08035],[1.15137,51.08188],[1.15355,51.08407],[1.15547,51.08384],[1.15555,51.08446],[1.15823,51.08406]]]}},{"type":"Feature","properties":{"id":"E01024512","name":"E01024512","parent":"E07000112","type":"LSOA","pop":1809,"r":138,"ff":54,"ffd":2985.1,"ffs":0.4865,"g":26,"co":0,"mo":0,"sa":0,"ic":0},"geometry":{"type":"Polygon","coordinates":[[[1.15117,51.08886],[1.14978,51.08828],[1.14884,51.08844],[1.14822,51.08714],[1.14908,51.08693],[1.14893,51.08668],[1.14852,51.08678],[1.14814,51.08608],[1.14755,51.0861],[1.14735,51.08525],[1.14616,51.08528],[1.14365,51.08582],[1.14349,51.08562],[1.14105,51.08655],[1.14166,51.08791],[1.14292,51.08811],[1.1442,51.08796],[1.14437,51.08835],[1.14538,51.08817],[1.1455,51.08841],[1.14499,51.08857],[1.14601,51.09086],[1.14728,51.09142],[1.14721,51.09096],[1.14897,51.09081],[1.14874,51.09028],[1.14974,51.08911],[1.15117,51.08886]]]}},{"type":"Feature","properties":{"id":"E01024513","name":"E01024513","parent":"E07000112","type":"LSOA","pop":1657,"r":136,"ff":52,"ffd":3138.2,"ffs":0.4771,"g":26,"co":0,"mo":0,"sa":0,"ic":0},"geometry":{"type":"Polygon","coordinates":[[[1.15795,51.09259],[1.15663,51.08899],[1.15585,51.08752],[1.1555,51.08592],[1.15186,51.08643],[1.15184,51.08669],[1.1524,51.08673],[1.15217,51.08689],[1.15061,51.08692],[1.14877,51.08727],[1.14863,51.08702],[1.14822,51.08714],[1.14884,51.08844],[1.14978,51.08828],[1.15117,51.08886],[1.14974,51.08911],[1.14874,51.09028],[1.14897,51.09081],[1.14721,51.09096],[1.14728,51.09142],[1.14601,51.09086],[1.14573,51.09103],[1.14581,51.09144],[1.14545,51.09243],[1.14638,51.09236],[1.14652,51.09351],[1.14605,51.09408],[1.14652,51.09445],[1.14637,51.09495],[1.14765,51.09506],[1.14779,51.09552],[1.15548,51.09605],[1.15664,51.09519],[1.15813,51.09483],[1.15795,51.09259]]]}},{"type":"Feature","properties":{"id":"E01024514","name":"E01024514","parent":"E07000112","type":"LSOA","pop":1327,"r":138,"ff":52,"ffd":3918.6,"ffs":0.4685,"g":26,"co":0,"mo":0,"sa":0,"ic":0},"geometry":{"type":"Polygon","coordinates":[[[1.14877,51.08727],[1.15061,51.08692],[1.15217,51.08689],[1.1524,51.08673],[1.15184,51.08669],[1.15186,51.08643],[1.1555,51.08592],[1.15547,51.08384],[1.15355,51.08407],[1.15137,51.08188],[1.15093,51.08242],[1.15032,51.08231],[1.14942,51.08334],[1.14768,51.08259],[1.14461,51.0834],[1.14454,51.08525],[1.14349,51.08562],[1.14365,51.08582],[1.14616,51.08528],[1.14735,51.08525],[1.14755,51.0861],[1.14814,51.08608],[1.14852,51.08678],[1.14893,51.08668],[1.14908,51.08693],[1.14863,51.08702],[1.14877,51.08727]]]}},{"type":"Feature","properties":{"id":"E01024515","name":"E01024515","parent":"E07000112","type":"LSOA","pop":1959,"r":135,"ff":51,"ffd":2603.4,"ffs":0.4722,"g":26,"co":0,"mo":0,"sa":0,"ic":0},"geometry":{"type":"Polygon","coordinates":[[[1.16484,51.09279],[1.16537,51.09082],[1.17102,51.09089],[1.17251,51.09059],[1.17266,51.09004],[1.17393,51.09025],[1.17425,51.08986],[1.17471,51.09011],[1.17514,51.08986],[1.1755,51.08848],[1.17473,51.08836],[1.17502,51.08656],[1.17415,51.08612],[1.1732,51.08527],[1.16784,51.08674],[1.16729,51.08645],[1.16749,51.08774],[1.1673,51.08785],[1.16453,51.08795],[1.1627,51.08835],[1.16164,51.08826],[1.16109,51.08959],[1.15953,51.09021],[1.16087,51.09096],[1.16068,51.09127],[1.16224,51.09149],[1.16276,51.09114],[1.16391,51.09117],[1.1637,51.09076],[1.16246,51.09054],[1.16264,51.09029],[1.16438,51.09037],[1.16442,51.09275],[1.16484,51.09279]]]}},{"type":"Feature","properties":{"id":"E01024516","name":"E01024516","parent":"E07000112","type":"LSOA","pop":1349,"r":136,"ff":52,"ffd":3854.7,"ffs":0.4771,"g":26,"co":0,"mo":0,"sa":0,"ic":0},"geometry":{"type":"Polygon","coordinates":[[[1.17082,51.0939],[1.17393,51.09025],[1.17266,51.09004],[1.17251,51.09059],[1.17102,51.09089],[1.16537,51.09082],[1.16484,51.09279],[1.16442,51.09275],[1.16438,51.09037],[1.16264,51.09029],[1.16246,51.09054],[1.1637,51.09076],[1.16391,51.09117],[1.16276,51.09114],[1.16224,51.09149],[1.16068,51.09127],[1.16087,51.09096],[1.15953,51.09021],[1.16057,51.08971],[1.15957,51.08857],[1.15856,51.08877],[1.15821,51.08828],[1.15976,51.08649],[1.15585,51.08752],[1.15663,51.08899],[1.15795,51.09259],[1.15813,51.09483],[1.16736,51.09733],[1.16823,51.09566],[1.17032,51.0953],[1.17082,51.0939]]]}},{"type":"Feature","properties":{"id":"E01024517","name":"E01024517","parent":"E07000112","type":"LSOA","pop":1601,"r":136,"ff":52,"ffd":3248.0,"ffs":0.4771,"g":26,"co":0,"mo":0,"sa":0,"ic":0},"geometry":{"type":"Polygon","coordinates":[[[1.16109,51.08959],[1.16164,51.08826],[1.1627,51.08835],[1.16453,51.08795],[1.1673,51.08785],[1.16749,51.08774],[1.16729,51.08645],[1.16784,51.08674],[1.1732,51.08527],[1.17677,51.08332],[1.17196,51.08272],[1.1682,51.08273],[1.15555,51.08446],[1.15545,51.08574],[1.15585,51.08752],[1.15976,51.08649],[1.15821,51.08828],[1.15856,51.08877],[1.15957,51.08857],[1.16057,51.08971],[1.16109,51.08959]]]}},{"type":"Feature","properties":{"id":"E01024518","name":"E01024518","parent":"E07000112","type":"LSOA","pop":1637,"r":134,"ff":51,"ffd":3115.5,"ffs":0.4766,"g":26,"co":0,"mo":0,"sa":0,"ic":0},"geometry":{"type":"Polygon","coordinates":[[[1.17931,51.09431],[1.18009,51.09298],[1.18153,51.09354],[1.18173,51.09208],[1.1814,51.09051],[1.18068,51.08899],[1.18026,51.0886],[1.17818,51.08872],[1.1755,51.08848],[1.17514,51.08986],[1.17471,51.09011],[1.17425,51.08986],[1.17082,51.0939],[1.17032,51.0953],[1.16823,51.09566],[1.16736,51.09733],[1.1693,51.09707],[1.17352,51.09536],[1.1794,51.09492],[1.17931,51.09431]]]}},{"type":"Feature","properties":{"id":"E01024519","name":"E01024519","parent":"E07000112","type":"LSOA","pop":2309,"r":139,"ff":53,"ffd":2295.4,"ffs":0.4732,"g":26,"co":0,"mo":0,"sa":0,"ic":0},"geometry":{"type":"Polygon","coordinates":[[[1.14171,51.08237],[1.1432,51.08149],[1.14476,51.0813],[1.14422,51.08045],[1.14468,51.08006],[1.14313,51.07891],[1.14374,51.07805],[1.14541,51.07773],[1.14504,51.07761],[1.14502,51.07699],[1.14441,51.0767],[1.14393,51.07688],[1.14383,51.07664],[1.14367,51.07545],[1.14448,51.07527],[1.14473,51.0745],[1.14402,51.07432],[1.14433,51.07374],[1.14247,51.07348],[1.14255,51.07265],[1.12562,51.0713],[1.12511,51.07119],[1.12509,51.07088],[1.12451,51.07091],[1.12439,51.0716],[1.12582,51.07652],[1.12801,51.07648],[1.1283,51.07697],[1.12803,51.07838],[1.12883,51.07851],[1.12896,51.07896],[1.12894,51.07925],[1.12567,51.08045],[1.1262,51.08139],[1.12731,51.0814],[1.12993,51.08072],[1.13754,51.07974],[1.13826,51.08166],[1.13924,51.08226],[1.14087,51.08194],[1.14103,51.08228],[1.14171,51.08237]]]}},{"type":"Feature","properties":{"id":"E01024520","name":"E01024520","parent":"E07000112","type":"LSOA","pop":1556,"r":140,"ff":54,"ffd":3470.4,"ffs":0.4779,"g":26,"co":0,"mo":0,"sa":0,"ic":0},"geometry":{"type":"Polygon","coordinates":[[[1.14461,51.0834],[1.14768,51.08259],[1.14942,51.08334],[1.15032,51.08231],[1.15093,51.08242],[1.15233,51.08035],[1.14854,51.08058],[1.14803,51.08118],[1.14693,51.08122],[1.14687,51.0806],[1.14734,51.0802],[1.14683,51.0796],[1.14578,51.07961],[1.14548,51.07926],[1.14464,51.07957],[1.14504,51.08007],[1.14468,51.08006],[1.14422,51.08045],[1.14476,51.0813],[1.1432,51.08149],[1.14171,51.08237],[1.14186,51.08555],[1.14081,51.08562],[1.1419,51.08616],[1.14454,51.08525],[1.14461,51.0834]]]}},{"type":"Feature","properties":{"id":"E01024521","name":"E01024521","parent":"E07000112","type":"LSOA","pop":1604,"r":140,"ff":54,"ffd":3366.6,"ffs":0.4779,"g":26,"co":0,"mo":0,"sa":0,"ic":0},"geometry":{"type":"Polygon","coordinates":[[[1.15233,51.08035],[1.15269,51.07761],[1.15295,51.07706],[1.15481,51.07646],[1.15333,51.0751],[1.16307,51.07423],[1.16299,51.07272],[1.15652,51.07309],[1.14538,51.07288],[1.14255,51.07265],[1.14247,51.07348],[1.14433,51.07374],[1.14402,51.07432],[1.14473,51.0745],[1.14448,51.07527],[1.14367,51.07545],[1.14383,51.07664],[1.14393,51.07688],[1.14441,51.0767],[1.14502,51.07699],[1.14504,51.07761],[1.14541,51.07773],[1.14374,51.07805],[1.14313,51.07891],[1.14468,51.08006],[1.14504,51.08007],[1.14464,51.07957],[1.14548,51.07926],[1.14578,51.07961],[1.14683,51.0796],[1.14734,51.0802],[1.14687,51.0806],[1.14693,51.08122],[1.14803,51.08118],[1.14854,51.08058],[1.15233,51.08035]]]}},{"type":"Feature","properties":{"id":"E01024522","name":"E01024522","parent":"E07000112","type":"LSOA","pop":1503,"r":123,"ff":49,"ffd":3260.1,"ffs":0.5104,"g":26,"co":2,"mo":2,"sa":0,"ic":0},"geometry":{"type":"Polygon","coordinates":[[[1.0862,51.06832],[1.0841,51.06798],[1.08424,51.06757],[1.08493,51.06694],[1.0846,51.06644],[1.08534,51.06543],[1.08527,51.06518],[1.07556,51.06354],[1.07493,51.06448],[1.07638,51.0648],[1.07621,51.06519],[1.07769,51.06537],[1.07894,51.0666],[1.07977,51.06685],[1.07951,51.06705],[1.08007,51.06723],[1.08037,51.06802],[1.08106,51.06791],[1.08105,51.06831],[1.08044,51.06854],[1.08135,51.06943],[1.08195,51.06927],[1.08189,51.06893],[1.08247,51.06888],[1.08281,51.06821],[1.08329,51.06825],[1.0836,51.06869],[1.08318,51.06926],[1.08334,51.07045],[1.08494,51.07053],[1.0862,51.06832]]]}},{"type":"Feature","properties":{"id":"E01024523","name":"E01024523","parent":"E07000112","type":"LSOA","pop":1524,"r":112,"ff":46,"ffd":3018.4,"ffs":0.5412,"g":26,"co":0,"mo":2,"sa":0,"ic":0},"geometry":{"type":"Polygon","coordinates":[[[1.08224,51.07853],[1.0828,51.07554],[1.08348,51.07428],[1.08461,51.07416],[1.08499,51.07373],[1.08476,51.07346],[1.08263,51.07335],[1.08257,51.07233],[1.08201,51.07214],[1.08247,51.07205],[1.08164,51.07176],[1.08115,51.07278],[1.07871,51.07286],[1.07925,51.074],[1.07772,51.07405],[1.07734,51.07435],[1.07689,51.07409],[1.07656,51.07443],[1.07617,51.0743],[1.07609,51.07468],[1.07495,51.07468],[1.07494,51.07411],[1.07364,51.07384],[1.07322,51.0734],[1.07354,51.07327],[1.07319,51.07337],[1.07317,51.07348],[1.07263,51.07275],[1.07358,51.07264],[1.07369,51.07207],[1.07276,51.07215],[1.07257,51.07278],[1.06261,51.07642],[1.06031,51.07651],[1.06192,51.07731],[1.06485,51.07711],[1.06524,51.07773],[1.06785,51.07742],[1.07137,51.07651],[1.07289,51.0776],[1.07411,51.07945],[1.0758,51.07906],[1.07616,51.07857],[1.07758,51.07976],[1.07765,51.08021],[1.0806,51.07889],[1.08224,51.07853]]]}},{"type":"Feature","properties":{"id":"E01024524","name":"E01024524","parent":"E07000112","type":"LSOA","pop":1454,"r":122,"ff":49,"ffd":3370.0,"ffs":0.5158,"g":26,"co":2,"mo":2,"sa":0,"ic":0},"geometry":{"type":"Polygon","coordinates":[[[1.07609,51.07468],[1.07617,51.0743],[1.07656,51.07443],[1.07689,51.07409],[1.07734,51.07435],[1.07772,51.07405],[1.07925,51.074],[1.07871,51.07286],[1.08115,51.07278],[1.08164,51.07176],[1.08115,51.07174],[1.08051,51.07108],[1.08035,51.07028],[1.08034,51.07005],[1.08143,51.07004],[1.08091,51.06962],[1.08135,51.06943],[1.08044,51.06854],[1.08105,51.06831],[1.08106,51.06791],[1.08037,51.06802],[1.08007,51.06723],[1.07951,51.06705],[1.07977,51.06685],[1.07894,51.0666],[1.07769,51.06537],[1.07621,51.06519],[1.07546,51.06687],[1.07378,51.06707],[1.07284,51.06919],[1.07476,51.06956],[1.07465,51.07038],[1.07526,51.07031],[1.07547,51.0707],[1.07476,51.07085],[1.07463,51.0711],[1.07283,51.07085],[1.07276,51.07215],[1.07369,51.07207],[1.07358,51.07264],[1.07263,51.07275],[1.07317,51.07348],[1.07319,51.07337],[1.07354,51.07327],[1.07322,51.0734],[1.07364,51.07384],[1.07494,51.07411],[1.07495,51.07468],[1.07609,51.07468]]]}},{"type":"Feature","properties":{"id":"E01024525","name":"E01024525","parent":"E07000112","type":"LSOA","pop":1461,"r":129,"ff":52,"ffd":3559.2,"ffs":0.5098,"g":26,"co":2,"mo":0,"sa":0,"ic":0},"geometry":{"type":"Polygon","coordinates":[[[1.08911,51.07375],[1.0899,51.07249],[1.08942,51.07202],[1.08956,51.0714],[1.08913,51.07135],[1.08924,51.07082],[1.0923,51.07105],[1.09353,51.06808],[1.09372,51.06691],[1.08617,51.06574],[1.08534,51.06543],[1.0846,51.06644],[1.08493,51.06694],[1.08424,51.06757],[1.0841,51.06798],[1.0862,51.06832],[1.08494,51.07053],[1.08334,51.07045],[1.08318,51.06926],[1.0836,51.06869],[1.08329,51.06825],[1.08281,51.06821],[1.08247,51.06888],[1.08189,51.06893],[1.08195,51.06927],[1.08091,51.06962],[1.08143,51.07004],[1.08034,51.07005],[1.08051,51.07108],[1.08115,51.07174],[1.08247,51.07205],[1.08201,51.07214],[1.08257,51.07233],[1.08263,51.07335],[1.08476,51.07346],[1.08499,51.07373],[1.08589,51.07351],[1.08911,51.07375]]]}},{"type":"Feature","properties":{"id":"E01024526","name":"E01024526","parent":"E07000112","type":"LSOA","pop":1437,"r":135,"ff":54,"ffd":3757.8,"ffs":0.5,"g":26,"co":2,"mo":0,"sa":0,"ic":0},"geometry":{"type":"Polygon","coordinates":[[[1.11599,51.08507],[1.11794,51.0842],[1.11749,51.0852],[1.11785,51.08607],[1.12054,51.08647],[1.12028,51.08494],[1.12136,51.08327],[1.12262,51.08286],[1.12048,51.08191],[1.12177,51.08114],[1.12169,51.08063],[1.12008,51.0804],[1.11813,51.0808],[1.11244,51.08389],[1.10936,51.08081],[1.1088,51.07788],[1.11026,51.07732],[1.11372,51.07792],[1.11446,51.07836],[1.11533,51.07803],[1.11569,51.0783],[1.11664,51.07763],[1.1171,51.07789],[1.11709,51.07727],[1.11647,51.07718],[1.11609,51.07747],[1.11559,51.07606],[1.11615,51.07575],[1.11681,51.07591],[1.11874,51.07545],[1.11904,51.07302],[1.11962,51.07286],[1.1195,51.0722],[1.11784,51.07208],[1.11753,51.07151],[1.1221,51.07187],[1.12246,51.07127],[1.12439,51.0716],[1.12451,51.07091],[1.1164,51.07031],[1.10546,51.06894],[1.1049,51.07064],[1.10367,51.07185],[1.10252,51.07176],[1.10223,51.07278],[1.10104,51.07281],[1.1004,51.07341],[1.09763,51.07373],[1.09733,51.07434],[1.0957,51.07504],[1.09377,51.07526],[1.09315,51.07686],[1.09139,51.07621],[1.0905,51.07639],[1.08981,51.07734],[1.09245,51.07736],[1.09349,51.07766],[1.09403,51.07848],[1.09551,51.07927],[1.09843,51.08016],[1.10232,51.08086],[1.1027,51.08273],[1.10452,51.08275],[1.104,51.08582],[1.10579,51.08779],[1.11139,51.0887],[1.11259,51.08842],[1.11479,51.08708],[1.1159,51.08587],[1.11599,51.08507]]]}},{"type":"Feature","properties":{"id":"E01024527","name":"E01024527","parent":"E07000112","type":"LSOA","pop":1556,"r":134,"ff":55,"ffd":3534.7,"ffs":0.514,"g":26,"co":2,"mo":0,"sa":0,"ic":0},"geometry":{"type":"Polygon","coordinates":[[[1.0905,51.07639],[1.09139,51.07621],[1.09315,51.07686],[1.09377,51.07526],[1.0957,51.07504],[1.09733,51.07434],[1.09763,51.07373],[1.1004,51.07341],[1.10104,51.07281],[1.10223,51.07278],[1.10252,51.07176],[1.10367,51.07185],[1.1049,51.07064],[1.10546,51.06894],[1.09489,51.06742],[1.09442,51.06702],[1.09372,51.06691],[1.09353,51.06808],[1.0923,51.07105],[1.08924,51.07082],[1.08913,51.07135],[1.08956,51.0714],[1.08942,51.07202],[1.0899,51.07249],[1.08911,51.07375],[1.08589,51.07351],[1.08499,51.07373],[1.08461,51.07416],[1.08348,51.07428],[1.0828,51.07554],[1.08224,51.07853],[1.08538,51.0785],[1.08981,51.07734],[1.0905,51.07639]]]}},{"type":"Feature","properties":{"id":"E01024528","name":"E01024528","parent":"E07000112","type":"LSOA","pop":1281,"r":138,"ff":55,"ffd":4293.5,"ffs":0.4955,"g":26,"co":2,"mo":0,"sa":0,"ic":0},"geometry":{"type":"Polygon","coordinates":[[[1.12468,51.08716],[1.12263,51.08521],[1.12461,51.08452],[1.12443,51.0832],[1.1235,51.08248],[1.12484,51.08168],[1.12547,51.08177],[1.1262,51.08139],[1.12567,51.08045],[1.12894,51.07925],[1.12896,51.07896],[1.12883,51.07851],[1.12803,51.07838],[1.1283,51.07697],[1.12801,51.07648],[1.12582,51.07652],[1.12439,51.0716],[1.12246,51.07127],[1.1221,51.07187],[1.11753,51.07151],[1.11784,51.07208],[1.1195,51.0722],[1.11962,51.07286],[1.11904,51.07302],[1.11874,51.07545],[1.11681,51.07591],[1.11615,51.07575],[1.11559,51.07606],[1.11609,51.07747],[1.11647,51.07718],[1.11709,51.07727],[1.1171,51.07789],[1.11664,51.07763],[1.11569,51.0783],[1.11533,51.07803],[1.11446,51.07836],[1.11372,51.07792],[1.11026,51.07732],[1.1088,51.07788],[1.10936,51.08081],[1.11244,51.08389],[1.11813,51.0808],[1.12008,51.0804],[1.12169,51.08063],[1.12177,51.08114],[1.12048,51.08191],[1.12262,51.08286],[1.12136,51.08327],[1.12028,51.08494],[1.12054,51.08647],[1.11785,51.08607],[1.11724,51.08687],[1.1193,51.08961],[1.12553,51.0885],[1.12468,51.08716]]]}},{"type":"Feature","properties":{"id":"E01024529","name":"E01024529","parent":"E07000112","type":"LSOA","pop":1438,"r":99,"ff":38,"ffd":2642.6,"ffs":0.5135,"g":24,"co":2,"mo":2,"sa":0,"ic":0},"geometry":{"type":"Polygon","coordinates":[[[1.06674,51.06966],[1.06797,51.06902],[1.06874,51.06968],[1.06987,51.06897],[1.07129,51.06908],[1.07109,51.06795],[1.07313,51.06846],[1.07284,51.06919],[1.07378,51.06707],[1.07546,51.06687],[1.07638,51.0648],[1.07493,51.06448],[1.07556,51.06354],[1.06007,51.05898],[1.05799,51.06242],[1.05794,51.06353],[1.0557,51.06378],[1.05188,51.06236],[1.05144,51.06269],[1.04999,51.06283],[1.04998,51.06318],[1.04909,51.06314],[1.04844,51.06414],[1.04863,51.06482],[1.05,51.06539],[1.04988,51.06608],[1.05552,51.06615],[1.06458,51.06931],[1.06702,51.06996],[1.06731,51.06984],[1.06674,51.06966]]]}},{"type":"Feature","properties":{"id":"E01024530","name":"E01024530","parent":"E07000112","type":"LSOA","pop":2060,"r":81,"ff":30,"ffd":1456.3,"ffs":0.5263,"g":23,"co":2,"mo":2,"sa":0,"ic":0},"geometry":{"type":"Polygon","coordinates":[[[1.04363,51.07049],[1.04445,51.07012],[1.04599,51.07026],[1.04591,51.06973],[1.04661,51.06902],[1.05049,51.06914],[1.05528,51.06987],[1.05847,51.07124],[1.06206,51.07066],[1.06371,51.07002],[1.06458,51.06931],[1.05552,51.06615],[1.04988,51.06608],[1.05,51.06539],[1.04863,51.06482],[1.04844,51.06414],[1.04909,51.06314],[1.04998,51.06318],[1.04999,51.06283],[1.05144,51.06269],[1.05188,51.06236],[1.0557,51.06378],[1.05794,51.06353],[1.05799,51.06242],[1.06007,51.05898],[1.05003,51.0552],[1.03937,51.05042],[1.03813,51.04967],[1.03744,51.04876],[1.03462,51.04704],[1.03397,51.04751],[1.02856,51.05629],[1.02606,51.05943],[1.02532,51.06133],[1.0222,51.06424],[1.02249,51.06729],[1.02711,51.06845],[1.02749,51.0682],[1.02824,51.0686],[1.03049,51.06883],[1.03226,51.06846],[1.03156,51.06998],[1.03119,51.07296],[1.03278,51.0747],[1.03315,51.0748],[1.03354,51.07361],[1.03518,51.07265],[1.03762,51.0723],[1.03839,51.07176],[1.0421,51.07059],[1.04363,51.07049]]]}},{"type":"Feature","properties":{"id":"E01024531","name":"E01024531","parent":"E07000112","type":"LSOA","pop":1424,"r":119,"ff":49,"ffd":3441.0,"ffs":0.5326,"g":26,"co":2,"mo":2,"sa":0,"ic":0},"geometry":{"type":"Polygon","coordinates":[[[1.06261,51.07642],[1.07257,51.07278],[1.07283,51.07085],[1.07463,51.0711],[1.07476,51.07085],[1.07547,51.0707],[1.07526,51.07031],[1.07465,51.07038],[1.07476,51.06956],[1.07284,51.06919],[1.07313,51.06846],[1.07109,51.06795],[1.07129,51.06908],[1.06987,51.06897],[1.06874,51.06968],[1.06797,51.06902],[1.06674,51.06966],[1.06731,51.06984],[1.06702,51.06996],[1.06458,51.06931],[1.06371,51.07002],[1.06206,51.07066],[1.05847,51.07124],[1.06417,51.07259],[1.06475,51.0729],[1.06311,51.07374],[1.06184,51.07357],[1.06128,51.07398],[1.06096,51.07573],[1.06031,51.07651],[1.06261,51.07642]]]}},{"type":"Feature","properties":{"id":"E01024532","name":"E01024532","parent":"E07000112","type":"LSOA","pop":1195,"r":17,"ff":10,"ffd":836.8,"ffs":0.625,"g":1,"co":3,"mo":3,"sa":3,"ic":1},"geometry":{"type":"Polygon","coordinates":[[[0.96056,50.96935],[0.96149,50.96809],[0.96179,50.96822],[0.96213,50.96788],[0.96282,50.96785],[0.96322,50.96813],[0.96436,50.9681],[0.96404,50.9617],[0.96352,50.96167],[0.96471,50.95384],[0.96517,50.95209],[0.96456,50.952],[0.96459,50.95171],[0.96396,50.95193],[0.9642,50.95103],[0.96121,50.95025],[0.95881,50.95083],[0.95824,50.95616],[0.95814,50.95979],[0.9577,50.96256],[0.95651,50.96559],[0.95844,50.966],[0.95871,50.96685],[0.96116,50.96716],[0.95964,50.96906],[0.96056,50.96935]]]}},{"type":"Feature","properties":{"id":"E01024533","name":"E01024533","parent":"E07000112","type":"LSOA","pop":1104,"r":17,"ff":10,"ffd":905.8,"ffs":0.625,"g":1,"co":3,"mo":3,"sa":3,"ic":3},"geometry":{"type":"Polygon","coordinates":[[[0.96403,50.96156],[0.96666,50.95072],[0.9725,50.93627],[0.97925,50.92614],[0.98138,50.92394],[0.98228,50.92115],[0.98258,50.9176],[0.98151,50.91474],[0.97984,50.9133],[0.97674,50.91166],[0.97429,50.91116],[0.97055,50.91092],[0.9607,50.91101],[0.95241,50.9114],[0.9345,50.91299],[0.93529,50.91434],[0.93368,50.91718],[0.93309,50.91938],[0.93737,50.91772],[0.94187,50.92406],[0.94587,50.92625],[0.95145,50.93424],[0.95199,50.93562],[0.94832,50.94211],[0.95978,50.94524],[0.95919,50.94775],[0.95881,50.95083],[0.96121,50.95025],[0.9642,50.95103],[0.96396,50.95193],[0.96459,50.95171],[0.96456,50.952],[0.96517,50.95209],[0.96471,50.95384],[0.96352,50.96167],[0.96404,50.9617],[0.96403,50.96156]]]}},{"type":"Feature","properties":{"id":"E01024534","name":"E01024534","parent":"E07000112","type":"LSOA","pop":1534,"r":18,"ff":10,"ffd":651.9,"ffs":0.5882,"g":1,"co":3,"mo":3,"sa":3,"ic":3},"geometry":{"type":"Polygon","coordinates":[[[0.89944,50.95296],[0.8984,50.95184],[0.90074,50.95124],[0.90234,50.95201],[0.9028,50.95162],[0.90133,50.95084],[0.90304,50.95059],[0.90299,50.95004],[0.90228,50.94974],[0.90101,50.95001],[0.90254,50.94938],[0.90231,50.94914],[0.90314,50.94874],[0.9033,50.94823],[0.90366,50.94835],[0.90337,50.9488],[0.90372,50.94941],[0.90427,50.94987],[0.90407,50.95018],[0.90485,50.95026],[0.90518,50.94994],[0.90603,50.95024],[0.90665,50.95001],[0.90577,50.94874],[0.9069,50.94843],[0.90712,50.94808],[0.90838,50.94787],[0.90982,50.9495],[0.91023,50.94932],[0.90902,50.94787],[0.91006,50.94792],[0.90839,50.94541],[0.90782,50.94539],[0.9082,50.94623],[0.90812,50.94641],[0.90737,50.94613],[0.90729,50.94675],[0.90671,50.94632],[0.89947,50.9471],[0.89942,50.94651],[0.90202,50.94434],[0.89821,50.94559],[0.89789,50.94531],[0.89734,50.94541],[0.89637,50.94592],[0.8981,50.94724],[0.89621,50.94731],[0.89343,50.9459],[0.89184,50.94636],[0.89026,50.94781],[0.89028,50.94898],[0.88943,50.94975],[0.89673,50.95188],[0.89631,50.95234],[0.89653,50.9526],[0.89803,50.95245],[0.89944,50.95296]]]}},{"type":"Feature","properties":{"id":"E01024535","name":"E01024535","parent":"E07000112","type":"LSOA","pop":2374,"r":18,"ff":10,"ffd":421.2,"ffs":0.5882,"g":1,"co":3,"mo":3,"sa":3,"ic":3},"geometry":{"type":"Polygon","coordinates":[[[0.92404,50.98392],[0.92817,50.98277],[0.92905,50.98186],[0.93012,50.98141],[0.93031,50.98033],[0.93206,50.97962],[0.93293,50.98023],[0.93547,50.98089],[0.93557,50.97894],[0.93609,50.97907],[0.93777,50.97853],[0.93882,50.97729],[0.94235,50.97811],[0.9499,50.97733],[0.95122,50.97514],[0.95868,50.96986],[0.95964,50.96906],[0.96116,50.96716],[0.95871,50.96685],[0.95844,50.966],[0.95651,50.96559],[0.9577,50.96256],[0.95814,50.95979],[0.95824,50.95616],[0.95881,50.95083],[0.95919,50.94775],[0.95978,50.94524],[0.94832,50.94211],[0.95199,50.93562],[0.95145,50.93424],[0.94587,50.92625],[0.94187,50.92406],[0.93737,50.91772],[0.93309,50.91938],[0.93368,50.91718],[0.93529,50.91434],[0.9345,50.91299],[0.89621,50.91779],[0.85509,50.92391],[0.8651,50.92926],[0.86601,50.93115],[0.86789,50.93326],[0.86412,50.93513],[0.85963,50.93968],[0.86097,50.94183],[0.85597,50.95313],[0.85751,50.95346],[0.85943,50.9526],[0.86251,50.95253],[0.86609,50.95447],[0.86607,50.95484],[0.86689,50.95531],[0.86789,50.95541],[0.87868,50.95902],[0.88667,50.96389],[0.88997,50.96502],[0.89698,50.97024],[0.90092,50.97272],[0.90241,50.97219],[0.90349,50.97286],[0.90893,50.97669],[0.91018,50.97822],[0.91207,50.9797],[0.91349,50.98034],[0.91469,50.98149],[0.91416,50.98229],[0.91472,50.98273],[0.91615,50.98255],[0.91789,50.98414],[0.91824,50.98388],[0.91879,50.98399],[0.91896,50.98517],[0.92164,50.98472],[0.92182,50.98423],[0.92404,50.98392]],[[0.89944,50.95296],[0.89803,50.95245],[0.89653,50.9526],[0.89631,50.95234],[0.89673,50.95188],[0.88943,50.94975],[0.89028,50.94898],[0.89026,50.94781],[0.89184,50.94636],[0.89343,50.9459],[0.89621,50.94731],[0.8981,50.94724],[0.89637,50.94592],[0.89734,50.94541],[0.89789,50.94531],[0.89821,50.94559],[0.90202,50.94434],[0.89942,50.94651],[0.89947,50.9471],[0.90671,50.94632],[0.90729,50.94675],[0.90737,50.94613],[0.90812,50.94641],[0.9082,50.94623],[0.90782,50.94539],[0.90839,50.94541],[0.91006,50.94792],[0.90902,50.94787],[0.91023,50.94932],[0.90982,50.9495],[0.90838,50.94787],[0.90712,50.94808],[0.9069,50.94843],[0.90577,50.94874],[0.90665,50.95001],[0.90603,50.95024],[0.90518,50.94994],[0.90485,50.95026],[0.90407,50.95018],[0.90427,50.94987],[0.90372,50.94941],[0.90337,50.9488],[0.90366,50.94835],[0.9033,50.94823],[0.90314,50.94874],[0.90231,50.94914],[0.90254,50.94938],[0.90101,50.95001],[0.90228,50.94974],[0.90299,50.95004],[0.90304,50.95059],[0.90133,50.95084],[0.9028,50.95162],[0.90234,50.95201],[0.90074,50.95124],[0.8984,50.95184],[0.89944,50.95296]]]}},{"type":"Feature","properties":{"id":"E01024536","name":"E01024536","parent":"E07000112","type":"LSOA","pop":1880,"r":105,"ff":40,"ffd":2127.7,"ffs":0.5128,"g":26,"co":0,"mo":2,"sa":0,"ic":0},"geometry":{"type":"Polygon","coordinates":[[[1.03045,51.11322],[1.03223,51.11112],[1.03407,51.11107],[1.03497,51.11031],[1.03611,51.11162],[1.03714,51.112],[1.03832,51.11143],[1.03884,51.1103],[1.04172,51.1086],[1.04158,51.10811],[1.04608,51.10707],[1.04991,51.10469],[1.05122,51.10436],[1.04916,51.10072],[1.04807,51.10014],[1.045,51.09708],[1.0446,51.09693],[1.04348,51.09738],[1.04241,51.09634],[1.04082,51.09665],[1.04079,51.09629],[1.04186,51.09613],[1.04088,51.09593],[1.04042,51.09472],[1.03846,51.09501],[1.03729,51.08963],[1.03818,51.08943],[1.03812,51.08921],[1.03721,51.0893],[1.03688,51.08791],[1.03725,51.0865],[1.03647,51.08556],[1.03757,51.08519],[1.04,51.08337],[1.04567,51.08133],[1.04515,51.08013],[1.04533,51.07939],[1.04706,51.07899],[1.04739,51.07675],[1.04743,51.07325],[1.0464,51.07193],[1.04599,51.07026],[1.04445,51.07012],[1.04363,51.07049],[1.0421,51.07059],[1.03839,51.07176],[1.03762,51.0723],[1.03518,51.07265],[1.03354,51.07361],[1.03315,51.0748],[1.03278,51.0747],[1.03119,51.07296],[1.03156,51.06998],[1.03226,51.06846],[1.03049,51.06883],[1.02824,51.0686],[1.02749,51.0682],[1.02711,51.06845],[1.0231,51.06752],[1.02249,51.06729],[1.02239,51.06665],[1.01927,51.06661],[1.01383,51.06746],[1.01256,51.06742],[1.00648,51.06917],[1.00382,51.06954],[0.99692,51.06956],[0.98843,51.07063],[0.98054,51.07071],[0.96658,51.07022],[0.96665,51.07074],[0.96774,51.07159],[0.96745,51.07707],[0.96803,51.07731],[0.96973,51.07695],[0.97001,51.07786],[0.97115,51.07827],[0.97279,51.0797],[0.97554,51.07902],[0.97763,51.08117],[0.97659,51.08317],[0.97694,51.0846],[0.98023,51.08685],[0.97994,51.08749],[0.98026,51.08959],[0.98347,51.09109],[0.98496,51.09099],[0.98986,51.08939],[0.9903,51.08769],[0.98901,51.08541],[0.9893,51.08434],[0.99562,51.0819],[0.99568,51.08142],[0.99699,51.08197],[0.99728,51.08276],[0.99659,51.08539],[0.99709,51.08598],[0.99945,51.08704],[0.9997,51.08819],[0.99912,51.08858],[0.99832,51.08865],[0.99747,51.08944],[0.99757,51.09147],[0.9983,51.09152],[0.99804,51.09368],[0.99989,51.09333],[1.00017,51.09453],[1.00587,51.09357],[1.01025,51.09337],[1.01086,51.09205],[1.0122,51.09129],[1.01218,51.08836],[1.0118,51.0876],[1.01522,51.0863],[1.01714,51.0882],[1.01818,51.08871],[1.0195,51.09009],[1.01523,51.09043],[1.01373,51.09082],[1.01424,51.09283],[1.01507,51.09369],[1.01455,51.09469],[1.01608,51.09636],[1.01681,51.09627],[1.01857,51.09761],[1.01854,51.09864],[1.01671,51.09941],[1.01505,51.0995],[1.01302,51.1001],[1.01351,51.10084],[1.01552,51.10199],[1.01648,51.10219],[1.0166,51.10264],[1.01887,51.10396],[1.01999,51.10737],[1.01867,51.10801],[1.019,51.10872],[1.0177,51.10926],[1.02044,51.11117],[1.02344,51.11222],[1.02604,51.112],[1.03045,51.11322]]]}},{"type":"Feature","properties":{"id":"E01024537","name":"E01024537","parent":"E07000112","type":"LSOA","pop":1666,"r":17,"ff":10,"ffd":600.2,"ffs":0.625,"g":1,"co":3,"mo":3,"sa":3,"ic":1},"geometry":{"type":"Polygon","coordinates":[[[0.96991,50.98342],[0.96775,50.97853],[0.96672,50.97481],[0.96614,50.9741],[0.96436,50.9681],[0.96322,50.96813],[0.96282,50.96785],[0.96213,50.96788],[0.96179,50.96822],[0.96149,50.96809],[0.96056,50.96935],[0.95964,50.96906],[0.95122,50.97514],[0.9499,50.97733],[0.95053,50.97982],[0.95288,50.97957],[0.95596,50.98033],[0.95856,50.9805],[0.9611,50.97939],[0.96178,50.98031],[0.96404,50.97974],[0.96431,50.98014],[0.9637,50.98034],[0.96372,50.98082],[0.96451,50.9811],[0.96391,50.98132],[0.96389,50.98182],[0.96471,50.98185],[0.96542,50.98134],[0.96726,50.98081],[0.96819,50.98222],[0.96768,50.98248],[0.9689,50.98253],[0.96979,50.9847],[0.9703,50.98464],[0.96991,50.98342]]]}},{"type":"Feature","properties":{"id":"E01024538","name":"E01024538","parent":"E07000112","type":"LSOA","pop":1706,"r":17,"ff":10,"ffd":586.2,"ffs":0.625,"g":1,"co":3,"mo":3,"sa":3,"ic":1},"geometry":{"type":"Polygon","coordinates":[[[0.97353,50.99456],[0.9703,50.98464],[0.96979,50.9847],[0.9689,50.98253],[0.96768,50.98248],[0.96819,50.98222],[0.96726,50.98081],[0.96542,50.98134],[0.96471,50.98185],[0.96389,50.98182],[0.96391,50.98132],[0.96451,50.9811],[0.96372,50.98082],[0.9637,50.98034],[0.96431,50.98014],[0.96404,50.97974],[0.96178,50.98031],[0.9611,50.97939],[0.95856,50.9805],[0.95596,50.98033],[0.95288,50.97957],[0.95053,50.97982],[0.95251,50.98365],[0.95381,50.9835],[0.9539,50.98426],[0.95454,50.98407],[0.9554,50.98454],[0.95537,50.98524],[0.9593,50.98851],[0.95787,50.98919],[0.95567,50.98763],[0.95838,50.99177],[0.96022,50.99496],[0.9604,50.99674],[0.96435,50.99884],[0.96981,51.0026],[0.97478,51.00531],[0.97485,51.00443],[0.97623,51.0028],[0.9773,51.00273],[0.97353,50.99456]]]}},{"type":"Feature","properties":{"id":"E01024539","name":"E01024539","parent":"E07000112","type":"LSOA","pop":2096,"r":17,"ff":10,"ffd":477.1,"ffs":0.625,"g":1,"co":3,"mo":3,"sa":3,"ic":1},"geometry":{"type":"Polygon","coordinates":[[[0.95838,50.99177],[0.95567,50.98763],[0.95787,50.98919],[0.9593,50.98851],[0.95537,50.98524],[0.9554,50.98454],[0.95454,50.98407],[0.9539,50.98426],[0.95381,50.9835],[0.95251,50.98365],[0.95053,50.97982],[0.9499,50.97733],[0.94235,50.97811],[0.93882,50.97729],[0.93777,50.97853],[0.93609,50.97907],[0.93557,50.97894],[0.93547,50.98089],[0.93293,50.98023],[0.93206,50.97962],[0.93031,50.98033],[0.93012,50.98141],[0.92905,50.98186],[0.9337,50.9841],[0.9348,50.98348],[0.9352,50.98398],[0.93785,50.98456],[0.93786,50.98539],[0.93853,50.98524],[0.93903,50.9858],[0.93946,50.98555],[0.94019,50.9858],[0.93967,50.98641],[0.93781,50.98749],[0.93831,50.9878],[0.9394,50.98721],[0.9406,50.98777],[0.94077,50.98834],[0.94271,50.98943],[0.94356,50.98866],[0.944,50.98932],[0.94449,50.98916],[0.94555,50.98995],[0.94524,50.99022],[0.94596,50.99073],[0.94586,50.99111],[0.94698,50.99178],[0.94725,50.99116],[0.94778,50.99096],[0.9471,50.99048],[0.9466,50.99052],[0.94676,50.99031],[0.94569,50.98967],[0.94806,50.98811],[0.94594,50.98767],[0.94556,50.98701],[0.9499,50.98611],[0.9486,50.98751],[0.94996,50.98791],[0.95039,50.98863],[0.95158,50.98877],[0.95132,50.98943],[0.9537,50.98966],[0.9541,50.99063],[0.95504,50.9914],[0.95838,50.99177]]]}},{"type":"Feature","properties":{"id":"E01024540","name":"E01024540","parent":"E07000112","type":"LSOA","pop":1939,"r":17,"ff":10,"ffd":515.7,"ffs":0.625,"g":1,"co":3,"mo":3,"sa":3,"ic":1},"geometry":{"type":"Polygon","coordinates":[[[0.95899,50.99729],[0.95996,50.99658],[0.9604,50.99674],[0.96022,50.99496],[0.95838,50.99177],[0.95504,50.9914],[0.9541,50.99063],[0.9537,50.98966],[0.95132,50.98943],[0.95158,50.98877],[0.95039,50.98863],[0.94996,50.98791],[0.9486,50.98751],[0.9499,50.98611],[0.94556,50.98701],[0.94594,50.98767],[0.94806,50.98811],[0.94569,50.98967],[0.94676,50.99031],[0.9466,50.99052],[0.9471,50.99048],[0.94778,50.99096],[0.94725,50.99116],[0.94698,50.99178],[0.94586,50.99111],[0.94596,50.99073],[0.94524,50.99022],[0.94555,50.98995],[0.94449,50.98916],[0.944,50.98932],[0.94356,50.98866],[0.94271,50.98943],[0.94077,50.98834],[0.9406,50.98777],[0.9394,50.98721],[0.93831,50.9878],[0.93781,50.98749],[0.93967,50.98641],[0.94019,50.9858],[0.93946,50.98555],[0.93903,50.9858],[0.93853,50.98524],[0.93786,50.98539],[0.93785,50.98456],[0.9352,50.98398],[0.9348,50.98348],[0.9337,50.9841],[0.92905,50.98186],[0.92817,50.98277],[0.92877,50.98303],[0.92839,50.98423],[0.92952,50.98446],[0.92959,50.98474],[0.92865,50.98599],[0.92771,50.98608],[0.92766,50.98643],[0.92921,50.98789],[0.93235,50.98899],[0.93404,50.98892],[0.93539,50.99021],[0.93658,50.99],[0.93748,50.98941],[0.94071,50.99173],[0.94234,50.99163],[0.94609,50.99356],[0.94795,50.99398],[0.94793,50.99434],[0.95168,50.99568],[0.95185,50.99377],[0.9526,50.99382],[0.9536,50.99462],[0.95899,50.99729]]]}},{"type":"Feature","properties":{"id":"E01024541","name":"E01024541","parent":"E07000112","type":"LSOA","pop":2509,"r":131,"ff":53,"ffd":2112.4,"ffs":0.5096,"g":26,"co":2,"mo":0,"sa":0,"ic":0},"geometry":{"type":"Polygon","coordinates":[[[1.17084,51.13259],[1.17466,51.13134],[1.17732,51.13244],[1.17682,51.13181],[1.17693,51.13115],[1.17612,51.13049],[1.17651,51.1302],[1.17584,51.12844],[1.17546,51.12847],[1.17576,51.12909],[1.17529,51.12925],[1.17349,51.12735],[1.17415,51.12699],[1.17396,51.12673],[1.17157,51.1248],[1.17258,51.12303],[1.17114,51.12423],[1.16618,51.12311],[1.17012,51.12187],[1.17155,51.12241],[1.17192,51.12219],[1.17299,51.12238],[1.1736,51.12158],[1.17275,51.12134],[1.17269,51.12049],[1.17069,51.11962],[1.16911,51.12024],[1.16811,51.11974],[1.16896,51.11932],[1.16758,51.11916],[1.16748,51.11772],[1.1664,51.11651],[1.16688,51.11613],[1.16655,51.1151],[1.16502,51.11475],[1.1638,51.11483],[1.1631,51.11407],[1.16346,51.11325],[1.16286,51.11302],[1.16337,51.11269],[1.16327,51.11229],[1.16271,51.11201],[1.1603,51.11448],[1.159,51.11637],[1.15939,51.11649],[1.1587,51.11856],[1.15754,51.1195],[1.15624,51.11979],[1.15318,51.11961],[1.15348,51.11835],[1.15213,51.11657],[1.15181,51.11548],[1.15214,51.115],[1.15287,51.11492],[1.15258,51.11464],[1.15151,51.11464],[1.15032,51.11296],[1.14817,51.11345],[1.14813,51.11417],[1.14976,51.11614],[1.14974,51.11664],[1.15107,51.11771],[1.14935,51.11841],[1.14829,51.11926],[1.15258,51.12427],[1.15561,51.12314],[1.15979,51.124],[1.1626,51.12824],[1.16386,51.12868],[1.16667,51.13164],[1.16556,51.13216],[1.16691,51.13325],[1.17084,51.13259]]]}},{"type":"Feature","properties":{"id":"E01024542","name":"E01024542","parent":"E07000112","type":"LSOA","pop":2011,"r":130,"ff":53,"ffd":2635.5,"ffs":0.5146,"g":26,"co":2,"mo":0,"sa":0,"ic":0},"geometry":{"type":"Polygon","coordinates":[[[1.17305,51.12253],[1.17487,51.12226],[1.17801,51.12371],[1.17905,51.12281],[1.17915,51.12087],[1.18003,51.1199],[1.18087,51.1192],[1.18246,51.11985],[1.18455,51.11793],[1.18073,51.11718],[1.17879,51.11713],[1.17834,51.1174],[1.17829,51.11708],[1.17749,51.11679],[1.17967,51.11572],[1.1789,51.11455],[1.17959,51.11239],[1.18188,51.11232],[1.18179,51.11178],[1.18249,51.11083],[1.18166,51.11004],[1.17892,51.10912],[1.17714,51.11052],[1.17517,51.1093],[1.17282,51.10931],[1.17118,51.11],[1.17119,51.11081],[1.17001,51.11054],[1.16944,51.1114],[1.16803,51.11226],[1.16635,51.11147],[1.16643,51.1111],[1.1656,51.11101],[1.16473,51.11142],[1.1637,51.11095],[1.16317,51.11151],[1.16396,51.11191],[1.16327,51.11229],[1.16337,51.11269],[1.16286,51.11302],[1.16346,51.11325],[1.1631,51.11407],[1.1638,51.11483],[1.16502,51.11475],[1.16655,51.1151],[1.16688,51.11613],[1.1664,51.11651],[1.16748,51.11772],[1.16758,51.11916],[1.16896,51.11932],[1.16811,51.11974],[1.16911,51.12024],[1.17069,51.11962],[1.17269,51.12049],[1.17275,51.12134],[1.1736,51.12158],[1.17299,51.12238],[1.17192,51.12219],[1.17155,51.12241],[1.17012,51.12187],[1.16618,51.12311],[1.17114,51.12423],[1.17305,51.12253]]]}},{"type":"Feature","properties":{"id":"E01024544","name":"E01024544","parent":"E07000112","type":"LSOA","pop":1432,"r":118,"ff":50,"ffd":3491.6,"ffs":0.5495,"g":26,"co":2,"mo":0,"sa":0,"ic":0},"geometry":{"type":"Polygon","coordinates":[[[1.17104,51.16123],[1.17159,51.16066],[1.17536,51.16245],[1.17574,51.16225],[1.17653,51.16245],[1.17756,51.15933],[1.17709,51.15692],[1.17954,51.15672],[1.18127,51.15616],[1.18191,51.15736],[1.18303,51.15794],[1.18803,51.15485],[1.19071,51.15404],[1.19418,51.15423],[1.20128,51.15529],[1.20304,51.15515],[1.20769,51.1568],[1.21081,51.15267],[1.21106,51.15148],[1.20662,51.14956],[1.20405,51.14794],[1.20314,51.14718],[1.20227,51.14566],[1.19902,51.14481],[1.19783,51.14368],[1.19504,51.14259],[1.19351,51.14127],[1.18915,51.13876],[1.18921,51.13651],[1.19012,51.13599],[1.1885,51.13482],[1.18592,51.13415],[1.18447,51.13476],[1.18217,51.13336],[1.17904,51.13448],[1.17732,51.13244],[1.17466,51.13134],[1.17084,51.13259],[1.16691,51.13325],[1.16556,51.13216],[1.16667,51.13164],[1.16386,51.12868],[1.1626,51.12824],[1.15979,51.124],[1.15561,51.12314],[1.15,51.12506],[1.14436,51.12613],[1.1421,51.12596],[1.14049,51.12511],[1.13427,51.12633],[1.13248,51.12563],[1.13102,51.12206],[1.12787,51.11741],[1.13105,51.12227],[1.12711,51.12345],[1.12531,51.12465],[1.12111,51.12794],[1.12008,51.12907],[1.11824,51.12999],[1.11874,51.13134],[1.11985,51.13184],[1.12108,51.13305],[1.12605,51.13465],[1.12981,51.137],[1.13491,51.14293],[1.13706,51.14362],[1.13797,51.14564],[1.13976,51.14782],[1.14269,51.14748],[1.14633,51.14655],[1.1481,51.14656],[1.14849,51.14628],[1.14999,51.14832],[1.14926,51.15121],[1.15145,51.15515],[1.15037,51.15755],[1.15123,51.16004],[1.15359,51.16216],[1.15336,51.16245],[1.15634,51.16127],[1.15642,51.16036],[1.15698,51.15987],[1.16195,51.15802],[1.16582,51.1585],[1.16584,51.16005],[1.16896,51.16266],[1.17073,51.16314],[1.17104,51.16123]]]}},{"type":"Feature","properties":{"id":"E01024545","name":"E01024545","parent":"E07000112","type":"LSOA","pop":1501,"r":9,"ff":7,"ffd":466.4,"ffs":0.7778,"g":0,"co":3,"mo":3,"sa":3,"ic":1},"geometry":{"type":"Polygon","coordinates":[[[1.05472,51.18856],[1.05172,51.16218],[1.05623,51.16023],[1.0563,51.15854],[1.0569,51.15821],[1.05605,51.15745],[1.05836,51.15857],[1.06385,51.16236],[1.06935,51.16329],[1.07113,51.16604],[1.07276,51.16755],[1.07488,51.16579],[1.07596,51.16616],[1.0775,51.16732],[1.08079,51.16387],[1.08381,51.16263],[1.08532,51.16074],[1.08615,51.15914],[1.08602,51.15773],[1.08555,51.15659],[1.08413,51.15518],[1.08133,51.15133],[1.08008,51.15057],[1.07485,51.14419],[1.07777,51.1402],[1.08052,51.13955],[1.08183,51.13863],[1.08437,51.13773],[1.08536,51.13792],[1.09173,51.13491],[1.09675,51.13326],[1.10121,51.13281],[1.10355,51.13135],[1.10577,51.12936],[1.10327,51.12843],[1.10348,51.12814],[1.10054,51.12693],[1.0985,51.12778],[1.09631,51.12841],[1.094,51.12854],[1.09219,51.12927],[1.09287,51.12984],[1.09302,51.13208],[1.0911,51.13118],[1.09052,51.13025],[1.09061,51.12917],[1.08942,51.12884],[1.08904,51.12967],[1.08768,51.12861],[1.08756,51.12896],[1.08697,51.12908],[1.08726,51.12934],[1.08582,51.12943],[1.08529,51.1304],[1.08205,51.13059],[1.08203,51.1293],[1.08118,51.1292],[1.07973,51.12955],[1.07947,51.12904],[1.08038,51.12882],[1.08164,51.12761],[1.07903,51.12262],[1.07678,51.12239],[1.0745,51.12586],[1.07851,51.12604],[1.07801,51.12735],[1.07706,51.12718],[1.07643,51.1281],[1.07293,51.12542],[1.06956,51.12352],[1.06397,51.12488],[1.05973,51.12455],[1.05755,51.12575],[1.05054,51.12661],[1.05219,51.12541],[1.05389,51.12227],[1.05129,51.12218],[1.04997,51.12097],[1.04961,51.1201],[1.04708,51.11895],[1.04386,51.11659],[1.04172,51.1086],[1.03884,51.1103],[1.03832,51.11143],[1.03714,51.112],[1.03611,51.11162],[1.03497,51.11031],[1.03407,51.11107],[1.03223,51.11112],[1.03045,51.11322],[1.02604,51.112],[1.02344,51.11222],[1.02269,51.11284],[1.01899,51.11277],[1.01404,51.11091],[1.0125,51.11067],[1.0118,51.11121],[1.00978,51.11185],[1.00609,51.11199],[1.00537,51.11331],[1.0071,51.11552],[1.00883,51.11646],[1.00928,51.11627],[1.01125,51.11723],[1.01212,51.1172],[1.01488,51.11879],[1.01687,51.1194],[1.01707,51.1202],[1.01655,51.12126],[1.01552,51.12185],[1.01638,51.123],[1.01679,51.12286],[1.01758,51.12542],[1.02057,51.12408],[1.02213,51.12384],[1.02387,51.12508],[1.02293,51.12561],[1.02445,51.12857],[1.02691,51.12952],[1.02924,51.13254],[1.02509,51.13392],[1.02395,51.13414],[1.02245,51.13395],[1.02057,51.13466],[1.01649,51.14023],[1.01801,51.14129],[1.01656,51.14226],[1.01309,51.14279],[1.01203,51.14371],[1.01022,51.14416],[1.00862,51.145],[1.00846,51.14554],[1.00976,51.14796],[1.01242,51.1499],[1.01324,51.15096],[1.01193,51.15138],[1.01188,51.1525],[1.01111,51.15329],[1.0095,51.1541],[1.01692,51.1612],[1.01578,51.1615],[1.01357,51.16135],[1.01175,51.16259],[1.00957,51.16344],[1.00821,51.1633],[1.00304,51.16443],[0.99844,51.16474],[0.9986,51.1666],[1.00071,51.16822],[1.00128,51.16949],[0.99953,51.17212],[1.00161,51.17542],[1.00279,51.17885],[1.00397,51.18005],[1.00769,51.18163],[1.01418,51.18105],[1.01761,51.17946],[1.02129,51.17935],[1.02407,51.18025],[1.02852,51.181],[1.03984,51.18219],[1.04121,51.18305],[1.04205,51.18444],[1.04243,51.18553],[1.04185,51.18651],[1.04203,51.18712],[1.04958,51.18499],[1.05089,51.18646],[1.05472,51.18856]]]}},{"type":"Feature","properties":{"id":"E01024546","name":"E01024546","parent":"E07000112","type":"LSOA","pop":2129,"r":92,"ff":29,"ffd":1362.1,"ffs":0.4603,"g":28,"co":0,"mo":2,"sa":2,"ic":0},"geometry":{"type":"Polygon","coordinates":[[[1.00046,51.1184],[1.00304,51.11823],[1.00403,51.11898],[1.00644,51.11777],[1.00796,51.11656],[1.00883,51.11646],[1.0071,51.11552],[1.00537,51.11331],[1.00609,51.11199],[1.00978,51.11185],[1.0118,51.11121],[1.0125,51.11067],[1.01404,51.11091],[1.01899,51.11277],[1.02269,51.11284],[1.02344,51.11222],[1.02044,51.11117],[1.0177,51.10926],[1.019,51.10872],[1.01867,51.10801],[1.01999,51.10737],[1.01887,51.10396],[1.0166,51.10264],[1.01648,51.10219],[1.01552,51.10199],[1.01351,51.10084],[1.01302,51.1001],[1.01505,51.0995],[1.01671,51.09941],[1.01854,51.09864],[1.01857,51.09761],[1.01681,51.09627],[1.01608,51.09636],[1.01455,51.09469],[1.01507,51.09369],[1.01424,51.09283],[1.01373,51.09082],[1.01523,51.09043],[1.0195,51.09009],[1.01818,51.08871],[1.01714,51.0882],[1.01522,51.0863],[1.0118,51.0876],[1.01218,51.08836],[1.0122,51.09129],[1.01086,51.09205],[1.01025,51.09337],[1.00587,51.09357],[1.00017,51.09453],[0.99989,51.09333],[0.99804,51.09368],[0.9983,51.09152],[0.99757,51.09147],[0.99747,51.08944],[0.99832,51.08865],[0.99912,51.08858],[0.9997,51.08819],[0.99945,51.08704],[0.99709,51.08598],[0.99659,51.08539],[0.99728,51.08276],[0.99699,51.08197],[0.99568,51.08142],[0.99562,51.0819],[0.9893,51.08434],[0.98901,51.08541],[0.9903,51.08769],[0.98986,51.08939],[0.98496,51.09099],[0.98347,51.09109],[0.98239,51.09272],[0.98368,51.09346],[0.98507,51.09722],[0.9854,51.09988],[0.98512,51.10025],[0.98392,51.10028],[0.98317,51.10132],[0.9821,51.10156],[0.98215,51.10193],[0.9803,51.10361],[0.9798,51.10459],[0.97851,51.10438],[0.97797,51.10516],[0.97859,51.10613],[0.98045,51.10746],[0.98339,51.10833],[0.98169,51.11005],[0.98221,51.11088],[0.97977,51.11219],[0.98185,51.11389],[0.98386,51.11389],[0.98456,51.11413],[0.98386,51.11457],[0.98554,51.11514],[0.9879,51.11658],[0.98885,51.11758],[0.98974,51.11713],[0.99114,51.11731],[0.99176,51.11768],[0.99338,51.11746],[0.99413,51.11797],[0.99566,51.11833],[0.99626,51.11896],[0.99628,51.1199],[0.99542,51.12232],[1.00051,51.12125],[0.99898,51.1189],[1.00046,51.1184]]]}},{"type":"Feature","properties":{"id":"E01024547","name":"E01024547","parent":"E07000112","type":"LSOA","pop":1295,"r":18,"ff":13,"ffd":1003.9,"ffs":0.7222,"g":0,"co":3,"mo":3,"sa":3,"ic":1},"geometry":{"type":"Polygon","coordinates":[[[1.09306,51.12892],[1.094,51.12854],[1.09631,51.12841],[1.0985,51.12778],[1.09734,51.12454],[1.0965,51.12463],[1.0971,51.12363],[1.09559,51.12351],[1.09573,51.12282],[1.09265,51.12244],[1.09226,51.12446],[1.09163,51.12449],[1.09147,51.1241],[1.09073,51.12424],[1.09056,51.12334],[1.08944,51.12188],[1.08295,51.1175],[1.07825,51.11834],[1.07148,51.12049],[1.06663,51.12076],[1.06269,51.1204],[1.05949,51.12057],[1.05544,51.12146],[1.05389,51.12227],[1.05219,51.12541],[1.05054,51.12661],[1.05755,51.12575],[1.05973,51.12455],[1.06397,51.12488],[1.06956,51.12352],[1.07293,51.12542],[1.07643,51.1281],[1.07706,51.12718],[1.07801,51.12735],[1.07851,51.12604],[1.0745,51.12586],[1.07678,51.12239],[1.07903,51.12262],[1.08164,51.12761],[1.08038,51.12882],[1.07947,51.12904],[1.07973,51.12955],[1.08118,51.1292],[1.08203,51.1293],[1.08205,51.13059],[1.08529,51.1304],[1.08582,51.12943],[1.08726,51.12934],[1.08697,51.12908],[1.08756,51.12896],[1.08768,51.12861],[1.08904,51.12967],[1.08942,51.12884],[1.09061,51.12917],[1.09052,51.13025],[1.0911,51.13118],[1.09302,51.13208],[1.09287,51.12984],[1.09219,51.12927],[1.09306,51.12892]]]}},{"type":"Feature","properties":{"id":"E01024548","name":"E01024548","parent":"E07000112","type":"LSOA","pop":1381,"r":16,"ff":10,"ffd":724.1,"ffs":0.625,"g":0,"co":3,"mo":3,"sa":3,"ic":3},"geometry":{"type":"Polygon","coordinates":[[[0.87269,51.0528],[0.87528,51.05099],[0.87606,51.05092],[0.87724,51.05163],[0.87811,51.05124],[0.88145,51.04834],[0.88239,51.04633],[0.88198,51.04525],[0.88268,51.04495],[0.88319,51.04369],[0.88282,51.04294],[0.88213,51.04271],[0.88404,51.04179],[0.88558,51.04022],[0.88794,51.03999],[0.89021,51.04111],[0.89126,51.03959],[0.89209,51.04004],[0.89316,51.03945],[0.89388,51.0374],[0.89587,51.03601],[0.89802,51.03593],[0.8963,51.03436],[0.8964,51.03291],[0.89847,51.03281],[0.90001,51.02942],[0.9009,51.02876],[0.9,51.02846],[0.89981,51.02764],[0.89883,51.027],[0.89868,51.02647],[0.90008,51.02578],[0.90146,51.02682],[0.90264,51.02607],[0.90174,51.02537],[0.90304,51.02467],[0.9024,51.02435],[0.90404,51.02364],[0.90336,51.0227],[0.90447,51.02221],[0.90476,51.02248],[0.90575,51.02215],[0.90654,51.0224],[0.90715,51.02113],[0.90891,51.02221],[0.90999,51.02174],[0.90928,51.02048],[0.91042,51.02019],[0.91061,51.02051],[0.91165,51.02047],[0.9141,51.01984],[0.9145,51.0168],[0.91345,51.01495],[0.9136,51.01423],[0.91292,51.01359],[0.90859,51.01227],[0.91005,51.01018],[0.90768,51.00958],[0.90642,51.00733],[0.90528,51.00732],[0.9048,51.00628],[0.90201,51.006],[0.90148,51.00693],[0.90025,51.00733],[0.89829,51.0063],[0.89671,51.00592],[0.89608,51.00544],[0.89694,51.00385],[0.89235,51.00197],[0.89071,51.00053],[0.88738,51.00109],[0.88618,50.99975],[0.88516,51.00022],[0.88363,51.00036],[0.8825,51.00006],[0.88151,51.00023],[0.87907,50.99931],[0.87791,50.99954],[0.87723,51.00015],[0.87339,50.99887],[0.87311,50.99903],[0.86823,50.99633],[0.86479,50.9948],[0.86437,50.99492],[0.86294,50.9939],[0.86124,50.9941],[0.85934,50.99289],[0.85911,50.99302],[0.85743,50.99206],[0.85686,50.99132],[0.85293,50.98969],[0.85313,50.9884],[0.84998,50.98846],[0.84455,50.98642],[0.84442,50.98421],[0.84493,50.98288],[0.84329,50.97755],[0.84347,50.97663],[0.83466,50.97356],[0.8342,50.97267],[0.83121,50.97232],[0.83026,50.97165],[0.83036,50.97025],[0.8296,50.96746],[0.82941,50.96136],[0.82888,50.96009],[0.82638,50.9595],[0.82525,50.95707],[0.82576,50.95678],[0.82519,50.95557],[0.82574,50.95433],[0.82358,50.95294],[0.82447,50.95164],[0.8255,50.94539],[0.82471,50.94543],[0.8229,50.94476],[0.82123,50.94573],[0.81878,50.94539],[0.81849,50.94507],[0.81939,50.9443],[0.81855,50.9431],[0.81678,50.94229],[0.81467,50.9424],[0.81306,50.94197],[0.81276,50.94256],[0.81346,50.94901],[0.80455,50.95581],[0.78966,50.97083],[0.78954,50.97142],[0.78546,50.97523],[0.78433,50.97723],[0.78384,50.97709],[0.78297,50.97742],[0.78075,50.97679],[0.77866,50.97658],[0.77713,50.97543],[0.77709,50.97734],[0.77845,50.97835],[0.77779,50.97944],[0.77883,50.97984],[0.7817,50.98289],[0.77994,50.98232],[0.7791,50.98237],[0.77703,50.98486],[0.78105,50.9865],[0.77954,50.98749],[0.77896,50.98949],[0.78221,50.99385],[0.83087,51.04937],[0.8321,51.04842],[0.83394,51.04791],[0.8355,51.04818],[0.83662,51.04714],[0.83613,51.04706],[0.83619,51.04668],[0.83707,51.04642],[0.83765,51.04584],[0.83721,51.04485],[0.83788,51.04407],[0.83428,51.04466],[0.8328,51.04459],[0.83117,51.04359],[0.83109,51.04172],[0.83131,51.04129],[0.83355,51.04147],[0.83361,51.04003],[0.84012,51.03894],[0.83922,51.03617],[0.83966,51.03452],[0.83752,51.03265],[0.83909,51.03135],[0.84041,51.03196],[0.84843,51.0333],[0.84973,51.03329],[0.85123,51.03254],[0.85152,51.03271],[0.85262,51.03205],[0.85481,51.03176],[0.85467,51.0326],[0.85675,51.03255],[0.85587,51.03393],[0.85685,51.03526],[0.85592,51.03605],[0.85607,51.03938],[0.85553,51.04026],[0.85545,51.04221],[0.85337,51.04229],[0.85333,51.04271],[0.85385,51.04348],[0.85532,51.04373],[0.85574,51.04502],[0.858,51.04447],[0.86044,51.04431],[0.86147,51.04379],[0.86657,51.04395],[0.86702,51.04318],[0.86968,51.04411],[0.86934,51.04514],[0.87109,51.04559],[0.87082,51.04639],[0.87142,51.04708],[0.87091,51.04721],[0.87034,51.04823],[0.86777,51.04773],[0.86888,51.0492],[0.87047,51.04948],[0.87062,51.05103],[0.86964,51.05086],[0.869,51.05161],[0.87044,51.05231],[0.87112,51.05214],[0.8717,51.05265],[0.87221,51.05241],[0.87269,51.0528]]]}},{"type":"Feature","properties":{"id":"E01024549","name":"E01024549","parent":"E07000112","type":"LSOA","pop":1226,"r":17,"ff":9,"ffd":734.1,"ffs":0.5625,"g":1,"co":3,"mo":3,"sa":3,"ic":1},"geometry":{"type":"Polygon","coordinates":[[[0.98843,51.07063],[0.99692,51.06956],[1.00382,51.06954],[1.00648,51.06917],[1.01256,51.06742],[1.01383,51.06746],[1.01927,51.06661],[1.02239,51.06665],[1.0222,51.06424],[1.02532,51.06133],[1.02606,51.05943],[1.02856,51.05629],[1.02762,51.05424],[1.02522,51.05264],[1.02168,51.05129],[1.02087,51.05137],[1.02051,51.05176],[1.02031,51.05161],[1.01994,51.04946],[1.01873,51.04782],[1.019,51.04625],[1.01843,51.04482],[1.01704,51.04481],[1.01679,51.04368],[1.01566,51.04306],[1.01482,51.04205],[1.01402,51.04188],[1.01349,51.04105],[1.01216,51.0412],[1.01162,51.04067],[1.01045,51.04036],[1.0088,51.04065],[1.00777,51.03868],[1.0066,51.03796],[1.00614,51.03804],[1.00573,51.03725],[1.00525,51.0369],[1.00424,51.03687],[1.0043,51.03656],[0.99927,51.03565],[0.99836,51.03479],[0.99534,51.03631],[0.99341,51.03689],[0.99194,51.03691],[0.99073,51.03649],[0.98943,51.03671],[0.98798,51.03736],[0.98717,51.03852],[0.98561,51.03849],[0.9845,51.03781],[0.98314,51.03856],[0.98076,51.03762],[0.98272,51.03629],[0.97996,51.03581],[0.98034,51.03502],[0.97836,51.03452],[0.97762,51.03358],[0.97945,51.03149],[0.98083,51.03097],[0.98093,51.02973],[0.98,51.02939],[0.97972,51.03061],[0.97922,51.03032],[0.97735,51.03022],[0.97297,51.03129],[0.97195,51.03034],[0.97089,51.02995],[0.97119,51.02947],[0.96872,51.02412],[0.96902,51.02391],[0.9694,51.02234],[0.97072,51.02245],[0.97077,51.02124],[0.97241,51.02112],[0.97393,51.0198],[0.97563,51.01999],[0.97737,51.0179],[0.97619,51.01824],[0.97557,51.01768],[0.97466,51.01795],[0.97256,51.01622],[0.9703,51.01648],[0.96994,51.01569],[0.96749,51.01573],[0.96808,51.01392],[0.96781,51.01365],[0.96992,51.01265],[0.96807,51.01151],[0.96981,51.0089],[0.96811,51.00471],[0.96738,51.00391],[0.96461,51.00228],[0.96131,50.9994],[0.96057,50.9982],[0.9604,50.99674],[0.95996,50.99658],[0.95899,50.99729],[0.9536,50.99462],[0.9526,50.99382],[0.95185,50.99377],[0.95168,50.99568],[0.94793,50.99434],[0.94795,50.99398],[0.94609,50.99356],[0.94234,50.99163],[0.94071,50.99173],[0.93748,50.98941],[0.93658,50.99],[0.93539,50.99021],[0.93404,50.98892],[0.93235,50.98899],[0.92921,50.98789],[0.92766,50.98643],[0.92771,50.98608],[0.92865,50.98599],[0.92959,50.98474],[0.92952,50.98446],[0.92839,50.98423],[0.92877,50.98303],[0.92817,50.98277],[0.92404,50.98392],[0.92182,50.98423],[0.92164,50.98472],[0.91896,50.98517],[0.91879,50.98399],[0.91824,50.98388],[0.91789,50.98414],[0.91615,50.98255],[0.91472,50.98273],[0.91416,50.98229],[0.91469,50.98149],[0.91349,50.98034],[0.91207,50.9797],[0.91018,50.97822],[0.90893,50.97669],[0.90241,50.97219],[0.90092,50.97272],[0.89698,50.97024],[0.88997,50.96502],[0.88667,50.96389],[0.87868,50.95902],[0.86789,50.95541],[0.86689,50.95531],[0.86607,50.95484],[0.86609,50.95447],[0.86251,50.95253],[0.85943,50.9526],[0.85751,50.95346],[0.85597,50.95313],[0.85253,50.95157],[0.85115,50.9513],[0.84907,50.95126],[0.84804,50.95173],[0.84611,50.95185],[0.84572,50.95229],[0.8463,50.95253],[0.84692,50.95357],[0.84642,50.955],[0.8449,50.95594],[0.84428,50.95735],[0.8414,50.95761],[0.83976,50.95621],[0.84,50.95575],[0.84103,50.95528],[0.84117,50.95479],[0.83883,50.95426],[0.83874,50.95239],[0.8368,50.95032],[0.83574,50.95012],[0.83565,50.94966],[0.83437,50.9499],[0.83332,50.9495],[0.82987,50.94567],[0.8279,50.94587],[0.82643,50.94527],[0.8255,50.94539],[0.82447,50.95164],[0.82358,50.95294],[0.82574,50.95433],[0.82519,50.95557],[0.82576,50.95678],[0.82525,50.95707],[0.82638,50.9595],[0.82888,50.96009],[0.82941,50.96136],[0.8296,50.96746],[0.83036,50.97025],[0.83026,50.97165],[0.83121,50.97232],[0.8342,50.97267],[0.83466,50.97356],[0.84347,50.97663],[0.84329,50.97755],[0.84493,50.98288],[0.84442,50.98421],[0.84455,50.98642],[0.84998,50.98846],[0.85313,50.9884],[0.85293,50.98969],[0.85686,50.99132],[0.85743,50.99206],[0.85911,50.99302],[0.85934,50.99289],[0.86124,50.9941],[0.86294,50.9939],[0.86437,50.99492],[0.86479,50.9948],[0.86823,50.99633],[0.87311,50.99903],[0.87339,50.99887],[0.87723,51.00015],[0.87791,50.99954],[0.87907,50.99931],[0.88151,51.00023],[0.8825,51.00006],[0.88363,51.00036],[0.88516,51.00022],[0.88618,50.99975],[0.88738,51.00109],[0.89071,51.00053],[0.89235,51.00197],[0.89694,51.00385],[0.89608,51.00544],[0.89671,51.00592],[0.89829,51.0063],[0.90025,51.00733],[0.90148,51.00693],[0.90201,51.006],[0.9048,51.00628],[0.90528,51.00732],[0.90642,51.00733],[0.90768,51.00958],[0.91005,51.01018],[0.90859,51.01227],[0.91292,51.01359],[0.9136,51.01423],[0.91345,51.01495],[0.9145,51.0168],[0.9141,51.01984],[0.91165,51.02047],[0.91061,51.02051],[0.91042,51.02019],[0.90928,51.02048],[0.90999,51.02174],[0.90891,51.02221],[0.90715,51.02113],[0.90654,51.0224],[0.90575,51.02215],[0.90476,51.02248],[0.90447,51.02221],[0.90336,51.0227],[0.90404,51.02364],[0.9024,51.02435],[0.90304,51.02467],[0.90174,51.02537],[0.90264,51.02607],[0.90146,51.02682],[0.90008,51.02578],[0.89868,51.02647],[0.89883,51.027],[0.89981,51.02764],[0.9,51.02846],[0.9009,51.02876],[0.90001,51.02942],[0.89847,51.03281],[0.8964,51.03291],[0.8963,51.03436],[0.89802,51.03593],[0.89587,51.03601],[0.89448,51.03699],[0.89639,51.03788],[0.89685,51.0377],[0.89801,51.03825],[0.90012,51.03866],[0.89969,51.04302],[0.89797,51.04492],[0.90115,51.04908],[0.90332,51.05046],[0.9067,51.05122],[0.90977,51.04996],[0.91314,51.05031],[0.91368,51.05025],[0.91397,51.04977],[0.91444,51.04981],[0.91588,51.05048],[0.91499,51.05339],[0.91629,51.05344],[0.91675,51.05215],[0.91947,51.0526],[0.91967,51.05189],[0.92279,51.05207],[0.92134,51.05612],[0.92651,51.05649],[0.92736,51.05785],[0.93004,51.05855],[0.93016,51.05888],[0.93158,51.05896],[0.93251,51.06047],[0.93427,51.06115],[0.93513,51.05868],[0.93584,51.05803],[0.93657,51.05835],[0.93982,51.05706],[0.94381,51.056],[0.94413,51.05491],[0.94611,51.0551],[0.94934,51.05703],[0.95181,51.05695],[0.95351,51.05728],[0.95439,51.05781],[0.95417,51.05826],[0.95474,51.05891],[0.9579,51.06019],[0.96069,51.06016],[0.96359,51.06074],[0.96619,51.06234],[0.96893,51.06293],[0.96817,51.06703],[0.96836,51.06873],[0.96668,51.0688],[0.96658,51.07022],[0.98054,51.07071],[0.98843,51.07063]]]}},{"type":"Feature","properties":{"id":"E01024550","name":"E01024550","parent":"E07000112","type":"LSOA","pop":1997,"r":125,"ff":51,"ffd":2553.8,"ffs":0.5204,"g":26,"co":0,"mo":2,"sa":0,"ic":0},"geometry":{"type":"Polygon","coordinates":[[[1.11173,51.12941],[1.11442,51.12514],[1.11492,51.12539],[1.11717,51.12503],[1.11869,51.12578],[1.11909,51.12736],[1.12111,51.12794],[1.12711,51.12345],[1.13105,51.12227],[1.12787,51.11741],[1.12831,51.11664],[1.12804,51.11575],[1.12685,51.11448],[1.12546,51.11366],[1.12534,51.11278],[1.12845,51.11188],[1.13019,51.11193],[1.13353,51.11135],[1.13608,51.11142],[1.13871,51.11104],[1.14329,51.10981],[1.14479,51.10885],[1.14447,51.10747],[1.14498,51.10652],[1.14514,51.10453],[1.14438,51.10374],[1.14507,51.10352],[1.1454,51.10275],[1.14485,51.10156],[1.14113,51.10232],[1.13762,51.10244],[1.13137,51.10096],[1.13112,51.10065],[1.12919,51.10075],[1.1271,51.10037],[1.12723,51.09999],[1.12635,51.0996],[1.12487,51.09645],[1.12248,51.09382],[1.12274,51.09349],[1.12173,51.09292],[1.11724,51.08687],[1.11785,51.08607],[1.11749,51.0852],[1.11794,51.0842],[1.11599,51.08507],[1.1159,51.08587],[1.11479,51.08708],[1.11259,51.08842],[1.11139,51.0887],[1.10579,51.08779],[1.104,51.08582],[1.10452,51.08275],[1.1027,51.08273],[1.10232,51.08086],[1.09843,51.08016],[1.09551,51.07927],[1.09403,51.07848],[1.09349,51.07766],[1.09245,51.07736],[1.08981,51.07734],[1.08538,51.0785],[1.08224,51.07853],[1.0806,51.07889],[1.07765,51.08021],[1.07758,51.07976],[1.07616,51.07857],[1.0758,51.07906],[1.07411,51.07945],[1.07289,51.0776],[1.07137,51.07651],[1.06785,51.07742],[1.06524,51.07773],[1.06485,51.07711],[1.06192,51.07731],[1.06031,51.07651],[1.06096,51.07573],[1.06128,51.07398],[1.06184,51.07357],[1.06311,51.07374],[1.06475,51.0729],[1.06417,51.07259],[1.05847,51.07124],[1.05528,51.06987],[1.05049,51.06914],[1.04661,51.06902],[1.04591,51.06973],[1.0464,51.07193],[1.04743,51.07325],[1.04739,51.07675],[1.04706,51.07899],[1.04533,51.07939],[1.04515,51.08013],[1.04567,51.08133],[1.04,51.08337],[1.03757,51.08519],[1.03647,51.08556],[1.03725,51.0865],[1.03688,51.08791],[1.03721,51.0893],[1.03812,51.08921],[1.03818,51.08943],[1.03729,51.08963],[1.03846,51.09501],[1.04042,51.09472],[1.04088,51.09593],[1.04186,51.09613],[1.04079,51.09629],[1.04082,51.09665],[1.04241,51.09634],[1.04348,51.09738],[1.0446,51.09693],[1.045,51.09708],[1.04807,51.10014],[1.04916,51.10072],[1.05122,51.10436],[1.04991,51.10469],[1.04608,51.10707],[1.04158,51.10811],[1.04386,51.11659],[1.04708,51.11895],[1.04961,51.1201],[1.04997,51.12097],[1.05129,51.12218],[1.05389,51.12227],[1.05544,51.12146],[1.05949,51.12057],[1.06269,51.1204],[1.06663,51.12076],[1.07148,51.12049],[1.07825,51.11834],[1.08295,51.1175],[1.08944,51.12188],[1.09056,51.12334],[1.09073,51.12424],[1.09147,51.1241],[1.09163,51.12449],[1.09226,51.12446],[1.09265,51.12244],[1.09573,51.12282],[1.09559,51.12351],[1.0971,51.12363],[1.0965,51.12463],[1.09734,51.12454],[1.0985,51.12778],[1.10054,51.12693],[1.10348,51.12814],[1.10327,51.12843],[1.10923,51.13059],[1.11051,51.13062],[1.11173,51.12941]]]}},{"type":"Feature","properties":{"id":"E01033212","name":"E01033212","parent":"E07000112","type":"LSOA","pop":1593,"r":137,"ff":52,"ffd":3264.3,"ffs":0.4727,"g":26,"co":0,"mo":0,"sa":0,"ic":0},"geometry":{"type":"Polygon","coordinates":[[[1.18123,51.08232],[1.18359,51.08061],[1.18363,51.0804],[1.18186,51.08034],[1.18159,51.08001],[1.18203,51.08012],[1.18241,51.07973],[1.18091,51.07995],[1.18084,51.07951],[1.18121,51.07889],[1.18092,51.07874],[1.18122,51.07808],[1.18275,51.07842],[1.18229,51.07801],[1.18246,51.07747],[1.17987,51.07695],[1.17995,51.07746],[1.17831,51.07841],[1.17661,51.07799],[1.17565,51.07835],[1.177,51.07869],[1.17601,51.07889],[1.17613,51.07922],[1.17556,51.07918],[1.17488,51.07881],[1.17428,51.07929],[1.17528,51.08129],[1.17669,51.08077],[1.17828,51.08164],[1.17847,51.08147],[1.17886,51.08169],[1.17862,51.08213],[1.17944,51.08241],[1.18123,51.08232]]]}},{"type":"Feature","properties":{"id":"E01033213","name":"E01033213","parent":"E07000112","type":"LSOA","pop":2036,"r":131,"ff":52,"ffd":2554.0,"ffs":0.5,"g":26,"co":2,"mo":0,"sa":0,"ic":0},"geometry":{"type":"Polygon","coordinates":[[[1.15,51.12506],[1.15258,51.12427],[1.14829,51.11926],[1.14935,51.11841],[1.15107,51.11771],[1.14974,51.11664],[1.14976,51.11614],[1.14813,51.11417],[1.14817,51.11345],[1.15032,51.11296],[1.15151,51.11464],[1.15258,51.11464],[1.15287,51.11492],[1.15214,51.115],[1.15181,51.11548],[1.15213,51.11657],[1.15348,51.11835],[1.15318,51.11961],[1.15624,51.11979],[1.15754,51.1195],[1.1587,51.11856],[1.15939,51.11649],[1.15738,51.11606],[1.15686,51.11552],[1.15655,51.11474],[1.15481,51.11447],[1.15553,51.11368],[1.1537,51.11269],[1.15362,51.11155],[1.15549,51.11233],[1.15624,51.11192],[1.15413,51.11039],[1.15364,51.11061],[1.15398,51.11019],[1.15377,51.10993],[1.1546,51.10884],[1.15498,51.10904],[1.1556,51.1088],[1.15576,51.10835],[1.15648,51.10866],[1.15619,51.109],[1.15816,51.10829],[1.15698,51.108],[1.15782,51.10757],[1.15666,51.10676],[1.15846,51.10569],[1.16376,51.10393],[1.16603,51.10281],[1.16381,51.10148],[1.15974,51.10124],[1.15702,51.10157],[1.14983,51.10128],[1.1473,51.10173],[1.14485,51.10156],[1.1454,51.10275],[1.14507,51.10352],[1.14438,51.10374],[1.14514,51.10453],[1.14498,51.10652],[1.14447,51.10747],[1.14479,51.10885],[1.14329,51.10981],[1.13871,51.11104],[1.13608,51.11142],[1.13353,51.11135],[1.13019,51.11193],[1.12845,51.11188],[1.12534,51.11278],[1.12546,51.11366],[1.12685,51.11448],[1.12804,51.11575],[1.12831,51.11664],[1.12787,51.11741],[1.13102,51.12206],[1.13248,51.12563],[1.13427,51.12633],[1.14049,51.12511],[1.1421,51.12596],[1.14436,51.12613],[1.15,51.12506]]]}},{"type":"Feature","properties":{"id":"E01033214","name":"E01033214","parent":"E07000112","type":"LSOA","pop":2133,"r":133,"ff":53,"ffd":2484.8,"ffs":0.5,"g":26,"co":2,"mo":0,"sa":0,"ic":0},"geometry":{"type":"Polygon","coordinates":[[[1.18775,51.11999],[1.18776,51.11887],[1.18898,51.11924],[1.19243,51.11916],[1.19737,51.11809],[1.19573,51.11596],[1.19557,51.11404],[1.194,51.11115],[1.19462,51.11067],[1.19542,51.10788],[1.1951,51.10568],[1.19676,51.1045],[1.19493,51.10307],[1.19668,51.10193],[1.20266,51.09961],[1.20205,51.09887],[1.19913,51.09697],[1.19526,51.09674],[1.1848,51.09985],[1.18219,51.1],[1.17546,51.10234],[1.17319,51.10358],[1.17193,51.10525],[1.16603,51.10281],[1.16376,51.10393],[1.15846,51.10569],[1.15666,51.10676],[1.15782,51.10757],[1.15698,51.108],[1.15816,51.10829],[1.15619,51.109],[1.15648,51.10866],[1.15576,51.10835],[1.1556,51.1088],[1.15498,51.10904],[1.1546,51.10884],[1.15377,51.10993],[1.15398,51.11019],[1.15364,51.11061],[1.15413,51.11039],[1.15624,51.11192],[1.15549,51.11233],[1.15362,51.11155],[1.1537,51.11269],[1.15553,51.11368],[1.15481,51.11447],[1.15655,51.11474],[1.15686,51.11552],[1.15738,51.11606],[1.159,51.11637],[1.1603,51.11448],[1.16271,51.11201],[1.16327,51.11229],[1.16396,51.11191],[1.16317,51.11151],[1.1637,51.11095],[1.16473,51.11142],[1.1656,51.11101],[1.16643,51.1111],[1.16635,51.11147],[1.16803,51.11226],[1.16944,51.1114],[1.17001,51.11054],[1.17119,51.11081],[1.17118,51.11],[1.17282,51.10931],[1.17517,51.1093],[1.17714,51.11052],[1.17892,51.10912],[1.18166,51.11004],[1.18249,51.11083],[1.18179,51.11178],[1.18188,51.11232],[1.17959,51.11239],[1.1789,51.11455],[1.17967,51.11572],[1.17749,51.11679],[1.17829,51.11708],[1.17834,51.1174],[1.17879,51.11713],[1.18073,51.11718],[1.18455,51.11793],[1.18246,51.11985],[1.18581,51.12137],[1.18775,51.11999]]]}},{"type":"Feature","properties":{"id":"E01033215","name":"E01033215","parent":"E07000112","type":"LSOA","pop":1445,"r":134,"ff":51,"ffd":3529.4,"ffs":0.4766,"g":26,"co":0,"mo":0,"sa":0,"ic":0},"geometry":{"type":"Polygon","coordinates":[[[1.18501,51.08039],[1.18535,51.07992],[1.18527,51.0795],[1.18403,51.07889],[1.18445,51.07799],[1.18523,51.07739],[1.18426,51.07721],[1.18438,51.07695],[1.18538,51.07713],[1.18571,51.07634],[1.17759,51.07595],[1.17683,51.07577],[1.17686,51.07528],[1.17601,51.07545],[1.17509,51.07526],[1.17471,51.0749],[1.1751,51.07464],[1.17434,51.07471],[1.17402,51.07435],[1.1739,51.07461],[1.17287,51.07462],[1.17278,51.07595],[1.17216,51.07705],[1.17448,51.07763],[1.17402,51.07863],[1.17613,51.07922],[1.17601,51.07889],[1.177,51.07869],[1.17565,51.07835],[1.17661,51.07799],[1.17831,51.07841],[1.17995,51.07746],[1.17987,51.07695],[1.18246,51.07747],[1.18229,51.07801],[1.18275,51.07842],[1.18122,51.07808],[1.18092,51.07874],[1.18121,51.07889],[1.18084,51.07951],[1.18091,51.07995],[1.18241,51.07973],[1.18203,51.08012],[1.18159,51.08001],[1.18186,51.08034],[1.18363,51.0804],[1.18348,51.08063],[1.18501,51.08039]]]}}]}