{"type":"FeatureCollection","features":[{"type":"Feature","properties":{"id":"E01023802","name":"E01023802","parent":"E07000102","type":"LSOA","pop":1622,"r":435,"ff":181,"ffd":11159.1,"ffs":0.5157,"g":81,"co":2,"mo":2,"sa":0,"ic":0},"geometry":{"type":"Polygon","coordinates":[[[-0.41342,51.70574],[-0.41252,51.70542],[-0.41166,51.7054],[-0.41069,51.7049],[-0.41056,51.70466],[-0.4111,51.70464],[-0.41084,51.70395],[-0.40962,51.7042],[-0.409,51.7048],[-0.40804,51.70475],[-0.40968,51.70319],[-0.41111,51.70317],[-0.41113,51.70253],[-0.4166,51.70196],[-0.42013,51.70088],[-0.42031,51.70155],[-0.42005,51.70223],[-0.42106,51.70236],[-0.42083,51.70285],[-0.41979,51.70313],[-0.41922,51.70293],[-0.41949,51.70342],[-0.41855,51.70338],[-0.41787,51.70378],[-0.41835,51.70463],[-0.41818,51.70528],[-0.41866,51.70504],[-0.41995,51.70586],[-0.41964,51.70604],[-0.42001,51.70673],[-0.42134,51.70733],[-0.42125,51.70796],[-0.42095,51.70779],[-0.42065,51.70818],[-0.41996,51.70795],[-0.41798,51.70686],[-0.41735,51.7057],[-0.4166,51.70573],[-0.41631,51.70625],[-0.41552,51.70556],[-0.41432,51.7058],[-0.41488,51.70734],[-0.41559,51.70795],[-0.41506,51.70835],[-0.41391,51.70845],[-0.41363,51.70793],[-0.41437,51.70741],[-0.41342,51.70574]]]}},{"type":"Feature","properties":{"id":"E01023803","name":"E01023803","parent":"E07000102","type":"LSOA","pop":1582,"r":439,"ff":182,"ffd":11504.4,"ffs":0.5141,"g":82,"co":2,"mo":2,"sa":0,"ic":0},"geometry":{"type":"Polygon","coordinates":[[[-0.42665,51.71211],[-0.42176,51.70776],[-0.42125,51.70796],[-0.42134,51.70733],[-0.42001,51.70673],[-0.41964,51.70604],[-0.41995,51.70586],[-0.41866,51.70504],[-0.41818,51.70528],[-0.41835,51.70463],[-0.41787,51.70378],[-0.41855,51.70338],[-0.41949,51.70342],[-0.41922,51.70293],[-0.41979,51.70313],[-0.42083,51.70285],[-0.42106,51.70236],[-0.42005,51.70223],[-0.42031,51.70155],[-0.42013,51.70088],[-0.42412,51.70033],[-0.42482,51.70234],[-0.42997,51.70163],[-0.43461,51.70123],[-0.43677,51.70237],[-0.43787,51.70657],[-0.43703,51.70671],[-0.43675,51.70564],[-0.43615,51.70569],[-0.436,51.70537],[-0.43193,51.70622],[-0.43171,51.70586],[-0.4276,51.70758],[-0.42816,51.70817],[-0.42568,51.70922],[-0.42791,51.7116],[-0.42665,51.71211]]]}},{"type":"Feature","properties":{"id":"E01023804","name":"E01023804","parent":"E07000102","type":"LSOA","pop":1538,"r":493,"ff":208,"ffd":13524.1,"ffs":0.5187,"g":89,"co":2,"mo":2,"sa":0,"ic":0},"geometry":{"type":"Polygon","coordinates":[[[-0.40736,51.71333],[-0.40671,51.71294],[-0.40592,51.71386],[-0.40449,51.71348],[-0.405,51.71259],[-0.40303,51.71222],[-0.40053,51.71106],[-0.40259,51.70929],[-0.40447,51.70885],[-0.40341,51.70677],[-0.40601,51.70617],[-0.40842,51.70516],[-0.40804,51.70475],[-0.409,51.7048],[-0.40962,51.7042],[-0.41084,51.70395],[-0.4111,51.70464],[-0.41056,51.70466],[-0.41069,51.7049],[-0.41166,51.7054],[-0.41252,51.70542],[-0.41342,51.70574],[-0.41437,51.70741],[-0.41363,51.70793],[-0.41391,51.70845],[-0.41506,51.70835],[-0.41559,51.70795],[-0.41488,51.70734],[-0.41432,51.7058],[-0.41552,51.70556],[-0.41631,51.70625],[-0.4166,51.70573],[-0.41735,51.7057],[-0.41798,51.70686],[-0.41996,51.70795],[-0.42065,51.70818],[-0.42095,51.70779],[-0.42125,51.70796],[-0.42176,51.70776],[-0.42665,51.71211],[-0.42318,51.71373],[-0.42246,51.7133],[-0.41936,51.71401],[-0.41538,51.71445],[-0.40742,51.7145],[-0.40736,51.71333]]]}},{"type":"Feature","properties":{"id":"E01023805","name":"E01023805","parent":"E07000102","type":"LSOA","pop":1817,"r":641,"ff":251,"ffd":13814.0,"ffs":0.4396,"g":67,"co":0,"mo":0,"sa":0,"ic":0},"geometry":{"type":"Polygon","coordinates":[[[-0.38064,51.62008],[-0.37851,51.61778],[-0.38201,51.61743],[-0.38368,51.61645],[-0.38499,51.61605],[-0.38408,51.61737],[-0.38564,51.61734],[-0.38642,51.6179],[-0.38651,51.61845],[-0.38721,51.61796],[-0.38912,51.61916],[-0.38945,51.61929],[-0.3897,51.61902],[-0.38906,51.61975],[-0.38683,51.62074],[-0.38597,51.62177],[-0.38655,51.62346],[-0.38598,51.62462],[-0.38716,51.62832],[-0.38568,51.62857],[-0.38359,51.6244],[-0.38064,51.62008]]]}},{"type":"Feature","properties":{"id":"E01023806","name":"E01023806","parent":"E07000102","type":"LSOA","pop":2463,"r":597,"ff":225,"ffd":9135.2,"ffs":0.4269,"g":67,"co":0,"mo":0,"sa":0,"ic":0},"geometry":{"type":"Polygon","coordinates":[[[-0.3897,51.61902],[-0.38945,51.61929],[-0.38912,51.61916],[-0.38721,51.61796],[-0.38651,51.61845],[-0.38642,51.6179],[-0.38564,51.61734],[-0.38408,51.61737],[-0.38499,51.61605],[-0.38695,51.61559],[-0.39384,51.61495],[-0.39947,51.61341],[-0.40405,51.61318],[-0.4038,51.61504],[-0.40462,51.61822],[-0.40454,51.61957],[-0.40418,51.61965],[-0.40428,51.62165],[-0.4029,51.62334],[-0.3897,51.61902]]]}},{"type":"Feature","properties":{"id":"E01023807","name":"E01023807","parent":"E07000102","type":"LSOA","pop":1542,"r":428,"ff":166,"ffd":10765.2,"ffs":0.4897,"g":86,"co":2,"mo":2,"sa":0,"ic":0},"geometry":{"type":"Polygon","coordinates":[[[-0.41501,51.73211],[-0.41189,51.73207],[-0.41012,51.72997],[-0.40919,51.72577],[-0.40756,51.72564],[-0.40661,51.72444],[-0.40933,51.72371],[-0.40969,51.72235],[-0.40893,51.72133],[-0.40253,51.72118],[-0.40345,51.71964],[-0.40256,51.71807],[-0.40671,51.71294],[-0.40736,51.71333],[-0.40742,51.7145],[-0.41538,51.71445],[-0.41936,51.71401],[-0.42246,51.7133],[-0.42376,51.71653],[-0.42642,51.71783],[-0.42651,51.71874],[-0.42586,51.71909],[-0.42621,51.71939],[-0.43085,51.71766],[-0.43123,51.71817],[-0.42982,51.71938],[-0.43046,51.72055],[-0.4333,51.71982],[-0.43379,51.7204],[-0.43449,51.72195],[-0.43578,51.72168],[-0.44085,51.72224],[-0.44136,51.72613],[-0.44339,51.72705],[-0.43989,51.7282],[-0.44237,51.7314],[-0.44067,51.7324],[-0.44023,51.73221],[-0.43958,51.7324],[-0.44045,51.73345],[-0.43831,51.73446],[-0.43455,51.73534],[-0.43491,51.73593],[-0.42609,51.73845],[-0.42648,51.73921],[-0.42503,51.73954],[-0.42532,51.74012],[-0.42208,51.74084],[-0.41807,51.73715],[-0.41815,51.73534],[-0.41616,51.73261],[-0.41501,51.73211]]]}},{"type":"Feature","properties":{"id":"E01023809","name":"E01023809","parent":"E07000102","type":"LSOA","pop":2000,"r":602,"ff":236,"ffd":11800.0,"ffs":0.4387,"g":61,"co":0,"mo":0,"sa":0,"ic":0},"geometry":{"type":"Polygon","coordinates":[[[-0.38349,51.62896],[-0.3837,51.62847],[-0.38283,51.62863],[-0.38251,51.62755],[-0.38125,51.62805],[-0.38149,51.62729],[-0.37867,51.62551],[-0.37728,51.6254],[-0.37754,51.6251],[-0.37573,51.62519],[-0.37566,51.62487],[-0.37504,51.62477],[-0.37244,51.62587],[-0.37051,51.62595],[-0.36888,51.62426],[-0.36877,51.62353],[-0.37124,51.62234],[-0.37552,51.62112],[-0.38064,51.62008],[-0.38359,51.6244],[-0.38613,51.62966],[-0.38443,51.62994],[-0.38356,51.62907],[-0.3828,51.62903],[-0.38349,51.62896]]]}},{"type":"Feature","properties":{"id":"E01023810","name":"E01023810","parent":"E07000102","type":"LSOA","pop":1852,"r":657,"ff":264,"ffd":14254.9,"ffs":0.449,"g":67,"co":0,"mo":0,"sa":0,"ic":0},"geometry":{"type":"Polygon","coordinates":[[[-0.37323,51.63451],[-0.36993,51.6312],[-0.36433,51.62463],[-0.3626,51.62354],[-0.36343,51.62254],[-0.36554,51.62133],[-0.36817,51.62065],[-0.37307,51.61899],[-0.37851,51.61778],[-0.38064,51.62008],[-0.37552,51.62112],[-0.37124,51.62234],[-0.36877,51.62353],[-0.36888,51.62426],[-0.37051,51.62595],[-0.37244,51.62587],[-0.37504,51.62477],[-0.37566,51.62487],[-0.37573,51.62519],[-0.37754,51.6251],[-0.37728,51.6254],[-0.37867,51.62551],[-0.38149,51.62729],[-0.38125,51.62805],[-0.38251,51.62755],[-0.38262,51.62822],[-0.37934,51.62886],[-0.38015,51.63041],[-0.37971,51.63051],[-0.37981,51.63097],[-0.37773,51.63134],[-0.37797,51.63169],[-0.37854,51.63165],[-0.37883,51.633],[-0.3753,51.63349],[-0.37612,51.63399],[-0.37516,51.63583],[-0.37323,51.63451]]]}},{"type":"Feature","properties":{"id":"E01023811","name":"E01023811","parent":"E07000102","type":"LSOA","pop":1501,"r":567,"ff":220,"ffd":14656.9,"ffs":0.4314,"g":55,"co":0,"mo":0,"sa":0,"ic":0},"geometry":{"type":"Polygon","coordinates":[[[-0.38629,51.63822],[-0.38369,51.63783],[-0.38275,51.63808],[-0.38232,51.63782],[-0.38087,51.63856],[-0.37964,51.63764],[-0.3785,51.6371],[-0.37742,51.6377],[-0.37516,51.63583],[-0.37612,51.63399],[-0.3753,51.63349],[-0.37883,51.633],[-0.37854,51.63165],[-0.37797,51.63169],[-0.37773,51.63134],[-0.37981,51.63097],[-0.37971,51.63051],[-0.38015,51.63041],[-0.37934,51.62886],[-0.38262,51.62822],[-0.38283,51.62863],[-0.3837,51.62847],[-0.38349,51.62896],[-0.3828,51.62903],[-0.38356,51.62907],[-0.38443,51.62994],[-0.38613,51.62966],[-0.38682,51.63195],[-0.38725,51.63641],[-0.38683,51.6396],[-0.3863,51.63954],[-0.38629,51.63822]]]}},{"type":"Feature","properties":{"id":"E01023812","name":"E01023812","parent":"E07000102","type":"LSOA","pop":1479,"r":419,"ff":145,"ffd":9803.9,"ffs":0.4421,"g":88,"co":0,"mo":0,"sa":2,"ic":0},"geometry":{"type":"Polygon","coordinates":[[[-0.47498,51.66299],[-0.47106,51.66147],[-0.47305,51.6587],[-0.47346,51.65886],[-0.47546,51.65756],[-0.47547,51.65606],[-0.47507,51.65493],[-0.47539,51.65422],[-0.4765,51.65417],[-0.47966,51.6554],[-0.4803,51.65433],[-0.48081,51.65452],[-0.48192,51.65276],[-0.47927,51.65223],[-0.48025,51.6506],[-0.47886,51.65021],[-0.47709,51.64898],[-0.4756,51.64576],[-0.47719,51.64575],[-0.4771,51.64438],[-0.47792,51.64434],[-0.47947,51.64289],[-0.48506,51.64621],[-0.48417,51.6474],[-0.48287,51.64772],[-0.48337,51.64828],[-0.48311,51.64862],[-0.48424,51.64936],[-0.48677,51.65004],[-0.49017,51.65192],[-0.49333,51.64956],[-0.49423,51.65014],[-0.49401,51.65052],[-0.49173,51.65199],[-0.49061,51.65333],[-0.48956,51.65341],[-0.48908,51.65402],[-0.48392,51.65351],[-0.48331,51.65416],[-0.4828,51.65716],[-0.48107,51.65749],[-0.47988,51.65829],[-0.48018,51.65866],[-0.48145,51.65846],[-0.48078,51.65898],[-0.48129,51.65931],[-0.47964,51.66083],[-0.4782,51.66045],[-0.47759,51.66221],[-0.47599,51.66199],[-0.47498,51.66299]]]}},{"type":"Feature","properties":{"id":"E01023813","name":"E01023813","parent":"E07000102","type":"LSOA","pop":1685,"r":461,"ff":159,"ffd":9436.2,"ffs":0.4441,"g":100,"co":0,"mo":0,"sa":2,"ic":0},"geometry":{"type":"Polygon","coordinates":[[[-0.50081,51.66777],[-0.49925,51.66734],[-0.49823,51.66808],[-0.49744,51.66743],[-0.49666,51.66727],[-0.4963,51.66753],[-0.49478,51.66676],[-0.49543,51.6664],[-0.49306,51.66384],[-0.48791,51.6659],[-0.48606,51.66593],[-0.48421,51.66399],[-0.48235,51.66326],[-0.48163,51.66202],[-0.48221,51.6602],[-0.48078,51.65898],[-0.48145,51.65846],[-0.48018,51.65866],[-0.47988,51.65829],[-0.48107,51.65749],[-0.4828,51.65716],[-0.48331,51.65416],[-0.48392,51.65351],[-0.48908,51.65402],[-0.48956,51.65341],[-0.49061,51.65333],[-0.49173,51.65199],[-0.49401,51.65052],[-0.49423,51.65014],[-0.49333,51.64956],[-0.49017,51.65192],[-0.48677,51.65004],[-0.48424,51.64936],[-0.48311,51.64862],[-0.48337,51.64828],[-0.48287,51.64772],[-0.48417,51.6474],[-0.48506,51.64621],[-0.49034,51.64788],[-0.50323,51.64991],[-0.50232,51.65055],[-0.50216,51.65005],[-0.50127,51.64996],[-0.50114,51.6512],[-0.50319,51.65098],[-0.50203,51.65149],[-0.50219,51.65183],[-0.50143,51.65201],[-0.50025,51.65146],[-0.49988,51.65198],[-0.50022,51.65265],[-0.49972,51.65267],[-0.49958,51.65216],[-0.49782,51.65233],[-0.49759,51.65178],[-0.49683,51.65285],[-0.49775,51.65316],[-0.4986,51.65304],[-0.49791,51.65378],[-0.49835,51.65555],[-0.49703,51.65657],[-0.49899,51.6572],[-0.49537,51.65994],[-0.49435,51.66012],[-0.49438,51.66061],[-0.49626,51.66184],[-0.49669,51.66151],[-0.49874,51.66424],[-0.49856,51.6646],[-0.50345,51.66632],[-0.5059,51.6661],[-0.50686,51.66343],[-0.50874,51.66315],[-0.51229,51.66392],[-0.51242,51.66367],[-0.51472,51.66545],[-0.51406,51.66705],[-0.51247,51.6686],[-0.51002,51.66988],[-0.50789,51.67196],[-0.50511,51.67308],[-0.50513,51.67115],[-0.50376,51.67001],[-0.50383,51.66949],[-0.50135,51.66842],[-0.50081,51.66777]]]}},{"type":"Feature","properties":{"id":"E01023814","name":"E01023814","parent":"E07000102","type":"LSOA","pop":1119,"r":383,"ff":132,"ffd":11796.2,"ffs":0.449,"g":87,"co":2,"mo":2,"sa":2,"ic":0},"geometry":{"type":"Polygon","coordinates":[[[-0.49874,51.66424],[-0.49669,51.66151],[-0.49626,51.66184],[-0.49555,51.66147],[-0.49438,51.66061],[-0.49435,51.66012],[-0.49537,51.65994],[-0.49899,51.6572],[-0.49703,51.65657],[-0.49835,51.65555],[-0.49791,51.65378],[-0.4986,51.65304],[-0.49775,51.65316],[-0.49683,51.65285],[-0.49759,51.65178],[-0.49782,51.65233],[-0.49958,51.65216],[-0.49972,51.65267],[-0.50022,51.65265],[-0.49988,51.65198],[-0.50025,51.65146],[-0.50143,51.65201],[-0.50219,51.65183],[-0.50203,51.65149],[-0.50319,51.65098],[-0.50114,51.6512],[-0.50127,51.64996],[-0.50216,51.65005],[-0.50232,51.65055],[-0.50297,51.65019],[-0.50464,51.65302],[-0.50567,51.65312],[-0.50587,51.65331],[-0.50542,51.65349],[-0.50482,51.6533],[-0.50448,51.65352],[-0.50452,51.65518],[-0.50105,51.65763],[-0.5034,51.65866],[-0.50963,51.66021],[-0.51176,51.66123],[-0.5123,51.66205],[-0.51242,51.66367],[-0.51229,51.66392],[-0.50874,51.66315],[-0.50686,51.66343],[-0.5059,51.6661],[-0.50345,51.66632],[-0.49856,51.6646],[-0.49874,51.66424]]]}},{"type":"Feature","properties":{"id":"E01023815","name":"E01023815","parent":"E07000102","type":"LSOA","pop":1659,"r":242,"ff":76,"ffd":4581.1,"ffs":0.4294,"g":64,"co":2,"mo":2,"sa":2,"ic":0},"geometry":{"type":"Polygon","coordinates":[[[-0.53055,51.65042],[-0.5301,51.6504],[-0.53017,51.65098],[-0.52975,51.65114],[-0.52942,51.65007],[-0.52757,51.65131],[-0.52715,51.65101],[-0.52624,51.6513],[-0.52566,51.65116],[-0.52546,51.6517],[-0.52456,51.65214],[-0.5234,51.65146],[-0.52256,51.65178],[-0.52065,51.65116],[-0.51936,51.65143],[-0.52075,51.65044],[-0.52296,51.64834],[-0.52352,51.64819],[-0.52396,51.64851],[-0.52446,51.64827],[-0.52391,51.64753],[-0.52298,51.64744],[-0.52174,51.64563],[-0.5203,51.64527],[-0.51955,51.64352],[-0.52055,51.64216],[-0.52304,51.6439],[-0.52623,51.64537],[-0.52878,51.64417],[-0.53334,51.64335],[-0.53293,51.64053],[-0.53231,51.63985],[-0.53266,51.63702],[-0.53926,51.63804],[-0.53884,51.64045],[-0.53739,51.64291],[-0.5349,51.64563],[-0.53196,51.64768],[-0.53093,51.64913],[-0.53667,51.65237],[-0.53449,51.65288],[-0.53055,51.65042]]]}},{"type":"Feature","properties":{"id":"E01023816","name":"E01023816","parent":"E07000102","type":"LSOA","pop":1327,"r":246,"ff":79,"ffd":5953.3,"ffs":0.4365,"g":64,"co":2,"mo":2,"sa":2,"ic":0},"geometry":{"type":"Polygon","coordinates":[[[-0.52035,51.65394],[-0.51996,51.65364],[-0.51927,51.65375],[-0.51725,51.6517],[-0.51675,51.6516],[-0.51638,51.65095],[-0.51578,51.65106],[-0.51554,51.65081],[-0.51492,51.65091],[-0.51483,51.6505],[-0.51436,51.65058],[-0.51383,51.65132],[-0.51088,51.65074],[-0.5106,51.65119],[-0.50532,51.65024],[-0.50652,51.65225],[-0.50567,51.65312],[-0.50464,51.65302],[-0.50297,51.65019],[-0.50323,51.64991],[-0.49878,51.64917],[-0.50064,51.64503],[-0.50261,51.64261],[-0.50751,51.64507],[-0.50841,51.64418],[-0.50954,51.64457],[-0.51204,51.64456],[-0.51733,51.64738],[-0.52045,51.64652],[-0.5203,51.64527],[-0.52174,51.64563],[-0.52298,51.64744],[-0.52391,51.64753],[-0.52446,51.64827],[-0.52396,51.64851],[-0.52352,51.64819],[-0.52296,51.64834],[-0.52075,51.65044],[-0.51936,51.65143],[-0.52065,51.65116],[-0.52256,51.65178],[-0.5234,51.65146],[-0.52456,51.65214],[-0.52413,51.65248],[-0.52236,51.6532],[-0.52111,51.65427],[-0.52013,51.65422],[-0.52035,51.65394]]]}},{"type":"Feature","properties":{"id":"E01023817","name":"E01023817","parent":"E07000102","type":"LSOA","pop":1472,"r":236,"ff":77,"ffd":5231.0,"ffs":0.4375,"g":60,"co":2,"mo":2,"sa":2,"ic":0},"geometry":{"type":"Polygon","coordinates":[[[-0.50292,51.65641],[-0.50452,51.65518],[-0.50448,51.65352],[-0.50482,51.6533],[-0.50542,51.65349],[-0.50587,51.65331],[-0.50567,51.65312],[-0.50652,51.65225],[-0.50532,51.65024],[-0.5106,51.65119],[-0.51088,51.65074],[-0.51383,51.65132],[-0.51436,51.65058],[-0.51483,51.6505],[-0.51492,51.65091],[-0.51554,51.65081],[-0.51578,51.65106],[-0.51638,51.65095],[-0.51675,51.6516],[-0.51725,51.6517],[-0.51927,51.65375],[-0.51996,51.65364],[-0.52035,51.65394],[-0.52013,51.65422],[-0.52111,51.65427],[-0.52236,51.6532],[-0.52413,51.65248],[-0.52544,51.65311],[-0.52492,51.65347],[-0.52528,51.65378],[-0.52484,51.65368],[-0.52284,51.65492],[-0.52588,51.65703],[-0.5252,51.65721],[-0.52216,51.65553],[-0.52144,51.6561],[-0.52293,51.65679],[-0.52169,51.65701],[-0.52189,51.65727],[-0.52134,51.65761],[-0.52277,51.65841],[-0.52243,51.65917],[-0.52253,51.66357],[-0.52099,51.66805],[-0.51751,51.66705],[-0.51472,51.66545],[-0.51242,51.66367],[-0.5123,51.66205],[-0.51176,51.66123],[-0.50963,51.66021],[-0.5034,51.65866],[-0.50105,51.65763],[-0.50292,51.65641]]]}},{"type":"Feature","properties":{"id":"E01023818","name":"E01023818","parent":"E07000102","type":"LSOA","pop":1455,"r":184,"ff":58,"ffd":3986.3,"ffs":0.4265,"g":48,"co":2,"mo":2,"sa":2,"ic":0},"geometry":{"type":"Polygon","coordinates":[[[-0.53253,51.66295],[-0.52444,51.65785],[-0.52277,51.65841],[-0.52134,51.65761],[-0.52189,51.65727],[-0.52169,51.65701],[-0.52293,51.65679],[-0.52144,51.6561],[-0.52216,51.65553],[-0.5252,51.65721],[-0.52588,51.65703],[-0.52284,51.65492],[-0.52484,51.65368],[-0.52528,51.65378],[-0.52492,51.65347],[-0.52544,51.65311],[-0.52413,51.65248],[-0.52546,51.6517],[-0.52566,51.65116],[-0.52624,51.6513],[-0.52715,51.65101],[-0.52757,51.65131],[-0.52942,51.65007],[-0.52975,51.65114],[-0.53017,51.65098],[-0.5301,51.6504],[-0.53055,51.65042],[-0.53394,51.65242],[-0.53613,51.65487],[-0.53608,51.65547],[-0.53646,51.65549],[-0.53629,51.65934],[-0.53673,51.65937],[-0.53689,51.66062],[-0.53634,51.66036],[-0.53517,51.66043],[-0.53497,51.66068],[-0.53327,51.66092],[-0.53309,51.66226],[-0.53253,51.66295]]]}},{"type":"Feature","properties":{"id":"E01023819","name":"E01023819","parent":"E07000102","type":"LSOA","pop":1676,"r":384,"ff":157,"ffd":9367.5,"ffs":0.4772,"g":54,"co":0,"mo":0,"sa":0,"ic":0},"geometry":{"type":"Polygon","coordinates":[[[-0.44588,51.65022],[-0.44609,51.64845],[-0.44496,51.64865],[-0.44432,51.6501],[-0.4419,51.6505],[-0.44231,51.64978],[-0.44172,51.64812],[-0.44205,51.64778],[-0.44155,51.64751],[-0.4421,51.64703],[-0.44707,51.6463],[-0.45207,51.64616],[-0.45301,51.64618],[-0.45387,51.64718],[-0.45382,51.64768],[-0.45261,51.648],[-0.45225,51.64994],[-0.45033,51.65063],[-0.44918,51.65037],[-0.44588,51.65022]]]}},{"type":"Feature","properties":{"id":"E01023820","name":"E01023820","parent":"E07000102","type":"LSOA","pop":1337,"r":393,"ff":157,"ffd":11742.7,"ffs":0.4758,"g":61,"co":0,"mo":0,"sa":0,"ic":0},"geometry":{"type":"Polygon","coordinates":[[[-0.45728,51.65763],[-0.4558,51.65615],[-0.4537,51.65527],[-0.45432,51.65332],[-0.45175,51.65322],[-0.45109,51.65366],[-0.45023,51.65258],[-0.44894,51.65244],[-0.44918,51.65037],[-0.45033,51.65063],[-0.45225,51.64994],[-0.45261,51.648],[-0.45382,51.64768],[-0.45387,51.64718],[-0.45301,51.64618],[-0.45577,51.64632],[-0.45718,51.64488],[-0.45922,51.64425],[-0.46226,51.64409],[-0.46253,51.64649],[-0.46298,51.64699],[-0.46419,51.64715],[-0.46451,51.64864],[-0.46506,51.64867],[-0.46621,51.64948],[-0.46587,51.65006],[-0.46688,51.65056],[-0.46559,51.65204],[-0.46492,51.65187],[-0.46336,51.6526],[-0.46522,51.65343],[-0.46365,51.65525],[-0.46513,51.65594],[-0.46322,51.65795],[-0.46103,51.65704],[-0.45977,51.65712],[-0.46008,51.65903],[-0.4577,51.65877],[-0.45728,51.65763]]]}},{"type":"Feature","properties":{"id":"E01023821","name":"E01023821","parent":"E07000102","type":"LSOA","pop":1349,"r":375,"ff":152,"ffd":11267.6,"ffs":0.4706,"g":51,"co":0,"mo":0,"sa":0,"ic":0},"geometry":{"type":"Polygon","coordinates":[[[-0.4334,51.65265],[-0.43181,51.65203],[-0.43738,51.65009],[-0.4421,51.64703],[-0.44155,51.64751],[-0.44205,51.64778],[-0.44172,51.64812],[-0.44231,51.64978],[-0.4419,51.6505],[-0.44207,51.65048],[-0.44207,51.65096],[-0.44253,51.65098],[-0.4424,51.65221],[-0.44189,51.65219],[-0.44168,51.65297],[-0.43726,51.65297],[-0.4334,51.65265]]]}},{"type":"Feature","properties":{"id":"E01023822","name":"E01023822","parent":"E07000102","type":"LSOA","pop":1428,"r":381,"ff":155,"ffd":10854.3,"ffs":0.474,"g":53,"co":0,"mo":0,"sa":0,"ic":0},"geometry":{"type":"Polygon","coordinates":[[[-0.44796,51.65368],[-0.44168,51.65297],[-0.44189,51.65219],[-0.4424,51.65221],[-0.44253,51.65098],[-0.44207,51.65096],[-0.44207,51.65048],[-0.44432,51.6501],[-0.44496,51.64865],[-0.44609,51.64845],[-0.44588,51.65022],[-0.44918,51.65037],[-0.44894,51.65244],[-0.45023,51.65258],[-0.45109,51.65366],[-0.45175,51.65322],[-0.45432,51.65332],[-0.4537,51.65527],[-0.45154,51.65498],[-0.44796,51.65368]]]}},{"type":"Feature","properties":{"id":"E01023823","name":"E01023823","parent":"E07000102","type":"LSOA","pop":1687,"r":417,"ff":148,"ffd":8773.0,"ffs":0.4582,"g":91,"co":0,"mo":0,"sa":0,"ic":0},"geometry":{"type":"Polygon","coordinates":[[[-0.44419,51.65784],[-0.44321,51.65752],[-0.44192,51.6576],[-0.44176,51.65629],[-0.4425,51.65562],[-0.44172,51.65493],[-0.44075,51.65461],[-0.43801,51.65448],[-0.43784,51.65399],[-0.43804,51.65349],[-0.43724,51.65338],[-0.43726,51.65297],[-0.44168,51.65297],[-0.44796,51.65368],[-0.45154,51.65498],[-0.4537,51.65527],[-0.4558,51.65615],[-0.45728,51.65763],[-0.4577,51.65877],[-0.4494,51.65888],[-0.44626,51.65858],[-0.44419,51.65784]]]}},{"type":"Feature","properties":{"id":"E01023824","name":"E01023824","parent":"E07000102","type":"LSOA","pop":2145,"r":354,"ff":149,"ffd":6946.4,"ffs":0.4853,"g":47,"co":0,"mo":0,"sa":0,"ic":0},"geometry":{"type":"Polygon","coordinates":[[[-0.42777,51.65332],[-0.43181,51.65203],[-0.4334,51.65265],[-0.43726,51.65297],[-0.43724,51.65338],[-0.43804,51.65349],[-0.43784,51.65399],[-0.43801,51.65448],[-0.44075,51.65461],[-0.44172,51.65493],[-0.4425,51.65562],[-0.44176,51.65629],[-0.44192,51.6576],[-0.44038,51.65786],[-0.4359,51.65971],[-0.43239,51.65731],[-0.43141,51.65721],[-0.43,51.65635],[-0.42789,51.65625],[-0.42784,51.65569],[-0.42453,51.65486],[-0.42478,51.65431],[-0.42777,51.65332]]]}},{"type":"Feature","properties":{"id":"E01023825","name":"E01023825","parent":"E07000102","type":"LSOA","pop":2457,"r":369,"ff":150,"ffd":6105.0,"ffs":0.4717,"g":50,"co":0,"mo":0,"sa":0,"ic":0},"geometry":{"type":"Polygon","coordinates":[[[-0.43023,51.64845],[-0.427,51.64627],[-0.42603,51.64537],[-0.42936,51.6437],[-0.43109,51.64209],[-0.42882,51.64132],[-0.42888,51.6411],[-0.43597,51.64051],[-0.44504,51.63833],[-0.44836,51.63919],[-0.4463,51.63993],[-0.44005,51.64442],[-0.44078,51.64601],[-0.43984,51.64661],[-0.44044,51.64677],[-0.44109,51.6464],[-0.44212,51.64657],[-0.4421,51.64703],[-0.43918,51.649],[-0.43738,51.65009],[-0.43568,51.65078],[-0.42478,51.65431],[-0.42657,51.65209],[-0.42653,51.65046],[-0.43023,51.64845]]]}},{"type":"Feature","properties":{"id":"E01023826","name":"E01023826","parent":"E07000102","type":"LSOA","pop":1599,"r":383,"ff":156,"ffd":9756.1,"ffs":0.4785,"g":56,"co":0,"mo":0,"sa":0,"ic":0},"geometry":{"type":"Polygon","coordinates":[[[-0.44212,51.64657],[-0.44109,51.6464],[-0.44044,51.64677],[-0.43984,51.64661],[-0.44078,51.64601],[-0.44005,51.64442],[-0.4463,51.63993],[-0.44836,51.63919],[-0.45143,51.63993],[-0.46078,51.64132],[-0.46135,51.64189],[-0.46148,51.64326],[-0.46226,51.64409],[-0.45922,51.64425],[-0.45718,51.64488],[-0.45577,51.64632],[-0.45207,51.64616],[-0.44707,51.6463],[-0.4421,51.64703],[-0.44212,51.64657]]]}},{"type":"Feature","properties":{"id":"E01023827","name":"E01023827","parent":"E07000102","type":"LSOA","pop":2478,"r":537,"ff":211,"ffd":8514.9,"ffs":0.4451,"g":62,"co":0,"mo":0,"sa":0,"ic":0},"geometry":{"type":"Polygon","coordinates":[[[-0.3925,51.63275],[-0.39336,51.6305],[-0.3948,51.62949],[-0.39534,51.62988],[-0.39708,51.62994],[-0.39816,51.62955],[-0.39898,51.62999],[-0.40075,51.62997],[-0.40117,51.6297],[-0.40265,51.62966],[-0.40287,51.62931],[-0.40246,51.62892],[-0.40258,51.62833],[-0.4021,51.62834],[-0.40183,51.62776],[-0.40114,51.62753],[-0.40066,51.62787],[-0.3998,51.62767],[-0.41362,51.6259],[-0.41339,51.62549],[-0.41448,51.6251],[-0.41511,51.62782],[-0.41644,51.63193],[-0.41534,51.63204],[-0.41541,51.63233],[-0.41438,51.63248],[-0.41445,51.6327],[-0.41239,51.63298],[-0.40573,51.63264],[-0.3925,51.63275]]]}},{"type":"Feature","properties":{"id":"E01023828","name":"E01023828","parent":"E07000102","type":"LSOA","pop":1749,"r":561,"ff":217,"ffd":12407.1,"ffs":0.4384,"g":65,"co":0,"mo":0,"sa":0,"ic":0},"geometry":{"type":"Polygon","coordinates":[[[-0.38613,51.62966],[-0.38568,51.62857],[-0.38716,51.62832],[-0.38774,51.62847],[-0.39206,51.62777],[-0.3925,51.62844],[-0.39536,51.62828],[-0.3998,51.62767],[-0.40066,51.62787],[-0.40114,51.62753],[-0.40183,51.62776],[-0.4021,51.62834],[-0.40258,51.62833],[-0.40246,51.62892],[-0.40287,51.62931],[-0.40265,51.62966],[-0.40117,51.6297],[-0.40075,51.62997],[-0.39898,51.62999],[-0.39816,51.62955],[-0.39708,51.62994],[-0.39534,51.62988],[-0.3948,51.62949],[-0.39336,51.6305],[-0.3925,51.63275],[-0.38698,51.63259],[-0.38613,51.62966]]]}},{"type":"Feature","properties":{"id":"E01023829","name":"E01023829","parent":"E07000102","type":"LSOA","pop":1843,"r":477,"ff":196,"ffd":10634.8,"ffs":0.5,"g":82,"co":2,"mo":2,"sa":0,"ic":0},"geometry":{"type":"Polygon","coordinates":[[[-0.42482,51.70234],[-0.42412,51.70033],[-0.42225,51.70047],[-0.42255,51.6999],[-0.42066,51.69893],[-0.42236,51.69751],[-0.4236,51.69783],[-0.42461,51.69762],[-0.42569,51.698],[-0.42616,51.69757],[-0.4255,51.69728],[-0.42566,51.69679],[-0.42696,51.69599],[-0.42744,51.69538],[-0.42693,51.69515],[-0.4263,51.69549],[-0.42496,51.69556],[-0.42487,51.69718],[-0.42426,51.69726],[-0.42352,51.69584],[-0.4207,51.69659],[-0.41823,51.69641],[-0.41691,51.69572],[-0.42372,51.69535],[-0.4276,51.6944],[-0.42896,51.69448],[-0.42854,51.69495],[-0.42942,51.6963],[-0.43017,51.6966],[-0.43079,51.69651],[-0.43156,51.69779],[-0.43094,51.69859],[-0.43009,51.69879],[-0.43013,51.69914],[-0.42883,51.69942],[-0.42895,51.69993],[-0.42823,51.70031],[-0.42899,51.70071],[-0.42997,51.70163],[-0.42482,51.70234]]]}},{"type":"Feature","properties":{"id":"E01023830","name":"E01023830","parent":"E07000102","type":"LSOA","pop":1418,"r":448,"ff":188,"ffd":13258.1,"ffs":0.5137,"g":79,"co":2,"mo":2,"sa":0,"ic":0},"geometry":{"type":"Polygon","coordinates":[[[-0.41167,51.70204],[-0.41082,51.69987],[-0.40995,51.70008],[-0.40913,51.69772],[-0.40971,51.69742],[-0.41691,51.69572],[-0.41823,51.69641],[-0.4207,51.69659],[-0.42352,51.69584],[-0.42426,51.69726],[-0.42487,51.69718],[-0.42496,51.69556],[-0.4263,51.69549],[-0.42693,51.69515],[-0.42744,51.69538],[-0.42696,51.69599],[-0.42566,51.69679],[-0.4255,51.69728],[-0.42616,51.69757],[-0.42569,51.698],[-0.42461,51.69762],[-0.4236,51.69783],[-0.42236,51.69751],[-0.42066,51.69893],[-0.42255,51.6999],[-0.42225,51.70047],[-0.42013,51.70088],[-0.4166,51.70196],[-0.41179,51.70246],[-0.41167,51.70204]]]}},{"type":"Feature","properties":{"id":"E01023831","name":"E01023831","parent":"E07000102","type":"LSOA","pop":2131,"r":511,"ff":209,"ffd":9807.6,"ffs":0.5048,"g":94,"co":2,"mo":2,"sa":0,"ic":0},"geometry":{"type":"Polygon","coordinates":[[[-0.43541,51.70178],[-0.43461,51.70123],[-0.42997,51.70163],[-0.42899,51.70071],[-0.42823,51.70031],[-0.42895,51.69993],[-0.42883,51.69942],[-0.43013,51.69914],[-0.43009,51.69879],[-0.43094,51.69859],[-0.43156,51.69779],[-0.43079,51.69651],[-0.43017,51.6966],[-0.42942,51.6963],[-0.42854,51.69495],[-0.42896,51.69448],[-0.4276,51.6944],[-0.42372,51.69535],[-0.42152,51.69549],[-0.42304,51.69325],[-0.42157,51.69262],[-0.42163,51.69238],[-0.42522,51.69124],[-0.42538,51.69173],[-0.426,51.69165],[-0.42635,51.69203],[-0.42701,51.69183],[-0.42776,51.69226],[-0.42973,51.69134],[-0.43007,51.69035],[-0.42316,51.68572],[-0.42526,51.68534],[-0.42738,51.68544],[-0.42816,51.68406],[-0.43005,51.68344],[-0.43102,51.68359],[-0.43971,51.6829],[-0.4526,51.68006],[-0.45242,51.68375],[-0.45309,51.68409],[-0.45347,51.68503],[-0.45449,51.68552],[-0.45407,51.68702],[-0.45566,51.68818],[-0.4592,51.6893],[-0.46142,51.69147],[-0.46575,51.69433],[-0.46681,51.69588],[-0.46378,51.69534],[-0.45508,51.69686],[-0.45444,51.69726],[-0.44864,51.69834],[-0.44645,51.69958],[-0.44337,51.70063],[-0.44026,51.70101],[-0.43846,51.69916],[-0.43542,51.69802],[-0.43677,51.70237],[-0.43541,51.70178]]]}},{"type":"Feature","properties":{"id":"E01023832","name":"E01023832","parent":"E07000102","type":"LSOA","pop":2167,"r":534,"ff":216,"ffd":9967.7,"ffs":0.5059,"g":104,"co":0,"mo":2,"sa":0,"ic":0},"geometry":{"type":"Polygon","coordinates":[[[-0.38075,51.70665],[-0.38076,51.70624],[-0.38127,51.70634],[-0.38186,51.70575],[-0.38197,51.70594],[-0.38309,51.70388],[-0.38311,51.70312],[-0.38409,51.69943],[-0.38422,51.69975],[-0.38768,51.70103],[-0.38881,51.69973],[-0.38816,51.69766],[-0.38877,51.69654],[-0.39329,51.69905],[-0.39746,51.70089],[-0.4025,51.7021],[-0.40233,51.70259],[-0.40141,51.70242],[-0.40014,51.70358],[-0.40221,51.70482],[-0.40306,51.70421],[-0.40276,51.70407],[-0.40415,51.70172],[-0.40778,51.70277],[-0.40862,51.70158],[-0.41081,51.70154],[-0.41104,51.70205],[-0.41036,51.70228],[-0.41092,51.7032],[-0.40968,51.70319],[-0.40804,51.70475],[-0.40842,51.70516],[-0.40601,51.70617],[-0.40341,51.70677],[-0.40447,51.70885],[-0.40259,51.70929],[-0.40053,51.71106],[-0.39797,51.71034],[-0.39408,51.7087],[-0.38264,51.70741],[-0.38074,51.70702],[-0.38075,51.70665]]]}},{"type":"Feature","properties":{"id":"E01023834","name":"E01023834","parent":"E07000102","type":"LSOA","pop":1768,"r":610,"ff":238,"ffd":13461.5,"ffs":0.4867,"g":117,"co":0,"mo":2,"sa":0,"ic":0},"geometry":{"type":"Polygon","coordinates":[[[-0.38076,51.70624],[-0.3808,51.7052],[-0.37874,51.70428],[-0.37877,51.70169],[-0.37721,51.70167],[-0.37716,51.70004],[-0.37647,51.69855],[-0.3764,51.69659],[-0.37571,51.69551],[-0.37588,51.69422],[-0.37556,51.69291],[-0.37874,51.69269],[-0.37886,51.69332],[-0.37862,51.69451],[-0.37929,51.69479],[-0.37928,51.69536],[-0.38877,51.69654],[-0.38816,51.69766],[-0.38881,51.69973],[-0.38768,51.70103],[-0.38422,51.69975],[-0.38409,51.69943],[-0.38311,51.70312],[-0.38309,51.70388],[-0.38197,51.70594],[-0.38186,51.70575],[-0.38127,51.70634],[-0.38076,51.70624]]]}},{"type":"Feature","properties":{"id":"E01023835","name":"E01023835","parent":"E07000102","type":"LSOA","pop":1451,"r":417,"ff":148,"ffd":10199.9,"ffs":0.4582,"g":91,"co":0,"mo":0,"sa":2,"ic":0},"geometry":{"type":"Polygon","coordinates":[[[-0.51733,51.64738],[-0.51204,51.64456],[-0.50954,51.64457],[-0.50841,51.64418],[-0.50751,51.64507],[-0.50261,51.64261],[-0.50321,51.64205],[-0.49715,51.63775],[-0.49925,51.63629],[-0.49643,51.63442],[-0.49602,51.6345],[-0.49582,51.63383],[-0.49711,51.63337],[-0.4966,51.63292],[-0.49695,51.63269],[-0.49973,51.63162],[-0.50013,51.63174],[-0.49979,51.63202],[-0.50158,51.63448],[-0.50219,51.63438],[-0.50263,51.63507],[-0.50936,51.63697],[-0.51015,51.63775],[-0.51082,51.63801],[-0.51249,51.63787],[-0.51111,51.63684],[-0.52155,51.62719],[-0.52285,51.62751],[-0.52313,51.62791],[-0.52269,51.63044],[-0.52651,51.63165],[-0.52976,51.632],[-0.53461,51.63048],[-0.53573,51.63532],[-0.53559,51.63589],[-0.53413,51.63715],[-0.53266,51.63702],[-0.53231,51.63985],[-0.53293,51.64053],[-0.53334,51.64335],[-0.52878,51.64417],[-0.52623,51.64537],[-0.52304,51.6439],[-0.52055,51.64216],[-0.51955,51.64352],[-0.5203,51.64527],[-0.52045,51.64652],[-0.51733,51.64738]]]}},{"type":"Feature","properties":{"id":"E01023836","name":"E01023836","parent":"E07000102","type":"LSOA","pop":1397,"r":417,"ff":148,"ffd":10594.1,"ffs":0.4582,"g":91,"co":0,"mo":0,"sa":2,"ic":0},"geometry":{"type":"Polygon","coordinates":[[[-0.49494,51.63671],[-0.49245,51.63684],[-0.49035,51.63615],[-0.48852,51.63415],[-0.4906,51.63388],[-0.49398,51.63293],[-0.49452,51.63331],[-0.4951,51.63325],[-0.49509,51.63362],[-0.49582,51.63383],[-0.49602,51.6345],[-0.49643,51.63442],[-0.49925,51.63629],[-0.49715,51.63775],[-0.49494,51.63671]]]}},{"type":"Feature","properties":{"id":"E01023837","name":"E01023837","parent":"E07000102","type":"LSOA","pop":1643,"r":318,"ff":100,"ffd":6086.4,"ffs":0.4274,"g":81,"co":2,"mo":2,"sa":2,"ic":0},"geometry":{"type":"Polygon","coordinates":[[[-0.50263,51.63507],[-0.50219,51.63438],[-0.50158,51.63448],[-0.49979,51.63202],[-0.50013,51.63174],[-0.49973,51.63162],[-0.49695,51.63269],[-0.4966,51.63292],[-0.49711,51.63337],[-0.49582,51.63383],[-0.49509,51.63362],[-0.4951,51.63325],[-0.49452,51.63331],[-0.49398,51.63293],[-0.49647,51.63224],[-0.49926,51.63048],[-0.49971,51.62934],[-0.50031,51.62892],[-0.49765,51.62678],[-0.49782,51.62584],[-0.49884,51.62456],[-0.50002,51.62368],[-0.50007,51.6219],[-0.49919,51.62102],[-0.49696,51.62055],[-0.4954,51.61885],[-0.49707,51.61488],[-0.49776,51.61454],[-0.49789,51.61324],[-0.49894,51.61115],[-0.49898,51.61015],[-0.49832,51.60951],[-0.49922,51.6088],[-0.49857,51.6083],[-0.49726,51.6049],[-0.49721,51.60342],[-0.49631,51.60248],[-0.49665,51.60147],[-0.49764,51.60088],[-0.4991,51.60138],[-0.50033,51.60125],[-0.50088,51.60018],[-0.5006,51.59969],[-0.50326,51.59987],[-0.5114,51.59966],[-0.51784,51.60025],[-0.51955,51.60097],[-0.52059,51.60184],[-0.5225,51.60506],[-0.52428,51.6102],[-0.52624,51.61365],[-0.52517,51.61326],[-0.52038,51.61501],[-0.51557,51.61632],[-0.51469,51.61721],[-0.51679,51.61965],[-0.51666,51.6203],[-0.51579,51.62066],[-0.51603,51.62095],[-0.51664,51.62091],[-0.51676,51.62127],[-0.51435,51.62191],[-0.51418,51.62163],[-0.51502,51.62132],[-0.51464,51.6207],[-0.51292,51.62076],[-0.51242,51.6214],[-0.5129,51.62145],[-0.51314,51.622],[-0.51239,51.62202],[-0.5124,51.62332],[-0.50985,51.62419],[-0.50908,51.62474],[-0.50988,51.62507],[-0.51051,51.62624],[-0.50809,51.62561],[-0.50451,51.62864],[-0.50445,51.62959],[-0.50719,51.63452],[-0.50935,51.63649],[-0.51111,51.63684],[-0.51249,51.63787],[-0.51082,51.63801],[-0.51015,51.63775],[-0.50936,51.63697],[-0.50263,51.63507]]]}},{"type":"Feature","properties":{"id":"E01023838","name":"E01023838","parent":"E07000102","type":"LSOA","pop":1301,"r":417,"ff":148,"ffd":11375.9,"ffs":0.4582,"g":91,"co":2,"mo":2,"sa":2,"ic":0},"geometry":{"type":"Polygon","coordinates":[[[-0.50539,51.62784],[-0.50809,51.62561],[-0.51051,51.62624],[-0.50988,51.62507],[-0.50908,51.62474],[-0.50985,51.62419],[-0.5124,51.62332],[-0.51239,51.62202],[-0.51314,51.622],[-0.5129,51.62145],[-0.51242,51.6214],[-0.51292,51.62076],[-0.51464,51.6207],[-0.51502,51.62132],[-0.51418,51.62163],[-0.51435,51.62191],[-0.51676,51.62127],[-0.51664,51.62091],[-0.51603,51.62095],[-0.51579,51.62066],[-0.51666,51.6203],[-0.51679,51.61965],[-0.51469,51.61721],[-0.51557,51.61632],[-0.52038,51.61501],[-0.52517,51.61326],[-0.52624,51.61365],[-0.52697,51.61442],[-0.52823,51.6147],[-0.52922,51.61596],[-0.53026,51.61782],[-0.53198,51.62551],[-0.53461,51.63048],[-0.52976,51.632],[-0.52651,51.63165],[-0.52269,51.63044],[-0.52313,51.62791],[-0.52285,51.62751],[-0.52155,51.62719],[-0.51111,51.63684],[-0.50935,51.63649],[-0.50719,51.63452],[-0.50445,51.62959],[-0.50451,51.62864],[-0.50539,51.62784]]]}},{"type":"Feature","properties":{"id":"E01023839","name":"E01023839","parent":"E07000102","type":"LSOA","pop":2173,"r":559,"ff":218,"ffd":10032.2,"ffs":0.4504,"g":74,"co":0,"mo":0,"sa":0,"ic":0},"geometry":{"type":"Polygon","coordinates":[[[-0.42966,51.62816],[-0.42689,51.62708],[-0.42324,51.62782],[-0.42097,51.62568],[-0.41511,51.62782],[-0.41471,51.62598],[-0.4173,51.62527],[-0.41862,51.62397],[-0.42071,51.62422],[-0.41915,51.62242],[-0.41779,51.62126],[-0.41683,51.62128],[-0.41679,51.62022],[-0.41439,51.61971],[-0.41525,51.61781],[-0.41627,51.61806],[-0.41758,51.61763],[-0.41845,51.61784],[-0.42068,51.61746],[-0.42062,51.61691],[-0.42634,51.61699],[-0.42761,51.61745],[-0.43373,51.61867],[-0.43786,51.61975],[-0.43804,51.62006],[-0.43326,51.61945],[-0.43389,51.6199],[-0.43461,51.61995],[-0.43373,51.62084],[-0.43292,51.62073],[-0.4325,51.62209],[-0.43315,51.62336],[-0.43262,51.62357],[-0.43169,51.6231],[-0.43097,51.62186],[-0.42977,51.6215],[-0.4296,51.62115],[-0.42874,51.62133],[-0.42859,51.62114],[-0.428,51.62223],[-0.43341,51.62969],[-0.43227,51.62984],[-0.43199,51.6294],[-0.42966,51.62816]]]}},{"type":"Feature","properties":{"id":"E01023840","name":"E01023840","parent":"E07000102","type":"LSOA","pop":1878,"r":564,"ff":218,"ffd":11608.1,"ffs":0.4449,"g":73,"co":0,"mo":0,"sa":0,"ic":0},"geometry":{"type":"Polygon","coordinates":[[[-0.41471,51.62598],[-0.41448,51.6251],[-0.41339,51.62549],[-0.4125,51.6245],[-0.41078,51.62352],[-0.4052,51.62409],[-0.4029,51.62334],[-0.40428,51.62165],[-0.40418,51.61965],[-0.40454,51.61957],[-0.40462,51.61822],[-0.4038,51.61504],[-0.40405,51.61318],[-0.41109,51.61384],[-0.41601,51.61623],[-0.42062,51.61691],[-0.42068,51.61746],[-0.41845,51.61784],[-0.41758,51.61763],[-0.41627,51.61806],[-0.41525,51.61781],[-0.41439,51.61971],[-0.41679,51.62022],[-0.41683,51.62128],[-0.41779,51.62126],[-0.41915,51.62242],[-0.42071,51.62422],[-0.41862,51.62397],[-0.4173,51.62527],[-0.41471,51.62598]]]}},{"type":"Feature","properties":{"id":"E01023841","name":"E01023841","parent":"E07000102","type":"LSOA","pop":1720,"r":421,"ff":162,"ffd":9418.6,"ffs":0.4589,"g":67,"co":2,"mo":2,"sa":0,"ic":0},"geometry":{"type":"Polygon","coordinates":[[[-0.41644,51.63193],[-0.41511,51.62782],[-0.42097,51.62568],[-0.42324,51.62782],[-0.42689,51.62708],[-0.42966,51.62816],[-0.43199,51.6294],[-0.43227,51.62984],[-0.43341,51.62969],[-0.428,51.62223],[-0.42859,51.62114],[-0.42874,51.62133],[-0.4296,51.62115],[-0.42977,51.6215],[-0.43097,51.62186],[-0.43169,51.6231],[-0.43262,51.62357],[-0.43315,51.62336],[-0.4325,51.62209],[-0.43292,51.62073],[-0.43373,51.62084],[-0.43461,51.61995],[-0.43389,51.6199],[-0.43326,51.61945],[-0.43804,51.62006],[-0.43786,51.61975],[-0.4405,51.62009],[-0.44353,51.61953],[-0.44292,51.62116],[-0.44121,51.62162],[-0.44072,51.62213],[-0.44228,51.62331],[-0.44582,51.62425],[-0.44892,51.6282],[-0.4509,51.62895],[-0.4504,51.63006],[-0.44774,51.63131],[-0.44662,51.63224],[-0.44379,51.63579],[-0.4453,51.63822],[-0.43597,51.64051],[-0.42888,51.6411],[-0.42882,51.64132],[-0.42451,51.64108],[-0.42654,51.6399],[-0.42633,51.63947],[-0.42692,51.63794],[-0.42468,51.63773],[-0.42379,51.63668],[-0.4206,51.63516],[-0.41679,51.63418],[-0.41636,51.63375],[-0.41644,51.63193]]]}},{"type":"Feature","properties":{"id":"E01023842","name":"E01023842","parent":"E07000102","type":"LSOA","pop":1765,"r":557,"ff":216,"ffd":12238.0,"ffs":0.439,"g":64,"co":0,"mo":0,"sa":0,"ic":0},"geometry":{"type":"Polygon","coordinates":[[[-0.39867,51.62639],[-0.39672,51.62508],[-0.39627,51.62514],[-0.39657,51.62604],[-0.39444,51.6262],[-0.39532,51.62531],[-0.39024,51.62596],[-0.3897,51.62565],[-0.38994,51.62509],[-0.38894,51.62431],[-0.39109,51.62379],[-0.39141,51.62324],[-0.39287,51.62311],[-0.39298,51.62339],[-0.39401,51.62311],[-0.39536,51.6224],[-0.39522,51.62197],[-0.39395,51.62154],[-0.39409,51.62134],[-0.39276,51.62085],[-0.39373,51.62086],[-0.39407,51.62041],[-0.4029,51.62333],[-0.40191,51.62426],[-0.39993,51.62466],[-0.39916,51.62626],[-0.39867,51.62639]]]}},{"type":"Feature","properties":{"id":"E01023843","name":"E01023843","parent":"E07000102","type":"LSOA","pop":2284,"r":566,"ff":216,"ffd":9457.1,"ffs":0.4303,"g":62,"co":0,"mo":0,"sa":0,"ic":0},"geometry":{"type":"Polygon","coordinates":[[[-0.38598,51.62462],[-0.38655,51.62346],[-0.38597,51.62177],[-0.38683,51.62074],[-0.38906,51.61975],[-0.3897,51.61902],[-0.39407,51.62041],[-0.39373,51.62086],[-0.39276,51.62085],[-0.39409,51.62134],[-0.39395,51.62154],[-0.39522,51.62197],[-0.39536,51.6224],[-0.39401,51.62311],[-0.39298,51.62339],[-0.39287,51.62311],[-0.39141,51.62324],[-0.39109,51.62379],[-0.38892,51.6243],[-0.38794,51.62481],[-0.38812,51.62546],[-0.38703,51.62597],[-0.38658,51.62498],[-0.38598,51.62462]]]}},{"type":"Feature","properties":{"id":"E01023844","name":"E01023844","parent":"E07000102","type":"LSOA","pop":2404,"r":576,"ff":221,"ffd":9193.0,"ffs":0.4316,"g":62,"co":0,"mo":0,"sa":0,"ic":0},"geometry":{"type":"Polygon","coordinates":[[[-0.38716,51.62832],[-0.38598,51.62462],[-0.38658,51.62498],[-0.38703,51.62597],[-0.38812,51.62546],[-0.38794,51.62481],[-0.38892,51.6243],[-0.38994,51.62509],[-0.3897,51.62565],[-0.39024,51.62596],[-0.39532,51.62531],[-0.39444,51.6262],[-0.39657,51.62604],[-0.39627,51.62514],[-0.39672,51.62508],[-0.39867,51.62639],[-0.39916,51.62626],[-0.39993,51.62466],[-0.40191,51.62426],[-0.4029,51.62333],[-0.4052,51.62409],[-0.41078,51.62352],[-0.4125,51.6245],[-0.41362,51.6259],[-0.39536,51.62828],[-0.3925,51.62844],[-0.39206,51.62777],[-0.38774,51.62847],[-0.38716,51.62832]]]}},{"type":"Feature","properties":{"id":"E01023845","name":"E01023845","parent":"E07000102","type":"LSOA","pop":1947,"r":501,"ff":198,"ffd":10169.5,"ffs":0.448,"g":58,"co":0,"mo":0,"sa":0,"ic":0},"geometry":{"type":"Polygon","coordinates":[[[-0.39818,51.64107],[-0.3998,51.64001],[-0.4018,51.63817],[-0.40362,51.63707],[-0.40307,51.63674],[-0.40354,51.63601],[-0.40043,51.63413],[-0.39775,51.63425],[-0.39789,51.63452],[-0.39705,51.63486],[-0.39604,51.63489],[-0.39407,51.63546],[-0.39218,51.63473],[-0.39195,51.63577],[-0.39023,51.63438],[-0.38913,51.63265],[-0.40573,51.63264],[-0.41239,51.63298],[-0.41445,51.6327],[-0.41438,51.63248],[-0.41541,51.63233],[-0.41534,51.63204],[-0.41644,51.63193],[-0.41636,51.63375],[-0.41679,51.63418],[-0.4206,51.63516],[-0.42379,51.63668],[-0.42468,51.63773],[-0.42692,51.63794],[-0.42633,51.63947],[-0.42654,51.6399],[-0.42451,51.64108],[-0.42116,51.64086],[-0.41639,51.64088],[-0.41497,51.64105],[-0.41448,51.64069],[-0.41322,51.64052],[-0.41285,51.64076],[-0.41089,51.63999],[-0.40993,51.6408],[-0.40932,51.64064],[-0.40807,51.64276],[-0.40497,51.64381],[-0.40279,51.64387],[-0.39818,51.64107]]]}},{"type":"Feature","properties":{"id":"E01023846","name":"E01023846","parent":"E07000102","type":"LSOA","pop":1668,"r":511,"ff":199,"ffd":11930.5,"ffs":0.4393,"g":57,"co":0,"mo":0,"sa":0,"ic":0},"geometry":{"type":"Polygon","coordinates":[[[-0.39022,51.64006],[-0.38767,51.63884],[-0.38725,51.63958],[-0.38683,51.6396],[-0.38725,51.63641],[-0.38698,51.63259],[-0.38913,51.63265],[-0.39023,51.63438],[-0.39195,51.63577],[-0.39218,51.63473],[-0.39407,51.63546],[-0.39604,51.63489],[-0.39705,51.63486],[-0.39789,51.63452],[-0.39775,51.63425],[-0.40043,51.63413],[-0.40354,51.63601],[-0.40307,51.63674],[-0.40362,51.63707],[-0.4018,51.63817],[-0.39977,51.63999],[-0.39429,51.63772],[-0.39022,51.64006]]]}},{"type":"Feature","properties":{"id":"E01023847","name":"E01023847","parent":"E07000102","type":"LSOA","pop":1893,"r":417,"ff":148,"ffd":7818.3,"ffs":0.4582,"g":91,"co":0,"mo":0,"sa":2,"ic":0},"geometry":{"type":"Polygon","coordinates":[[[-0.49611,51.64165],[-0.49548,51.64108],[-0.49505,51.64143],[-0.49462,51.64128],[-0.49254,51.64008],[-0.49291,51.63975],[-0.4925,51.6395],[-0.49296,51.63919],[-0.49058,51.63811],[-0.4902,51.63745],[-0.48863,51.63799],[-0.48617,51.63531],[-0.48518,51.63556],[-0.48454,51.63506],[-0.48528,51.63469],[-0.48852,51.63415],[-0.49035,51.63615],[-0.49245,51.63684],[-0.49479,51.63664],[-0.49715,51.63775],[-0.50078,51.64026],[-0.50013,51.64048],[-0.49954,51.64004],[-0.49916,51.6402],[-0.49888,51.64058],[-0.49947,51.641],[-0.49845,51.64187],[-0.49689,51.64221],[-0.49611,51.64165]]]}},{"type":"Feature","properties":{"id":"E01023848","name":"E01023848","parent":"E07000102","type":"LSOA","pop":1895,"r":297,"ff":104,"ffd":5488.1,"ffs":0.4685,"g":73,"co":0,"mo":0,"sa":2,"ic":0},"geometry":{"type":"Polygon","coordinates":[[[-0.49364,51.64341],[-0.49274,51.64205],[-0.48787,51.63873],[-0.48784,51.63834],[-0.4902,51.63745],[-0.49058,51.63811],[-0.49296,51.63919],[-0.4925,51.6395],[-0.49291,51.63975],[-0.49254,51.64008],[-0.49462,51.64128],[-0.49505,51.64143],[-0.49548,51.64108],[-0.49689,51.64221],[-0.49845,51.64187],[-0.4991,51.64143],[-0.49947,51.641],[-0.49888,51.64058],[-0.49954,51.64004],[-0.50013,51.64048],[-0.50078,51.64026],[-0.50321,51.64205],[-0.50064,51.64503],[-0.49878,51.64917],[-0.49735,51.64894],[-0.49695,51.64713],[-0.49494,51.64501],[-0.49497,51.6442],[-0.4946,51.64373],[-0.49364,51.64341]]]}},{"type":"Feature","properties":{"id":"E01023849","name":"E01023849","parent":"E07000102","type":"LSOA","pop":1414,"r":401,"ff":154,"ffd":10891.1,"ffs":0.4556,"g":62,"co":0,"mo":0,"sa":2,"ic":0},"geometry":{"type":"Polygon","coordinates":[[[-0.44379,51.63579],[-0.44662,51.63224],[-0.44774,51.63131],[-0.4504,51.63006],[-0.4509,51.62895],[-0.44892,51.6282],[-0.44582,51.62425],[-0.44228,51.62331],[-0.44072,51.62213],[-0.44121,51.62162],[-0.44292,51.62116],[-0.44353,51.61953],[-0.44512,51.61973],[-0.4457,51.61953],[-0.44811,51.61592],[-0.44917,51.61516],[-0.45535,51.6127],[-0.45713,51.61229],[-0.46203,51.61393],[-0.46917,51.61683],[-0.47673,51.62194],[-0.47835,51.62237],[-0.48786,51.62676],[-0.48903,51.62759],[-0.49154,51.63077],[-0.49355,51.63056],[-0.49415,51.63105],[-0.49553,51.63116],[-0.49613,51.6317],[-0.49723,51.63166],[-0.49647,51.63224],[-0.4906,51.63388],[-0.48528,51.63469],[-0.48226,51.63604],[-0.48133,51.63479],[-0.48001,51.63441],[-0.47545,51.635],[-0.47154,51.63497],[-0.4709,51.63569],[-0.46834,51.63537],[-0.46797,51.63555],[-0.46732,51.63505],[-0.46715,51.63458],[-0.46777,51.63462],[-0.46722,51.63395],[-0.46552,51.63424],[-0.46394,51.63529],[-0.46412,51.63582],[-0.46354,51.63704],[-0.46425,51.63741],[-0.46312,51.63818],[-0.46377,51.63852],[-0.46377,51.63912],[-0.46211,51.64048],[-0.46046,51.64061],[-0.46078,51.64132],[-0.45143,51.63993],[-0.44504,51.63833],[-0.4453,51.63822],[-0.44379,51.63579]]]}},{"type":"Feature","properties":{"id":"E01023850","name":"E01023850","parent":"E07000102","type":"LSOA","pop":1640,"r":399,"ff":152,"ffd":9268.3,"ffs":0.4592,"g":67,"co":0,"mo":0,"sa":2,"ic":0},"geometry":{"type":"Polygon","coordinates":[[[-0.46865,51.63954],[-0.46916,51.63885],[-0.46757,51.6389],[-0.46891,51.63806],[-0.46866,51.63768],[-0.46784,51.63794],[-0.46543,51.63777],[-0.46456,51.63836],[-0.46408,51.63805],[-0.46377,51.63852],[-0.46312,51.63818],[-0.46425,51.63741],[-0.46354,51.63704],[-0.46412,51.63582],[-0.46394,51.63529],[-0.46552,51.63424],[-0.46722,51.63395],[-0.46777,51.63462],[-0.46715,51.63458],[-0.46732,51.63505],[-0.46797,51.63555],[-0.46834,51.63537],[-0.4709,51.63569],[-0.47154,51.63497],[-0.47545,51.635],[-0.48001,51.63441],[-0.48133,51.63479],[-0.48226,51.63604],[-0.4817,51.63636],[-0.47698,51.63718],[-0.47727,51.63783],[-0.47655,51.63843],[-0.47667,51.63883],[-0.4763,51.63973],[-0.47486,51.64035],[-0.47462,51.63937],[-0.47345,51.63944],[-0.47297,51.63976],[-0.47262,51.63938],[-0.47197,51.63959],[-0.47033,51.63964],[-0.47011,51.64049],[-0.46932,51.64065],[-0.46888,51.6402],[-0.46865,51.63954]]]}},{"type":"Feature","properties":{"id":"E01023851","name":"E01023851","parent":"E07000102","type":"LSOA","pop":1903,"r":431,"ff":166,"ffd":8723.1,"ffs":0.4703,"g":76,"co":0,"mo":0,"sa":2,"ic":0},"geometry":{"type":"Polygon","coordinates":[[[-0.46365,51.65525],[-0.46522,51.65343],[-0.46336,51.6526],[-0.46492,51.65187],[-0.46559,51.65204],[-0.46688,51.65056],[-0.46587,51.65006],[-0.46621,51.64948],[-0.46506,51.64867],[-0.46451,51.64864],[-0.46419,51.64715],[-0.46298,51.64699],[-0.46253,51.64649],[-0.46227,51.64413],[-0.46148,51.64326],[-0.46135,51.64189],[-0.46078,51.64132],[-0.46046,51.64061],[-0.46211,51.64048],[-0.46279,51.64008],[-0.46377,51.63912],[-0.46377,51.63852],[-0.46408,51.63805],[-0.46456,51.63836],[-0.46543,51.63777],[-0.46784,51.63794],[-0.46866,51.63768],[-0.46891,51.63806],[-0.46757,51.6389],[-0.46916,51.63885],[-0.46865,51.63954],[-0.46888,51.6402],[-0.46932,51.64065],[-0.47011,51.64049],[-0.47033,51.63964],[-0.47197,51.63959],[-0.47262,51.63938],[-0.47297,51.63976],[-0.47345,51.63944],[-0.47462,51.63937],[-0.47486,51.64035],[-0.47947,51.64289],[-0.47792,51.64434],[-0.4771,51.64438],[-0.47719,51.64575],[-0.4756,51.64576],[-0.47709,51.64898],[-0.47886,51.65021],[-0.48025,51.6506],[-0.47927,51.65223],[-0.48192,51.65276],[-0.48081,51.65452],[-0.4803,51.65433],[-0.47966,51.6554],[-0.4765,51.65417],[-0.47539,51.65422],[-0.47507,51.65493],[-0.47547,51.65606],[-0.47546,51.65756],[-0.47346,51.65886],[-0.46513,51.65594],[-0.46365,51.65525]]]}},{"type":"Feature","properties":{"id":"E01023852","name":"E01023852","parent":"E07000102","type":"LSOA","pop":1477,"r":417,"ff":148,"ffd":10020.3,"ffs":0.4582,"g":91,"co":0,"mo":0,"sa":2,"ic":0},"geometry":{"type":"Polygon","coordinates":[[[-0.4763,51.63973],[-0.47667,51.63883],[-0.47655,51.63843],[-0.47727,51.63783],[-0.47698,51.63718],[-0.4817,51.63636],[-0.48454,51.63506],[-0.48518,51.63556],[-0.48617,51.63531],[-0.48863,51.63799],[-0.48784,51.63834],[-0.48733,51.63825],[-0.48717,51.63878],[-0.48826,51.63917],[-0.48821,51.63955],[-0.48716,51.64008],[-0.48568,51.63937],[-0.48494,51.6397],[-0.48359,51.63951],[-0.48331,51.63981],[-0.48029,51.63927],[-0.47962,51.63953],[-0.48019,51.64023],[-0.47983,51.64139],[-0.4786,51.64233],[-0.47486,51.64035],[-0.4763,51.63973]]]}},{"type":"Feature","properties":{"id":"E01023853","name":"E01023853","parent":"E07000102","type":"LSOA","pop":2218,"r":417,"ff":148,"ffd":6672.7,"ffs":0.4582,"g":91,"co":0,"mo":0,"sa":2,"ic":0},"geometry":{"type":"Polygon","coordinates":[[[-0.48019,51.64023],[-0.47962,51.63953],[-0.48029,51.63927],[-0.48331,51.63981],[-0.48359,51.63951],[-0.48494,51.6397],[-0.48568,51.63937],[-0.48716,51.64008],[-0.48821,51.63955],[-0.48826,51.63917],[-0.48717,51.63878],[-0.48733,51.63825],[-0.48784,51.63834],[-0.48787,51.63873],[-0.49274,51.64205],[-0.49364,51.64341],[-0.4946,51.64373],[-0.49497,51.6442],[-0.49494,51.64501],[-0.49695,51.64713],[-0.49735,51.64894],[-0.49034,51.64788],[-0.48506,51.64621],[-0.4786,51.64233],[-0.47983,51.64139],[-0.48019,51.64023]]]}},{"type":"Feature","properties":{"id":"E01023854","name":"E01023854","parent":"E07000102","type":"LSOA","pop":1903,"r":286,"ff":105,"ffd":5517.6,"ffs":0.4709,"g":62,"co":2,"mo":2,"sa":2,"ic":0},"geometry":{"type":"Polygon","coordinates":[[[-0.49479,51.69902],[-0.48949,51.69813],[-0.48394,51.69851],[-0.4795,51.69837],[-0.47582,51.69853],[-0.47515,51.69809],[-0.47188,51.69755],[-0.46681,51.69588],[-0.46575,51.69433],[-0.46142,51.69147],[-0.4592,51.6893],[-0.45566,51.68818],[-0.45407,51.68702],[-0.45449,51.68552],[-0.45347,51.68503],[-0.45309,51.68409],[-0.45242,51.68375],[-0.4526,51.68006],[-0.43971,51.6829],[-0.43102,51.68359],[-0.43005,51.68344],[-0.4314,51.68252],[-0.43161,51.68181],[-0.43104,51.68091],[-0.42972,51.68008],[-0.43108,51.67922],[-0.43032,51.67692],[-0.42756,51.67427],[-0.42786,51.67278],[-0.42837,51.67228],[-0.42786,51.67179],[-0.42826,51.67066],[-0.43098,51.67039],[-0.43243,51.67266],[-0.43956,51.67279],[-0.43824,51.67049],[-0.43629,51.66829],[-0.43824,51.66434],[-0.4376,51.6633],[-0.43733,51.66136],[-0.4359,51.65971],[-0.44038,51.65786],[-0.44321,51.65752],[-0.44626,51.65858],[-0.4494,51.65888],[-0.4577,51.65877],[-0.46008,51.65903],[-0.45977,51.65712],[-0.46103,51.65704],[-0.46322,51.65795],[-0.46513,51.65594],[-0.47305,51.6587],[-0.47106,51.66147],[-0.47498,51.66299],[-0.47599,51.66199],[-0.47759,51.66221],[-0.4782,51.66045],[-0.47964,51.66083],[-0.48129,51.65931],[-0.48221,51.6602],[-0.48163,51.66202],[-0.48235,51.66326],[-0.48421,51.66399],[-0.48606,51.66593],[-0.48791,51.6659],[-0.49306,51.66384],[-0.49543,51.6664],[-0.49478,51.66676],[-0.4963,51.66753],[-0.49666,51.66727],[-0.49744,51.66743],[-0.49823,51.66808],[-0.49925,51.66734],[-0.50081,51.66777],[-0.50135,51.66842],[-0.50383,51.66949],[-0.50376,51.67001],[-0.50513,51.67115],[-0.50511,51.67308],[-0.50793,51.67798],[-0.50982,51.67869],[-0.51112,51.67989],[-0.51349,51.67988],[-0.51539,51.67944],[-0.51681,51.6802],[-0.51898,51.68026],[-0.52166,51.67984],[-0.52247,51.67881],[-0.52493,51.67872],[-0.52499,51.67998],[-0.52373,51.68376],[-0.52434,51.68539],[-0.52455,51.68806],[-0.52316,51.69047],[-0.52301,51.69508],[-0.52236,51.69661],[-0.52067,51.69818],[-0.51859,51.70406],[-0.5155,51.70658],[-0.5141,51.70623],[-0.5125,51.70531],[-0.51189,51.70423],[-0.50295,51.70053],[-0.49725,51.69978],[-0.49479,51.69902]]]}},{"type":"Feature","properties":{"id":"E01035600","name":"E01035600","parent":"E07000102","type":"LSOA","pop":1481,"r":359,"ff":149,"ffd":10060.8,"ffs":0.5228,"g":72,"co":2,"mo":2,"sa":0,"ic":0},"geometry":{"type":"Polygon","coordinates":[[[-0.44136,51.72613],[-0.44085,51.72224],[-0.43578,51.72168],[-0.43449,51.72195],[-0.43379,51.7204],[-0.4333,51.71982],[-0.43046,51.72055],[-0.42982,51.71938],[-0.43123,51.71817],[-0.43085,51.71766],[-0.42621,51.71939],[-0.42586,51.71909],[-0.42651,51.71874],[-0.42642,51.71783],[-0.42376,51.71653],[-0.42246,51.7133],[-0.42318,51.71373],[-0.42791,51.7116],[-0.42568,51.70922],[-0.42816,51.70817],[-0.4276,51.70758],[-0.43171,51.70586],[-0.43193,51.70622],[-0.436,51.70537],[-0.43615,51.70569],[-0.43675,51.70564],[-0.43703,51.70671],[-0.43787,51.70657],[-0.43985,51.71232],[-0.44097,51.71215],[-0.4411,51.71399],[-0.44176,51.71382],[-0.44172,51.7135],[-0.44333,51.71302],[-0.44598,51.716],[-0.44639,51.71784],[-0.4471,51.71876],[-0.44851,51.71929],[-0.44997,51.72252],[-0.45008,51.72553],[-0.44821,51.72636],[-0.44774,51.72642],[-0.44763,51.72607],[-0.44339,51.72705],[-0.44136,51.72613]]]}},{"type":"Feature","properties":{"id":"E01035601","name":"E01035601","parent":"E07000102","type":"LSOA","pop":1278,"r":439,"ff":184,"ffd":14397.5,"ffs":0.5198,"g":83,"co":2,"mo":2,"sa":0,"ic":0},"geometry":{"type":"Polygon","coordinates":[[[-0.4411,51.71399],[-0.44097,51.71215],[-0.43985,51.71232],[-0.43787,51.70657],[-0.43542,51.69802],[-0.43846,51.69916],[-0.44026,51.70101],[-0.44229,51.70615],[-0.44158,51.70796],[-0.44247,51.70958],[-0.44294,51.712],[-0.44333,51.71302],[-0.44172,51.7135],[-0.44176,51.71382],[-0.4411,51.71399]]]}},{"type":"Feature","properties":{"id":"E01035602","name":"E01035602","parent":"E07000102","type":"LSOA","pop":1232,"r":512,"ff":214,"ffd":17370.1,"ffs":0.5132,"g":92,"co":2,"mo":2,"sa":0,"ic":0},"geometry":{"type":"Polygon","coordinates":[[[-0.40014,51.70358],[-0.40141,51.70242],[-0.40233,51.70259],[-0.4025,51.7021],[-0.40169,51.70187],[-0.4024,51.70201],[-0.40378,51.69928],[-0.40581,51.69657],[-0.40794,51.69662],[-0.40811,51.69722],[-0.40869,51.69721],[-0.40873,51.69769],[-0.40913,51.69772],[-0.40995,51.70008],[-0.41082,51.69987],[-0.41179,51.70246],[-0.41113,51.70253],[-0.41111,51.70317],[-0.41092,51.7032],[-0.41036,51.70228],[-0.41104,51.70205],[-0.41081,51.70154],[-0.40862,51.70158],[-0.40778,51.70277],[-0.40415,51.70172],[-0.40276,51.70407],[-0.40306,51.70421],[-0.40221,51.70482],[-0.40014,51.70358]]]}},{"type":"Feature","properties":{"id":"E01035603","name":"E01035603","parent":"E07000102","type":"LSOA","pop":2497,"r":515,"ff":212,"ffd":8490.2,"ffs":0.5,"g":88,"co":0,"mo":2,"sa":0,"ic":0},"geometry":{"type":"Polygon","coordinates":[[[-0.40873,51.69769],[-0.40869,51.69721],[-0.40811,51.69722],[-0.40794,51.69662],[-0.4074,51.69659],[-0.41302,51.6885],[-0.41566,51.68734],[-0.42316,51.68572],[-0.43007,51.69035],[-0.42973,51.69134],[-0.42776,51.69226],[-0.42701,51.69183],[-0.42635,51.69203],[-0.426,51.69165],[-0.42538,51.69173],[-0.42522,51.69124],[-0.42163,51.69238],[-0.42157,51.69262],[-0.42304,51.69325],[-0.42152,51.69549],[-0.41691,51.69572],[-0.40971,51.69742],[-0.40913,51.69772],[-0.40873,51.69769]]]}}]}