{"type":"FeatureCollection","features":[{"type":"Feature","properties":{"id":"E01025032","name":"E01025032","parent":"E07000120","type":"LSOA","pop":1473,"r":287,"ff":128,"ffd":8689.7,"ffs":0.5845,"g":66,"co":0,"mo":0,"sa":2,"ic":0},"geometry":{"type":"Polygon","coordinates":[[[-2.37245,53.79318],[-2.3712,53.79269],[-2.36922,53.79275],[-2.36878,53.79329],[-2.36716,53.79233],[-2.36494,53.79235],[-2.36457,53.79154],[-2.36501,53.79024],[-2.36407,53.78673],[-2.36711,53.78536],[-2.3652,53.78347],[-2.36777,53.78061],[-2.37154,53.77786],[-2.37345,53.77823],[-2.37574,53.77795],[-2.37855,53.77716],[-2.38141,53.77527],[-2.38063,53.77438],[-2.38108,53.77395],[-2.38197,53.77387],[-2.37935,53.77288],[-2.37916,53.77267],[-2.38073,53.77155],[-2.38129,53.77165],[-2.38068,53.77126],[-2.38105,53.77096],[-2.38228,53.77227],[-2.38403,53.77887],[-2.38242,53.78289],[-2.3825,53.78413],[-2.38433,53.78648],[-2.38176,53.78706],[-2.38169,53.78785],[-2.37855,53.78763],[-2.37711,53.7881],[-2.37691,53.78896],[-2.37895,53.79038],[-2.37735,53.79236],[-2.37423,53.7937],[-2.37265,53.79395],[-2.372,53.79379],[-2.37257,53.79349],[-2.37245,53.79318]]]}},{"type":"Feature","properties":{"id":"E01025033","name":"E01025033","parent":"E07000120","type":"LSOA","pop":2176,"r":296,"ff":129,"ffd":5928.3,"ffs":0.5658,"g":66,"co":0,"mo":0,"sa":2,"ic":0},"geometry":{"type":"Polygon","coordinates":[[[-2.34797,53.79435],[-2.34463,53.79328],[-2.34367,53.79338],[-2.34231,53.79483],[-2.34085,53.79417],[-2.34127,53.79372],[-2.3408,53.79323],[-2.3411,53.79252],[-2.33623,53.7917],[-2.33785,53.78955],[-2.33876,53.7891],[-2.33713,53.786],[-2.33558,53.78507],[-2.33613,53.7834],[-2.3358,53.7825],[-2.3379,53.78057],[-2.33909,53.77997],[-2.34005,53.77879],[-2.3426,53.77724],[-2.34467,53.77672],[-2.34603,53.77707],[-2.34657,53.77692],[-2.34653,53.77629],[-2.34788,53.77601],[-2.34919,53.77353],[-2.35055,53.77259],[-2.3517,53.77101],[-2.35367,53.77022],[-2.35702,53.76757],[-2.35984,53.7668],[-2.36089,53.76592],[-2.36366,53.76512],[-2.36637,53.76497],[-2.36976,53.76451],[-2.36977,53.76546],[-2.3724,53.76636],[-2.37292,53.76683],[-2.37346,53.76679],[-2.37404,53.76743],[-2.37472,53.76713],[-2.37559,53.76767],[-2.37336,53.76862],[-2.37357,53.76935],[-2.37545,53.77246],[-2.38034,53.77052],[-2.38103,53.77092],[-2.38068,53.77126],[-2.38129,53.77165],[-2.38073,53.77155],[-2.37916,53.77267],[-2.37935,53.77288],[-2.38197,53.77387],[-2.38108,53.77395],[-2.38063,53.77438],[-2.38141,53.77527],[-2.37855,53.77716],[-2.37574,53.77795],[-2.37345,53.77823],[-2.37154,53.77786],[-2.36777,53.78061],[-2.3652,53.78347],[-2.36711,53.78536],[-2.36407,53.78673],[-2.36501,53.79024],[-2.36457,53.79154],[-2.36494,53.79235],[-2.36716,53.79233],[-2.36878,53.79329],[-2.36922,53.79275],[-2.3712,53.79269],[-2.37245,53.79318],[-2.37257,53.79349],[-2.372,53.79379],[-2.37103,53.79319],[-2.36975,53.79413],[-2.36518,53.79311],[-2.36351,53.7935],[-2.36222,53.79461],[-2.36079,53.79468],[-2.35961,53.79434],[-2.35921,53.79338],[-2.35664,53.79292],[-2.35643,53.79324],[-2.35735,53.79481],[-2.35881,53.79528],[-2.35859,53.79625],[-2.3593,53.79722],[-2.35686,53.7978],[-2.35476,53.79762],[-2.34797,53.79435]]]}},{"type":"Feature","properties":{"id":"E01025034","name":"E01025034","parent":"E07000120","type":"LSOA","pop":1793,"r":294,"ff":130,"ffd":7250.4,"ffs":0.5778,"g":67,"co":0,"mo":2,"sa":2,"ic":0},"geometry":{"type":"Polygon","coordinates":[[[-2.37545,53.77246],[-2.37357,53.76935],[-2.37336,53.76862],[-2.37559,53.76767],[-2.37472,53.76713],[-2.37404,53.76743],[-2.37346,53.76679],[-2.37292,53.76683],[-2.3724,53.76636],[-2.36977,53.76546],[-2.36976,53.76451],[-2.37309,53.76547],[-2.37512,53.76489],[-2.3761,53.76158],[-2.3768,53.76026],[-2.3797,53.76105],[-2.3812,53.76224],[-2.3814,53.76258],[-2.38054,53.76323],[-2.38575,53.76542],[-2.38469,53.76602],[-2.38352,53.76752],[-2.38309,53.76839],[-2.38365,53.76974],[-2.38103,53.77092],[-2.38034,53.77052],[-2.37545,53.77246]]]}},{"type":"Feature","properties":{"id":"E01025035","name":"E01025035","parent":"E07000120","type":"LSOA","pop":1457,"r":258,"ff":116,"ffd":7961.6,"ffs":0.5949,"g":61,"co":0,"mo":0,"sa":2,"ic":0},"geometry":{"type":"Polygon","coordinates":[[[-2.335,53.75884],[-2.33283,53.75786],[-2.33074,53.75869],[-2.32557,53.7549],[-2.31992,53.75557],[-2.3164,53.75196],[-2.31372,53.75158],[-2.31411,53.74704],[-2.32615,53.74734],[-2.3256,53.74322],[-2.32489,53.74303],[-2.32545,53.74265],[-2.32705,53.74259],[-2.33208,53.74395],[-2.33364,53.74405],[-2.33464,53.74365],[-2.33782,53.74326],[-2.33989,53.74328],[-2.34074,53.74355],[-2.34393,53.74336],[-2.34532,53.7436],[-2.3457,53.74425],[-2.34627,53.74444],[-2.34689,53.74427],[-2.34757,53.7449],[-2.34834,53.74461],[-2.34878,53.74527],[-2.34989,53.74549],[-2.34984,53.74628],[-2.35091,53.74697],[-2.35423,53.74704],[-2.35487,53.74807],[-2.35672,53.74812],[-2.35823,53.74927],[-2.35605,53.74896],[-2.35414,53.74918],[-2.35375,53.74981],[-2.35531,53.75059],[-2.35579,53.7504],[-2.35634,53.75071],[-2.35613,53.75097],[-2.35709,53.75084],[-2.35673,53.75068],[-2.35703,53.7506],[-2.35835,53.75068],[-2.35867,53.7514],[-2.35802,53.75166],[-2.35912,53.75147],[-2.35868,53.75063],[-2.35932,53.75052],[-2.3592,53.75027],[-2.36015,53.7504],[-2.35999,53.75019],[-2.36062,53.75024],[-2.3613,53.75164],[-2.35223,53.75314],[-2.34892,53.75332],[-2.34458,53.75435],[-2.34409,53.75476],[-2.34438,53.75512],[-2.3401,53.75836],[-2.33874,53.7585],[-2.33739,53.75802],[-2.335,53.75884]]]}},{"type":"Feature","properties":{"id":"E01025036","name":"E01025036","parent":"E07000120","type":"LSOA","pop":1876,"r":268,"ff":123,"ffd":6556.5,"ffs":0.6059,"g":63,"co":2,"mo":2,"sa":2,"ic":0},"geometry":{"type":"Polygon","coordinates":[[[-2.36062,53.75024],[-2.35999,53.75019],[-2.36015,53.7504],[-2.3592,53.75027],[-2.35932,53.75052],[-2.35868,53.75063],[-2.35912,53.75147],[-2.35802,53.75166],[-2.35867,53.7514],[-2.35835,53.75068],[-2.35703,53.7506],[-2.35673,53.75068],[-2.35709,53.75084],[-2.35613,53.75097],[-2.35634,53.75071],[-2.35579,53.7504],[-2.35531,53.75059],[-2.35375,53.74981],[-2.35414,53.74918],[-2.35605,53.74896],[-2.35905,53.7493],[-2.36003,53.7496],[-2.35902,53.74873],[-2.3604,53.74895],[-2.35981,53.74815],[-2.3603,53.74799],[-2.36001,53.74744],[-2.36153,53.74761],[-2.3626,53.74714],[-2.36322,53.7477],[-2.36463,53.74715],[-2.36484,53.74734],[-2.36546,53.74714],[-2.36658,53.74885],[-2.36695,53.74883],[-2.36717,53.74969],[-2.36797,53.74979],[-2.36842,53.75066],[-2.36787,53.75354],[-2.36794,53.75435],[-2.36669,53.75535],[-2.36483,53.75583],[-2.36293,53.75426],[-2.36207,53.75329],[-2.36062,53.75024]]]}},{"type":"Feature","properties":{"id":"E01025037","name":"E01025037","parent":"E07000120","type":"LSOA","pop":1613,"r":268,"ff":122,"ffd":7563.5,"ffs":0.601,"g":63,"co":2,"mo":2,"sa":2,"ic":0},"geometry":{"type":"Polygon","coordinates":[[[-2.35823,53.74927],[-2.35672,53.74812],[-2.35487,53.74807],[-2.35423,53.74704],[-2.35091,53.74697],[-2.34984,53.74628],[-2.34989,53.74549],[-2.35168,53.74588],[-2.35183,53.74548],[-2.3533,53.74544],[-2.35304,53.74461],[-2.35499,53.74415],[-2.35411,53.74262],[-2.35688,53.74193],[-2.3573,53.7424],[-2.35809,53.74214],[-2.35737,53.74131],[-2.3604,53.74084],[-2.36286,53.73993],[-2.36414,53.74178],[-2.36473,53.74353],[-2.36546,53.74714],[-2.36484,53.74734],[-2.36463,53.74715],[-2.36322,53.7477],[-2.3626,53.74714],[-2.36153,53.74761],[-2.36001,53.74744],[-2.3603,53.74799],[-2.35981,53.74815],[-2.3604,53.74895],[-2.35902,53.74873],[-2.36003,53.7496],[-2.35823,53.74927]]]}},{"type":"Feature","properties":{"id":"E01025038","name":"E01025038","parent":"E07000120","type":"LSOA","pop":1322,"r":267,"ff":117,"ffd":8850.2,"ffs":0.5821,"g":64,"co":2,"mo":2,"sa":2,"ic":0},"geometry":{"type":"Polygon","coordinates":[[[-2.34793,53.74104],[-2.34732,53.74061],[-2.34686,53.74076],[-2.34663,53.74057],[-2.34709,53.74019],[-2.34614,53.74023],[-2.34558,53.73989],[-2.34599,53.7397],[-2.34561,53.73923],[-2.34398,53.73824],[-2.34264,53.73936],[-2.33991,53.73882],[-2.34032,53.738],[-2.33903,53.73609],[-2.34197,53.73545],[-2.34407,53.73477],[-2.34503,53.73545],[-2.34603,53.73545],[-2.3463,53.73498],[-2.34539,53.73455],[-2.3463,53.73483],[-2.34778,53.73587],[-2.34749,53.73605],[-2.3476,53.73614],[-2.35006,53.73792],[-2.35042,53.73782],[-2.35142,53.73883],[-2.35104,53.739],[-2.35144,53.73921],[-2.35095,53.73957],[-2.35063,53.7395],[-2.3503,53.74002],[-2.34927,53.74045],[-2.34966,53.74143],[-2.34793,53.74104]]]}},{"type":"Feature","properties":{"id":"E01025039","name":"E01025039","parent":"E07000120","type":"LSOA","pop":1198,"r":263,"ff":114,"ffd":9515.9,"ffs":0.5787,"g":64,"co":2,"mo":2,"sa":2,"ic":0},"geometry":{"type":"Polygon","coordinates":[[[-2.34878,53.74527],[-2.34834,53.74461],[-2.34757,53.7449],[-2.34689,53.74427],[-2.34627,53.74444],[-2.3457,53.74425],[-2.34532,53.7436],[-2.34393,53.74336],[-2.34074,53.74355],[-2.33989,53.74328],[-2.33782,53.74326],[-2.33464,53.74365],[-2.33364,53.74405],[-2.33208,53.74395],[-2.32705,53.74259],[-2.32545,53.74265],[-2.32489,53.74303],[-2.32448,53.74267],[-2.32381,53.73772],[-2.32626,53.73779],[-2.3277,53.73531],[-2.32593,53.73518],[-2.32577,53.73435],[-2.32738,53.73419],[-2.32956,53.73219],[-2.33114,53.73248],[-2.3318,53.73134],[-2.33579,53.73039],[-2.33456,53.72928],[-2.33671,53.72834],[-2.3381,53.72973],[-2.33951,53.72763],[-2.34065,53.72684],[-2.34244,53.72635],[-2.34276,53.72575],[-2.34225,53.72518],[-2.34259,53.72353],[-2.3443,53.72241],[-2.34988,53.72247],[-2.35013,53.72184],[-2.35291,53.72222],[-2.35529,53.72217],[-2.35526,53.72251],[-2.35772,53.7239],[-2.35815,53.72476],[-2.36119,53.72582],[-2.36557,53.72806],[-2.3623,53.73031],[-2.36343,53.73205],[-2.36274,53.73235],[-2.36131,53.73213],[-2.35974,53.73238],[-2.36094,53.73395],[-2.36084,53.73429],[-2.35997,53.73457],[-2.35619,53.73363],[-2.35532,53.73395],[-2.35247,53.73409],[-2.35159,53.73496],[-2.351,53.73481],[-2.34993,53.73533],[-2.35081,53.73604],[-2.35017,53.73597],[-2.34929,53.73656],[-2.34658,53.73469],[-2.3463,53.73483],[-2.34539,53.73455],[-2.3463,53.73498],[-2.34603,53.73545],[-2.34503,53.73545],[-2.34407,53.73477],[-2.34197,53.73545],[-2.33903,53.73609],[-2.34032,53.738],[-2.33991,53.73882],[-2.34264,53.73936],[-2.34398,53.73824],[-2.34561,53.73923],[-2.34599,53.7397],[-2.34558,53.73989],[-2.34614,53.74023],[-2.34585,53.74122],[-2.34686,53.74167],[-2.34732,53.74283],[-2.34858,53.74303],[-2.35077,53.74518],[-2.35065,53.74565],[-2.34878,53.74527]]]}},{"type":"Feature","properties":{"id":"E01025040","name":"E01025040","parent":"E07000120","type":"LSOA","pop":1543,"r":269,"ff":120,"ffd":7777.1,"ffs":0.5882,"g":63,"co":2,"mo":2,"sa":2,"ic":0},"geometry":{"type":"Polygon","coordinates":[[[-2.34732,53.74283],[-2.34686,53.74167],[-2.34585,53.74122],[-2.34614,53.74023],[-2.34709,53.74019],[-2.34663,53.74057],[-2.34686,53.74076],[-2.34732,53.74061],[-2.34793,53.74104],[-2.34966,53.74143],[-2.34927,53.74045],[-2.3503,53.74002],[-2.35063,53.7395],[-2.35095,53.73957],[-2.35144,53.73921],[-2.35104,53.739],[-2.35142,53.73883],[-2.35042,53.73782],[-2.35006,53.73792],[-2.3476,53.73614],[-2.34749,53.73605],[-2.34778,53.73587],[-2.3463,53.73483],[-2.34658,53.73469],[-2.34929,53.73656],[-2.35017,53.73597],[-2.35081,53.73604],[-2.34993,53.73533],[-2.351,53.73481],[-2.35159,53.73496],[-2.35247,53.73409],[-2.35532,53.73395],[-2.35619,53.73363],[-2.35997,53.73457],[-2.35816,53.73537],[-2.35612,53.73546],[-2.35602,53.73513],[-2.35525,53.73552],[-2.35998,53.73759],[-2.36286,53.73993],[-2.3604,53.74084],[-2.35737,53.74131],[-2.35809,53.74214],[-2.3573,53.7424],[-2.35688,53.74193],[-2.35411,53.74262],[-2.35499,53.74415],[-2.35304,53.74461],[-2.3533,53.74544],[-2.35183,53.74548],[-2.35168,53.74588],[-2.35065,53.74565],[-2.35077,53.74518],[-2.34858,53.74303],[-2.34732,53.74283]]]}},{"type":"Feature","properties":{"id":"E01025041","name":"E01025041","parent":"E07000120","type":"LSOA","pop":1750,"r":292,"ff":132,"ffd":7542.9,"ffs":0.5867,"g":65,"co":0,"mo":2,"sa":2,"ic":0},"geometry":{"type":"Polygon","coordinates":[[[-2.37482,53.75842],[-2.37466,53.75776],[-2.37219,53.75803],[-2.37202,53.75745],[-2.36732,53.75787],[-2.36483,53.75583],[-2.36669,53.75535],[-2.36794,53.75435],[-2.36787,53.75354],[-2.36842,53.75066],[-2.37107,53.74857],[-2.37164,53.74888],[-2.37111,53.74935],[-2.37194,53.74972],[-2.37249,53.74932],[-2.37434,53.75033],[-2.37312,53.75137],[-2.37256,53.75139],[-2.37287,53.75157],[-2.37192,53.75232],[-2.37255,53.75302],[-2.37493,53.75253],[-2.37448,53.75215],[-2.37561,53.75199],[-2.37446,53.75132],[-2.37597,53.74999],[-2.37645,53.75031],[-2.37738,53.75013],[-2.3777,53.7506],[-2.37634,53.75088],[-2.37657,53.75131],[-2.37619,53.7514],[-2.37694,53.75171],[-2.37757,53.75136],[-2.37812,53.75273],[-2.3748,53.75301],[-2.37554,53.75458],[-2.37492,53.75466],[-2.37556,53.75507],[-2.37495,53.75527],[-2.37714,53.75555],[-2.37711,53.75661],[-2.37629,53.75655],[-2.37638,53.75836],[-2.37482,53.75842]]]}},{"type":"Feature","properties":{"id":"E01025042","name":"E01025042","parent":"E07000120","type":"LSOA","pop":2398,"r":284,"ff":133,"ffd":5546.3,"ffs":0.5991,"g":60,"co":0,"mo":2,"sa":2,"ic":0},"geometry":{"type":"Polygon","coordinates":[[[-2.37434,53.75033],[-2.37249,53.74932],[-2.37194,53.74972],[-2.37111,53.74935],[-2.37164,53.74888],[-2.37107,53.74857],[-2.37468,53.74576],[-2.37531,53.74713],[-2.37662,53.74887],[-2.37913,53.7496],[-2.37921,53.74987],[-2.37759,53.75036],[-2.37738,53.75013],[-2.37645,53.75031],[-2.37597,53.74999],[-2.37446,53.75132],[-2.37561,53.75199],[-2.37448,53.75215],[-2.37493,53.75253],[-2.37255,53.75302],[-2.37192,53.75232],[-2.37287,53.75157],[-2.37256,53.75139],[-2.37312,53.75137],[-2.37434,53.75033]]]}},{"type":"Feature","properties":{"id":"E01025044","name":"E01025044","parent":"E07000120","type":"LSOA","pop":1313,"r":309,"ff":138,"ffd":10510.3,"ffs":0.5726,"g":66,"co":0,"mo":2,"sa":2,"ic":0},"geometry":{"type":"Polygon","coordinates":[[[-2.38352,53.76752],[-2.38469,53.76602],[-2.38575,53.76542],[-2.38054,53.76323],[-2.3814,53.76258],[-2.3812,53.76224],[-2.38284,53.76073],[-2.38338,53.75985],[-2.38375,53.75992],[-2.38344,53.75985],[-2.38451,53.75793],[-2.38152,53.75733],[-2.38181,53.75684],[-2.38374,53.75723],[-2.38404,53.75671],[-2.38317,53.75644],[-2.38367,53.75615],[-2.38215,53.7551],[-2.38096,53.75509],[-2.38079,53.75337],[-2.38205,53.75335],[-2.38227,53.75311],[-2.38262,53.75413],[-2.38567,53.75408],[-2.386,53.75445],[-2.38545,53.75475],[-2.38657,53.7554],[-2.38754,53.75511],[-2.38799,53.75445],[-2.38872,53.75452],[-2.38857,53.75483],[-2.38967,53.75532],[-2.39004,53.7559],[-2.38885,53.75595],[-2.3889,53.75692],[-2.38953,53.75726],[-2.38901,53.75821],[-2.38916,53.75862],[-2.3902,53.75904],[-2.3896,53.76],[-2.38985,53.76081],[-2.39104,53.76221],[-2.3898,53.76252],[-2.39021,53.76374],[-2.38986,53.76559],[-2.39045,53.76621],[-2.38906,53.76683],[-2.38734,53.76648],[-2.38574,53.7669],[-2.38501,53.76753],[-2.38352,53.76752]]]}},{"type":"Feature","properties":{"id":"E01025045","name":"E01025045","parent":"E07000120","type":"LSOA","pop":1245,"r":300,"ff":133,"ffd":10682.7,"ffs":0.5733,"g":66,"co":0,"mo":2,"sa":2,"ic":0},"geometry":{"type":"Polygon","coordinates":[[[-2.37628,53.76015],[-2.37752,53.75843],[-2.37638,53.75836],[-2.37629,53.75655],[-2.37711,53.75661],[-2.37714,53.75555],[-2.37944,53.75582],[-2.37938,53.75512],[-2.38215,53.7551],[-2.38367,53.75615],[-2.38317,53.75644],[-2.38404,53.75671],[-2.38374,53.75723],[-2.38181,53.75684],[-2.38152,53.75733],[-2.38451,53.75793],[-2.38344,53.75985],[-2.38375,53.75992],[-2.38338,53.75985],[-2.38284,53.76073],[-2.3812,53.76224],[-2.3797,53.76105],[-2.37628,53.76015]]]}},{"type":"Feature","properties":{"id":"E01025046","name":"E01025046","parent":"E07000120","type":"LSOA","pop":1356,"r":308,"ff":137,"ffd":10103.2,"ffs":0.5708,"g":66,"co":0,"mo":2,"sa":2,"ic":0},"geometry":{"type":"Polygon","coordinates":[[[-2.39045,53.76621],[-2.38986,53.76559],[-2.39021,53.76374],[-2.3898,53.76252],[-2.39104,53.76221],[-2.38985,53.76081],[-2.3896,53.76],[-2.3902,53.75904],[-2.38916,53.75862],[-2.38901,53.75821],[-2.38953,53.75726],[-2.3889,53.75692],[-2.38885,53.75595],[-2.39004,53.7559],[-2.38967,53.75532],[-2.38857,53.75483],[-2.38872,53.75452],[-2.38799,53.75445],[-2.38754,53.75511],[-2.38657,53.7554],[-2.38545,53.75475],[-2.38818,53.75353],[-2.38881,53.75275],[-2.38893,53.75052],[-2.3941,53.75082],[-2.3978,53.75191],[-2.40228,53.7546],[-2.40115,53.75662],[-2.40137,53.75812],[-2.40007,53.75882],[-2.39954,53.75961],[-2.39774,53.75974],[-2.39759,53.76056],[-2.39625,53.76132],[-2.39648,53.76371],[-2.39768,53.76445],[-2.39591,53.76444],[-2.39519,53.76489],[-2.39511,53.76605],[-2.39422,53.76604],[-2.39448,53.76723],[-2.39181,53.76756],[-2.38906,53.76683],[-2.39045,53.76621]]]}},{"type":"Feature","properties":{"id":"E01025048","name":"E01025048","parent":"E07000120","type":"LSOA","pop":1504,"r":275,"ff":125,"ffd":8311.2,"ffs":0.5952,"g":63,"co":0,"mo":0,"sa":2,"ic":0},"geometry":{"type":"Polygon","coordinates":[[[-2.3825,53.78267],[-2.38403,53.77887],[-2.38602,53.77856],[-2.38803,53.77767],[-2.3886,53.77795],[-2.38843,53.77947],[-2.38901,53.77988],[-2.39137,53.77943],[-2.39131,53.78004],[-2.39201,53.77981],[-2.39301,53.78037],[-2.39303,53.78079],[-2.39132,53.78113],[-2.39169,53.78148],[-2.39079,53.78153],[-2.39141,53.78337],[-2.39036,53.78391],[-2.38848,53.78396],[-2.38749,53.78435],[-2.38711,53.78533],[-2.38558,53.7859],[-2.38554,53.78654],[-2.38433,53.78648],[-2.3825,53.78413],[-2.3825,53.78267]]]}},{"type":"Feature","properties":{"id":"E01025049","name":"E01025049","parent":"E07000120","type":"LSOA","pop":1531,"r":284,"ff":130,"ffd":8491.2,"ffs":0.5963,"g":64,"co":0,"mo":0,"sa":2,"ic":0},"geometry":{"type":"Polygon","coordinates":[[[-2.39301,53.78037],[-2.39201,53.77981],[-2.39131,53.78004],[-2.39137,53.77943],[-2.38901,53.77988],[-2.38843,53.77947],[-2.3886,53.77795],[-2.38803,53.77767],[-2.38602,53.77856],[-2.38403,53.77887],[-2.38294,53.77466],[-2.38491,53.77445],[-2.38733,53.77453],[-2.38765,53.77418],[-2.38835,53.77432],[-2.38926,53.777],[-2.38964,53.77683],[-2.39006,53.77716],[-2.38984,53.77747],[-2.39056,53.77732],[-2.3911,53.77778],[-2.39116,53.77831],[-2.39073,53.77842],[-2.39157,53.77932],[-2.39234,53.77888],[-2.39288,53.77964],[-2.39592,53.77961],[-2.39554,53.78049],[-2.3939,53.78026],[-2.3947,53.78126],[-2.39409,53.78191],[-2.39169,53.78148],[-2.39132,53.78113],[-2.39303,53.78079],[-2.39301,53.78037]]]}},{"type":"Feature","properties":{"id":"E01025050","name":"E01025050","parent":"E07000120","type":"LSOA","pop":1538,"r":301,"ff":132,"ffd":8582.6,"ffs":0.5665,"g":66,"co":0,"mo":0,"sa":2,"ic":0},"geometry":{"type":"Polygon","coordinates":[[[-2.39288,53.77964],[-2.39234,53.77888],[-2.39157,53.77932],[-2.39073,53.77842],[-2.39116,53.77831],[-2.3911,53.77778],[-2.39056,53.77732],[-2.38984,53.77747],[-2.39006,53.77716],[-2.38964,53.77683],[-2.38926,53.777],[-2.38835,53.77432],[-2.38765,53.77418],[-2.38733,53.77453],[-2.38491,53.77445],[-2.38294,53.77466],[-2.38228,53.77227],[-2.38103,53.77092],[-2.38365,53.76974],[-2.38309,53.76839],[-2.38352,53.76752],[-2.38501,53.76753],[-2.38574,53.7669],[-2.38734,53.76648],[-2.39181,53.76756],[-2.39448,53.76723],[-2.39422,53.76604],[-2.39511,53.76605],[-2.39519,53.76489],[-2.39591,53.76444],[-2.39866,53.76436],[-2.39962,53.76493],[-2.39809,53.76489],[-2.39795,53.76557],[-2.39847,53.76584],[-2.40207,53.76585],[-2.40225,53.76648],[-2.40152,53.76765],[-2.40256,53.76829],[-2.40098,53.76935],[-2.40167,53.77088],[-2.4012,53.77175],[-2.40157,53.77276],[-2.39865,53.77373],[-2.39771,53.77485],[-2.39738,53.77558],[-2.39824,53.77637],[-2.39807,53.77688],[-2.39444,53.7784],[-2.39592,53.77961],[-2.39288,53.77964]]]}},{"type":"Feature","properties":{"id":"E01025051","name":"E01025051","parent":"E07000120","type":"LSOA","pop":1670,"r":285,"ff":124,"ffd":7425.1,"ffs":0.5794,"g":69,"co":0,"mo":0,"sa":2,"ic":0},"geometry":{"type":"Polygon","coordinates":[[[-2.33012,53.76803],[-2.32876,53.76701],[-2.32908,53.76666],[-2.32786,53.76354],[-2.32836,53.76283],[-2.32804,53.7619],[-2.32854,53.76128],[-2.3328,53.76027],[-2.33474,53.76147],[-2.33927,53.76234],[-2.34239,53.76093],[-2.34557,53.7641],[-2.3484,53.76311],[-2.3504,53.76483],[-2.35082,53.76454],[-2.35151,53.76469],[-2.35236,53.76373],[-2.35179,53.76354],[-2.35325,53.76177],[-2.35379,53.76171],[-2.35517,53.76266],[-2.35669,53.76141],[-2.35776,53.76159],[-2.35458,53.76584],[-2.35159,53.76846],[-2.35002,53.76717],[-2.34976,53.76769],[-2.3478,53.76885],[-2.34746,53.76932],[-2.34698,53.76934],[-2.34545,53.76852],[-2.34286,53.76863],[-2.34068,53.76828],[-2.34005,53.76917],[-2.339,53.7688],[-2.33963,53.76837],[-2.33885,53.76779],[-2.34066,53.76696],[-2.33985,53.76658],[-2.33736,53.7675],[-2.3367,53.76743],[-2.33666,53.76773],[-2.3357,53.76746],[-2.33295,53.76806],[-2.33192,53.76793],[-2.33117,53.7694],[-2.33037,53.76903],[-2.33012,53.76803]]]}},{"type":"Feature","properties":{"id":"E01025052","name":"E01025052","parent":"E07000120","type":"LSOA","pop":1571,"r":279,"ff":125,"ffd":7956.7,"ffs":0.5896,"g":65,"co":0,"mo":0,"sa":2,"ic":0},"geometry":{"type":"Polygon","coordinates":[[[-2.3504,53.76483],[-2.3484,53.76311],[-2.34557,53.7641],[-2.34239,53.76093],[-2.33927,53.76234],[-2.33474,53.76147],[-2.3328,53.76027],[-2.32854,53.76128],[-2.32785,53.75999],[-2.32667,53.75959],[-2.32601,53.75866],[-2.32214,53.7574],[-2.31992,53.75557],[-2.32557,53.7549],[-2.33074,53.75869],[-2.33283,53.75786],[-2.335,53.75884],[-2.33739,53.75802],[-2.33874,53.7585],[-2.3401,53.75836],[-2.34438,53.75512],[-2.34409,53.75476],[-2.34458,53.75435],[-2.34892,53.75332],[-2.35223,53.75314],[-2.35394,53.75383],[-2.35233,53.75455],[-2.35225,53.75518],[-2.35409,53.75711],[-2.3572,53.75875],[-2.35856,53.75891],[-2.36,53.75958],[-2.35776,53.76159],[-2.35669,53.76141],[-2.35517,53.76266],[-2.35379,53.76171],[-2.35325,53.76177],[-2.35179,53.76354],[-2.35236,53.76373],[-2.35151,53.76469],[-2.35082,53.76454],[-2.3504,53.76483]]]}},{"type":"Feature","properties":{"id":"E01025053","name":"E01025053","parent":"E07000120","type":"LSOA","pop":1592,"r":278,"ff":121,"ffd":7600.5,"ffs":0.5817,"g":68,"co":0,"mo":0,"sa":2,"ic":0},"geometry":{"type":"Polygon","coordinates":[[[-2.33168,53.77804],[-2.33037,53.77423],[-2.33117,53.77094],[-2.33066,53.77049],[-2.33124,53.76975],[-2.33117,53.7694],[-2.33192,53.76793],[-2.33295,53.76806],[-2.3357,53.76746],[-2.33666,53.76773],[-2.3367,53.76743],[-2.33736,53.7675],[-2.33985,53.76658],[-2.34066,53.76696],[-2.33885,53.76779],[-2.33963,53.76837],[-2.339,53.7688],[-2.34005,53.76917],[-2.34068,53.76828],[-2.34286,53.76863],[-2.34545,53.76852],[-2.34698,53.76934],[-2.34746,53.76932],[-2.3478,53.76885],[-2.34976,53.76769],[-2.35002,53.76717],[-2.35367,53.77022],[-2.3517,53.77101],[-2.35055,53.77259],[-2.34919,53.77353],[-2.34788,53.77601],[-2.34653,53.77629],[-2.34657,53.77692],[-2.34603,53.77707],[-2.34467,53.77672],[-2.3426,53.77724],[-2.34005,53.77879],[-2.33909,53.77997],[-2.3379,53.78057],[-2.3358,53.7825],[-2.33329,53.78204],[-2.3316,53.78121],[-2.32998,53.78092],[-2.32926,53.78022],[-2.32925,53.77968],[-2.3312,53.77878],[-2.33168,53.77804]]]}},{"type":"Feature","properties":{"id":"E01025054","name":"E01025054","parent":"E07000120","type":"LSOA","pop":1679,"r":314,"ff":142,"ffd":8457.4,"ffs":0.5772,"g":66,"co":2,"mo":2,"sa":2,"ic":0},"geometry":{"type":"Polygon","coordinates":[[[-2.36505,53.74005],[-2.36428,53.73992],[-2.36373,53.74018],[-2.36286,53.73993],[-2.35998,53.73759],[-2.35525,53.73552],[-2.35602,53.73513],[-2.35612,53.73546],[-2.35816,53.73537],[-2.36084,53.73429],[-2.36094,53.73395],[-2.35974,53.73238],[-2.36131,53.73213],[-2.36274,53.73235],[-2.36343,53.73205],[-2.3623,53.73031],[-2.36557,53.72806],[-2.36119,53.72582],[-2.35815,53.72476],[-2.35772,53.7239],[-2.35526,53.72251],[-2.35529,53.72217],[-2.3608,53.7165],[-2.36743,53.7147],[-2.3829,53.71121],[-2.39575,53.70963],[-2.40459,53.70651],[-2.40627,53.70788],[-2.40679,53.70979],[-2.40936,53.71339],[-2.41211,53.71472],[-2.4112,53.7147],[-2.41375,53.72339],[-2.41472,53.73431],[-2.41292,53.73449],[-2.40811,53.73411],[-2.40699,53.73498],[-2.40423,53.73923],[-2.40396,53.73909],[-2.40405,53.73865],[-2.40312,53.73863],[-2.40194,53.73923],[-2.40183,53.73865],[-2.40015,53.73725],[-2.39987,53.7368],[-2.3994,53.73703],[-2.3994,53.73768],[-2.40018,53.73825],[-2.39983,53.73842],[-2.40035,53.73878],[-2.40003,53.73894],[-2.39953,53.73858],[-2.39816,53.73917],[-2.39731,53.73842],[-2.39753,53.73816],[-2.39643,53.73758],[-2.39755,53.73966],[-2.39695,53.73994],[-2.39628,53.73975],[-2.39557,53.73994],[-2.39465,53.73885],[-2.39394,53.73968],[-2.39565,53.74069],[-2.39469,53.74138],[-2.3936,53.74108],[-2.39421,53.7406],[-2.39176,53.73773],[-2.39002,53.73838],[-2.3898,53.73787],[-2.38717,53.73757],[-2.38555,53.73632],[-2.38474,53.7362],[-2.38567,53.73529],[-2.38482,53.73382],[-2.38319,53.73355],[-2.37974,53.73394],[-2.38159,53.7354],[-2.38014,53.73587],[-2.38047,53.73692],[-2.38152,53.7366],[-2.38236,53.73748],[-2.3843,53.73863],[-2.38362,53.73961],[-2.37939,53.74091],[-2.37632,53.73891],[-2.37594,53.73839],[-2.37446,53.73815],[-2.37314,53.73818],[-2.37334,53.7387],[-2.37256,53.73896],[-2.37276,53.73968],[-2.37045,53.74017],[-2.37081,53.74088],[-2.36656,53.74159],[-2.3662,53.74061],[-2.36505,53.74005]]]}},{"type":"Feature","properties":{"id":"E01025055","name":"E01025055","parent":"E07000120","type":"LSOA","pop":1614,"r":320,"ff":146,"ffd":9045.8,"ffs":0.5817,"g":67,"co":2,"mo":2,"sa":2,"ic":0},"geometry":{"type":"Polygon","coordinates":[[[-2.39565,53.74069],[-2.39394,53.73968],[-2.39465,53.73885],[-2.39557,53.73994],[-2.39628,53.73975],[-2.39695,53.73994],[-2.39755,53.73966],[-2.39643,53.73758],[-2.39753,53.73816],[-2.39731,53.73842],[-2.39816,53.73917],[-2.39953,53.73858],[-2.40003,53.73894],[-2.40035,53.73878],[-2.39983,53.73842],[-2.40018,53.73825],[-2.3994,53.73768],[-2.3994,53.73703],[-2.39987,53.7368],[-2.40015,53.73725],[-2.40183,53.73865],[-2.40194,53.73923],[-2.40312,53.73863],[-2.40405,53.73865],[-2.40396,53.73909],[-2.40423,53.73923],[-2.4028,53.74128],[-2.40174,53.74132],[-2.39692,53.74271],[-2.39469,53.74138],[-2.39565,53.74069]]]}},{"type":"Feature","properties":{"id":"E01025056","name":"E01025056","parent":"E07000120","type":"LSOA","pop":1281,"r":312,"ff":138,"ffd":10772.8,"ffs":0.5726,"g":69,"co":2,"mo":2,"sa":2,"ic":0},"geometry":{"type":"Polygon","coordinates":[[[-2.38464,53.7435],[-2.38241,53.74279],[-2.37937,53.7413],[-2.37939,53.74091],[-2.38362,53.73961],[-2.3843,53.73863],[-2.38236,53.73748],[-2.38152,53.7366],[-2.38047,53.73692],[-2.38014,53.73587],[-2.38159,53.7354],[-2.37974,53.73394],[-2.38319,53.73355],[-2.38482,53.73382],[-2.38567,53.73529],[-2.38474,53.7362],[-2.38555,53.73632],[-2.38717,53.73757],[-2.3898,53.73787],[-2.39002,53.73838],[-2.39176,53.73773],[-2.39421,53.7406],[-2.39291,53.74163],[-2.39125,53.7411],[-2.38957,53.74321],[-2.38875,53.74281],[-2.38717,53.74344],[-2.38464,53.7435]]]}},{"type":"Feature","properties":{"id":"E01025057","name":"E01025057","parent":"E07000120","type":"LSOA","pop":1690,"r":279,"ff":127,"ffd":7514.8,"ffs":0.5991,"g":65,"co":0,"mo":0,"sa":2,"ic":0},"geometry":{"type":"Polygon","coordinates":[[[-2.35776,53.76159],[-2.35909,53.76027],[-2.36058,53.7592],[-2.36571,53.75654],[-2.36732,53.75787],[-2.36831,53.76012],[-2.36784,53.76027],[-2.36889,53.76124],[-2.36805,53.76161],[-2.36786,53.76211],[-2.36709,53.76158],[-2.36696,53.76068],[-2.36626,53.76042],[-2.36586,53.76043],[-2.36633,53.7614],[-2.36527,53.76175],[-2.36437,53.76156],[-2.36413,53.76184],[-2.36378,53.7611],[-2.36282,53.76118],[-2.36288,53.76194],[-2.36251,53.76197],[-2.36196,53.76123],[-2.36148,53.76122],[-2.36069,53.76326],[-2.35692,53.76273],[-2.35776,53.76159]]]}},{"type":"Feature","properties":{"id":"E01025058","name":"E01025058","parent":"E07000120","type":"LSOA","pop":1434,"r":284,"ff":126,"ffd":8786.6,"ffs":0.5806,"g":65,"co":0,"mo":2,"sa":2,"ic":0},"geometry":{"type":"Polygon","coordinates":[[[-2.37067,53.76356],[-2.37127,53.76328],[-2.37146,53.7635],[-2.37225,53.76328],[-2.3719,53.76276],[-2.37225,53.76255],[-2.37148,53.76158],[-2.373,53.76132],[-2.37128,53.76065],[-2.37054,53.76074],[-2.36996,53.76018],[-2.3694,53.76035],[-2.36901,53.75991],[-2.36818,53.75994],[-2.36732,53.75787],[-2.37202,53.75745],[-2.37219,53.75803],[-2.37466,53.75776],[-2.37482,53.75842],[-2.37752,53.75843],[-2.37628,53.76015],[-2.3768,53.76026],[-2.3761,53.76158],[-2.37512,53.76489],[-2.37309,53.76547],[-2.36976,53.76451],[-2.36958,53.76414],[-2.37111,53.76389],[-2.37067,53.76356]]]}},{"type":"Feature","properties":{"id":"E01025059","name":"E01025059","parent":"E07000120","type":"LSOA","pop":2045,"r":283,"ff":125,"ffd":6112.5,"ffs":0.5814,"g":66,"co":0,"mo":0,"sa":2,"ic":0},"geometry":{"type":"Polygon","coordinates":[[[-2.35458,53.76584],[-2.35692,53.76273],[-2.36069,53.76326],[-2.36148,53.76122],[-2.36196,53.76123],[-2.36251,53.76197],[-2.36288,53.76194],[-2.36282,53.76118],[-2.36378,53.7611],[-2.36413,53.76184],[-2.36437,53.76156],[-2.36527,53.76175],[-2.36633,53.7614],[-2.36586,53.76043],[-2.36626,53.76042],[-2.36696,53.76068],[-2.36709,53.76158],[-2.36786,53.76211],[-2.36805,53.76161],[-2.36889,53.76124],[-2.36784,53.76027],[-2.36831,53.76012],[-2.36818,53.75994],[-2.36901,53.75991],[-2.3694,53.76035],[-2.36996,53.76018],[-2.37054,53.76074],[-2.37128,53.76065],[-2.373,53.76132],[-2.37148,53.76158],[-2.37225,53.76255],[-2.3719,53.76276],[-2.37225,53.76328],[-2.37146,53.7635],[-2.37127,53.76328],[-2.37067,53.76356],[-2.37111,53.76389],[-2.36958,53.76414],[-2.36976,53.76451],[-2.36637,53.76497],[-2.36366,53.76512],[-2.36089,53.76592],[-2.35984,53.7668],[-2.35702,53.76757],[-2.35367,53.77022],[-2.35159,53.76846],[-2.35458,53.76584]]]}},{"type":"Feature","properties":{"id":"E01025060","name":"E01025060","parent":"E07000120","type":"LSOA","pop":1516,"r":267,"ff":117,"ffd":7717.7,"ffs":0.5735,"g":61,"co":0,"mo":0,"sa":2,"ic":0},"geometry":{"type":"Polygon","coordinates":[[[-2.40229,53.78336],[-2.40604,53.7818],[-2.40598,53.78141],[-2.40632,53.78114],[-2.40799,53.78115],[-2.408,53.7807],[-2.40936,53.78087],[-2.40917,53.77952],[-2.40995,53.77985],[-2.40969,53.78067],[-2.40985,53.78208],[-2.40918,53.78398],[-2.40689,53.78315],[-2.40616,53.78351],[-2.40522,53.78319],[-2.40304,53.78405],[-2.40229,53.78336]]]}},{"type":"Feature","properties":{"id":"E01025061","name":"E01025061","parent":"E07000120","type":"LSOA","pop":1877,"r":249,"ff":110,"ffd":5860.4,"ffs":0.5851,"g":59,"co":0,"mo":0,"sa":2,"ic":0},"geometry":{"type":"Polygon","coordinates":[[[-2.37917,53.80257],[-2.37878,53.80237],[-2.37917,53.80097],[-2.3787,53.80049],[-2.37713,53.80085],[-2.37471,53.80065],[-2.37105,53.8016],[-2.36981,53.80148],[-2.36904,53.79873],[-2.36962,53.79717],[-2.37143,53.79549],[-2.36975,53.79413],[-2.37103,53.79319],[-2.372,53.79379],[-2.37265,53.79395],[-2.37423,53.7937],[-2.37735,53.79236],[-2.37895,53.79038],[-2.37691,53.78896],[-2.37711,53.7881],[-2.37855,53.78763],[-2.38169,53.78785],[-2.38176,53.78706],[-2.38432,53.78648],[-2.38554,53.78654],[-2.38558,53.7859],[-2.38711,53.78533],[-2.38749,53.78435],[-2.38848,53.78396],[-2.39036,53.78391],[-2.39141,53.78337],[-2.39138,53.78289],[-2.39299,53.78272],[-2.39354,53.7831],[-2.39674,53.78198],[-2.39806,53.78264],[-2.39843,53.78256],[-2.40028,53.78414],[-2.39756,53.78508],[-2.39781,53.78565],[-2.39906,53.78573],[-2.39873,53.78533],[-2.39955,53.78524],[-2.40054,53.78578],[-2.40189,53.78564],[-2.40216,53.78594],[-2.39868,53.78639],[-2.39788,53.78625],[-2.39743,53.78654],[-2.39765,53.7878],[-2.3934,53.78826],[-2.39335,53.78908],[-2.39417,53.79057],[-2.39139,53.79153],[-2.38842,53.79323],[-2.38852,53.79403],[-2.38762,53.79721],[-2.38812,53.79881],[-2.38799,53.80255],[-2.38398,53.80247],[-2.38133,53.80289],[-2.37917,53.80257]]]}},{"type":"Feature","properties":{"id":"E01025062","name":"E01025062","parent":"E07000120","type":"LSOA","pop":1703,"r":257,"ff":114,"ffd":6694.1,"ffs":0.5758,"g":57,"co":0,"mo":0,"sa":2,"ic":0},"geometry":{"type":"Polygon","coordinates":[[[-2.40216,53.78594],[-2.40189,53.78564],[-2.40054,53.78578],[-2.39955,53.78524],[-2.39873,53.78533],[-2.39906,53.78573],[-2.39781,53.78565],[-2.39756,53.78508],[-2.40028,53.78414],[-2.39843,53.78256],[-2.39806,53.78264],[-2.39674,53.78198],[-2.40118,53.78084],[-2.40157,53.78034],[-2.40332,53.77996],[-2.40344,53.77909],[-2.40859,53.77684],[-2.40949,53.77678],[-2.41007,53.77716],[-2.4114,53.77912],[-2.40995,53.77985],[-2.40917,53.77952],[-2.40936,53.78087],[-2.408,53.7807],[-2.40799,53.78115],[-2.40632,53.78114],[-2.40598,53.78141],[-2.40604,53.7818],[-2.40229,53.78336],[-2.40304,53.78405],[-2.40522,53.78319],[-2.40616,53.78351],[-2.40689,53.78315],[-2.40918,53.78398],[-2.4083,53.78593],[-2.40478,53.78629],[-2.40216,53.78594]]]}},{"type":"Feature","properties":{"id":"E01025063","name":"E01025063","parent":"E07000120","type":"LSOA","pop":1529,"r":266,"ff":119,"ffd":7782.9,"ffs":0.5833,"g":60,"co":0,"mo":0,"sa":2,"ic":0},"geometry":{"type":"Polygon","coordinates":[[[-2.41556,53.78697],[-2.41459,53.78655],[-2.4142,53.78718],[-2.41255,53.78694],[-2.41232,53.78653],[-2.41192,53.78676],[-2.41103,53.78649],[-2.41035,53.78708],[-2.40945,53.7868],[-2.41023,53.78622],[-2.41176,53.78573],[-2.41198,53.78592],[-2.41403,53.78565],[-2.4131,53.78542],[-2.41216,53.78561],[-2.41188,53.78501],[-2.41471,53.78462],[-2.41338,53.78393],[-2.4127,53.78405],[-2.41324,53.78337],[-2.41267,53.78235],[-2.413,53.78211],[-2.41036,53.78236],[-2.41011,53.78065],[-2.40969,53.78067],[-2.40995,53.77985],[-2.41432,53.77779],[-2.41484,53.77837],[-2.41692,53.77915],[-2.42166,53.77915],[-2.42422,53.78189],[-2.42144,53.78269],[-2.42016,53.78353],[-2.41997,53.78512],[-2.42019,53.78604],[-2.42103,53.78562],[-2.42148,53.78637],[-2.42016,53.78683],[-2.4207,53.78743],[-2.42012,53.78859],[-2.41844,53.78942],[-2.41501,53.7887],[-2.4146,53.788],[-2.41506,53.78711],[-2.41556,53.78697]]]}},{"type":"Feature","properties":{"id":"E01025064","name":"E01025064","parent":"E07000120","type":"LSOA","pop":1516,"r":257,"ff":108,"ffd":7124.0,"ffs":0.5567,"g":61,"co":0,"mo":0,"sa":2,"ic":0},"geometry":{"type":"Polygon","coordinates":[[[-2.39674,53.81662],[-2.39412,53.81531],[-2.39339,53.81449],[-2.39373,53.81361],[-2.39519,53.81223],[-2.39871,53.81052],[-2.39946,53.80964],[-2.39899,53.80785],[-2.39783,53.80608],[-2.39894,53.8037],[-2.39721,53.80303],[-2.39729,53.80085],[-2.40355,53.79683],[-2.40772,53.79801],[-2.40895,53.79731],[-2.41154,53.79655],[-2.41252,53.79576],[-2.41191,53.79406],[-2.41053,53.79456],[-2.40975,53.79411],[-2.40842,53.79402],[-2.40833,53.7932],[-2.40435,53.7935],[-2.40475,53.79454],[-2.40368,53.79537],[-2.39946,53.79449],[-2.39838,53.79385],[-2.39759,53.79052],[-2.39841,53.78989],[-2.40096,53.79007],[-2.40176,53.79001],[-2.4017,53.7897],[-2.40439,53.78957],[-2.40472,53.78893],[-2.40505,53.78898],[-2.40465,53.78982],[-2.40627,53.7899],[-2.40656,53.78922],[-2.40815,53.7895],[-2.40822,53.78854],[-2.40878,53.78902],[-2.41071,53.78915],[-2.41139,53.7887],[-2.41152,53.78771],[-2.4104,53.78742],[-2.41035,53.78708],[-2.41103,53.78649],[-2.41192,53.78676],[-2.41232,53.78653],[-2.41255,53.78694],[-2.4142,53.78718],[-2.41459,53.78655],[-2.41556,53.78697],[-2.41506,53.78711],[-2.4146,53.788],[-2.41501,53.7887],[-2.41844,53.78942],[-2.42012,53.78859],[-2.4207,53.78743],[-2.42016,53.78683],[-2.42148,53.78637],[-2.42103,53.78562],[-2.42019,53.78604],[-2.41997,53.78512],[-2.42016,53.78353],[-2.42144,53.78269],[-2.42422,53.78189],[-2.42166,53.77915],[-2.41692,53.77915],[-2.41484,53.77837],[-2.41432,53.77779],[-2.41643,53.7769],[-2.42381,53.77449],[-2.42522,53.77715],[-2.43056,53.78035],[-2.4318,53.78034],[-2.43328,53.78092],[-2.43649,53.77989],[-2.44165,53.78021],[-2.44326,53.78072],[-2.44653,53.78099],[-2.44789,53.78263],[-2.44717,53.7849],[-2.4476,53.78903],[-2.44436,53.79101],[-2.44005,53.79523],[-2.42114,53.80414],[-2.40745,53.81318],[-2.40594,53.81356],[-2.40131,53.81392],[-2.39997,53.81582],[-2.39871,53.81579],[-2.39674,53.81662]]]}},{"type":"Feature","properties":{"id":"E01025065","name":"E01025065","parent":"E07000120","type":"LSOA","pop":1763,"r":261,"ff":114,"ffd":6466.3,"ffs":0.5729,"g":60,"co":0,"mo":0,"sa":2,"ic":0},"geometry":{"type":"Polygon","coordinates":[[[-2.40589,53.78986],[-2.40465,53.78982],[-2.40505,53.78898],[-2.40472,53.78893],[-2.40439,53.78957],[-2.40365,53.78958],[-2.40374,53.78856],[-2.40436,53.78726],[-2.40468,53.78731],[-2.40507,53.7865],[-2.40478,53.78629],[-2.4083,53.78593],[-2.40985,53.78208],[-2.40969,53.78067],[-2.41011,53.78065],[-2.41036,53.78236],[-2.413,53.78211],[-2.41267,53.78235],[-2.41324,53.78337],[-2.4127,53.78405],[-2.41338,53.78393],[-2.41471,53.78462],[-2.41188,53.78501],[-2.41216,53.78561],[-2.4131,53.78542],[-2.41403,53.78565],[-2.41198,53.78592],[-2.41176,53.78573],[-2.41023,53.78622],[-2.40945,53.7868],[-2.41035,53.78708],[-2.4104,53.78742],[-2.41152,53.78771],[-2.41139,53.7887],[-2.41071,53.78915],[-2.40878,53.78902],[-2.40822,53.78854],[-2.40815,53.7895],[-2.40656,53.78922],[-2.40627,53.7899],[-2.40589,53.78986]]]}},{"type":"Feature","properties":{"id":"E01025066","name":"E01025066","parent":"E07000120","type":"LSOA","pop":1564,"r":255,"ff":112,"ffd":7161.1,"ffs":0.5714,"g":57,"co":0,"mo":0,"sa":2,"ic":0},"geometry":{"type":"Polygon","coordinates":[[[-2.39318,53.80328],[-2.38973,53.80245],[-2.38799,53.80255],[-2.38812,53.79881],[-2.38762,53.79721],[-2.38852,53.79403],[-2.38842,53.79323],[-2.39139,53.79153],[-2.39417,53.79057],[-2.39335,53.78908],[-2.3934,53.78826],[-2.39765,53.7878],[-2.39743,53.78654],[-2.39788,53.78625],[-2.39868,53.78639],[-2.40221,53.78601],[-2.40478,53.78629],[-2.40507,53.7865],[-2.40468,53.78731],[-2.40436,53.78726],[-2.40374,53.78856],[-2.40365,53.78958],[-2.4017,53.7897],[-2.40176,53.79001],[-2.40096,53.79007],[-2.39841,53.78989],[-2.39759,53.79052],[-2.39838,53.79385],[-2.39946,53.79449],[-2.40368,53.79537],[-2.40475,53.79454],[-2.40435,53.7935],[-2.40833,53.7932],[-2.40842,53.79402],[-2.40975,53.79411],[-2.41053,53.79456],[-2.41191,53.79406],[-2.41252,53.79576],[-2.41154,53.79655],[-2.40895,53.79731],[-2.40772,53.79801],[-2.40355,53.79683],[-2.39729,53.80085],[-2.39721,53.80303],[-2.39318,53.80328]]]}},{"type":"Feature","properties":{"id":"E01025067","name":"E01025067","parent":"E07000120","type":"LSOA","pop":1631,"r":263,"ff":120,"ffd":7357.4,"ffs":0.6,"g":61,"co":0,"mo":0,"sa":2,"ic":0},"geometry":{"type":"Polygon","coordinates":[[[-2.35657,53.75707],[-2.35824,53.75609],[-2.35966,53.75591],[-2.35918,53.75656],[-2.3597,53.75684],[-2.36173,53.75579],[-2.36211,53.75598],[-2.36106,53.7567],[-2.36178,53.75682],[-2.36163,53.75703],[-2.36271,53.7563],[-2.36334,53.75624],[-2.36294,53.7562],[-2.36304,53.7554],[-2.36227,53.75541],[-2.36273,53.7551],[-2.36222,53.75464],[-2.36293,53.75426],[-2.36571,53.75654],[-2.36,53.75958],[-2.35856,53.75891],[-2.3572,53.75875],[-2.35539,53.75786],[-2.35684,53.7572],[-2.35657,53.75707]]]}},{"type":"Feature","properties":{"id":"E01025068","name":"E01025068","parent":"E07000120","type":"LSOA","pop":1749,"r":258,"ff":118,"ffd":6746.7,"ffs":0.602,"g":60,"co":0,"mo":0,"sa":2,"ic":0},"geometry":{"type":"Polygon","coordinates":[[[-2.3536,53.7566],[-2.3561,53.75576],[-2.35603,53.75553],[-2.35621,53.75572],[-2.35742,53.75531],[-2.35702,53.75489],[-2.35828,53.75445],[-2.35748,53.75361],[-2.35685,53.75253],[-2.35769,53.75249],[-2.35746,53.75233],[-2.3613,53.75164],[-2.36207,53.75329],[-2.36293,53.75426],[-2.36222,53.75464],[-2.36273,53.7551],[-2.36227,53.75541],[-2.36304,53.7554],[-2.36294,53.7562],[-2.36334,53.75624],[-2.36271,53.7563],[-2.36163,53.75703],[-2.36178,53.75682],[-2.36106,53.7567],[-2.36211,53.75598],[-2.36173,53.75579],[-2.3597,53.75684],[-2.35918,53.75656],[-2.35966,53.75591],[-2.35824,53.75609],[-2.35657,53.75707],[-2.35684,53.7572],[-2.35539,53.75786],[-2.35409,53.75711],[-2.3536,53.7566]]]}},{"type":"Feature","properties":{"id":"E01025069","name":"E01025069","parent":"E07000120","type":"LSOA","pop":1399,"r":260,"ff":118,"ffd":8434.6,"ffs":0.599,"g":61,"co":0,"mo":0,"sa":2,"ic":0},"geometry":{"type":"Polygon","coordinates":[[[-2.3532,53.75618],[-2.35225,53.75518],[-2.35233,53.75455],[-2.35394,53.75383],[-2.35223,53.75314],[-2.35746,53.75233],[-2.35769,53.75249],[-2.35685,53.75253],[-2.35748,53.75361],[-2.35828,53.75445],[-2.35702,53.75489],[-2.35742,53.75531],[-2.35621,53.75572],[-2.35603,53.75553],[-2.3561,53.75576],[-2.3536,53.7566],[-2.3532,53.75618]]]}},{"type":"Feature","properties":{"id":"E01025070","name":"E01025070","parent":"E07000120","type":"LSOA","pop":1405,"r":324,"ff":150,"ffd":10676.2,"ffs":0.5929,"g":69,"co":0,"mo":0,"sa":2,"ic":0},"geometry":{"type":"Polygon","coordinates":[[[-2.41306,53.77139],[-2.41369,53.77057],[-2.4145,53.77036],[-2.41415,53.7695],[-2.41458,53.76944],[-2.41505,53.77055],[-2.41549,53.77049],[-2.41577,53.77093],[-2.41585,53.7702],[-2.41554,53.76977],[-2.41761,53.76971],[-2.41751,53.76949],[-2.41811,53.76939],[-2.41781,53.7688],[-2.41826,53.76875],[-2.41847,53.76796],[-2.41878,53.76901],[-2.42002,53.77005],[-2.42206,53.76928],[-2.42281,53.77037],[-2.42191,53.77111],[-2.42277,53.7714],[-2.42219,53.77163],[-2.4238,53.77312],[-2.42381,53.77449],[-2.41643,53.7769],[-2.41178,53.77412],[-2.41361,53.77322],[-2.4138,53.77273],[-2.41306,53.77139]]]}},{"type":"Feature","properties":{"id":"E01025071","name":"E01025071","parent":"E07000120","type":"LSOA","pop":1346,"r":323,"ff":150,"ffd":11144.1,"ffs":0.5929,"g":68,"co":0,"mo":0,"sa":2,"ic":0},"geometry":{"type":"Polygon","coordinates":[[[-2.40256,53.76829],[-2.40152,53.76765],[-2.40225,53.76648],[-2.40207,53.76585],[-2.39847,53.76584],[-2.39795,53.76557],[-2.39809,53.76489],[-2.39962,53.76493],[-2.39866,53.76436],[-2.39768,53.76445],[-2.39648,53.76371],[-2.40159,53.76238],[-2.40615,53.7618],[-2.41103,53.76401],[-2.41388,53.76342],[-2.41376,53.76387],[-2.41517,53.76387],[-2.41568,53.76476],[-2.41695,53.7646],[-2.41666,53.76514],[-2.41712,53.76559],[-2.41622,53.76577],[-2.41668,53.76656],[-2.41511,53.76687],[-2.41549,53.76754],[-2.41599,53.76765],[-2.41569,53.76785],[-2.41577,53.76812],[-2.41236,53.76862],[-2.41177,53.76826],[-2.41114,53.76846],[-2.41093,53.76799],[-2.40994,53.76816],[-2.40946,53.76777],[-2.40951,53.76823],[-2.40834,53.76844],[-2.40857,53.76886],[-2.40656,53.76913],[-2.4067,53.7694],[-2.40118,53.76977],[-2.40098,53.76935],[-2.40256,53.76829]]]}},{"type":"Feature","properties":{"id":"E01025072","name":"E01025072","parent":"E07000120","type":"LSOA","pop":1650,"r":321,"ff":149,"ffd":9030.3,"ffs":0.5936,"g":68,"co":0,"mo":0,"sa":2,"ic":0},"geometry":{"type":"Polygon","coordinates":[[[-2.39354,53.7831],[-2.39299,53.78272],[-2.39138,53.78289],[-2.39079,53.78153],[-2.39169,53.78148],[-2.39409,53.78191],[-2.3947,53.78126],[-2.3939,53.78026],[-2.39554,53.78049],[-2.39592,53.77961],[-2.39444,53.7784],[-2.39807,53.77688],[-2.39824,53.77637],[-2.39738,53.77558],[-2.39771,53.77485],[-2.39865,53.77373],[-2.40157,53.77276],[-2.4012,53.77175],[-2.40167,53.77088],[-2.40118,53.76977],[-2.4067,53.7694],[-2.40656,53.76913],[-2.40857,53.76886],[-2.40834,53.76844],[-2.40951,53.76823],[-2.40946,53.76777],[-2.40994,53.76816],[-2.41093,53.76799],[-2.41114,53.76846],[-2.41177,53.76826],[-2.41236,53.76862],[-2.41577,53.76812],[-2.41726,53.76814],[-2.41873,53.76757],[-2.41826,53.76875],[-2.41781,53.7688],[-2.41811,53.76939],[-2.41751,53.76949],[-2.41761,53.76971],[-2.41554,53.76977],[-2.41585,53.7702],[-2.41577,53.77093],[-2.41549,53.77049],[-2.41505,53.77055],[-2.41458,53.76944],[-2.41415,53.7695],[-2.4145,53.77036],[-2.41369,53.77057],[-2.41306,53.77139],[-2.4138,53.77273],[-2.41361,53.77322],[-2.41178,53.77412],[-2.41643,53.7769],[-2.4114,53.77912],[-2.41007,53.77716],[-2.40949,53.77678],[-2.40859,53.77684],[-2.40344,53.77909],[-2.40332,53.77996],[-2.40157,53.78034],[-2.40118,53.78084],[-2.39674,53.78198],[-2.39354,53.7831]]]}},{"type":"Feature","properties":{"id":"E01025073","name":"E01025073","parent":"E07000120","type":"LSOA","pop":1290,"r":333,"ff":156,"ffd":12093.0,"ffs":0.5909,"g":67,"co":0,"mo":0,"sa":2,"ic":0},"geometry":{"type":"Polygon","coordinates":[[[-2.41666,53.76514],[-2.41695,53.7646],[-2.41568,53.76476],[-2.41517,53.76387],[-2.41376,53.76387],[-2.41388,53.76342],[-2.41103,53.76401],[-2.40581,53.76166],[-2.41038,53.76153],[-2.41732,53.76205],[-2.42577,53.76197],[-2.42592,53.76232],[-2.42234,53.76244],[-2.42194,53.76265],[-2.42267,53.76318],[-2.42421,53.76304],[-2.42474,53.76356],[-2.42402,53.76361],[-2.42479,53.76482],[-2.4226,53.76578],[-2.42105,53.76588],[-2.4204,53.76652],[-2.4207,53.76678],[-2.41726,53.76814],[-2.41577,53.76812],[-2.41569,53.76785],[-2.41599,53.76765],[-2.41549,53.76754],[-2.41511,53.76687],[-2.41668,53.76656],[-2.41622,53.76577],[-2.41712,53.76559],[-2.41666,53.76514]]]}},{"type":"Feature","properties":{"id":"E01025074","name":"E01025074","parent":"E07000120","type":"LSOA","pop":1318,"r":336,"ff":158,"ffd":11987.9,"ffs":0.5874,"g":65,"co":0,"mo":0,"sa":2,"ic":0},"geometry":{"type":"Polygon","coordinates":[[[-2.44653,53.78099],[-2.44326,53.78072],[-2.44165,53.78021],[-2.43649,53.77989],[-2.43328,53.78092],[-2.4318,53.78034],[-2.43056,53.78035],[-2.42522,53.77715],[-2.42381,53.77449],[-2.4238,53.77312],[-2.42219,53.77163],[-2.42277,53.7714],[-2.42191,53.77111],[-2.42281,53.77037],[-2.42206,53.76928],[-2.42002,53.77005],[-2.41878,53.76901],[-2.41847,53.76796],[-2.41873,53.76757],[-2.4207,53.76678],[-2.4204,53.76652],[-2.42105,53.76588],[-2.4226,53.76578],[-2.42479,53.76482],[-2.42402,53.76361],[-2.42474,53.76356],[-2.42421,53.76304],[-2.42267,53.76318],[-2.42194,53.76265],[-2.42234,53.76244],[-2.42592,53.76232],[-2.42577,53.76197],[-2.41732,53.76205],[-2.41038,53.76153],[-2.40581,53.76166],[-2.40615,53.7618],[-2.40159,53.76238],[-2.39648,53.76371],[-2.39625,53.76132],[-2.39759,53.76056],[-2.39774,53.75974],[-2.39954,53.75961],[-2.40007,53.75882],[-2.40137,53.75812],[-2.40115,53.75662],[-2.40228,53.7546],[-2.40361,53.75549],[-2.40393,53.75393],[-2.40626,53.75313],[-2.40728,53.75304],[-2.40943,53.75391],[-2.41174,53.75373],[-2.41844,53.75214],[-2.41819,53.75103],[-2.42885,53.75026],[-2.42897,53.75057],[-2.43009,53.75007],[-2.43167,53.7498],[-2.43187,53.75012],[-2.4331,53.7499],[-2.43394,53.75008],[-2.43364,53.74945],[-2.43965,53.7483],[-2.44007,53.74942],[-2.44102,53.75026],[-2.44068,53.75042],[-2.44203,53.75147],[-2.44193,53.752],[-2.44489,53.75317],[-2.44462,53.75358],[-2.44534,53.75371],[-2.44507,53.75398],[-2.44575,53.75473],[-2.44817,53.75606],[-2.45024,53.75602],[-2.45063,53.75631],[-2.45104,53.75599],[-2.45178,53.75645],[-2.45115,53.75735],[-2.45201,53.76003],[-2.45191,53.76167],[-2.45112,53.76282],[-2.44891,53.7644],[-2.44806,53.76591],[-2.44632,53.76659],[-2.45233,53.76965],[-2.4536,53.7711],[-2.45313,53.77166],[-2.45353,53.77299],[-2.45555,53.77406],[-2.45947,53.77727],[-2.46079,53.77805],[-2.4628,53.77857],[-2.46581,53.78081],[-2.4654,53.78102],[-2.46491,53.78068],[-2.46391,53.78098],[-2.462,53.78089],[-2.45981,53.78137],[-2.45518,53.78333],[-2.44966,53.78684],[-2.44748,53.78748],[-2.44717,53.7849],[-2.44789,53.78263],[-2.44653,53.78099]]]}},{"type":"Feature","properties":{"id":"E01025075","name":"E01025075","parent":"E07000120","type":"LSOA","pop":1774,"r":311,"ff":139,"ffd":7835.4,"ffs":0.5744,"g":67,"co":2,"mo":2,"sa":2,"ic":0},"geometry":{"type":"Polygon","coordinates":[[[-2.39292,53.75066],[-2.38755,53.75057],[-2.38725,53.74834],[-2.38767,53.74773],[-2.39069,53.74813],[-2.391,53.74745],[-2.39033,53.74677],[-2.39149,53.74582],[-2.39,53.74452],[-2.38921,53.7444],[-2.3884,53.74377],[-2.38868,53.74363],[-2.3897,53.74388],[-2.39043,53.74369],[-2.39036,53.74329],[-2.39117,53.74368],[-2.39203,53.74277],[-2.39339,53.74326],[-2.39322,53.74353],[-2.39491,53.74403],[-2.39414,53.74534],[-2.39296,53.74648],[-2.39336,53.74656],[-2.39382,53.7459],[-2.39473,53.74586],[-2.3943,53.74685],[-2.3946,53.74695],[-2.39374,53.74747],[-2.39485,53.74799],[-2.39743,53.74733],[-2.3985,53.74748],[-2.39965,53.74697],[-2.40084,53.74771],[-2.40014,53.74872],[-2.39933,53.74909],[-2.39972,53.74947],[-2.39952,53.75005],[-2.40063,53.75125],[-2.3978,53.75191],[-2.3941,53.75082],[-2.39292,53.75066]]]}},{"type":"Feature","properties":{"id":"E01025076","name":"E01025076","parent":"E07000120","type":"LSOA","pop":1353,"r":319,"ff":140,"ffd":10347.4,"ffs":0.5668,"g":70,"co":2,"mo":2,"sa":2,"ic":0},"geometry":{"type":"Polygon","coordinates":[[[-2.38563,53.7442],[-2.38464,53.7435],[-2.38717,53.74344],[-2.38875,53.74281],[-2.38957,53.74321],[-2.39125,53.7411],[-2.39291,53.74163],[-2.3936,53.74108],[-2.39469,53.74138],[-2.39692,53.74271],[-2.40174,53.74132],[-2.40207,53.7413],[-2.40213,53.74155],[-2.40144,53.74173],[-2.40125,53.74209],[-2.40213,53.74267],[-2.4018,53.74344],[-2.40055,53.74395],[-2.39971,53.74352],[-2.39918,53.74413],[-2.3979,53.7446],[-2.39668,53.74394],[-2.39691,53.74377],[-2.3967,53.7438],[-2.3948,53.74527],[-2.39414,53.74534],[-2.39491,53.74403],[-2.39322,53.74353],[-2.39339,53.74326],[-2.39203,53.74277],[-2.39117,53.74368],[-2.39036,53.74329],[-2.39043,53.74369],[-2.3897,53.74388],[-2.38868,53.74363],[-2.3884,53.74377],[-2.38921,53.7444],[-2.39,53.74452],[-2.39149,53.74582],[-2.39033,53.74677],[-2.391,53.74745],[-2.39069,53.74813],[-2.38767,53.74773],[-2.38658,53.74653],[-2.38574,53.7448],[-2.38613,53.74465],[-2.38563,53.7442]]]}},{"type":"Feature","properties":{"id":"E01025077","name":"E01025077","parent":"E07000120","type":"LSOA","pop":1567,"r":318,"ff":144,"ffd":9189.5,"ffs":0.5783,"g":67,"co":0,"mo":2,"sa":2,"ic":0},"geometry":{"type":"Polygon","coordinates":[[[-2.40084,53.74771],[-2.39965,53.74697],[-2.3985,53.74748],[-2.39743,53.74733],[-2.39485,53.74799],[-2.39374,53.74747],[-2.3946,53.74695],[-2.3943,53.74685],[-2.39473,53.74586],[-2.39382,53.7459],[-2.39336,53.74656],[-2.39296,53.74648],[-2.39391,53.74547],[-2.3948,53.74527],[-2.3967,53.7438],[-2.39691,53.74377],[-2.39668,53.74394],[-2.3979,53.7446],[-2.39918,53.74413],[-2.39971,53.74352],[-2.40055,53.74395],[-2.4018,53.74344],[-2.40213,53.74267],[-2.40125,53.74209],[-2.40144,53.74173],[-2.40213,53.74155],[-2.40207,53.7413],[-2.40423,53.7413],[-2.40658,53.74234],[-2.4053,53.75002],[-2.40349,53.75009],[-2.40063,53.75125],[-2.39952,53.75005],[-2.39972,53.74947],[-2.39933,53.74909],[-2.40014,53.74872],[-2.40084,53.74771]]]}},{"type":"Feature","properties":{"id":"E01025078","name":"E01025078","parent":"E07000120","type":"LSOA","pop":1507,"r":317,"ff":143,"ffd":9489.1,"ffs":0.5766,"g":67,"co":0,"mo":2,"sa":2,"ic":0},"geometry":{"type":"Polygon","coordinates":[[[-2.40532,53.74989],[-2.40607,53.74503],[-2.4089,53.74535],[-2.40894,53.74507],[-2.40998,53.74497],[-2.40974,53.74576],[-2.4113,53.7461],[-2.41139,53.74648],[-2.41301,53.74563],[-2.41439,53.74548],[-2.41115,53.74799],[-2.41336,53.74791],[-2.4126,53.74962],[-2.40996,53.74934],[-2.40902,53.75011],[-2.41264,53.75053],[-2.41254,53.75081],[-2.40586,53.75012],[-2.4053,53.75002],[-2.40532,53.74989]]]}},{"type":"Feature","properties":{"id":"E01025079","name":"E01025079","parent":"E07000120","type":"LSOA","pop":1638,"r":355,"ff":170,"ffd":10378.5,"ffs":0.5986,"g":69,"co":2,"mo":0,"sa":2,"ic":0},"geometry":{"type":"Polygon","coordinates":[[[-2.43187,53.75012],[-2.43167,53.7498],[-2.43009,53.75007],[-2.42934,53.74941],[-2.42886,53.74743],[-2.43005,53.74724],[-2.43039,53.74769],[-2.43088,53.7475],[-2.43082,53.74715],[-2.43222,53.74709],[-2.43311,53.74745],[-2.43365,53.7474],[-2.43381,53.74702],[-2.4325,53.74696],[-2.43251,53.74665],[-2.4317,53.74636],[-2.43192,53.74498],[-2.43576,53.74465],[-2.43557,53.74544],[-2.43694,53.74553],[-2.43681,53.74458],[-2.43967,53.74437],[-2.44004,53.74393],[-2.44047,53.74388],[-2.44199,53.74523],[-2.4415,53.7459],[-2.44077,53.74604],[-2.44081,53.74659],[-2.43937,53.74783],[-2.43965,53.7483],[-2.43364,53.74945],[-2.43394,53.75008],[-2.4331,53.7499],[-2.43187,53.75012]]]}},{"type":"Feature","properties":{"id":"E01025080","name":"E01025080","parent":"E07000120","type":"LSOA","pop":1473,"r":334,"ff":150,"ffd":10183.3,"ffs":0.5747,"g":71,"co":2,"mo":2,"sa":2,"ic":0},"geometry":{"type":"Polygon","coordinates":[[[-2.41818,53.75101],[-2.41785,53.74996],[-2.41819,53.74789],[-2.41913,53.74842],[-2.42064,53.74869],[-2.42309,53.74648],[-2.42342,53.74543],[-2.42281,53.74312],[-2.42417,53.7409],[-2.42273,53.74093],[-2.41804,53.74007],[-2.41684,53.74012],[-2.41569,53.74063],[-2.41424,53.74079],[-2.41084,53.74172],[-2.40892,53.74161],[-2.40793,53.74278],[-2.40898,53.74435],[-2.40867,53.74452],[-2.40745,53.74405],[-2.40831,53.74474],[-2.40791,53.74516],[-2.40607,53.74503],[-2.40658,53.74234],[-2.40423,53.7413],[-2.4028,53.74128],[-2.40699,53.73498],[-2.40811,53.73411],[-2.41292,53.73449],[-2.41472,53.73431],[-2.41375,53.72339],[-2.4112,53.7147],[-2.41211,53.71472],[-2.40936,53.71339],[-2.40679,53.70979],[-2.40627,53.70788],[-2.40459,53.70651],[-2.40835,53.70528],[-2.41099,53.70514],[-2.41307,53.70469],[-2.41401,53.705],[-2.41997,53.70832],[-2.41965,53.70984],[-2.41835,53.71142],[-2.42587,53.71469],[-2.43269,53.71892],[-2.43387,53.71918],[-2.43267,53.71968],[-2.43231,53.72025],[-2.43355,53.72762],[-2.43977,53.73345],[-2.43996,53.73901],[-2.44083,53.74017],[-2.4413,53.74224],[-2.44183,53.7424],[-2.44128,53.74341],[-2.44152,53.74468],[-2.44047,53.74388],[-2.44004,53.74393],[-2.43967,53.74437],[-2.43681,53.74458],[-2.43694,53.74553],[-2.43557,53.74544],[-2.43576,53.74465],[-2.43192,53.74498],[-2.4317,53.74636],[-2.43251,53.74665],[-2.4325,53.74696],[-2.43381,53.74702],[-2.43365,53.7474],[-2.43311,53.74745],[-2.43222,53.74709],[-2.43082,53.74715],[-2.43088,53.7475],[-2.43039,53.74769],[-2.43005,53.74724],[-2.42886,53.74743],[-2.42934,53.74941],[-2.43009,53.75007],[-2.42897,53.75057],[-2.42885,53.75026],[-2.41818,53.75101]]]}},{"type":"Feature","properties":{"id":"E01025081","name":"E01025081","parent":"E07000120","type":"LSOA","pop":1592,"r":320,"ff":145,"ffd":9108.0,"ffs":0.5777,"g":67,"co":0,"mo":2,"sa":2,"ic":0},"geometry":{"type":"Polygon","coordinates":[[[-2.40153,53.75411],[-2.3978,53.75191],[-2.40063,53.75125],[-2.40349,53.75009],[-2.4053,53.75002],[-2.41254,53.75081],[-2.41264,53.75053],[-2.40902,53.75011],[-2.40996,53.74934],[-2.4126,53.74962],[-2.41336,53.74791],[-2.41115,53.74799],[-2.41439,53.74548],[-2.41301,53.74563],[-2.41139,53.74648],[-2.4113,53.7461],[-2.40974,53.74576],[-2.40998,53.74497],[-2.40894,53.74507],[-2.4089,53.74535],[-2.40791,53.74516],[-2.40831,53.74474],[-2.40745,53.74405],[-2.40867,53.74452],[-2.40898,53.74435],[-2.40793,53.74278],[-2.40892,53.74161],[-2.41084,53.74172],[-2.41424,53.74079],[-2.41569,53.74063],[-2.41684,53.74012],[-2.41804,53.74007],[-2.42273,53.74093],[-2.42417,53.7409],[-2.42281,53.74312],[-2.42342,53.74543],[-2.42309,53.74648],[-2.42064,53.74869],[-2.41913,53.74842],[-2.41819,53.74789],[-2.41785,53.74996],[-2.41844,53.75214],[-2.41174,53.75373],[-2.40943,53.75391],[-2.40728,53.75304],[-2.40626,53.75313],[-2.40393,53.75393],[-2.40361,53.75549],[-2.40153,53.75411]]]}},{"type":"Feature","properties":{"id":"E01025082","name":"E01025082","parent":"E07000120","type":"LSOA","pop":1735,"r":292,"ff":132,"ffd":7608.1,"ffs":0.5919,"g":67,"co":0,"mo":2,"sa":2,"ic":0},"geometry":{"type":"Polygon","coordinates":[[[-2.37984,53.74738],[-2.37821,53.74678],[-2.37743,53.74727],[-2.37748,53.74653],[-2.37698,53.74651],[-2.37663,53.74603],[-2.37545,53.74622],[-2.37501,53.7453],[-2.37451,53.74538],[-2.37425,53.74477],[-2.37431,53.74272],[-2.37546,53.7427],[-2.37607,53.74195],[-2.37552,53.74065],[-2.37463,53.74093],[-2.37416,53.74156],[-2.37381,53.74123],[-2.37326,53.74134],[-2.3727,53.74073],[-2.37321,53.74065],[-2.37339,53.73996],[-2.37441,53.7393],[-2.37446,53.73815],[-2.37594,53.73839],[-2.37632,53.73891],[-2.37939,53.74091],[-2.37937,53.7413],[-2.38241,53.74279],[-2.38464,53.7435],[-2.38563,53.7442],[-2.38534,53.74435],[-2.3846,53.74399],[-2.38359,53.7447],[-2.38252,53.74436],[-2.38189,53.74456],[-2.38149,53.74523],[-2.3823,53.74545],[-2.38211,53.74581],[-2.37989,53.74665],[-2.38029,53.74696],[-2.37984,53.74738]]]}},{"type":"Feature","properties":{"id":"E01025083","name":"E01025083","parent":"E07000120","type":"LSOA","pop":2338,"r":300,"ff":134,"ffd":5731.4,"ffs":0.5751,"g":65,"co":0,"mo":2,"sa":2,"ic":0},"geometry":{"type":"Polygon","coordinates":[[[-2.38539,53.75071],[-2.38467,53.74934],[-2.38391,53.74945],[-2.38157,53.74858],[-2.38076,53.74937],[-2.37913,53.7496],[-2.37662,53.74887],[-2.37531,53.74712],[-2.37583,53.74702],[-2.37545,53.74622],[-2.37663,53.74603],[-2.37698,53.74651],[-2.37748,53.74653],[-2.37743,53.74727],[-2.37821,53.74678],[-2.37984,53.74738],[-2.38029,53.74696],[-2.37989,53.74665],[-2.38211,53.74581],[-2.3823,53.74545],[-2.38149,53.74523],[-2.38189,53.74456],[-2.38252,53.74436],[-2.38359,53.7447],[-2.3846,53.74399],[-2.38534,53.74435],[-2.38563,53.7442],[-2.38613,53.74465],[-2.38574,53.7448],[-2.38658,53.74653],[-2.38767,53.74773],[-2.38725,53.74834],[-2.38755,53.75057],[-2.38539,53.75071]]]}},{"type":"Feature","properties":{"id":"E01025084","name":"E01025084","parent":"E07000120","type":"LSOA","pop":1989,"r":267,"ff":122,"ffd":6133.7,"ffs":0.5951,"g":60,"co":0,"mo":2,"sa":2,"ic":0},"geometry":{"type":"Polygon","coordinates":[[[-2.36717,53.74969],[-2.36695,53.74883],[-2.36658,53.74885],[-2.36546,53.74714],[-2.36473,53.74353],[-2.36414,53.74178],[-2.36286,53.73993],[-2.36373,53.74018],[-2.36428,53.73992],[-2.36505,53.74005],[-2.3662,53.74061],[-2.36656,53.74159],[-2.37081,53.74088],[-2.37045,53.74017],[-2.37276,53.73968],[-2.37256,53.73896],[-2.37334,53.7387],[-2.37314,53.73818],[-2.37446,53.73815],[-2.37441,53.7393],[-2.37339,53.73996],[-2.37321,53.74065],[-2.3727,53.74073],[-2.37326,53.74134],[-2.37381,53.74123],[-2.37416,53.74156],[-2.37463,53.74093],[-2.37552,53.74065],[-2.37607,53.74195],[-2.37546,53.7427],[-2.37431,53.74272],[-2.37425,53.74477],[-2.37451,53.74538],[-2.37501,53.7453],[-2.37583,53.74702],[-2.37531,53.74712],[-2.37468,53.74576],[-2.36842,53.75066],[-2.36797,53.74979],[-2.36717,53.74969]]]}},{"type":"Feature","properties":{"id":"E01034335","name":"E01034335","parent":"E07000120","type":"LSOA","pop":1895,"r":293,"ff":130,"ffd":6860.2,"ffs":0.5752,"g":65,"co":0,"mo":0,"sa":2,"ic":0},"geometry":{"type":"Polygon","coordinates":[[[-2.37795,53.75233],[-2.38064,53.75189],[-2.38096,53.75509],[-2.37938,53.75512],[-2.37944,53.75582],[-2.37495,53.75527],[-2.37556,53.75507],[-2.37492,53.75466],[-2.37554,53.75458],[-2.3748,53.75301],[-2.37812,53.75273],[-2.37795,53.75233]]]}},{"type":"Feature","properties":{"id":"E01034336","name":"E01034336","parent":"E07000120","type":"LSOA","pop":2279,"r":302,"ff":133,"ffd":5835.9,"ffs":0.566,"g":65,"co":0,"mo":0,"sa":2,"ic":0},"geometry":{"type":"Polygon","coordinates":[[[-2.38567,53.75408],[-2.38262,53.75413],[-2.38227,53.75311],[-2.38205,53.75335],[-2.38079,53.75337],[-2.38064,53.75189],[-2.37795,53.75233],[-2.37757,53.75136],[-2.37694,53.75171],[-2.37619,53.7514],[-2.37657,53.75131],[-2.37634,53.75088],[-2.3777,53.7506],[-2.37759,53.75036],[-2.37921,53.74987],[-2.37913,53.7496],[-2.38076,53.74937],[-2.38157,53.74858],[-2.38391,53.74945],[-2.38467,53.74934],[-2.38539,53.75071],[-2.38893,53.75052],[-2.38881,53.75275],[-2.38818,53.75353],[-2.386,53.75445],[-2.38567,53.75408]]]}}]}