{"type":"FeatureCollection","features":[{"type":"Feature","properties":{"id":"E01023908","name":"E01023908","parent":"E07000241","type":"LSOA","pop":1863,"r":281,"ff":110,"ffd":5904.5,"ffs":0.4977,"g":59,"co":0,"mo":0,"sa":0,"ic":0},"geometry":{"type":"Polygon","coordinates":[[[-0.18806,51.73377],[-0.18532,51.733],[-0.17771,51.73288],[-0.17591,51.73077],[-0.17905,51.73039],[-0.18129,51.72965],[-0.17834,51.72699],[-0.17924,51.72667],[-0.1797,51.72703],[-0.18031,51.72663],[-0.17984,51.7261],[-0.18344,51.72521],[-0.1828,51.72477],[-0.18348,51.7227],[-0.18606,51.7231],[-0.18569,51.72238],[-0.18593,51.72183],[-0.1866,51.72186],[-0.18603,51.72082],[-0.18674,51.72072],[-0.18747,51.72123],[-0.18721,51.72187],[-0.19144,51.72163],[-0.19162,51.72207],[-0.19418,51.72253],[-0.19438,51.72304],[-0.1952,51.72292],[-0.19532,51.72353],[-0.19897,51.72269],[-0.20143,51.7224],[-0.20188,51.72134],[-0.20006,51.71994],[-0.19981,51.71921],[-0.19508,51.7175],[-0.1972,51.71733],[-0.19982,51.7167],[-0.19985,51.71767],[-0.20043,51.71765],[-0.20073,51.71817],[-0.20195,51.71788],[-0.20248,51.71809],[-0.20262,51.72034],[-0.20314,51.72141],[-0.20483,51.72148],[-0.20548,51.72863],[-0.20437,51.72999],[-0.203,51.73075],[-0.20108,51.73103],[-0.19951,51.73043],[-0.19809,51.73037],[-0.19081,51.73116],[-0.18705,51.72951],[-0.18804,51.7316],[-0.18816,51.73303],[-0.18854,51.73318],[-0.18806,51.73377]]]}},{"type":"Feature","properties":{"id":"E01023909","name":"E01023909","parent":"E07000241","type":"LSOA","pop":1261,"r":267,"ff":104,"ffd":8247.4,"ffs":0.5049,"g":59,"co":0,"mo":0,"sa":0,"ic":0},"geometry":{"type":"Polygon","coordinates":[[[-0.15692,51.72306],[-0.1617,51.7153],[-0.16241,51.71275],[-0.1642,51.709],[-0.16605,51.70733],[-0.17138,51.70872],[-0.17445,51.71072],[-0.17547,51.71313],[-0.17746,51.71276],[-0.17936,51.71437],[-0.18292,51.71585],[-0.1873,51.71614],[-0.18919,51.71587],[-0.19198,51.71606],[-0.19324,51.71706],[-0.19508,51.7175],[-0.19981,51.71921],[-0.20006,51.71994],[-0.20188,51.72134],[-0.20143,51.7224],[-0.19897,51.72269],[-0.19532,51.72353],[-0.1952,51.72292],[-0.19438,51.72304],[-0.19418,51.72253],[-0.19162,51.72207],[-0.19144,51.72163],[-0.18721,51.72187],[-0.18747,51.72123],[-0.18674,51.72072],[-0.18603,51.72082],[-0.1866,51.72186],[-0.18218,51.72122],[-0.18008,51.72133],[-0.18039,51.71969],[-0.17926,51.71938],[-0.17892,51.7189],[-0.17816,51.71893],[-0.1783,51.72092],[-0.17742,51.72303],[-0.17407,51.72173],[-0.17308,51.72171],[-0.16869,51.72334],[-0.16433,51.72354],[-0.15892,51.72421],[-0.15676,51.72488],[-0.15692,51.72306]]]}},{"type":"Feature","properties":{"id":"E01023910","name":"E01023910","parent":"E07000241","type":"LSOA","pop":1421,"r":43,"ff":24,"ffd":1689.0,"ffs":0.5714,"g":1,"co":1,"mo":3,"sa":1,"ic":1},"geometry":{"type":"Polygon","coordinates":[[[-0.2111,51.7529],[-0.19485,51.74476],[-0.19336,51.74593],[-0.19593,51.74755],[-0.19534,51.74867],[-0.19331,51.74962],[-0.19062,51.74982],[-0.18747,51.74936],[-0.17886,51.74951],[-0.17611,51.74981],[-0.17343,51.7506],[-0.17247,51.74965],[-0.16578,51.74664],[-0.16485,51.74498],[-0.16109,51.74226],[-0.15914,51.74034],[-0.1526,51.73757],[-0.15088,51.73715],[-0.14691,51.73515],[-0.14432,51.73458],[-0.14092,51.73649],[-0.13838,51.73727],[-0.13489,51.73892],[-0.12824,51.73922],[-0.1284,51.74143],[-0.12595,51.74128],[-0.12367,51.74173],[-0.12044,51.74178],[-0.11631,51.74216],[-0.1127,51.74155],[-0.10836,51.74182],[-0.10519,51.74156],[-0.1024,51.74285],[-0.10121,51.74516],[-0.09674,51.74456],[-0.09219,51.74327],[-0.09578,51.74073],[-0.09701,51.73772],[-0.10146,51.73298],[-0.1018,51.7318],[-0.10232,51.73172],[-0.10181,51.73008],[-0.10306,51.72922],[-0.10457,51.72921],[-0.10535,51.7289],[-0.10547,51.72771],[-0.10745,51.72547],[-0.10901,51.7241],[-0.11387,51.72095],[-0.11474,51.72143],[-0.11652,51.7213],[-0.1222,51.72244],[-0.1244,51.72249],[-0.12861,51.72345],[-0.13471,51.72613],[-0.14256,51.72651],[-0.1448,51.72739],[-0.14687,51.72771],[-0.15226,51.72728],[-0.15554,51.72644],[-0.15712,51.72564],[-0.15676,51.72488],[-0.15892,51.72421],[-0.16433,51.72354],[-0.16869,51.72334],[-0.17308,51.72171],[-0.17407,51.72173],[-0.17742,51.72303],[-0.1783,51.72092],[-0.17816,51.71893],[-0.17892,51.7189],[-0.17926,51.71938],[-0.18039,51.71969],[-0.18008,51.72133],[-0.18218,51.72122],[-0.18593,51.72183],[-0.18569,51.72238],[-0.18606,51.7231],[-0.18348,51.7227],[-0.1828,51.72477],[-0.18344,51.72521],[-0.17984,51.7261],[-0.18031,51.72663],[-0.1797,51.72703],[-0.17924,51.72667],[-0.17834,51.72699],[-0.18129,51.72965],[-0.17905,51.73039],[-0.17591,51.73077],[-0.17771,51.73288],[-0.18042,51.73384],[-0.18558,51.7342],[-0.18685,51.7367],[-0.18741,51.73692],[-0.18848,51.7368],[-0.1891,51.73835],[-0.19293,51.73652],[-0.19542,51.73586],[-0.19906,51.73689],[-0.2016,51.73692],[-0.20763,51.73795],[-0.20938,51.73889],[-0.21195,51.74217],[-0.21374,51.74357],[-0.22035,51.74559],[-0.22161,51.74799],[-0.21184,51.75216],[-0.21177,51.7526],[-0.2111,51.7529]]]}},{"type":"Feature","properties":{"id":"E01023911","name":"E01023911","parent":"E07000241","type":"LSOA","pop":1688,"r":316,"ff":124,"ffd":7346.0,"ffs":0.5041,"g":67,"co":0,"mo":0,"sa":0,"ic":0},"geometry":{"type":"Polygon","coordinates":[[[-0.20248,51.71809],[-0.20195,51.71788],[-0.20073,51.71817],[-0.20043,51.71765],[-0.19985,51.71767],[-0.19982,51.7167],[-0.1972,51.71733],[-0.19508,51.7175],[-0.19324,51.71706],[-0.19198,51.71606],[-0.18919,51.71587],[-0.1873,51.71614],[-0.18292,51.71585],[-0.17936,51.71437],[-0.17746,51.71276],[-0.17547,51.71313],[-0.17445,51.71072],[-0.17138,51.70872],[-0.16605,51.70733],[-0.17063,51.70371],[-0.17211,51.70274],[-0.17245,51.70258],[-0.17335,51.70301],[-0.17372,51.70264],[-0.17905,51.70453],[-0.18142,51.70601],[-0.18455,51.70676],[-0.18763,51.70699],[-0.18986,51.70781],[-0.19046,51.70708],[-0.19461,51.7083],[-0.1958,51.7092],[-0.19943,51.70986],[-0.20262,51.70974],[-0.20384,51.71317],[-0.20444,51.7167],[-0.20483,51.72148],[-0.20314,51.72141],[-0.20262,51.72034],[-0.20248,51.71809]]]}},{"type":"Feature","properties":{"id":"E01023912","name":"E01023912","parent":"E07000241","type":"LSOA","pop":1461,"r":142,"ff":54,"ffd":3696.1,"ffs":0.4779,"g":29,"co":0,"mo":0,"sa":0,"ic":0},"geometry":{"type":"Polygon","coordinates":[[[-0.17548,51.81087],[-0.17868,51.80838],[-0.18439,51.80812],[-0.18474,51.80764],[-0.18455,51.80697],[-0.1817,51.80602],[-0.18228,51.80559],[-0.18068,51.80507],[-0.18124,51.80444],[-0.18054,51.80429],[-0.18036,51.80462],[-0.1788,51.80428],[-0.1786,51.80396],[-0.17901,51.80378],[-0.17858,51.80359],[-0.18177,51.80112],[-0.1812,51.80081],[-0.18174,51.80003],[-0.18128,51.79749],[-0.1835,51.79834],[-0.18784,51.8006],[-0.1946,51.80561],[-0.19203,51.80691],[-0.19099,51.80689],[-0.1905,51.8087],[-0.19101,51.80949],[-0.18843,51.81043],[-0.1896,51.81118],[-0.18778,51.81079],[-0.18721,51.8103],[-0.18655,51.81029],[-0.18628,51.81061],[-0.18571,51.81047],[-0.18569,51.8107],[-0.18459,51.8103],[-0.18321,51.8106],[-0.18233,51.81117],[-0.18241,51.81153],[-0.18323,51.81187],[-0.18322,51.81259],[-0.18395,51.81317],[-0.18368,51.81361],[-0.18202,51.81429],[-0.17548,51.81087]]]}},{"type":"Feature","properties":{"id":"E01023913","name":"E01023913","parent":"E07000241","type":"LSOA","pop":1383,"r":136,"ff":52,"ffd":3759.9,"ffs":0.4727,"g":26,"co":0,"mo":0,"sa":0,"ic":0},"geometry":{"type":"Polygon","coordinates":[[[-0.16562,51.80645],[-0.16891,51.80626],[-0.16953,51.80398],[-0.17008,51.80405],[-0.17053,51.80278],[-0.17324,51.80222],[-0.17515,51.80465],[-0.17582,51.80473],[-0.17858,51.80359],[-0.17901,51.80378],[-0.1786,51.80396],[-0.1788,51.80428],[-0.18036,51.80462],[-0.18054,51.80429],[-0.18124,51.80444],[-0.18068,51.80507],[-0.18228,51.80559],[-0.1817,51.80602],[-0.18455,51.80697],[-0.18474,51.80764],[-0.18439,51.80812],[-0.17868,51.80838],[-0.17548,51.81087],[-0.17398,51.81005],[-0.1689,51.80933],[-0.16588,51.8091],[-0.16457,51.80848],[-0.1634,51.80832],[-0.16562,51.80645]]]}},{"type":"Feature","properties":{"id":"E01023914","name":"E01023914","parent":"E07000241","type":"LSOA","pop":1677,"r":139,"ff":53,"ffd":3160.4,"ffs":0.4732,"g":27,"co":0,"mo":0,"sa":0,"ic":0},"geometry":{"type":"Polygon","coordinates":[[[-0.18202,51.81429],[-0.18368,51.81361],[-0.18395,51.81317],[-0.18322,51.81259],[-0.18323,51.81187],[-0.18241,51.81153],[-0.18233,51.81117],[-0.18321,51.8106],[-0.18459,51.8103],[-0.18569,51.8107],[-0.18571,51.81047],[-0.18628,51.81061],[-0.18655,51.81029],[-0.18721,51.8103],[-0.18778,51.81079],[-0.1896,51.81118],[-0.19075,51.81244],[-0.19055,51.81324],[-0.19117,51.81323],[-0.1912,51.81373],[-0.19217,51.8142],[-0.19337,51.81379],[-0.19391,51.81267],[-0.19304,51.81138],[-0.19478,51.81071],[-0.1964,51.81085],[-0.19579,51.81222],[-0.1951,51.81208],[-0.19483,51.81231],[-0.19477,51.81331],[-0.19325,51.81517],[-0.19128,51.81525],[-0.1889,51.81424],[-0.188,51.81447],[-0.18825,51.81564],[-0.18765,51.81712],[-0.18202,51.81429]]]}},{"type":"Feature","properties":{"id":"E01023915","name":"E01023915","parent":"E07000241","type":"LSOA","pop":1779,"r":148,"ff":57,"ffd":3204.0,"ffs":0.4831,"g":30,"co":0,"mo":0,"sa":0,"ic":0},"geometry":{"type":"Polygon","coordinates":[[[-0.19009,51.81782],[-0.18862,51.81713],[-0.18832,51.81744],[-0.18765,51.81712],[-0.18825,51.81564],[-0.188,51.81447],[-0.1889,51.81424],[-0.19128,51.81525],[-0.19325,51.81517],[-0.19477,51.81331],[-0.19483,51.81231],[-0.1951,51.81208],[-0.19579,51.81222],[-0.1964,51.81085],[-0.19478,51.81071],[-0.19304,51.81138],[-0.19391,51.81267],[-0.19337,51.81379],[-0.19217,51.8142],[-0.1912,51.81373],[-0.19117,51.81323],[-0.19055,51.81324],[-0.19075,51.81244],[-0.1896,51.81118],[-0.18843,51.81043],[-0.19101,51.80949],[-0.1905,51.8087],[-0.19099,51.80689],[-0.19203,51.80691],[-0.1946,51.80561],[-0.19712,51.8066],[-0.19826,51.80682],[-0.2,51.80654],[-0.20112,51.80578],[-0.19541,51.81724],[-0.19402,51.817],[-0.19339,51.81756],[-0.19064,51.81673],[-0.19009,51.81782]]]}},{"type":"Feature","properties":{"id":"E01023916","name":"E01023916","parent":"E07000241","type":"LSOA","pop":1686,"r":241,"ff":88,"ffd":5219.5,"ffs":0.4783,"g":55,"co":0,"mo":0,"sa":0,"ic":0},"geometry":{"type":"Polygon","coordinates":[[[-0.22549,51.79523],[-0.2248,51.79497],[-0.22436,51.79519],[-0.22316,51.79434],[-0.22262,51.79473],[-0.2216,51.79451],[-0.22148,51.79487],[-0.22199,51.79505],[-0.22091,51.79535],[-0.22023,51.7962],[-0.21933,51.79645],[-0.21899,51.79587],[-0.21966,51.79474],[-0.21924,51.79458],[-0.21972,51.79426],[-0.21915,51.79402],[-0.21952,51.79368],[-0.21907,51.79352],[-0.2187,51.79384],[-0.216,51.79276],[-0.21555,51.79303],[-0.21484,51.79274],[-0.21457,51.79301],[-0.21339,51.79301],[-0.21356,51.79228],[-0.21039,51.79294],[-0.20972,51.78955],[-0.21404,51.78179],[-0.21972,51.78462],[-0.22088,51.78592],[-0.22248,51.78503],[-0.22669,51.78863],[-0.22725,51.79038],[-0.22718,51.79114],[-0.22586,51.79472],[-0.22625,51.79653],[-0.22546,51.79676],[-0.22549,51.79523]]]}},{"type":"Feature","properties":{"id":"E01023917","name":"E01023917","parent":"E07000241","type":"LSOA","pop":1722,"r":238,"ff":87,"ffd":5052.3,"ffs":0.4807,"g":55,"co":0,"mo":0,"sa":0,"ic":0},"geometry":{"type":"Polygon","coordinates":[[[-0.20942,51.7997],[-0.20955,51.79881],[-0.2102,51.79851],[-0.20938,51.79792],[-0.20865,51.79846],[-0.20744,51.79807],[-0.20769,51.79764],[-0.20839,51.79757],[-0.20809,51.79704],[-0.20742,51.79699],[-0.20695,51.79748],[-0.20507,51.79793],[-0.20972,51.78955],[-0.21039,51.79294],[-0.21356,51.79228],[-0.21339,51.79301],[-0.21457,51.79301],[-0.21484,51.79274],[-0.21555,51.79303],[-0.216,51.79276],[-0.2187,51.79384],[-0.21907,51.79352],[-0.21952,51.79368],[-0.21915,51.79402],[-0.21972,51.79426],[-0.21924,51.79458],[-0.21966,51.79474],[-0.21899,51.79587],[-0.21933,51.79645],[-0.21898,51.79712],[-0.21936,51.79795],[-0.21984,51.79809],[-0.21948,51.79844],[-0.21654,51.79724],[-0.21635,51.79764],[-0.21468,51.79741],[-0.21321,51.79784],[-0.21364,51.79905],[-0.21256,51.79913],[-0.21224,51.79952],[-0.21123,51.7997],[-0.21147,51.79913],[-0.21068,51.79897],[-0.21044,51.79942],[-0.2098,51.7993],[-0.20942,51.7997]]]}},{"type":"Feature","properties":{"id":"E01023918","name":"E01023918","parent":"E07000241","type":"LSOA","pop":1940,"r":213,"ff":76,"ffd":3917.5,"ffs":0.472,"g":51,"co":0,"mo":0,"sa":0,"ic":0},"geometry":{"type":"Polygon","coordinates":[[[-0.20265,51.80273],[-0.20507,51.79793],[-0.20695,51.79748],[-0.20742,51.79699],[-0.20809,51.79704],[-0.20839,51.79757],[-0.20769,51.79764],[-0.20744,51.79807],[-0.20865,51.79846],[-0.20938,51.79792],[-0.2102,51.79851],[-0.20955,51.79881],[-0.20942,51.7997],[-0.2098,51.7993],[-0.21044,51.79942],[-0.21068,51.79897],[-0.21147,51.79913],[-0.21123,51.7997],[-0.21224,51.79952],[-0.21256,51.79913],[-0.21364,51.79905],[-0.21321,51.79784],[-0.21468,51.79741],[-0.21635,51.79764],[-0.21641,51.79807],[-0.21701,51.79785],[-0.21847,51.79856],[-0.21766,51.79922],[-0.21585,51.79901],[-0.2153,51.80005],[-0.21505,51.80123],[-0.21384,51.80239],[-0.21274,51.80268],[-0.21247,51.8033],[-0.21195,51.80331],[-0.21224,51.80455],[-0.21285,51.80521],[-0.2091,51.806],[-0.20657,51.80629],[-0.20412,51.80573],[-0.20277,51.80465],[-0.20265,51.80273]]]}},{"type":"Feature","properties":{"id":"E01023919","name":"E01023919","parent":"E07000241","type":"LSOA","pop":1639,"r":212,"ff":76,"ffd":4637.0,"ffs":0.475,"g":50,"co":0,"mo":0,"sa":0,"ic":0},"geometry":{"type":"Polygon","coordinates":[[[-0.22151,51.80918],[-0.22087,51.80693],[-0.21877,51.80546],[-0.2159,51.80487],[-0.21285,51.80521],[-0.21224,51.80455],[-0.21195,51.80331],[-0.21247,51.8033],[-0.21274,51.80268],[-0.21384,51.80239],[-0.21505,51.80123],[-0.2153,51.80005],[-0.21585,51.79901],[-0.21766,51.79922],[-0.21847,51.79856],[-0.21701,51.79785],[-0.21641,51.79807],[-0.21635,51.79764],[-0.21654,51.79724],[-0.21948,51.79844],[-0.21984,51.79809],[-0.21936,51.79795],[-0.21898,51.79712],[-0.21933,51.79645],[-0.22023,51.7962],[-0.22091,51.79535],[-0.22199,51.79505],[-0.22148,51.79487],[-0.2216,51.79451],[-0.22262,51.79473],[-0.22316,51.79434],[-0.22436,51.79519],[-0.2248,51.79497],[-0.22549,51.79523],[-0.22546,51.79676],[-0.22625,51.79653],[-0.22825,51.80316],[-0.22865,51.80925],[-0.22805,51.80923],[-0.22591,51.81381],[-0.22489,51.81321],[-0.22245,51.81097],[-0.22151,51.80918]]]}},{"type":"Feature","properties":{"id":"E01023920","name":"E01023920","parent":"E07000241","type":"LSOA","pop":1720,"r":288,"ff":111,"ffd":6453.5,"ffs":0.489,"g":59,"co":0,"mo":0,"sa":0,"ic":0},"geometry":{"type":"Polygon","coordinates":[[[-0.22645,51.76516],[-0.22544,51.76438],[-0.22385,51.76402],[-0.22425,51.76307],[-0.22638,51.76195],[-0.22793,51.76232],[-0.22804,51.76209],[-0.23063,51.76173],[-0.23351,51.76465],[-0.23426,51.76447],[-0.23502,51.76495],[-0.234,51.76544],[-0.2336,51.76544],[-0.23353,51.76668],[-0.23152,51.76676],[-0.23105,51.76764],[-0.22645,51.76516]]]}},{"type":"Feature","properties":{"id":"E01023921","name":"E01023921","parent":"E07000241","type":"LSOA","pop":2534,"r":315,"ff":121,"ffd":4775.1,"ffs":0.4821,"g":61,"co":0,"mo":0,"sa":0,"ic":0},"geometry":{"type":"Polygon","coordinates":[[[-0.23502,51.76495],[-0.23426,51.76447],[-0.23351,51.76465],[-0.23082,51.76178],[-0.23234,51.76142],[-0.23215,51.76039],[-0.2333,51.76085],[-0.23426,51.7602],[-0.23504,51.76019],[-0.23549,51.76047],[-0.23722,51.75993],[-0.23706,51.75975],[-0.23906,51.75886],[-0.24023,51.75962],[-0.24302,51.76072],[-0.24215,51.76145],[-0.2395,51.76275],[-0.23812,51.76397],[-0.23348,51.76954],[-0.23105,51.76764],[-0.23152,51.76676],[-0.23353,51.76668],[-0.2336,51.76544],[-0.234,51.76544],[-0.23502,51.76495]]]}},{"type":"Feature","properties":{"id":"E01023922","name":"E01023922","parent":"E07000241","type":"LSOA","pop":1917,"r":312,"ff":120,"ffd":6259.8,"ffs":0.4839,"g":61,"co":0,"mo":0,"sa":2,"ic":0},"geometry":{"type":"Polygon","coordinates":[[[-0.22638,51.76195],[-0.22686,51.76114],[-0.22557,51.75924],[-0.22732,51.7586],[-0.22981,51.75938],[-0.2287,51.75769],[-0.22956,51.75748],[-0.2295,51.75836],[-0.23069,51.7586],[-0.23131,51.75814],[-0.23117,51.75786],[-0.23324,51.75743],[-0.2347,51.75789],[-0.23562,51.75734],[-0.23649,51.758],[-0.23657,51.75885],[-0.23761,51.75861],[-0.23717,51.75807],[-0.23848,51.75834],[-0.23906,51.75886],[-0.23706,51.75975],[-0.23722,51.75993],[-0.23549,51.76047],[-0.23504,51.76019],[-0.23426,51.7602],[-0.2333,51.76085],[-0.23215,51.76039],[-0.23234,51.76142],[-0.23082,51.76178],[-0.22804,51.76209],[-0.22793,51.76232],[-0.22638,51.76195]]]}},{"type":"Feature","properties":{"id":"E01023923","name":"E01023923","parent":"E07000241","type":"LSOA","pop":2509,"r":320,"ff":126,"ffd":5021.9,"ffs":0.4922,"g":61,"co":0,"mo":0,"sa":2,"ic":0},"geometry":{"type":"Polygon","coordinates":[[[-0.22981,51.75938],[-0.22732,51.7586],[-0.22557,51.75924],[-0.22397,51.75701],[-0.22208,51.75677],[-0.22226,51.75585],[-0.22289,51.75531],[-0.22105,51.75511],[-0.22185,51.75293],[-0.2254,51.75409],[-0.227,51.75443],[-0.22849,51.7543],[-0.23245,51.75279],[-0.23405,51.75282],[-0.23434,51.75475],[-0.23631,51.7559],[-0.23848,51.75834],[-0.23717,51.75807],[-0.23761,51.75861],[-0.23657,51.75885],[-0.23649,51.758],[-0.23562,51.75734],[-0.2347,51.75789],[-0.23324,51.75743],[-0.23117,51.75786],[-0.23131,51.75814],[-0.23069,51.7586],[-0.2295,51.75836],[-0.22956,51.75748],[-0.2287,51.75769],[-0.22981,51.75938]]]}},{"type":"Feature","properties":{"id":"E01023924","name":"E01023924","parent":"E07000241","type":"LSOA","pop":1821,"r":299,"ff":118,"ffd":6480.0,"ffs":0.4979,"g":60,"co":0,"mo":0,"sa":0,"ic":0},"geometry":{"type":"Polygon","coordinates":[[[-0.22056,51.76396],[-0.22041,51.76307],[-0.222,51.76303],[-0.22068,51.76254],[-0.21838,51.76238],[-0.21895,51.76197],[-0.21856,51.76152],[-0.21924,51.76084],[-0.21802,51.76061],[-0.21829,51.76182],[-0.21748,51.76166],[-0.21705,51.7619],[-0.2162,51.76137],[-0.21579,51.76141],[-0.21573,51.76192],[-0.21492,51.7619],[-0.21381,51.7614],[-0.21377,51.76086],[-0.21562,51.76069],[-0.21696,51.75949],[-0.22052,51.75516],[-0.22244,51.75519],[-0.22289,51.75531],[-0.22226,51.75585],[-0.22208,51.75677],[-0.22397,51.75701],[-0.22686,51.76114],[-0.22638,51.76195],[-0.22425,51.76307],[-0.22385,51.76402],[-0.22357,51.7641],[-0.22319,51.76383],[-0.22157,51.76415],[-0.22056,51.76396]]]}},{"type":"Feature","properties":{"id":"E01023925","name":"E01023925","parent":"E07000241","type":"LSOA","pop":1766,"r":43,"ff":21,"ffd":1189.1,"ffs":0.5122,"g":2,"co":3,"mo":3,"sa":3,"ic":1},"geometry":{"type":"Polygon","coordinates":[[[-0.15911,51.78613],[-0.15286,51.78068],[-0.14327,51.77425],[-0.14149,51.77378],[-0.14208,51.77344],[-0.14243,51.7738],[-0.14347,51.7735],[-0.14263,51.7693],[-0.14345,51.7672],[-0.14312,51.76487],[-0.14273,51.76372],[-0.14293,51.75836],[-0.14369,51.75818],[-0.14364,51.7566],[-0.14268,51.75475],[-0.13819,51.75155],[-0.13861,51.75073],[-0.1385,51.74843],[-0.13968,51.74443],[-0.139,51.74231],[-0.1391,51.74006],[-0.13835,51.73901],[-0.13838,51.73727],[-0.14092,51.73649],[-0.14432,51.73458],[-0.14691,51.73515],[-0.15088,51.73715],[-0.1526,51.73757],[-0.15914,51.74034],[-0.16109,51.74226],[-0.16485,51.74498],[-0.16578,51.74664],[-0.17247,51.74965],[-0.17343,51.7506],[-0.17611,51.74981],[-0.17886,51.74951],[-0.18747,51.74936],[-0.19062,51.74982],[-0.19331,51.74962],[-0.19534,51.74867],[-0.19593,51.74755],[-0.19336,51.74593],[-0.19485,51.74476],[-0.2111,51.7529],[-0.21177,51.7526],[-0.21184,51.75216],[-0.22161,51.74799],[-0.22207,51.75158],[-0.22185,51.75293],[-0.22105,51.75511],[-0.22052,51.75516],[-0.21696,51.75949],[-0.21562,51.76069],[-0.21377,51.76086],[-0.21381,51.7614],[-0.21492,51.7619],[-0.21498,51.76261],[-0.21548,51.76288],[-0.21516,51.76337],[-0.214,51.7635],[-0.21401,51.76281],[-0.2126,51.76358],[-0.21201,51.76343],[-0.212,51.76291],[-0.21116,51.76228],[-0.21202,51.75979],[-0.21062,51.75986],[-0.20531,51.75668],[-0.20066,51.75575],[-0.19732,51.75943],[-0.19425,51.76023],[-0.19246,51.76489],[-0.20127,51.76538],[-0.20866,51.76544],[-0.20851,51.76664],[-0.20957,51.76708],[-0.20983,51.76777],[-0.2088,51.76885],[-0.20825,51.76896],[-0.20694,51.76969],[-0.20434,51.77031],[-0.20645,51.77234],[-0.20745,51.7723],[-0.206,51.77373],[-0.20621,51.77392],[-0.20817,51.77375],[-0.20977,51.77409],[-0.21301,51.77529],[-0.21352,51.77516],[-0.21283,51.77444],[-0.21384,51.77464],[-0.21314,51.77416],[-0.2161,51.77403],[-0.21589,51.77778],[-0.21404,51.78179],[-0.19318,51.78177],[-0.18769,51.78159],[-0.1826,51.78316],[-0.18165,51.78263],[-0.17722,51.78171],[-0.17681,51.78068],[-0.17531,51.77939],[-0.17123,51.7823],[-0.17045,51.78397],[-0.16937,51.78367],[-0.16932,51.78426],[-0.16854,51.78436],[-0.16889,51.78483],[-0.16587,51.78472],[-0.16342,51.78397],[-0.16288,51.78518],[-0.16188,51.7861],[-0.16536,51.78847],[-0.1645,51.78931],[-0.1626,51.78755],[-0.15911,51.78613]]]}},{"type":"Feature","properties":{"id":"E01023926","name":"E01023926","parent":"E07000241","type":"LSOA","pop":2003,"r":254,"ff":97,"ffd":4842.7,"ffs":0.4974,"g":58,"co":0,"mo":0,"sa":0,"ic":0},"geometry":{"type":"Polygon","coordinates":[[[-0.21301,51.77529],[-0.20977,51.77409],[-0.20817,51.77375],[-0.20621,51.77392],[-0.206,51.77373],[-0.20745,51.7723],[-0.20645,51.77234],[-0.20434,51.77031],[-0.20694,51.76969],[-0.20825,51.76896],[-0.2088,51.76885],[-0.20983,51.76777],[-0.20957,51.76708],[-0.20851,51.76664],[-0.20866,51.76544],[-0.20127,51.76538],[-0.19246,51.76489],[-0.19425,51.76023],[-0.19732,51.75943],[-0.20066,51.75575],[-0.20531,51.75668],[-0.21062,51.75986],[-0.21202,51.75979],[-0.21116,51.76228],[-0.212,51.76291],[-0.21201,51.76343],[-0.2126,51.76358],[-0.21401,51.76281],[-0.214,51.7635],[-0.21516,51.76337],[-0.21548,51.76288],[-0.21498,51.76261],[-0.21492,51.7619],[-0.21573,51.76192],[-0.21579,51.76141],[-0.2162,51.76137],[-0.21705,51.7619],[-0.21748,51.76166],[-0.21829,51.76182],[-0.21802,51.76061],[-0.21924,51.76084],[-0.21856,51.76152],[-0.21895,51.76197],[-0.21838,51.76238],[-0.21799,51.76232],[-0.21714,51.76336],[-0.21694,51.76571],[-0.21926,51.76568],[-0.2185,51.76635],[-0.2188,51.76628],[-0.21875,51.76666],[-0.21842,51.76689],[-0.21795,51.76663],[-0.21662,51.76743],[-0.2158,51.76749],[-0.2161,51.77403],[-0.21314,51.77416],[-0.21384,51.77464],[-0.21283,51.77444],[-0.21352,51.77516],[-0.21301,51.77529]]]}},{"type":"Feature","properties":{"id":"E01023927","name":"E01023927","parent":"E07000241","type":"LSOA","pop":1992,"r":279,"ff":109,"ffd":5471.9,"ffs":0.4977,"g":58,"co":0,"mo":0,"sa":0,"ic":0},"geometry":{"type":"Polygon","coordinates":[[[-0.22134,51.76802],[-0.22089,51.76771],[-0.22059,51.76787],[-0.21957,51.76705],[-0.21875,51.76666],[-0.2188,51.76628],[-0.2185,51.76635],[-0.21926,51.76568],[-0.21694,51.76571],[-0.21714,51.76336],[-0.21799,51.76232],[-0.22068,51.76254],[-0.222,51.76303],[-0.22041,51.76307],[-0.22056,51.76396],[-0.22157,51.76415],[-0.22319,51.76383],[-0.22357,51.7641],[-0.22385,51.76402],[-0.22544,51.76438],[-0.22727,51.76572],[-0.22864,51.76635],[-0.22168,51.76878],[-0.22134,51.76802]]]}},{"type":"Feature","properties":{"id":"E01023929","name":"E01023929","parent":"E07000241","type":"LSOA","pop":1834,"r":276,"ff":104,"ffd":5670.7,"ffs":0.4837,"g":59,"co":0,"mo":0,"sa":0,"ic":0},"geometry":{"type":"Polygon","coordinates":[[[-0.22552,51.77267],[-0.22472,51.77258],[-0.22382,51.77315],[-0.22406,51.7733],[-0.22333,51.7733],[-0.22293,51.77299],[-0.22227,51.77332],[-0.22172,51.77245],[-0.22253,51.772],[-0.22225,51.77165],[-0.22256,51.77119],[-0.22253,51.7709],[-0.21988,51.77112],[-0.21909,51.77051],[-0.21956,51.77028],[-0.2214,51.77033],[-0.22186,51.76993],[-0.22252,51.77045],[-0.22323,51.77029],[-0.22193,51.76903],[-0.22251,51.7685],[-0.22505,51.76765],[-0.22554,51.76801],[-0.22534,51.76922],[-0.22599,51.76938],[-0.22821,51.76887],[-0.22937,51.76915],[-0.22936,51.76942],[-0.22967,51.76943],[-0.22989,51.76988],[-0.23073,51.76963],[-0.23147,51.76998],[-0.23102,51.77053],[-0.2321,51.77071],[-0.23191,51.77124],[-0.22646,51.77504],[-0.22603,51.77385],[-0.22665,51.77346],[-0.22552,51.77267]]]}},{"type":"Feature","properties":{"id":"E01023930","name":"E01023930","parent":"E07000241","type":"LSOA","pop":1690,"r":268,"ff":101,"ffd":5976.3,"ffs":0.4879,"g":59,"co":0,"mo":0,"sa":0,"ic":0},"geometry":{"type":"Polygon","coordinates":[[[-0.21898,51.77333],[-0.2179,51.7715],[-0.21642,51.77152],[-0.216,51.77188],[-0.2158,51.76749],[-0.21662,51.76743],[-0.21795,51.76663],[-0.21842,51.76689],[-0.21875,51.76666],[-0.21957,51.76705],[-0.22059,51.76787],[-0.22089,51.76771],[-0.22134,51.76802],[-0.22168,51.76878],[-0.22251,51.7685],[-0.22193,51.76903],[-0.22323,51.77029],[-0.22252,51.77045],[-0.22186,51.76993],[-0.2214,51.77033],[-0.21956,51.77028],[-0.21909,51.77051],[-0.21988,51.77112],[-0.22253,51.7709],[-0.22256,51.77119],[-0.22225,51.77165],[-0.22253,51.772],[-0.22172,51.77245],[-0.22211,51.77285],[-0.22157,51.77299],[-0.22179,51.77335],[-0.21833,51.77366],[-0.21835,51.77333],[-0.21898,51.77333]]]}},{"type":"Feature","properties":{"id":"E01023932","name":"E01023932","parent":"E07000241","type":"LSOA","pop":1902,"r":334,"ff":129,"ffd":6782.3,"ffs":0.4905,"g":68,"co":2,"mo":0,"sa":0,"ic":0},"geometry":{"type":"Polygon","coordinates":[[[-0.2367,51.74645],[-0.23486,51.74561],[-0.23405,51.7462],[-0.23369,51.74515],[-0.23313,51.74493],[-0.23325,51.74578],[-0.23193,51.74618],[-0.23168,51.74558],[-0.2312,51.74572],[-0.2304,51.74478],[-0.22949,51.74489],[-0.22912,51.74455],[-0.23053,51.74337],[-0.23058,51.74278],[-0.23461,51.74148],[-0.23842,51.74109],[-0.2394,51.74148],[-0.24048,51.74328],[-0.242,51.74321],[-0.24256,51.74448],[-0.24199,51.74548],[-0.24074,51.74416],[-0.23895,51.74499],[-0.23921,51.74544],[-0.23845,51.74623],[-0.23818,51.74556],[-0.23666,51.74523],[-0.23543,51.74543],[-0.23711,51.74624],[-0.2367,51.74645]]]}},{"type":"Feature","properties":{"id":"E01023933","name":"E01023933","parent":"E07000241","type":"LSOA","pop":1566,"r":331,"ff":130,"ffd":8301.4,"ffs":0.4981,"g":67,"co":2,"mo":0,"sa":2,"ic":0},"geometry":{"type":"Polygon","coordinates":[[[-0.22361,51.74861],[-0.22293,51.74713],[-0.22135,51.74738],[-0.22035,51.74559],[-0.22397,51.74563],[-0.23058,51.74278],[-0.23053,51.74337],[-0.22912,51.74455],[-0.22949,51.74489],[-0.2304,51.74478],[-0.2312,51.74572],[-0.23168,51.74558],[-0.23193,51.74618],[-0.23325,51.74578],[-0.23313,51.74493],[-0.23369,51.74515],[-0.23405,51.7462],[-0.23361,51.7465],[-0.23439,51.74704],[-0.23341,51.74745],[-0.23228,51.74745],[-0.23161,51.7472],[-0.23134,51.74663],[-0.22666,51.74707],[-0.22634,51.74731],[-0.22653,51.74798],[-0.22361,51.74861]]]}},{"type":"Feature","properties":{"id":"E01023934","name":"E01023934","parent":"E07000241","type":"LSOA","pop":1460,"r":327,"ff":129,"ffd":8835.6,"ffs":0.4943,"g":63,"co":2,"mo":0,"sa":2,"ic":0},"geometry":{"type":"Polygon","coordinates":[[[-0.23471,51.74925],[-0.2354,51.74801],[-0.23361,51.7465],[-0.23486,51.74561],[-0.23699,51.74643],[-0.23711,51.74624],[-0.23543,51.74543],[-0.23666,51.74523],[-0.23818,51.74556],[-0.23845,51.74623],[-0.23921,51.74544],[-0.23895,51.74499],[-0.24074,51.74416],[-0.24199,51.74548],[-0.24156,51.74573],[-0.24263,51.74817],[-0.24137,51.74819],[-0.24011,51.74859],[-0.23886,51.74841],[-0.23808,51.74885],[-0.2352,51.74942],[-0.23471,51.74925]]]}},{"type":"Feature","properties":{"id":"E01023935","name":"E01023935","parent":"E07000241","type":"LSOA","pop":2453,"r":315,"ff":126,"ffd":5136.6,"ffs":0.5,"g":60,"co":0,"mo":0,"sa":2,"ic":0},"geometry":{"type":"Polygon","coordinates":[[[-0.23848,51.75834],[-0.23631,51.7559],[-0.23434,51.75475],[-0.23405,51.75282],[-0.23245,51.75279],[-0.23129,51.75318],[-0.23025,51.75235],[-0.23058,51.75194],[-0.23182,51.75172],[-0.23177,51.75016],[-0.23241,51.75024],[-0.23244,51.74995],[-0.23392,51.7499],[-0.2339,51.75052],[-0.23329,51.7505],[-0.23305,51.75171],[-0.23376,51.75187],[-0.23391,51.75091],[-0.23433,51.7508],[-0.23619,51.7509],[-0.23907,51.75218],[-0.24074,51.75218],[-0.24109,51.75453],[-0.24165,51.75559],[-0.24063,51.75551],[-0.24042,51.75592],[-0.24132,51.75644],[-0.24194,51.75591],[-0.24306,51.75593],[-0.24292,51.75626],[-0.24184,51.75646],[-0.24088,51.75769],[-0.24068,51.75725],[-0.23938,51.75699],[-0.23963,51.75744],[-0.23862,51.75847],[-0.23848,51.75834]]]}},{"type":"Feature","properties":{"id":"E01023936","name":"E01023936","parent":"E07000241","type":"LSOA","pop":2200,"r":331,"ff":129,"ffd":5863.6,"ffs":0.4905,"g":65,"co":2,"mo":0,"sa":2,"ic":0},"geometry":{"type":"Polygon","coordinates":[[[-0.22207,51.75158],[-0.22161,51.74799],[-0.22135,51.74738],[-0.22293,51.74713],[-0.22361,51.74861],[-0.22653,51.74798],[-0.22658,51.7483],[-0.22808,51.74792],[-0.22883,51.74813],[-0.22796,51.74919],[-0.22818,51.75029],[-0.22781,51.75088],[-0.22843,51.7508],[-0.22871,51.75042],[-0.22899,51.75104],[-0.23039,51.75049],[-0.2317,51.75044],[-0.23182,51.75172],[-0.23058,51.75194],[-0.23025,51.75235],[-0.23129,51.75318],[-0.22849,51.7543],[-0.227,51.75443],[-0.2254,51.75409],[-0.22185,51.75293],[-0.22207,51.75158]]]}},{"type":"Feature","properties":{"id":"E01023937","name":"E01023937","parent":"E07000241","type":"LSOA","pop":2530,"r":238,"ff":89,"ffd":3517.8,"ffs":0.4837,"g":52,"co":2,"mo":0,"sa":2,"ic":0},"geometry":{"type":"Polygon","coordinates":[[[-0.24439,51.75259],[-0.24381,51.75107],[-0.24359,51.75146],[-0.24236,51.75155],[-0.24074,51.75218],[-0.23907,51.75218],[-0.23619,51.7509],[-0.23391,51.75091],[-0.23376,51.75187],[-0.23305,51.75171],[-0.23329,51.7505],[-0.2339,51.75052],[-0.23392,51.7499],[-0.23244,51.74995],[-0.23241,51.75024],[-0.23177,51.75016],[-0.2317,51.75044],[-0.23039,51.75049],[-0.22899,51.75104],[-0.22871,51.75042],[-0.22843,51.7508],[-0.22781,51.75088],[-0.22818,51.75029],[-0.22796,51.74919],[-0.22883,51.74813],[-0.22808,51.74792],[-0.22658,51.7483],[-0.22634,51.74731],[-0.22666,51.74707],[-0.23134,51.74663],[-0.23161,51.7472],[-0.23228,51.74745],[-0.23341,51.74745],[-0.23439,51.74704],[-0.2354,51.74801],[-0.23471,51.74925],[-0.2352,51.74942],[-0.23808,51.74885],[-0.23886,51.74841],[-0.24011,51.74859],[-0.24137,51.74819],[-0.24263,51.74817],[-0.24156,51.74573],[-0.24238,51.745],[-0.24559,51.75178],[-0.25077,51.74862],[-0.25317,51.74773],[-0.25412,51.74823],[-0.24666,51.75197],[-0.24604,51.75272],[-0.24506,51.75281],[-0.24439,51.75259]]]}},{"type":"Feature","properties":{"id":"E01023938","name":"E01023938","parent":"E07000241","type":"LSOA","pop":2480,"r":293,"ff":111,"ffd":4475.8,"ffs":0.4764,"g":57,"co":2,"mo":0,"sa":2,"ic":0},"geometry":{"type":"Polygon","coordinates":[[[-0.24349,51.7622],[-0.24328,51.76174],[-0.24277,51.76188],[-0.24215,51.76145],[-0.24302,51.76072],[-0.24023,51.75962],[-0.23862,51.75847],[-0.23963,51.75744],[-0.23938,51.75699],[-0.24068,51.75725],[-0.24088,51.75769],[-0.24184,51.75646],[-0.24292,51.75626],[-0.24306,51.75593],[-0.24194,51.75591],[-0.24132,51.75644],[-0.24042,51.75592],[-0.24063,51.75551],[-0.24165,51.75559],[-0.24109,51.75453],[-0.24074,51.75218],[-0.24236,51.75155],[-0.24359,51.75146],[-0.24381,51.75107],[-0.24439,51.75259],[-0.24506,51.75281],[-0.24604,51.75272],[-0.24666,51.75197],[-0.25412,51.74823],[-0.25587,51.74926],[-0.25508,51.74992],[-0.25729,51.75187],[-0.25572,51.75346],[-0.25814,51.75478],[-0.2572,51.75508],[-0.25909,51.75604],[-0.26043,51.75751],[-0.2581,51.75832],[-0.25646,51.75914],[-0.24812,51.75982],[-0.24855,51.76059],[-0.24468,51.76154],[-0.24349,51.7622]]]}},{"type":"Feature","properties":{"id":"E01023939","name":"E01023939","parent":"E07000241","type":"LSOA","pop":1216,"r":183,"ff":68,"ffd":5592.1,"ffs":0.4823,"g":41,"co":0,"mo":0,"sa":0,"ic":0},"geometry":{"type":"Polygon","coordinates":[[[-0.18718,51.79045],[-0.18431,51.79042],[-0.18239,51.79018],[-0.18244,51.78962],[-0.1845,51.78882],[-0.18711,51.7865],[-0.18739,51.78549],[-0.18835,51.78571],[-0.19023,51.78734],[-0.19278,51.78633],[-0.19387,51.78611],[-0.1955,51.78683],[-0.19499,51.7872],[-0.19509,51.78761],[-0.19395,51.78771],[-0.19351,51.78843],[-0.19434,51.78857],[-0.19482,51.78826],[-0.19498,51.78868],[-0.19477,51.78936],[-0.19738,51.78963],[-0.19615,51.79051],[-0.19376,51.79038],[-0.19396,51.79138],[-0.19261,51.79159],[-0.19066,51.79138],[-0.18718,51.79045]]]}},{"type":"Feature","properties":{"id":"E01023940","name":"E01023940","parent":"E07000241","type":"LSOA","pop":1806,"r":201,"ff":72,"ffd":3986.7,"ffs":0.4675,"g":46,"co":0,"mo":0,"sa":0,"ic":0},"geometry":{"type":"Polygon","coordinates":[[[-0.20405,51.79345],[-0.20308,51.7931],[-0.20281,51.79329],[-0.20133,51.79253],[-0.19903,51.79097],[-0.19757,51.79103],[-0.19658,51.79143],[-0.19396,51.79138],[-0.19376,51.79038],[-0.19615,51.79051],[-0.19738,51.78963],[-0.19477,51.78936],[-0.19498,51.78868],[-0.19482,51.78826],[-0.19434,51.78857],[-0.19351,51.78843],[-0.19395,51.78771],[-0.19509,51.78761],[-0.19499,51.7872],[-0.1955,51.78683],[-0.19556,51.78542],[-0.19791,51.78586],[-0.19671,51.78622],[-0.19688,51.78643],[-0.19834,51.78605],[-0.19992,51.78616],[-0.20113,51.78686],[-0.19973,51.78807],[-0.20415,51.78835],[-0.20507,51.7863],[-0.20708,51.78653],[-0.21092,51.78738],[-0.20732,51.79387],[-0.20435,51.79399],[-0.20405,51.79345]]]}},{"type":"Feature","properties":{"id":"E01023942","name":"E01023942","parent":"E07000241","type":"LSOA","pop":1733,"r":208,"ff":79,"ffd":4558.6,"ffs":0.4969,"g":48,"co":0,"mo":0,"sa":0,"ic":0},"geometry":{"type":"Polygon","coordinates":[[[-0.19023,51.78734],[-0.18835,51.78571],[-0.18739,51.78549],[-0.18695,51.78459],[-0.18942,51.78371],[-0.18921,51.78316],[-0.19008,51.78174],[-0.19595,51.78176],[-0.19582,51.7826],[-0.19523,51.78289],[-0.19508,51.78363],[-0.19731,51.78409],[-0.1963,51.78452],[-0.19654,51.78468],[-0.19778,51.78432],[-0.19984,51.78532],[-0.19992,51.78616],[-0.19834,51.78605],[-0.19688,51.78643],[-0.19671,51.78622],[-0.19791,51.78586],[-0.19556,51.78542],[-0.1955,51.78683],[-0.19387,51.78611],[-0.19278,51.78633],[-0.19023,51.78734]]]}},{"type":"Feature","properties":{"id":"E01023943","name":"E01023943","parent":"E07000241","type":"LSOA","pop":1622,"r":164,"ff":62,"ffd":3822.4,"ffs":0.4921,"g":38,"co":0,"mo":0,"sa":0,"ic":0},"geometry":{"type":"Polygon","coordinates":[[[-0.17338,51.79406],[-0.16738,51.79112],[-0.17007,51.79052],[-0.17002,51.78908],[-0.17101,51.78889],[-0.17115,51.78998],[-0.17224,51.79019],[-0.17212,51.79066],[-0.17326,51.79058],[-0.17399,51.7895],[-0.17506,51.78963],[-0.1754,51.78926],[-0.17706,51.78946],[-0.17704,51.79048],[-0.17822,51.79039],[-0.17828,51.79154],[-0.17952,51.79122],[-0.18014,51.79191],[-0.18063,51.79165],[-0.18071,51.79232],[-0.18153,51.79239],[-0.18122,51.79301],[-0.18175,51.79331],[-0.18177,51.79417],[-0.18108,51.79406],[-0.1807,51.79353],[-0.17915,51.79427],[-0.17853,51.79396],[-0.17793,51.79293],[-0.17734,51.79305],[-0.17725,51.79359],[-0.1766,51.79395],[-0.17598,51.79319],[-0.17413,51.79432],[-0.17338,51.79406]]]}},{"type":"Feature","properties":{"id":"E01023944","name":"E01023944","parent":"E07000241","type":"LSOA","pop":2232,"r":160,"ff":61,"ffd":2733.0,"ffs":0.4919,"g":36,"co":0,"mo":0,"sa":0,"ic":0},"geometry":{"type":"Polygon","coordinates":[[[-0.17777,51.79854],[-0.17675,51.79651],[-0.17594,51.79552],[-0.17413,51.79432],[-0.17598,51.79319],[-0.1766,51.79395],[-0.17725,51.79359],[-0.17734,51.79305],[-0.17793,51.79293],[-0.17853,51.79396],[-0.17915,51.79427],[-0.1807,51.79353],[-0.18108,51.79406],[-0.18177,51.79417],[-0.18175,51.79331],[-0.18122,51.79301],[-0.18153,51.79239],[-0.18071,51.79232],[-0.18063,51.79165],[-0.18089,51.79108],[-0.18007,51.79029],[-0.18239,51.79018],[-0.18431,51.79042],[-0.18285,51.79283],[-0.18712,51.79345],[-0.1887,51.79475],[-0.18681,51.7958],[-0.18462,51.79773],[-0.1835,51.79834],[-0.18128,51.79749],[-0.18174,51.80003],[-0.1812,51.80081],[-0.17899,51.79965],[-0.17777,51.79854]]]}},{"type":"Feature","properties":{"id":"E01023945","name":"E01023945","parent":"E07000241","type":"LSOA","pop":1783,"r":172,"ff":64,"ffd":3589.5,"ffs":0.4848,"g":40,"co":0,"mo":0,"sa":0,"ic":0},"geometry":{"type":"Polygon","coordinates":[[[-0.18014,51.79191],[-0.17952,51.79122],[-0.17828,51.79154],[-0.17822,51.79039],[-0.17704,51.79048],[-0.17706,51.78946],[-0.1754,51.78926],[-0.17506,51.78963],[-0.17399,51.7895],[-0.17326,51.79058],[-0.17212,51.79066],[-0.17224,51.79019],[-0.17115,51.78998],[-0.17101,51.78889],[-0.17002,51.78908],[-0.17007,51.79052],[-0.16738,51.79112],[-0.16402,51.78936],[-0.1645,51.78931],[-0.16536,51.78847],[-0.16188,51.7861],[-0.16288,51.78518],[-0.16342,51.78397],[-0.16587,51.78472],[-0.16889,51.78483],[-0.16854,51.78436],[-0.16932,51.78426],[-0.16937,51.78367],[-0.17045,51.78397],[-0.17123,51.7823],[-0.17531,51.77939],[-0.17681,51.78068],[-0.17722,51.78171],[-0.17646,51.78483],[-0.17688,51.78521],[-0.17758,51.7849],[-0.17817,51.78507],[-0.17861,51.78559],[-0.18049,51.78496],[-0.18187,51.78476],[-0.18253,51.78502],[-0.18335,51.78457],[-0.18354,51.78505],[-0.18181,51.7852],[-0.18241,51.78535],[-0.18083,51.786],[-0.17962,51.78699],[-0.17961,51.78774],[-0.18071,51.78818],[-0.17998,51.78899],[-0.18067,51.78943],[-0.17952,51.78941],[-0.18056,51.79019],[-0.18007,51.79029],[-0.18089,51.79108],[-0.18063,51.79165],[-0.18014,51.79191]]]}},{"type":"Feature","properties":{"id":"E01023946","name":"E01023946","parent":"E07000241","type":"LSOA","pop":2413,"r":189,"ff":70,"ffd":2901.0,"ffs":0.493,"g":46,"co":0,"mo":0,"sa":0,"ic":0},"geometry":{"type":"Polygon","coordinates":[[[-0.18056,51.79019],[-0.17952,51.78941],[-0.18067,51.78943],[-0.17998,51.78899],[-0.18071,51.78818],[-0.17961,51.78774],[-0.17962,51.78699],[-0.18083,51.786],[-0.18241,51.78535],[-0.18181,51.7852],[-0.18354,51.78505],[-0.18335,51.78457],[-0.18253,51.78502],[-0.18187,51.78476],[-0.18049,51.78496],[-0.17861,51.78559],[-0.17817,51.78507],[-0.17758,51.7849],[-0.17688,51.78521],[-0.17646,51.78483],[-0.17722,51.78171],[-0.18165,51.78263],[-0.1826,51.78316],[-0.18769,51.78159],[-0.19008,51.78174],[-0.18921,51.78316],[-0.18942,51.78371],[-0.18695,51.78459],[-0.18739,51.78549],[-0.18711,51.7865],[-0.1845,51.78882],[-0.18244,51.78962],[-0.18239,51.79018],[-0.18056,51.79019]]]}},{"type":"Feature","properties":{"id":"E01023947","name":"E01023947","parent":"E07000241","type":"LSOA","pop":1752,"r":305,"ff":121,"ffd":6906.4,"ffs":0.5149,"g":66,"co":2,"mo":2,"sa":0,"ic":0},"geometry":{"type":"Polygon","coordinates":[[[-0.12861,51.72345],[-0.1244,51.72249],[-0.1222,51.72244],[-0.1256,51.72011],[-0.12646,51.72008],[-0.12993,51.72064],[-0.13463,51.72215],[-0.13563,51.72333],[-0.13972,51.71997],[-0.1393,51.71748],[-0.149,51.71921],[-0.15061,51.71927],[-0.15211,51.71893],[-0.15011,51.71609],[-0.14925,51.71278],[-0.14771,51.71303],[-0.14305,51.71519],[-0.14075,51.71568],[-0.13894,51.71566],[-0.13732,51.71523],[-0.13744,51.71454],[-0.13607,51.71329],[-0.1357,51.71343],[-0.13273,51.71287],[-0.1296,51.70997],[-0.12878,51.70785],[-0.12502,51.7072],[-0.1236,51.70745],[-0.12012,51.70951],[-0.11811,51.70652],[-0.11923,51.7066],[-0.11937,51.70561],[-0.11738,51.70536],[-0.11662,51.70576],[-0.11621,51.70558],[-0.11657,51.70513],[-0.11422,51.70455],[-0.11292,51.70588],[-0.11277,51.70734],[-0.11371,51.70756],[-0.11383,51.70795],[-0.11352,51.70782],[-0.11325,51.70875],[-0.1106,51.70829],[-0.10954,51.70867],[-0.1092,51.70813],[-0.10827,51.7082],[-0.10827,51.70859],[-0.10726,51.70888],[-0.10723,51.70737],[-0.10749,51.70551],[-0.10629,51.69776],[-0.1064,51.69675],[-0.10567,51.69434],[-0.10606,51.69262],[-0.10578,51.69188],[-0.10975,51.69168],[-0.10962,51.69149],[-0.1129,51.69082],[-0.11825,51.68894],[-0.12218,51.68855],[-0.13025,51.68892],[-0.13538,51.68873],[-0.13959,51.68792],[-0.14466,51.68634],[-0.14937,51.68552],[-0.15326,51.68586],[-0.15799,51.68724],[-0.16349,51.68812],[-0.16312,51.69986],[-0.16478,51.70046],[-0.17019,51.70165],[-0.17211,51.70274],[-0.17063,51.70371],[-0.1642,51.709],[-0.16241,51.71275],[-0.1617,51.7153],[-0.15692,51.72306],[-0.15676,51.72488],[-0.15712,51.72564],[-0.15554,51.72644],[-0.15226,51.72728],[-0.14687,51.72771],[-0.1448,51.72739],[-0.14256,51.72651],[-0.13471,51.72613],[-0.12861,51.72345]]]}},{"type":"Feature","properties":{"id":"E01023948","name":"E01023948","parent":"E07000241","type":"LSOA","pop":1682,"r":276,"ff":112,"ffd":6658.7,"ffs":0.5022,"g":51,"co":2,"mo":2,"sa":2,"ic":0},"geometry":{"type":"Polygon","coordinates":[[[-0.11235,51.71468],[-0.11167,51.71382],[-0.11203,51.7134],[-0.11146,51.71164],[-0.10984,51.71163],[-0.1097,51.71289],[-0.10812,51.71425],[-0.10558,51.71362],[-0.10733,51.71279],[-0.1076,51.71141],[-0.10726,51.70888],[-0.10827,51.70859],[-0.10827,51.7082],[-0.1092,51.70813],[-0.10954,51.70867],[-0.1106,51.70829],[-0.11325,51.70875],[-0.11352,51.70782],[-0.11383,51.70795],[-0.11371,51.70756],[-0.11277,51.70734],[-0.11292,51.70588],[-0.11422,51.70455],[-0.11657,51.70513],[-0.11621,51.70558],[-0.11662,51.70576],[-0.11738,51.70536],[-0.11937,51.70561],[-0.11923,51.7066],[-0.11811,51.70652],[-0.12061,51.71028],[-0.12397,51.71275],[-0.12494,51.71307],[-0.12368,51.7134],[-0.12269,51.7131],[-0.12151,51.71209],[-0.12052,51.71188],[-0.11865,51.71273],[-0.11687,51.7116],[-0.11455,51.71267],[-0.11356,51.7122],[-0.11339,51.71239],[-0.11389,51.71312],[-0.11533,51.71353],[-0.11566,51.71404],[-0.11492,51.71437],[-0.11469,51.71406],[-0.11399,51.71434],[-0.11358,51.71413],[-0.11287,51.71488],[-0.11235,51.71468]]]}},{"type":"Feature","properties":{"id":"E01023949","name":"E01023949","parent":"E07000241","type":"LSOA","pop":2058,"r":249,"ff":100,"ffd":4859.1,"ffs":0.5025,"g":48,"co":2,"mo":2,"sa":2,"ic":0},"geometry":{"type":"Polygon","coordinates":[[[-0.12993,51.72064],[-0.12646,51.72008],[-0.1256,51.72011],[-0.1222,51.72244],[-0.11652,51.7213],[-0.11474,51.72143],[-0.11387,51.72095],[-0.11418,51.72034],[-0.11268,51.71788],[-0.10812,51.71425],[-0.1097,51.71289],[-0.10984,51.71163],[-0.11146,51.71164],[-0.11203,51.7134],[-0.11167,51.71382],[-0.11235,51.71468],[-0.11287,51.71488],[-0.11358,51.71413],[-0.11399,51.71434],[-0.11469,51.71406],[-0.11492,51.71437],[-0.11566,51.71404],[-0.11533,51.71353],[-0.11389,51.71312],[-0.11339,51.71239],[-0.11356,51.7122],[-0.11455,51.71267],[-0.11687,51.7116],[-0.11865,51.71273],[-0.12052,51.71188],[-0.12151,51.71209],[-0.12269,51.7131],[-0.12368,51.7134],[-0.12494,51.71307],[-0.12397,51.71275],[-0.12061,51.71028],[-0.12012,51.70951],[-0.1236,51.70745],[-0.12502,51.7072],[-0.12878,51.70785],[-0.1296,51.70997],[-0.13273,51.71287],[-0.1357,51.71343],[-0.13607,51.71329],[-0.13744,51.71454],[-0.13732,51.71523],[-0.13894,51.71566],[-0.14075,51.71568],[-0.14305,51.71519],[-0.14771,51.71303],[-0.14925,51.71278],[-0.15011,51.71609],[-0.15211,51.71893],[-0.15061,51.71927],[-0.149,51.71921],[-0.1393,51.71748],[-0.13972,51.71997],[-0.13563,51.72333],[-0.13463,51.72215],[-0.12993,51.72064]]]}},{"type":"Feature","properties":{"id":"E01023950","name":"E01023950","parent":"E07000241","type":"LSOA","pop":1621,"r":130,"ff":49,"ffd":3022.8,"ffs":0.4623,"g":24,"co":0,"mo":0,"sa":0,"ic":0},"geometry":{"type":"Polygon","coordinates":[[[-0.14998,51.80178],[-0.15037,51.79971],[-0.14995,51.79891],[-0.15601,51.79902],[-0.15737,51.79833],[-0.15769,51.79628],[-0.16035,51.79652],[-0.16083,51.79712],[-0.16093,51.79952],[-0.16261,51.79971],[-0.16561,51.79756],[-0.1653,51.79841],[-0.16564,51.79934],[-0.16613,51.79954],[-0.16655,51.79931],[-0.16628,51.79895],[-0.16678,51.7989],[-0.16741,51.79953],[-0.16779,51.79939],[-0.16817,51.79987],[-0.16919,51.79991],[-0.1694,51.80017],[-0.17017,51.79889],[-0.17062,51.79896],[-0.17026,51.79995],[-0.16911,51.80115],[-0.16749,51.80064],[-0.16714,51.80132],[-0.1679,51.80205],[-0.16687,51.80281],[-0.16807,51.8036],[-0.16814,51.80619],[-0.16562,51.80645],[-0.1634,51.80832],[-0.16006,51.80704],[-0.16147,51.80506],[-0.15661,51.80443],[-0.15663,51.80402],[-0.15385,51.80306],[-0.15298,51.80226],[-0.14998,51.80178]]]}},{"type":"Feature","properties":{"id":"E01023951","name":"E01023951","parent":"E07000241","type":"LSOA","pop":1706,"r":135,"ff":52,"ffd":3048.1,"ffs":0.4727,"g":25,"co":0,"mo":0,"sa":0,"ic":0},"geometry":{"type":"Polygon","coordinates":[[[-0.16814,51.80619],[-0.16807,51.8036],[-0.16687,51.80281],[-0.1679,51.80205],[-0.16714,51.80132],[-0.16749,51.80064],[-0.16911,51.80115],[-0.17026,51.79995],[-0.17062,51.79896],[-0.17119,51.79849],[-0.17318,51.80115],[-0.17398,51.80063],[-0.17547,51.79837],[-0.17499,51.79822],[-0.1754,51.79776],[-0.17583,51.79789],[-0.1762,51.79734],[-0.17617,51.79685],[-0.17568,51.79692],[-0.17553,51.79662],[-0.17675,51.79651],[-0.17777,51.79854],[-0.17899,51.79965],[-0.18177,51.80112],[-0.17858,51.80359],[-0.17582,51.80473],[-0.17508,51.80459],[-0.17324,51.80222],[-0.17053,51.80278],[-0.17008,51.80405],[-0.16953,51.80398],[-0.16891,51.80626],[-0.16814,51.80619]]]}},{"type":"Feature","properties":{"id":"E01023952","name":"E01023952","parent":"E07000241","type":"LSOA","pop":1493,"r":151,"ff":59,"ffd":3951.8,"ffs":0.4958,"g":32,"co":0,"mo":0,"sa":0,"ic":0},"geometry":{"type":"Polygon","coordinates":[[[-0.17186,51.79924],[-0.17119,51.79849],[-0.17062,51.79896],[-0.17017,51.79889],[-0.1694,51.80017],[-0.16919,51.79991],[-0.16817,51.79987],[-0.16779,51.79939],[-0.16741,51.79953],[-0.16678,51.7989],[-0.16628,51.79895],[-0.16655,51.79931],[-0.16613,51.79954],[-0.16564,51.79934],[-0.1653,51.79841],[-0.16561,51.79756],[-0.16261,51.79971],[-0.16093,51.79952],[-0.16083,51.79712],[-0.16035,51.79652],[-0.16312,51.79537],[-0.16456,51.79428],[-0.16584,51.79491],[-0.16553,51.7951],[-0.16476,51.79474],[-0.16387,51.79573],[-0.16281,51.79614],[-0.16529,51.79628],[-0.16584,51.79651],[-0.16604,51.79716],[-0.16757,51.79701],[-0.16863,51.79774],[-0.16998,51.79806],[-0.17161,51.79779],[-0.17143,51.79722],[-0.17305,51.79641],[-0.1728,51.7962],[-0.17354,51.7958],[-0.17284,51.79533],[-0.17254,51.79488],[-0.17338,51.79406],[-0.17413,51.79432],[-0.17594,51.79552],[-0.17675,51.79651],[-0.17553,51.79662],[-0.17568,51.79692],[-0.17617,51.79685],[-0.1762,51.79734],[-0.17583,51.79789],[-0.1754,51.79776],[-0.17499,51.79822],[-0.17547,51.79837],[-0.17398,51.80063],[-0.17318,51.80115],[-0.17186,51.79924]]]}},{"type":"Feature","properties":{"id":"E01023953","name":"E01023953","parent":"E07000241","type":"LSOA","pop":1353,"r":154,"ff":59,"ffd":4360.7,"ffs":0.4958,"g":35,"co":0,"mo":0,"sa":0,"ic":0},"geometry":{"type":"Polygon","coordinates":[[[-0.16863,51.79774],[-0.16757,51.79701],[-0.16604,51.79716],[-0.16584,51.79651],[-0.16529,51.79628],[-0.16281,51.79614],[-0.16387,51.79573],[-0.16476,51.79474],[-0.16553,51.7951],[-0.16584,51.79491],[-0.16456,51.79428],[-0.16674,51.79261],[-0.16452,51.79227],[-0.16478,51.79084],[-0.16402,51.78936],[-0.16824,51.79164],[-0.17338,51.79406],[-0.17254,51.79488],[-0.17284,51.79533],[-0.17354,51.7958],[-0.1728,51.7962],[-0.17305,51.79641],[-0.17143,51.79722],[-0.17161,51.79779],[-0.16998,51.79806],[-0.16863,51.79774]]]}},{"type":"Feature","properties":{"id":"E01023955","name":"E01023955","parent":"E07000241","type":"LSOA","pop":1474,"r":168,"ff":64,"ffd":4341.9,"ffs":0.4923,"g":38,"co":0,"mo":0,"sa":0,"ic":0},"geometry":{"type":"Polygon","coordinates":[[[-0.18681,51.7958],[-0.1887,51.79475],[-0.18712,51.79345],[-0.18285,51.79283],[-0.18431,51.79042],[-0.18718,51.79045],[-0.19027,51.79129],[-0.19045,51.79215],[-0.19122,51.79233],[-0.19142,51.79298],[-0.18902,51.79413],[-0.18981,51.79424],[-0.19219,51.7934],[-0.19287,51.79374],[-0.19213,51.79453],[-0.19258,51.7953],[-0.19134,51.79542],[-0.19084,51.79601],[-0.18967,51.79543],[-0.18855,51.79549],[-0.18685,51.79642],[-0.18681,51.7958]]]}},{"type":"Feature","properties":{"id":"E01023956","name":"E01023956","parent":"E07000241","type":"LSOA","pop":1330,"r":205,"ff":74,"ffd":5563.9,"ffs":0.4713,"g":47,"co":0,"mo":0,"sa":0,"ic":0},"geometry":{"type":"Polygon","coordinates":[[[-0.19672,51.79627],[-0.19675,51.79476],[-0.1959,51.79419],[-0.19806,51.79338],[-0.19732,51.79212],[-0.19753,51.79158],[-0.19927,51.79121],[-0.20231,51.79304],[-0.20144,51.7938],[-0.20311,51.79444],[-0.20207,51.79529],[-0.20103,51.79504],[-0.20013,51.79524],[-0.20117,51.79623],[-0.20074,51.79656],[-0.19903,51.79601],[-0.19771,51.79692],[-0.19672,51.79627]]]}},{"type":"Feature","properties":{"id":"E01023957","name":"E01023957","parent":"E07000241","type":"LSOA","pop":1436,"r":188,"ff":66,"ffd":4596.1,"ffs":0.4648,"g":45,"co":0,"mo":0,"sa":0,"ic":0},"geometry":{"type":"Polygon","coordinates":[[[-0.19148,51.79667],[-0.19084,51.79601],[-0.19134,51.79542],[-0.19258,51.7953],[-0.19213,51.79453],[-0.19287,51.79374],[-0.19219,51.7934],[-0.18981,51.79424],[-0.18902,51.79413],[-0.19142,51.79298],[-0.19122,51.79233],[-0.19045,51.79215],[-0.19027,51.79129],[-0.19261,51.79159],[-0.19396,51.79138],[-0.19658,51.79143],[-0.19757,51.79103],[-0.19903,51.79097],[-0.19927,51.79121],[-0.19753,51.79158],[-0.19732,51.79212],[-0.19806,51.79338],[-0.1959,51.79419],[-0.19675,51.79476],[-0.19672,51.79627],[-0.19471,51.79622],[-0.1948,51.79663],[-0.19365,51.79661],[-0.19225,51.79705],[-0.19224,51.79673],[-0.19148,51.79667]]]}},{"type":"Feature","properties":{"id":"E01023958","name":"E01023958","parent":"E07000241","type":"LSOA","pop":1486,"r":176,"ff":65,"ffd":4374.2,"ffs":0.4779,"g":40,"co":0,"mo":0,"sa":0,"ic":0},"geometry":{"type":"Polygon","coordinates":[[[-0.19009,51.80218],[-0.18784,51.8006],[-0.1835,51.79834],[-0.18462,51.79773],[-0.18681,51.7958],[-0.18685,51.79642],[-0.18855,51.79549],[-0.18967,51.79543],[-0.19084,51.79601],[-0.19148,51.79667],[-0.19224,51.79673],[-0.19225,51.79705],[-0.19365,51.79661],[-0.19462,51.79884],[-0.19497,51.79897],[-0.19399,51.79903],[-0.19244,51.79976],[-0.19306,51.80009],[-0.1913,51.80105],[-0.19057,51.80086],[-0.19009,51.80218]]]}},{"type":"Feature","properties":{"id":"E01023959","name":"E01023959","parent":"E07000241","type":"LSOA","pop":1389,"r":187,"ff":65,"ffd":4679.6,"ffs":0.4545,"g":43,"co":0,"mo":0,"sa":0,"ic":0},"geometry":{"type":"Polygon","coordinates":[[[-0.21734,51.81573],[-0.21655,51.81554],[-0.21324,51.81592],[-0.21283,51.81551],[-0.21327,51.81381],[-0.21262,51.81289],[-0.20998,51.81361],[-0.2093,51.81309],[-0.20977,51.81235],[-0.21187,51.81199],[-0.21227,51.81141],[-0.2093,51.81005],[-0.20834,51.81011],[-0.20918,51.81144],[-0.2063,51.81075],[-0.20644,51.81025],[-0.20731,51.81034],[-0.20782,51.80961],[-0.20745,51.80929],[-0.20593,51.80918],[-0.20609,51.80798],[-0.20568,51.808],[-0.2045,51.80923],[-0.20175,51.80916],[-0.19975,51.80852],[-0.20265,51.80273],[-0.20277,51.80465],[-0.20412,51.80573],[-0.20657,51.80629],[-0.2159,51.80487],[-0.21877,51.80546],[-0.22087,51.80693],[-0.22151,51.80918],[-0.22245,51.81097],[-0.22489,51.81321],[-0.22591,51.81381],[-0.22485,51.81486],[-0.21976,51.8183],[-0.21734,51.81573]]]}},{"type":"Feature","properties":{"id":"E01023960","name":"E01023960","parent":"E07000241","type":"LSOA","pop":1667,"r":155,"ff":60,"ffd":3599.3,"ffs":0.4959,"g":34,"co":0,"mo":0,"sa":0,"ic":0},"geometry":{"type":"Polygon","coordinates":[[[-0.20553,51.81881],[-0.2058,51.81811],[-0.2004,51.81903],[-0.19941,51.81824],[-0.19766,51.8176],[-0.19541,51.81724],[-0.19732,51.81337],[-0.19895,51.8138],[-0.19792,51.8154],[-0.20072,51.81578],[-0.20128,51.81482],[-0.2023,51.81488],[-0.20242,51.8144],[-0.20307,51.81435],[-0.20302,51.81384],[-0.20457,51.8139],[-0.20463,51.8117],[-0.20489,51.81105],[-0.20363,51.81069],[-0.20402,51.81001],[-0.20644,51.81025],[-0.2063,51.81075],[-0.20918,51.81144],[-0.20834,51.81011],[-0.2093,51.81005],[-0.21227,51.81141],[-0.21187,51.81199],[-0.20977,51.81235],[-0.2093,51.81309],[-0.20998,51.81361],[-0.20965,51.81495],[-0.20999,51.81535],[-0.20784,51.81506],[-0.20678,51.81599],[-0.20628,51.81708],[-0.20887,51.81726],[-0.20725,51.81842],[-0.20687,51.81828],[-0.20634,51.81915],[-0.20576,51.81914],[-0.20553,51.81881]]]}},{"type":"Feature","properties":{"id":"E01023961","name":"E01023961","parent":"E07000241","type":"LSOA","pop":1536,"r":161,"ff":61,"ffd":3971.4,"ffs":0.488,"g":36,"co":0,"mo":0,"sa":0,"ic":0},"geometry":{"type":"Polygon","coordinates":[[[-0.19792,51.8154],[-0.19895,51.8138],[-0.19732,51.81337],[-0.19975,51.80852],[-0.20175,51.80916],[-0.2045,51.80923],[-0.20568,51.808],[-0.20609,51.80798],[-0.20593,51.80918],[-0.20745,51.80929],[-0.20782,51.80961],[-0.20731,51.81034],[-0.20402,51.81001],[-0.20363,51.81069],[-0.20489,51.81105],[-0.20463,51.8117],[-0.20457,51.8139],[-0.20302,51.81384],[-0.20307,51.81435],[-0.20242,51.8144],[-0.2023,51.81488],[-0.20128,51.81482],[-0.20072,51.81578],[-0.19792,51.8154]]]}},{"type":"Feature","properties":{"id":"E01023962","name":"E01023962","parent":"E07000241","type":"LSOA","pop":1486,"r":148,"ff":57,"ffd":3835.8,"ffs":0.4914,"g":32,"co":0,"mo":0,"sa":0,"ic":0},"geometry":{"type":"Polygon","coordinates":[[[-0.20188,51.82113],[-0.2004,51.81903],[-0.2058,51.81811],[-0.20553,51.81881],[-0.20576,51.81914],[-0.20634,51.81915],[-0.20687,51.81828],[-0.20725,51.81842],[-0.20887,51.81726],[-0.20628,51.81708],[-0.20678,51.81599],[-0.20784,51.81506],[-0.20999,51.81535],[-0.20965,51.81495],[-0.20998,51.81361],[-0.21262,51.81289],[-0.21327,51.81381],[-0.21283,51.81551],[-0.21324,51.81592],[-0.21655,51.81554],[-0.21734,51.81573],[-0.21976,51.8183],[-0.21292,51.82297],[-0.21165,51.82422],[-0.21024,51.82645],[-0.20805,51.825],[-0.20199,51.8242],[-0.19997,51.82333],[-0.20142,51.82235],[-0.20188,51.82113]]]}},{"type":"Feature","properties":{"id":"E01023963","name":"E01023963","parent":"E07000241","type":"LSOA","pop":2361,"r":332,"ff":126,"ffd":5336.7,"ffs":0.4865,"g":70,"co":0,"mo":0,"sa":0,"ic":0},"geometry":{"type":"Polygon","coordinates":[[[-0.21363,51.73921],[-0.2115,51.7373],[-0.21096,51.73739],[-0.2106,51.73707],[-0.20998,51.73649],[-0.2104,51.73631],[-0.20883,51.73478],[-0.21019,51.73449],[-0.20873,51.73287],[-0.20954,51.73281],[-0.20966,51.73223],[-0.21007,51.73211],[-0.21033,51.73357],[-0.21106,51.73422],[-0.21236,51.73394],[-0.21282,51.73258],[-0.21341,51.73262],[-0.21433,51.73355],[-0.21528,51.73294],[-0.21599,51.73333],[-0.2169,51.73351],[-0.21736,51.73416],[-0.21768,51.73397],[-0.21843,51.73422],[-0.21788,51.73383],[-0.21949,51.73292],[-0.21992,51.73304],[-0.22305,51.73213],[-0.22541,51.7328],[-0.23214,51.73391],[-0.23183,51.73164],[-0.23547,51.73472],[-0.23469,51.73522],[-0.23466,51.73724],[-0.23381,51.73926],[-0.2261,51.74062],[-0.22429,51.74544],[-0.22397,51.74563],[-0.22035,51.74559],[-0.21947,51.74538],[-0.21904,51.74458],[-0.21799,51.74407],[-0.21802,51.74312],[-0.21363,51.73921]]]}},{"type":"Feature","properties":{"id":"E01023965","name":"E01023965","parent":"E07000241","type":"LSOA","pop":1436,"r":150,"ff":54,"ffd":3760.4,"ffs":0.4696,"g":34,"co":2,"mo":0,"sa":2,"ic":0},"geometry":{"type":"Polygon","coordinates":[[[-0.18541,51.85825],[-0.18322,51.84884],[-0.18254,51.84455],[-0.18286,51.8424],[-0.18559,51.83672],[-0.18928,51.8367],[-0.18947,51.83851],[-0.18991,51.83894],[-0.18881,51.83956],[-0.18916,51.84018],[-0.18854,51.84054],[-0.18897,51.84092],[-0.1901,51.84062],[-0.19033,51.84099],[-0.18987,51.84113],[-0.18968,51.8419],[-0.19006,51.84235],[-0.19059,51.84191],[-0.19115,51.84201],[-0.19073,51.84278],[-0.19127,51.8428],[-0.18956,51.84479],[-0.18946,51.84506],[-0.19018,51.84531],[-0.18918,51.84576],[-0.1903,51.84589],[-0.19022,51.84642],[-0.19171,51.84803],[-0.1916,51.84976],[-0.19489,51.84983],[-0.19649,51.84949],[-0.19764,51.85023],[-0.19906,51.84973],[-0.202,51.85152],[-0.20365,51.85324],[-0.20312,51.85397],[-0.20352,51.85476],[-0.20517,51.8533],[-0.20669,51.85426],[-0.20495,51.85528],[-0.20422,51.85504],[-0.20089,51.85663],[-0.2001,51.85645],[-0.19874,51.85777],[-0.1976,51.85769],[-0.19683,51.85938],[-0.19181,51.85732],[-0.1905,51.85823],[-0.18967,51.8578],[-0.1864,51.85942],[-0.18541,51.85825]]]}},{"type":"Feature","properties":{"id":"E01023966","name":"E01023966","parent":"E07000241","type":"LSOA","pop":1658,"r":160,"ff":56,"ffd":3377.6,"ffs":0.4706,"g":40,"co":2,"mo":0,"sa":0,"ic":0},"geometry":{"type":"Polygon","coordinates":[[[-0.18956,51.84479],[-0.19127,51.8428],[-0.19073,51.84278],[-0.19115,51.84201],[-0.19059,51.84191],[-0.19006,51.84235],[-0.18968,51.8419],[-0.18987,51.84113],[-0.19033,51.84099],[-0.1901,51.84062],[-0.18897,51.84092],[-0.18854,51.84054],[-0.18916,51.84018],[-0.18881,51.83956],[-0.18991,51.83894],[-0.18947,51.83851],[-0.18928,51.8367],[-0.19669,51.83672],[-0.20995,51.8409],[-0.20813,51.84197],[-0.20521,51.84449],[-0.20395,51.8449],[-0.20198,51.84404],[-0.20146,51.84354],[-0.20012,51.84368],[-0.19891,51.84415],[-0.19873,51.84436],[-0.19925,51.84453],[-0.19854,51.84547],[-0.1987,51.84594],[-0.19755,51.84614],[-0.19718,51.84893],[-0.19649,51.84949],[-0.19489,51.84983],[-0.1916,51.84976],[-0.19171,51.84803],[-0.19022,51.84642],[-0.1903,51.84589],[-0.18918,51.84576],[-0.19018,51.84531],[-0.18946,51.84506],[-0.18956,51.84479]]]}},{"type":"Feature","properties":{"id":"E01023967","name":"E01023967","parent":"E07000241","type":"LSOA","pop":1506,"r":168,"ff":69,"ffd":4581.7,"ffs":0.5433,"g":40,"co":0,"mo":2,"sa":2,"ic":0},"geometry":{"type":"Polygon","coordinates":[[[-0.18355,51.86044],[-0.18356,51.86012],[-0.18104,51.86015],[-0.17738,51.85878],[-0.17607,51.85851],[-0.17599,51.85675],[-0.17278,51.85659],[-0.17096,51.8555],[-0.17164,51.85451],[-0.16957,51.8541],[-0.16844,51.85219],[-0.1664,51.84947],[-0.16673,51.84783],[-0.16733,51.84721],[-0.16716,51.84458],[-0.16676,51.84421],[-0.16743,51.84369],[-0.16886,51.84348],[-0.16883,51.84011],[-0.17003,51.83914],[-0.17205,51.84021],[-0.1726,51.8398],[-0.17338,51.84001],[-0.17678,51.84188],[-0.17854,51.84115],[-0.17554,51.83872],[-0.17347,51.83934],[-0.17125,51.83859],[-0.17016,51.83882],[-0.16991,51.8381],[-0.17415,51.83682],[-0.18559,51.83672],[-0.18286,51.8424],[-0.18254,51.84455],[-0.18322,51.84884],[-0.18541,51.85825],[-0.18592,51.85894],[-0.18589,51.86024],[-0.18355,51.86044]]]}},{"type":"Feature","properties":{"id":"E01023968","name":"E01023968","parent":"E07000241","type":"LSOA","pop":1442,"r":145,"ff":60,"ffd":4160.9,"ffs":0.5263,"g":31,"co":0,"mo":0,"sa":0,"ic":0},"geometry":{"type":"Polygon","coordinates":[[[-0.20823,51.8447],[-0.21218,51.8425],[-0.21271,51.84157],[-0.21524,51.84005],[-0.21451,51.83954],[-0.21213,51.84054],[-0.21061,51.84044],[-0.20995,51.8409],[-0.19669,51.83672],[-0.18559,51.83672],[-0.18945,51.82895],[-0.19056,51.82914],[-0.19815,51.82907],[-0.19971,51.82701],[-0.20272,51.82814],[-0.20354,51.82668],[-0.20534,51.82602],[-0.20471,51.82461],[-0.20805,51.825],[-0.21024,51.82645],[-0.21165,51.82422],[-0.21224,51.82552],[-0.21296,51.82544],[-0.21377,51.82444],[-0.21431,51.82465],[-0.2142,51.82532],[-0.21494,51.82534],[-0.21451,51.8267],[-0.21416,51.82662],[-0.21379,51.82707],[-0.21243,51.82648],[-0.21162,51.82766],[-0.2134,51.8285],[-0.21267,51.8289],[-0.21306,51.82998],[-0.2118,51.83039],[-0.2108,51.83128],[-0.2098,51.83107],[-0.20919,51.83304],[-0.21014,51.83273],[-0.21122,51.83135],[-0.21194,51.83143],[-0.21245,51.83187],[-0.21185,51.83221],[-0.21284,51.83329],[-0.21459,51.83273],[-0.21387,51.832],[-0.21449,51.83182],[-0.21547,51.83276],[-0.21551,51.83202],[-0.21612,51.8322],[-0.21649,51.83181],[-0.21554,51.83142],[-0.21591,51.83078],[-0.21867,51.83236],[-0.21733,51.83312],[-0.21858,51.83397],[-0.22166,51.8341],[-0.2234,51.83531],[-0.21985,51.83669],[-0.22019,51.83762],[-0.21868,51.83841],[-0.21957,51.8388],[-0.22079,51.83876],[-0.22178,51.83925],[-0.22258,51.83901],[-0.22419,51.84022],[-0.22379,51.84047],[-0.22342,51.84131],[-0.226,51.84372],[-0.22576,51.84454],[-0.22395,51.84664],[-0.22302,51.84622],[-0.22235,51.8447],[-0.21826,51.84663],[-0.21888,51.84705],[-0.21717,51.84771],[-0.2165,51.84895],[-0.21293,51.8514],[-0.21041,51.84985],[-0.2113,51.84936],[-0.20872,51.84758],[-0.20596,51.8464],[-0.20823,51.8447]]]}},{"type":"Feature","properties":{"id":"E01023969","name":"E01023969","parent":"E07000241","type":"LSOA","pop":1475,"r":144,"ff":59,"ffd":4000.0,"ffs":0.5221,"g":31,"co":0,"mo":0,"sa":0,"ic":0},"geometry":{"type":"Polygon","coordinates":[[[-0.24527,51.84458],[-0.24503,51.84351],[-0.24301,51.84273],[-0.24304,51.84181],[-0.24495,51.83942],[-0.2449,51.83882],[-0.24171,51.83634],[-0.24242,51.83589],[-0.24162,51.8353],[-0.24044,51.83496],[-0.23901,51.83499],[-0.23708,51.83645],[-0.23599,51.83624],[-0.2333,51.83639],[-0.23214,51.83655],[-0.23167,51.83695],[-0.23073,51.83677],[-0.23005,51.83605],[-0.22913,51.83606],[-0.22796,51.83672],[-0.22792,51.83706],[-0.22686,51.8371],[-0.22568,51.83765],[-0.22556,51.83721],[-0.22691,51.8359],[-0.22695,51.8353],[-0.22611,51.83491],[-0.22637,51.83446],[-0.22491,51.83323],[-0.22166,51.8341],[-0.21858,51.83397],[-0.21733,51.83312],[-0.21867,51.83236],[-0.21591,51.83078],[-0.21554,51.83142],[-0.21649,51.83181],[-0.21612,51.8322],[-0.21551,51.83202],[-0.21547,51.83276],[-0.21449,51.83182],[-0.21387,51.832],[-0.21459,51.83273],[-0.21284,51.83329],[-0.21185,51.83221],[-0.21245,51.83187],[-0.21194,51.83143],[-0.21122,51.83135],[-0.21014,51.83273],[-0.20919,51.83304],[-0.2098,51.83107],[-0.2108,51.83128],[-0.2118,51.83039],[-0.21306,51.82998],[-0.21284,51.82963],[-0.21525,51.8294],[-0.21499,51.82902],[-0.21611,51.82904],[-0.21783,51.82683],[-0.22005,51.82603],[-0.22124,51.82765],[-0.22318,51.8281],[-0.22387,51.8286],[-0.22249,51.82905],[-0.22446,51.83096],[-0.22539,51.83037],[-0.2259,51.83073],[-0.22573,51.83031],[-0.22619,51.8301],[-0.22483,51.82834],[-0.22604,51.82736],[-0.22501,51.8266],[-0.2231,51.82723],[-0.22692,51.82482],[-0.22506,51.82411],[-0.22353,51.82389],[-0.22398,51.82288],[-0.22534,51.82181],[-0.22724,51.81991],[-0.22743,51.81926],[-0.22634,51.81632],[-0.22485,51.81486],[-0.22591,51.81381],[-0.22805,51.80923],[-0.22865,51.80925],[-0.2296,51.80963],[-0.23178,51.80984],[-0.23754,51.8089],[-0.24373,51.80942],[-0.2432,51.81217],[-0.24354,51.81299],[-0.24692,51.81515],[-0.24841,51.81709],[-0.24871,51.81835],[-0.24998,51.8191],[-0.25009,51.81966],[-0.25155,51.82027],[-0.25226,51.82172],[-0.25516,51.82265],[-0.2616,51.82845],[-0.26406,51.83297],[-0.26642,51.83448],[-0.27354,51.83534],[-0.2728,51.83651],[-0.27302,51.83969],[-0.27252,51.84047],[-0.27133,51.84047],[-0.26813,51.84221],[-0.26639,51.84178],[-0.25956,51.84476],[-0.25932,51.84461],[-0.25703,51.84545],[-0.25395,51.84454],[-0.24796,51.84623],[-0.24733,51.84616],[-0.2465,51.84522],[-0.24527,51.84458]]]}},{"type":"Feature","properties":{"id":"E01023970","name":"E01023970","parent":"E07000241","type":"LSOA","pop":2005,"r":143,"ff":58,"ffd":2892.8,"ffs":0.5179,"g":31,"co":0,"mo":0,"sa":0,"ic":0},"geometry":{"type":"Polygon","coordinates":[[[-0.22446,51.83096],[-0.22249,51.82905],[-0.22387,51.8286],[-0.22318,51.8281],[-0.22124,51.82765],[-0.22005,51.82603],[-0.21783,51.82683],[-0.21611,51.82904],[-0.21499,51.82902],[-0.21525,51.8294],[-0.21284,51.82963],[-0.21267,51.8289],[-0.2134,51.8285],[-0.21162,51.82766],[-0.21243,51.82648],[-0.21379,51.82707],[-0.21416,51.82662],[-0.21451,51.8267],[-0.21494,51.82534],[-0.2142,51.82532],[-0.21431,51.82465],[-0.21377,51.82444],[-0.21296,51.82544],[-0.21224,51.82552],[-0.21165,51.82422],[-0.21292,51.82297],[-0.22485,51.81486],[-0.22634,51.81632],[-0.22743,51.81926],[-0.22724,51.81991],[-0.22534,51.82181],[-0.22398,51.82288],[-0.22353,51.82389],[-0.22506,51.82411],[-0.22692,51.82482],[-0.2231,51.82723],[-0.22501,51.8266],[-0.22604,51.82736],[-0.22483,51.82834],[-0.22619,51.8301],[-0.22573,51.83031],[-0.2259,51.83073],[-0.22539,51.83037],[-0.22446,51.83096]]]}},{"type":"Feature","properties":{"id":"E01023971","name":"E01023971","parent":"E07000241","type":"LSOA","pop":1668,"r":140,"ff":57,"ffd":3417.3,"ffs":0.5135,"g":29,"co":0,"mo":0,"sa":0,"ic":0},"geometry":{"type":"Polygon","coordinates":[[[-0.16843,51.83116],[-0.16947,51.82859],[-0.1713,51.82702],[-0.17239,51.82461],[-0.17534,51.82248],[-0.1779,51.82127],[-0.18002,51.81952],[-0.18125,51.81708],[-0.18235,51.81744],[-0.18359,51.81509],[-0.18832,51.81744],[-0.18862,51.81713],[-0.19009,51.81782],[-0.19064,51.81673],[-0.19339,51.81756],[-0.19402,51.817],[-0.19766,51.8176],[-0.19941,51.81824],[-0.2004,51.81903],[-0.20188,51.82113],[-0.20142,51.82235],[-0.19997,51.82333],[-0.20199,51.8242],[-0.20471,51.82461],[-0.20534,51.82602],[-0.20354,51.82668],[-0.20272,51.82814],[-0.19971,51.82701],[-0.19815,51.82907],[-0.19056,51.82914],[-0.18945,51.82895],[-0.18559,51.83672],[-0.17415,51.83682],[-0.17102,51.83526],[-0.16977,51.83428],[-0.17009,51.83411],[-0.16832,51.83209],[-0.16843,51.83116]]]}},{"type":"Feature","properties":{"id":"E01033308","name":"E01033308","parent":"E07000241","type":"LSOA","pop":3136,"r":299,"ff":114,"ffd":3635.2,"ffs":0.4831,"g":60,"co":2,"mo":0,"sa":2,"ic":0},"geometry":{"type":"Polygon","coordinates":[[[-0.23567,51.76699],[-0.23812,51.76397],[-0.2395,51.76275],[-0.24215,51.76145],[-0.24277,51.76188],[-0.24328,51.76174],[-0.24349,51.7622],[-0.24468,51.76154],[-0.24855,51.76059],[-0.24812,51.75982],[-0.25106,51.75962],[-0.25116,51.76224],[-0.2474,51.76341],[-0.24804,51.76432],[-0.24802,51.76521],[-0.24773,51.7658],[-0.24692,51.7663],[-0.24533,51.76674],[-0.24422,51.76642],[-0.2406,51.76775],[-0.23992,51.76865],[-0.24057,51.76917],[-0.23853,51.77249],[-0.23658,51.77221],[-0.23597,51.77186],[-0.23617,51.7716],[-0.23435,51.77091],[-0.23393,51.76973],[-0.23348,51.76954],[-0.23567,51.76699]]]}},{"type":"Feature","properties":{"id":"E01033310","name":"E01033310","parent":"E07000241","type":"LSOA","pop":1865,"r":259,"ff":100,"ffd":5361.9,"ffs":0.495,"g":55,"co":2,"mo":0,"sa":0,"ic":0},"geometry":{"type":"Polygon","coordinates":[[[-0.23533,51.77726],[-0.23343,51.77645],[-0.23294,51.77309],[-0.23374,51.7732],[-0.23377,51.77277],[-0.2352,51.77181],[-0.23597,51.77186],[-0.23718,51.77268],[-0.23915,51.77268],[-0.24341,51.77335],[-0.24313,51.7738],[-0.24438,51.77453],[-0.24392,51.77522],[-0.24051,51.77446],[-0.24015,51.77384],[-0.2393,51.77388],[-0.23965,51.7745],[-0.23927,51.77531],[-0.23819,51.77518],[-0.23925,51.77566],[-0.2388,51.77601],[-0.23803,51.77596],[-0.23744,51.77649],[-0.23714,51.77638],[-0.23667,51.77674],[-0.23536,51.77659],[-0.23533,51.77726]]]}},{"type":"Feature","properties":{"id":"E01033311","name":"E01033311","parent":"E07000241","type":"LSOA","pop":1567,"r":280,"ff":105,"ffd":6700.7,"ffs":0.4795,"g":59,"co":0,"mo":0,"sa":0,"ic":0},"geometry":{"type":"Polygon","coordinates":[[[-0.22393,51.78615],[-0.22248,51.78503],[-0.22088,51.78592],[-0.21972,51.78462],[-0.21404,51.78179],[-0.21589,51.77778],[-0.2161,51.77403],[-0.216,51.77188],[-0.21642,51.77152],[-0.2179,51.7715],[-0.21898,51.77333],[-0.21835,51.77333],[-0.21833,51.77366],[-0.22179,51.77335],[-0.22157,51.77299],[-0.22211,51.77285],[-0.22227,51.77332],[-0.22293,51.77299],[-0.22333,51.7733],[-0.22406,51.7733],[-0.22382,51.77315],[-0.22472,51.77258],[-0.22552,51.77267],[-0.22665,51.77346],[-0.22603,51.77385],[-0.22646,51.77504],[-0.23191,51.77124],[-0.2321,51.77071],[-0.23102,51.77053],[-0.23147,51.76998],[-0.23073,51.76963],[-0.22989,51.76988],[-0.22967,51.76943],[-0.22936,51.76942],[-0.22937,51.76915],[-0.22821,51.76887],[-0.22599,51.76938],[-0.22534,51.76922],[-0.22554,51.76801],[-0.22505,51.76765],[-0.22864,51.76635],[-0.23105,51.76764],[-0.23249,51.76885],[-0.23393,51.76973],[-0.23435,51.77091],[-0.23617,51.7716],[-0.23597,51.77186],[-0.2352,51.77181],[-0.23377,51.77277],[-0.23374,51.7732],[-0.23294,51.77309],[-0.23383,51.77869],[-0.22908,51.77901],[-0.22802,51.77853],[-0.22412,51.77829],[-0.22419,51.77884],[-0.22196,51.77875],[-0.22142,51.77904],[-0.2223,51.77941],[-0.22259,51.78266],[-0.2246,51.78576],[-0.22393,51.78615]]]}},{"type":"Feature","properties":{"id":"E01033313","name":"E01033313","parent":"E07000241","type":"LSOA","pop":1489,"r":251,"ff":94,"ffd":6313.0,"ffs":0.4896,"g":57,"co":2,"mo":0,"sa":0,"ic":0},"geometry":{"type":"Polygon","coordinates":[[[-0.22865,51.80925],[-0.22825,51.80316],[-0.22625,51.79653],[-0.22586,51.79472],[-0.22718,51.79114],[-0.22725,51.79038],[-0.22669,51.78863],[-0.22393,51.78615],[-0.2246,51.78576],[-0.22259,51.78266],[-0.2223,51.77941],[-0.22142,51.77904],[-0.22196,51.77875],[-0.22419,51.77884],[-0.22412,51.77829],[-0.22802,51.77853],[-0.22908,51.77901],[-0.23383,51.77869],[-0.23343,51.77645],[-0.23533,51.77726],[-0.23536,51.77659],[-0.23667,51.77674],[-0.23714,51.77638],[-0.23744,51.77649],[-0.23803,51.77596],[-0.2388,51.77601],[-0.23925,51.77566],[-0.23819,51.77518],[-0.23927,51.77531],[-0.23965,51.7745],[-0.2393,51.77388],[-0.23967,51.77379],[-0.24015,51.77384],[-0.24051,51.77446],[-0.24392,51.77522],[-0.24438,51.77453],[-0.24676,51.77548],[-0.24795,51.77558],[-0.25008,51.7742],[-0.25076,51.77301],[-0.25033,51.77209],[-0.24968,51.77218],[-0.24923,51.77018],[-0.25208,51.76994],[-0.25247,51.76777],[-0.25697,51.76611],[-0.26095,51.76201],[-0.26879,51.76975],[-0.27182,51.76906],[-0.27324,51.77061],[-0.27576,51.77225],[-0.27546,51.77285],[-0.27732,51.77605],[-0.27748,51.77808],[-0.27409,51.78281],[-0.27392,51.78659],[-0.27255,51.78807],[-0.27122,51.79103],[-0.27152,51.79193],[-0.27489,51.79473],[-0.27752,51.79782],[-0.27671,51.79816],[-0.27498,51.7998],[-0.26979,51.80066],[-0.26381,51.80245],[-0.25646,51.80326],[-0.25323,51.80503],[-0.25102,51.80548],[-0.24902,51.80644],[-0.24587,51.80709],[-0.24468,51.80799],[-0.24373,51.80942],[-0.23754,51.8089],[-0.23178,51.80984],[-0.2296,51.80963],[-0.22865,51.80925]]]}},{"type":"Feature","properties":{"id":"E01033314","name":"E01033314","parent":"E07000241","type":"LSOA","pop":2487,"r":276,"ff":107,"ffd":4302.4,"ffs":0.4864,"g":54,"co":2,"mo":0,"sa":0,"ic":0},"geometry":{"type":"Polygon","coordinates":[[[-0.24341,51.77335],[-0.23915,51.77268],[-0.23718,51.77268],[-0.23658,51.77221],[-0.23853,51.77249],[-0.24057,51.76917],[-0.23992,51.76865],[-0.2406,51.76775],[-0.24422,51.76642],[-0.24533,51.76674],[-0.24692,51.7663],[-0.24773,51.7658],[-0.24802,51.76521],[-0.24804,51.76432],[-0.2474,51.76341],[-0.25116,51.76224],[-0.25106,51.75962],[-0.25646,51.75914],[-0.25979,51.75764],[-0.26125,51.75853],[-0.25864,51.76025],[-0.26095,51.76201],[-0.25697,51.76611],[-0.25247,51.76777],[-0.25208,51.76994],[-0.24923,51.77018],[-0.24968,51.77218],[-0.25033,51.77209],[-0.25076,51.77301],[-0.25008,51.7742],[-0.24795,51.77558],[-0.24676,51.77548],[-0.24438,51.77453],[-0.24313,51.7738],[-0.24341,51.77335]]]}},{"type":"Feature","properties":{"id":"E01035604","name":"E01035604","parent":"E07000241","type":"LSOA","pop":1784,"r":160,"ff":61,"ffd":3419.3,"ffs":0.4919,"g":36,"co":0,"mo":0,"sa":0,"ic":0},"geometry":{"type":"Polygon","coordinates":[[[-0.19009,51.80218],[-0.19057,51.80086],[-0.1913,51.80105],[-0.19306,51.80009],[-0.19244,51.79976],[-0.19399,51.79903],[-0.19497,51.79897],[-0.19462,51.79884],[-0.19365,51.79661],[-0.1948,51.79663],[-0.19471,51.79622],[-0.19672,51.79627],[-0.19771,51.79692],[-0.19809,51.79666],[-0.19791,51.79735],[-0.20038,51.79854],[-0.19982,51.7996],[-0.20148,51.80013],[-0.20318,51.80169],[-0.20112,51.80578],[-0.2,51.80654],[-0.19826,51.80682],[-0.19712,51.8066],[-0.1946,51.80561],[-0.19009,51.80218]]]}},{"type":"Feature","properties":{"id":"E01035605","name":"E01035605","parent":"E07000241","type":"LSOA","pop":2000,"r":212,"ff":76,"ffd":3800.0,"ffs":0.4663,"g":48,"co":0,"mo":0,"sa":0,"ic":0},"geometry":{"type":"Polygon","coordinates":[[[-0.19809,51.79666],[-0.19903,51.79601],[-0.20074,51.79656],[-0.20117,51.79623],[-0.20013,51.79524],[-0.20103,51.79504],[-0.20207,51.79529],[-0.20311,51.79444],[-0.20144,51.7938],[-0.20231,51.79304],[-0.20281,51.79329],[-0.20308,51.7931],[-0.20405,51.79345],[-0.20435,51.79399],[-0.20732,51.79387],[-0.20318,51.80169],[-0.20148,51.80013],[-0.19982,51.7996],[-0.20038,51.79854],[-0.19791,51.79735],[-0.19809,51.79666]]]}},{"type":"Feature","properties":{"id":"E01035606","name":"E01035606","parent":"E07000241","type":"LSOA","pop":1869,"r":214,"ff":80,"ffd":4280.4,"ffs":0.4908,"g":50,"co":0,"mo":0,"sa":0,"ic":0},"geometry":{"type":"Polygon","coordinates":[[[-0.19936,51.78497],[-0.19778,51.78432],[-0.19654,51.78468],[-0.1963,51.78452],[-0.19731,51.78409],[-0.19508,51.78363],[-0.19523,51.78289],[-0.19582,51.7826],[-0.20077,51.78269],[-0.2032,51.78323],[-0.20346,51.78444],[-0.204,51.78431],[-0.20433,51.7847],[-0.20571,51.78555],[-0.2055,51.7863],[-0.20507,51.7863],[-0.20415,51.78835],[-0.19973,51.78807],[-0.20113,51.78686],[-0.19992,51.78616],[-0.19984,51.78532],[-0.19936,51.78497]]]}},{"type":"Feature","properties":{"id":"E01035607","name":"E01035607","parent":"E07000241","type":"LSOA","pop":1255,"r":215,"ff":79,"ffd":6294.8,"ffs":0.4817,"g":50,"co":0,"mo":0,"sa":0,"ic":0},"geometry":{"type":"Polygon","coordinates":[[[-0.20433,51.7847],[-0.204,51.78431],[-0.20346,51.78444],[-0.2032,51.78323],[-0.20077,51.78269],[-0.19582,51.7826],[-0.19595,51.78176],[-0.21404,51.78179],[-0.21092,51.78738],[-0.2055,51.7863],[-0.20571,51.78555],[-0.20433,51.7847]]]}},{"type":"Feature","properties":{"id":"E01035608","name":"E01035608","parent":"E07000241","type":"LSOA","pop":1645,"r":50,"ff":25,"ffd":1519.8,"ffs":0.5208,"g":2,"co":1,"mo":1,"sa":1,"ic":1},"geometry":{"type":"Polygon","coordinates":[[[-0.20763,51.73795],[-0.2016,51.73692],[-0.19906,51.73689],[-0.19542,51.73586],[-0.19293,51.73652],[-0.1891,51.73835],[-0.18848,51.7368],[-0.18741,51.73692],[-0.18685,51.7367],[-0.18558,51.7342],[-0.18042,51.73384],[-0.17771,51.73288],[-0.18532,51.733],[-0.18806,51.73377],[-0.18854,51.73318],[-0.18816,51.73303],[-0.18804,51.7316],[-0.18705,51.72951],[-0.19081,51.73116],[-0.19809,51.73037],[-0.19951,51.73043],[-0.20108,51.73103],[-0.203,51.73075],[-0.20437,51.72999],[-0.20548,51.72863],[-0.20444,51.7167],[-0.20384,51.71317],[-0.20262,51.70974],[-0.20474,51.70991],[-0.20649,51.70964],[-0.20696,51.71027],[-0.20775,51.7104],[-0.21079,51.71027],[-0.21307,51.7107],[-0.21475,51.71128],[-0.21839,51.71371],[-0.22018,51.7137],[-0.22337,51.71284],[-0.22704,51.7127],[-0.22974,51.71168],[-0.23223,51.71138],[-0.23427,51.71076],[-0.2352,51.71009],[-0.23734,51.70595],[-0.23897,51.70614],[-0.23939,51.70806],[-0.24098,51.71028],[-0.2406,51.71285],[-0.24111,51.71574],[-0.25078,51.72462],[-0.25225,51.72675],[-0.25514,51.72954],[-0.25237,51.73057],[-0.24979,51.73112],[-0.24915,51.73101],[-0.25042,51.73253],[-0.24831,51.73242],[-0.24685,51.73148],[-0.24445,51.73192],[-0.24601,51.73426],[-0.2466,51.73736],[-0.24628,51.73858],[-0.24559,51.73968],[-0.24489,51.73975],[-0.24468,51.74129],[-0.24164,51.74241],[-0.242,51.74321],[-0.24048,51.74328],[-0.2394,51.74148],[-0.23842,51.74109],[-0.23461,51.74148],[-0.23058,51.74278],[-0.22429,51.74544],[-0.2261,51.74062],[-0.23381,51.73926],[-0.23466,51.73724],[-0.23469,51.73522],[-0.23547,51.73472],[-0.23183,51.73164],[-0.23214,51.73391],[-0.22541,51.7328],[-0.22305,51.73213],[-0.21992,51.73304],[-0.21949,51.73292],[-0.21788,51.73383],[-0.21843,51.73422],[-0.21768,51.73397],[-0.21736,51.73416],[-0.2169,51.73351],[-0.21599,51.73333],[-0.21528,51.73294],[-0.21433,51.73355],[-0.21341,51.73262],[-0.21282,51.73258],[-0.21236,51.73394],[-0.21106,51.73422],[-0.21033,51.73357],[-0.21007,51.73211],[-0.20966,51.73223],[-0.20954,51.73281],[-0.20873,51.73287],[-0.21019,51.73449],[-0.20883,51.73478],[-0.2104,51.73631],[-0.20998,51.73649],[-0.21096,51.73739],[-0.2115,51.7373],[-0.21802,51.74312],[-0.21799,51.74407],[-0.21904,51.74458],[-0.21947,51.74538],[-0.21374,51.74357],[-0.21195,51.74217],[-0.20938,51.73889],[-0.20763,51.73795]]]}}]}