{"type":"FeatureCollection","features":[{"type":"Feature","properties":{"id":"E01028069","name":"E01028069","parent":"E07000172","type":"LSOA","pop":1134,"r":444,"ff":168,"ffd":14814.8,"ffs":0.525,"g":120,"co":0,"mo":2,"sa":0,"ic":0},"geometry":{"type":"Polygon","coordinates":[[[-1.222,52.912],[-1.22581,52.90969],[-1.22573,52.91028],[-1.2263,52.91056],[-1.22734,52.90991],[-1.22867,52.9102],[-1.2292,52.91076],[-1.2321,52.90898],[-1.23256,52.90957],[-1.23174,52.91014],[-1.23206,52.91039],[-1.23268,52.91052],[-1.23421,52.90941],[-1.23482,52.9094],[-1.23477,52.90973],[-1.23522,52.90986],[-1.23111,52.91507],[-1.22561,52.91767],[-1.21955,52.91986],[-1.21777,52.92009],[-1.21388,52.91686],[-1.222,52.912]]]}},{"type":"Feature","properties":{"id":"E01028070","name":"E01028070","parent":"E07000172","type":"LSOA","pop":1145,"r":407,"ff":147,"ffd":12838.4,"ffs":0.5288,"g":124,"co":0,"mo":2,"sa":0,"ic":0},"geometry":{"type":"Polygon","coordinates":[[[-1.21304,52.91071],[-1.21355,52.90884],[-1.21383,52.90564],[-1.21442,52.90462],[-1.21392,52.90441],[-1.21603,52.90335],[-1.22,52.90252],[-1.22081,52.90053],[-1.21922,52.89691],[-1.22049,52.89556],[-1.22255,52.89531],[-1.22775,52.89556],[-1.23025,52.89471],[-1.23082,52.89405],[-1.23346,52.89292],[-1.23574,52.89235],[-1.23971,52.89229],[-1.23962,52.89424],[-1.24046,52.89472],[-1.24029,52.89504],[-1.24104,52.89536],[-1.24176,52.89529],[-1.24258,52.89621],[-1.24466,52.89657],[-1.24452,52.8971],[-1.24587,52.8975],[-1.24755,52.89889],[-1.24698,52.89933],[-1.24751,52.89993],[-1.24512,52.90219],[-1.24662,52.9031],[-1.2465,52.90346],[-1.24713,52.90385],[-1.24411,52.90413],[-1.24112,52.90508],[-1.23855,52.90546],[-1.23696,52.90607],[-1.23579,52.90906],[-1.23522,52.90986],[-1.23477,52.90973],[-1.23482,52.9094],[-1.23421,52.90941],[-1.23268,52.91052],[-1.23206,52.91039],[-1.23174,52.91014],[-1.23256,52.90957],[-1.2321,52.90898],[-1.2292,52.91076],[-1.22867,52.9102],[-1.22734,52.90991],[-1.2263,52.91056],[-1.22573,52.91028],[-1.22581,52.90969],[-1.21388,52.91686],[-1.21066,52.91408],[-1.21137,52.91339],[-1.21051,52.91227],[-1.21304,52.91071]]]}},{"type":"Feature","properties":{"id":"E01028073","name":"E01028073","parent":"E07000172","type":"LSOA","pop":1792,"r":602,"ff":232,"ffd":12946.4,"ffs":0.5066,"g":139,"co":0,"mo":0,"sa":0,"ic":0},"geometry":{"type":"Polygon","coordinates":[[[-1.20613,52.93046],[-1.20775,52.92904],[-1.20831,52.92917],[-1.20859,52.92896],[-1.20778,52.9285],[-1.20804,52.928],[-1.20952,52.92709],[-1.20918,52.927],[-1.21039,52.92521],[-1.2101,52.92477],[-1.2088,52.92402],[-1.20983,52.9236],[-1.21004,52.92268],[-1.21166,52.92156],[-1.21411,52.9227],[-1.21549,52.92397],[-1.21541,52.92443],[-1.21378,52.92478],[-1.21298,52.92534],[-1.21543,52.9269],[-1.21263,52.92859],[-1.20953,52.93016],[-1.20931,52.92994],[-1.20769,52.9301],[-1.20717,52.93081],[-1.20613,52.93046]]]}},{"type":"Feature","properties":{"id":"E01028074","name":"E01028074","parent":"E07000172","type":"LSOA","pop":2262,"r":700,"ff":267,"ffd":11803.7,"ffs":0.5057,"g":166,"co":0,"mo":0,"sa":0,"ic":0},"geometry":{"type":"Polygon","coordinates":[[[-1.20186,52.93121],[-1.20048,52.93026],[-1.199,52.93123],[-1.19663,52.92965],[-1.19735,52.92907],[-1.19577,52.92786],[-1.19973,52.92547],[-1.20139,52.92575],[-1.20196,52.9269],[-1.2033,52.92731],[-1.20304,52.92749],[-1.20353,52.92776],[-1.20357,52.92853],[-1.20545,52.92795],[-1.20599,52.92807],[-1.2062,52.92793],[-1.20696,52.92831],[-1.20772,52.92789],[-1.20804,52.928],[-1.20778,52.9285],[-1.20859,52.92896],[-1.20831,52.92917],[-1.20775,52.92904],[-1.20613,52.93046],[-1.20717,52.93081],[-1.20769,52.9301],[-1.20931,52.92994],[-1.20953,52.93016],[-1.20511,52.9334],[-1.20308,52.93227],[-1.20186,52.93121]]]}},{"type":"Feature","properties":{"id":"E01028075","name":"E01028075","parent":"E07000172","type":"LSOA","pop":1762,"r":649,"ff":254,"ffd":14415.4,"ffs":0.5111,"g":146,"co":0,"mo":0,"sa":0,"ic":0},"geometry":{"type":"Polygon","coordinates":[[[-1.20357,52.92853],[-1.20353,52.92776],[-1.20304,52.92749],[-1.2033,52.92731],[-1.20196,52.9269],[-1.20139,52.92575],[-1.19973,52.92547],[-1.20322,52.92337],[-1.20649,52.92508],[-1.20992,52.92279],[-1.20983,52.9236],[-1.2088,52.92402],[-1.2101,52.92477],[-1.21039,52.92521],[-1.20918,52.927],[-1.20952,52.92709],[-1.20804,52.928],[-1.20772,52.92789],[-1.20696,52.92831],[-1.2062,52.92793],[-1.20599,52.92807],[-1.20545,52.92795],[-1.20357,52.92853]]]}},{"type":"Feature","properties":{"id":"E01028076","name":"E01028076","parent":"E07000172","type":"LSOA","pop":1234,"r":700,"ff":256,"ffd":20745.5,"ffs":0.5069,"g":188,"co":0,"mo":0,"sa":0,"ic":0},"geometry":{"type":"Polygon","coordinates":[[[-1.22358,52.94204],[-1.22197,52.9411],[-1.22222,52.94062],[-1.22344,52.94047],[-1.22302,52.93962],[-1.22369,52.93949],[-1.22357,52.93922],[-1.22638,52.93897],[-1.22635,52.93831],[-1.22703,52.93819],[-1.22693,52.93774],[-1.23313,52.93757],[-1.23318,52.93879],[-1.23384,52.94154],[-1.23235,52.94169],[-1.23243,52.94205],[-1.23126,52.94224],[-1.22979,52.94173],[-1.22679,52.9412],[-1.22615,52.94249],[-1.22399,52.94229],[-1.22358,52.94204]]]}},{"type":"Feature","properties":{"id":"E01028077","name":"E01028077","parent":"E07000172","type":"LSOA","pop":1457,"r":744,"ff":269,"ffd":18462.6,"ffs":0.4918,"g":190,"co":0,"mo":0,"sa":0,"ic":0},"geometry":{"type":"Polygon","coordinates":[[[-1.21716,52.93882],[-1.21625,52.93723],[-1.21482,52.93616],[-1.21528,52.93405],[-1.21681,52.93425],[-1.21744,52.93497],[-1.21555,52.93585],[-1.21583,52.93604],[-1.22049,52.93612],[-1.22036,52.93533],[-1.22204,52.93531],[-1.22393,52.93489],[-1.22442,52.93556],[-1.2249,52.93547],[-1.22609,52.93782],[-1.22693,52.93774],[-1.22703,52.93819],[-1.22635,52.93831],[-1.22638,52.93897],[-1.22357,52.93922],[-1.22369,52.93949],[-1.22302,52.93962],[-1.22344,52.94047],[-1.22222,52.94062],[-1.22197,52.9411],[-1.22,52.94062],[-1.21809,52.94059],[-1.21716,52.93882]]]}},{"type":"Feature","properties":{"id":"E01028078","name":"E01028078","parent":"E07000172","type":"LSOA","pop":1645,"r":700,"ff":250,"ffd":15197.6,"ffs":0.4902,"g":183,"co":0,"mo":0,"sa":0,"ic":0},"geometry":{"type":"Polygon","coordinates":[[[-1.21744,52.93497],[-1.21681,52.93425],[-1.21076,52.93357],[-1.21155,52.93284],[-1.21119,52.93254],[-1.21175,52.93213],[-1.21259,52.93227],[-1.21369,52.93284],[-1.21441,52.93276],[-1.21498,52.9323],[-1.21528,52.93264],[-1.21441,52.93312],[-1.21532,52.93341],[-1.21593,52.93303],[-1.21649,52.93318],[-1.21678,52.93247],[-1.21621,52.93206],[-1.21606,52.93152],[-1.21877,52.92972],[-1.22194,52.93237],[-1.2249,52.93547],[-1.22442,52.93556],[-1.22393,52.93489],[-1.22204,52.93531],[-1.22036,52.93533],[-1.22049,52.93612],[-1.21583,52.93604],[-1.21555,52.93585],[-1.21744,52.93497]]]}},{"type":"Feature","properties":{"id":"E01028079","name":"E01028079","parent":"E07000172","type":"LSOA","pop":2316,"r":675,"ff":249,"ffd":10751.3,"ffs":0.497,"g":167,"co":0,"mo":0,"sa":0,"ic":0},"geometry":{"type":"Polygon","coordinates":[[[-1.20889,52.934],[-1.20605,52.93277],[-1.20953,52.93016],[-1.21263,52.92859],[-1.21293,52.92877],[-1.21341,52.92872],[-1.215,52.92958],[-1.21449,52.93003],[-1.21626,52.93107],[-1.21581,52.93138],[-1.21606,52.93152],[-1.21621,52.93206],[-1.21678,52.93247],[-1.21649,52.93318],[-1.21593,52.93303],[-1.21532,52.93341],[-1.21441,52.93312],[-1.21528,52.93264],[-1.21498,52.9323],[-1.21441,52.93276],[-1.21369,52.93284],[-1.21259,52.93227],[-1.21175,52.93213],[-1.21119,52.93254],[-1.21155,52.93284],[-1.21076,52.93357],[-1.20935,52.93331],[-1.20889,52.934]]]}},{"type":"Feature","properties":{"id":"E01028080","name":"E01028080","parent":"E07000172","type":"LSOA","pop":2226,"r":552,"ff":224,"ffd":10062.9,"ffs":0.5234,"g":121,"co":0,"mo":0,"sa":0,"ic":0},"geometry":{"type":"Polygon","coordinates":[[[-1.20967,52.92101],[-1.20965,52.92061],[-1.2086,52.92111],[-1.20786,52.92055],[-1.20718,52.92096],[-1.20651,52.92057],[-1.20578,52.92079],[-1.20533,52.92044],[-1.20451,52.92072],[-1.20462,52.92098],[-1.20327,52.92146],[-1.2026,52.92134],[-1.20093,52.91989],[-1.20122,52.91949],[-1.20189,52.91952],[-1.2033,52.91887],[-1.202,52.91786],[-1.20103,52.91778],[-1.20118,52.91744],[-1.19937,52.9173],[-1.19968,52.91703],[-1.20147,52.91704],[-1.20362,52.91647],[-1.20487,52.91652],[-1.20598,52.91694],[-1.20887,52.91676],[-1.21147,52.91701],[-1.21336,52.91645],[-1.21777,52.92009],[-1.21602,52.92027],[-1.21285,52.92097],[-1.21157,52.92164],[-1.20967,52.92101]]]}},{"type":"Feature","properties":{"id":"E01028081","name":"E01028081","parent":"E07000172","type":"LSOA","pop":1250,"r":500,"ff":197,"ffd":15760.0,"ffs":0.5171,"g":116,"co":0,"mo":0,"sa":0,"ic":0},"geometry":{"type":"Polygon","coordinates":[[[-1.1823,52.91734],[-1.19339,52.91244],[-1.19756,52.90996],[-1.19901,52.90948],[-1.20571,52.91244],[-1.2083,52.91265],[-1.21051,52.91227],[-1.21137,52.91339],[-1.21066,52.91408],[-1.21336,52.91645],[-1.21147,52.91701],[-1.20887,52.91676],[-1.20598,52.91694],[-1.20487,52.91652],[-1.20362,52.91647],[-1.20147,52.91704],[-1.19851,52.91697],[-1.19778,52.91758],[-1.19732,52.91715],[-1.19797,52.91672],[-1.19743,52.91633],[-1.19203,52.91922],[-1.19021,52.91946],[-1.18769,52.92135],[-1.1823,52.91734]]]}},{"type":"Feature","properties":{"id":"E01028082","name":"E01028082","parent":"E07000172","type":"LSOA","pop":1235,"r":529,"ff":205,"ffd":16599.2,"ffs":0.5062,"g":120,"co":0,"mo":0,"sa":0,"ic":0},"geometry":{"type":"Polygon","coordinates":[[[-1.19082,52.92389],[-1.18769,52.92135],[-1.19021,52.91946],[-1.19203,52.91922],[-1.19743,52.91633],[-1.19797,52.91672],[-1.19732,52.91715],[-1.19778,52.91758],[-1.19851,52.91697],[-1.19968,52.91703],[-1.19937,52.9173],[-1.20118,52.91744],[-1.20103,52.91778],[-1.202,52.91786],[-1.2033,52.91887],[-1.20189,52.91952],[-1.20122,52.91949],[-1.20093,52.91989],[-1.2026,52.92134],[-1.20184,52.92169],[-1.20206,52.9222],[-1.20118,52.92184],[-1.20077,52.92329],[-1.19926,52.9238],[-1.1977,52.92281],[-1.19601,52.92231],[-1.19247,52.92207],[-1.19432,52.92415],[-1.19571,52.92499],[-1.19533,52.92527],[-1.19575,52.92578],[-1.19391,52.92641],[-1.19082,52.92389]]]}},{"type":"Feature","properties":{"id":"E01028083","name":"E01028083","parent":"E07000172","type":"LSOA","pop":1393,"r":575,"ff":230,"ffd":16511.1,"ffs":0.5145,"g":124,"co":0,"mo":0,"sa":0,"ic":0},"geometry":{"type":"Polygon","coordinates":[[[-1.19432,52.92415],[-1.19247,52.92207],[-1.19601,52.92231],[-1.1977,52.92281],[-1.19926,52.9238],[-1.20077,52.92329],[-1.20118,52.92184],[-1.20206,52.9222],[-1.20184,52.92169],[-1.2026,52.92134],[-1.20327,52.92146],[-1.20462,52.92098],[-1.20451,52.92072],[-1.20533,52.92044],[-1.20578,52.92079],[-1.20651,52.92057],[-1.20718,52.92096],[-1.20786,52.92055],[-1.2086,52.92111],[-1.20965,52.92061],[-1.20967,52.92101],[-1.21157,52.92164],[-1.20649,52.92508],[-1.20322,52.92337],[-1.19577,52.92786],[-1.19391,52.92641],[-1.19575,52.92578],[-1.19533,52.92527],[-1.19571,52.92499],[-1.19432,52.92415]]]}},{"type":"Feature","properties":{"id":"E01028084","name":"E01028084","parent":"E07000172","type":"LSOA","pop":1776,"r":623,"ff":232,"ffd":13063.1,"ffs":0.511,"g":163,"co":0,"mo":0,"sa":0,"ic":0},"geometry":{"type":"Polygon","coordinates":[[[-1.22194,52.93237],[-1.22015,52.93088],[-1.22049,52.93072],[-1.22027,52.93053],[-1.22171,52.92987],[-1.22051,52.92889],[-1.22018,52.92896],[-1.22014,52.9284],[-1.22151,52.92825],[-1.22181,52.92846],[-1.22245,52.92816],[-1.22225,52.92786],[-1.22315,52.92739],[-1.22352,52.92765],[-1.22432,52.92727],[-1.22406,52.92704],[-1.22516,52.92647],[-1.22552,52.92675],[-1.22638,52.92656],[-1.22611,52.92632],[-1.22667,52.92583],[-1.2273,52.92607],[-1.22779,52.92589],[-1.22998,52.92762],[-1.23068,52.92754],[-1.23111,52.92788],[-1.22957,52.92891],[-1.23,52.92966],[-1.22842,52.92935],[-1.22565,52.93065],[-1.22388,52.93231],[-1.22423,52.93218],[-1.22555,52.93321],[-1.22337,52.93374],[-1.22194,52.93237]]]}},{"type":"Feature","properties":{"id":"E01028085","name":"E01028085","parent":"E07000172","type":"LSOA","pop":2194,"r":670,"ff":242,"ffd":11030.1,"ffs":0.501,"g":180,"co":0,"mo":0,"sa":0,"ic":2},"geometry":{"type":"Polygon","coordinates":[[[-1.21449,52.93003],[-1.215,52.92958],[-1.21341,52.92872],[-1.21293,52.92877],[-1.21263,52.92859],[-1.21543,52.9269],[-1.21298,52.92534],[-1.21378,52.92478],[-1.21541,52.92443],[-1.21549,52.92397],[-1.21626,52.92377],[-1.21632,52.92398],[-1.21745,52.92397],[-1.21745,52.9237],[-1.2188,52.92351],[-1.21898,52.92363],[-1.21952,52.9234],[-1.21942,52.92371],[-1.2199,52.92367],[-1.21959,52.92476],[-1.22155,52.92618],[-1.22314,52.92499],[-1.2242,52.92546],[-1.22494,52.92493],[-1.22354,52.92328],[-1.22438,52.92304],[-1.22349,52.92208],[-1.22443,52.92236],[-1.22495,52.92196],[-1.22691,52.9228],[-1.22913,52.92277],[-1.2303,52.9235],[-1.22974,52.92387],[-1.23028,52.92432],[-1.22754,52.92572],[-1.22779,52.92589],[-1.2273,52.92607],[-1.22667,52.92583],[-1.22611,52.92632],[-1.22638,52.92656],[-1.22552,52.92675],[-1.22516,52.92647],[-1.22406,52.92704],[-1.22432,52.92727],[-1.22352,52.92765],[-1.22315,52.92739],[-1.22225,52.92786],[-1.22245,52.92816],[-1.22181,52.92846],[-1.22151,52.92825],[-1.22014,52.9284],[-1.22018,52.92896],[-1.22051,52.92889],[-1.22171,52.92987],[-1.22027,52.93053],[-1.22049,52.93072],[-1.22015,52.93088],[-1.21877,52.92972],[-1.21606,52.93152],[-1.21581,52.93138],[-1.21626,52.93107],[-1.21449,52.93003]]]}},{"type":"Feature","properties":{"id":"E01028086","name":"E01028086","parent":"E07000172","type":"LSOA","pop":1734,"r":545,"ff":212,"ffd":12226.1,"ffs":0.5196,"g":133,"co":0,"mo":0,"sa":0,"ic":0},"geometry":{"type":"Polygon","coordinates":[[[-1.22155,52.92618],[-1.21959,52.92476],[-1.2199,52.92367],[-1.21942,52.92371],[-1.21952,52.9234],[-1.21898,52.92363],[-1.2188,52.92351],[-1.21745,52.9237],[-1.21745,52.92397],[-1.21632,52.92398],[-1.21626,52.92377],[-1.21549,52.92397],[-1.21411,52.9227],[-1.21166,52.92156],[-1.21285,52.92097],[-1.21602,52.92027],[-1.21955,52.91986],[-1.22181,52.92188],[-1.22384,52.92083],[-1.22495,52.92196],[-1.22443,52.92236],[-1.22349,52.92208],[-1.22438,52.92304],[-1.22354,52.92328],[-1.22494,52.92493],[-1.2242,52.92546],[-1.22314,52.92499],[-1.22155,52.92618]]]}},{"type":"Feature","properties":{"id":"E01028087","name":"E01028087","parent":"E07000172","type":"LSOA","pop":1544,"r":740,"ff":268,"ffd":17357.5,"ffs":0.4963,"g":193,"co":0,"mo":0,"sa":0,"ic":0},"geometry":{"type":"Polygon","coordinates":[[[-1.23637,52.93774],[-1.23682,52.93712],[-1.2376,52.93736],[-1.23784,52.93716],[-1.23732,52.93707],[-1.23695,52.93554],[-1.23587,52.93539],[-1.23564,52.93569],[-1.23472,52.93569],[-1.2342,52.93504],[-1.23298,52.93499],[-1.23271,52.93524],[-1.23196,52.93421],[-1.23145,52.9345],[-1.22971,52.93443],[-1.22861,52.93327],[-1.22676,52.93279],[-1.22555,52.93321],[-1.22423,52.93218],[-1.22388,52.93231],[-1.22565,52.93065],[-1.22842,52.92935],[-1.23,52.92966],[-1.22957,52.92891],[-1.23111,52.92788],[-1.23068,52.92754],[-1.23577,52.92656],[-1.23726,52.92867],[-1.2412,52.92692],[-1.24204,52.9277],[-1.2441,52.92666],[-1.24213,52.92551],[-1.24345,52.92503],[-1.25022,52.92447],[-1.25857,52.92452],[-1.25827,52.92683],[-1.25701,52.92822],[-1.25762,52.9285],[-1.25722,52.92891],[-1.25731,52.93212],[-1.25787,52.93372],[-1.25481,52.93502],[-1.25093,52.93605],[-1.2516,52.93564],[-1.25072,52.93532],[-1.2497,52.93616],[-1.24831,52.93544],[-1.24743,52.93544],[-1.24731,52.93486],[-1.24646,52.93464],[-1.2459,52.93472],[-1.2456,52.9336],[-1.24473,52.93373],[-1.24496,52.93267],[-1.24113,52.93447],[-1.24216,52.93515],[-1.24119,52.93673],[-1.23965,52.93729],[-1.23893,52.93713],[-1.23807,52.93797],[-1.23637,52.93774]]]}},{"type":"Feature","properties":{"id":"E01028088","name":"E01028088","parent":"E07000172","type":"LSOA","pop":1438,"r":669,"ff":239,"ffd":16620.3,"ffs":0.4979,"g":182,"co":0,"mo":0,"sa":0,"ic":0},"geometry":{"type":"Polygon","coordinates":[[[-1.23787,52.94576],[-1.23559,52.94517],[-1.23411,52.94321],[-1.23574,52.9425],[-1.23594,52.94133],[-1.23583,52.94037],[-1.23635,52.94035],[-1.23694,52.9411],[-1.23744,52.94115],[-1.238,52.94058],[-1.23785,52.93956],[-1.23858,52.9394],[-1.23858,52.94065],[-1.23752,52.9418],[-1.2389,52.94215],[-1.23981,52.94129],[-1.24065,52.94114],[-1.23939,52.94284],[-1.24066,52.94319],[-1.24007,52.9453],[-1.24116,52.94555],[-1.24273,52.9456],[-1.24317,52.94516],[-1.24388,52.94522],[-1.24423,52.94566],[-1.24481,52.94558],[-1.24443,52.94517],[-1.24488,52.94521],[-1.24565,52.94434],[-1.24472,52.94393],[-1.24518,52.94293],[-1.24477,52.94279],[-1.24544,52.94257],[-1.24635,52.94277],[-1.24951,52.94232],[-1.25245,52.94228],[-1.25502,52.94447],[-1.25361,52.94582],[-1.25284,52.9473],[-1.25083,52.94856],[-1.25244,52.95056],[-1.24964,52.95206],[-1.24682,52.9531],[-1.24579,52.95094],[-1.24507,52.95039],[-1.24447,52.94943],[-1.24128,52.9474],[-1.23787,52.94576]]]}},{"type":"Feature","properties":{"id":"E01028089","name":"E01028089","parent":"E07000172","type":"LSOA","pop":1300,"r":726,"ff":262,"ffd":20153.8,"ffs":0.4943,"g":189,"co":0,"mo":0,"sa":0,"ic":0},"geometry":{"type":"Polygon","coordinates":[[[-1.24388,52.94522],[-1.24317,52.94516],[-1.24273,52.9456],[-1.24116,52.94555],[-1.24007,52.9453],[-1.24066,52.94319],[-1.23939,52.94284],[-1.24065,52.94114],[-1.23981,52.94129],[-1.2389,52.94215],[-1.23752,52.9418],[-1.23858,52.94065],[-1.23858,52.9394],[-1.24109,52.93969],[-1.24141,52.93942],[-1.24145,52.93884],[-1.24099,52.93865],[-1.24166,52.93848],[-1.24097,52.9385],[-1.24088,52.93801],[-1.23807,52.93797],[-1.23893,52.93713],[-1.23965,52.93729],[-1.24119,52.93673],[-1.24216,52.93515],[-1.24113,52.93447],[-1.24139,52.93434],[-1.24241,52.93437],[-1.24267,52.93505],[-1.2442,52.93617],[-1.24409,52.93761],[-1.24596,52.9373],[-1.24686,52.93876],[-1.24848,52.93977],[-1.25059,52.94021],[-1.25259,52.93951],[-1.25317,52.94086],[-1.25211,52.9415],[-1.25245,52.94228],[-1.24951,52.94232],[-1.24635,52.94277],[-1.24544,52.94257],[-1.24477,52.94279],[-1.24518,52.94293],[-1.24472,52.94393],[-1.24565,52.94434],[-1.24488,52.94521],[-1.24443,52.94517],[-1.24481,52.94558],[-1.24423,52.94566],[-1.24388,52.94522]]]}},{"type":"Feature","properties":{"id":"E01028090","name":"E01028090","parent":"E07000172","type":"LSOA","pop":1334,"r":752,"ff":269,"ffd":20164.9,"ffs":0.4918,"g":198,"co":0,"mo":0,"sa":0,"ic":0},"geometry":{"type":"Polygon","coordinates":[[[-1.25317,52.94086],[-1.25259,52.93951],[-1.25059,52.94021],[-1.24848,52.93977],[-1.24686,52.93876],[-1.24596,52.9373],[-1.24409,52.93761],[-1.2442,52.93617],[-1.24267,52.93505],[-1.24241,52.93437],[-1.24139,52.93434],[-1.24496,52.93267],[-1.24473,52.93373],[-1.2456,52.9336],[-1.2459,52.93472],[-1.24646,52.93464],[-1.24731,52.93486],[-1.24743,52.93544],[-1.24831,52.93544],[-1.2497,52.93616],[-1.25072,52.93532],[-1.2516,52.93564],[-1.25093,52.93605],[-1.25481,52.93502],[-1.25787,52.93372],[-1.25865,52.93521],[-1.25837,52.93613],[-1.25777,52.93715],[-1.2577,52.93794],[-1.25834,52.93873],[-1.26028,52.93925],[-1.25878,52.94111],[-1.25502,52.94447],[-1.25245,52.94228],[-1.25211,52.9415],[-1.25317,52.94086]]]}},{"type":"Feature","properties":{"id":"E01028091","name":"E01028091","parent":"E07000172","type":"LSOA","pop":1523,"r":777,"ff":277,"ffd":18187.8,"ffs":0.4868,"g":201,"co":0,"mo":0,"sa":0,"ic":0},"geometry":{"type":"Polygon","coordinates":[[[-1.23411,52.94321],[-1.23428,52.94208],[-1.23322,52.94231],[-1.23243,52.94205],[-1.23235,52.94169],[-1.23384,52.94154],[-1.23318,52.93879],[-1.23313,52.93757],[-1.22609,52.93782],[-1.2249,52.93547],[-1.22337,52.93374],[-1.22676,52.93279],[-1.22861,52.93327],[-1.22971,52.93443],[-1.23145,52.9345],[-1.23196,52.93421],[-1.23271,52.93524],[-1.23298,52.93499],[-1.2342,52.93504],[-1.23472,52.93569],[-1.23564,52.93569],[-1.23587,52.93539],[-1.23695,52.93554],[-1.23732,52.93707],[-1.23784,52.93716],[-1.2376,52.93736],[-1.23682,52.93712],[-1.23637,52.93774],[-1.23807,52.93797],[-1.24088,52.93801],[-1.24097,52.9385],[-1.24166,52.93848],[-1.24099,52.93865],[-1.24145,52.93884],[-1.24141,52.93942],[-1.24109,52.93969],[-1.23858,52.9394],[-1.23785,52.93956],[-1.238,52.94058],[-1.23744,52.94115],[-1.23694,52.9411],[-1.23635,52.94035],[-1.23583,52.94037],[-1.23594,52.94133],[-1.23574,52.9425],[-1.23411,52.94321]]]}},{"type":"Feature","properties":{"id":"E01028092","name":"E01028092","parent":"E07000172","type":"LSOA","pop":1337,"r":295,"ff":92,"ffd":6881.1,"ffs":0.467,"g":94,"co":0,"mo":0,"sa":2,"ic":0},"geometry":{"type":"Polygon","coordinates":[[[-1.30682,53.04726],[-1.30577,53.04616],[-1.30696,53.04505],[-1.30784,53.04301],[-1.30514,53.04485],[-1.30353,53.04188],[-1.30111,53.04328],[-1.30023,53.04317],[-1.30472,53.04027],[-1.30508,53.04041],[-1.30599,53.03995],[-1.30616,53.0392],[-1.30709,53.03875],[-1.30749,53.03799],[-1.30736,53.03715],[-1.30806,53.03629],[-1.30825,53.034],[-1.30743,53.03299],[-1.30801,53.03222],[-1.30852,53.02931],[-1.31195,53.02939],[-1.31464,53.0305],[-1.31656,53.03084],[-1.32096,53.03039],[-1.323,53.03088],[-1.32481,53.03057],[-1.32552,53.03105],[-1.3283,53.03032],[-1.32802,53.02924],[-1.32932,53.03081],[-1.331,53.03044],[-1.33116,53.03093],[-1.33181,53.03092],[-1.33127,53.03182],[-1.33194,53.03249],[-1.33163,53.03279],[-1.33212,53.03295],[-1.33184,53.03322],[-1.33227,53.03403],[-1.33311,53.03391],[-1.3328,53.03516],[-1.32598,53.03529],[-1.32265,53.03772],[-1.32445,53.03879],[-1.32469,53.03951],[-1.32167,53.0408],[-1.31853,53.03869],[-1.31647,53.03681],[-1.31526,53.03646],[-1.31513,53.03801],[-1.31435,53.03793],[-1.31465,53.0386],[-1.31329,53.03844],[-1.31308,53.03878],[-1.314,53.03912],[-1.31371,53.03946],[-1.31282,53.03919],[-1.31244,53.0397],[-1.31277,53.03994],[-1.31149,53.04051],[-1.31103,53.04033],[-1.31033,53.04064],[-1.31052,53.04088],[-1.31116,53.04083],[-1.31275,53.04212],[-1.31301,53.04316],[-1.31367,53.04375],[-1.31301,53.0442],[-1.3138,53.04431],[-1.3156,53.04664],[-1.31506,53.0469],[-1.31544,53.04712],[-1.31538,53.04798],[-1.31461,53.04823],[-1.31045,53.04637],[-1.31101,53.04831],[-1.30956,53.0481],[-1.30682,53.04726]]]}},{"type":"Feature","properties":{"id":"E01028093","name":"E01028093","parent":"E07000172","type":"LSOA","pop":1028,"r":279,"ff":85,"ffd":8268.5,"ffs":0.4545,"g":89,"co":0,"mo":0,"sa":2,"ic":0},"geometry":{"type":"Polygon","coordinates":[[[-1.32962,53.05448],[-1.3226,53.04924],[-1.32105,53.04903],[-1.32014,53.04782],[-1.319,53.04733],[-1.31745,53.04799],[-1.31461,53.04823],[-1.31538,53.04798],[-1.31544,53.04712],[-1.31506,53.0469],[-1.3156,53.04664],[-1.3138,53.04431],[-1.31301,53.0442],[-1.31367,53.04375],[-1.31301,53.04316],[-1.31275,53.04212],[-1.31116,53.04083],[-1.31052,53.04088],[-1.31033,53.04064],[-1.31103,53.04033],[-1.31149,53.04051],[-1.31277,53.03994],[-1.31244,53.0397],[-1.31282,53.03919],[-1.31371,53.03946],[-1.314,53.03912],[-1.31308,53.03878],[-1.31329,53.03844],[-1.31465,53.0386],[-1.31435,53.03793],[-1.31513,53.03801],[-1.31526,53.03646],[-1.31647,53.03681],[-1.31853,53.03869],[-1.32167,53.0408],[-1.32469,53.03951],[-1.32445,53.03879],[-1.32265,53.03772],[-1.32598,53.03529],[-1.3328,53.03516],[-1.33321,53.03557],[-1.33264,53.03639],[-1.3331,53.03698],[-1.33257,53.03724],[-1.33258,53.0383],[-1.33319,53.03969],[-1.33462,53.04063],[-1.33428,53.04132],[-1.33473,53.04122],[-1.33495,53.04146],[-1.33495,53.0417],[-1.33361,53.04173],[-1.3336,53.0422],[-1.3324,53.0422],[-1.33261,53.04256],[-1.33382,53.04294],[-1.33304,53.0434],[-1.33357,53.04367],[-1.33358,53.04414],[-1.33302,53.04403],[-1.33296,53.04459],[-1.33398,53.0447],[-1.33374,53.04571],[-1.33463,53.0473],[-1.33324,53.04817],[-1.33444,53.05024],[-1.33574,53.05071],[-1.33612,53.05135],[-1.3358,53.05165],[-1.33637,53.05174],[-1.33587,53.05297],[-1.33519,53.05262],[-1.33348,53.05315],[-1.33263,53.05308],[-1.33104,53.05408],[-1.32962,53.05448]]]}},{"type":"Feature","properties":{"id":"E01028094","name":"E01028094","parent":"E07000172","type":"LSOA","pop":1831,"r":559,"ff":205,"ffd":11196.1,"ffs":0.5125,"g":154,"co":0,"mo":2,"sa":0,"ic":0},"geometry":{"type":"Polygon","coordinates":[[[-1.23726,52.92867],[-1.23577,52.92656],[-1.22998,52.92762],[-1.22754,52.92572],[-1.23028,52.92432],[-1.22974,52.92387],[-1.2303,52.9235],[-1.22913,52.92277],[-1.23081,52.92276],[-1.2314,52.92252],[-1.23184,52.9227],[-1.23245,52.92344],[-1.23265,52.92299],[-1.23636,52.92217],[-1.23601,52.92167],[-1.23673,52.92148],[-1.23753,52.92336],[-1.23799,52.92511],[-1.2412,52.92692],[-1.23726,52.92867]]]}},{"type":"Feature","properties":{"id":"E01028095","name":"E01028095","parent":"E07000172","type":"LSOA","pop":1416,"r":494,"ff":177,"ffd":12500.0,"ffs":0.5116,"g":143,"co":0,"mo":2,"sa":0,"ic":0},"geometry":{"type":"Polygon","coordinates":[[[-1.23184,52.9227],[-1.2314,52.92252],[-1.23081,52.92276],[-1.22691,52.9228],[-1.22495,52.92196],[-1.2242,52.92107],[-1.22482,52.92073],[-1.2247,52.92032],[-1.22914,52.91864],[-1.22965,52.91901],[-1.23147,52.91892],[-1.23301,52.91993],[-1.23631,52.9191],[-1.23673,52.92148],[-1.23601,52.92167],[-1.23636,52.92217],[-1.23265,52.92299],[-1.23245,52.92344],[-1.23184,52.9227]]]}},{"type":"Feature","properties":{"id":"E01028096","name":"E01028096","parent":"E07000172","type":"LSOA","pop":2174,"r":452,"ff":166,"ffd":7635.7,"ffs":0.5237,"g":130,"co":0,"mo":2,"sa":0,"ic":0},"geometry":{"type":"Polygon","coordinates":[[[-1.22075,52.92087],[-1.21955,52.91986],[-1.22561,52.91767],[-1.23143,52.91483],[-1.23579,52.90906],[-1.23674,52.91049],[-1.23774,52.91329],[-1.23774,52.91353],[-1.23478,52.91482],[-1.23509,52.91583],[-1.23612,52.9162],[-1.23631,52.9191],[-1.23301,52.91993],[-1.23147,52.91892],[-1.22965,52.91901],[-1.22914,52.91864],[-1.2247,52.92032],[-1.22482,52.92073],[-1.2242,52.92107],[-1.22384,52.92083],[-1.22181,52.92188],[-1.22075,52.92087]]]}},{"type":"Feature","properties":{"id":"E01028097","name":"E01028097","parent":"E07000172","type":"LSOA","pop":1350,"r":451,"ff":163,"ffd":12074.1,"ffs":0.5208,"g":133,"co":0,"mo":2,"sa":0,"ic":0},"geometry":{"type":"Polygon","coordinates":[[[-1.24161,52.92001],[-1.24093,52.91841],[-1.23704,52.91891],[-1.23625,52.91875],[-1.23612,52.9162],[-1.23544,52.91603],[-1.23547,52.91527],[-1.23687,52.9149],[-1.23741,52.91583],[-1.23836,52.91583],[-1.23845,52.91539],[-1.24001,52.91508],[-1.2408,52.91599],[-1.24511,52.91501],[-1.24602,52.91604],[-1.24711,52.91643],[-1.24674,52.91674],[-1.24708,52.91731],[-1.24635,52.91754],[-1.24687,52.91852],[-1.24477,52.91862],[-1.24498,52.91954],[-1.24331,52.91955],[-1.24384,52.92013],[-1.24217,52.92032],[-1.24161,52.92001]]]}},{"type":"Feature","properties":{"id":"E01028098","name":"E01028098","parent":"E07000172","type":"LSOA","pop":1548,"r":396,"ff":141,"ffd":9108.5,"ffs":0.5203,"g":120,"co":0,"mo":2,"sa":0,"ic":0},"geometry":{"type":"Polygon","coordinates":[[[-1.25635,52.91962],[-1.25517,52.91919],[-1.25258,52.91943],[-1.25251,52.91904],[-1.25127,52.91934],[-1.25136,52.9198],[-1.25087,52.92027],[-1.25024,52.92011],[-1.24962,52.92037],[-1.24841,52.91977],[-1.24723,52.91983],[-1.24703,52.91893],[-1.24635,52.91754],[-1.24708,52.91731],[-1.24674,52.91674],[-1.24711,52.91643],[-1.24602,52.91604],[-1.24511,52.91501],[-1.24557,52.91458],[-1.24536,52.91352],[-1.24764,52.91368],[-1.25155,52.91285],[-1.2512,52.91207],[-1.24939,52.91232],[-1.24835,52.91133],[-1.25093,52.91094],[-1.25137,52.9106],[-1.25844,52.90884],[-1.25915,52.9095],[-1.26022,52.91303],[-1.25814,52.91326],[-1.25849,52.91462],[-1.25807,52.91542],[-1.25921,52.91577],[-1.26018,52.9177],[-1.25829,52.91788],[-1.25851,52.92062],[-1.25685,52.92007],[-1.25559,52.92002],[-1.25635,52.91962]]]}},{"type":"Feature","properties":{"id":"E01028099","name":"E01028099","parent":"E07000172","type":"LSOA","pop":1429,"r":435,"ff":160,"ffd":11196.6,"ffs":0.5281,"g":127,"co":0,"mo":2,"sa":0,"ic":0},"geometry":{"type":"Polygon","coordinates":[[[-1.23509,52.91583],[-1.23478,52.91482],[-1.23774,52.91353],[-1.23674,52.91049],[-1.23579,52.90906],[-1.23696,52.90607],[-1.24045,52.91285],[-1.24588,52.91165],[-1.24835,52.91133],[-1.24939,52.91232],[-1.2512,52.91207],[-1.25155,52.91285],[-1.24764,52.91368],[-1.24536,52.91352],[-1.24557,52.91458],[-1.24511,52.91501],[-1.2408,52.91599],[-1.24001,52.91508],[-1.23845,52.91539],[-1.23836,52.91583],[-1.23741,52.91583],[-1.23687,52.9149],[-1.23547,52.91527],[-1.23544,52.91603],[-1.23509,52.91583]]]}},{"type":"Feature","properties":{"id":"E01028100","name":"E01028100","parent":"E07000172","type":"LSOA","pop":1785,"r":507,"ff":188,"ffd":10532.2,"ffs":0.5251,"g":144,"co":0,"mo":2,"sa":0,"ic":0},"geometry":{"type":"Polygon","coordinates":[[[-1.23659,52.92061],[-1.23625,52.91875],[-1.23704,52.91891],[-1.24093,52.91841],[-1.24161,52.92001],[-1.24217,52.92032],[-1.24384,52.92013],[-1.24399,52.9218],[-1.24653,52.9229],[-1.24643,52.92322],[-1.24555,52.9241],[-1.24528,52.92499],[-1.24345,52.92503],[-1.24213,52.92551],[-1.2441,52.92666],[-1.24204,52.9277],[-1.2412,52.92692],[-1.23799,52.92511],[-1.23753,52.92336],[-1.23673,52.92148],[-1.23659,52.92061]]]}},{"type":"Feature","properties":{"id":"E01028101","name":"E01028101","parent":"E07000172","type":"LSOA","pop":1630,"r":425,"ff":152,"ffd":9325.2,"ffs":0.5188,"g":127,"co":0,"mo":2,"sa":0,"ic":0},"geometry":{"type":"Polygon","coordinates":[[[-1.24528,52.92499],[-1.24555,52.9241],[-1.24643,52.92322],[-1.24653,52.9229],[-1.24399,52.9218],[-1.24384,52.92013],[-1.24331,52.91955],[-1.24498,52.91954],[-1.24477,52.91862],[-1.24687,52.91852],[-1.24723,52.91983],[-1.24841,52.91977],[-1.24962,52.92037],[-1.25024,52.92011],[-1.25087,52.92027],[-1.25136,52.9198],[-1.25127,52.91934],[-1.25251,52.91904],[-1.25258,52.91943],[-1.25517,52.91919],[-1.25635,52.91962],[-1.25559,52.92002],[-1.25685,52.92007],[-1.25851,52.92062],[-1.25857,52.92452],[-1.25022,52.92447],[-1.24528,52.92499]]]}},{"type":"Feature","properties":{"id":"E01028102","name":"E01028102","parent":"E07000172","type":"LSOA","pop":1320,"r":420,"ff":149,"ffd":11287.9,"ffs":0.495,"g":115,"co":0,"mo":0,"sa":0,"ic":0},"geometry":{"type":"Polygon","coordinates":[[[-1.25224,52.99926],[-1.25115,52.99744],[-1.25162,52.99722],[-1.24945,52.99631],[-1.24987,52.99588],[-1.24887,52.99561],[-1.24911,52.99535],[-1.24691,52.99482],[-1.24747,52.99383],[-1.24981,52.99483],[-1.2513,52.99389],[-1.25062,52.99313],[-1.25032,52.99163],[-1.24888,52.99033],[-1.24903,52.98887],[-1.24861,52.98794],[-1.25185,52.98723],[-1.25292,52.9872],[-1.25384,52.98789],[-1.25385,52.98893],[-1.25628,52.98876],[-1.25512,52.9894],[-1.25448,52.98939],[-1.25398,52.99003],[-1.25754,52.99004],[-1.2583,52.99049],[-1.25624,52.99173],[-1.25558,52.99345],[-1.25577,52.9939],[-1.25964,52.99431],[-1.25806,52.99513],[-1.2576,52.99587],[-1.25704,52.996],[-1.25723,52.99623],[-1.25567,52.99651],[-1.25474,52.99576],[-1.25349,52.99681],[-1.25388,52.99742],[-1.25477,52.99708],[-1.25572,52.99724],[-1.2563,52.99771],[-1.25618,52.99818],[-1.25548,52.99835],[-1.25357,52.99809],[-1.25224,52.99926]]]}},{"type":"Feature","properties":{"id":"E01028103","name":"E01028103","parent":"E07000172","type":"LSOA","pop":1143,"r":402,"ff":142,"ffd":12423.4,"ffs":0.5,"g":115,"co":0,"mo":0,"sa":0,"ic":0},"geometry":{"type":"Polygon","coordinates":[[[-1.26699,53.00448],[-1.26584,53.00381],[-1.2658,53.00429],[-1.26475,53.00438],[-1.26553,53.00362],[-1.26427,53.00268],[-1.26458,53.00258],[-1.26314,53.0014],[-1.2641,53.00093],[-1.26514,53.00106],[-1.26554,53.00076],[-1.26496,53.00053],[-1.26501,52.99951],[-1.26411,52.99934],[-1.26288,53.00022],[-1.26112,52.9997],[-1.26035,53.00079],[-1.25895,52.99968],[-1.25801,52.99953],[-1.25758,53.00007],[-1.25495,53.00054],[-1.25436,53.00101],[-1.25288,53.00035],[-1.25298,52.99983],[-1.25442,52.99969],[-1.25674,52.99858],[-1.25718,52.99756],[-1.25841,52.99818],[-1.26038,52.99881],[-1.26047,52.99785],[-1.2655,52.99645],[-1.26956,52.99767],[-1.26948,52.99862],[-1.2689,52.99882],[-1.27047,52.99947],[-1.27053,52.99995],[-1.27015,53.00018],[-1.26738,53.00017],[-1.26689,53.0004],[-1.2679,53.00096],[-1.26661,53.00141],[-1.26863,53.00212],[-1.26835,53.00238],[-1.26872,53.00256],[-1.26807,53.00297],[-1.26718,53.0025],[-1.26675,53.00274],[-1.26675,53.00316],[-1.26805,53.00396],[-1.26699,53.00448]]]}},{"type":"Feature","properties":{"id":"E01028104","name":"E01028104","parent":"E07000172","type":"LSOA","pop":1648,"r":403,"ff":140,"ffd":8495.1,"ffs":0.4965,"g":118,"co":0,"mo":0,"sa":0,"ic":0},"geometry":{"type":"Polygon","coordinates":[[[-1.26714,53.00591],[-1.26636,53.00555],[-1.26568,53.00569],[-1.26355,53.00475],[-1.26137,53.00505],[-1.25985,53.00475],[-1.25732,53.00328],[-1.25694,53.00277],[-1.25552,53.00166],[-1.25436,53.00101],[-1.25495,53.00054],[-1.25758,53.00007],[-1.25801,52.99953],[-1.25895,52.99968],[-1.26035,53.00079],[-1.26112,52.9997],[-1.26288,53.00022],[-1.26411,52.99934],[-1.26501,52.99951],[-1.26496,53.00053],[-1.26554,53.00076],[-1.26514,53.00106],[-1.2641,53.00093],[-1.26314,53.0014],[-1.26458,53.00258],[-1.26427,53.00268],[-1.26553,53.00362],[-1.26475,53.00438],[-1.2658,53.00429],[-1.26584,53.00381],[-1.26699,53.00448],[-1.27035,53.00249],[-1.27236,53.00402],[-1.2721,53.00465],[-1.27169,53.00451],[-1.27008,53.00558],[-1.26938,53.00521],[-1.26822,53.00532],[-1.26714,53.00591]]]}},{"type":"Feature","properties":{"id":"E01028105","name":"E01028105","parent":"E07000172","type":"LSOA","pop":1173,"r":416,"ff":144,"ffd":12276.2,"ffs":0.4948,"g":122,"co":0,"mo":0,"sa":0,"ic":0},"geometry":{"type":"Polygon","coordinates":[[[-1.27236,53.00402],[-1.27035,53.00249],[-1.26805,53.00396],[-1.26675,53.00316],[-1.26675,53.00274],[-1.26718,53.0025],[-1.26807,53.00297],[-1.26872,53.00256],[-1.26835,53.00238],[-1.26863,53.00212],[-1.26661,53.00141],[-1.2679,53.00096],[-1.26689,53.0004],[-1.26738,53.00017],[-1.27015,53.00018],[-1.27053,52.99995],[-1.27047,52.99947],[-1.2689,52.99882],[-1.26948,52.99862],[-1.26956,52.99767],[-1.26493,52.99619],[-1.26636,52.99506],[-1.26856,52.99481],[-1.27238,52.99306],[-1.27743,52.99507],[-1.27804,52.99568],[-1.27918,52.99488],[-1.27959,52.99521],[-1.28051,52.9952],[-1.28166,52.99714],[-1.28072,52.99724],[-1.2802,52.99858],[-1.27955,52.99899],[-1.27964,53.00001],[-1.2789,53.00169],[-1.27788,53.00236],[-1.27336,53.00143],[-1.27303,53.00185],[-1.27189,53.00242],[-1.27335,53.0025],[-1.27236,53.00402]]]}},{"type":"Feature","properties":{"id":"E01028106","name":"E01028106","parent":"E07000172","type":"LSOA","pop":1391,"r":403,"ff":145,"ffd":10424.2,"ffs":0.5035,"g":111,"co":0,"mo":0,"sa":0,"ic":0},"geometry":{"type":"Polygon","coordinates":[[[-1.25224,52.99926],[-1.25357,52.99809],[-1.25548,52.99835],[-1.25618,52.99818],[-1.2563,52.99771],[-1.25572,52.99724],[-1.25477,52.99708],[-1.25388,52.99742],[-1.25349,52.99681],[-1.25474,52.99576],[-1.25567,52.99651],[-1.25723,52.99623],[-1.25704,52.996],[-1.2576,52.99587],[-1.25806,52.99513],[-1.25964,52.99431],[-1.25577,52.9939],[-1.25558,52.99345],[-1.25624,52.99173],[-1.2583,52.99049],[-1.25754,52.99004],[-1.25398,52.99003],[-1.25448,52.98939],[-1.25512,52.9894],[-1.25628,52.98876],[-1.25778,52.98844],[-1.26042,52.98843],[-1.26266,52.98762],[-1.26382,52.98759],[-1.2675,52.98626],[-1.26913,52.98497],[-1.27067,52.98472],[-1.2754,52.98487],[-1.27423,52.98178],[-1.2719,52.98018],[-1.27103,52.97883],[-1.27033,52.97885],[-1.26996,52.97797],[-1.26737,52.9788],[-1.26751,52.9793],[-1.26521,52.9795],[-1.2652,52.97871],[-1.26415,52.97758],[-1.26148,52.97599],[-1.2651,52.97378],[-1.26846,52.97277],[-1.2667,52.97198],[-1.26677,52.97157],[-1.26465,52.97009],[-1.2631,52.96994],[-1.26306,52.96879],[-1.26435,52.9679],[-1.26681,52.96671],[-1.26915,52.96764],[-1.27198,52.96682],[-1.27475,52.96713],[-1.27719,52.96666],[-1.28293,52.96733],[-1.28563,52.9686],[-1.28771,52.9677],[-1.28762,52.96883],[-1.2884,52.96904],[-1.28785,52.96981],[-1.28838,52.96976],[-1.28866,52.96933],[-1.28881,52.96988],[-1.28962,52.96973],[-1.29068,52.97068],[-1.29747,52.98467],[-1.29675,52.98516],[-1.29618,52.98495],[-1.29565,52.98567],[-1.29536,52.98543],[-1.29465,52.98577],[-1.29473,52.9864],[-1.29031,52.98684],[-1.29056,52.98815],[-1.28801,52.98846],[-1.28718,52.98803],[-1.28433,52.98789],[-1.2786,52.98703],[-1.27712,52.9885],[-1.27782,52.98938],[-1.27381,52.99002],[-1.27326,52.99097],[-1.27139,52.99111],[-1.27238,52.99306],[-1.26856,52.99481],[-1.26636,52.99506],[-1.26493,52.99619],[-1.2655,52.99645],[-1.26047,52.99785],[-1.26038,52.99881],[-1.25841,52.99818],[-1.25718,52.99756],[-1.25674,52.99858],[-1.25442,52.99969],[-1.25298,52.99983],[-1.25224,52.99926]]]}},{"type":"Feature","properties":{"id":"E01028107","name":"E01028107","parent":"E07000172","type":"LSOA","pop":1439,"r":311,"ff":94,"ffd":6532.3,"ffs":0.4519,"g":100,"co":0,"mo":0,"sa":0,"ic":0},"geometry":{"type":"Polygon","coordinates":[[[-1.28149,53.04775],[-1.2805,53.04704],[-1.27875,53.04709],[-1.27746,53.04624],[-1.27676,53.04553],[-1.27771,53.0445],[-1.27869,53.04405],[-1.27572,53.04328],[-1.27283,53.04209],[-1.27072,53.04188],[-1.27033,53.04051],[-1.2693,53.03942],[-1.26859,53.03904],[-1.26709,53.0389],[-1.2664,53.03842],[-1.2638,53.03843],[-1.2629,53.03926],[-1.25824,53.04043],[-1.25769,53.04096],[-1.25343,53.03979],[-1.25126,53.03803],[-1.25229,53.03777],[-1.25268,53.03795],[-1.25681,53.03552],[-1.25833,53.03613],[-1.26052,53.03605],[-1.26214,53.03657],[-1.26829,53.03418],[-1.26916,53.0342],[-1.27158,53.03343],[-1.27367,53.03331],[-1.27362,53.03251],[-1.27536,53.03247],[-1.27727,53.03185],[-1.27793,53.03243],[-1.28267,53.02896],[-1.2822,53.02865],[-1.28311,53.02802],[-1.28055,53.02716],[-1.27963,53.02649],[-1.28362,53.02449],[-1.28147,53.02295],[-1.28487,53.01914],[-1.28481,53.01842],[-1.28567,53.01862],[-1.28681,53.01967],[-1.28962,53.01858],[-1.28999,53.01896],[-1.28978,53.01953],[-1.29253,53.02108],[-1.299,53.02607],[-1.30124,53.02497],[-1.30362,53.02484],[-1.30273,53.0238],[-1.30172,53.02341],[-1.30179,53.02279],[-1.30453,53.02272],[-1.3068,53.02308],[-1.3044,53.02221],[-1.30513,53.02148],[-1.30355,53.02141],[-1.30317,53.02047],[-1.30691,53.02025],[-1.30697,53.01929],[-1.30815,53.01928],[-1.31346,53.02028],[-1.3149,53.01988],[-1.31795,53.01992],[-1.3183,53.02198],[-1.3227,53.0216],[-1.32463,53.02611],[-1.32589,53.02738],[-1.32779,53.02842],[-1.3283,53.03032],[-1.32552,53.03105],[-1.32481,53.03057],[-1.323,53.03088],[-1.32096,53.03039],[-1.31656,53.03084],[-1.31464,53.0305],[-1.31195,53.02939],[-1.30852,53.02931],[-1.30801,53.03222],[-1.30743,53.03299],[-1.30825,53.034],[-1.30806,53.03629],[-1.30736,53.03715],[-1.30749,53.03799],[-1.30709,53.03875],[-1.30616,53.0392],[-1.30599,53.03995],[-1.30508,53.04041],[-1.30472,53.04027],[-1.30023,53.04317],[-1.30111,53.04328],[-1.30094,53.04417],[-1.2991,53.04632],[-1.29811,53.04651],[-1.29529,53.04611],[-1.28802,53.04826],[-1.28483,53.04823],[-1.28149,53.04775]]]}},{"type":"Feature","properties":{"id":"E01028108","name":"E01028108","parent":"E07000172","type":"LSOA","pop":1370,"r":297,"ff":90,"ffd":6569.3,"ffs":0.4592,"g":98,"co":0,"mo":0,"sa":0,"ic":0},"geometry":{"type":"Polygon","coordinates":[[[-1.299,53.02607],[-1.29253,53.02108],[-1.28978,53.01953],[-1.29038,53.01828],[-1.29197,53.01962],[-1.29621,53.01853],[-1.29635,53.01882],[-1.29592,53.0189],[-1.29669,53.01965],[-1.29673,53.01941],[-1.29799,53.01946],[-1.29831,53.01997],[-1.30317,53.02047],[-1.30355,53.02141],[-1.30513,53.02148],[-1.3044,53.02221],[-1.3068,53.02308],[-1.30453,53.02272],[-1.30179,53.02279],[-1.30172,53.02341],[-1.30273,53.0238],[-1.30362,53.02484],[-1.30124,53.02497],[-1.299,53.02607]]]}},{"type":"Feature","properties":{"id":"E01028109","name":"E01028109","parent":"E07000172","type":"LSOA","pop":1698,"r":322,"ff":106,"ffd":6242.6,"ffs":0.4862,"g":101,"co":0,"mo":0,"sa":0,"ic":0},"geometry":{"type":"Polygon","coordinates":[[[-1.29494,53.01411],[-1.29421,53.01377],[-1.29338,53.01404],[-1.29294,53.01379],[-1.29235,53.01384],[-1.29197,53.01436],[-1.29135,53.01435],[-1.28882,53.01244],[-1.28785,53.01148],[-1.28862,53.01111],[-1.28812,53.01073],[-1.28938,53.01],[-1.29398,53.00903],[-1.29392,53.0097],[-1.29812,53.00884],[-1.30002,53.01018],[-1.29744,53.01135],[-1.29758,53.01173],[-1.30016,53.01253],[-1.30141,53.01367],[-1.29932,53.01393],[-1.29915,53.01457],[-1.29679,53.0146],[-1.29536,53.01505],[-1.29462,53.01465],[-1.29494,53.01411]]]}},{"type":"Feature","properties":{"id":"E01028110","name":"E01028110","parent":"E07000172","type":"LSOA","pop":1872,"r":328,"ff":106,"ffd":5662.4,"ffs":0.4862,"g":107,"co":0,"mo":0,"sa":0,"ic":0},"geometry":{"type":"Polygon","coordinates":[[[-1.31509,53.0164],[-1.3127,53.01454],[-1.30915,53.01274],[-1.30862,53.01272],[-1.30778,53.01401],[-1.30703,53.01392],[-1.30675,53.01349],[-1.30722,53.0129],[-1.30621,53.01259],[-1.30657,53.01195],[-1.30558,53.01152],[-1.30579,53.01107],[-1.30528,53.01087],[-1.30463,53.01114],[-1.30445,53.01024],[-1.30383,53.01016],[-1.30379,53.01042],[-1.30293,53.01054],[-1.30277,53.01004],[-1.3018,53.00998],[-1.3018,53.0103],[-1.30135,53.01002],[-1.3,53.0102],[-1.29812,53.00884],[-1.29392,53.0097],[-1.29398,53.00903],[-1.29782,53.00817],[-1.2998,53.00852],[-1.30164,53.00924],[-1.30233,53.00971],[-1.30659,53.0101],[-1.30684,53.00988],[-1.30648,53.00972],[-1.30737,53.00894],[-1.30699,53.0087],[-1.30791,53.00811],[-1.30831,53.00834],[-1.30882,53.00799],[-1.30952,53.00514],[-1.30799,53.00387],[-1.30868,53.00353],[-1.30929,53.00384],[-1.31002,53.0034],[-1.31232,53.0046],[-1.31336,53.00457],[-1.31349,53.00662],[-1.31456,53.00722],[-1.31554,53.00848],[-1.31919,53.01022],[-1.31964,53.01154],[-1.3183,53.01358],[-1.32018,53.01552],[-1.3188,53.01604],[-1.3186,53.01586],[-1.31683,53.01646],[-1.31617,53.01616],[-1.31568,53.01648],[-1.31509,53.0164]]]}},{"type":"Feature","properties":{"id":"E01028111","name":"E01028111","parent":"E07000172","type":"LSOA","pop":1516,"r":345,"ff":110,"ffd":7255.9,"ffs":0.4825,"g":114,"co":0,"mo":0,"sa":0,"ic":0},"geometry":{"type":"Polygon","coordinates":[[[-1.31795,53.01992],[-1.3149,53.01988],[-1.31346,53.02028],[-1.30815,53.01928],[-1.30858,53.01904],[-1.3082,53.01887],[-1.30833,53.01703],[-1.30913,53.01727],[-1.30915,53.01661],[-1.30994,53.0163],[-1.30859,53.0158],[-1.30789,53.01589],[-1.30778,53.01401],[-1.30862,53.01272],[-1.30915,53.01274],[-1.3127,53.01454],[-1.31509,53.0164],[-1.31568,53.01648],[-1.31617,53.01616],[-1.31683,53.01646],[-1.3186,53.01586],[-1.3227,53.0216],[-1.3183,53.02198],[-1.31795,53.01992]]]}},{"type":"Feature","properties":{"id":"E01028112","name":"E01028112","parent":"E07000172","type":"LSOA","pop":1720,"r":295,"ff":93,"ffd":5407.0,"ffs":0.4794,"g":98,"co":0,"mo":0,"sa":0,"ic":0},"geometry":{"type":"Polygon","coordinates":[[[-1.29799,53.01946],[-1.29673,53.01941],[-1.29669,53.01965],[-1.29592,53.0189],[-1.29635,53.01882],[-1.29621,53.01853],[-1.2993,53.0179],[-1.29978,53.01661],[-1.29787,53.01606],[-1.29928,53.0149],[-1.29915,53.01457],[-1.29932,53.01393],[-1.30141,53.01367],[-1.30206,53.01427],[-1.30096,53.01487],[-1.30019,53.01632],[-1.3018,53.01682],[-1.30227,53.01682],[-1.30352,53.01562],[-1.30354,53.01538],[-1.30289,53.0153],[-1.30319,53.01494],[-1.30491,53.01509],[-1.30512,53.01567],[-1.30549,53.0156],[-1.30509,53.01485],[-1.30552,53.01407],[-1.30675,53.01423],[-1.30703,53.01392],[-1.30778,53.01401],[-1.30789,53.01589],[-1.30859,53.0158],[-1.30994,53.0163],[-1.30915,53.01661],[-1.30913,53.01727],[-1.30833,53.01703],[-1.3082,53.01887],[-1.30858,53.01904],[-1.30815,53.01928],[-1.30697,53.01929],[-1.30691,53.02025],[-1.3038,53.02052],[-1.30234,53.0204],[-1.29831,53.01997],[-1.29799,53.01946]]]}},{"type":"Feature","properties":{"id":"E01028113","name":"E01028113","parent":"E07000172","type":"LSOA","pop":1505,"r":304,"ff":97,"ffd":6445.2,"ffs":0.485,"g":101,"co":0,"mo":0,"sa":0,"ic":0},"geometry":{"type":"Polygon","coordinates":[[[-1.30019,53.01632],[-1.30096,53.01487],[-1.30206,53.01427],[-1.30016,53.01253],[-1.29758,53.01173],[-1.29744,53.01135],[-1.3,53.0102],[-1.30135,53.01002],[-1.3018,53.0103],[-1.3018,53.00998],[-1.30277,53.01004],[-1.30293,53.01054],[-1.30379,53.01042],[-1.30383,53.01016],[-1.30445,53.01024],[-1.30463,53.01114],[-1.30528,53.01087],[-1.30579,53.01107],[-1.30558,53.01152],[-1.30657,53.01195],[-1.30621,53.01259],[-1.30722,53.0129],[-1.30675,53.01349],[-1.30703,53.01392],[-1.30675,53.01423],[-1.30552,53.01407],[-1.30509,53.01485],[-1.30549,53.0156],[-1.30512,53.01567],[-1.30491,53.01509],[-1.30319,53.01494],[-1.30289,53.0153],[-1.30354,53.01538],[-1.30352,53.01562],[-1.30227,53.01682],[-1.30019,53.01632]]]}},{"type":"Feature","properties":{"id":"E01028114","name":"E01028114","parent":"E07000172","type":"LSOA","pop":1520,"r":313,"ff":99,"ffd":6513.2,"ffs":0.4692,"g":99,"co":0,"mo":0,"sa":0,"ic":0},"geometry":{"type":"Polygon","coordinates":[[[-1.28947,53.01587],[-1.29135,53.01435],[-1.29197,53.01436],[-1.29235,53.01384],[-1.29294,53.01379],[-1.29338,53.01404],[-1.29421,53.01377],[-1.29494,53.01411],[-1.29462,53.01465],[-1.29536,53.01505],[-1.29679,53.0146],[-1.29915,53.01457],[-1.29928,53.0149],[-1.29787,53.01606],[-1.29978,53.01661],[-1.2993,53.0179],[-1.29492,53.01877],[-1.29197,53.01962],[-1.29038,53.01828],[-1.29091,53.01654],[-1.28947,53.01587]]]}},{"type":"Feature","properties":{"id":"E01028115","name":"E01028115","parent":"E07000172","type":"LSOA","pop":1995,"r":325,"ff":108,"ffd":5413.5,"ffs":0.4843,"g":99,"co":0,"mo":0,"sa":0,"ic":0},"geometry":{"type":"Polygon","coordinates":[[[-1.28686,53.01182],[-1.2861,53.01172],[-1.28579,53.01213],[-1.28514,53.0111],[-1.28643,53.01037],[-1.28597,53.00975],[-1.28649,53.00936],[-1.28609,53.00845],[-1.28553,53.00866],[-1.2819,53.00637],[-1.28186,53.00475],[-1.28344,53.00557],[-1.28296,53.00657],[-1.28494,53.00587],[-1.28507,53.00614],[-1.28552,53.00582],[-1.28654,53.00635],[-1.28767,53.00623],[-1.28895,53.00687],[-1.28997,53.00677],[-1.28971,53.00721],[-1.29028,53.00746],[-1.29178,53.00681],[-1.29239,53.00679],[-1.29276,53.00717],[-1.29321,53.00692],[-1.29404,53.00719],[-1.29377,53.00766],[-1.29427,53.00819],[-1.29516,53.00838],[-1.29544,53.00784],[-1.29489,53.00793],[-1.29473,53.00765],[-1.29509,53.00704],[-1.29597,53.00715],[-1.30039,53.00393],[-1.27964,53.00001],[-1.27955,52.99899],[-1.2802,52.99858],[-1.28072,52.99724],[-1.28368,52.99679],[-1.28459,52.99634],[-1.28514,52.99668],[-1.28922,52.99723],[-1.29206,52.99598],[-1.29578,52.99395],[-1.29785,52.99347],[-1.29894,52.99235],[-1.30072,52.99183],[-1.30156,52.99231],[-1.3005,52.99265],[-1.30037,52.9932],[-1.30141,52.99363],[-1.30067,52.99419],[-1.30093,52.99464],[-1.30144,52.99436],[-1.30158,52.99484],[-1.30234,52.99501],[-1.30173,52.9959],[-1.30317,52.99688],[-1.30247,52.9972],[-1.30361,52.99801],[-1.30236,52.99844],[-1.30219,52.99912],[-1.30269,52.99968],[-1.30354,52.99974],[-1.30286,53.0003],[-1.30423,53.00014],[-1.30429,53.00052],[-1.30368,53.0006],[-1.30374,53.00111],[-1.30492,53.00139],[-1.30455,53.00173],[-1.30634,53.00249],[-1.30574,53.00267],[-1.30633,53.00329],[-1.30727,53.00304],[-1.30703,53.00347],[-1.30799,53.00387],[-1.30952,53.00514],[-1.30882,53.00799],[-1.30831,53.00834],[-1.30791,53.00811],[-1.30699,53.0087],[-1.30737,53.00894],[-1.30648,53.00972],[-1.30684,53.00988],[-1.30659,53.0101],[-1.30233,53.00971],[-1.30164,53.00924],[-1.2998,53.00852],[-1.29782,53.00817],[-1.28938,53.01],[-1.28812,53.01073],[-1.28862,53.01111],[-1.28785,53.01148],[-1.28882,53.01244],[-1.28801,53.01289],[-1.28685,53.01221],[-1.28686,53.01182]]]}},{"type":"Feature","properties":{"id":"E01028116","name":"E01028116","parent":"E07000172","type":"LSOA","pop":1724,"r":365,"ff":121,"ffd":7018.6,"ffs":0.4802,"g":110,"co":0,"mo":0,"sa":0,"ic":0},"geometry":{"type":"Polygon","coordinates":[[[-1.28139,53.01152],[-1.28053,53.01095],[-1.27893,53.01152],[-1.27102,53.01272],[-1.27058,53.01199],[-1.27465,53.0091],[-1.27472,53.00815],[-1.27704,53.00595],[-1.2747,53.0053],[-1.27542,53.00385],[-1.27466,53.00359],[-1.27506,53.00263],[-1.27189,53.00242],[-1.27303,53.00185],[-1.27336,53.00143],[-1.27788,53.00236],[-1.2789,53.00169],[-1.27964,53.00001],[-1.29268,53.00256],[-1.29156,53.00432],[-1.2897,53.00423],[-1.28671,53.00357],[-1.28622,53.00396],[-1.2858,53.00378],[-1.28548,53.00414],[-1.28602,53.00419],[-1.28579,53.00478],[-1.28531,53.00476],[-1.28519,53.00507],[-1.28567,53.00524],[-1.28521,53.00571],[-1.28327,53.00532],[-1.28425,53.00501],[-1.2843,53.00453],[-1.28381,53.00421],[-1.28186,53.00475],[-1.2819,53.00637],[-1.28553,53.00866],[-1.28609,53.00845],[-1.28649,53.00936],[-1.28597,53.00975],[-1.28643,53.01037],[-1.28417,53.01152],[-1.28496,53.01191],[-1.28476,53.0121],[-1.28612,53.01342],[-1.28475,53.01402],[-1.28401,53.01387],[-1.2848,53.01323],[-1.28408,53.0124],[-1.28311,53.01226],[-1.28316,53.01184],[-1.28139,53.01152]]]}},{"type":"Feature","properties":{"id":"E01028117","name":"E01028117","parent":"E07000172","type":"LSOA","pop":1654,"r":330,"ff":110,"ffd":6650.5,"ffs":0.4867,"g":101,"co":0,"mo":0,"sa":0,"ic":0},"geometry":{"type":"Polygon","coordinates":[[[-1.29427,53.00819],[-1.29377,53.00766],[-1.29404,53.00719],[-1.29321,53.00692],[-1.29276,53.00717],[-1.29239,53.00679],[-1.29178,53.00681],[-1.29028,53.00746],[-1.28971,53.00721],[-1.28997,53.00677],[-1.28895,53.00687],[-1.28767,53.00623],[-1.28654,53.00635],[-1.28552,53.00582],[-1.28507,53.00614],[-1.28494,53.00587],[-1.28296,53.00657],[-1.28344,53.00557],[-1.28186,53.00475],[-1.28381,53.00421],[-1.2843,53.00453],[-1.28425,53.00501],[-1.28327,53.00532],[-1.28521,53.00571],[-1.28567,53.00524],[-1.28519,53.00507],[-1.28531,53.00476],[-1.28579,53.00478],[-1.28602,53.00419],[-1.28548,53.00414],[-1.2858,53.00378],[-1.28622,53.00396],[-1.28671,53.00357],[-1.2897,53.00423],[-1.29156,53.00432],[-1.29268,53.00256],[-1.30039,53.00393],[-1.29597,53.00715],[-1.29509,53.00704],[-1.29473,53.00765],[-1.29489,53.00793],[-1.29544,53.00784],[-1.29516,53.00838],[-1.29427,53.00819]]]}},{"type":"Feature","properties":{"id":"E01028118","name":"E01028118","parent":"E07000172","type":"LSOA","pop":1639,"r":328,"ff":106,"ffd":6467.4,"ffs":0.4732,"g":101,"co":0,"mo":0,"sa":0,"ic":0},"geometry":{"type":"Polygon","coordinates":[[[-1.25126,53.03803],[-1.24746,53.03573],[-1.24711,53.03507],[-1.23891,53.03256],[-1.24126,53.03115],[-1.2441,53.03155],[-1.24787,53.03094],[-1.24677,53.02753],[-1.2475,53.02741],[-1.24765,53.02666],[-1.25138,53.02563],[-1.25272,53.02438],[-1.2564,53.02315],[-1.25639,53.01788],[-1.25816,53.0179],[-1.25825,53.01748],[-1.25759,53.01744],[-1.25779,53.01666],[-1.25853,53.01681],[-1.26103,53.01449],[-1.26276,53.01448],[-1.26262,53.01425],[-1.26401,53.01344],[-1.2677,53.01455],[-1.26812,53.01359],[-1.27058,53.01199],[-1.27102,53.01272],[-1.27893,53.01152],[-1.28053,53.01095],[-1.28139,53.01152],[-1.28316,53.01184],[-1.28311,53.01226],[-1.28408,53.0124],[-1.2848,53.01323],[-1.28401,53.01387],[-1.28475,53.01402],[-1.28612,53.01342],[-1.28476,53.0121],[-1.28496,53.01191],[-1.28417,53.01152],[-1.28514,53.0111],[-1.28579,53.01213],[-1.2861,53.01172],[-1.28686,53.01182],[-1.28685,53.01221],[-1.28801,53.01289],[-1.28882,53.01244],[-1.29135,53.01435],[-1.28947,53.01587],[-1.29091,53.01654],[-1.29039,53.01828],[-1.28999,53.01896],[-1.28962,53.01858],[-1.28919,53.01866],[-1.28681,53.01967],[-1.28567,53.01862],[-1.28481,53.01842],[-1.28487,53.01914],[-1.28147,53.02295],[-1.28362,53.02449],[-1.27963,53.02649],[-1.28055,53.02716],[-1.28311,53.02802],[-1.2822,53.02865],[-1.28267,53.02896],[-1.27793,53.03243],[-1.27727,53.03185],[-1.27536,53.03247],[-1.27362,53.03251],[-1.27367,53.03331],[-1.27158,53.03343],[-1.26916,53.0342],[-1.26829,53.03418],[-1.26214,53.03657],[-1.26052,53.03605],[-1.25833,53.03613],[-1.25681,53.03552],[-1.25268,53.03795],[-1.25229,53.03777],[-1.25126,53.03803]]]}},{"type":"Feature","properties":{"id":"E01028119","name":"E01028119","parent":"E07000172","type":"LSOA","pop":2012,"r":549,"ff":205,"ffd":10188.9,"ffs":0.5125,"g":143,"co":0,"mo":0,"sa":0,"ic":0},"geometry":{"type":"Polygon","coordinates":[[[-1.23109,53.00953],[-1.22933,53.00883],[-1.22823,53.00893],[-1.22775,53.00859],[-1.22515,53.0081],[-1.22288,53.00737],[-1.22118,53.00743],[-1.2187,53.00649],[-1.22,53.00537],[-1.2206,53.00341],[-1.21717,53.00106],[-1.21394,52.9974],[-1.2145,52.99708],[-1.21831,52.99358],[-1.21911,52.9915],[-1.21167,52.99017],[-1.21134,52.9894],[-1.21195,52.98832],[-1.21973,52.9899],[-1.22044,52.98941],[-1.22137,52.99019],[-1.22237,52.99021],[-1.22273,52.99086],[-1.22407,52.99115],[-1.2246,52.99053],[-1.22476,52.98972],[-1.22827,52.98881],[-1.23022,52.9873],[-1.22959,52.98672],[-1.22823,52.98656],[-1.22804,52.98616],[-1.22666,52.98594],[-1.22687,52.98657],[-1.22518,52.98616],[-1.22574,52.98554],[-1.22481,52.98467],[-1.22539,52.98447],[-1.22518,52.98347],[-1.22553,52.98308],[-1.22649,52.98354],[-1.22688,52.98345],[-1.22722,52.98434],[-1.22777,52.98425],[-1.22754,52.98393],[-1.22954,52.98316],[-1.23006,52.9834],[-1.23082,52.98298],[-1.23043,52.98272],[-1.23101,52.982],[-1.23506,52.98255],[-1.23938,52.98265],[-1.24213,52.98359],[-1.24546,52.98522],[-1.24684,52.98454],[-1.24651,52.98311],[-1.24489,52.98119],[-1.24376,52.9788],[-1.24261,52.97783],[-1.24086,52.97804],[-1.23985,52.9776],[-1.2399,52.97682],[-1.23678,52.9715],[-1.23508,52.97148],[-1.23198,52.96764],[-1.23743,52.96666],[-1.23862,52.96593],[-1.23972,52.96393],[-1.24076,52.96305],[-1.24447,52.96777],[-1.25099,52.96461],[-1.25197,52.96548],[-1.25262,52.96705],[-1.25998,52.96615],[-1.26435,52.9679],[-1.26306,52.96879],[-1.2631,52.96994],[-1.26465,52.97009],[-1.26677,52.97157],[-1.2667,52.97198],[-1.26846,52.97277],[-1.2651,52.97378],[-1.26148,52.97599],[-1.26415,52.97758],[-1.2652,52.97871],[-1.26521,52.9795],[-1.26751,52.9793],[-1.26737,52.9788],[-1.26996,52.97797],[-1.27033,52.97885],[-1.27103,52.97883],[-1.2719,52.98018],[-1.27423,52.98178],[-1.2754,52.98487],[-1.27067,52.98472],[-1.26913,52.98497],[-1.2675,52.98626],[-1.26382,52.98759],[-1.26266,52.98762],[-1.26042,52.98843],[-1.25778,52.98844],[-1.25628,52.98876],[-1.25385,52.98893],[-1.25384,52.98789],[-1.25292,52.9872],[-1.25185,52.98723],[-1.24861,52.98794],[-1.24903,52.98887],[-1.24888,52.99033],[-1.25032,52.99163],[-1.25062,52.99313],[-1.2513,52.99383],[-1.24846,52.99328],[-1.24435,52.99168],[-1.23929,52.99099],[-1.23447,52.98991],[-1.23235,52.99302],[-1.23124,52.99596],[-1.23098,52.99941],[-1.23205,53.00299],[-1.23435,53.00617],[-1.23453,53.00686],[-1.23387,53.00795],[-1.23377,53.00951],[-1.2326,53.01137],[-1.23149,53.01051],[-1.23109,53.00953]]]}},{"type":"Feature","properties":{"id":"E01028120","name":"E01028120","parent":"E07000172","type":"LSOA","pop":1771,"r":617,"ff":223,"ffd":12591.8,"ffs":0.4989,"g":162,"co":0,"mo":0,"sa":0,"ic":0},"geometry":{"type":"Polygon","coordinates":[[[-1.22137,52.99019],[-1.22044,52.98941],[-1.21973,52.9899],[-1.21195,52.98832],[-1.21134,52.9894],[-1.21167,52.99017],[-1.20842,52.98883],[-1.20335,52.98753],[-1.20361,52.98702],[-1.2053,52.98739],[-1.20547,52.98713],[-1.20706,52.98694],[-1.21098,52.98594],[-1.21316,52.98474],[-1.21398,52.98364],[-1.21521,52.98314],[-1.2175,52.98383],[-1.21544,52.9854],[-1.21592,52.98565],[-1.21565,52.98614],[-1.21483,52.98607],[-1.21476,52.98644],[-1.21506,52.98648],[-1.21518,52.9869],[-1.21997,52.98743],[-1.22062,52.98783],[-1.22086,52.98743],[-1.22321,52.98668],[-1.22675,52.98747],[-1.22706,52.98721],[-1.22666,52.98594],[-1.22804,52.98616],[-1.22823,52.98656],[-1.22959,52.98672],[-1.23022,52.9873],[-1.22827,52.98881],[-1.22476,52.98972],[-1.2246,52.99053],[-1.22407,52.99115],[-1.22273,52.99086],[-1.22237,52.99021],[-1.22137,52.99019]]]}},{"type":"Feature","properties":{"id":"E01028121","name":"E01028121","parent":"E07000172","type":"LSOA","pop":1483,"r":538,"ff":202,"ffd":13621.0,"ffs":0.5153,"g":140,"co":0,"mo":0,"sa":0,"ic":0},"geometry":{"type":"Polygon","coordinates":[[[-1.21518,52.9869],[-1.21506,52.98648],[-1.21476,52.98644],[-1.21483,52.98607],[-1.21565,52.98614],[-1.21592,52.98565],[-1.21544,52.9854],[-1.2175,52.98383],[-1.22259,52.98593],[-1.22405,52.98414],[-1.22201,52.98332],[-1.2237,52.98168],[-1.22457,52.98225],[-1.22508,52.98211],[-1.22609,52.98117],[-1.23101,52.982],[-1.23043,52.98272],[-1.23082,52.98298],[-1.23006,52.9834],[-1.22954,52.98316],[-1.22754,52.98393],[-1.22777,52.98425],[-1.22722,52.98434],[-1.22688,52.98345],[-1.22649,52.98354],[-1.22553,52.98308],[-1.22518,52.98347],[-1.22539,52.98447],[-1.22481,52.98467],[-1.22574,52.98554],[-1.22518,52.98616],[-1.22687,52.98657],[-1.22706,52.98721],[-1.22675,52.98747],[-1.22321,52.98668],[-1.22086,52.98743],[-1.22062,52.98783],[-1.21997,52.98743],[-1.21518,52.9869]]]}},{"type":"Feature","properties":{"id":"E01028122","name":"E01028122","parent":"E07000172","type":"LSOA","pop":1654,"r":468,"ff":171,"ffd":10338.6,"ffs":0.5074,"g":127,"co":0,"mo":0,"sa":0,"ic":0},"geometry":{"type":"Polygon","coordinates":[[[-1.24469,52.99423],[-1.24722,52.99412],[-1.24691,52.99482],[-1.24911,52.99535],[-1.24887,52.99561],[-1.24987,52.99588],[-1.24945,52.99631],[-1.25162,52.99722],[-1.25115,52.99744],[-1.25224,52.99926],[-1.25298,52.99983],[-1.25076,53.00037],[-1.25076,53.00119],[-1.24898,53.00211],[-1.24952,53.00244],[-1.24917,53.00302],[-1.24311,53.00381],[-1.24272,53.00418],[-1.24038,53.00443],[-1.24142,53.00072],[-1.24245,52.99845],[-1.24384,52.9975],[-1.2428,52.99624],[-1.24455,52.99532],[-1.2436,52.99485],[-1.2449,52.99465],[-1.24469,52.99423]]]}},{"type":"Feature","properties":{"id":"E01028123","name":"E01028123","parent":"E07000172","type":"LSOA","pop":1872,"r":455,"ff":162,"ffd":8653.8,"ffs":0.5015,"g":128,"co":0,"mo":0,"sa":0,"ic":0},"geometry":{"type":"Polygon","coordinates":[[[-1.23096,53.01846],[-1.23108,53.01752],[-1.23068,53.01615],[-1.23219,53.01362],[-1.2326,53.01137],[-1.23377,53.00951],[-1.23387,53.00795],[-1.23453,53.00686],[-1.23435,53.00617],[-1.2347,53.00521],[-1.24038,53.00506],[-1.24038,53.00443],[-1.24272,53.00418],[-1.24311,53.00381],[-1.24917,53.00302],[-1.24952,53.00244],[-1.24898,53.00211],[-1.25076,53.00119],[-1.25076,53.00037],[-1.25298,52.99983],[-1.25288,53.00035],[-1.25552,53.00166],[-1.25694,53.00277],[-1.25732,53.00328],[-1.25985,53.00475],[-1.26137,53.00505],[-1.26355,53.00475],[-1.26568,53.00569],[-1.26636,53.00555],[-1.26714,53.00591],[-1.26822,53.00532],[-1.26938,53.00521],[-1.27008,53.00558],[-1.27169,53.00451],[-1.2721,53.00465],[-1.27335,53.0025],[-1.27506,53.00263],[-1.27466,53.00359],[-1.27542,53.00385],[-1.2747,53.0053],[-1.27704,53.00595],[-1.27472,53.00815],[-1.27465,53.0091],[-1.26812,53.01359],[-1.2677,53.01455],[-1.26401,53.01344],[-1.26262,53.01425],[-1.26276,53.01448],[-1.26103,53.01449],[-1.25853,53.01681],[-1.25779,53.01666],[-1.25759,53.01744],[-1.25825,53.01748],[-1.25816,53.0179],[-1.25639,53.01788],[-1.2564,53.02315],[-1.25272,53.02438],[-1.25138,53.02563],[-1.24765,53.02666],[-1.2475,53.02741],[-1.24677,53.02753],[-1.24787,53.03094],[-1.2441,53.03155],[-1.24126,53.03115],[-1.2388,53.02961],[-1.23536,53.02792],[-1.23443,53.02661],[-1.22908,53.02274],[-1.23183,53.02128],[-1.23197,53.01948],[-1.23096,53.01846]]]}},{"type":"Feature","properties":{"id":"E01028124","name":"E01028124","parent":"E07000172","type":"LSOA","pop":1665,"r":505,"ff":180,"ffd":10810.8,"ffs":0.5028,"g":141,"co":0,"mo":0,"sa":0,"ic":0},"geometry":{"type":"Polygon","coordinates":[[[-1.23124,52.99596],[-1.23235,52.99302],[-1.23447,52.98991],[-1.23929,52.99099],[-1.24435,52.99168],[-1.24846,52.99328],[-1.2513,52.99383],[-1.24981,52.99483],[-1.24747,52.99383],[-1.24722,52.99412],[-1.24469,52.99423],[-1.2449,52.99465],[-1.2436,52.99485],[-1.24455,52.99532],[-1.2428,52.99624],[-1.24384,52.9975],[-1.24245,52.99845],[-1.24142,53.00072],[-1.24038,53.00443],[-1.24038,53.00506],[-1.2347,53.00521],[-1.23435,53.00617],[-1.23205,53.00299],[-1.23098,52.99941],[-1.23124,52.99596]]]}},{"type":"Feature","properties":{"id":"E01028125","name":"E01028125","parent":"E07000172","type":"LSOA","pop":2046,"r":637,"ff":224,"ffd":10948.2,"ffs":0.4945,"g":178,"co":0,"mo":0,"sa":0,"ic":0},"geometry":{"type":"Polygon","coordinates":[[[-1.25284,52.9473],[-1.25361,52.94582],[-1.25878,52.94111],[-1.26028,52.93925],[-1.26173,52.93981],[-1.26422,52.93861],[-1.26557,52.93961],[-1.26343,52.94049],[-1.26397,52.94066],[-1.26477,52.94034],[-1.26531,52.94064],[-1.26575,52.94118],[-1.26322,52.94236],[-1.26877,52.94313],[-1.2695,52.9427],[-1.27112,52.94228],[-1.27188,52.94152],[-1.27167,52.94101],[-1.27066,52.94069],[-1.272,52.93903],[-1.27217,52.93782],[-1.27159,52.93761],[-1.26932,52.9384],[-1.26999,52.93892],[-1.26923,52.93918],[-1.26701,52.93762],[-1.26628,52.9381],[-1.26546,52.93779],[-1.26781,52.936],[-1.2723,52.93426],[-1.27144,52.93532],[-1.27128,52.93688],[-1.27295,52.93731],[-1.27244,52.93973],[-1.27255,52.94152],[-1.27445,52.94171],[-1.27581,52.94281],[-1.27237,52.94419],[-1.26814,52.94464],[-1.26674,52.9451],[-1.26484,52.94636],[-1.26213,52.94604],[-1.26069,52.94615],[-1.25879,52.94691],[-1.25564,52.94901],[-1.25394,52.94943],[-1.25333,52.9502],[-1.25244,52.95056],[-1.25083,52.94856],[-1.25284,52.9473]]]}},{"type":"Feature","properties":{"id":"E01028126","name":"E01028126","parent":"E07000172","type":"LSOA","pop":1274,"r":570,"ff":196,"ffd":15384.6,"ffs":0.4975,"g":170,"co":0,"mo":0,"sa":0,"ic":0},"geometry":{"type":"Polygon","coordinates":[[[-1.27229,52.93426],[-1.2736,52.9327],[-1.27463,52.93334],[-1.27816,52.93367],[-1.27838,52.93437],[-1.27784,52.93577],[-1.27916,52.93683],[-1.27884,52.93764],[-1.27941,52.93806],[-1.27904,52.93892],[-1.28022,52.93928],[-1.2808,52.93986],[-1.28113,52.94081],[-1.27581,52.94281],[-1.27445,52.94171],[-1.27255,52.94152],[-1.27244,52.93973],[-1.27295,52.93731],[-1.27128,52.93688],[-1.27144,52.93532],[-1.27229,52.93426]]]}},{"type":"Feature","properties":{"id":"E01028127","name":"E01028127","parent":"E07000172","type":"LSOA","pop":1613,"r":598,"ff":208,"ffd":12895.2,"ffs":0.4941,"g":171,"co":0,"mo":0,"sa":0,"ic":0},"geometry":{"type":"Polygon","coordinates":[[[-1.26527,52.94064],[-1.26477,52.94034],[-1.26397,52.94066],[-1.26343,52.94049],[-1.26557,52.93961],[-1.26422,52.93861],[-1.26546,52.93779],[-1.26628,52.9381],[-1.26701,52.93762],[-1.26923,52.93918],[-1.26999,52.93892],[-1.26932,52.9384],[-1.27159,52.93761],[-1.27217,52.93782],[-1.272,52.93903],[-1.27066,52.94069],[-1.27167,52.94101],[-1.27188,52.94152],[-1.27112,52.94228],[-1.2695,52.9427],[-1.26877,52.94313],[-1.26322,52.94236],[-1.26575,52.94118],[-1.26527,52.94064]]]}},{"type":"Feature","properties":{"id":"E01028128","name":"E01028128","parent":"E07000172","type":"LSOA","pop":1773,"r":641,"ff":227,"ffd":12803.2,"ffs":0.4967,"g":177,"co":0,"mo":0,"sa":0,"ic":0},"geometry":{"type":"Polygon","coordinates":[[[-1.2647,52.92928],[-1.25817,52.92883],[-1.25762,52.9285],[-1.26048,52.92486],[-1.26272,52.92237],[-1.26523,52.92029],[-1.2661,52.92113],[-1.26674,52.921],[-1.26742,52.92202],[-1.26764,52.92198],[-1.26934,52.92489],[-1.26864,52.92511],[-1.27116,52.92641],[-1.27262,52.92752],[-1.27357,52.92859],[-1.27273,52.92866],[-1.27253,52.92896],[-1.27268,52.92866],[-1.27165,52.92843],[-1.27068,52.92881],[-1.27035,52.92861],[-1.26975,52.92882],[-1.26949,52.92857],[-1.26852,52.92879],[-1.26844,52.92906],[-1.26701,52.92895],[-1.26694,52.92944],[-1.2647,52.92928]]]}},{"type":"Feature","properties":{"id":"E01028129","name":"E01028129","parent":"E07000172","type":"LSOA","pop":1624,"r":680,"ff":242,"ffd":14901.5,"ffs":0.4949,"g":185,"co":0,"mo":0,"sa":0,"ic":0},"geometry":{"type":"Polygon","coordinates":[[[-1.25837,52.93613],[-1.25865,52.93521],[-1.25787,52.93372],[-1.25731,52.93212],[-1.25722,52.92891],[-1.25762,52.9285],[-1.25817,52.92883],[-1.26694,52.92944],[-1.26681,52.93116],[-1.26491,52.93131],[-1.26578,52.93212],[-1.26203,52.93232],[-1.26216,52.9327],[-1.26159,52.93318],[-1.26229,52.93461],[-1.2628,52.93496],[-1.26325,52.9347],[-1.26395,52.93548],[-1.2646,52.93533],[-1.26454,52.93614],[-1.26532,52.93608],[-1.26589,52.93538],[-1.26678,52.93586],[-1.26749,52.93571],[-1.26781,52.936],[-1.26422,52.93861],[-1.26173,52.93981],[-1.25834,52.93873],[-1.2577,52.93794],[-1.25777,52.93715],[-1.25837,52.93613]]]}},{"type":"Feature","properties":{"id":"E01028130","name":"E01028130","parent":"E07000172","type":"LSOA","pop":2023,"r":646,"ff":229,"ffd":11319.8,"ffs":0.4967,"g":179,"co":0,"mo":0,"sa":0,"ic":0},"geometry":{"type":"Polygon","coordinates":[[[-1.26454,52.93614],[-1.2646,52.93533],[-1.26395,52.93548],[-1.26325,52.9347],[-1.2628,52.93496],[-1.26229,52.93461],[-1.26159,52.93318],[-1.26216,52.9327],[-1.26203,52.93232],[-1.26578,52.93212],[-1.26491,52.93131],[-1.26681,52.93116],[-1.26701,52.92895],[-1.26844,52.92906],[-1.26852,52.92879],[-1.26949,52.92857],[-1.26975,52.92882],[-1.27035,52.92861],[-1.27068,52.92881],[-1.27165,52.92843],[-1.27268,52.92866],[-1.27253,52.92896],[-1.27273,52.92866],[-1.27357,52.92859],[-1.27431,52.92955],[-1.2737,52.93168],[-1.2736,52.9327],[-1.27229,52.93426],[-1.26781,52.936],[-1.26749,52.93571],[-1.26678,52.93586],[-1.26589,52.93538],[-1.26532,52.93608],[-1.26454,52.93614]]]}},{"type":"Feature","properties":{"id":"E01028131","name":"E01028131","parent":"E07000172","type":"LSOA","pop":1469,"r":590,"ff":201,"ffd":13682.8,"ffs":0.4891,"g":172,"co":0,"mo":0,"sa":0,"ic":0},"geometry":{"type":"Polygon","coordinates":[[[-1.27435,52.92446],[-1.27421,52.92422],[-1.27183,52.92456],[-1.27149,52.92388],[-1.27318,52.92343],[-1.27276,52.92272],[-1.27235,52.92261],[-1.27213,52.92186],[-1.26941,52.92132],[-1.26787,52.92129],[-1.26764,52.92198],[-1.26742,52.92202],[-1.26674,52.921],[-1.2661,52.92113],[-1.26523,52.92029],[-1.27859,52.91953],[-1.27831,52.91909],[-1.27887,52.91896],[-1.27922,52.91948],[-1.28282,52.91929],[-1.28252,52.92146],[-1.28369,52.92266],[-1.28157,52.9232],[-1.28116,52.92303],[-1.28116,52.92335],[-1.27825,52.92373],[-1.27825,52.92395],[-1.27765,52.92423],[-1.27777,52.92499],[-1.27698,52.92531],[-1.27688,52.92635],[-1.27567,52.92638],[-1.27435,52.92446]]]}},{"type":"Feature","properties":{"id":"E01028132","name":"E01028132","parent":"E07000172","type":"LSOA","pop":1148,"r":633,"ff":222,"ffd":19338.0,"ffs":0.4912,"g":174,"co":0,"mo":0,"sa":0,"ic":0},"geometry":{"type":"Polygon","coordinates":[[[-1.27403,52.92821],[-1.27347,52.92743],[-1.27262,52.92752],[-1.27116,52.92641],[-1.26864,52.92511],[-1.26934,52.92489],[-1.26764,52.92198],[-1.26787,52.92129],[-1.26941,52.92132],[-1.27213,52.92186],[-1.27235,52.92261],[-1.27276,52.92272],[-1.27318,52.92343],[-1.27149,52.92388],[-1.27183,52.92456],[-1.27421,52.92422],[-1.27567,52.92638],[-1.27569,52.92663],[-1.27401,52.92753],[-1.27426,52.92798],[-1.27476,52.92802],[-1.27467,52.92832],[-1.27403,52.92821]]]}},{"type":"Feature","properties":{"id":"E01028133","name":"E01028133","parent":"E07000172","type":"LSOA","pop":1392,"r":573,"ff":198,"ffd":14224.1,"ffs":0.4975,"g":169,"co":0,"mo":0,"sa":0,"ic":0},"geometry":{"type":"Polygon","coordinates":[[[-1.27357,52.92859],[-1.27262,52.92752],[-1.27347,52.92743],[-1.27403,52.92821],[-1.27467,52.92832],[-1.27476,52.92802],[-1.27426,52.92798],[-1.27401,52.92753],[-1.27569,52.92663],[-1.27567,52.92638],[-1.27688,52.92635],[-1.27698,52.92531],[-1.27777,52.92499],[-1.27765,52.92423],[-1.27825,52.92395],[-1.27825,52.92373],[-1.28116,52.92335],[-1.28116,52.92303],[-1.28157,52.9232],[-1.28369,52.92266],[-1.28572,52.92555],[-1.28578,52.92607],[-1.28517,52.92646],[-1.28497,52.9269],[-1.28242,52.92845],[-1.28068,52.92839],[-1.27925,52.9277],[-1.27823,52.92786],[-1.27802,52.92867],[-1.27685,52.9286],[-1.27713,52.9289],[-1.2762,52.92918],[-1.276,52.92954],[-1.27508,52.92983],[-1.2743,52.92962],[-1.27357,52.92859]]]}},{"type":"Feature","properties":{"id":"E01028134","name":"E01028134","parent":"E07000172","type":"LSOA","pop":1489,"r":670,"ff":242,"ffd":16252.5,"ffs":0.501,"g":180,"co":0,"mo":0,"sa":0,"ic":0},"geometry":{"type":"Polygon","coordinates":[[[-1.2737,52.93168],[-1.2743,52.92962],[-1.27508,52.92983],[-1.276,52.92954],[-1.2762,52.92918],[-1.27713,52.9289],[-1.27685,52.9286],[-1.27802,52.92867],[-1.27823,52.92786],[-1.27925,52.9277],[-1.28068,52.92839],[-1.28242,52.92845],[-1.28113,52.92956],[-1.27821,52.93283],[-1.27816,52.93367],[-1.27463,52.93334],[-1.2736,52.9327],[-1.2737,52.93168]]]}},{"type":"Feature","properties":{"id":"E01028135","name":"E01028135","parent":"E07000172","type":"LSOA","pop":1396,"r":549,"ff":189,"ffd":13538.7,"ffs":0.4974,"g":163,"co":0,"mo":2,"sa":0,"ic":0},"geometry":{"type":"Polygon","coordinates":[[[-1.25851,52.92062],[-1.25829,52.91788],[-1.26018,52.9177],[-1.25921,52.91577],[-1.25807,52.91542],[-1.25849,52.91462],[-1.25814,52.91326],[-1.26022,52.91303],[-1.26008,52.91263],[-1.26062,52.91308],[-1.26451,52.9126],[-1.26531,52.91292],[-1.26586,52.91242],[-1.26586,52.91141],[-1.26662,52.91138],[-1.26682,52.91171],[-1.26722,52.91132],[-1.26788,52.91114],[-1.26708,52.90996],[-1.26904,52.90979],[-1.26938,52.90996],[-1.27106,52.90943],[-1.2701,52.90784],[-1.26949,52.90515],[-1.27309,52.90516],[-1.27498,52.90546],[-1.28048,52.90895],[-1.28179,52.91028],[-1.28354,52.9168],[-1.28352,52.91863],[-1.28282,52.91929],[-1.27922,52.91948],[-1.27887,52.91896],[-1.27831,52.91909],[-1.27859,52.91953],[-1.26523,52.92029],[-1.26272,52.92237],[-1.26048,52.92486],[-1.25762,52.9285],[-1.25701,52.92822],[-1.25827,52.92683],[-1.25857,52.92452],[-1.25851,52.92062]]]}},{"type":"Feature","properties":{"id":"E01028136","name":"E01028136","parent":"E07000172","type":"LSOA","pop":1731,"r":543,"ff":186,"ffd":10745.2,"ffs":0.4973,"g":163,"co":0,"mo":2,"sa":0,"ic":0},"geometry":{"type":"Polygon","coordinates":[[[-1.26008,52.91263],[-1.25915,52.9095],[-1.25844,52.90884],[-1.2593,52.90839],[-1.262,52.90768],[-1.26518,52.90715],[-1.26743,52.90824],[-1.26812,52.90767],[-1.26872,52.90796],[-1.26861,52.90831],[-1.26925,52.90844],[-1.26906,52.90889],[-1.26855,52.90898],[-1.26904,52.90979],[-1.26708,52.90996],[-1.26788,52.91114],[-1.26722,52.91132],[-1.26682,52.91171],[-1.26662,52.91138],[-1.26586,52.91141],[-1.26586,52.91242],[-1.26531,52.91292],[-1.26451,52.9126],[-1.26062,52.91308],[-1.26008,52.91263]]]}},{"type":"Feature","properties":{"id":"E01028137","name":"E01028137","parent":"E07000172","type":"LSOA","pop":2449,"r":454,"ff":154,"ffd":6288.3,"ffs":0.5033,"g":143,"co":0,"mo":2,"sa":0,"ic":0},"geometry":{"type":"Polygon","coordinates":[[[-1.24713,52.90385],[-1.252,52.90309],[-1.25199,52.90341],[-1.24999,52.90427],[-1.25031,52.90482],[-1.24921,52.90517],[-1.24982,52.9052],[-1.25031,52.90564],[-1.24984,52.9058],[-1.25021,52.90616],[-1.24867,52.90668],[-1.25005,52.90824],[-1.25137,52.9106],[-1.25093,52.91094],[-1.24588,52.91165],[-1.24045,52.91285],[-1.23696,52.90607],[-1.23855,52.90546],[-1.24112,52.90508],[-1.24411,52.90413],[-1.24713,52.90385]]]}},{"type":"Feature","properties":{"id":"E01028138","name":"E01028138","parent":"E07000172","type":"LSOA","pop":1226,"r":489,"ff":166,"ffd":13540.0,"ffs":0.5015,"g":153,"co":0,"mo":2,"sa":0,"ic":0},"geometry":{"type":"Polygon","coordinates":[[[-1.25137,52.9106],[-1.25005,52.90824],[-1.24867,52.90668],[-1.25021,52.90616],[-1.24984,52.9058],[-1.25031,52.90564],[-1.24982,52.9052],[-1.24921,52.90517],[-1.25031,52.90482],[-1.24999,52.90427],[-1.25199,52.90341],[-1.252,52.90309],[-1.24713,52.90385],[-1.2465,52.90346],[-1.24662,52.9031],[-1.25081,52.90262],[-1.25133,52.90204],[-1.25342,52.90242],[-1.25402,52.90194],[-1.2567,52.90185],[-1.25575,52.90532],[-1.25715,52.90532],[-1.25777,52.90582],[-1.2572,52.90688],[-1.25722,52.90655],[-1.25498,52.90649],[-1.25486,52.90676],[-1.25381,52.90681],[-1.25345,52.90882],[-1.25431,52.9091],[-1.25455,52.90886],[-1.25628,52.90949],[-1.25137,52.9106]]]}},{"type":"Feature","properties":{"id":"E01028139","name":"E01028139","parent":"E07000172","type":"LSOA","pop":1473,"r":505,"ff":171,"ffd":11609.0,"ffs":0.4971,"g":156,"co":0,"mo":2,"sa":0,"ic":0},"geometry":{"type":"Polygon","coordinates":[[[-1.26872,52.90796],[-1.26812,52.90767],[-1.26743,52.90824],[-1.26518,52.90715],[-1.262,52.90768],[-1.25931,52.90839],[-1.25844,52.90884],[-1.25628,52.90949],[-1.25455,52.90886],[-1.25431,52.9091],[-1.25345,52.90882],[-1.25381,52.90681],[-1.25486,52.90676],[-1.25498,52.90649],[-1.25722,52.90655],[-1.2572,52.90688],[-1.25777,52.90582],[-1.25715,52.90532],[-1.25575,52.90532],[-1.2567,52.90185],[-1.25964,52.90349],[-1.26551,52.9051],[-1.26949,52.90515],[-1.2701,52.90784],[-1.27106,52.90943],[-1.26938,52.90996],[-1.26904,52.90979],[-1.26855,52.90898],[-1.26906,52.90889],[-1.26925,52.90844],[-1.26861,52.90831],[-1.26872,52.90796]]]}},{"type":"Feature","properties":{"id":"E01033412","name":"E01033412","parent":"E07000172","type":"LSOA","pop":2290,"r":579,"ff":197,"ffd":8602.6,"ffs":0.49,"g":171,"co":0,"mo":0,"sa":0,"ic":0},"geometry":{"type":"Polygon","coordinates":[[[-1.28293,52.96733],[-1.27719,52.96666],[-1.27475,52.96713],[-1.27198,52.96682],[-1.26915,52.96764],[-1.26681,52.96671],[-1.26435,52.9679],[-1.25998,52.96615],[-1.25262,52.96705],[-1.25197,52.96548],[-1.25099,52.96461],[-1.24447,52.96777],[-1.24076,52.96305],[-1.24099,52.96242],[-1.24192,52.96215],[-1.24329,52.96091],[-1.24295,52.96081],[-1.24335,52.95952],[-1.24614,52.95508],[-1.24682,52.9531],[-1.24964,52.95206],[-1.25333,52.9502],[-1.25394,52.94943],[-1.25564,52.94901],[-1.25879,52.94691],[-1.26069,52.94615],[-1.26213,52.94604],[-1.26484,52.94636],[-1.26674,52.9451],[-1.26814,52.94464],[-1.27237,52.94419],[-1.28113,52.94081],[-1.28122,52.94113],[-1.28027,52.94162],[-1.2822,52.94439],[-1.28171,52.94505],[-1.2829,52.94516],[-1.28277,52.94556],[-1.2813,52.94663],[-1.28126,52.94721],[-1.28213,52.94764],[-1.28173,52.94867],[-1.28103,52.94916],[-1.28156,52.94934],[-1.2824,52.9502],[-1.28241,52.95124],[-1.28415,52.95253],[-1.28575,52.95285],[-1.28643,52.95386],[-1.28764,52.95449],[-1.28822,52.95452],[-1.289,52.95402],[-1.29011,52.95457],[-1.29083,52.95421],[-1.29185,52.955],[-1.29172,52.95545],[-1.29251,52.95564],[-1.29169,52.95616],[-1.29051,52.95982],[-1.28946,52.96082],[-1.28861,52.96107],[-1.28916,52.96448],[-1.28867,52.96495],[-1.28927,52.96526],[-1.28853,52.96592],[-1.28942,52.96632],[-1.28825,52.96759],[-1.28563,52.9686],[-1.28293,52.96733]]]}},{"type":"Feature","properties":{"id":"E01033413","name":"E01033413","parent":"E07000172","type":"LSOA","pop":2143,"r":399,"ff":138,"ffd":6439.6,"ffs":0.5055,"g":122,"co":0,"mo":0,"sa":0,"ic":0},"geometry":{"type":"Polygon","coordinates":[[[-1.28514,52.99668],[-1.28459,52.99634],[-1.28368,52.99679],[-1.28166,52.99714],[-1.28051,52.9952],[-1.27959,52.99521],[-1.27918,52.99488],[-1.27804,52.99568],[-1.27743,52.99507],[-1.27238,52.99306],[-1.27139,52.99111],[-1.27326,52.99097],[-1.27381,52.99002],[-1.27782,52.98938],[-1.27712,52.9885],[-1.2786,52.98703],[-1.28433,52.98789],[-1.28718,52.98803],[-1.28801,52.98846],[-1.29056,52.98815],[-1.29031,52.98684],[-1.29473,52.9864],[-1.29468,52.98692],[-1.29527,52.98687],[-1.29548,52.98785],[-1.29671,52.98777],[-1.29727,52.98841],[-1.29809,52.98857],[-1.29776,52.98886],[-1.29814,52.98938],[-1.29769,52.98968],[-1.29902,52.98949],[-1.30049,52.99015],[-1.30123,52.99105],[-1.30072,52.99183],[-1.29894,52.99235],[-1.29785,52.99347],[-1.29578,52.99395],[-1.29206,52.99598],[-1.28922,52.99723],[-1.28514,52.99668]]]}}]}