{"type":"FeatureCollection","features":[{"type":"Feature","properties":{"id":"E01026122","name":"E01026122","parent":"E07000138","type":"LSOA","pop":2188,"r":209,"ff":74,"ffd":3382.1,"ffs":0.4837,"g":55,"co":2,"mo":0,"sa":0,"ic":0},"geometry":{"type":"Polygon","coordinates":[[[-0.52436,53.2321],[-0.52712,53.23146],[-0.52894,53.23154],[-0.52895,53.23101],[-0.52936,53.2309],[-0.52947,53.23069],[-0.52916,53.22946],[-0.52986,53.2295],[-0.52991,53.23042],[-0.53041,53.23052],[-0.53074,53.22965],[-0.53041,53.22913],[-0.53238,53.22937],[-0.53387,53.22906],[-0.5334,53.22979],[-0.534,53.23057],[-0.53439,53.23054],[-0.53529,53.22917],[-0.53649,53.22924],[-0.53667,53.22817],[-0.54067,53.22854],[-0.53915,53.2318],[-0.53844,53.23257],[-0.53725,53.23272],[-0.53692,53.2307],[-0.5363,53.23076],[-0.53584,53.23162],[-0.53223,53.23262],[-0.53247,53.23337],[-0.52934,53.23511],[-0.52939,53.23648],[-0.52533,53.23765],[-0.52495,53.23516],[-0.52454,53.23515],[-0.52415,53.23431],[-0.52404,53.2331],[-0.52447,53.23277],[-0.5236,53.23266],[-0.52436,53.2321]]]}},{"type":"Feature","properties":{"id":"E01026123","name":"E01026123","parent":"E07000138","type":"LSOA","pop":2701,"r":201,"ff":70,"ffd":2591.6,"ffs":0.4762,"g":53,"co":3,"mo":0,"sa":0,"ic":0},"geometry":{"type":"Polygon","coordinates":[[[-0.49434,53.24209],[-0.49629,53.24035],[-0.49575,53.24016],[-0.49392,53.2334],[-0.49642,53.23372],[-0.49508,53.2253],[-0.50663,53.22622],[-0.50959,53.22922],[-0.50989,53.23032],[-0.50922,53.23037],[-0.50937,53.23082],[-0.51289,53.23049],[-0.51262,53.23026],[-0.51509,53.23035],[-0.51512,53.23073],[-0.51724,53.23079],[-0.51693,53.23174],[-0.51542,53.23212],[-0.51662,53.23381],[-0.5163,53.23456],[-0.51219,53.23447],[-0.51269,53.23549],[-0.51291,53.23794],[-0.51369,53.23786],[-0.51472,53.23958],[-0.51628,53.23935],[-0.5172,53.24038],[-0.51082,53.24244],[-0.51011,53.24179],[-0.50852,53.24195],[-0.50821,53.24092],[-0.50728,53.24057],[-0.50301,53.24234],[-0.50153,53.24189],[-0.49581,53.24382],[-0.49434,53.24209]]]}},{"type":"Feature","properties":{"id":"E01026124","name":"E01026124","parent":"E07000138","type":"LSOA","pop":1994,"r":207,"ff":72,"ffd":3610.8,"ffs":0.4768,"g":55,"co":2,"mo":0,"sa":0,"ic":0},"geometry":{"type":"Polygon","coordinates":[[[-0.51813,53.23074],[-0.51512,53.23073],[-0.51509,53.23035],[-0.51262,53.23026],[-0.51289,53.23049],[-0.50937,53.23082],[-0.50922,53.23037],[-0.50989,53.23032],[-0.50959,53.22922],[-0.50663,53.22622],[-0.51737,53.22775],[-0.5195,53.22756],[-0.51999,53.22949],[-0.52126,53.22938],[-0.52129,53.2296],[-0.52196,53.22961],[-0.52198,53.22936],[-0.52556,53.22936],[-0.52566,53.23075],[-0.5278,53.23064],[-0.52712,53.23146],[-0.52436,53.2321],[-0.5236,53.23266],[-0.52226,53.2327],[-0.52228,53.23241],[-0.52168,53.23234],[-0.52193,53.23103],[-0.51813,53.23074]]]}},{"type":"Feature","properties":{"id":"E01026125","name":"E01026125","parent":"E07000138","type":"LSOA","pop":1343,"r":206,"ff":71,"ffd":5286.7,"ffs":0.4733,"g":55,"co":2,"mo":0,"sa":0,"ic":0},"geometry":{"type":"Polygon","coordinates":[[[-0.5172,53.24038],[-0.51628,53.23935],[-0.51472,53.23958],[-0.51369,53.23786],[-0.51291,53.23794],[-0.51269,53.23549],[-0.51219,53.23447],[-0.5163,53.23456],[-0.51662,53.23381],[-0.51542,53.23212],[-0.51693,53.23174],[-0.51724,53.23079],[-0.51774,53.23067],[-0.52193,53.23103],[-0.52168,53.23234],[-0.52228,53.23241],[-0.52226,53.2327],[-0.52447,53.23277],[-0.52404,53.2331],[-0.52415,53.23431],[-0.52454,53.23515],[-0.52495,53.23516],[-0.52533,53.23765],[-0.5172,53.24038]]]}},{"type":"Feature","properties":{"id":"E01026126","name":"E01026126","parent":"E07000138","type":"LSOA","pop":2100,"r":206,"ff":73,"ffd":3476.2,"ffs":0.4834,"g":54,"co":2,"mo":0,"sa":0,"ic":0},"geometry":{"type":"Polygon","coordinates":[[[-0.52712,53.23146],[-0.5278,53.23064],[-0.52566,53.23075],[-0.52556,53.22936],[-0.52198,53.22936],[-0.52196,53.22961],[-0.52129,53.2296],[-0.52126,53.22938],[-0.51999,53.22949],[-0.5195,53.22756],[-0.52415,53.22685],[-0.53201,53.22813],[-0.53667,53.22817],[-0.53649,53.22924],[-0.53529,53.22917],[-0.53439,53.23054],[-0.534,53.23057],[-0.5334,53.22979],[-0.53387,53.22906],[-0.53238,53.22937],[-0.53041,53.22913],[-0.53074,53.22965],[-0.53041,53.23052],[-0.52991,53.23042],[-0.52986,53.2295],[-0.52916,53.22946],[-0.52947,53.23069],[-0.52936,53.2309],[-0.52895,53.23101],[-0.52894,53.23154],[-0.52712,53.23146]]]}},{"type":"Feature","properties":{"id":"E01026127","name":"E01026127","parent":"E07000138","type":"LSOA","pop":1392,"r":216,"ff":75,"ffd":5387.9,"ffs":0.4688,"g":55,"co":2,"mo":0,"sa":0,"ic":0},"geometry":{"type":"Polygon","coordinates":[[[-0.60421,53.22183],[-0.60314,53.22146],[-0.6022,53.22169],[-0.60173,53.22143],[-0.60164,53.2208],[-0.60197,53.22064],[-0.60176,53.22029],[-0.60447,53.2186],[-0.6054,53.21862],[-0.6056,53.2182],[-0.60426,53.2178],[-0.60614,53.21714],[-0.60661,53.21542],[-0.60827,53.21604],[-0.6078,53.21763],[-0.60875,53.21866],[-0.60786,53.21917],[-0.60798,53.2195],[-0.61186,53.21769],[-0.61293,53.21885],[-0.60856,53.22055],[-0.60724,53.21986],[-0.60641,53.21987],[-0.60701,53.22057],[-0.60677,53.22092],[-0.60569,53.22047],[-0.60552,53.22075],[-0.60456,53.22116],[-0.60421,53.22183]]]}},{"type":"Feature","properties":{"id":"E01026129","name":"E01026129","parent":"E07000138","type":"LSOA","pop":1722,"r":210,"ff":73,"ffd":4239.3,"ffs":0.474,"g":55,"co":2,"mo":0,"sa":0,"ic":0},"geometry":{"type":"Polygon","coordinates":[[[-0.60923,53.22301],[-0.60857,53.22245],[-0.60689,53.22403],[-0.60385,53.22257],[-0.60555,53.22165],[-0.60589,53.22086],[-0.60552,53.22075],[-0.60569,53.22047],[-0.60677,53.22092],[-0.60701,53.22057],[-0.60641,53.21987],[-0.60724,53.21986],[-0.60856,53.22055],[-0.61293,53.21885],[-0.61186,53.21769],[-0.61034,53.21827],[-0.61037,53.21798],[-0.60983,53.21822],[-0.60846,53.21708],[-0.61064,53.21607],[-0.6077,53.21433],[-0.60929,53.21341],[-0.6089,53.21371],[-0.60941,53.2141],[-0.61001,53.21384],[-0.6105,53.21418],[-0.61002,53.21448],[-0.61109,53.21508],[-0.61188,53.21493],[-0.61217,53.2151],[-0.61178,53.21538],[-0.61265,53.216],[-0.61319,53.21578],[-0.61269,53.21543],[-0.61318,53.21518],[-0.61389,53.21594],[-0.61482,53.21593],[-0.6151,53.21701],[-0.61573,53.21738],[-0.61739,53.21758],[-0.61616,53.21924],[-0.61705,53.22086],[-0.61563,53.22125],[-0.61532,53.22199],[-0.61047,53.2241],[-0.60923,53.22301]]]}},{"type":"Feature","properties":{"id":"E01026130","name":"E01026130","parent":"E07000138","type":"LSOA","pop":1453,"r":222,"ff":80,"ffd":5505.8,"ffs":0.4819,"g":55,"co":2,"mo":0,"sa":0,"ic":0},"geometry":{"type":"Polygon","coordinates":[[[-0.59335,53.22638],[-0.58796,53.22171],[-0.58412,53.21929],[-0.5854,53.21827],[-0.58516,53.21786],[-0.59249,53.22227],[-0.59375,53.22225],[-0.59481,53.22159],[-0.59516,53.22189],[-0.59624,53.22173],[-0.59823,53.22229],[-0.59727,53.22321],[-0.59828,53.22521],[-0.59877,53.22462],[-0.60071,53.22505],[-0.60092,53.22429],[-0.6021,53.22414],[-0.60273,53.22374],[-0.60246,53.22297],[-0.60123,53.22275],[-0.60094,53.22219],[-0.60003,53.22231],[-0.60048,53.22153],[-0.60144,53.22164],[-0.60173,53.22143],[-0.6022,53.22169],[-0.60314,53.22146],[-0.60421,53.22183],[-0.60456,53.22116],[-0.60552,53.22075],[-0.60589,53.22086],[-0.60555,53.22165],[-0.60385,53.22257],[-0.60689,53.22403],[-0.60594,53.2245],[-0.60337,53.22512],[-0.59648,53.22935],[-0.59335,53.22638]]]}},{"type":"Feature","properties":{"id":"E01026131","name":"E01026131","parent":"E07000138","type":"LSOA","pop":1365,"r":221,"ff":79,"ffd":5787.5,"ffs":0.4788,"g":55,"co":2,"mo":0,"sa":0,"ic":0},"geometry":{"type":"Polygon","coordinates":[[[-0.59828,53.22521],[-0.59727,53.22321],[-0.59823,53.22229],[-0.59624,53.22173],[-0.59516,53.22189],[-0.59481,53.22159],[-0.59375,53.22225],[-0.59238,53.22221],[-0.6011,53.21808],[-0.60212,53.21712],[-0.60307,53.2152],[-0.60464,53.21575],[-0.60636,53.21667],[-0.60614,53.21714],[-0.60426,53.2178],[-0.6056,53.2182],[-0.6054,53.21862],[-0.60447,53.2186],[-0.60176,53.22029],[-0.60197,53.22064],[-0.60164,53.2208],[-0.60173,53.22143],[-0.60144,53.22164],[-0.60048,53.22153],[-0.60003,53.22231],[-0.60094,53.22219],[-0.60123,53.22275],[-0.60246,53.22297],[-0.60273,53.22374],[-0.6021,53.22414],[-0.60092,53.22429],[-0.60071,53.22505],[-0.59877,53.22462],[-0.59828,53.22521]]]}},{"type":"Feature","properties":{"id":"E01026132","name":"E01026132","parent":"E07000138","type":"LSOA","pop":4192,"r":221,"ff":77,"ffd":1836.8,"ffs":0.4695,"g":56,"co":2,"mo":0,"sa":0,"ic":0},"geometry":{"type":"Polygon","coordinates":[[[-0.5553,53.2309],[-0.55053,53.23041],[-0.54819,53.2296],[-0.54506,53.22817],[-0.54272,53.22855],[-0.54067,53.22854],[-0.54425,53.22221],[-0.54465,53.22103],[-0.54532,53.22108],[-0.5454,53.22081],[-0.54752,53.22109],[-0.54782,53.22088],[-0.54948,53.22152],[-0.54972,53.22068],[-0.54994,53.22071],[-0.55227,53.22151],[-0.55102,53.22242],[-0.55115,53.2229],[-0.55081,53.22283],[-0.55007,53.22426],[-0.5515,53.22522],[-0.55172,53.22509],[-0.55199,53.2253],[-0.55056,53.22606],[-0.55075,53.22865],[-0.55058,53.22904],[-0.55972,53.23082],[-0.56071,53.23071],[-0.56215,53.23012],[-0.56309,53.22923],[-0.56304,53.22831],[-0.56147,53.22634],[-0.56365,53.22648],[-0.56757,53.22613],[-0.56987,53.22642],[-0.57263,53.22791],[-0.57036,53.22946],[-0.57073,53.22961],[-0.57236,53.23545],[-0.5722,53.23645],[-0.57084,53.23566],[-0.5691,53.23413],[-0.56196,53.23215],[-0.5553,53.2309]]]}},{"type":"Feature","properties":{"id":"E01026134","name":"E01026134","parent":"E07000138","type":"LSOA","pop":2030,"r":220,"ff":77,"ffd":3793.1,"ffs":0.4724,"g":56,"co":2,"mo":0,"sa":0,"ic":0},"geometry":{"type":"Polygon","coordinates":[[[-0.54662,53.21403],[-0.54729,53.212],[-0.54963,53.21223],[-0.54967,53.21285],[-0.55129,53.21238],[-0.5519,53.21333],[-0.55197,53.21386],[-0.55035,53.21412],[-0.54988,53.21613],[-0.54915,53.21774],[-0.5492,53.21843],[-0.54582,53.21839],[-0.54583,53.21884],[-0.54522,53.2188],[-0.54662,53.21403]]]}},{"type":"Feature","properties":{"id":"E01026135","name":"E01026135","parent":"E07000138","type":"LSOA","pop":1767,"r":215,"ff":76,"ffd":4301.1,"ffs":0.472,"g":53,"co":2,"mo":0,"sa":0,"ic":0},"geometry":{"type":"Polygon","coordinates":[[[-0.55358,53.21694],[-0.54974,53.21647],[-0.55035,53.21412],[-0.55197,53.21386],[-0.5519,53.21333],[-0.55129,53.21238],[-0.54967,53.21285],[-0.54963,53.21223],[-0.55047,53.21152],[-0.55177,53.21109],[-0.55316,53.21034],[-0.55371,53.20942],[-0.55288,53.20854],[-0.55568,53.20761],[-0.5597,53.2058],[-0.56078,53.20576],[-0.56196,53.20777],[-0.5627,53.21027],[-0.5666,53.21109],[-0.56457,53.21198],[-0.56222,53.21159],[-0.56177,53.21203],[-0.56219,53.21242],[-0.56136,53.21248],[-0.56169,53.21205],[-0.56109,53.2118],[-0.5592,53.21356],[-0.56122,53.21449],[-0.56148,53.21535],[-0.563,53.21591],[-0.56203,53.21648],[-0.56216,53.21593],[-0.56135,53.2158],[-0.56097,53.21713],[-0.55809,53.2167],[-0.55788,53.217],[-0.55536,53.21665],[-0.555,53.21759],[-0.55429,53.21758],[-0.55373,53.21749],[-0.55358,53.21694]]]}},{"type":"Feature","properties":{"id":"E01026136","name":"E01026136","parent":"E07000138","type":"LSOA","pop":1815,"r":219,"ff":77,"ffd":4242.4,"ffs":0.4724,"g":55,"co":2,"mo":0,"sa":0,"ic":0},"geometry":{"type":"Polygon","coordinates":[[[-0.571,53.21447],[-0.56966,53.21379],[-0.56455,53.21743],[-0.56476,53.21682],[-0.56306,53.21752],[-0.56097,53.21713],[-0.56135,53.2158],[-0.56216,53.21593],[-0.56203,53.21648],[-0.563,53.21591],[-0.56148,53.21535],[-0.56122,53.21449],[-0.5592,53.21356],[-0.56109,53.2118],[-0.56169,53.21205],[-0.56136,53.21248],[-0.56219,53.21242],[-0.56177,53.21203],[-0.56222,53.21159],[-0.56457,53.21198],[-0.5666,53.21109],[-0.5762,53.21285],[-0.58516,53.21786],[-0.5854,53.21827],[-0.58412,53.21929],[-0.58796,53.22171],[-0.59504,53.22785],[-0.59251,53.2287],[-0.57884,53.2306],[-0.57548,53.23164],[-0.57036,53.22946],[-0.57263,53.22791],[-0.56987,53.22642],[-0.56964,53.2187],[-0.571,53.21447]]]}},{"type":"Feature","properties":{"id":"E01026137","name":"E01026137","parent":"E07000138","type":"LSOA","pop":1129,"r":211,"ff":75,"ffd":6643.0,"ffs":0.4777,"g":53,"co":2,"mo":2,"sa":0,"ic":0},"geometry":{"type":"Polygon","coordinates":[[[-0.55251,53.19967],[-0.5514,53.19795],[-0.55022,53.19795],[-0.55027,53.19759],[-0.54948,53.19745],[-0.55141,53.19102],[-0.55307,53.19124],[-0.55315,53.19061],[-0.55515,53.19058],[-0.55626,53.19094],[-0.55311,53.19444],[-0.5524,53.19546],[-0.55211,53.19639],[-0.55281,53.19652],[-0.55269,53.19751],[-0.55378,53.19954],[-0.55251,53.19967]]]}},{"type":"Feature","properties":{"id":"E01026138","name":"E01026138","parent":"E07000138","type":"LSOA","pop":1387,"r":206,"ff":74,"ffd":5335.3,"ffs":0.4868,"g":53,"co":2,"mo":2,"sa":0,"ic":0},"geometry":{"type":"Polygon","coordinates":[[[-0.5524,53.19546],[-0.55311,53.19444],[-0.55662,53.19049],[-0.55714,53.19094],[-0.55772,53.19038],[-0.55737,53.19021],[-0.55764,53.18982],[-0.55987,53.18984],[-0.55982,53.18896],[-0.56039,53.18878],[-0.56025,53.18853],[-0.55779,53.18795],[-0.55861,53.18645],[-0.56501,53.18714],[-0.56371,53.19029],[-0.56394,53.19092],[-0.56424,53.19362],[-0.56251,53.1939],[-0.56204,53.1944],[-0.55974,53.19524],[-0.55731,53.19461],[-0.5565,53.19475],[-0.55689,53.19501],[-0.55658,53.19522],[-0.55618,53.19504],[-0.55591,53.19524],[-0.55475,53.195],[-0.55511,53.19449],[-0.55459,53.1944],[-0.5541,53.19505],[-0.55345,53.195],[-0.55318,53.1953],[-0.55323,53.1962],[-0.55226,53.19584],[-0.5524,53.19546]]]}},{"type":"Feature","properties":{"id":"E01026139","name":"E01026139","parent":"E07000138","type":"LSOA","pop":1318,"r":208,"ff":76,"ffd":5766.3,"ffs":0.4935,"g":53,"co":0,"mo":0,"sa":0,"ic":0},"geometry":{"type":"Polygon","coordinates":[[[-0.56645,53.19476],[-0.56459,53.19351],[-0.56424,53.19362],[-0.56394,53.19092],[-0.56371,53.19029],[-0.56501,53.18714],[-0.57448,53.19158],[-0.57409,53.19185],[-0.57499,53.19231],[-0.57434,53.19305],[-0.57505,53.19341],[-0.57422,53.19382],[-0.5781,53.19575],[-0.57084,53.19878],[-0.56616,53.19645],[-0.56591,53.19572],[-0.56645,53.19476]]]}},{"type":"Feature","properties":{"id":"E01026140","name":"E01026140","parent":"E07000138","type":"LSOA","pop":1315,"r":205,"ff":73,"ffd":5551.3,"ffs":0.4834,"g":53,"co":2,"mo":2,"sa":0,"ic":0},"geometry":{"type":"Polygon","coordinates":[[[-0.55141,53.19102],[-0.55286,53.18628],[-0.55861,53.18645],[-0.55779,53.18795],[-0.56025,53.18853],[-0.56039,53.18878],[-0.55982,53.18896],[-0.55987,53.18984],[-0.55764,53.18982],[-0.55737,53.19021],[-0.55772,53.19038],[-0.55714,53.19094],[-0.55662,53.19049],[-0.55626,53.19094],[-0.55515,53.19058],[-0.55315,53.19061],[-0.55307,53.19124],[-0.55141,53.19102]]]}},{"type":"Feature","properties":{"id":"E01026141","name":"E01026141","parent":"E07000138","type":"LSOA","pop":1483,"r":212,"ff":76,"ffd":5124.7,"ffs":0.481,"g":53,"co":0,"mo":0,"sa":0,"ic":0},"geometry":{"type":"Polygon","coordinates":[[[-0.56424,53.19362],[-0.56459,53.19351],[-0.56645,53.19476],[-0.56591,53.19572],[-0.56616,53.19645],[-0.57084,53.19878],[-0.56892,53.19963],[-0.56531,53.20081],[-0.55777,53.20207],[-0.55517,53.20201],[-0.55781,53.1987],[-0.55813,53.19767],[-0.55941,53.19649],[-0.55883,53.19631],[-0.55946,53.19545],[-0.56204,53.1944],[-0.56251,53.1939],[-0.56424,53.19362]]]}},{"type":"Feature","properties":{"id":"E01026142","name":"E01026142","parent":"E07000138","type":"LSOA","pop":1233,"r":215,"ff":77,"ffd":6244.9,"ffs":0.4783,"g":53,"co":2,"mo":0,"sa":0,"ic":0},"geometry":{"type":"Polygon","coordinates":[[[-0.55351,53.20201],[-0.5531,53.20164],[-0.54918,53.20112],[-0.54948,53.19745],[-0.55027,53.19759],[-0.55022,53.19795],[-0.5514,53.19795],[-0.55251,53.19967],[-0.55378,53.19954],[-0.55269,53.19751],[-0.55281,53.19652],[-0.55211,53.19639],[-0.55226,53.19584],[-0.55323,53.1962],[-0.55318,53.1953],[-0.55345,53.195],[-0.5541,53.19505],[-0.55459,53.1944],[-0.55511,53.19449],[-0.55475,53.195],[-0.55591,53.19524],[-0.55618,53.19504],[-0.55658,53.19522],[-0.55689,53.19501],[-0.5565,53.19475],[-0.55731,53.19461],[-0.55974,53.19524],[-0.55883,53.19631],[-0.55941,53.19649],[-0.55813,53.19767],[-0.55781,53.1987],[-0.55517,53.20201],[-0.55351,53.20201]]]}},{"type":"Feature","properties":{"id":"E01026144","name":"E01026144","parent":"E07000138","type":"LSOA","pop":2159,"r":217,"ff":78,"ffd":3612.8,"ffs":0.4845,"g":55,"co":2,"mo":0,"sa":0,"ic":0},"geometry":{"type":"Polygon","coordinates":[[[-0.55408,53.23566],[-0.5536,53.23534],[-0.55387,53.23509],[-0.55524,53.23546],[-0.55476,53.23485],[-0.55161,53.23386],[-0.55191,53.23297],[-0.55202,53.23285],[-0.55371,53.2334],[-0.5536,53.23306],[-0.55265,53.23276],[-0.55276,53.23248],[-0.55425,53.23324],[-0.55459,53.23302],[-0.55452,53.23258],[-0.55554,53.23292],[-0.55676,53.23115],[-0.56196,53.23215],[-0.5691,53.23413],[-0.57084,53.23566],[-0.56914,53.23778],[-0.55276,53.23794],[-0.55146,53.23765],[-0.55065,53.23697],[-0.55186,53.2367],[-0.55241,53.23592],[-0.55408,53.23566]]]}},{"type":"Feature","properties":{"id":"E01026145","name":"E01026145","parent":"E07000138","type":"LSOA","pop":1594,"r":217,"ff":78,"ffd":4893.4,"ffs":0.4845,"g":55,"co":2,"mo":0,"sa":0,"ic":0},"geometry":{"type":"Polygon","coordinates":[[[-0.54522,53.23754],[-0.54467,53.23732],[-0.54389,53.23774],[-0.54291,53.2363],[-0.54305,53.23407],[-0.54463,53.23452],[-0.54654,53.23561],[-0.54598,53.23515],[-0.54713,53.23421],[-0.54828,53.23496],[-0.55007,53.23491],[-0.551,53.23396],[-0.55014,53.23361],[-0.55085,53.23348],[-0.55126,53.23299],[-0.55191,53.23297],[-0.55161,53.23386],[-0.55476,53.23485],[-0.55524,53.23546],[-0.55387,53.23509],[-0.5536,53.23534],[-0.55408,53.23566],[-0.55241,53.23592],[-0.55186,53.2367],[-0.54854,53.23762],[-0.54798,53.23798],[-0.54685,53.23755],[-0.54631,53.23769],[-0.54689,53.2383],[-0.54655,53.23866],[-0.54555,53.23854],[-0.54522,53.23754]]]}},{"type":"Feature","properties":{"id":"E01026146","name":"E01026146","parent":"E07000138","type":"LSOA","pop":1878,"r":218,"ff":78,"ffd":4153.4,"ffs":0.4815,"g":55,"co":2,"mo":0,"sa":0,"ic":0},"geometry":{"type":"Polygon","coordinates":[[[-0.5479,53.23286],[-0.54889,53.23208],[-0.54732,53.23172],[-0.54693,53.23112],[-0.54842,53.23054],[-0.54778,53.22984],[-0.54819,53.2296],[-0.55053,53.23041],[-0.55676,53.23115],[-0.55554,53.23292],[-0.55452,53.23258],[-0.55459,53.23302],[-0.55425,53.23324],[-0.55276,53.23248],[-0.55265,53.23276],[-0.5536,53.23306],[-0.55371,53.2334],[-0.55202,53.23285],[-0.55126,53.23299],[-0.55085,53.23348],[-0.55014,53.23361],[-0.5479,53.23286]]]}},{"type":"Feature","properties":{"id":"E01026147","name":"E01026147","parent":"E07000138","type":"LSOA","pop":2532,"r":214,"ff":78,"ffd":3080.6,"ffs":0.4937,"g":55,"co":2,"mo":0,"sa":0,"ic":0},"geometry":{"type":"Polygon","coordinates":[[[-0.54469,53.2388],[-0.54389,53.23774],[-0.54467,53.23732],[-0.54522,53.23754],[-0.54555,53.23854],[-0.54655,53.23866],[-0.54689,53.2383],[-0.54631,53.23769],[-0.54685,53.23755],[-0.54798,53.23798],[-0.54854,53.23762],[-0.55065,53.23697],[-0.55146,53.23765],[-0.55276,53.23794],[-0.56914,53.23778],[-0.57084,53.23566],[-0.5722,53.23645],[-0.59511,53.24517],[-0.57223,53.2494],[-0.5569,53.25196],[-0.55466,53.25215],[-0.54835,53.24363],[-0.54701,53.24207],[-0.54654,53.24182],[-0.54657,53.24139],[-0.54469,53.2388]]]}},{"type":"Feature","properties":{"id":"E01026148","name":"E01026148","parent":"E07000138","type":"LSOA","pop":1891,"r":211,"ff":74,"ffd":3913.3,"ffs":0.4774,"g":55,"co":2,"mo":0,"sa":0,"ic":0},"geometry":{"type":"Polygon","coordinates":[[[-0.54181,53.24091],[-0.54175,53.23985],[-0.54051,53.23989],[-0.54055,53.24052],[-0.53873,53.24038],[-0.53848,53.24068],[-0.53813,53.24064],[-0.53816,53.23712],[-0.53846,53.23469],[-0.53878,53.2337],[-0.54305,53.23407],[-0.54291,53.2363],[-0.54598,53.24053],[-0.54513,53.2401],[-0.54414,53.24069],[-0.54181,53.24091]]]}},{"type":"Feature","properties":{"id":"E01026149","name":"E01026149","parent":"E07000138","type":"LSOA","pop":1674,"r":209,"ff":74,"ffd":4420.5,"ffs":0.4837,"g":55,"co":2,"mo":0,"sa":0,"ic":0},"geometry":{"type":"Polygon","coordinates":[[[-0.54835,53.25325],[-0.54811,53.25266],[-0.54679,53.2527],[-0.54705,53.25149],[-0.54631,53.2508],[-0.54603,53.24915],[-0.54653,53.24898],[-0.5449,53.24869],[-0.54456,53.2478],[-0.5466,53.24653],[-0.54809,53.2464],[-0.54955,53.24523],[-0.55466,53.25215],[-0.54835,53.25325]]]}},{"type":"Feature","properties":{"id":"E01026150","name":"E01026150","parent":"E07000138","type":"LSOA","pop":1803,"r":212,"ff":76,"ffd":4215.2,"ffs":0.4872,"g":55,"co":2,"mo":0,"sa":0,"ic":0},"geometry":{"type":"Polygon","coordinates":[[[-0.53858,53.25456],[-0.53821,53.24867],[-0.54205,53.24825],[-0.5424,53.2487],[-0.54214,53.24929],[-0.54341,53.2491],[-0.54321,53.2487],[-0.54463,53.24824],[-0.5449,53.24869],[-0.54653,53.24898],[-0.54603,53.24915],[-0.54631,53.2508],[-0.54705,53.25149],[-0.54679,53.2527],[-0.54811,53.25266],[-0.54835,53.25325],[-0.54495,53.25387],[-0.53858,53.25456]]]}},{"type":"Feature","properties":{"id":"E01026151","name":"E01026151","parent":"E07000138","type":"LSOA","pop":2147,"r":81,"ff":20,"ffd":931.5,"ffs":0.4348,"g":34,"co":3,"mo":0,"sa":0,"ic":0},"geometry":{"type":"Polygon","coordinates":[[[-0.5424,53.2487],[-0.54205,53.24825],[-0.53821,53.24867],[-0.53794,53.2449],[-0.53813,53.24064],[-0.53848,53.24068],[-0.53873,53.24038],[-0.54055,53.24052],[-0.54051,53.23989],[-0.54175,53.23985],[-0.54181,53.24091],[-0.54414,53.24069],[-0.54513,53.2401],[-0.54598,53.24053],[-0.54657,53.24139],[-0.54654,53.24182],[-0.54701,53.24207],[-0.54955,53.24523],[-0.54809,53.2464],[-0.5466,53.24653],[-0.54456,53.2478],[-0.54463,53.24824],[-0.54321,53.2487],[-0.54341,53.2491],[-0.54214,53.24929],[-0.5424,53.2487]]]}},{"type":"Feature","properties":{"id":"E01026152","name":"E01026152","parent":"E07000138","type":"LSOA","pop":1640,"r":204,"ff":70,"ffd":4268.3,"ffs":0.473,"g":55,"co":3,"mo":0,"sa":0,"ic":0},"geometry":{"type":"Polygon","coordinates":[[[-0.51947,53.2478],[-0.51902,53.24733],[-0.51831,53.2474],[-0.51722,53.24672],[-0.5164,53.24669],[-0.51633,53.24721],[-0.51537,53.24719],[-0.51521,53.24776],[-0.51129,53.24778],[-0.51196,53.24651],[-0.51158,53.24595],[-0.51194,53.24579],[-0.51178,53.2449],[-0.51074,53.24382],[-0.51152,53.24357],[-0.51037,53.24315],[-0.51087,53.24278],[-0.51147,53.2427],[-0.51235,53.24331],[-0.51305,53.24432],[-0.51289,53.24486],[-0.51348,53.24502],[-0.51472,53.2445],[-0.51731,53.24623],[-0.51871,53.24552],[-0.51766,53.24505],[-0.51755,53.24464],[-0.51781,53.24443],[-0.52147,53.2447],[-0.52232,53.24523],[-0.52244,53.24585],[-0.52151,53.24663],[-0.52114,53.24632],[-0.52034,53.24695],[-0.52129,53.24682],[-0.52143,53.24738],[-0.51957,53.24901],[-0.51865,53.24915],[-0.5186,53.24857],[-0.51947,53.2478]]]}},{"type":"Feature","properties":{"id":"E01026153","name":"E01026153","parent":"E07000138","type":"LSOA","pop":2611,"r":198,"ff":68,"ffd":2604.4,"ffs":0.4722,"g":53,"co":3,"mo":0,"sa":0,"ic":0},"geometry":{"type":"Polygon","coordinates":[[[-0.51143,53.2505],[-0.50957,53.24934],[-0.5076,53.24996],[-0.50651,53.24944],[-0.50708,53.24885],[-0.50618,53.24878],[-0.50625,53.24851],[-0.50701,53.24782],[-0.50483,53.24714],[-0.50521,53.24674],[-0.50486,53.24617],[-0.50446,53.24628],[-0.50416,53.246],[-0.50354,53.2466],[-0.50282,53.24654],[-0.50178,53.24714],[-0.50074,53.24711],[-0.50056,53.24685],[-0.50014,53.24706],[-0.49988,53.24605],[-0.50058,53.24587],[-0.50031,53.24558],[-0.50089,53.2452],[-0.49994,53.24478],[-0.4998,53.24252],[-0.50153,53.24189],[-0.50301,53.24234],[-0.50728,53.24057],[-0.50821,53.24092],[-0.50852,53.24195],[-0.51011,53.24179],[-0.51082,53.24244],[-0.51087,53.24278],[-0.51037,53.24315],[-0.51152,53.24357],[-0.51074,53.24382],[-0.51178,53.2449],[-0.51194,53.24579],[-0.51158,53.24595],[-0.51196,53.24651],[-0.51115,53.24789],[-0.51189,53.25003],[-0.51143,53.2505]]]}},{"type":"Feature","properties":{"id":"E01026154","name":"E01026154","parent":"E07000138","type":"LSOA","pop":1383,"r":204,"ff":70,"ffd":5061.5,"ffs":0.473,"g":55,"co":3,"mo":0,"sa":0,"ic":0},"geometry":{"type":"Polygon","coordinates":[[[-0.51704,53.24602],[-0.51472,53.2445],[-0.51348,53.24502],[-0.51289,53.24486],[-0.51305,53.24432],[-0.51235,53.24331],[-0.51147,53.2427],[-0.51087,53.24278],[-0.51082,53.24244],[-0.52316,53.23842],[-0.525,53.24049],[-0.52356,53.24103],[-0.52087,53.24115],[-0.52042,53.24223],[-0.51856,53.24291],[-0.51931,53.24361],[-0.51843,53.24382],[-0.51755,53.24464],[-0.51766,53.24505],[-0.51871,53.24552],[-0.51731,53.24623],[-0.51704,53.24602]]]}},{"type":"Feature","properties":{"id":"E01026155","name":"E01026155","parent":"E07000138","type":"LSOA","pop":1766,"r":199,"ff":68,"ffd":3850.5,"ffs":0.4755,"g":55,"co":3,"mo":0,"sa":0,"ic":0},"geometry":{"type":"Polygon","coordinates":[[[-0.50189,53.24994],[-0.50059,53.24826],[-0.4976,53.24921],[-0.49601,53.24719],[-0.49543,53.24442],[-0.49581,53.24382],[-0.4998,53.24252],[-0.49994,53.24478],[-0.50089,53.2452],[-0.50031,53.24558],[-0.50058,53.24587],[-0.49988,53.24605],[-0.50014,53.24706],[-0.50056,53.24685],[-0.50074,53.24711],[-0.50178,53.24714],[-0.50282,53.24654],[-0.50354,53.2466],[-0.50416,53.246],[-0.50446,53.24628],[-0.50486,53.24617],[-0.50521,53.24674],[-0.50483,53.24714],[-0.50701,53.24782],[-0.50625,53.24851],[-0.50618,53.24878],[-0.50708,53.24885],[-0.50651,53.24944],[-0.5076,53.24996],[-0.50711,53.25037],[-0.50621,53.24992],[-0.50244,53.25059],[-0.50189,53.24994]]]}},{"type":"Feature","properties":{"id":"E01026156","name":"E01026156","parent":"E07000138","type":"LSOA","pop":1317,"r":207,"ff":70,"ffd":5315.1,"ffs":0.4636,"g":55,"co":2,"mo":0,"sa":0,"ic":0},"geometry":{"type":"Polygon","coordinates":[[[-0.52143,53.24738],[-0.52129,53.24682],[-0.52034,53.24695],[-0.52114,53.24632],[-0.52151,53.24663],[-0.52244,53.24585],[-0.52232,53.24523],[-0.52147,53.2447],[-0.51781,53.24443],[-0.51843,53.24382],[-0.51931,53.24361],[-0.51856,53.24291],[-0.52042,53.24223],[-0.52087,53.24115],[-0.52356,53.24103],[-0.525,53.24049],[-0.52573,53.24153],[-0.52733,53.24293],[-0.52237,53.24726],[-0.52191,53.24707],[-0.52143,53.24738]]]}},{"type":"Feature","properties":{"id":"E01026157","name":"E01026157","parent":"E07000138","type":"LSOA","pop":1484,"r":204,"ff":70,"ffd":4717.0,"ffs":0.473,"g":55,"co":3,"mo":0,"sa":0,"ic":0},"geometry":{"type":"Polygon","coordinates":[[[-0.50885,53.25122],[-0.50711,53.25037],[-0.5076,53.24996],[-0.50957,53.24934],[-0.51143,53.2505],[-0.51189,53.25003],[-0.51115,53.24789],[-0.51129,53.24778],[-0.51521,53.24776],[-0.51537,53.24719],[-0.51633,53.24721],[-0.5164,53.24669],[-0.51722,53.24672],[-0.51831,53.2474],[-0.51902,53.24733],[-0.51947,53.2478],[-0.5186,53.24857],[-0.51865,53.24915],[-0.51957,53.24901],[-0.52191,53.24707],[-0.52237,53.24726],[-0.51746,53.25143],[-0.51409,53.2538],[-0.50885,53.25122]]]}},{"type":"Feature","properties":{"id":"E01026158","name":"E01026158","parent":"E07000138","type":"LSOA","pop":1401,"r":215,"ff":76,"ffd":5424.7,"ffs":0.478,"g":55,"co":2,"mo":0,"sa":0,"ic":0},"geometry":{"type":"Polygon","coordinates":[[[-0.59198,53.222],[-0.58074,53.21529],[-0.58204,53.21535],[-0.58321,53.21484],[-0.58568,53.21181],[-0.5886,53.21043],[-0.59046,53.20821],[-0.59341,53.20827],[-0.59268,53.20937],[-0.59435,53.21056],[-0.59539,53.20917],[-0.59595,53.20933],[-0.59504,53.21077],[-0.59416,53.21085],[-0.59359,53.21165],[-0.59437,53.21122],[-0.59528,53.21183],[-0.59523,53.21209],[-0.5968,53.21211],[-0.59688,53.21265],[-0.59664,53.21308],[-0.59572,53.21338],[-0.59568,53.21398],[-0.59523,53.214],[-0.59584,53.21431],[-0.5944,53.21528],[-0.59381,53.2153],[-0.59336,53.21297],[-0.59269,53.21294],[-0.5931,53.21391],[-0.59153,53.21456],[-0.5914,53.21521],[-0.59157,53.21551],[-0.59215,53.21552],[-0.59217,53.21589],[-0.59186,53.21628],[-0.59142,53.21623],[-0.59266,53.21679],[-0.59301,53.2165],[-0.59326,53.21685],[-0.59233,53.21704],[-0.5916,53.21764],[-0.59283,53.21771],[-0.59291,53.21869],[-0.59576,53.2186],[-0.59566,53.21918],[-0.59625,53.21917],[-0.59694,53.21827],[-0.59995,53.21804],[-0.60065,53.21836],[-0.59238,53.22221],[-0.59198,53.222]]]}},{"type":"Feature","properties":{"id":"E01026159","name":"E01026159","parent":"E07000138","type":"LSOA","pop":1441,"r":126,"ff":34,"ffd":2359.5,"ffs":0.4533,"g":50,"co":2,"mo":0,"sa":0,"ic":0},"geometry":{"type":"Polygon","coordinates":[[[-0.59576,53.2186],[-0.59291,53.21869],[-0.59283,53.21771],[-0.5916,53.21764],[-0.59233,53.21704],[-0.59326,53.21685],[-0.59301,53.2165],[-0.59266,53.21679],[-0.59142,53.21623],[-0.59186,53.21628],[-0.59217,53.21589],[-0.59215,53.21552],[-0.59157,53.21551],[-0.5914,53.21521],[-0.59153,53.21456],[-0.5931,53.21391],[-0.59269,53.21294],[-0.59336,53.21297],[-0.59381,53.2153],[-0.5944,53.21528],[-0.59445,53.21593],[-0.5951,53.21583],[-0.59714,53.21454],[-0.59816,53.2148],[-0.59828,53.21503],[-0.5975,53.21525],[-0.59778,53.21551],[-0.599,53.2153],[-0.59915,53.21485],[-0.59862,53.21468],[-0.59912,53.2144],[-0.59932,53.2129],[-0.60007,53.21262],[-0.60199,53.21425],[-0.60333,53.21437],[-0.60212,53.21712],[-0.60065,53.21836],[-0.59995,53.21804],[-0.59694,53.21827],[-0.59625,53.21917],[-0.59566,53.21918],[-0.59576,53.2186]]]}},{"type":"Feature","properties":{"id":"E01026160","name":"E01026160","parent":"E07000138","type":"LSOA","pop":1369,"r":207,"ff":72,"ffd":5259.3,"ffs":0.4768,"g":55,"co":2,"mo":0,"sa":0,"ic":0},"geometry":{"type":"Polygon","coordinates":[[[-0.5944,53.21528],[-0.59584,53.21431],[-0.59523,53.214],[-0.59568,53.21398],[-0.59572,53.21338],[-0.59664,53.21308],[-0.59688,53.21265],[-0.5968,53.21211],[-0.59523,53.21209],[-0.59528,53.21183],[-0.59626,53.21121],[-0.59695,53.21129],[-0.59716,53.2104],[-0.59816,53.20939],[-0.59691,53.20862],[-0.59681,53.20777],[-0.59748,53.2068],[-0.59949,53.20757],[-0.59949,53.2079],[-0.59896,53.20819],[-0.60022,53.20864],[-0.60039,53.20926],[-0.59993,53.20959],[-0.60195,53.21003],[-0.60252,53.20892],[-0.60305,53.20941],[-0.60346,53.20937],[-0.60336,53.20906],[-0.60389,53.20892],[-0.60423,53.20918],[-0.60497,53.209],[-0.60492,53.20855],[-0.60593,53.20839],[-0.60667,53.20863],[-0.60627,53.20938],[-0.60529,53.21039],[-0.60316,53.21089],[-0.60333,53.21437],[-0.60199,53.21425],[-0.60007,53.21262],[-0.59932,53.2129],[-0.59912,53.2144],[-0.59862,53.21468],[-0.59915,53.21485],[-0.599,53.2153],[-0.59778,53.21551],[-0.5975,53.21525],[-0.59828,53.21503],[-0.59816,53.2148],[-0.59714,53.21454],[-0.5951,53.21583],[-0.59445,53.21593],[-0.5944,53.21528]]]}},{"type":"Feature","properties":{"id":"E01026161","name":"E01026161","parent":"E07000138","type":"LSOA","pop":1384,"r":126,"ff":34,"ffd":2456.6,"ffs":0.4533,"g":50,"co":2,"mo":0,"sa":0,"ic":0},"geometry":{"type":"Polygon","coordinates":[[[-0.57395,53.21076],[-0.57653,53.20894],[-0.57843,53.20999],[-0.5801,53.20918],[-0.58008,53.20979],[-0.58067,53.21011],[-0.58109,53.20959],[-0.58202,53.20995],[-0.58273,53.20979],[-0.58289,53.21086],[-0.58218,53.21081],[-0.58196,53.21151],[-0.58279,53.21221],[-0.58496,53.21264],[-0.58321,53.21484],[-0.58204,53.21535],[-0.58074,53.21529],[-0.5762,53.21285],[-0.57211,53.21207],[-0.57395,53.21076]]]}},{"type":"Feature","properties":{"id":"E01026162","name":"E01026162","parent":"E07000138","type":"LSOA","pop":1484,"r":216,"ff":77,"ffd":5188.7,"ffs":0.4813,"g":55,"co":2,"mo":0,"sa":0,"ic":0},"geometry":{"type":"Polygon","coordinates":[[[-0.58196,53.21151],[-0.58218,53.21081],[-0.58289,53.21086],[-0.58273,53.20979],[-0.58202,53.20995],[-0.58109,53.20959],[-0.58067,53.21011],[-0.58008,53.20979],[-0.5801,53.20918],[-0.57843,53.20999],[-0.57653,53.20894],[-0.58822,53.20057],[-0.60049,53.20358],[-0.59867,53.20378],[-0.59959,53.20401],[-0.59681,53.20777],[-0.59691,53.20862],[-0.59816,53.20939],[-0.59716,53.2104],[-0.59695,53.21129],[-0.59626,53.21121],[-0.59528,53.21183],[-0.59437,53.21122],[-0.59359,53.21165],[-0.59416,53.21085],[-0.59504,53.21077],[-0.59595,53.20933],[-0.59539,53.20917],[-0.59435,53.21056],[-0.59268,53.20937],[-0.59341,53.20827],[-0.59046,53.20821],[-0.5886,53.21043],[-0.58568,53.21181],[-0.58496,53.21264],[-0.58279,53.21221],[-0.58196,53.21151]]]}},{"type":"Feature","properties":{"id":"E01026163","name":"E01026163","parent":"E07000138","type":"LSOA","pop":1341,"r":208,"ff":72,"ffd":5369.1,"ffs":0.4737,"g":55,"co":2,"mo":0,"sa":0,"ic":0},"geometry":{"type":"Polygon","coordinates":[[[-0.60039,53.20926],[-0.60022,53.20864],[-0.59896,53.20819],[-0.59949,53.2079],[-0.59949,53.20757],[-0.59748,53.2068],[-0.59959,53.20401],[-0.59867,53.20378],[-0.60289,53.20308],[-0.60671,53.20196],[-0.60812,53.20187],[-0.61371,53.20273],[-0.61501,53.20357],[-0.61486,53.20531],[-0.61758,53.20736],[-0.61972,53.20808],[-0.61921,53.20877],[-0.60908,53.20632],[-0.6085,53.20721],[-0.60667,53.20863],[-0.60593,53.20839],[-0.60492,53.20855],[-0.60497,53.209],[-0.60423,53.20918],[-0.60389,53.20892],[-0.60336,53.20906],[-0.60346,53.20937],[-0.60305,53.20941],[-0.60252,53.20892],[-0.60195,53.21003],[-0.59993,53.20959],[-0.60039,53.20926]]]}},{"type":"Feature","properties":{"id":"E01026164","name":"E01026164","parent":"E07000138","type":"LSOA","pop":1599,"r":211,"ff":74,"ffd":4627.9,"ffs":0.4774,"g":55,"co":2,"mo":2,"sa":0,"ic":0},"geometry":{"type":"Polygon","coordinates":[[[-0.53091,53.24827],[-0.53044,53.24794],[-0.52888,53.24821],[-0.52826,53.24812],[-0.52821,53.24784],[-0.52989,53.24753],[-0.52915,53.24618],[-0.52732,53.2466],[-0.52593,53.24651],[-0.52472,53.24521],[-0.53056,53.24012],[-0.53122,53.24014],[-0.53103,53.23976],[-0.53234,53.23977],[-0.53244,53.23927],[-0.53388,53.23894],[-0.53416,53.23941],[-0.5342,53.24071],[-0.53619,53.2406],[-0.53747,53.23976],[-0.53815,53.23987],[-0.53794,53.2449],[-0.53309,53.24496],[-0.53362,53.24501],[-0.53356,53.24548],[-0.53438,53.24573],[-0.53553,53.24563],[-0.53555,53.2459],[-0.53398,53.24599],[-0.53337,53.24648],[-0.53425,53.24665],[-0.53366,53.24679],[-0.53336,53.24732],[-0.53244,53.24722],[-0.53053,53.24737],[-0.531,53.24747],[-0.53091,53.24827]]]}},{"type":"Feature","properties":{"id":"E01026165","name":"E01026165","parent":"E07000138","type":"LSOA","pop":1806,"r":206,"ff":71,"ffd":3931.3,"ffs":0.4733,"g":55,"co":2,"mo":2,"sa":0,"ic":0},"geometry":{"type":"Polygon","coordinates":[[[-0.51409,53.2538],[-0.51746,53.25143],[-0.52472,53.24521],[-0.52593,53.24651],[-0.52732,53.2466],[-0.52915,53.24618],[-0.52989,53.24753],[-0.52821,53.24784],[-0.52826,53.24812],[-0.52888,53.24821],[-0.52893,53.24907],[-0.52969,53.2488],[-0.52972,53.25037],[-0.53116,53.25075],[-0.53073,53.25171],[-0.53113,53.25173],[-0.53073,53.25197],[-0.53147,53.25288],[-0.53059,53.25314],[-0.53024,53.25295],[-0.52939,53.25333],[-0.5292,53.2531],[-0.52787,53.25328],[-0.52672,53.25296],[-0.52671,53.25382],[-0.5232,53.25338],[-0.52318,53.25383],[-0.51427,53.25403],[-0.51409,53.2538]]]}},{"type":"Feature","properties":{"id":"E01026166","name":"E01026166","parent":"E07000138","type":"LSOA","pop":1461,"r":212,"ff":75,"ffd":5133.5,"ffs":0.4808,"g":55,"co":2,"mo":2,"sa":0,"ic":0},"geometry":{"type":"Polygon","coordinates":[[[-0.53556,53.2502],[-0.53548,53.24964],[-0.5347,53.2498],[-0.53451,53.25024],[-0.53384,53.2504],[-0.53263,53.24993],[-0.53145,53.2505],[-0.53065,53.2499],[-0.52971,53.25009],[-0.52969,53.2488],[-0.52893,53.24907],[-0.52888,53.24821],[-0.53044,53.24794],[-0.53091,53.24827],[-0.531,53.24747],[-0.53053,53.24737],[-0.53244,53.24722],[-0.53336,53.24732],[-0.53366,53.24679],[-0.53425,53.24665],[-0.53337,53.24648],[-0.53398,53.24599],[-0.53555,53.2459],[-0.53553,53.24563],[-0.53438,53.24573],[-0.53356,53.24548],[-0.53362,53.24501],[-0.53309,53.24496],[-0.53794,53.2449],[-0.53833,53.251],[-0.53759,53.25106],[-0.53767,53.25128],[-0.53716,53.2513],[-0.53556,53.2502]]]}},{"type":"Feature","properties":{"id":"E01026167","name":"E01026167","parent":"E07000138","type":"LSOA","pop":1896,"r":214,"ff":75,"ffd":3955.7,"ffs":0.4777,"g":56,"co":2,"mo":0,"sa":0,"ic":0},"geometry":{"type":"Polygon","coordinates":[[[-0.525,53.24049],[-0.52316,53.23842],[-0.52939,53.23648],[-0.52934,53.23511],[-0.53247,53.23337],[-0.53223,53.23262],[-0.53584,53.23162],[-0.5363,53.23076],[-0.53692,53.2307],[-0.53725,53.23272],[-0.53844,53.23257],[-0.53878,53.2337],[-0.53846,53.23469],[-0.53816,53.23712],[-0.53815,53.23987],[-0.53747,53.23976],[-0.53619,53.2406],[-0.5342,53.24071],[-0.53416,53.23941],[-0.53388,53.23894],[-0.53244,53.23927],[-0.53234,53.23977],[-0.53103,53.23976],[-0.53122,53.24014],[-0.53056,53.24012],[-0.52733,53.24293],[-0.52573,53.24153],[-0.525,53.24049]]]}},{"type":"Feature","properties":{"id":"E01026168","name":"E01026168","parent":"E07000138","type":"LSOA","pop":1742,"r":212,"ff":75,"ffd":4305.4,"ffs":0.4808,"g":55,"co":2,"mo":2,"sa":0,"ic":0},"geometry":{"type":"Polygon","coordinates":[[[-0.52671,53.25382],[-0.52672,53.25296],[-0.52787,53.25328],[-0.5292,53.2531],[-0.52939,53.25333],[-0.53024,53.25295],[-0.53059,53.25314],[-0.53147,53.25288],[-0.53073,53.25197],[-0.53113,53.25173],[-0.53073,53.25171],[-0.53116,53.25075],[-0.52972,53.25037],[-0.52971,53.25009],[-0.53065,53.2499],[-0.53145,53.2505],[-0.53263,53.24993],[-0.53384,53.2504],[-0.53451,53.25024],[-0.5347,53.2498],[-0.53548,53.24964],[-0.53556,53.2502],[-0.53716,53.2513],[-0.53767,53.25128],[-0.53759,53.25106],[-0.53833,53.251],[-0.53858,53.25456],[-0.52671,53.25382]]]}},{"type":"Feature","properties":{"id":"E01026169","name":"E01026169","parent":"E07000138","type":"LSOA","pop":1764,"r":212,"ff":77,"ffd":4365.1,"ffs":0.4873,"g":53,"co":2,"mo":0,"sa":0,"ic":0},"geometry":{"type":"Polygon","coordinates":[[[-0.57523,53.2053],[-0.57507,53.20508],[-0.57214,53.20566],[-0.57161,53.20621],[-0.57131,53.20575],[-0.57009,53.20584],[-0.56874,53.20541],[-0.56843,53.20466],[-0.56575,53.20457],[-0.56553,53.20423],[-0.56833,53.20267],[-0.56779,53.20213],[-0.56873,53.20135],[-0.5694,53.20158],[-0.57068,53.20125],[-0.57034,53.20026],[-0.57074,53.19968],[-0.57092,53.19874],[-0.5781,53.19575],[-0.57788,53.19607],[-0.57825,53.19625],[-0.57794,53.19675],[-0.57696,53.19698],[-0.57642,53.19754],[-0.58019,53.19875],[-0.58024,53.19926],[-0.57953,53.19919],[-0.57932,53.19979],[-0.57845,53.19993],[-0.57899,53.20027],[-0.57897,53.20055],[-0.57777,53.20034],[-0.5771,53.20118],[-0.57527,53.20093],[-0.57506,53.20125],[-0.57564,53.20142],[-0.5744,53.20178],[-0.57444,53.20214],[-0.57494,53.20197],[-0.57606,53.20245],[-0.57778,53.20236],[-0.57851,53.20263],[-0.57817,53.20356],[-0.57756,53.20404],[-0.57835,53.20423],[-0.57716,53.20522],[-0.57646,53.20663],[-0.57602,53.20654],[-0.57523,53.2053]]]}},{"type":"Feature","properties":{"id":"E01026170","name":"E01026170","parent":"E07000138","type":"LSOA","pop":1604,"r":214,"ff":77,"ffd":4800.5,"ffs":0.4813,"g":53,"co":2,"mo":0,"sa":0,"ic":0},"geometry":{"type":"Polygon","coordinates":[[[-0.55393,53.20575],[-0.55426,53.20402],[-0.55505,53.20199],[-0.55777,53.20207],[-0.56531,53.20081],[-0.56892,53.19963],[-0.57092,53.19874],[-0.57074,53.19968],[-0.57034,53.20026],[-0.57068,53.20125],[-0.5694,53.20158],[-0.56873,53.20135],[-0.56779,53.20213],[-0.56833,53.20267],[-0.56481,53.20472],[-0.56291,53.20476],[-0.56242,53.20544],[-0.56073,53.20539],[-0.56078,53.20576],[-0.5597,53.2058],[-0.55568,53.20761],[-0.55288,53.20854],[-0.55278,53.20673],[-0.55393,53.20575]]]}},{"type":"Feature","properties":{"id":"E01026171","name":"E01026171","parent":"E07000138","type":"LSOA","pop":1522,"r":210,"ff":77,"ffd":5059.1,"ffs":0.4936,"g":53,"co":2,"mo":0,"sa":0,"ic":0},"geometry":{"type":"Polygon","coordinates":[[[-0.57851,53.20263],[-0.57778,53.20236],[-0.57606,53.20245],[-0.57494,53.20197],[-0.57444,53.20214],[-0.5744,53.20178],[-0.57564,53.20142],[-0.57506,53.20125],[-0.57527,53.20093],[-0.5771,53.20118],[-0.57777,53.20034],[-0.57897,53.20055],[-0.57899,53.20027],[-0.57845,53.19993],[-0.57932,53.19979],[-0.57953,53.19919],[-0.58024,53.19926],[-0.58019,53.19875],[-0.57642,53.19754],[-0.57696,53.19698],[-0.57794,53.19675],[-0.57825,53.19625],[-0.58073,53.19753],[-0.58286,53.19705],[-0.58346,53.19781],[-0.58319,53.19833],[-0.58432,53.19905],[-0.58674,53.19858],[-0.58896,53.19987],[-0.58822,53.20057],[-0.57711,53.20852],[-0.57555,53.20785],[-0.57646,53.20663],[-0.57716,53.20522],[-0.57835,53.20423],[-0.57756,53.20404],[-0.57817,53.20356],[-0.57851,53.20263]]]}},{"type":"Feature","properties":{"id":"E01026172","name":"E01026172","parent":"E07000138","type":"LSOA","pop":1649,"r":217,"ff":77,"ffd":4669.5,"ffs":0.4783,"g":55,"co":2,"mo":0,"sa":0,"ic":0},"geometry":{"type":"Polygon","coordinates":[[[-0.5666,53.21109],[-0.5627,53.21027],[-0.56196,53.20777],[-0.56237,53.2078],[-0.56258,53.20742],[-0.56765,53.20809],[-0.56831,53.20741],[-0.56947,53.20748],[-0.57001,53.20689],[-0.57091,53.20727],[-0.56966,53.20837],[-0.57012,53.20866],[-0.57149,53.20899],[-0.57199,53.21009],[-0.57093,53.21062],[-0.57148,53.21099],[-0.57395,53.21076],[-0.57211,53.21207],[-0.5666,53.21109]]]}},{"type":"Feature","properties":{"id":"E01026173","name":"E01026173","parent":"E07000138","type":"LSOA","pop":1558,"r":216,"ff":77,"ffd":4942.2,"ffs":0.4753,"g":53,"co":2,"mo":0,"sa":0,"ic":0},"geometry":{"type":"Polygon","coordinates":[[[-0.57091,53.20727],[-0.57001,53.20689],[-0.56947,53.20748],[-0.56831,53.20741],[-0.56765,53.20809],[-0.56258,53.20742],[-0.56237,53.2078],[-0.56196,53.20777],[-0.56078,53.20576],[-0.56073,53.20539],[-0.56242,53.20544],[-0.56291,53.20476],[-0.56481,53.20472],[-0.56553,53.20423],[-0.56575,53.20457],[-0.56843,53.20466],[-0.56874,53.20541],[-0.57009,53.20584],[-0.57131,53.20575],[-0.57161,53.20621],[-0.57214,53.20566],[-0.57507,53.20508],[-0.57602,53.20654],[-0.57646,53.20663],[-0.57555,53.20785],[-0.57711,53.20852],[-0.57395,53.21076],[-0.57148,53.21099],[-0.57093,53.21062],[-0.57199,53.21009],[-0.57149,53.20899],[-0.57012,53.20866],[-0.56966,53.20837],[-0.57091,53.20727]]]}},{"type":"Feature","properties":{"id":"E01026174","name":"E01026174","parent":"E07000138","type":"LSOA","pop":1588,"r":220,"ff":77,"ffd":4848.9,"ffs":0.4724,"g":56,"co":2,"mo":0,"sa":0,"ic":0},"geometry":{"type":"Polygon","coordinates":[[[-0.54011,53.21638],[-0.5433,53.2154],[-0.54259,53.21469],[-0.54489,53.21289],[-0.54283,53.21192],[-0.54085,53.21149],[-0.53685,53.21117],[-0.53851,53.20999],[-0.53972,53.20842],[-0.53965,53.20392],[-0.54097,53.20364],[-0.54344,53.20398],[-0.54461,53.20457],[-0.54504,53.20543],[-0.54642,53.20556],[-0.54768,53.20702],[-0.55055,53.20758],[-0.54985,53.20894],[-0.55069,53.20917],[-0.54982,53.21043],[-0.5512,53.21071],[-0.55177,53.21109],[-0.55047,53.21152],[-0.54963,53.21223],[-0.54729,53.212],[-0.54577,53.21669],[-0.5451,53.21681],[-0.54501,53.21729],[-0.54392,53.21719],[-0.54354,53.21682],[-0.54359,53.21651],[-0.54267,53.21623],[-0.54054,53.2173],[-0.54011,53.21638]]]}},{"type":"Feature","properties":{"id":"E01026175","name":"E01026175","parent":"E07000138","type":"LSOA","pop":1952,"r":220,"ff":77,"ffd":3944.7,"ffs":0.4724,"g":56,"co":2,"mo":0,"sa":0,"ic":0},"geometry":{"type":"Polygon","coordinates":[[[-0.54768,53.20702],[-0.54642,53.20556],[-0.54895,53.20579],[-0.54918,53.20112],[-0.5531,53.20164],[-0.55351,53.20201],[-0.55505,53.20199],[-0.55426,53.20402],[-0.55393,53.20575],[-0.55278,53.20673],[-0.55288,53.20857],[-0.55371,53.20942],[-0.55316,53.21034],[-0.55177,53.21109],[-0.5512,53.21071],[-0.54982,53.21043],[-0.55069,53.20917],[-0.54985,53.20894],[-0.55055,53.20758],[-0.54768,53.20702]]]}},{"type":"Feature","properties":{"id":"E01026176","name":"E01026176","parent":"E07000138","type":"LSOA","pop":2157,"r":217,"ff":76,"ffd":3523.4,"ffs":0.475,"g":56,"co":2,"mo":0,"sa":0,"ic":0},"geometry":{"type":"Polygon","coordinates":[[[-0.54067,53.22854],[-0.53667,53.22817],[-0.53201,53.22813],[-0.52415,53.22685],[-0.51737,53.22775],[-0.50663,53.22622],[-0.5023,53.2258],[-0.50127,53.22106],[-0.50549,53.21985],[-0.50892,53.21819],[-0.51345,53.21807],[-0.51385,53.22017],[-0.52396,53.21917],[-0.5227,53.21951],[-0.52388,53.21961],[-0.524,53.22115],[-0.52482,53.22073],[-0.52623,53.22121],[-0.53081,53.21953],[-0.53105,53.21928],[-0.53008,53.21949],[-0.52971,53.21888],[-0.53195,53.2186],[-0.53209,53.21818],[-0.53353,53.21945],[-0.53405,53.21937],[-0.53378,53.22029],[-0.53481,53.21993],[-0.53486,53.21958],[-0.53541,53.21996],[-0.53659,53.21967],[-0.53669,53.21993],[-0.53703,53.21983],[-0.53667,53.22067],[-0.53864,53.22073],[-0.53843,53.22122],[-0.53781,53.22165],[-0.53691,53.22154],[-0.537,53.22133],[-0.53576,53.22108],[-0.53613,53.22018],[-0.53537,53.22052],[-0.53517,53.22101],[-0.53467,53.22102],[-0.53476,53.22138],[-0.53517,53.22136],[-0.53447,53.22173],[-0.53526,53.22201],[-0.53553,53.2227],[-0.53604,53.22251],[-0.53748,53.2225],[-0.538,53.22274],[-0.53859,53.22241],[-0.53963,53.22257],[-0.53994,53.22225],[-0.54028,53.22229],[-0.54067,53.22264],[-0.54272,53.2229],[-0.54264,53.22309],[-0.54298,53.22263],[-0.54387,53.22273],[-0.54352,53.2224],[-0.54425,53.22221],[-0.54067,53.22854]]]}},{"type":"Feature","properties":{"id":"E01026177","name":"E01026177","parent":"E07000138","type":"LSOA","pop":2539,"r":218,"ff":77,"ffd":3032.7,"ffs":0.4783,"g":56,"co":2,"mo":0,"sa":0,"ic":0},"geometry":{"type":"Polygon","coordinates":[[[-0.54067,53.22264],[-0.54028,53.22229],[-0.53994,53.22225],[-0.53963,53.22257],[-0.53859,53.22241],[-0.538,53.22274],[-0.53748,53.2225],[-0.53604,53.22251],[-0.53553,53.2227],[-0.53526,53.22201],[-0.53447,53.22173],[-0.53517,53.22136],[-0.53476,53.22138],[-0.53467,53.22102],[-0.53517,53.22101],[-0.53537,53.22052],[-0.53613,53.22018],[-0.53576,53.22108],[-0.537,53.22133],[-0.53691,53.22154],[-0.53781,53.22165],[-0.53843,53.22122],[-0.53864,53.22073],[-0.53667,53.22067],[-0.53703,53.21983],[-0.5382,53.21995],[-0.53858,53.21955],[-0.53826,53.2194],[-0.53927,53.21911],[-0.53916,53.21948],[-0.53951,53.21947],[-0.5398,53.21974],[-0.5402,53.21962],[-0.54015,53.21996],[-0.5408,53.22],[-0.54057,53.22023],[-0.54112,53.2203],[-0.54103,53.22051],[-0.54214,53.22078],[-0.54173,53.2215],[-0.54289,53.22168],[-0.54297,53.22196],[-0.54129,53.22169],[-0.5412,53.22191],[-0.5428,53.22245],[-0.54352,53.2224],[-0.54387,53.22273],[-0.54298,53.22263],[-0.54264,53.22309],[-0.54272,53.2229],[-0.54067,53.22264]]]}},{"type":"Feature","properties":{"id":"E01026178","name":"E01026178","parent":"E07000138","type":"LSOA","pop":2201,"r":12,"ff":7,"ffd":318.0,"ffs":0.5833,"g":0,"co":3,"mo":1,"sa":1,"ic":1},"geometry":{"type":"Polygon","coordinates":[[[-0.5428,53.22245],[-0.5412,53.22191],[-0.54129,53.22169],[-0.54297,53.22196],[-0.54289,53.22168],[-0.54173,53.2215],[-0.54214,53.22078],[-0.54103,53.22051],[-0.54112,53.2203],[-0.54057,53.22023],[-0.5408,53.22],[-0.54015,53.21996],[-0.5402,53.21962],[-0.5398,53.21974],[-0.53951,53.21947],[-0.53916,53.21948],[-0.53927,53.21911],[-0.53826,53.2194],[-0.53858,53.21955],[-0.5382,53.21995],[-0.53669,53.21993],[-0.53659,53.21967],[-0.53541,53.21996],[-0.53486,53.21958],[-0.53481,53.21993],[-0.53378,53.22029],[-0.53405,53.21937],[-0.53353,53.21945],[-0.53209,53.21818],[-0.53195,53.2186],[-0.52971,53.21888],[-0.53008,53.21949],[-0.53105,53.21928],[-0.53081,53.21953],[-0.52623,53.22121],[-0.52482,53.22073],[-0.524,53.22115],[-0.52388,53.21961],[-0.5227,53.21951],[-0.52692,53.21872],[-0.52696,53.2183],[-0.53019,53.21754],[-0.52873,53.21474],[-0.53202,53.21406],[-0.53388,53.21316],[-0.53685,53.21117],[-0.54085,53.21149],[-0.54283,53.21192],[-0.54489,53.21289],[-0.54259,53.21469],[-0.5433,53.2154],[-0.54011,53.21638],[-0.54054,53.2173],[-0.54267,53.21623],[-0.54359,53.21651],[-0.54354,53.21682],[-0.54392,53.21719],[-0.54501,53.21729],[-0.5451,53.21681],[-0.54577,53.21669],[-0.54425,53.22221],[-0.5428,53.22245]]]}},{"type":"Feature","properties":{"id":"E01034687","name":"E01034687","parent":"E07000138","type":"LSOA","pop":1141,"r":217,"ff":77,"ffd":6748.5,"ffs":0.4813,"g":56,"co":2,"mo":0,"sa":0,"ic":0},"geometry":{"type":"Polygon","coordinates":[[[-0.54463,53.23452],[-0.54281,53.23399],[-0.54284,53.23249],[-0.54367,53.2321],[-0.54352,53.23275],[-0.54389,53.23298],[-0.54582,53.23321],[-0.5455,53.23268],[-0.54607,53.23239],[-0.54383,53.23197],[-0.54408,53.23122],[-0.54491,53.23032],[-0.54698,53.23105],[-0.54732,53.23172],[-0.54889,53.23208],[-0.5479,53.23286],[-0.551,53.23396],[-0.55007,53.23491],[-0.54828,53.23496],[-0.54713,53.23421],[-0.54598,53.23515],[-0.54654,53.23561],[-0.54463,53.23452]]]}},{"type":"Feature","properties":{"id":"E01034688","name":"E01034688","parent":"E07000138","type":"LSOA","pop":1786,"r":81,"ff":20,"ffd":1119.8,"ffs":0.4348,"g":34,"co":3,"mo":0,"sa":0,"ic":0},"geometry":{"type":"Polygon","coordinates":[[[-0.53844,53.23257],[-0.53915,53.2318],[-0.54067,53.22854],[-0.54272,53.22855],[-0.54506,53.22817],[-0.54819,53.2296],[-0.54778,53.22984],[-0.54842,53.23054],[-0.54698,53.23105],[-0.54491,53.23032],[-0.54408,53.23122],[-0.54383,53.23197],[-0.54607,53.23239],[-0.5455,53.23268],[-0.54582,53.23321],[-0.54389,53.23298],[-0.54352,53.23275],[-0.54367,53.2321],[-0.54284,53.23249],[-0.54281,53.23399],[-0.53878,53.2337],[-0.53844,53.23257]]]}},{"type":"Feature","properties":{"id":"E01034689","name":"E01034689","parent":"E07000138","type":"LSOA","pop":1219,"r":210,"ff":73,"ffd":5988.5,"ffs":0.474,"g":55,"co":2,"mo":0,"sa":0,"ic":0},"geometry":{"type":"Polygon","coordinates":[[[-0.6151,53.21701],[-0.61482,53.21593],[-0.61389,53.21594],[-0.61318,53.21518],[-0.61269,53.21543],[-0.61319,53.21578],[-0.61265,53.216],[-0.61178,53.21538],[-0.61217,53.2151],[-0.61188,53.21493],[-0.61109,53.21508],[-0.61002,53.21448],[-0.6105,53.21418],[-0.61001,53.21384],[-0.60941,53.2141],[-0.6089,53.21371],[-0.60964,53.21323],[-0.6087,53.2126],[-0.60943,53.21261],[-0.6097,53.21205],[-0.61045,53.21203],[-0.61288,53.21084],[-0.61089,53.21072],[-0.60939,53.20969],[-0.60988,53.20929],[-0.6096,53.20886],[-0.61148,53.20838],[-0.61113,53.20784],[-0.61145,53.20765],[-0.6104,53.20737],[-0.61087,53.20673],[-0.61921,53.20877],[-0.6178,53.21124],[-0.61747,53.21441],[-0.62023,53.21671],[-0.62262,53.2176],[-0.61616,53.21924],[-0.61739,53.21758],[-0.61573,53.21738],[-0.6151,53.21701]]]}},{"type":"Feature","properties":{"id":"E01034690","name":"E01034690","parent":"E07000138","type":"LSOA","pop":1566,"r":211,"ff":73,"ffd":4661.6,"ffs":0.471,"g":55,"co":2,"mo":0,"sa":0,"ic":0},"geometry":{"type":"Polygon","coordinates":[[[-0.60875,53.21866],[-0.6078,53.21763],[-0.60827,53.21604],[-0.60661,53.21542],[-0.60636,53.21667],[-0.60464,53.21575],[-0.60307,53.2152],[-0.60333,53.21437],[-0.60316,53.21089],[-0.60529,53.21039],[-0.60627,53.20938],[-0.60693,53.20831],[-0.6085,53.20721],[-0.60908,53.20632],[-0.61087,53.20673],[-0.6104,53.20737],[-0.61145,53.20765],[-0.61113,53.20784],[-0.61148,53.20838],[-0.6096,53.20886],[-0.60988,53.20929],[-0.60939,53.20969],[-0.61089,53.21072],[-0.61288,53.21084],[-0.61045,53.21203],[-0.6097,53.21205],[-0.60943,53.21261],[-0.6087,53.2126],[-0.60964,53.21323],[-0.6077,53.21433],[-0.61064,53.21607],[-0.60846,53.21708],[-0.60983,53.21822],[-0.61037,53.21798],[-0.61034,53.21827],[-0.60798,53.2195],[-0.60786,53.21917],[-0.60875,53.21866]]]}},{"type":"Feature","properties":{"id":"E01034691","name":"E01034691","parent":"E07000138","type":"LSOA","pop":2606,"r":220,"ff":77,"ffd":2954.7,"ffs":0.4695,"g":55,"co":2,"mo":0,"sa":0,"ic":0},"geometry":{"type":"Polygon","coordinates":[[[-0.5506,53.22763],[-0.55056,53.22606],[-0.55199,53.2253],[-0.55172,53.22509],[-0.5515,53.22522],[-0.55007,53.22426],[-0.55081,53.22283],[-0.55115,53.2229],[-0.55102,53.22242],[-0.55227,53.22151],[-0.54994,53.22071],[-0.55011,53.22044],[-0.55265,53.22099],[-0.55354,53.21911],[-0.55475,53.21931],[-0.55384,53.21851],[-0.55429,53.21758],[-0.555,53.21759],[-0.55536,53.21665],[-0.55788,53.217],[-0.55809,53.2167],[-0.56306,53.21752],[-0.56476,53.21682],[-0.56455,53.21743],[-0.56966,53.21379],[-0.571,53.21447],[-0.56964,53.2187],[-0.56987,53.22642],[-0.56757,53.22613],[-0.56365,53.22648],[-0.56147,53.22634],[-0.56304,53.22831],[-0.56309,53.22923],[-0.56215,53.23012],[-0.56071,53.23071],[-0.55972,53.23082],[-0.55058,53.22904],[-0.55075,53.22865],[-0.5506,53.22763]]]}},{"type":"Feature","properties":{"id":"E01034692","name":"E01034692","parent":"E07000138","type":"LSOA","pop":1532,"r":220,"ff":76,"ffd":4960.8,"ffs":0.4663,"g":56,"co":2,"mo":0,"sa":0,"ic":0},"geometry":{"type":"Polygon","coordinates":[[[-0.54948,53.22152],[-0.54782,53.22088],[-0.54752,53.22109],[-0.5454,53.22081],[-0.54532,53.22108],[-0.54465,53.22103],[-0.54522,53.2188],[-0.54583,53.21884],[-0.54582,53.21839],[-0.5492,53.21843],[-0.54915,53.21774],[-0.54974,53.21647],[-0.55358,53.21694],[-0.55373,53.21749],[-0.55429,53.21758],[-0.55384,53.21851],[-0.55475,53.21931],[-0.55354,53.21911],[-0.55265,53.22099],[-0.55011,53.22044],[-0.54994,53.22071],[-0.54972,53.22068],[-0.54948,53.22152]]]}}]}