{"type":"FeatureCollection","features":[{"type":"Feature","properties":{"id":"E01022794","name":"E01022794","parent":"E07000088","type":"LSOA","pop":1459,"r":166,"ff":63,"ffd":4318.0,"ffs":0.5385,"g":47,"co":0,"mo":0,"sa":0,"ic":0},"geometry":{"type":"Polygon","coordinates":[[[-1.16174,50.78937],[-1.16097,50.78882],[-1.16059,50.78897],[-1.15917,50.78839],[-1.15903,50.78862],[-1.15543,50.78815],[-1.15549,50.78775],[-1.15455,50.78747],[-1.15426,50.78629],[-1.15358,50.7862],[-1.15363,50.78578],[-1.15316,50.78572],[-1.15276,50.78683],[-1.15099,50.78663],[-1.15089,50.78707],[-1.15014,50.78705],[-1.15002,50.78867],[-1.14922,50.78811],[-1.14843,50.78813],[-1.14846,50.78764],[-1.14696,50.78761],[-1.14689,50.78674],[-1.14758,50.78579],[-1.14835,50.7823],[-1.14859,50.77882],[-1.14988,50.77829],[-1.15473,50.78152],[-1.16127,50.78445],[-1.16414,50.78511],[-1.16393,50.78525],[-1.1622,50.78469],[-1.16194,50.78544],[-1.16262,50.7856],[-1.16205,50.78609],[-1.16346,50.78835],[-1.16302,50.78872],[-1.1633,50.78881],[-1.16279,50.78946],[-1.16174,50.78937]]]}},{"type":"Feature","properties":{"id":"E01022795","name":"E01022795","parent":"E07000088","type":"LSOA","pop":1583,"r":180,"ff":66,"ffd":4169.3,"ffs":0.5323,"g":54,"co":0,"mo":0,"sa":2,"ic":0},"geometry":{"type":"Polygon","coordinates":[[[-1.16348,50.79197],[-1.16333,50.79151],[-1.16286,50.79157],[-1.16276,50.79098],[-1.16331,50.79089],[-1.16345,50.78939],[-1.16295,50.78919],[-1.1633,50.78881],[-1.16302,50.78872],[-1.16346,50.78835],[-1.16205,50.78609],[-1.16262,50.7856],[-1.16194,50.78544],[-1.1622,50.78469],[-1.16393,50.78525],[-1.16414,50.78511],[-1.16609,50.78555],[-1.17133,50.78552],[-1.176,50.78641],[-1.17569,50.7873],[-1.17486,50.78796],[-1.17441,50.78778],[-1.17419,50.78824],[-1.17246,50.78918],[-1.17246,50.7914],[-1.16629,50.79302],[-1.16337,50.79432],[-1.16334,50.79395],[-1.16402,50.79384],[-1.16381,50.79297],[-1.16312,50.79289],[-1.16348,50.79197]]]}},{"type":"Feature","properties":{"id":"E01022796","name":"E01022796","parent":"E07000088","type":"LSOA","pop":1345,"r":161,"ff":62,"ffd":4609.7,"ffs":0.5439,"g":45,"co":0,"mo":0,"sa":0,"ic":0},"geometry":{"type":"Polygon","coordinates":[[[-1.14936,50.79296],[-1.14509,50.79224],[-1.14525,50.79148],[-1.14283,50.79045],[-1.14689,50.78674],[-1.14696,50.78761],[-1.14846,50.78764],[-1.14843,50.78813],[-1.14922,50.78811],[-1.15002,50.78867],[-1.15014,50.78705],[-1.15089,50.78707],[-1.15099,50.78663],[-1.15276,50.78683],[-1.15316,50.78572],[-1.15363,50.78578],[-1.15358,50.7862],[-1.15426,50.78629],[-1.15455,50.78747],[-1.15413,50.78739],[-1.15384,50.78807],[-1.15378,50.78988],[-1.15309,50.78998],[-1.153,50.79072],[-1.15351,50.79075],[-1.15372,50.79125],[-1.15313,50.79183],[-1.15235,50.79199],[-1.15263,50.79257],[-1.15194,50.79256],[-1.15174,50.79312],[-1.14936,50.79296]]]}},{"type":"Feature","properties":{"id":"E01022797","name":"E01022797","parent":"E07000088","type":"LSOA","pop":1107,"r":164,"ff":62,"ffd":5600.7,"ffs":0.5299,"g":45,"co":0,"mo":0,"sa":0,"ic":0},"geometry":{"type":"Polygon","coordinates":[[[-1.14135,50.79294],[-1.14136,50.79253],[-1.14116,50.79278],[-1.13973,50.79245],[-1.13985,50.79176],[-1.13915,50.79167],[-1.13997,50.78607],[-1.14219,50.78615],[-1.14407,50.78702],[-1.14468,50.78664],[-1.14476,50.78604],[-1.14574,50.78593],[-1.14557,50.78537],[-1.14709,50.78532],[-1.14684,50.78577],[-1.14758,50.78579],[-1.14689,50.78674],[-1.14283,50.79045],[-1.14525,50.79148],[-1.14509,50.79224],[-1.1444,50.79233],[-1.14438,50.79259],[-1.14399,50.793],[-1.14135,50.79294]]]}},{"type":"Feature","properties":{"id":"E01022798","name":"E01022798","parent":"E07000088","type":"LSOA","pop":1482,"r":140,"ff":54,"ffd":3643.7,"ffs":0.5567,"g":41,"co":0,"mo":0,"sa":1,"ic":0},"geometry":{"type":"Polygon","coordinates":[[[-1.11195,50.78953],[-1.12646,50.78136],[-1.12975,50.77887],[-1.1304,50.77955],[-1.13171,50.7801],[-1.13595,50.77866],[-1.13747,50.77846],[-1.13758,50.77957],[-1.13696,50.78124],[-1.13583,50.78127],[-1.13534,50.78242],[-1.13698,50.78274],[-1.13683,50.78308],[-1.13814,50.78321],[-1.13815,50.78371],[-1.13696,50.78466],[-1.13552,50.78506],[-1.13445,50.78489],[-1.1327,50.7852],[-1.12878,50.78802],[-1.12806,50.78806],[-1.12694,50.78758],[-1.12708,50.78798],[-1.12646,50.78765],[-1.12668,50.78803],[-1.12518,50.78873],[-1.12442,50.78962],[-1.12066,50.78811],[-1.11926,50.78875],[-1.11932,50.7884],[-1.11838,50.78803],[-1.1163,50.788],[-1.11472,50.78884],[-1.11485,50.79001],[-1.11403,50.79017],[-1.11393,50.79114],[-1.11317,50.79132],[-1.11195,50.78953]]]}},{"type":"Feature","properties":{"id":"E01022799","name":"E01022799","parent":"E07000088","type":"LSOA","pop":1472,"r":149,"ff":57,"ffd":3872.3,"ffs":0.5481,"g":43,"co":0,"mo":0,"sa":0,"ic":0},"geometry":{"type":"Polygon","coordinates":[[[-1.14219,50.78615],[-1.13997,50.78607],[-1.1398,50.78684],[-1.1381,50.78652],[-1.13917,50.78539],[-1.14031,50.78518],[-1.14067,50.78345],[-1.14004,50.78418],[-1.13843,50.78424],[-1.13696,50.78466],[-1.13815,50.78371],[-1.13814,50.78321],[-1.13683,50.78308],[-1.13698,50.78274],[-1.13534,50.78242],[-1.13583,50.78127],[-1.13696,50.78124],[-1.13758,50.77957],[-1.13747,50.77846],[-1.13595,50.77866],[-1.13171,50.7801],[-1.1304,50.77955],[-1.12975,50.77887],[-1.13439,50.77534],[-1.13871,50.77355],[-1.14121,50.77328],[-1.14302,50.77371],[-1.14988,50.77829],[-1.14859,50.77882],[-1.14835,50.7823],[-1.14758,50.78579],[-1.14684,50.78577],[-1.14709,50.78532],[-1.14557,50.78537],[-1.14574,50.78593],[-1.14476,50.78604],[-1.14468,50.78664],[-1.14407,50.78702],[-1.14219,50.78615]]]}},{"type":"Feature","properties":{"id":"E01022800","name":"E01022800","parent":"E07000088","type":"LSOA","pop":1573,"r":302,"ff":88,"ffd":5594.4,"ffs":0.4944,"g":119,"co":2,"mo":0,"sa":0,"ic":0},"geometry":{"type":"Polygon","coordinates":[[[-1.17887,50.82806],[-1.17826,50.82778],[-1.17745,50.82795],[-1.17668,50.82743],[-1.17832,50.8264],[-1.17786,50.82511],[-1.17991,50.82518],[-1.18048,50.82488],[-1.18261,50.82484],[-1.18327,50.82576],[-1.18418,50.82597],[-1.18464,50.82651],[-1.1838,50.82747],[-1.18365,50.82794],[-1.18428,50.82999],[-1.18173,50.83232],[-1.17948,50.83276],[-1.17961,50.83302],[-1.17868,50.83305],[-1.17872,50.83269],[-1.17977,50.83175],[-1.17938,50.83141],[-1.18004,50.82974],[-1.17955,50.8297],[-1.17887,50.82806]]]}},{"type":"Feature","properties":{"id":"E01022801","name":"E01022801","parent":"E07000088","type":"LSOA","pop":1484,"r":300,"ff":88,"ffd":5929.9,"ffs":0.4889,"g":115,"co":2,"mo":0,"sa":0,"ic":0},"geometry":{"type":"Polygon","coordinates":[[[-1.17217,50.8313],[-1.17238,50.83046],[-1.17151,50.82939],[-1.17203,50.82922],[-1.17233,50.82959],[-1.17347,50.82934],[-1.17329,50.82881],[-1.17374,50.82866],[-1.1753,50.82876],[-1.17596,50.82801],[-1.17584,50.82754],[-1.17668,50.82743],[-1.17745,50.82795],[-1.17826,50.82778],[-1.17887,50.82806],[-1.17955,50.8297],[-1.18004,50.82974],[-1.17938,50.83141],[-1.17977,50.83175],[-1.17872,50.83269],[-1.17794,50.83274],[-1.17752,50.83164],[-1.17675,50.83152],[-1.17573,50.83203],[-1.17506,50.83118],[-1.17523,50.83228],[-1.17645,50.83293],[-1.1746,50.83308],[-1.1736,50.83258],[-1.17313,50.83254],[-1.17217,50.8313]]]}},{"type":"Feature","properties":{"id":"E01022802","name":"E01022802","parent":"E07000088","type":"LSOA","pop":1524,"r":317,"ff":96,"ffd":6299.2,"ffs":0.4974,"g":119,"co":2,"mo":0,"sa":0,"ic":0},"geometry":{"type":"MultiPolygon","coordinates":[[[[-1.17881,50.83774],[-1.17891,50.83772],[-1.17862,50.83791],[-1.17881,50.83774]]],[[[-1.17811,50.83816],[-1.17809,50.83814],[-1.17825,50.83815],[-1.17816,50.83821],[-1.17811,50.83816]]],[[[-1.17155,50.83782],[-1.171,50.83741],[-1.16949,50.83748],[-1.17001,50.83695],[-1.16949,50.83739],[-1.16956,50.83712],[-1.16896,50.83742],[-1.16883,50.83714],[-1.16879,50.83749],[-1.16779,50.83778],[-1.16782,50.83732],[-1.16742,50.83722],[-1.1679,50.83729],[-1.16786,50.83764],[-1.16815,50.83738],[-1.16802,50.83732],[-1.16853,50.83716],[-1.16872,50.83658],[-1.16834,50.83716],[-1.16775,50.83701],[-1.16821,50.83678],[-1.16754,50.83663],[-1.16783,50.83685],[-1.16751,50.83703],[-1.16743,50.83677],[-1.16711,50.83719],[-1.16723,50.83649],[-1.16644,50.83675],[-1.16633,50.83723],[-1.1663,50.83679],[-1.16551,50.83679],[-1.16578,50.83591],[-1.16555,50.83532],[-1.16651,50.83471],[-1.16547,50.83514],[-1.16502,50.83575],[-1.16553,50.83586],[-1.16515,50.83644],[-1.16343,50.83676],[-1.16357,50.83701],[-1.1626,50.83721],[-1.1611,50.83726],[-1.15852,50.83868],[-1.15812,50.83712],[-1.15904,50.83694],[-1.15949,50.83659],[-1.15895,50.83634],[-1.15948,50.83591],[-1.15999,50.83616],[-1.16096,50.8353],[-1.16061,50.8351],[-1.16611,50.83105],[-1.16667,50.83024],[-1.1666,50.82945],[-1.16786,50.82947],[-1.16742,50.8288],[-1.16855,50.8288],[-1.1691,50.82842],[-1.17036,50.82936],[-1.17151,50.82939],[-1.17238,50.83046],[-1.17217,50.8313],[-1.17313,50.83254],[-1.1736,50.83258],[-1.1746,50.83308],[-1.17645,50.83293],[-1.17523,50.83228],[-1.17506,50.83118],[-1.17573,50.83203],[-1.17675,50.83152],[-1.17752,50.83164],[-1.17794,50.83274],[-1.17872,50.83269],[-1.17868,50.83305],[-1.17961,50.83302],[-1.17948,50.83276],[-1.18173,50.83232],[-1.18197,50.83377],[-1.18137,50.8355],[-1.18166,50.8367],[-1.18038,50.83691],[-1.17876,50.83762],[-1.17619,50.83932],[-1.17509,50.83867],[-1.17155,50.83782]]]]}},{"type":"Feature","properties":{"id":"E01022803","name":"E01022803","parent":"E07000088","type":"LSOA","pop":1581,"r":274,"ff":83,"ffd":5249.8,"ffs":0.503,"g":104,"co":2,"mo":0,"sa":0,"ic":0},"geometry":{"type":"Polygon","coordinates":[[[-1.17233,50.82959],[-1.17203,50.82922],[-1.17151,50.82939],[-1.17036,50.82936],[-1.1691,50.82842],[-1.16855,50.8288],[-1.16742,50.8288],[-1.16703,50.8284],[-1.16906,50.82774],[-1.1686,50.82665],[-1.16852,50.82546],[-1.17069,50.82491],[-1.16999,50.82376],[-1.17117,50.82361],[-1.17133,50.82335],[-1.17313,50.82421],[-1.17353,50.82401],[-1.1729,50.82322],[-1.17199,50.82322],[-1.17179,50.82218],[-1.17338,50.8217],[-1.1746,50.82171],[-1.17786,50.82511],[-1.17832,50.8264],[-1.17668,50.82743],[-1.17584,50.82754],[-1.17596,50.82801],[-1.1753,50.82876],[-1.17374,50.82866],[-1.17329,50.82881],[-1.17347,50.82934],[-1.17233,50.82959]]]}},{"type":"Feature","properties":{"id":"E01022804","name":"E01022804","parent":"E07000088","type":"LSOA","pop":1560,"r":262,"ff":83,"ffd":5320.5,"ffs":0.5092,"g":94,"co":2,"mo":0,"sa":0,"ic":0},"geometry":{"type":"Polygon","coordinates":[[[-1.15644,50.83736],[-1.15251,50.83581],[-1.15124,50.83482],[-1.15019,50.83357],[-1.15036,50.83332],[-1.15001,50.83339],[-1.15048,50.83317],[-1.15005,50.83309],[-1.15038,50.83301],[-1.15035,50.83139],[-1.15107,50.83105],[-1.1503,50.83053],[-1.15144,50.83074],[-1.15119,50.83012],[-1.1522,50.83008],[-1.15244,50.82982],[-1.15091,50.82858],[-1.15028,50.82673],[-1.15688,50.82468],[-1.15659,50.82463],[-1.15717,50.82339],[-1.15706,50.82347],[-1.15713,50.82339],[-1.15809,50.82308],[-1.1593,50.8228],[-1.16109,50.82329],[-1.16214,50.82326],[-1.16277,50.82188],[-1.16358,50.82142],[-1.16382,50.8217],[-1.16565,50.8209],[-1.16757,50.82064],[-1.16779,50.82132],[-1.16927,50.82084],[-1.16855,50.82019],[-1.16922,50.82002],[-1.16942,50.81948],[-1.17232,50.81924],[-1.17289,50.81967],[-1.17278,50.82017],[-1.1746,50.82171],[-1.17338,50.8217],[-1.17179,50.82218],[-1.17199,50.82322],[-1.1729,50.82322],[-1.17353,50.82401],[-1.17313,50.82421],[-1.17133,50.82335],[-1.17117,50.82361],[-1.16999,50.82376],[-1.17069,50.82491],[-1.16852,50.82546],[-1.1686,50.82665],[-1.16906,50.82774],[-1.16703,50.8284],[-1.16786,50.82947],[-1.1666,50.82945],[-1.16667,50.83024],[-1.16611,50.83105],[-1.16061,50.8351],[-1.16096,50.8353],[-1.15999,50.83616],[-1.15948,50.83591],[-1.15895,50.83634],[-1.15949,50.83659],[-1.15904,50.83694],[-1.15812,50.83712],[-1.15843,50.83866],[-1.15693,50.8383],[-1.1573,50.838],[-1.15644,50.83736]]]}},{"type":"Feature","properties":{"id":"E01022805","name":"E01022805","parent":"E07000088","type":"LSOA","pop":1410,"r":251,"ff":80,"ffd":5673.8,"ffs":0.5161,"g":93,"co":2,"mo":0,"sa":0,"ic":0},"geometry":{"type":"Polygon","coordinates":[[[-1.16359,50.82141],[-1.16616,50.81975],[-1.16677,50.81899],[-1.16656,50.8181],[-1.16525,50.81526],[-1.16749,50.81475],[-1.16837,50.81495],[-1.16882,50.814],[-1.1684,50.81386],[-1.1697,50.81279],[-1.16923,50.81263],[-1.16965,50.8121],[-1.17286,50.81311],[-1.17247,50.81473],[-1.17354,50.81484],[-1.17319,50.81572],[-1.17264,50.81568],[-1.17242,50.81637],[-1.17241,50.81683],[-1.173,50.81683],[-1.1732,50.81774],[-1.17248,50.81838],[-1.17232,50.81924],[-1.16942,50.81948],[-1.16922,50.82002],[-1.16855,50.82019],[-1.16927,50.82084],[-1.16779,50.82132],[-1.16757,50.82064],[-1.16565,50.8209],[-1.16382,50.8217],[-1.16359,50.82141]]]}},{"type":"Feature","properties":{"id":"E01022806","name":"E01022806","parent":"E07000088","type":"LSOA","pop":1408,"r":177,"ff":66,"ffd":4687.5,"ffs":0.528,"g":50,"co":0,"mo":0,"sa":0,"ic":0},"geometry":{"type":"Polygon","coordinates":[[[-1.15276,50.80658],[-1.15215,50.80494],[-1.1509,50.8041],[-1.14957,50.80364],[-1.14991,50.80347],[-1.14958,50.80252],[-1.15099,50.80234],[-1.15198,50.80303],[-1.1527,50.80271],[-1.1531,50.80356],[-1.15359,50.80372],[-1.15324,50.80133],[-1.15338,50.79982],[-1.15522,50.79944],[-1.1554,50.8007],[-1.15774,50.80109],[-1.15738,50.80226],[-1.15782,50.80203],[-1.15845,50.80244],[-1.15786,50.80323],[-1.15528,50.8036],[-1.15478,50.80479],[-1.15411,50.80473],[-1.15505,50.80566],[-1.15403,50.80619],[-1.15374,50.80568],[-1.15326,50.80562],[-1.15348,50.80726],[-1.15299,50.80751],[-1.15276,50.80658]]]}},{"type":"Feature","properties":{"id":"E01022807","name":"E01022807","parent":"E07000088","type":"LSOA","pop":1380,"r":174,"ff":66,"ffd":4782.6,"ffs":0.528,"g":47,"co":0,"mo":0,"sa":0,"ic":0},"geometry":{"type":"Polygon","coordinates":[[[-1.14362,50.80232],[-1.14267,50.80199],[-1.14175,50.80115],[-1.14247,50.80063],[-1.14419,50.80073],[-1.14416,50.80105],[-1.14687,50.80141],[-1.14725,50.80051],[-1.14869,50.80106],[-1.1487,50.80071],[-1.14913,50.80098],[-1.15122,50.80126],[-1.15111,50.80152],[-1.15158,50.80157],[-1.15151,50.80266],[-1.15099,50.80234],[-1.14958,50.80252],[-1.14991,50.80347],[-1.14957,50.80364],[-1.14667,50.80287],[-1.14362,50.80232]]]}},{"type":"Feature","properties":{"id":"E01022810","name":"E01022810","parent":"E07000088","type":"LSOA","pop":1496,"r":147,"ff":58,"ffd":3877.0,"ffs":0.5631,"g":42,"co":0,"mo":0,"sa":1,"ic":0},"geometry":{"type":"Polygon","coordinates":[[[-1.13151,50.79719],[-1.13122,50.79672],[-1.13035,50.79681],[-1.13025,50.79612],[-1.12989,50.79615],[-1.1297,50.79714],[-1.12916,50.79723],[-1.12916,50.79428],[-1.13023,50.79415],[-1.13417,50.79294],[-1.13488,50.79316],[-1.13566,50.79274],[-1.13619,50.79202],[-1.13673,50.79236],[-1.13727,50.79226],[-1.13717,50.79194],[-1.13778,50.79208],[-1.13783,50.79179],[-1.13985,50.79176],[-1.13973,50.79245],[-1.13835,50.79224],[-1.13826,50.79271],[-1.13698,50.79272],[-1.13679,50.79417],[-1.13599,50.79412],[-1.13609,50.79452],[-1.13512,50.79494],[-1.13501,50.79531],[-1.1344,50.79535],[-1.13388,50.7958],[-1.13339,50.79589],[-1.13347,50.79647],[-1.13302,50.7965],[-1.13318,50.7975],[-1.13266,50.79753],[-1.13263,50.79722],[-1.13151,50.79719]]]}},{"type":"Feature","properties":{"id":"E01022812","name":"E01022812","parent":"E07000088","type":"LSOA","pop":1219,"r":149,"ff":58,"ffd":4758.0,"ffs":0.5524,"g":42,"co":0,"mo":0,"sa":1,"ic":0},"geometry":{"type":"Polygon","coordinates":[[[-1.13609,50.79452],[-1.13599,50.79412],[-1.13679,50.79417],[-1.13698,50.79272],[-1.13826,50.79271],[-1.13835,50.79224],[-1.13931,50.79239],[-1.13883,50.7936],[-1.13852,50.79359],[-1.13835,50.79511],[-1.13888,50.79515],[-1.13837,50.79643],[-1.13633,50.79788],[-1.1349,50.79787],[-1.13426,50.79765],[-1.13388,50.7958],[-1.1344,50.79535],[-1.13501,50.79531],[-1.13512,50.79494],[-1.13609,50.79452]]]}},{"type":"Feature","properties":{"id":"E01022813","name":"E01022813","parent":"E07000088","type":"LSOA","pop":1388,"r":195,"ff":67,"ffd":4827.1,"ffs":0.5234,"g":65,"co":0,"mo":0,"sa":0,"ic":0},"geometry":{"type":"Polygon","coordinates":[[[-1.15023,50.81255],[-1.15,50.81119],[-1.14932,50.8111],[-1.14968,50.81051],[-1.14909,50.8105],[-1.14887,50.80996],[-1.14776,50.81011],[-1.14799,50.81076],[-1.14742,50.81117],[-1.14562,50.81119],[-1.14349,50.81209],[-1.14229,50.81155],[-1.14244,50.81095],[-1.14503,50.81102],[-1.1451,50.81072],[-1.14566,50.81077],[-1.14572,50.81034],[-1.14625,50.81038],[-1.14639,50.8089],[-1.14611,50.80854],[-1.14543,50.80849],[-1.14554,50.80814],[-1.15151,50.8086],[-1.15191,50.80893],[-1.15258,50.80886],[-1.15268,50.80923],[-1.15325,50.80918],[-1.15403,50.81088],[-1.15349,50.81105],[-1.15357,50.81143],[-1.15111,50.81121],[-1.1514,50.81238],[-1.15023,50.81255]]]}},{"type":"Feature","properties":{"id":"E01022814","name":"E01022814","parent":"E07000088","type":"LSOA","pop":1566,"r":193,"ff":67,"ffd":4278.4,"ffs":0.5276,"g":64,"co":0,"mo":0,"sa":0,"ic":0},"geometry":{"type":"Polygon","coordinates":[[[-1.14897,50.8263],[-1.14898,50.82598],[-1.1476,50.82635],[-1.14765,50.82595],[-1.14577,50.82596],[-1.14258,50.82066],[-1.142,50.81768],[-1.14204,50.81726],[-1.14249,50.81714],[-1.14207,50.81717],[-1.14194,50.81683],[-1.14166,50.81699],[-1.14095,50.8163],[-1.14133,50.81607],[-1.14096,50.81567],[-1.13971,50.81546],[-1.13925,50.81421],[-1.14045,50.81379],[-1.14015,50.81326],[-1.14191,50.81327],[-1.14229,50.81155],[-1.14442,50.81246],[-1.14696,50.81245],[-1.14801,50.81372],[-1.14786,50.81393],[-1.15113,50.81526],[-1.14948,50.81667],[-1.15278,50.81671],[-1.1529,50.81446],[-1.15562,50.81232],[-1.15704,50.81326],[-1.1585,50.81488],[-1.15999,50.81715],[-1.16143,50.81883],[-1.16072,50.81906],[-1.16184,50.82042],[-1.16359,50.82141],[-1.16277,50.82188],[-1.16214,50.82326],[-1.16109,50.82329],[-1.1593,50.8228],[-1.15713,50.82339],[-1.15411,50.82535],[-1.15108,50.82611],[-1.15033,50.82582],[-1.14948,50.82593],[-1.15024,50.82599],[-1.15027,50.82622],[-1.14915,50.82663],[-1.14809,50.82649],[-1.14897,50.8263]]]}},{"type":"Feature","properties":{"id":"E01022815","name":"E01022815","parent":"E07000088","type":"LSOA","pop":1539,"r":204,"ff":70,"ffd":4548.4,"ffs":0.5263,"g":68,"co":0,"mo":0,"sa":0,"ic":0},"geometry":{"type":"Polygon","coordinates":[[[-1.14801,50.81372],[-1.14696,50.81245],[-1.14442,50.81246],[-1.14349,50.81209],[-1.14562,50.81119],[-1.14742,50.81117],[-1.14799,50.81076],[-1.14776,50.81011],[-1.14887,50.80996],[-1.14909,50.8105],[-1.14968,50.81051],[-1.14932,50.8111],[-1.15,50.81119],[-1.15023,50.81255],[-1.1514,50.81238],[-1.15111,50.81121],[-1.15357,50.81143],[-1.15349,50.81105],[-1.15403,50.81088],[-1.15562,50.81232],[-1.1529,50.81446],[-1.15278,50.81671],[-1.14948,50.81667],[-1.15113,50.81526],[-1.14786,50.81393],[-1.14801,50.81372]]]}},{"type":"Feature","properties":{"id":"E01022816","name":"E01022816","parent":"E07000088","type":"LSOA","pop":1356,"r":177,"ff":66,"ffd":4867.3,"ffs":0.5238,"g":49,"co":0,"mo":0,"sa":0,"ic":0},"geometry":{"type":"Polygon","coordinates":[[[-1.14511,50.80811],[-1.14275,50.80788],[-1.14194,50.80818],[-1.14144,50.80809],[-1.14205,50.80666],[-1.14086,50.80641],[-1.141,50.80615],[-1.14218,50.80638],[-1.14247,50.80546],[-1.14313,50.80538],[-1.14258,50.8052],[-1.14367,50.80458],[-1.14442,50.80481],[-1.1449,50.80428],[-1.14603,50.80496],[-1.14701,50.80492],[-1.14753,50.80555],[-1.14851,50.8056],[-1.14877,50.80598],[-1.1483,50.80622],[-1.14948,50.8064],[-1.1497,50.80672],[-1.14932,50.80683],[-1.14865,50.80629],[-1.14806,50.80657],[-1.14763,50.80809],[-1.14801,50.80832],[-1.14511,50.80811]]]}},{"type":"Feature","properties":{"id":"E01022817","name":"E01022817","parent":"E07000088","type":"LSOA","pop":1714,"r":188,"ff":67,"ffd":3909.0,"ffs":0.5276,"g":59,"co":0,"mo":0,"sa":0,"ic":0},"geometry":{"type":"Polygon","coordinates":[[[-1.15268,50.80923],[-1.15258,50.80886],[-1.15191,50.80893],[-1.15151,50.8086],[-1.14801,50.80832],[-1.14763,50.80809],[-1.14806,50.80657],[-1.14865,50.80629],[-1.14932,50.80683],[-1.1497,50.80672],[-1.14948,50.8064],[-1.1483,50.80622],[-1.14877,50.80598],[-1.14851,50.8056],[-1.14753,50.80555],[-1.14701,50.80492],[-1.14603,50.80496],[-1.1449,50.80428],[-1.14518,50.80396],[-1.14225,50.80331],[-1.14318,50.80301],[-1.14362,50.80232],[-1.14667,50.80287],[-1.1509,50.8041],[-1.15215,50.80494],[-1.15276,50.80658],[-1.15325,50.80918],[-1.15268,50.80923]]]}},{"type":"Feature","properties":{"id":"E01022818","name":"E01022818","parent":"E07000088","type":"LSOA","pop":1432,"r":171,"ff":66,"ffd":4608.9,"ffs":0.5366,"g":46,"co":0,"mo":0,"sa":0,"ic":0},"geometry":{"type":"Polygon","coordinates":[[[-1.141,50.80615],[-1.13989,50.80592],[-1.13951,50.8062],[-1.13765,50.80467],[-1.13625,50.80421],[-1.13794,50.80284],[-1.13837,50.80373],[-1.13857,50.8034],[-1.13976,50.80381],[-1.14022,50.80437],[-1.14083,50.80096],[-1.14108,50.80049],[-1.14267,50.80199],[-1.14362,50.80232],[-1.14318,50.80301],[-1.14225,50.80331],[-1.14518,50.80396],[-1.14442,50.80481],[-1.14367,50.80458],[-1.14258,50.8052],[-1.14313,50.80538],[-1.14247,50.80546],[-1.14218,50.80638],[-1.141,50.80615]]]}},{"type":"Feature","properties":{"id":"E01022819","name":"E01022819","parent":"E07000088","type":"LSOA","pop":1603,"r":216,"ff":73,"ffd":4554.0,"ffs":0.529,"g":75,"co":0,"mo":0,"sa":0,"ic":0},"geometry":{"type":"Polygon","coordinates":[[[-1.16283,50.80993],[-1.16514,50.80563],[-1.16783,50.80582],[-1.16779,50.80603],[-1.16864,50.80617],[-1.16877,50.80678],[-1.17006,50.80655],[-1.1702,50.80621],[-1.17083,50.80632],[-1.1711,50.80724],[-1.17175,50.80808],[-1.17209,50.80784],[-1.17291,50.80795],[-1.17189,50.80841],[-1.16687,50.80925],[-1.16576,50.80967],[-1.16335,50.80952],[-1.16283,50.80993]]]}},{"type":"Feature","properties":{"id":"E01022820","name":"E01022820","parent":"E07000088","type":"LSOA","pop":1703,"r":213,"ff":73,"ffd":4286.6,"ffs":0.5407,"g":75,"co":0,"mo":0,"sa":0,"ic":0},"geometry":{"type":"Polygon","coordinates":[[[-1.17788,50.80962],[-1.17703,50.80932],[-1.17682,50.80854],[-1.17575,50.80758],[-1.17468,50.80765],[-1.17446,50.80739],[-1.17291,50.80795],[-1.17209,50.80784],[-1.17175,50.80808],[-1.1711,50.80724],[-1.17083,50.80632],[-1.1702,50.80621],[-1.17006,50.80655],[-1.16877,50.80678],[-1.16864,50.80617],[-1.16779,50.80603],[-1.16785,50.80535],[-1.16825,50.8051],[-1.16837,50.80541],[-1.16916,50.80562],[-1.17054,50.80536],[-1.1702,50.80423],[-1.17147,50.80395],[-1.17381,50.80402],[-1.17439,50.8035],[-1.17433,50.8032],[-1.17335,50.80346],[-1.17177,50.80311],[-1.17119,50.80263],[-1.17227,50.8027],[-1.17244,50.80206],[-1.17332,50.80224],[-1.17362,50.80267],[-1.17455,50.80199],[-1.17583,50.80164],[-1.17609,50.80284],[-1.1794,50.80227],[-1.17999,50.80465],[-1.18084,50.80515],[-1.1814,50.80633],[-1.1808,50.8085],[-1.18182,50.81017],[-1.18107,50.81013],[-1.18022,50.80954],[-1.17834,50.8102],[-1.17788,50.80962]]]}},{"type":"Feature","properties":{"id":"E01022823","name":"E01022823","parent":"E07000088","type":"LSOA","pop":1458,"r":181,"ff":66,"ffd":4526.7,"ffs":0.5238,"g":53,"co":0,"mo":0,"sa":0,"ic":0},"geometry":{"type":"Polygon","coordinates":[[[-1.13954,50.8123],[-1.13892,50.81146],[-1.13754,50.81091],[-1.13842,50.80944],[-1.1379,50.80918],[-1.13951,50.8062],[-1.13989,50.80592],[-1.141,50.80615],[-1.14086,50.80641],[-1.14205,50.80666],[-1.14144,50.80809],[-1.14194,50.80818],[-1.14275,50.80788],[-1.14554,50.80814],[-1.14543,50.80849],[-1.14611,50.80854],[-1.14639,50.8089],[-1.14625,50.81038],[-1.14572,50.81034],[-1.14566,50.81077],[-1.1451,50.81072],[-1.14449,50.81032],[-1.14163,50.81006],[-1.14156,50.81043],[-1.14105,50.81038],[-1.1407,50.812],[-1.14019,50.81196],[-1.14009,50.81231],[-1.13954,50.8123]]]}},{"type":"Feature","properties":{"id":"E01022825","name":"E01022825","parent":"E07000088","type":"LSOA","pop":1355,"r":183,"ff":66,"ffd":4870.8,"ffs":0.5238,"g":55,"co":0,"mo":0,"sa":0,"ic":0},"geometry":{"type":"Polygon","coordinates":[[[-1.13422,50.81349],[-1.133,50.81228],[-1.13198,50.81156],[-1.13436,50.81298],[-1.13565,50.81315],[-1.13486,50.81246],[-1.13421,50.8124],[-1.13489,50.81054],[-1.13754,50.81091],[-1.13892,50.81146],[-1.13954,50.8123],[-1.14009,50.81231],[-1.14019,50.81196],[-1.1407,50.812],[-1.14105,50.81038],[-1.14156,50.81043],[-1.14163,50.81006],[-1.14449,50.81032],[-1.1451,50.81072],[-1.14503,50.81102],[-1.14244,50.81095],[-1.14191,50.81327],[-1.14015,50.81326],[-1.14045,50.81379],[-1.13925,50.81421],[-1.13971,50.81546],[-1.14096,50.81567],[-1.14133,50.81607],[-1.14095,50.8163],[-1.14041,50.81576],[-1.13911,50.81562],[-1.13505,50.81352],[-1.13422,50.81349]]]}},{"type":"Feature","properties":{"id":"E01022826","name":"E01022826","parent":"E07000088","type":"LSOA","pop":1440,"r":239,"ff":76,"ffd":5277.8,"ffs":0.5205,"g":90,"co":0,"mo":0,"sa":0,"ic":0},"geometry":{"type":"Polygon","coordinates":[[[-1.18915,50.80888],[-1.18806,50.80689],[-1.19253,50.80819],[-1.19414,50.80794],[-1.19395,50.8066],[-1.19344,50.80608],[-1.19199,50.8022],[-1.19067,50.7999],[-1.19157,50.7996],[-1.19523,50.80018],[-1.19379,50.80065],[-1.19497,50.80156],[-1.19416,50.80263],[-1.19456,50.80321],[-1.19538,50.80331],[-1.19515,50.80384],[-1.19439,50.80376],[-1.19433,50.8053],[-1.19564,50.80558],[-1.19515,50.80616],[-1.19578,50.80639],[-1.19603,50.80712],[-1.19549,50.80721],[-1.19542,50.80758],[-1.19778,50.8078],[-1.19728,50.80842],[-1.19397,50.81104],[-1.18689,50.8114],[-1.18716,50.81102],[-1.18946,50.81078],[-1.18915,50.80888]]]}},{"type":"Feature","properties":{"id":"E01022828","name":"E01022828","parent":"E07000088","type":"LSOA","pop":1318,"r":221,"ff":73,"ffd":5538.7,"ffs":0.529,"g":80,"co":0,"mo":0,"sa":0,"ic":0},"geometry":{"type":"Polygon","coordinates":[[[-1.20708,50.80548],[-1.20384,50.80271],[-1.20369,50.80319],[-1.20292,50.80256],[-1.20244,50.80278],[-1.19964,50.80031],[-1.1994,50.80052],[-1.19895,50.80035],[-1.19857,50.80088],[-1.19906,50.80142],[-1.19831,50.80148],[-1.19811,50.80198],[-1.19864,50.80219],[-1.19776,50.80268],[-1.19828,50.80333],[-1.19786,50.80372],[-1.1974,50.80368],[-1.19808,50.80429],[-1.19663,50.80399],[-1.19803,50.80058],[-1.19881,50.79964],[-1.19758,50.79865],[-1.19597,50.79841],[-1.19655,50.79752],[-1.19386,50.79711],[-1.19392,50.79685],[-1.19476,50.79649],[-1.19544,50.79662],[-1.19484,50.79594],[-1.1953,50.79578],[-1.19662,50.79632],[-1.19829,50.79558],[-1.20098,50.79839],[-1.20394,50.80063],[-1.20991,50.80623],[-1.20803,50.80712],[-1.2065,50.80688],[-1.20739,50.80587],[-1.20708,50.80548]]]}},{"type":"Feature","properties":{"id":"E01022829","name":"E01022829","parent":"E07000088","type":"LSOA","pop":2641,"r":229,"ff":73,"ffd":2764.1,"ffs":0.529,"g":88,"co":0,"mo":0,"sa":0,"ic":0},"geometry":{"type":"Polygon","coordinates":[[[-1.19603,50.80712],[-1.19578,50.80639],[-1.19515,50.80616],[-1.19533,50.80598],[-1.19622,50.8061],[-1.19663,50.80399],[-1.19808,50.80429],[-1.1974,50.80368],[-1.19786,50.80372],[-1.19828,50.80333],[-1.19776,50.80268],[-1.19864,50.80219],[-1.19811,50.80198],[-1.19831,50.80148],[-1.19906,50.80142],[-1.19857,50.80088],[-1.19895,50.80035],[-1.1994,50.80052],[-1.19964,50.80031],[-1.20244,50.80278],[-1.20292,50.80256],[-1.20369,50.80319],[-1.20384,50.80271],[-1.20708,50.80548],[-1.20739,50.80587],[-1.2065,50.80688],[-1.20803,50.80712],[-1.20991,50.80623],[-1.21405,50.80919],[-1.21373,50.80985],[-1.21415,50.81079],[-1.20988,50.81129],[-1.20989,50.8117],[-1.19397,50.81104],[-1.19728,50.80842],[-1.19778,50.8078],[-1.19542,50.80758],[-1.19549,50.80721],[-1.19603,50.80712]]]}},{"type":"Feature","properties":{"id":"E01022830","name":"E01022830","parent":"E07000088","type":"LSOA","pop":1391,"r":207,"ff":72,"ffd":5176.1,"ffs":0.5373,"g":71,"co":0,"mo":0,"sa":0,"ic":0},"geometry":{"type":"Polygon","coordinates":[[[-1.1891,50.79648],[-1.18811,50.79543],[-1.18771,50.79458],[-1.1835,50.79449],[-1.1816,50.79285],[-1.18149,50.79214],[-1.17612,50.79097],[-1.17246,50.7914],[-1.17246,50.78918],[-1.17419,50.78824],[-1.17441,50.78778],[-1.17486,50.78796],[-1.17569,50.7873],[-1.176,50.78641],[-1.18478,50.78788],[-1.19112,50.79047],[-1.19726,50.79452],[-1.19829,50.79558],[-1.19662,50.79632],[-1.1953,50.79578],[-1.19484,50.79594],[-1.19544,50.79662],[-1.19476,50.79649],[-1.19392,50.79685],[-1.19386,50.79711],[-1.1891,50.79648]]]}},{"type":"Feature","properties":{"id":"E01022831","name":"E01022831","parent":"E07000088","type":"LSOA","pop":1320,"r":161,"ff":61,"ffd":4621.2,"ffs":0.5351,"g":45,"co":0,"mo":0,"sa":0,"ic":0},"geometry":{"type":"Polygon","coordinates":[[[-1.1426,50.79773],[-1.14126,50.79744],[-1.13904,50.79751],[-1.13837,50.79643],[-1.13888,50.79515],[-1.13835,50.79511],[-1.13852,50.79359],[-1.13883,50.7936],[-1.13931,50.79239],[-1.14116,50.79278],[-1.14136,50.79253],[-1.14135,50.79294],[-1.14399,50.793],[-1.14438,50.79259],[-1.1444,50.79233],[-1.14509,50.79224],[-1.14936,50.79296],[-1.14894,50.79436],[-1.14833,50.7943],[-1.14806,50.79515],[-1.14692,50.79488],[-1.14624,50.79516],[-1.14609,50.79482],[-1.14467,50.79474],[-1.1431,50.79531],[-1.14323,50.79592],[-1.14272,50.7961],[-1.14297,50.79658],[-1.1426,50.79773]]]}},{"type":"Feature","properties":{"id":"E01022832","name":"E01022832","parent":"E07000088","type":"LSOA","pop":1655,"r":160,"ff":59,"ffd":3565.0,"ffs":0.5221,"g":45,"co":0,"mo":0,"sa":0,"ic":0},"geometry":{"type":"Polygon","coordinates":[[[-1.1431,50.79531],[-1.14467,50.79474],[-1.14609,50.79482],[-1.14624,50.79516],[-1.14692,50.79488],[-1.14806,50.79515],[-1.14833,50.7943],[-1.14894,50.79436],[-1.14861,50.79686],[-1.14884,50.7999],[-1.14869,50.80106],[-1.1429,50.79897],[-1.14344,50.79662],[-1.14297,50.79658],[-1.14272,50.7961],[-1.14323,50.79592],[-1.1431,50.79531]]]}},{"type":"Feature","properties":{"id":"E01022833","name":"E01022833","parent":"E07000088","type":"LSOA","pop":1769,"r":162,"ff":61,"ffd":3448.3,"ffs":0.5304,"g":45,"co":0,"mo":0,"sa":0,"ic":0},"geometry":{"type":"Polygon","coordinates":[[[-1.13553,50.80442],[-1.13469,50.80382],[-1.13711,50.80229],[-1.13669,50.80193],[-1.13538,50.80226],[-1.13445,50.80212],[-1.1337,50.80012],[-1.13415,50.80006],[-1.13423,50.79785],[-1.13633,50.79788],[-1.13837,50.79643],[-1.13904,50.79751],[-1.14126,50.79744],[-1.1426,50.79773],[-1.14297,50.79658],[-1.14344,50.79662],[-1.1429,50.79897],[-1.14725,50.80051],[-1.14687,50.80141],[-1.14416,50.80105],[-1.14419,50.80073],[-1.14247,50.80063],[-1.14175,50.80115],[-1.14108,50.80049],[-1.14083,50.80096],[-1.14022,50.80437],[-1.13976,50.80381],[-1.13857,50.8034],[-1.13837,50.80373],[-1.13794,50.80284],[-1.13625,50.80421],[-1.13606,50.80455],[-1.13553,50.80442]]]}},{"type":"Feature","properties":{"id":"E01022834","name":"E01022834","parent":"E07000088","type":"LSOA","pop":1278,"r":258,"ff":82,"ffd":6416.3,"ffs":0.5157,"g":95,"co":2,"mo":0,"sa":0,"ic":0},"geometry":{"type":"Polygon","coordinates":[[[-1.17589,50.81962],[-1.17289,50.81967],[-1.17232,50.81924],[-1.17248,50.81838],[-1.1732,50.81774],[-1.173,50.81683],[-1.17241,50.81683],[-1.17242,50.81637],[-1.17264,50.81568],[-1.17319,50.81572],[-1.17354,50.81484],[-1.17247,50.81473],[-1.17286,50.81311],[-1.17875,50.81601],[-1.17761,50.81712],[-1.17896,50.81766],[-1.17845,50.81824],[-1.17965,50.81847],[-1.17948,50.81889],[-1.17769,50.81846],[-1.17708,50.81859],[-1.17708,50.81993],[-1.17617,50.81993],[-1.17589,50.81962]]]}},{"type":"Feature","properties":{"id":"E01022835","name":"E01022835","parent":"E07000088","type":"LSOA","pop":1372,"r":284,"ff":86,"ffd":6268.2,"ffs":0.5059,"g":109,"co":2,"mo":0,"sa":0,"ic":0},"geometry":{"type":"Polygon","coordinates":[[[-1.17654,50.8236],[-1.17278,50.82017],[-1.17289,50.81967],[-1.17589,50.81962],[-1.17617,50.81993],[-1.17708,50.81993],[-1.17701,50.81915],[-1.1779,50.81933],[-1.17808,50.81896],[-1.18045,50.81968],[-1.18045,50.8202],[-1.18129,50.82027],[-1.18123,50.82192],[-1.18072,50.82194],[-1.18081,50.82258],[-1.18031,50.82246],[-1.18017,50.82266],[-1.18093,50.82429],[-1.18037,50.82445],[-1.18048,50.82488],[-1.17991,50.82518],[-1.17786,50.82511],[-1.17654,50.8236]]]}},{"type":"Feature","properties":{"id":"E01022836","name":"E01022836","parent":"E07000088","type":"LSOA","pop":1365,"r":271,"ff":84,"ffd":6153.8,"ffs":0.503,"g":99,"co":2,"mo":0,"sa":0,"ic":0},"geometry":{"type":"Polygon","coordinates":[[[-1.18327,50.82576],[-1.18261,50.82484],[-1.18048,50.82488],[-1.18037,50.82445],[-1.18093,50.82429],[-1.18017,50.82266],[-1.18031,50.82246],[-1.18081,50.82258],[-1.18072,50.82194],[-1.18123,50.82192],[-1.18129,50.82027],[-1.18045,50.8202],[-1.18045,50.81968],[-1.17808,50.81896],[-1.1779,50.81933],[-1.17701,50.81915],[-1.17708,50.81859],[-1.17769,50.81846],[-1.17948,50.81889],[-1.17965,50.81847],[-1.17845,50.81824],[-1.17896,50.81766],[-1.17761,50.81712],[-1.17875,50.81601],[-1.1863,50.81959],[-1.18632,50.82152],[-1.18922,50.82204],[-1.18803,50.82397],[-1.18568,50.82434],[-1.18589,50.82523],[-1.18464,50.82651],[-1.18418,50.82597],[-1.18327,50.82576]]]}},{"type":"Feature","properties":{"id":"E01022837","name":"E01022837","parent":"E07000088","type":"LSOA","pop":1529,"r":177,"ff":66,"ffd":4316.5,"ffs":0.5366,"g":52,"co":0,"mo":0,"sa":0,"ic":0},"geometry":{"type":"Polygon","coordinates":[[[-1.15285,50.79431],[-1.15267,50.79376],[-1.15196,50.79377],[-1.15055,50.79337],[-1.15022,50.79367],[-1.14919,50.79349],[-1.14936,50.79296],[-1.15174,50.79312],[-1.15194,50.79256],[-1.15263,50.79257],[-1.15235,50.79199],[-1.15313,50.79183],[-1.15372,50.79125],[-1.15351,50.79075],[-1.1553,50.79076],[-1.15835,50.79134],[-1.15907,50.79188],[-1.15968,50.79188],[-1.15957,50.79267],[-1.15864,50.79304],[-1.15859,50.79335],[-1.16052,50.79367],[-1.16016,50.79322],[-1.16041,50.79278],[-1.16218,50.79277],[-1.16283,50.79429],[-1.1634,50.79468],[-1.16212,50.79731],[-1.15722,50.7971],[-1.15651,50.79692],[-1.15662,50.79655],[-1.15494,50.79444],[-1.15285,50.79431]]]}},{"type":"Feature","properties":{"id":"E01022838","name":"E01022838","parent":"E07000088","type":"LSOA","pop":1245,"r":171,"ff":64,"ffd":5140.6,"ffs":0.5378,"g":50,"co":0,"mo":0,"sa":0,"ic":0},"geometry":{"type":"Polygon","coordinates":[[[-1.16283,50.79429],[-1.16218,50.79277],[-1.16041,50.79278],[-1.16016,50.79322],[-1.16052,50.79367],[-1.15859,50.79335],[-1.15864,50.79304],[-1.15957,50.79267],[-1.15968,50.79188],[-1.15907,50.79188],[-1.15835,50.79134],[-1.1553,50.79076],[-1.153,50.79072],[-1.15309,50.78998],[-1.15378,50.78988],[-1.15384,50.78807],[-1.15413,50.78739],[-1.15549,50.78775],[-1.15543,50.78815],[-1.15903,50.78862],[-1.15917,50.78839],[-1.16059,50.78897],[-1.16097,50.78882],[-1.16174,50.78937],[-1.16279,50.78946],[-1.16295,50.78919],[-1.16345,50.78939],[-1.16331,50.79089],[-1.16276,50.79098],[-1.16286,50.79157],[-1.16333,50.79151],[-1.16348,50.79197],[-1.16312,50.79289],[-1.16381,50.79297],[-1.16402,50.79384],[-1.16334,50.79395],[-1.1634,50.79468],[-1.16283,50.79429]]]}},{"type":"Feature","properties":{"id":"E01022839","name":"E01022839","parent":"E07000088","type":"LSOA","pop":1245,"r":166,"ff":63,"ffd":5060.2,"ffs":0.5294,"g":45,"co":0,"mo":0,"sa":0,"ic":0},"geometry":{"type":"Polygon","coordinates":[[[-1.14894,50.79436],[-1.14919,50.79349],[-1.15022,50.79367],[-1.15055,50.79337],[-1.15196,50.79377],[-1.15267,50.79376],[-1.15285,50.79431],[-1.15494,50.79444],[-1.15662,50.79655],[-1.15651,50.79692],[-1.15722,50.7971],[-1.1574,50.79797],[-1.14866,50.79706],[-1.14894,50.79436]]]}},{"type":"Feature","properties":{"id":"E01022840","name":"E01022840","parent":"E07000088","type":"LSOA","pop":1487,"r":247,"ff":81,"ffd":5447.2,"ffs":0.5226,"g":89,"co":2,"mo":0,"sa":0,"ic":0},"geometry":{"type":"Polygon","coordinates":[[[-1.15999,50.81715],[-1.1585,50.81488],[-1.16323,50.81567],[-1.16203,50.81417],[-1.1627,50.81392],[-1.16171,50.81255],[-1.16322,50.81207],[-1.16318,50.8131],[-1.16434,50.81336],[-1.16399,50.81384],[-1.16499,50.81467],[-1.16656,50.8181],[-1.16677,50.81899],[-1.16616,50.81975],[-1.16359,50.82141],[-1.16184,50.82042],[-1.16072,50.81906],[-1.16143,50.81883],[-1.15999,50.81715]]]}},{"type":"Feature","properties":{"id":"E01022841","name":"E01022841","parent":"E07000088","type":"LSOA","pop":1521,"r":233,"ff":76,"ffd":4996.7,"ffs":0.5278,"g":86,"co":2,"mo":0,"sa":0,"ic":0},"geometry":{"type":"Polygon","coordinates":[[[-1.15704,50.81326],[-1.1627,50.81122],[-1.16283,50.80993],[-1.16335,50.80952],[-1.16576,50.80967],[-1.16687,50.80925],[-1.16788,50.80968],[-1.1689,50.80947],[-1.1692,50.80998],[-1.16884,50.81048],[-1.16943,50.81033],[-1.16991,50.81069],[-1.17163,50.80982],[-1.1719,50.81071],[-1.16895,50.81158],[-1.16974,50.81175],[-1.16923,50.81263],[-1.1697,50.81279],[-1.1684,50.81386],[-1.16882,50.814],[-1.16837,50.81495],[-1.16749,50.81475],[-1.16525,50.81526],[-1.16499,50.81467],[-1.16399,50.81384],[-1.16434,50.81336],[-1.16318,50.8131],[-1.16322,50.81207],[-1.16171,50.81255],[-1.1627,50.81392],[-1.16203,50.81417],[-1.16323,50.81567],[-1.1585,50.81488],[-1.15704,50.81326]]]}},{"type":"Feature","properties":{"id":"E01022842","name":"E01022842","parent":"E07000088","type":"LSOA","pop":1692,"r":244,"ff":78,"ffd":4609.9,"ffs":0.52,"g":91,"co":0,"mo":0,"sa":0,"ic":0},"geometry":{"type":"Polygon","coordinates":[[[-1.17137,50.81257],[-1.16962,50.81209],[-1.16974,50.81175],[-1.16895,50.81158],[-1.1719,50.81071],[-1.17163,50.80982],[-1.16991,50.81069],[-1.16943,50.81033],[-1.16884,50.81048],[-1.1692,50.80998],[-1.1689,50.80947],[-1.16788,50.80968],[-1.16687,50.80925],[-1.17189,50.80841],[-1.17446,50.80739],[-1.17468,50.80765],[-1.17575,50.80758],[-1.17682,50.80854],[-1.17703,50.80932],[-1.17788,50.80962],[-1.17834,50.8102],[-1.18022,50.80954],[-1.18107,50.81013],[-1.18182,50.81017],[-1.18542,50.81139],[-1.187,50.8114],[-1.18681,50.81236],[-1.18476,50.81234],[-1.18148,50.81302],[-1.1796,50.81318],[-1.17884,50.81431],[-1.17939,50.81544],[-1.18093,50.8159],[-1.18231,50.81727],[-1.18365,50.81772],[-1.18396,50.81835],[-1.1863,50.81959],[-1.17313,50.81323],[-1.17137,50.81257]]]}},{"type":"Feature","properties":{"id":"E01022843","name":"E01022843","parent":"E07000088","type":"LSOA","pop":1554,"r":144,"ff":57,"ffd":3668.0,"ffs":0.5588,"g":40,"co":0,"mo":0,"sa":1,"ic":0},"geometry":{"type":"Polygon","coordinates":[[[-1.12607,50.7939],[-1.12588,50.79279],[-1.12513,50.79287],[-1.12443,50.79201],[-1.12534,50.7921],[-1.12818,50.79178],[-1.12854,50.79123],[-1.12749,50.79069],[-1.12673,50.78932],[-1.12965,50.78947],[-1.13081,50.78885],[-1.13294,50.79003],[-1.13221,50.79033],[-1.12989,50.7901],[-1.12983,50.79037],[-1.13414,50.79058],[-1.13449,50.79222],[-1.13527,50.79206],[-1.13518,50.79246],[-1.13566,50.79274],[-1.13488,50.79316],[-1.13417,50.79294],[-1.13023,50.79415],[-1.12916,50.79428],[-1.12908,50.79468],[-1.12683,50.79467],[-1.12644,50.79392],[-1.12607,50.7939]]]}},{"type":"Feature","properties":{"id":"E01022845","name":"E01022845","parent":"E07000088","type":"LSOA","pop":1357,"r":147,"ff":57,"ffd":4200.4,"ffs":0.5534,"g":42,"co":0,"mo":0,"sa":1,"ic":0},"geometry":{"type":"Polygon","coordinates":[[[-1.13518,50.79246],[-1.13527,50.79206],[-1.13449,50.79222],[-1.13414,50.79058],[-1.12983,50.79037],[-1.12989,50.7901],[-1.13221,50.79033],[-1.13294,50.79003],[-1.13471,50.79041],[-1.13622,50.79036],[-1.13624,50.78971],[-1.13369,50.78929],[-1.13264,50.78841],[-1.13175,50.78842],[-1.13177,50.78795],[-1.13283,50.7872],[-1.13193,50.78729],[-1.13256,50.7871],[-1.13362,50.78598],[-1.13592,50.78606],[-1.13756,50.78545],[-1.14015,50.78508],[-1.14043,50.78474],[-1.14031,50.78518],[-1.13917,50.78539],[-1.1381,50.78652],[-1.1398,50.78684],[-1.13915,50.79167],[-1.13783,50.79179],[-1.13778,50.79208],[-1.13717,50.79194],[-1.13727,50.79226],[-1.13673,50.79236],[-1.13619,50.79202],[-1.13566,50.79274],[-1.13518,50.79246]]]}},{"type":"Feature","properties":{"id":"E01032878","name":"E01032878","parent":"E07000088","type":"LSOA","pop":1117,"r":145,"ff":57,"ffd":5103.0,"ffs":0.5644,"g":42,"co":0,"mo":0,"sa":1,"ic":0},"geometry":{"type":"Polygon","coordinates":[[[-1.12487,50.79821],[-1.12463,50.79629],[-1.12289,50.79625],[-1.12251,50.79655],[-1.12216,50.79624],[-1.11917,50.79569],[-1.1201,50.79512],[-1.11813,50.79474],[-1.11866,50.79421],[-1.11961,50.79412],[-1.11939,50.7937],[-1.12092,50.79388],[-1.12209,50.79345],[-1.1244,50.792],[-1.12513,50.79287],[-1.12588,50.79279],[-1.12607,50.7939],[-1.12644,50.79392],[-1.12683,50.79467],[-1.12908,50.79468],[-1.12918,50.79794],[-1.12776,50.79788],[-1.12487,50.79821]]]}},{"type":"Feature","properties":{"id":"E01032879","name":"E01032879","parent":"E07000088","type":"LSOA","pop":1241,"r":164,"ff":62,"ffd":4996.0,"ffs":0.5299,"g":45,"co":0,"mo":0,"sa":0,"ic":0},"geometry":{"type":"Polygon","coordinates":[[[-1.12085,50.7971],[-1.12004,50.79693],[-1.11882,50.79724],[-1.11754,50.79639],[-1.11718,50.79651],[-1.11657,50.7957],[-1.11717,50.79319],[-1.11865,50.79128],[-1.12101,50.79009],[-1.12291,50.79168],[-1.12289,50.79215],[-1.1222,50.79245],[-1.12382,50.79195],[-1.1244,50.792],[-1.12209,50.79345],[-1.12092,50.79388],[-1.11939,50.7937],[-1.11961,50.79412],[-1.11866,50.79421],[-1.11813,50.79474],[-1.1201,50.79512],[-1.11917,50.79569],[-1.12216,50.79624],[-1.12251,50.79655],[-1.12289,50.79625],[-1.12463,50.79629],[-1.12506,50.79893],[-1.12239,50.79997],[-1.12406,50.79926],[-1.12414,50.79889],[-1.12304,50.79867],[-1.12085,50.7971]]]}},{"type":"Feature","properties":{"id":"E01032880","name":"E01032880","parent":"E07000088","type":"LSOA","pop":1388,"r":240,"ff":76,"ffd":5475.5,"ffs":0.517,"g":90,"co":0,"mo":0,"sa":0,"ic":0},"geometry":{"type":"Polygon","coordinates":[[[-1.1808,50.8085],[-1.1814,50.80633],[-1.18084,50.80515],[-1.17999,50.80465],[-1.17943,50.80231],[-1.18612,50.80142],[-1.1885,50.80068],[-1.18864,50.80092],[-1.18912,50.80083],[-1.18917,50.80141],[-1.18962,50.80165],[-1.18976,50.80118],[-1.19137,50.80111],[-1.19199,50.8022],[-1.19344,50.80608],[-1.19395,50.8066],[-1.19414,50.80794],[-1.19253,50.80819],[-1.18806,50.80689],[-1.18915,50.80888],[-1.18946,50.81078],[-1.18716,50.81102],[-1.18689,50.8114],[-1.18542,50.81139],[-1.18182,50.81017],[-1.1808,50.8085]]]}},{"type":"Feature","properties":{"id":"E01032881","name":"E01032881","parent":"E07000088","type":"LSOA","pop":1674,"r":221,"ff":73,"ffd":4360.8,"ffs":0.5328,"g":81,"co":0,"mo":0,"sa":0,"ic":0},"geometry":{"type":"Polygon","coordinates":[[[-1.1782,50.80089],[-1.17477,50.79853],[-1.17421,50.79734],[-1.1727,50.79633],[-1.17157,50.79593],[-1.17101,50.79528],[-1.17015,50.79307],[-1.17057,50.79177],[-1.17612,50.79097],[-1.17797,50.79127],[-1.18149,50.79214],[-1.1816,50.79285],[-1.1835,50.79449],[-1.18771,50.79458],[-1.18811,50.79543],[-1.1891,50.79648],[-1.19168,50.79684],[-1.19155,50.79723],[-1.19049,50.79708],[-1.19022,50.79786],[-1.1903,50.79811],[-1.19147,50.79816],[-1.19144,50.79854],[-1.19193,50.79851],[-1.19157,50.7996],[-1.19067,50.7999],[-1.19137,50.80111],[-1.18976,50.80118],[-1.18962,50.80165],[-1.18917,50.80141],[-1.18912,50.80083],[-1.18864,50.80092],[-1.1885,50.80068],[-1.18612,50.80142],[-1.17943,50.80231],[-1.1782,50.80089]]]}},{"type":"Feature","properties":{"id":"E01032883","name":"E01032883","parent":"E07000088","type":"LSOA","pop":1342,"r":218,"ff":73,"ffd":5439.6,"ffs":0.5328,"g":78,"co":0,"mo":0,"sa":0,"ic":0},"geometry":{"type":"Polygon","coordinates":[[[-1.19433,50.8053],[-1.19439,50.80376],[-1.19515,50.80384],[-1.19538,50.80331],[-1.19456,50.80321],[-1.19416,50.80263],[-1.19497,50.80156],[-1.19379,50.80065],[-1.19523,50.80018],[-1.19157,50.7996],[-1.19193,50.79851],[-1.19144,50.79854],[-1.19147,50.79816],[-1.1903,50.79811],[-1.19022,50.79786],[-1.19049,50.79708],[-1.19155,50.79723],[-1.19168,50.79684],[-1.19655,50.79752],[-1.19597,50.79841],[-1.19758,50.79865],[-1.19881,50.79964],[-1.19803,50.80058],[-1.19705,50.80288],[-1.19663,50.80399],[-1.19622,50.8061],[-1.19533,50.80598],[-1.19564,50.80558],[-1.19433,50.8053]]]}},{"type":"Feature","properties":{"id":"E01032884","name":"E01032884","parent":"E07000088","type":"LSOA","pop":2251,"r":177,"ff":66,"ffd":2932.0,"ffs":0.528,"g":50,"co":0,"mo":0,"sa":0,"ic":0},"geometry":{"type":"Polygon","coordinates":[[[-1.15348,50.80726],[-1.15326,50.80562],[-1.15374,50.80568],[-1.15403,50.80619],[-1.15505,50.80566],[-1.15411,50.80473],[-1.15478,50.80479],[-1.15528,50.8036],[-1.15786,50.80323],[-1.15845,50.80244],[-1.15782,50.80203],[-1.15738,50.80226],[-1.15774,50.80109],[-1.1554,50.8007],[-1.15522,50.79944],[-1.15338,50.79982],[-1.15324,50.80133],[-1.15359,50.80372],[-1.1531,50.80356],[-1.1527,50.80271],[-1.15198,50.80303],[-1.15151,50.80266],[-1.15158,50.80157],[-1.15111,50.80152],[-1.15122,50.80126],[-1.14913,50.80098],[-1.1487,50.80071],[-1.14884,50.7999],[-1.14866,50.79706],[-1.1574,50.79797],[-1.15722,50.7971],[-1.16212,50.79731],[-1.1634,50.79468],[-1.16337,50.79432],[-1.16629,50.79302],[-1.16815,50.79261],[-1.16644,50.79946],[-1.16514,50.80563],[-1.16283,50.80993],[-1.1627,50.81122],[-1.15704,50.81326],[-1.15562,50.81232],[-1.15403,50.81088],[-1.15325,50.80918],[-1.15299,50.80751],[-1.15348,50.80726]]]}},{"type":"Feature","properties":{"id":"E01034060","name":"E01034060","parent":"E07000088","type":"LSOA","pop":2226,"r":211,"ff":71,"ffd":3189.6,"ffs":0.5338,"g":75,"co":0,"mo":0,"sa":0,"ic":0},"geometry":{"type":"Polygon","coordinates":[[[-1.16522,50.80522],[-1.16644,50.79946],[-1.16744,50.79976],[-1.16669,50.80031],[-1.16692,50.80057],[-1.16754,50.80063],[-1.16769,50.80031],[-1.16828,50.80024],[-1.1704,50.80072],[-1.17083,50.79997],[-1.1718,50.80104],[-1.17186,50.80192],[-1.17244,50.80206],[-1.17227,50.8027],[-1.17119,50.80263],[-1.17177,50.80311],[-1.17335,50.80346],[-1.17433,50.8032],[-1.17439,50.8035],[-1.17381,50.80402],[-1.17147,50.80395],[-1.1702,50.80423],[-1.17054,50.80536],[-1.16916,50.80562],[-1.16837,50.80541],[-1.16825,50.8051],[-1.16785,50.80535],[-1.16783,50.80582],[-1.16514,50.80563],[-1.16522,50.80522]]]}},{"type":"Feature","properties":{"id":"E01034061","name":"E01034061","parent":"E07000088","type":"LSOA","pop":1167,"r":201,"ff":71,"ffd":6084.0,"ffs":0.5379,"g":67,"co":0,"mo":0,"sa":0,"ic":0},"geometry":{"type":"Polygon","coordinates":[[[-1.17609,50.80284],[-1.17583,50.80164],[-1.17455,50.80199],[-1.17362,50.80267],[-1.17332,50.80224],[-1.17186,50.80192],[-1.1718,50.80104],[-1.17083,50.79997],[-1.1704,50.80072],[-1.16828,50.80024],[-1.16769,50.80031],[-1.16754,50.80063],[-1.16692,50.80057],[-1.16669,50.80031],[-1.16744,50.79976],[-1.16644,50.79946],[-1.16815,50.79261],[-1.17057,50.79177],[-1.17015,50.79307],[-1.17101,50.79528],[-1.17157,50.79593],[-1.1727,50.79633],[-1.17421,50.79734],[-1.17477,50.79853],[-1.1782,50.80089],[-1.1794,50.80227],[-1.17609,50.80284]]]}},{"type":"Feature","properties":{"id":"E01034062","name":"E01034062","parent":"E07000088","type":"LSOA","pop":1449,"r":175,"ff":66,"ffd":4554.9,"ffs":0.528,"g":48,"co":0,"mo":0,"sa":0,"ic":0},"geometry":{"type":"Polygon","coordinates":[[[-1.13057,50.81057],[-1.13222,50.81019],[-1.13244,50.80926],[-1.13334,50.80915],[-1.13377,50.80833],[-1.13462,50.80755],[-1.13544,50.80746],[-1.13599,50.80771],[-1.13627,50.80709],[-1.13889,50.80754],[-1.1379,50.80918],[-1.13842,50.80944],[-1.13754,50.81091],[-1.13489,50.81054],[-1.13421,50.8124],[-1.13486,50.81246],[-1.13565,50.81315],[-1.13436,50.81298],[-1.13057,50.81057]]]}},{"type":"Feature","properties":{"id":"E01034063","name":"E01034063","parent":"E07000088","type":"LSOA","pop":1134,"r":169,"ff":65,"ffd":5731.9,"ffs":0.5328,"g":45,"co":0,"mo":0,"sa":0,"ic":0},"geometry":{"type":"MultiPolygon","coordinates":[[[[-1.13681,50.80204],[-1.13686,50.80203],[-1.13692,50.80213],[-1.13681,50.80204]]],[[[-1.13418,50.80232],[-1.1342,50.80215],[-1.13436,50.80219],[-1.13418,50.80232]]],[[[-1.13469,50.80382],[-1.13703,50.80234],[-1.13707,50.80242],[-1.13469,50.80382]]],[[[-1.13469,50.80382],[-1.13553,50.80442],[-1.13506,50.80433],[-1.13469,50.80382]]],[[[-1.12637,50.80801],[-1.12566,50.80805],[-1.12608,50.80781],[-1.12566,50.8076],[-1.12538,50.80777],[-1.12553,50.80723],[-1.1238,50.80616],[-1.12563,50.80542],[-1.12947,50.80512],[-1.13152,50.8044],[-1.1335,50.80458],[-1.13373,50.80547],[-1.13455,50.80562],[-1.13589,50.80509],[-1.13625,50.80421],[-1.13765,50.80467],[-1.13951,50.8062],[-1.13889,50.80754],[-1.13627,50.80709],[-1.13599,50.80771],[-1.13544,50.80746],[-1.13462,50.80755],[-1.13377,50.80833],[-1.13334,50.80915],[-1.13244,50.80926],[-1.13222,50.81019],[-1.13057,50.81057],[-1.1282,50.8089],[-1.12637,50.80801]]]]}},{"type":"Feature","properties":{"id":"E01034064","name":"E01034064","parent":"E07000088","type":"LSOA","pop":1457,"r":160,"ff":59,"ffd":4049.4,"ffs":0.5221,"g":45,"co":0,"mo":0,"sa":0,"ic":0},"geometry":{"type":"Polygon","coordinates":[[[-1.12379,50.80409],[-1.1239,50.80277],[-1.12505,50.80255],[-1.1254,50.8033],[-1.12696,50.80227],[-1.12863,50.8026],[-1.1289,50.80217],[-1.12783,50.80162],[-1.12767,50.79979],[-1.13008,50.80021],[-1.13039,50.79941],[-1.12943,50.79855],[-1.12989,50.79834],[-1.12969,50.79819],[-1.13038,50.79787],[-1.13037,50.79873],[-1.13095,50.79886],[-1.13134,50.79853],[-1.13254,50.79888],[-1.13266,50.79753],[-1.13318,50.7975],[-1.13302,50.7965],[-1.13347,50.79647],[-1.13339,50.79589],[-1.13388,50.7958],[-1.13426,50.79765],[-1.1349,50.79787],[-1.13423,50.79785],[-1.13415,50.80006],[-1.1337,50.80012],[-1.13445,50.80212],[-1.13538,50.80226],[-1.1342,50.80215],[-1.13336,50.80291],[-1.13074,50.80292],[-1.12723,50.80348],[-1.12585,50.80408],[-1.12541,50.80408],[-1.12536,50.80372],[-1.12491,50.80374],[-1.12482,50.80415],[-1.12379,50.80409]]]}},{"type":"Feature","properties":{"id":"E01034065","name":"E01034065","parent":"E07000088","type":"LSOA","pop":1099,"r":148,"ff":58,"ffd":5277.5,"ffs":0.5577,"g":42,"co":0,"mo":0,"sa":1,"ic":0},"geometry":{"type":"Polygon","coordinates":[[[-1.1254,50.8033],[-1.12505,50.80255],[-1.1239,50.80277],[-1.12407,50.80083],[-1.12255,50.80093],[-1.12287,50.80079],[-1.12228,50.80001],[-1.12506,50.79893],[-1.12487,50.79821],[-1.12776,50.79788],[-1.12918,50.79794],[-1.12916,50.79723],[-1.1297,50.79714],[-1.12989,50.79615],[-1.13025,50.79612],[-1.13035,50.79681],[-1.13122,50.79672],[-1.13151,50.79719],[-1.13263,50.79722],[-1.13254,50.79888],[-1.13134,50.79853],[-1.13095,50.79886],[-1.13037,50.79873],[-1.13038,50.79787],[-1.12969,50.79819],[-1.12989,50.79834],[-1.12943,50.79855],[-1.13039,50.79941],[-1.13008,50.80021],[-1.12767,50.79979],[-1.12783,50.80162],[-1.1289,50.80217],[-1.12863,50.8026],[-1.12696,50.80227],[-1.1254,50.8033]]]}}]}