{"type":"FeatureCollection","features":[{"type":"Feature","properties":{"id":"E01025970","name":"E01025970","parent":"E07000135","type":"LSOA","pop":2119,"r":294,"ff":125,"ffd":5899.0,"ffs":0.5123,"g":49,"co":2,"mo":2,"sa":0,"ic":0},"geometry":{"type":"Polygon","coordinates":[[[-1.06603,52.59133],[-1.06406,52.58994],[-1.06044,52.58661],[-1.05837,52.58538],[-1.06002,52.5838],[-1.06514,52.57994],[-1.06652,52.57944],[-1.07287,52.58209],[-1.07515,52.58328],[-1.0769,52.58471],[-1.07895,52.58491],[-1.07982,52.58477],[-1.08066,52.58546],[-1.08173,52.58547],[-1.08196,52.58654],[-1.08347,52.58663],[-1.08359,52.58688],[-1.0807,52.58726],[-1.08057,52.5869],[-1.07904,52.58694],[-1.07799,52.58719],[-1.07825,52.58744],[-1.0778,52.58753],[-1.0743,52.58739],[-1.0759,52.58842],[-1.0767,52.58847],[-1.07686,52.58883],[-1.07372,52.5894],[-1.07066,52.58926],[-1.06921,52.58958],[-1.06981,52.59065],[-1.0704,52.59078],[-1.07036,52.59106],[-1.06921,52.591],[-1.06911,52.59135],[-1.06766,52.59262],[-1.06603,52.59133]]]}},{"type":"Feature","properties":{"id":"E01025971","name":"E01025971","parent":"E07000135","type":"LSOA","pop":1242,"r":330,"ff":139,"ffd":11191.6,"ffs":0.5055,"g":54,"co":2,"mo":2,"sa":0,"ic":0},"geometry":{"type":"Polygon","coordinates":[[[-1.06815,52.593],[-1.06766,52.59262],[-1.06911,52.59135],[-1.06921,52.591],[-1.07036,52.59106],[-1.0704,52.59078],[-1.06981,52.59065],[-1.06921,52.58958],[-1.07066,52.58926],[-1.07372,52.5894],[-1.07548,52.58915],[-1.0751,52.58961],[-1.07346,52.58981],[-1.07356,52.59035],[-1.07501,52.59039],[-1.07484,52.59106],[-1.0754,52.59153],[-1.07598,52.59126],[-1.07615,52.59031],[-1.07703,52.59042],[-1.07661,52.5915],[-1.07726,52.59163],[-1.07729,52.59209],[-1.07669,52.5922],[-1.0768,52.59259],[-1.07753,52.59267],[-1.07691,52.59278],[-1.07676,52.59317],[-1.07612,52.59294],[-1.07512,52.59335],[-1.0728,52.5952],[-1.07156,52.59556],[-1.06815,52.593]]]}},{"type":"Feature","properties":{"id":"E01025972","name":"E01025972","parent":"E07000135","type":"LSOA","pop":1289,"r":545,"ff":236,"ffd":18308.8,"ffs":0.5032,"g":75,"co":2,"mo":2,"sa":0,"ic":0},"geometry":{"type":"Polygon","coordinates":[[[-1.08172,52.59267],[-1.08106,52.5926],[-1.08075,52.5929],[-1.08047,52.59248],[-1.08016,52.59283],[-1.07959,52.59282],[-1.07929,52.59247],[-1.0768,52.59259],[-1.07669,52.5922],[-1.07729,52.59209],[-1.07726,52.59163],[-1.07661,52.5915],[-1.07703,52.59042],[-1.07615,52.59031],[-1.07598,52.59126],[-1.0754,52.59153],[-1.07484,52.59106],[-1.07501,52.59039],[-1.07356,52.59035],[-1.07346,52.58981],[-1.0751,52.58961],[-1.07548,52.58915],[-1.07686,52.58883],[-1.0767,52.58847],[-1.0759,52.58842],[-1.0743,52.58739],[-1.0778,52.58753],[-1.07825,52.58744],[-1.07799,52.58719],[-1.07904,52.58694],[-1.08057,52.5869],[-1.0807,52.58726],[-1.08359,52.58688],[-1.08401,52.58777],[-1.08699,52.5877],[-1.08793,52.58802],[-1.0891,52.58808],[-1.09059,52.59327],[-1.08622,52.59481],[-1.08552,52.59432],[-1.08172,52.59267]]]}},{"type":"Feature","properties":{"id":"E01025973","name":"E01025973","parent":"E07000135","type":"LSOA","pop":2996,"r":521,"ff":229,"ffd":7643.5,"ffs":0.5055,"g":67,"co":0,"mo":0,"sa":0,"ic":0},"geometry":{"type":"Polygon","coordinates":[[[-1.07095,52.61391],[-1.06915,52.61325],[-1.0708,52.6109],[-1.07392,52.61132],[-1.07553,52.61072],[-1.07634,52.60856],[-1.07614,52.60792],[-1.07706,52.60814],[-1.07709,52.60726],[-1.07827,52.60684],[-1.08281,52.60767],[-1.08243,52.60781],[-1.08273,52.60841],[-1.08434,52.60956],[-1.08948,52.61034],[-1.09022,52.6082],[-1.09039,52.60861],[-1.09234,52.60905],[-1.09193,52.61063],[-1.09259,52.61055],[-1.09282,52.60993],[-1.09359,52.60972],[-1.09346,52.61025],[-1.09487,52.61023],[-1.09838,52.61111],[-1.0974,52.61321],[-1.09663,52.61638],[-1.09323,52.61617],[-1.08676,52.61505],[-1.08391,52.61506],[-1.08401,52.61592],[-1.08217,52.61571],[-1.08245,52.61489],[-1.07731,52.61434],[-1.07437,52.61343],[-1.07156,52.61754],[-1.07049,52.61807],[-1.06675,52.61702],[-1.068,52.61537],[-1.07004,52.61475],[-1.07095,52.61391]]]}},{"type":"Feature","properties":{"id":"E01025974","name":"E01025974","parent":"E07000135","type":"LSOA","pop":2139,"r":545,"ff":236,"ffd":11033.2,"ffs":0.5032,"g":75,"co":2,"mo":2,"sa":0,"ic":0},"geometry":{"type":"Polygon","coordinates":[[[-1.09039,52.60861],[-1.09022,52.6082],[-1.08948,52.61034],[-1.08434,52.60956],[-1.08273,52.60841],[-1.08243,52.60781],[-1.08433,52.60721],[-1.08527,52.60586],[-1.08436,52.60584],[-1.08269,52.60463],[-1.08012,52.60501],[-1.0799,52.60542],[-1.07923,52.60519],[-1.07923,52.60481],[-1.08046,52.60462],[-1.08043,52.60416],[-1.07985,52.60407],[-1.07971,52.60362],[-1.07773,52.60395],[-1.07716,52.6038],[-1.07815,52.60309],[-1.07865,52.60186],[-1.08106,52.60174],[-1.08088,52.60117],[-1.07868,52.60155],[-1.07862,52.60118],[-1.07752,52.60112],[-1.07807,52.60051],[-1.07778,52.60026],[-1.07852,52.60023],[-1.07873,52.59934],[-1.08255,52.60099],[-1.08664,52.60231],[-1.08793,52.60337],[-1.0933,52.60593],[-1.09537,52.60739],[-1.09371,52.60869],[-1.09359,52.60972],[-1.09282,52.60993],[-1.09259,52.61055],[-1.09193,52.61063],[-1.09234,52.60905],[-1.09039,52.60861]]]}},{"type":"Feature","properties":{"id":"E01025975","name":"E01025975","parent":"E07000135","type":"LSOA","pop":1545,"r":445,"ff":199,"ffd":12880.3,"ffs":0.5196,"g":61,"co":2,"mo":2,"sa":0,"ic":0},"geometry":{"type":"Polygon","coordinates":[[[-1.06696,52.61219],[-1.06228,52.61012],[-1.06297,52.60969],[-1.06468,52.6104],[-1.06591,52.60901],[-1.0657,52.60705],[-1.06723,52.6066],[-1.06904,52.6048],[-1.06942,52.6041],[-1.06811,52.60304],[-1.06787,52.60151],[-1.0699,52.60162],[-1.07048,52.59983],[-1.07335,52.5997],[-1.07332,52.59993],[-1.07631,52.60027],[-1.07645,52.59917],[-1.0776,52.59879],[-1.07873,52.59934],[-1.07852,52.60023],[-1.07778,52.60026],[-1.07807,52.60051],[-1.07752,52.60112],[-1.07862,52.60118],[-1.07868,52.60155],[-1.08088,52.60117],[-1.08106,52.60174],[-1.07865,52.60186],[-1.07815,52.60309],[-1.07716,52.6038],[-1.07773,52.60395],[-1.07971,52.60362],[-1.07985,52.60407],[-1.08043,52.60416],[-1.08046,52.60462],[-1.07923,52.60481],[-1.07923,52.60519],[-1.0799,52.60542],[-1.08012,52.60501],[-1.08269,52.60463],[-1.08436,52.60584],[-1.08527,52.60586],[-1.08433,52.60721],[-1.08281,52.60767],[-1.07827,52.60684],[-1.07709,52.60726],[-1.07706,52.60814],[-1.07614,52.60792],[-1.07634,52.60856],[-1.07553,52.61072],[-1.07392,52.61132],[-1.0708,52.6109],[-1.06955,52.6127],[-1.06696,52.61219]]]}},{"type":"Feature","properties":{"id":"E01025976","name":"E01025976","parent":"E07000135","type":"LSOA","pop":1323,"r":407,"ff":178,"ffd":13454.3,"ffs":0.5115,"g":58,"co":2,"mo":2,"sa":0,"ic":0},"geometry":{"type":"Polygon","coordinates":[[[-1.08736,52.59924],[-1.08717,52.59857],[-1.0837,52.59892],[-1.08403,52.59843],[-1.08248,52.59831],[-1.08172,52.5978],[-1.08201,52.59718],[-1.08144,52.59611],[-1.08335,52.59507],[-1.08189,52.59442],[-1.08174,52.59469],[-1.08079,52.59484],[-1.08071,52.59401],[-1.07905,52.59352],[-1.07959,52.59282],[-1.08016,52.59283],[-1.08047,52.59248],[-1.08075,52.5929],[-1.08106,52.5926],[-1.08172,52.59267],[-1.08552,52.59432],[-1.08622,52.59481],[-1.09029,52.59337],[-1.09493,52.59436],[-1.09388,52.59872],[-1.09241,52.59875],[-1.0922,52.59831],[-1.08978,52.59837],[-1.08847,52.59888],[-1.08786,52.59884],[-1.08736,52.59924]]]}},{"type":"Feature","properties":{"id":"E01025977","name":"E01025977","parent":"E07000135","type":"LSOA","pop":1630,"r":456,"ff":204,"ffd":12515.3,"ffs":0.5165,"g":60,"co":2,"mo":2,"sa":0,"ic":0},"geometry":{"type":"Polygon","coordinates":[[[-1.08793,52.60337],[-1.08664,52.60231],[-1.08255,52.60099],[-1.07938,52.59961],[-1.08071,52.59949],[-1.08146,52.59908],[-1.08164,52.59868],[-1.08083,52.59818],[-1.08161,52.59814],[-1.08172,52.5978],[-1.08248,52.59831],[-1.08403,52.59843],[-1.0837,52.59892],[-1.08717,52.59857],[-1.08736,52.59924],[-1.08786,52.59884],[-1.08847,52.59888],[-1.08978,52.59837],[-1.0922,52.59831],[-1.09241,52.59875],[-1.09388,52.59872],[-1.09493,52.59436],[-1.09084,52.59348],[-1.09133,52.59298],[-1.09499,52.59251],[-1.09907,52.59306],[-1.09959,52.59343],[-1.09999,52.5934],[-1.10056,52.5947],[-1.10479,52.59639],[-1.1039,52.59799],[-1.10192,52.59931],[-1.10163,52.60224],[-1.10021,52.60245],[-1.09994,52.60349],[-1.09882,52.60326],[-1.09836,52.60429],[-1.09697,52.60627],[-1.09537,52.60739],[-1.0933,52.60593],[-1.08793,52.60337]]]}},{"type":"Feature","properties":{"id":"E01025978","name":"E01025978","parent":"E07000135","type":"LSOA","pop":1727,"r":356,"ff":151,"ffd":8743.5,"ffs":0.5067,"g":57,"co":2,"mo":2,"sa":0,"ic":0},"geometry":{"type":"Polygon","coordinates":[[[-1.0728,52.5952],[-1.07512,52.59335],[-1.07612,52.59294],[-1.07676,52.59317],[-1.07691,52.59278],[-1.07929,52.59247],[-1.07959,52.59282],[-1.07905,52.59352],[-1.08071,52.59401],[-1.08079,52.59484],[-1.08174,52.59469],[-1.08189,52.59442],[-1.08335,52.59507],[-1.08144,52.59611],[-1.08201,52.59718],[-1.08161,52.59814],[-1.08083,52.59818],[-1.08164,52.59868],[-1.08146,52.59908],[-1.08071,52.59949],[-1.07938,52.59961],[-1.07156,52.59556],[-1.0728,52.5952]]]}},{"type":"Feature","properties":{"id":"E01025979","name":"E01025979","parent":"E07000135","type":"LSOA","pop":1479,"r":366,"ff":157,"ffd":10615.3,"ffs":0.5065,"g":55,"co":2,"mo":2,"sa":0,"ic":0},"geometry":{"type":"Polygon","coordinates":[[[-1.06886,52.60072],[-1.06889,52.59968],[-1.06985,52.59981],[-1.06998,52.59949],[-1.06886,52.59929],[-1.06922,52.59896],[-1.07128,52.59931],[-1.07432,52.59923],[-1.07374,52.59881],[-1.07125,52.5989],[-1.06856,52.59733],[-1.06794,52.59745],[-1.06686,52.59847],[-1.065,52.59833],[-1.06431,52.59795],[-1.06493,52.59741],[-1.06575,52.59772],[-1.06634,52.59739],[-1.06738,52.59738],[-1.06739,52.59606],[-1.0711,52.59529],[-1.0776,52.59879],[-1.07645,52.59917],[-1.07631,52.60027],[-1.07332,52.59993],[-1.07335,52.5997],[-1.07048,52.59983],[-1.0699,52.60162],[-1.06925,52.60158],[-1.06949,52.60091],[-1.06886,52.60072]]]}},{"type":"Feature","properties":{"id":"E01025980","name":"E01025980","parent":"E07000135","type":"LSOA","pop":1397,"r":374,"ff":159,"ffd":11381.5,"ffs":0.5016,"g":56,"co":2,"mo":2,"sa":0,"ic":0},"geometry":{"type":"Polygon","coordinates":[[[-1.06468,52.6104],[-1.06297,52.60969],[-1.06228,52.61012],[-1.05897,52.60905],[-1.06161,52.60602],[-1.06248,52.60425],[-1.05976,52.60395],[-1.0599,52.60325],[-1.05842,52.60307],[-1.05765,52.60325],[-1.05651,52.60291],[-1.05672,52.6005],[-1.06143,52.60194],[-1.0617,52.59981],[-1.06234,52.59982],[-1.06243,52.59947],[-1.06294,52.59953],[-1.06295,52.59992],[-1.06384,52.59982],[-1.06408,52.59927],[-1.06575,52.59894],[-1.06582,52.60065],[-1.06676,52.60095],[-1.06738,52.6008],[-1.06794,52.59914],[-1.06846,52.59884],[-1.06922,52.59896],[-1.06886,52.59929],[-1.06998,52.59949],[-1.06985,52.59981],[-1.06889,52.59968],[-1.06886,52.60072],[-1.06949,52.60091],[-1.06925,52.60158],[-1.06787,52.60151],[-1.06811,52.60304],[-1.06942,52.6041],[-1.06904,52.6048],[-1.06723,52.6066],[-1.0657,52.60705],[-1.06591,52.60901],[-1.06468,52.6104]]]}},{"type":"Feature","properties":{"id":"E01025981","name":"E01025981","parent":"E07000135","type":"LSOA","pop":1856,"r":545,"ff":236,"ffd":12715.5,"ffs":0.5032,"g":75,"co":2,"mo":2,"sa":0,"ic":0},"geometry":{"type":"Polygon","coordinates":[[[-1.05672,52.6005],[-1.05578,52.59826],[-1.05953,52.59639],[-1.06739,52.59606],[-1.06738,52.59738],[-1.06634,52.59739],[-1.06575,52.59772],[-1.06493,52.59741],[-1.06431,52.59795],[-1.065,52.59833],[-1.06686,52.59847],[-1.06794,52.59745],[-1.06856,52.59733],[-1.07125,52.5989],[-1.07374,52.59881],[-1.07432,52.59923],[-1.07128,52.59931],[-1.06846,52.59884],[-1.06794,52.59914],[-1.06738,52.6008],[-1.06676,52.60095],[-1.06582,52.60065],[-1.06575,52.59894],[-1.06408,52.59927],[-1.06384,52.59982],[-1.06295,52.59992],[-1.06294,52.59953],[-1.06243,52.59947],[-1.06234,52.59982],[-1.0617,52.59981],[-1.06143,52.60194],[-1.05672,52.6005]]]}},{"type":"Feature","properties":{"id":"E01025982","name":"E01025982","parent":"E07000135","type":"LSOA","pop":1953,"r":275,"ff":116,"ffd":5939.6,"ffs":0.5133,"g":48,"co":2,"mo":2,"sa":0,"ic":0},"geometry":{"type":"Polygon","coordinates":[[[-1.0427,52.59699],[-1.04962,52.59152],[-1.0543,52.58826],[-1.05555,52.58909],[-1.05606,52.58904],[-1.05578,52.58941],[-1.05611,52.58968],[-1.05521,52.58975],[-1.05441,52.58925],[-1.05283,52.59045],[-1.05371,52.59101],[-1.05315,52.59133],[-1.05355,52.59202],[-1.05501,52.59209],[-1.05614,52.59063],[-1.05812,52.59013],[-1.06131,52.59072],[-1.06172,52.59175],[-1.0607,52.59209],[-1.05986,52.59299],[-1.0609,52.59321],[-1.06136,52.59525],[-1.06069,52.59528],[-1.06062,52.59646],[-1.05953,52.59639],[-1.05578,52.59826],[-1.05672,52.6005],[-1.05651,52.60291],[-1.05169,52.60132],[-1.04527,52.6002],[-1.04217,52.59829],[-1.04136,52.59801],[-1.0427,52.59699]]]}},{"type":"Feature","properties":{"id":"E01025983","name":"E01025983","parent":"E07000135","type":"LSOA","pop":1367,"r":335,"ff":140,"ffd":10241.4,"ffs":0.4982,"g":53,"co":2,"mo":2,"sa":0,"ic":0},"geometry":{"type":"Polygon","coordinates":[[[-1.0611,52.59409],[-1.0609,52.59321],[-1.05986,52.59299],[-1.0607,52.59209],[-1.06343,52.5914],[-1.06418,52.59274],[-1.06579,52.59393],[-1.06815,52.593],[-1.0711,52.59529],[-1.06739,52.59606],[-1.06464,52.59607],[-1.06394,52.59631],[-1.06062,52.59646],[-1.06069,52.59528],[-1.06136,52.59525],[-1.0611,52.59409]]]}},{"type":"Feature","properties":{"id":"E01025984","name":"E01025984","parent":"E07000135","type":"LSOA","pop":1412,"r":288,"ff":122,"ffd":8640.2,"ffs":0.5148,"g":50,"co":2,"mo":2,"sa":0,"ic":0},"geometry":{"type":"Polygon","coordinates":[[[-1.06418,52.59274],[-1.06343,52.5914],[-1.06172,52.59175],[-1.06131,52.59072],[-1.05812,52.59013],[-1.05614,52.59063],[-1.05501,52.59209],[-1.05355,52.59202],[-1.05315,52.59133],[-1.05371,52.59101],[-1.05283,52.59045],[-1.05441,52.58925],[-1.05521,52.58975],[-1.05611,52.58968],[-1.05578,52.58941],[-1.05606,52.58904],[-1.05555,52.58909],[-1.0543,52.58826],[-1.05837,52.58538],[-1.06044,52.58661],[-1.06406,52.58994],[-1.06815,52.593],[-1.06579,52.59393],[-1.06418,52.59274]]]}},{"type":"Feature","properties":{"id":"E01025985","name":"E01025985","parent":"E07000135","type":"LSOA","pop":1303,"r":103,"ff":34,"ffd":2609.4,"ffs":0.5231,"g":38,"co":0,"mo":2,"sa":0,"ic":0},"geometry":{"type":"Polygon","coordinates":[[[-1.12607,52.59284],[-1.12606,52.59039],[-1.12661,52.58604],[-1.12603,52.58454],[-1.12462,52.58302],[-1.12517,52.58266],[-1.12709,52.58295],[-1.12956,52.58268],[-1.12945,52.583],[-1.13044,52.58297],[-1.13307,52.5823],[-1.1339,52.58332],[-1.13216,52.58344],[-1.13078,52.58396],[-1.13113,52.58416],[-1.1316,52.58397],[-1.13258,52.58541],[-1.13314,52.58557],[-1.13309,52.58612],[-1.13471,52.58655],[-1.13599,52.58651],[-1.13659,52.58705],[-1.13605,52.58718],[-1.1366,52.58855],[-1.13717,52.58862],[-1.13707,52.58938],[-1.13096,52.58999],[-1.12967,52.59153],[-1.12806,52.59099],[-1.12777,52.59137],[-1.12667,52.59108],[-1.12646,52.59289],[-1.12607,52.59284]]]}},{"type":"Feature","properties":{"id":"E01025986","name":"E01025986","parent":"E07000135","type":"LSOA","pop":1577,"r":103,"ff":34,"ffd":2156.0,"ffs":0.5231,"g":38,"co":0,"mo":2,"sa":0,"ic":0},"geometry":{"type":"Polygon","coordinates":[[[-1.13636,52.58787],[-1.13605,52.58718],[-1.13659,52.58705],[-1.13599,52.58651],[-1.13471,52.58655],[-1.13309,52.58612],[-1.13314,52.58557],[-1.13258,52.58541],[-1.1316,52.58397],[-1.13113,52.58416],[-1.13078,52.58396],[-1.13216,52.58344],[-1.1339,52.58332],[-1.13307,52.5823],[-1.13628,52.58214],[-1.13662,52.58155],[-1.13701,52.58151],[-1.13778,52.58266],[-1.13704,52.58347],[-1.13912,52.58632],[-1.14051,52.58601],[-1.14184,52.58638],[-1.14247,52.58613],[-1.14391,52.5862],[-1.14362,52.58803],[-1.14086,52.58769],[-1.14127,52.59],[-1.13707,52.58938],[-1.13717,52.58862],[-1.1366,52.58855],[-1.13636,52.58787]]]}},{"type":"Feature","properties":{"id":"E01025987","name":"E01025987","parent":"E07000135","type":"LSOA","pop":1961,"r":301,"ff":132,"ffd":6731.3,"ffs":0.5593,"g":64,"co":0,"mo":2,"sa":0,"ic":0},"geometry":{"type":"Polygon","coordinates":[[[-1.14184,52.58638],[-1.14051,52.58601],[-1.13912,52.58632],[-1.13704,52.58347],[-1.13778,52.58266],[-1.13701,52.58151],[-1.13662,52.58155],[-1.13628,52.58214],[-1.13512,52.58229],[-1.13379,52.58217],[-1.13044,52.58297],[-1.12945,52.583],[-1.12956,52.58268],[-1.12709,52.58295],[-1.12517,52.58266],[-1.12462,52.58302],[-1.12293,52.58138],[-1.12972,52.58017],[-1.13267,52.57987],[-1.13272,52.57957],[-1.13443,52.57932],[-1.13581,52.57954],[-1.13596,52.57902],[-1.13632,52.57964],[-1.13745,52.58028],[-1.13978,52.58055],[-1.13968,52.57967],[-1.14032,52.5797],[-1.14075,52.58019],[-1.14102,52.58154],[-1.14359,52.58128],[-1.14311,52.58316],[-1.14329,52.58464],[-1.14375,52.58532],[-1.14451,52.58555],[-1.14391,52.5862],[-1.14247,52.58613],[-1.14184,52.58638]]]}},{"type":"Feature","properties":{"id":"E01025988","name":"E01025988","parent":"E07000135","type":"LSOA","pop":1990,"r":278,"ff":116,"ffd":5829.1,"ffs":0.537,"g":61,"co":0,"mo":2,"sa":0,"ic":0},"geometry":{"type":"Polygon","coordinates":[[[-1.12167,52.58017],[-1.11753,52.5763],[-1.11571,52.57503],[-1.11713,52.57307],[-1.12184,52.57027],[-1.12161,52.56961],[-1.12302,52.56881],[-1.12437,52.56874],[-1.12433,52.56741],[-1.12514,52.56692],[-1.12461,52.56628],[-1.12506,52.56628],[-1.12537,52.56551],[-1.12481,52.56538],[-1.1248,52.56499],[-1.12609,52.56324],[-1.12662,52.56323],[-1.12658,52.56205],[-1.12932,52.56218],[-1.12821,52.57129],[-1.12734,52.5759],[-1.12682,52.57653],[-1.12804,52.57665],[-1.12826,52.57695],[-1.12922,52.5769],[-1.12931,52.57664],[-1.13126,52.5771],[-1.12972,52.58017],[-1.12293,52.58138],[-1.12167,52.58017]]]}},{"type":"Feature","properties":{"id":"E01025989","name":"E01025989","parent":"E07000135","type":"LSOA","pop":1795,"r":284,"ff":120,"ffd":6685.2,"ffs":0.5455,"g":63,"co":0,"mo":2,"sa":0,"ic":0},"geometry":{"type":"Polygon","coordinates":[[[-1.13745,52.58028],[-1.13632,52.57964],[-1.13596,52.57902],[-1.13581,52.57954],[-1.13443,52.57932],[-1.13272,52.57957],[-1.13267,52.57987],[-1.12972,52.58017],[-1.13126,52.5771],[-1.12931,52.57664],[-1.12922,52.5769],[-1.12826,52.57695],[-1.12804,52.57665],[-1.12682,52.57653],[-1.12734,52.5759],[-1.12821,52.57129],[-1.12932,52.56218],[-1.13018,52.56225],[-1.12949,52.56389],[-1.13367,52.56414],[-1.13352,52.56588],[-1.13439,52.56578],[-1.13236,52.56978],[-1.13298,52.57363],[-1.1346,52.5736],[-1.13499,52.57418],[-1.13698,52.57402],[-1.13661,52.57507],[-1.1407,52.57636],[-1.13981,52.57825],[-1.14032,52.5797],[-1.13968,52.57967],[-1.13978,52.58055],[-1.13745,52.58028]]]}},{"type":"Feature","properties":{"id":"E01025990","name":"E01025990","parent":"E07000135","type":"LSOA","pop":1315,"r":303,"ff":122,"ffd":9277.6,"ffs":0.5148,"g":65,"co":2,"mo":2,"sa":0,"ic":0},"geometry":{"type":"Polygon","coordinates":[[[-1.11172,52.58303],[-1.11173,52.58107],[-1.11242,52.58102],[-1.11271,52.58163],[-1.1133,52.58127],[-1.11347,52.58063],[-1.11269,52.57983],[-1.11249,52.58022],[-1.11164,52.58023],[-1.11167,52.57928],[-1.11082,52.57897],[-1.11105,52.57852],[-1.11055,52.57817],[-1.11013,52.57833],[-1.10975,52.57779],[-1.10998,52.57752],[-1.1105,52.57772],[-1.11076,52.57709],[-1.11119,52.57729],[-1.11167,52.57694],[-1.10966,52.57609],[-1.10923,52.57623],[-1.10961,52.57563],[-1.11139,52.57456],[-1.11078,52.57396],[-1.11213,52.57299],[-1.11571,52.57503],[-1.11753,52.5763],[-1.12274,52.58119],[-1.11803,52.58099],[-1.11352,52.58241],[-1.11211,52.5822],[-1.11215,52.58283],[-1.11172,52.58303]]]}},{"type":"Feature","properties":{"id":"E01025991","name":"E01025991","parent":"E07000135","type":"LSOA","pop":1514,"r":281,"ff":110,"ffd":7265.5,"ffs":0.5023,"g":61,"co":2,"mo":2,"sa":0,"ic":0},"geometry":{"type":"Polygon","coordinates":[[[-1.10708,52.57753],[-1.10737,52.5769],[-1.10819,52.57655],[-1.10747,52.57602],[-1.10713,52.57508],[-1.10662,52.57501],[-1.1063,52.57589],[-1.10552,52.57577],[-1.1045,52.57607],[-1.10327,52.57584],[-1.10317,52.57619],[-1.10237,52.57608],[-1.1022,52.57657],[-1.10101,52.57644],[-1.10142,52.57532],[-1.10026,52.57556],[-1.10066,52.57393],[-1.10041,52.57313],[-1.1003,52.57166],[-1.10119,52.5689],[-1.09877,52.56829],[-1.10031,52.56743],[-1.10007,52.56676],[-1.10152,52.5671],[-1.10077,52.56553],[-1.10296,52.56499],[-1.10359,52.5656],[-1.10415,52.56512],[-1.10522,52.56496],[-1.10539,52.56559],[-1.10599,52.56561],[-1.1064,52.56524],[-1.1062,52.56461],[-1.10698,52.56429],[-1.1097,52.5657],[-1.11318,52.566],[-1.11401,52.56541],[-1.11447,52.56595],[-1.11517,52.56597],[-1.11509,52.56636],[-1.11566,52.56629],[-1.11572,52.5659],[-1.11658,52.56614],[-1.1164,52.56697],[-1.11682,52.56705],[-1.1204,52.56647],[-1.12062,52.56678],[-1.12145,52.56685],[-1.12116,52.56718],[-1.12161,52.56763],[-1.12243,52.56802],[-1.123,52.56784],[-1.12351,52.5684],[-1.12245,52.56843],[-1.12302,52.56881],[-1.12161,52.56961],[-1.12184,52.57027],[-1.11713,52.57307],[-1.11571,52.57503],[-1.11213,52.57299],[-1.11078,52.57396],[-1.11139,52.57456],[-1.10961,52.57563],[-1.10923,52.57623],[-1.10966,52.57609],[-1.11167,52.57694],[-1.11119,52.57729],[-1.11076,52.57709],[-1.1105,52.57772],[-1.10998,52.57752],[-1.10975,52.57779],[-1.10814,52.57712],[-1.10792,52.578],[-1.10726,52.57792],[-1.10744,52.57764],[-1.10708,52.57753]]]}},{"type":"Feature","properties":{"id":"E01025992","name":"E01025992","parent":"E07000135","type":"LSOA","pop":1840,"r":350,"ff":144,"ffd":7826.1,"ffs":0.5106,"g":67,"co":2,"mo":2,"sa":0,"ic":0},"geometry":{"type":"Polygon","coordinates":[[[-1.11127,52.58653],[-1.10942,52.58615],[-1.10814,52.5865],[-1.1063,52.58635],[-1.10646,52.58572],[-1.10319,52.58553],[-1.10343,52.58389],[-1.10289,52.58154],[-1.10338,52.58155],[-1.10357,52.58111],[-1.10369,52.58154],[-1.10426,52.58162],[-1.10422,52.58141],[-1.10542,52.58111],[-1.10511,52.58035],[-1.10591,52.57935],[-1.10791,52.57974],[-1.10776,52.58002],[-1.10853,52.58004],[-1.10878,52.58036],[-1.10953,52.58025],[-1.11026,52.57977],[-1.11016,52.57922],[-1.11082,52.57897],[-1.11167,52.57928],[-1.11164,52.58023],[-1.11249,52.58022],[-1.11269,52.57983],[-1.11347,52.58063],[-1.1133,52.58127],[-1.11271,52.58163],[-1.11242,52.58102],[-1.11173,52.58107],[-1.11172,52.58303],[-1.11215,52.58283],[-1.11211,52.5822],[-1.11352,52.58241],[-1.11803,52.58099],[-1.12274,52.58119],[-1.12293,52.58138],[-1.11689,52.58236],[-1.11286,52.58359],[-1.11231,52.58502],[-1.11182,52.58498],[-1.11127,52.58653]]]}},{"type":"Feature","properties":{"id":"E01025993","name":"E01025993","parent":"E07000135","type":"LSOA","pop":1432,"r":103,"ff":34,"ffd":2374.3,"ffs":0.5231,"g":38,"co":2,"mo":2,"sa":0,"ic":0},"geometry":{"type":"Polygon","coordinates":[[[-1.10369,52.58154],[-1.10357,52.58111],[-1.10338,52.58155],[-1.10289,52.58154],[-1.10038,52.57709],[-1.10026,52.57556],[-1.10142,52.57532],[-1.10101,52.57644],[-1.1022,52.57657],[-1.10237,52.57608],[-1.10317,52.57619],[-1.10327,52.57584],[-1.1045,52.57607],[-1.10552,52.57577],[-1.1063,52.57589],[-1.10662,52.57501],[-1.10713,52.57508],[-1.10747,52.57602],[-1.10819,52.57655],[-1.10737,52.5769],[-1.10708,52.57753],[-1.10744,52.57764],[-1.10726,52.57792],[-1.10792,52.578],[-1.10814,52.57712],[-1.10975,52.57779],[-1.11013,52.57833],[-1.11055,52.57817],[-1.11105,52.57852],[-1.11082,52.57897],[-1.11016,52.57922],[-1.11026,52.57977],[-1.10953,52.58025],[-1.10878,52.58036],[-1.10853,52.58004],[-1.10776,52.58002],[-1.10791,52.57974],[-1.10591,52.57935],[-1.10511,52.58035],[-1.10542,52.58111],[-1.10422,52.58141],[-1.10426,52.58162],[-1.10369,52.58154]]]}},{"type":"Feature","properties":{"id":"E01025994","name":"E01025994","parent":"E07000135","type":"LSOA","pop":1866,"r":103,"ff":34,"ffd":1822.1,"ffs":0.5231,"g":38,"co":2,"mo":2,"sa":0,"ic":0},"geometry":{"type":"Polygon","coordinates":[[[-1.12169,52.58736],[-1.12077,52.58661],[-1.11981,52.58671],[-1.11931,52.58644],[-1.1188,52.5867],[-1.11808,52.58659],[-1.1181,52.58619],[-1.11731,52.58621],[-1.11479,52.58801],[-1.11127,52.58653],[-1.11182,52.58498],[-1.11231,52.58502],[-1.11286,52.58359],[-1.11689,52.58236],[-1.12293,52.58138],[-1.12603,52.58454],[-1.12661,52.58604],[-1.12606,52.59039],[-1.12342,52.59139],[-1.12351,52.59212],[-1.1222,52.59175],[-1.12212,52.58837],[-1.12169,52.58736]]]}},{"type":"Feature","properties":{"id":"E01025995","name":"E01025995","parent":"E07000135","type":"LSOA","pop":1618,"r":500,"ff":223,"ffd":13782.4,"ffs":0.531,"g":79,"co":2,"mo":0,"sa":0,"ic":0},"geometry":{"type":"Polygon","coordinates":[[[-1.11791,52.59567],[-1.11834,52.59503],[-1.11804,52.59471],[-1.11811,52.59438],[-1.1176,52.5942],[-1.11442,52.59446],[-1.11453,52.59417],[-1.11708,52.59395],[-1.11743,52.59338],[-1.11677,52.59329],[-1.11626,52.59234],[-1.11888,52.59216],[-1.11878,52.59098],[-1.11789,52.59039],[-1.11832,52.58992],[-1.12022,52.59114],[-1.12351,52.59212],[-1.12342,52.59139],[-1.12606,52.59039],[-1.12607,52.59284],[-1.12644,52.59292],[-1.1268,52.59564],[-1.12201,52.59575],[-1.12078,52.59546],[-1.12017,52.59754],[-1.11732,52.59697],[-1.11719,52.59634],[-1.11643,52.59597],[-1.11791,52.59567]]]}},{"type":"Feature","properties":{"id":"E01025997","name":"E01025997","parent":"E07000135","type":"LSOA","pop":1597,"r":461,"ff":201,"ffd":12586.1,"ffs":0.5234,"g":76,"co":2,"mo":2,"sa":0,"ic":0},"geometry":{"type":"Polygon","coordinates":[[[-1.11567,52.5903],[-1.11384,52.58925],[-1.11393,52.5887],[-1.11473,52.58862],[-1.1144,52.58828],[-1.11731,52.58621],[-1.1181,52.58619],[-1.11808,52.58659],[-1.1188,52.5867],[-1.11931,52.58644],[-1.11981,52.58671],[-1.12077,52.58661],[-1.12169,52.58736],[-1.12212,52.58837],[-1.1222,52.59175],[-1.12022,52.59114],[-1.11832,52.58992],[-1.11789,52.59039],[-1.11878,52.59098],[-1.11881,52.59216],[-1.11567,52.5903]]]}},{"type":"Feature","properties":{"id":"E01025998","name":"E01025998","parent":"E07000135","type":"LSOA","pop":3309,"r":266,"ff":109,"ffd":3294.0,"ffs":0.519,"g":55,"co":2,"mo":2,"sa":0,"ic":0},"geometry":{"type":"Polygon","coordinates":[[[-1.08373,52.58483],[-1.08188,52.58383],[-1.07895,52.58491],[-1.0769,52.58471],[-1.07515,52.58328],[-1.07287,52.58209],[-1.06736,52.5798],[-1.06894,52.57839],[-1.07069,52.5775],[-1.07116,52.5768],[-1.07332,52.57599],[-1.07542,52.57466],[-1.0748,52.574],[-1.07627,52.57277],[-1.07407,52.57185],[-1.07393,52.57153],[-1.07688,52.57027],[-1.07605,52.56936],[-1.07676,52.56905],[-1.07631,52.56806],[-1.07723,52.56782],[-1.07696,52.56624],[-1.07768,52.56633],[-1.0789,52.56595],[-1.07798,52.5637],[-1.0796,52.56311],[-1.08289,52.55658],[-1.08385,52.5564],[-1.08411,52.55667],[-1.08507,52.55618],[-1.0855,52.55626],[-1.08593,52.55666],[-1.08506,52.55685],[-1.08558,52.55735],[-1.08505,52.55798],[-1.08573,52.55825],[-1.08591,52.55794],[-1.08619,52.55919],[-1.08693,52.55894],[-1.08755,52.55925],[-1.0888,52.55926],[-1.08862,52.55958],[-1.08981,52.55987],[-1.0911,52.56086],[-1.09155,52.56092],[-1.09195,52.56058],[-1.09265,52.56105],[-1.09227,52.5615],[-1.09427,52.56127],[-1.09407,52.56177],[-1.09475,52.56187],[-1.09469,52.56295],[-1.09452,52.56313],[-1.09399,52.56269],[-1.09382,52.56309],[-1.09563,52.5645],[-1.09538,52.56474],[-1.09493,52.56448],[-1.09567,52.56545],[-1.09654,52.56498],[-1.0971,52.56545],[-1.10077,52.56553],[-1.10152,52.5671],[-1.10007,52.56676],[-1.10031,52.56743],[-1.09877,52.56829],[-1.10119,52.5689],[-1.1003,52.57166],[-1.10041,52.57313],[-1.10066,52.57393],[-1.10026,52.57556],[-1.10038,52.57709],[-1.09951,52.57714],[-1.10049,52.57752],[-1.09991,52.57799],[-1.09838,52.57788],[-1.09832,52.57733],[-1.09701,52.5775],[-1.09674,52.57778],[-1.09733,52.57845],[-1.09722,52.57894],[-1.09636,52.57885],[-1.09565,52.57971],[-1.09447,52.5794],[-1.09265,52.57967],[-1.09231,52.57997],[-1.09144,52.57987],[-1.09216,52.57951],[-1.09113,52.57905],[-1.0863,52.57754],[-1.08561,52.58131],[-1.08897,52.5826],[-1.08831,52.58355],[-1.08899,52.58372],[-1.08793,52.58581],[-1.08373,52.58483]]]}},{"type":"Feature","properties":{"id":"E01025999","name":"E01025999","parent":"E07000135","type":"LSOA","pop":1502,"r":330,"ff":138,"ffd":9187.7,"ffs":0.5111,"g":59,"co":2,"mo":2,"sa":0,"ic":0},"geometry":{"type":"Polygon","coordinates":[[[-1.1006,52.58704],[-1.09979,52.58635],[-1.09728,52.58679],[-1.09357,52.58682],[-1.09374,52.58567],[-1.09522,52.58574],[-1.09525,52.5854],[-1.09587,52.58539],[-1.09346,52.58359],[-1.09494,52.58278],[-1.09569,52.58325],[-1.09601,52.5828],[-1.09716,52.58286],[-1.097,52.58207],[-1.09774,52.58196],[-1.09819,52.583],[-1.09964,52.58286],[-1.10143,52.58301],[-1.10158,52.58324],[-1.10187,52.58291],[-1.10256,52.58283],[-1.10217,52.58195],[-1.10298,52.58182],[-1.10343,52.58389],[-1.10284,52.58832],[-1.10038,52.58763],[-1.1006,52.58704]]]}},{"type":"Feature","properties":{"id":"E01026000","name":"E01026000","parent":"E07000135","type":"LSOA","pop":1196,"r":103,"ff":34,"ffd":2842.8,"ffs":0.5231,"g":38,"co":2,"mo":2,"sa":0,"ic":0},"geometry":{"type":"Polygon","coordinates":[[[-1.08793,52.58802],[-1.08699,52.5877],[-1.08401,52.58777],[-1.08347,52.58663],[-1.08196,52.58654],[-1.08173,52.58547],[-1.08066,52.58546],[-1.07982,52.58477],[-1.07895,52.58491],[-1.08188,52.58383],[-1.08373,52.58483],[-1.08793,52.58581],[-1.08899,52.58372],[-1.08831,52.58355],[-1.08897,52.5826],[-1.08561,52.58131],[-1.0863,52.57754],[-1.09113,52.57905],[-1.09216,52.57951],[-1.09144,52.57987],[-1.09326,52.58026],[-1.09293,52.58051],[-1.0932,52.58079],[-1.09238,52.5813],[-1.09288,52.5815],[-1.09254,52.58203],[-1.09279,52.58267],[-1.09334,52.58297],[-1.09443,52.58217],[-1.09465,52.58238],[-1.09528,52.58214],[-1.097,52.58235],[-1.09716,52.58286],[-1.09601,52.5828],[-1.09569,52.58325],[-1.09494,52.58278],[-1.09346,52.58359],[-1.09587,52.58539],[-1.09525,52.5854],[-1.09522,52.58574],[-1.09374,52.58567],[-1.09357,52.58682],[-1.09168,52.58647],[-1.08783,52.58656],[-1.08793,52.58802]]]}},{"type":"Feature","properties":{"id":"E01026001","name":"E01026001","parent":"E07000135","type":"LSOA","pop":1353,"r":305,"ff":124,"ffd":9164.8,"ffs":0.5082,"g":60,"co":2,"mo":2,"sa":0,"ic":0},"geometry":{"type":"Polygon","coordinates":[[[-1.10143,52.58301],[-1.09964,52.58286],[-1.09819,52.583],[-1.09774,52.58196],[-1.097,52.58207],[-1.097,52.58235],[-1.09528,52.58214],[-1.09465,52.58238],[-1.09443,52.58217],[-1.09334,52.58297],[-1.09279,52.58267],[-1.09254,52.58203],[-1.09288,52.5815],[-1.09238,52.5813],[-1.0932,52.58079],[-1.09293,52.58051],[-1.09326,52.58026],[-1.09231,52.57997],[-1.09265,52.57967],[-1.09447,52.5794],[-1.09565,52.57971],[-1.09636,52.57885],[-1.09722,52.57894],[-1.09733,52.57845],[-1.09674,52.57778],[-1.09701,52.5775],[-1.09832,52.57733],[-1.09838,52.57788],[-1.09991,52.57799],[-1.10049,52.57752],[-1.09951,52.57714],[-1.10038,52.57709],[-1.10298,52.58182],[-1.10217,52.58195],[-1.10256,52.58283],[-1.10187,52.58291],[-1.10158,52.58324],[-1.10143,52.58301]]]}},{"type":"Feature","properties":{"id":"E01026003","name":"E01026003","parent":"E07000135","type":"LSOA","pop":1701,"r":103,"ff":34,"ffd":1998.8,"ffs":0.5231,"g":38,"co":2,"mo":0,"sa":0,"ic":0},"geometry":{"type":"Polygon","coordinates":[[[-1.10448,52.59436],[-1.10389,52.59397],[-1.1036,52.59429],[-1.10281,52.59426],[-1.10247,52.59382],[-1.10281,52.59354],[-1.1019,52.59317],[-1.10161,52.59266],[-1.10076,52.59278],[-1.09983,52.59252],[-1.09959,52.59343],[-1.09907,52.59306],[-1.09499,52.59251],[-1.09453,52.59259],[-1.09454,52.59104],[-1.09611,52.59091],[-1.09595,52.58998],[-1.09657,52.58956],[-1.09716,52.58985],[-1.09832,52.58983],[-1.09896,52.58905],[-1.10081,52.58913],[-1.10151,52.58792],[-1.10284,52.58832],[-1.10319,52.58553],[-1.10646,52.58572],[-1.1063,52.58635],[-1.10682,52.58639],[-1.10577,52.58748],[-1.10603,52.58796],[-1.10532,52.58832],[-1.10554,52.58931],[-1.10711,52.59143],[-1.10657,52.59114],[-1.10381,52.5919],[-1.10337,52.59234],[-1.10509,52.59405],[-1.10448,52.59436]]]}},{"type":"Feature","properties":{"id":"E01026004","name":"E01026004","parent":"E07000135","type":"LSOA","pop":1939,"r":103,"ff":34,"ffd":1753.5,"ffs":0.5231,"g":38,"co":2,"mo":2,"sa":0,"ic":0},"geometry":{"type":"Polygon","coordinates":[[[-1.08962,52.58961],[-1.0891,52.58808],[-1.08793,52.58802],[-1.08783,52.58656],[-1.09168,52.58647],[-1.09357,52.58682],[-1.09728,52.58679],[-1.09979,52.58635],[-1.1006,52.58704],[-1.10038,52.58763],[-1.10151,52.58792],[-1.10081,52.58913],[-1.09896,52.58905],[-1.09832,52.58983],[-1.09716,52.58985],[-1.09657,52.58956],[-1.09595,52.58998],[-1.09611,52.59091],[-1.09454,52.59104],[-1.09453,52.59259],[-1.09133,52.59298],[-1.09084,52.59348],[-1.09029,52.59337],[-1.09059,52.59327],[-1.08962,52.58961]]]}},{"type":"Feature","properties":{"id":"E01026005","name":"E01026005","parent":"E07000135","type":"LSOA","pop":1756,"r":103,"ff":34,"ffd":1936.2,"ffs":0.5231,"g":38,"co":2,"mo":0,"sa":0,"ic":0},"geometry":{"type":"Polygon","coordinates":[[[-1.10649,52.58687],[-1.10682,52.58639],[-1.10814,52.5865],[-1.10942,52.58615],[-1.11127,52.58653],[-1.11482,52.58805],[-1.11359,52.58876],[-1.111,52.59143],[-1.10988,52.59189],[-1.10775,52.59221],[-1.10554,52.58931],[-1.10532,52.58832],[-1.10603,52.58796],[-1.10577,52.58748],[-1.10649,52.58687]]]}},{"type":"Feature","properties":{"id":"E01032600","name":"E01032600","parent":"E07000135","type":"LSOA","pop":2093,"r":485,"ff":212,"ffd":10129.0,"ffs":0.5158,"g":73,"co":2,"mo":0,"sa":0,"ic":0},"geometry":{"type":"Polygon","coordinates":[[[-1.11289,52.59695],[-1.11104,52.5956],[-1.10775,52.59221],[-1.10988,52.59189],[-1.111,52.59143],[-1.11359,52.58876],[-1.1144,52.58828],[-1.11473,52.58862],[-1.11393,52.5887],[-1.11384,52.58925],[-1.11881,52.59216],[-1.11626,52.59234],[-1.11677,52.59329],[-1.11743,52.59338],[-1.11708,52.59395],[-1.11453,52.59417],[-1.11442,52.59446],[-1.1176,52.5942],[-1.11811,52.59438],[-1.11804,52.59471],[-1.11834,52.59503],[-1.11791,52.59567],[-1.11643,52.59597],[-1.11719,52.59634],[-1.11732,52.59697],[-1.11289,52.59695]]]}},{"type":"Feature","properties":{"id":"E01032601","name":"E01032601","parent":"E07000135","type":"LSOA","pop":1564,"r":103,"ff":34,"ffd":2173.9,"ffs":0.5231,"g":38,"co":2,"mo":0,"sa":0,"ic":0},"geometry":{"type":"Polygon","coordinates":[[[-1.10826,52.59612],[-1.10691,52.59562],[-1.10365,52.59591],[-1.10056,52.5947],[-1.09999,52.5934],[-1.09959,52.59343],[-1.09983,52.59252],[-1.10076,52.59278],[-1.10161,52.59266],[-1.1019,52.59317],[-1.10281,52.59354],[-1.10247,52.59382],[-1.10281,52.59426],[-1.1036,52.59429],[-1.10389,52.59397],[-1.10448,52.59436],[-1.10509,52.59405],[-1.10337,52.59234],[-1.10381,52.5919],[-1.10657,52.59114],[-1.10711,52.59143],[-1.11104,52.5956],[-1.11289,52.59695],[-1.10985,52.59736],[-1.10944,52.59639],[-1.10826,52.59612]]]}}]}