{"type":"FeatureCollection","features":[{"type":"Feature","properties":{"id":"E01024981","name":"E01024981","parent":"E07000119","type":"LSOA","pop":1336,"r":156,"ff":47,"ffd":3518.0,"ffs":0.4519,"g":51,"co":0,"mo":0,"sa":0,"ic":0},"geometry":{"type":"Polygon","coordinates":[[[-2.98347,53.74624],[-2.97846,53.74463],[-2.97859,53.744],[-2.97737,53.74275],[-2.97718,53.74107],[-2.97532,53.74151],[-2.97479,53.7408],[-2.97579,53.74057],[-2.97552,53.74011],[-2.97598,53.73999],[-2.97527,53.73885],[-2.9789,53.73891],[-2.97879,53.73808],[-2.97828,53.73725],[-2.9797,53.73507],[-2.98046,53.73602],[-2.98012,53.73631],[-2.98173,53.73671],[-2.98156,53.73697],[-2.98222,53.73717],[-2.98242,53.73688],[-2.98334,53.73709],[-2.98348,53.73753],[-2.9848,53.73789],[-2.98404,53.73891],[-2.98364,53.73847],[-2.98273,53.73864],[-2.98289,53.73844],[-2.98209,53.73845],[-2.98642,53.73977],[-2.98556,53.74019],[-2.98613,53.74053],[-2.98618,53.74096],[-2.9873,53.74131],[-2.98723,53.74173],[-2.98786,53.74187],[-2.98734,53.74265],[-2.98801,53.74278],[-2.98959,53.74457],[-2.98901,53.74481],[-2.99017,53.74646],[-2.98764,53.74692],[-2.98644,53.74522],[-2.98547,53.74519],[-2.98537,53.74738],[-2.98347,53.74624]]]}},{"type":"Feature","properties":{"id":"E01024982","name":"E01024982","parent":"E07000119","type":"LSOA","pop":1391,"r":152,"ff":46,"ffd":3307.0,"ffs":0.46,"g":51,"co":0,"mo":2,"sa":0,"ic":0},"geometry":{"type":"Polygon","coordinates":[[[-2.99964,53.74889],[-2.99783,53.74673],[-2.99797,53.74569],[-2.99709,53.74531],[-2.99688,53.74472],[-2.99731,53.74456],[-2.99692,53.74433],[-2.99622,53.74445],[-2.99601,53.7438],[-2.99174,53.74275],[-2.99186,53.74258],[-2.99135,53.74247],[-2.99141,53.74221],[-2.99037,53.7422],[-2.99023,53.74131],[-2.98852,53.74089],[-2.98866,53.74066],[-2.98788,53.74047],[-2.9877,53.74074],[-2.98701,53.74034],[-2.98613,53.74053],[-2.98556,53.74019],[-2.98642,53.73977],[-2.98209,53.73845],[-2.98289,53.73844],[-2.98273,53.73864],[-2.98364,53.73847],[-2.98404,53.73891],[-2.9848,53.73789],[-2.98348,53.73753],[-2.98334,53.73709],[-2.98242,53.73688],[-2.98222,53.73717],[-2.98156,53.73697],[-2.98173,53.73671],[-2.98012,53.73631],[-2.98046,53.73602],[-2.9797,53.73507],[-2.98009,53.73444],[-2.99258,53.73736],[-2.99749,53.73745],[-3.00081,53.73673],[-3.00068,53.73692],[-2.99845,53.73737],[-2.99369,53.73933],[-2.99366,53.73997],[-2.99269,53.7414],[-2.99867,53.74286],[-2.99788,53.74485],[-2.99942,53.74595],[-3.00293,53.74654],[-3.00437,53.74753],[-3.00127,53.74957],[-2.99964,53.74889]]]}},{"type":"Feature","properties":{"id":"E01024983","name":"E01024983","parent":"E07000119","type":"LSOA","pop":1465,"r":169,"ff":51,"ffd":3481.2,"ffs":0.4513,"g":55,"co":0,"mo":0,"sa":0,"ic":0},"geometry":{"type":"Polygon","coordinates":[[[-2.98959,53.74457],[-2.98801,53.74278],[-2.98734,53.74265],[-2.98786,53.74187],[-2.98723,53.74173],[-2.9873,53.74131],[-2.98618,53.74096],[-2.98613,53.74053],[-2.98701,53.74034],[-2.9877,53.74074],[-2.98788,53.74047],[-2.98866,53.74066],[-2.98852,53.74089],[-2.99023,53.74131],[-2.99037,53.7422],[-2.99141,53.74221],[-2.99135,53.74247],[-2.99186,53.74258],[-2.99174,53.74275],[-2.99601,53.7438],[-2.99622,53.74445],[-2.99692,53.74433],[-2.99731,53.74456],[-2.99688,53.74472],[-2.99709,53.74531],[-2.99797,53.74569],[-2.99783,53.74673],[-2.99964,53.74889],[-2.99647,53.74763],[-2.99017,53.74646],[-2.98901,53.74481],[-2.98959,53.74457]]]}},{"type":"Feature","properties":{"id":"E01024984","name":"E01024984","parent":"E07000119","type":"LSOA","pop":1494,"r":218,"ff":79,"ffd":5287.8,"ffs":0.5,"g":59,"co":0,"mo":0,"sa":0,"ic":0},"geometry":{"type":"MultiPolygon","coordinates":[[[[-3.04957,53.75807],[-3.04943,53.75729],[-3.04981,53.75793],[-3.04957,53.75807]]],[[[-3.03833,53.76025],[-3.03457,53.75729],[-3.03413,53.75788],[-3.03341,53.75783],[-3.03388,53.7576],[-3.03328,53.7572],[-3.03257,53.75728],[-3.03234,53.75712],[-3.03439,53.75616],[-3.03346,53.75549],[-3.03456,53.75558],[-3.03427,53.75469],[-3.03712,53.75587],[-3.03769,53.75563],[-3.03611,53.75411],[-3.03837,53.75314],[-3.0446,53.75906],[-3.04814,53.75717],[-3.04846,53.7583],[-3.0487,53.75856],[-3.04584,53.7602],[-3.04633,53.76041],[-3.04031,53.76208],[-3.03833,53.76025]]]]}},{"type":"Feature","properties":{"id":"E01024985","name":"E01024985","parent":"E07000119","type":"LSOA","pop":1427,"r":207,"ff":74,"ffd":5185.7,"ffs":0.5034,"g":59,"co":0,"mo":0,"sa":0,"ic":0},"geometry":{"type":"Polygon","coordinates":[[[-3.02342,53.75945],[-3.02331,53.7572],[-3.02644,53.75734],[-3.02807,53.75651],[-3.02641,53.75538],[-3.02677,53.75517],[-3.02731,53.75537],[-3.02831,53.75487],[-3.02872,53.75516],[-3.0292,53.75493],[-3.02947,53.75512],[-3.02907,53.75546],[-3.03022,53.75563],[-3.03,53.75608],[-3.03071,53.75598],[-3.03119,53.75632],[-3.03077,53.75648],[-3.03111,53.75701],[-3.03221,53.75647],[-3.03176,53.75618],[-3.03226,53.75579],[-3.0331,53.75568],[-3.03387,53.75642],[-3.03234,53.75712],[-3.03257,53.75728],[-3.03328,53.7572],[-3.03388,53.7576],[-3.03341,53.75783],[-3.03413,53.75788],[-3.03457,53.75729],[-3.03577,53.75812],[-3.0291,53.76063],[-3.02373,53.76097],[-3.02342,53.75945]]]}},{"type":"Feature","properties":{"id":"E01024986","name":"E01024986","parent":"E07000119","type":"LSOA","pop":1680,"r":201,"ff":72,"ffd":4285.7,"ffs":0.4966,"g":55,"co":0,"mo":0,"sa":0,"ic":0},"geometry":{"type":"MultiPolygon","coordinates":[[[[-3.04145,53.75591],[-3.03837,53.75314],[-3.03611,53.75411],[-3.03769,53.75563],[-3.03712,53.75587],[-3.03427,53.75469],[-3.03456,53.75558],[-3.03346,53.75549],[-3.03439,53.75616],[-3.03387,53.75642],[-3.0331,53.75568],[-3.03226,53.75579],[-3.03176,53.75618],[-3.03221,53.75647],[-3.03111,53.75701],[-3.03077,53.75648],[-3.03119,53.75632],[-3.03071,53.75598],[-3.03,53.75608],[-3.03022,53.75563],[-3.02907,53.75546],[-3.02947,53.75512],[-3.0292,53.75493],[-3.02872,53.75516],[-3.02831,53.75487],[-3.02731,53.75537],[-3.02677,53.75517],[-3.02641,53.75538],[-3.02524,53.75458],[-3.039,53.74749],[-3.03996,53.74892],[-3.04478,53.75196],[-3.04731,53.7542],[-3.04814,53.75717],[-3.0446,53.75906],[-3.04145,53.75591]]],[[[-3.04584,53.7602],[-3.0487,53.75856],[-3.04929,53.75918],[-3.04976,53.75921],[-3.04957,53.75807],[-3.04981,53.75793],[-3.05059,53.75927],[-3.0457,53.7606],[-3.04633,53.76041],[-3.04584,53.7602]]]]}},{"type":"Feature","properties":{"id":"E01024987","name":"E01024987","parent":"E07000119","type":"LSOA","pop":1476,"r":184,"ff":61,"ffd":4132.8,"ffs":0.4729,"g":54,"co":0,"mo":0,"sa":0,"ic":0},"geometry":{"type":"Polygon","coordinates":[[[-3.01969,53.75604],[-3.01961,53.75562],[-3.02023,53.75577],[-3.02091,53.75509],[-3.01931,53.75476],[-3.01952,53.75418],[-3.02596,53.75086],[-3.02735,53.75159],[-3.02773,53.75124],[-3.02434,53.74959],[-3.02415,53.74905],[-3.02711,53.75048],[-3.0279,53.74996],[-3.02837,53.75018],[-3.02827,53.74974],[-3.0287,53.74996],[-3.02905,53.74972],[-3.02962,53.7499],[-3.03086,53.74935],[-3.03286,53.75066],[-3.02524,53.75458],[-3.02476,53.75425],[-3.02318,53.75502],[-3.02205,53.75483],[-3.02196,53.75531],[-3.02056,53.75598],[-3.01969,53.75604]]]}},{"type":"Feature","properties":{"id":"E01024988","name":"E01024988","parent":"E07000119","type":"LSOA","pop":1609,"r":180,"ff":59,"ffd":3666.9,"ffs":0.4683,"g":53,"co":0,"mo":0,"sa":0,"ic":0},"geometry":{"type":"Polygon","coordinates":[[[-3.02735,53.75159],[-3.02596,53.75086],[-3.0255,53.75122],[-3.02156,53.74934],[-3.02213,53.74905],[-3.0211,53.74861],[-3.02306,53.74722],[-3.02339,53.74682],[-3.02377,53.74686],[-3.02668,53.74358],[-3.02786,53.74409],[-3.02911,53.74401],[-3.0348,53.74806],[-3.03546,53.74771],[-3.03495,53.74737],[-3.03548,53.74671],[-3.03804,53.74696],[-3.039,53.74749],[-3.03286,53.75066],[-3.03086,53.74935],[-3.02962,53.7499],[-3.02905,53.74972],[-3.0287,53.74996],[-3.02827,53.74974],[-3.02837,53.75018],[-3.0279,53.74996],[-3.02711,53.75048],[-3.02415,53.74905],[-3.02434,53.74959],[-3.02773,53.75124],[-3.02735,53.75159]]]}},{"type":"Feature","properties":{"id":"E01024989","name":"E01024989","parent":"E07000119","type":"LSOA","pop":1540,"r":199,"ff":67,"ffd":4350.6,"ffs":0.482,"g":59,"co":0,"mo":0,"sa":0,"ic":0},"geometry":{"type":"Polygon","coordinates":[[[-3.01661,53.75977],[-3.01321,53.75742],[-3.01952,53.75418],[-3.01931,53.75476],[-3.02091,53.75509],[-3.02023,53.75577],[-3.01961,53.75562],[-3.01969,53.75604],[-3.02056,53.75598],[-3.02196,53.75531],[-3.02205,53.75483],[-3.02318,53.75502],[-3.02476,53.75425],[-3.02807,53.75651],[-3.02644,53.75734],[-3.02331,53.7572],[-3.02342,53.75945],[-3.02092,53.7595],[-3.01984,53.75898],[-3.0171,53.76011],[-3.01661,53.75977]]]}},{"type":"Feature","properties":{"id":"E01024990","name":"E01024990","parent":"E07000119","type":"LSOA","pop":1494,"r":142,"ff":42,"ffd":2811.2,"ffs":0.4615,"g":50,"co":0,"mo":2,"sa":0,"ic":0},"geometry":{"type":"Polygon","coordinates":[[[-2.95991,53.74541],[-2.9584,53.74375],[-2.95735,53.73943],[-2.95269,53.73974],[-2.95262,53.73936],[-2.9521,53.73925],[-2.95193,53.73826],[-2.95074,53.7382],[-2.95001,53.73744],[-2.95002,53.73698],[-2.96208,53.73583],[-2.96219,53.73623],[-2.96372,53.73621],[-2.96319,53.73646],[-2.96321,53.73688],[-2.96416,53.73677],[-2.96368,53.73712],[-2.96167,53.73732],[-2.96103,53.73768],[-2.96027,53.73741],[-2.95914,53.73776],[-2.95975,53.73802],[-2.96105,53.73783],[-2.96248,53.73806],[-2.96256,53.73835],[-2.96329,53.73835],[-2.964,53.73727],[-2.96559,53.73773],[-2.96651,53.73832],[-2.96559,53.73879],[-2.96574,53.73926],[-2.96326,53.73933],[-2.96331,53.74065],[-2.96408,53.7408],[-2.96517,53.74218],[-2.96377,53.74292],[-2.96464,53.74336],[-2.96353,53.7444],[-2.96285,53.74423],[-2.96218,53.74558],[-2.95991,53.74541]]]}},{"type":"Feature","properties":{"id":"E01024991","name":"E01024991","parent":"E07000119","type":"LSOA","pop":964,"r":140,"ff":42,"ffd":4356.8,"ffs":0.4615,"g":48,"co":0,"mo":2,"sa":0,"ic":0},"geometry":{"type":"MultiPolygon","coordinates":[[[[-2.94959,53.73409],[-2.94938,53.7327],[-2.94982,53.73306],[-2.94984,53.7327],[-2.95307,53.73297],[-2.95153,53.73384],[-2.95084,53.73384],[-2.95053,53.73414],[-2.95039,53.73392],[-2.95001,53.73426],[-2.94959,53.73409]]],[[[-2.96651,53.73832],[-2.96559,53.73773],[-2.964,53.73727],[-2.96329,53.73835],[-2.96256,53.73835],[-2.96248,53.73806],[-2.96105,53.73783],[-2.95975,53.73802],[-2.95914,53.73776],[-2.96027,53.73741],[-2.96103,53.73768],[-2.96167,53.73732],[-2.96368,53.73712],[-2.96416,53.73677],[-2.96321,53.73688],[-2.96319,53.73646],[-2.96372,53.73621],[-2.96219,53.73623],[-2.96208,53.73583],[-2.95002,53.73698],[-2.94972,53.73494],[-2.95057,53.73474],[-2.9509,53.7355],[-2.95062,53.73465],[-2.95229,53.73429],[-2.95267,53.73521],[-2.95238,53.73426],[-2.95422,53.73413],[-2.95413,53.7346],[-2.95437,53.73408],[-2.95566,53.73365],[-2.95587,53.73463],[-2.95581,53.73369],[-2.95712,53.73346],[-2.95968,53.73354],[-2.96009,53.73417],[-2.9608,53.73385],[-2.96342,53.73434],[-2.96574,53.73416],[-2.96967,53.73433],[-2.97477,53.73397],[-2.98009,53.73444],[-2.97828,53.73725],[-2.97879,53.73808],[-2.9789,53.73891],[-2.97172,53.73888],[-2.97241,53.73853],[-2.97134,53.73856],[-2.96999,53.73897],[-2.96992,53.73857],[-2.96881,53.7383],[-2.96868,53.73906],[-2.96574,53.73926],[-2.96559,53.73879],[-2.96651,53.73832]]]]}},{"type":"Feature","properties":{"id":"E01024992","name":"E01024992","parent":"E07000119","type":"LSOA","pop":1351,"r":145,"ff":43,"ffd":3182.8,"ffs":0.4574,"g":50,"co":0,"mo":0,"sa":0,"ic":0},"geometry":{"type":"Polygon","coordinates":[[[-2.96271,53.75213],[-2.95991,53.74541],[-2.96218,53.74558],[-2.96285,53.74423],[-2.96353,53.7444],[-2.96464,53.74336],[-2.96377,53.74292],[-2.96517,53.74218],[-2.96408,53.7408],[-2.96331,53.74065],[-2.96326,53.73933],[-2.96868,53.73906],[-2.96881,53.7383],[-2.96992,53.73857],[-2.96999,53.73897],[-2.97134,53.73856],[-2.97241,53.73853],[-2.97172,53.73888],[-2.97527,53.73885],[-2.97598,53.73999],[-2.97552,53.74011],[-2.97579,53.74057],[-2.97479,53.7408],[-2.97532,53.74151],[-2.97718,53.74107],[-2.97737,53.74275],[-2.97859,53.744],[-2.9781,53.74572],[-2.9765,53.74626],[-2.97512,53.74727],[-2.97609,53.74953],[-2.974,53.75686],[-2.97372,53.75736],[-2.97157,53.75704],[-2.96891,53.75359],[-2.96609,53.75248],[-2.96271,53.75213]]]}},{"type":"Feature","properties":{"id":"E01024993","name":"E01024993","parent":"E07000119","type":"LSOA","pop":1811,"r":6,"ff":2,"ffd":110.4,"ffs":0.4,"g":1,"co":3,"mo":1,"sa":3,"ic":1},"geometry":{"type":"MultiPolygon","coordinates":[[[[-2.87908,53.86068],[-2.87919,53.86059],[-2.87929,53.86065],[-2.87908,53.86068]]],[[[-2.89858,53.86156],[-2.89631,53.86049],[-2.89492,53.86083],[-2.89225,53.86288],[-2.88921,53.8626],[-2.88653,53.86341],[-2.88675,53.86307],[-2.88481,53.86305],[-2.87997,53.86056],[-2.87907,53.8604],[-2.87825,53.8607],[-2.8772,53.85989],[-2.87701,53.859],[-2.87556,53.85793],[-2.87583,53.85705],[-2.88442,53.85564],[-2.88802,53.85424],[-2.89012,53.85219],[-2.8874,53.85081],[-2.88809,53.84916],[-2.88996,53.84834],[-2.89069,53.84767],[-2.89015,53.84604],[-2.8842,53.84401],[-2.87729,53.84335],[-2.87162,53.84315],[-2.86778,53.84555],[-2.86698,53.8457],[-2.86654,53.84519],[-2.86409,53.84421],[-2.86111,53.84376],[-2.85759,53.84261],[-2.85851,53.83861],[-2.86109,53.8366],[-2.86408,53.83569],[-2.86862,53.83378],[-2.8703,53.83241],[-2.87012,53.83137],[-2.87395,53.83091],[-2.87968,53.82893],[-2.8808,53.82797],[-2.8832,53.82446],[-2.88847,53.82542],[-2.89308,53.83112],[-2.89449,53.83504],[-2.8962,53.83609],[-2.90125,53.83781],[-2.90255,53.83842],[-2.90538,53.84099],[-2.90549,53.84299],[-2.90727,53.84667],[-2.91062,53.84547],[-2.91385,53.845],[-2.91574,53.84397],[-2.91822,53.8437],[-2.92191,53.84843],[-2.9315,53.85546],[-2.93342,53.85617],[-2.92622,53.85571],[-2.92185,53.85616],[-2.91273,53.85964],[-2.9117,53.8606],[-2.91174,53.86277],[-2.91096,53.86368],[-2.90557,53.86445],[-2.90357,53.8645],[-2.90132,53.86402],[-2.89858,53.86156]]]]}},{"type":"Feature","properties":{"id":"E01024994","name":"E01024994","parent":"E07000119","type":"LSOA","pop":1611,"r":150,"ff":47,"ffd":2917.4,"ffs":0.4519,"g":45,"co":0,"mo":0,"sa":0,"ic":0},"geometry":{"type":"Polygon","coordinates":[[[-3.01813,53.74749],[-3.01716,53.74676],[-3.01617,53.74736],[-3.0125,53.74624],[-3.0059,53.7446],[-3.00638,53.74384],[-3.00535,53.74372],[-3.00593,53.74256],[-3.00733,53.74289],[-3.00753,53.74262],[-3.00813,53.74267],[-3.01133,53.74151],[-3.01198,53.74022],[-3.01723,53.7412],[-3.01793,53.7402],[-3.02668,53.74358],[-3.02575,53.74479],[-3.02162,53.74273],[-3.02085,53.74444],[-3.02029,53.74458],[-3.01981,53.74531],[-3.01883,53.74567],[-3.01853,53.74611],[-3.01915,53.74637],[-3.01813,53.74749]]]}},{"type":"Feature","properties":{"id":"E01024995","name":"E01024995","parent":"E07000119","type":"LSOA","pop":1344,"r":149,"ff":45,"ffd":3348.2,"ffs":0.4545,"g":49,"co":0,"mo":0,"sa":0,"ic":0},"geometry":{"type":"Polygon","coordinates":[[[-2.99867,53.74286],[-2.99269,53.7414],[-2.99366,53.73997],[-2.99369,53.73933],[-2.99845,53.73737],[-3.00068,53.73692],[-3.00081,53.73673],[-3.0069,53.73708],[-3.01077,53.73823],[-3.01445,53.73885],[-3.01793,53.7402],[-3.01723,53.7412],[-3.01198,53.74022],[-3.01133,53.74151],[-3.00813,53.74267],[-3.00753,53.74262],[-3.00733,53.74289],[-3.00593,53.74256],[-3.00535,53.74372],[-3.00638,53.74384],[-3.0059,53.7446],[-2.99867,53.74286]]]}},{"type":"Feature","properties":{"id":"E01024996","name":"E01024996","parent":"E07000119","type":"LSOA","pop":1168,"r":163,"ff":52,"ffd":4452.1,"ffs":0.4561,"g":48,"co":0,"mo":0,"sa":0,"ic":0},"geometry":{"type":"Polygon","coordinates":[[[-3.02155,53.74934],[-3.01617,53.74736],[-3.01716,53.74676],[-3.01813,53.74749],[-3.01915,53.74637],[-3.01853,53.74611],[-3.01883,53.74567],[-3.01981,53.74531],[-3.02029,53.74458],[-3.02085,53.74444],[-3.02162,53.74273],[-3.02575,53.74479],[-3.02377,53.74686],[-3.02339,53.74682],[-3.02306,53.74722],[-3.0211,53.74861],[-3.02213,53.74905],[-3.02155,53.74934]]]}},{"type":"Feature","properties":{"id":"E01024997","name":"E01024997","parent":"E07000119","type":"LSOA","pop":1524,"r":65,"ff":19,"ffd":1246.7,"ffs":0.5278,"g":29,"co":2,"mo":0,"sa":2,"ic":0},"geometry":{"type":"MultiPolygon","coordinates":[[[[-2.85385,53.74666],[-2.85103,53.74322],[-2.84541,53.74083],[-2.84998,53.73986],[-2.85555,53.73839],[-2.85648,53.73958],[-2.85645,53.74019],[-2.85708,53.74041],[-2.85849,53.74248],[-2.85906,53.74546],[-2.8594,53.74543],[-2.85976,53.74653],[-2.8592,53.74758],[-2.85973,53.7484],[-2.85895,53.74888],[-2.85955,53.74955],[-2.85941,53.74974],[-2.85384,53.74935],[-2.85385,53.74666]]],[[[-2.86899,53.75987],[-2.86516,53.75455],[-2.86492,53.75475],[-2.86547,53.75552],[-2.86515,53.756],[-2.8643,53.75597],[-2.86439,53.75548],[-2.86396,53.75566],[-2.86387,53.75539],[-2.86205,53.75586],[-2.86097,53.75579],[-2.8603,53.75533],[-2.85819,53.75615],[-2.85756,53.75584],[-2.85766,53.75541],[-2.85887,53.75508],[-2.85879,53.75461],[-2.85789,53.75448],[-2.85711,53.75492],[-2.85639,53.7546],[-2.85581,53.75542],[-2.85429,53.75493],[-2.85633,53.75398],[-2.85832,53.75239],[-2.85973,53.74976],[-2.85954,53.74975],[-2.85974,53.74952],[-2.85921,53.74884],[-2.85984,53.74879],[-2.85996,53.74821],[-2.85948,53.74758],[-2.85997,53.74639],[-2.85885,53.7426],[-2.85665,53.73839],[-2.85905,53.73778],[-2.86289,53.73746],[-2.86202,53.74115],[-2.86323,53.74259],[-2.86462,53.7461],[-2.86563,53.74679],[-2.86565,53.74755],[-2.86205,53.74807],[-2.86077,53.74864],[-2.86044,53.74939],[-2.8612,53.75105],[-2.86545,53.75047],[-2.86625,53.75209],[-2.86836,53.75249],[-2.86884,53.75414],[-2.86618,53.75481],[-2.86676,53.75587],[-2.86747,53.7557],[-2.86804,53.75764],[-2.86873,53.7584],[-2.86939,53.75853],[-2.86966,53.7596],[-2.86899,53.75987]]]]}},{"type":"Feature","properties":{"id":"E01024998","name":"E01024998","parent":"E07000119","type":"LSOA","pop":1700,"r":100,"ff":32,"ffd":1882.4,"ffs":0.5818,"g":45,"co":2,"mo":0,"sa":2,"ic":0},"geometry":{"type":"MultiPolygon","coordinates":[[[[-2.82263,53.74741],[-2.8222,53.7471],[-2.82257,53.74728],[-2.82263,53.74741]]],[[[-2.85686,53.77776],[-2.85659,53.77385],[-2.85413,53.76951],[-2.85359,53.76719],[-2.85227,53.76584],[-2.85246,53.76555],[-2.84726,53.76264],[-2.84666,53.75981],[-2.84476,53.76086],[-2.84154,53.76225],[-2.83818,53.76255],[-2.83692,53.76325],[-2.8349,53.76364],[-2.83025,53.76408],[-2.82721,53.75772],[-2.82668,53.75775],[-2.82398,53.75034],[-2.82233,53.74927],[-2.82285,53.74756],[-2.82262,53.74721],[-2.82097,53.74622],[-2.82109,53.74595],[-2.82219,53.74569],[-2.8227,53.74591],[-2.82276,53.74549],[-2.82475,53.74506],[-2.83541,53.74327],[-2.83673,53.7427],[-2.84541,53.74083],[-2.85103,53.74322],[-2.85385,53.74666],[-2.85384,53.74935],[-2.85941,53.74974],[-2.85872,53.75064],[-2.85954,53.74975],[-2.85973,53.74976],[-2.85832,53.75239],[-2.85633,53.75398],[-2.85429,53.75493],[-2.85581,53.75542],[-2.85639,53.7546],[-2.85711,53.75492],[-2.85789,53.75448],[-2.85879,53.75461],[-2.85887,53.75508],[-2.85766,53.75541],[-2.85756,53.75584],[-2.85819,53.75615],[-2.8603,53.75533],[-2.86097,53.75579],[-2.86205,53.75586],[-2.86387,53.75539],[-2.86396,53.75566],[-2.86439,53.75548],[-2.8643,53.75597],[-2.86515,53.756],[-2.86547,53.75552],[-2.86492,53.75475],[-2.86516,53.75455],[-2.86899,53.75987],[-2.86966,53.7596],[-2.8718,53.76178],[-2.87396,53.76093],[-2.8745,53.7614],[-2.87571,53.76096],[-2.87601,53.76123],[-2.87371,53.76223],[-2.87431,53.76259],[-2.87254,53.76344],[-2.87334,53.76417],[-2.87412,53.76392],[-2.87479,53.76461],[-2.87514,53.76447],[-2.87616,53.76505],[-2.87682,53.76562],[-2.87638,53.76577],[-2.87671,53.76648],[-2.87912,53.76595],[-2.87955,53.76667],[-2.87845,53.76674],[-2.87677,53.76741],[-2.87987,53.76979],[-2.87448,53.77242],[-2.86755,53.77449],[-2.86352,53.77653],[-2.86229,53.77635],[-2.85686,53.77776]]]]}},{"type":"Feature","properties":{"id":"E01024999","name":"E01024999","parent":"E07000119","type":"LSOA","pop":1517,"r":53,"ff":16,"ffd":1054.7,"ffs":0.5161,"g":22,"co":2,"mo":0,"sa":2,"ic":1},"geometry":{"type":"Polygon","coordinates":[[[-2.86625,53.75209],[-2.86545,53.75047],[-2.8612,53.75105],[-2.86044,53.74939],[-2.86077,53.74864],[-2.86205,53.74807],[-2.86565,53.74755],[-2.86563,53.74679],[-2.86462,53.7461],[-2.86323,53.74259],[-2.86202,53.74115],[-2.86289,53.73746],[-2.87084,53.73687],[-2.87493,53.73615],[-2.87582,53.73672],[-2.87626,53.73825],[-2.87753,53.73941],[-2.87739,53.74002],[-2.87684,53.74025],[-2.87741,53.74077],[-2.87673,53.74315],[-2.87518,53.74492],[-2.87434,53.7456],[-2.87447,53.74638],[-2.87601,53.74759],[-2.8789,53.74739],[-2.88025,53.74761],[-2.87999,53.74788],[-2.87861,53.74777],[-2.87864,53.74844],[-2.87813,53.74845],[-2.87809,53.74881],[-2.87832,53.75053],[-2.87797,53.75096],[-2.87647,53.75115],[-2.87667,53.752],[-2.87526,53.75218],[-2.87515,53.75173],[-2.87461,53.7518],[-2.87461,53.75208],[-2.8725,53.75234],[-2.87318,53.75263],[-2.87166,53.75304],[-2.87145,53.75338],[-2.86873,53.75399],[-2.86836,53.75249],[-2.86625,53.75209]]]}},{"type":"Feature","properties":{"id":"E01025000","name":"E01025000","parent":"E07000119","type":"LSOA","pop":1209,"r":61,"ff":18,"ffd":1488.8,"ffs":0.5455,"g":28,"co":2,"mo":0,"sa":2,"ic":0},"geometry":{"type":"Polygon","coordinates":[[[-2.87955,53.76667],[-2.87912,53.76595],[-2.87671,53.76648],[-2.87638,53.76577],[-2.87682,53.76562],[-2.87616,53.76505],[-2.87514,53.76447],[-2.87479,53.76461],[-2.87412,53.76392],[-2.87334,53.76417],[-2.87254,53.76344],[-2.87431,53.76259],[-2.87371,53.76223],[-2.87601,53.76123],[-2.87571,53.76096],[-2.8745,53.7614],[-2.87396,53.76093],[-2.8718,53.76178],[-2.86966,53.7596],[-2.86939,53.75853],[-2.86873,53.7584],[-2.86804,53.75764],[-2.86747,53.7557],[-2.86676,53.75587],[-2.86618,53.75481],[-2.86884,53.75414],[-2.86873,53.75399],[-2.86909,53.75383],[-2.87145,53.75338],[-2.87166,53.75304],[-2.87318,53.75263],[-2.8725,53.75234],[-2.87461,53.75208],[-2.87461,53.7518],[-2.87515,53.75173],[-2.87526,53.75218],[-2.87667,53.752],[-2.87647,53.75115],[-2.87797,53.75096],[-2.87832,53.75053],[-2.87809,53.74881],[-2.87813,53.74845],[-2.87864,53.74844],[-2.87861,53.74777],[-2.87999,53.74788],[-2.88025,53.74761],[-2.88207,53.74801],[-2.88161,53.74973],[-2.88055,53.75081],[-2.88071,53.75119],[-2.88011,53.7514],[-2.87872,53.75286],[-2.87898,53.75333],[-2.87942,53.75573],[-2.87856,53.75651],[-2.87912,53.75699],[-2.87856,53.75753],[-2.87937,53.76062],[-2.88201,53.76244],[-2.88426,53.76351],[-2.88436,53.76476],[-2.88537,53.76539],[-2.8841,53.76583],[-2.88542,53.76815],[-2.87987,53.76979],[-2.87677,53.76741],[-2.87845,53.76674],[-2.87955,53.76667]]]}},{"type":"Feature","properties":{"id":"E01025001","name":"E01025001","parent":"E07000119","type":"LSOA","pop":2290,"r":194,"ff":62,"ffd":2707.4,"ffs":0.4627,"g":59,"co":0,"mo":0,"sa":0,"ic":0},"geometry":{"type":"Polygon","coordinates":[[[-3.01555,53.77457],[-2.99569,53.77439],[-2.9895,53.7723],[-2.98913,53.77008],[-2.99446,53.76127],[-2.99474,53.75707],[-2.99736,53.75751],[-3.00079,53.75883],[-3.0002,53.75971],[-3.00265,53.76024],[-3.00365,53.75868],[-3.00406,53.75838],[-3.00198,53.7569],[-2.99833,53.75528],[-3.00114,53.75298],[-3.00182,53.7527],[-3.0025,53.75294],[-3.00339,53.75237],[-3.00359,53.75291],[-3.00444,53.75283],[-3.00695,53.7538],[-3.00747,53.75352],[-3.00898,53.75454],[-3.00752,53.75397],[-3.00675,53.75449],[-3.00711,53.75516],[-3.00825,53.75542],[-3.00784,53.75613],[-3.01095,53.7563],[-3.01126,53.75609],[-3.01154,53.75679],[-3.0104,53.75739],[-3.01086,53.75794],[-3.01227,53.75726],[-3.01293,53.75733],[-3.01108,53.75829],[-3.01255,53.75931],[-3.00825,53.76119],[-3.01182,53.76345],[-3.01214,53.76464],[-3.01129,53.76568],[-3.00968,53.76679],[-3.00783,53.76885],[-3.0078,53.77018],[-3.00836,53.77129],[-3.01025,53.77269],[-3.0141,53.77381],[-3.01555,53.77457]]]}},{"type":"Feature","properties":{"id":"E01025002","name":"E01025002","parent":"E07000119","type":"LSOA","pop":1608,"r":183,"ff":58,"ffd":3607.0,"ffs":0.4603,"g":56,"co":0,"mo":0,"sa":0,"ic":0},"geometry":{"type":"Polygon","coordinates":[[[-3.0104,53.75739],[-3.01154,53.75679],[-3.01126,53.75609],[-3.01095,53.7563],[-3.00784,53.75613],[-3.00825,53.75542],[-3.00711,53.75516],[-3.00675,53.75449],[-3.00752,53.75397],[-3.00898,53.75454],[-3.00747,53.75352],[-3.00721,53.75299],[-3.0078,53.75249],[-3.00867,53.75249],[-3.00908,53.75219],[-3.00872,53.75194],[-3.00953,53.7514],[-3.01029,53.75157],[-3.01103,53.75117],[-3.0121,53.75177],[-3.01135,53.75279],[-3.01376,53.75335],[-3.01404,53.75374],[-3.01296,53.75378],[-3.01509,53.7545],[-3.01505,53.75408],[-3.01587,53.75395],[-3.01651,53.75417],[-3.01705,53.75396],[-3.01817,53.75441],[-3.02147,53.75271],[-3.02242,53.75272],[-3.01321,53.75742],[-3.01227,53.75726],[-3.01086,53.75794],[-3.0104,53.75739]]]}},{"type":"Feature","properties":{"id":"E01025003","name":"E01025003","parent":"E07000119","type":"LSOA","pop":1735,"r":169,"ff":51,"ffd":2939.5,"ffs":0.4397,"g":52,"co":0,"mo":0,"sa":0,"ic":0},"geometry":{"type":"Polygon","coordinates":[[[-3.01509,53.7545],[-3.01296,53.75378],[-3.01404,53.75374],[-3.01376,53.75335],[-3.01135,53.75279],[-3.0121,53.75177],[-3.01103,53.75117],[-3.01029,53.75157],[-3.00953,53.7514],[-3.00872,53.75194],[-3.00908,53.75219],[-3.00867,53.75249],[-3.0078,53.75249],[-3.00721,53.75299],[-3.00747,53.75352],[-3.00695,53.7538],[-3.00444,53.75283],[-3.00359,53.75291],[-3.00339,53.75237],[-3.00473,53.7527],[-3.00615,53.75144],[-3.00505,53.75102],[-3.00738,53.74942],[-3.00293,53.74654],[-2.99942,53.74595],[-2.99788,53.74485],[-2.99867,53.74286],[-3.01369,53.74658],[-3.02156,53.74934],[-3.02535,53.75114],[-3.02242,53.75272],[-3.02147,53.75271],[-3.01817,53.75441],[-3.01705,53.75396],[-3.01651,53.75417],[-3.01587,53.75395],[-3.01505,53.75408],[-3.01509,53.7545]]]}},{"type":"Feature","properties":{"id":"E01025004","name":"E01025004","parent":"E07000119","type":"LSOA","pop":1389,"r":229,"ff":83,"ffd":5975.5,"ffs":0.494,"g":60,"co":0,"mo":0,"sa":0,"ic":0},"geometry":{"type":"Polygon","coordinates":[[[-3.02676,53.76911],[-3.02594,53.76886],[-3.02528,53.76915],[-3.02422,53.76803],[-3.02329,53.7682],[-3.0237,53.76938],[-3.02314,53.76931],[-3.02269,53.76962],[-3.0216,53.76787],[-3.02305,53.76752],[-3.02261,53.76711],[-3.02138,53.76686],[-3.02065,53.76634],[-3.02086,53.76613],[-3.01722,53.76486],[-3.01741,53.76482],[-3.0174,53.76438],[-3.01809,53.76429],[-3.01825,53.76384],[-3.01718,53.76348],[-3.01728,53.76273],[-3.01857,53.76314],[-3.0214,53.76242],[-3.02136,53.76158],[-3.02296,53.76145],[-3.02292,53.76068],[-3.02187,53.7608],[-3.02164,53.76113],[-3.02119,53.76077],[-3.02129,53.7601],[-3.01958,53.75945],[-3.01984,53.75898],[-3.02092,53.7595],[-3.02342,53.75945],[-3.02415,53.76295],[-3.02491,53.76509],[-3.02588,53.7669],[-3.02956,53.77232],[-3.02861,53.77262],[-3.0288,53.77312],[-3.02737,53.77334],[-3.02676,53.76911]]]}},{"type":"Feature","properties":{"id":"E01025005","name":"E01025005","parent":"E07000119","type":"LSOA","pop":1485,"r":217,"ff":77,"ffd":5185.2,"ffs":0.4936,"g":60,"co":0,"mo":0,"sa":0,"ic":0},"geometry":{"type":"Polygon","coordinates":[[[-3.01406,53.76644],[-3.01339,53.76551],[-3.01208,53.76595],[-3.01129,53.76568],[-3.01214,53.76464],[-3.01182,53.76345],[-3.00825,53.76119],[-3.01255,53.75931],[-3.01108,53.75829],[-3.01293,53.75733],[-3.0171,53.76011],[-3.01984,53.75898],[-3.01958,53.75945],[-3.02129,53.7601],[-3.02119,53.76077],[-3.02164,53.76113],[-3.02187,53.7608],[-3.02292,53.76068],[-3.02296,53.76145],[-3.02136,53.76158],[-3.0214,53.76242],[-3.01857,53.76314],[-3.01728,53.76273],[-3.01718,53.76348],[-3.01825,53.76384],[-3.01809,53.76429],[-3.0174,53.76438],[-3.01741,53.76482],[-3.01674,53.76551],[-3.0158,53.7655],[-3.01541,53.76588],[-3.01406,53.76644]]]}},{"type":"Feature","properties":{"id":"E01025006","name":"E01025006","parent":"E07000119","type":"LSOA","pop":1242,"r":225,"ff":83,"ffd":6682.8,"ffs":0.5061,"g":60,"co":0,"mo":0,"sa":0,"ic":0},"geometry":{"type":"Polygon","coordinates":[[[-3.0078,53.77018],[-3.00783,53.76885],[-3.00968,53.76679],[-3.01129,53.76568],[-3.01208,53.76595],[-3.01339,53.76551],[-3.01406,53.76644],[-3.01541,53.76588],[-3.0158,53.7655],[-3.01674,53.76551],[-3.01722,53.76486],[-3.02086,53.76613],[-3.02065,53.76634],[-3.02138,53.76686],[-3.02261,53.76711],[-3.02305,53.76752],[-3.0216,53.76787],[-3.02269,53.76962],[-3.02314,53.76931],[-3.0237,53.76938],[-3.02329,53.7682],[-3.02422,53.76803],[-3.02528,53.76915],[-3.02594,53.76886],[-3.02676,53.76911],[-3.02737,53.77334],[-3.01582,53.77512],[-3.01555,53.77457],[-3.0141,53.77381],[-3.01025,53.77269],[-3.00836,53.77129],[-3.0078,53.77018]]]}},{"type":"Feature","properties":{"id":"E01025007","name":"E01025007","parent":"E07000119","type":"LSOA","pop":2203,"r":159,"ff":51,"ffd":2315.0,"ffs":0.5258,"g":61,"co":0,"mo":0,"sa":2,"ic":0},"geometry":{"type":"Polygon","coordinates":[[[-2.88797,53.78579],[-2.88795,53.78544],[-2.88709,53.78559],[-2.88743,53.78545],[-2.88687,53.78432],[-2.88553,53.78447],[-2.88548,53.78348],[-2.88417,53.7826],[-2.88343,53.78324],[-2.88221,53.78328],[-2.88094,53.78424],[-2.88053,53.78407],[-2.88088,53.78387],[-2.88041,53.78333],[-2.88106,53.78281],[-2.88094,53.78256],[-2.88044,53.78263],[-2.88038,53.78166],[-2.87994,53.78143],[-2.88337,53.78107],[-2.8888,53.78089],[-2.88927,53.78059],[-2.89225,53.78134],[-2.89428,53.78213],[-2.89522,53.78144],[-2.89726,53.78098],[-2.90853,53.78227],[-2.90662,53.78515],[-2.90853,53.78561],[-2.90838,53.78588],[-2.91055,53.78722],[-2.91076,53.78981],[-2.91015,53.79064],[-2.90636,53.78974],[-2.90071,53.78927],[-2.89519,53.78785],[-2.88689,53.78678],[-2.8871,53.78593],[-2.88797,53.78579]]]}},{"type":"Feature","properties":{"id":"E01025008","name":"E01025008","parent":"E07000119","type":"LSOA","pop":1125,"r":90,"ff":27,"ffd":2400.0,"ffs":0.551,"g":41,"co":0,"mo":0,"sa":2,"ic":0},"geometry":{"type":"Polygon","coordinates":[[[-2.86044,53.78381],[-2.85994,53.78308],[-2.86159,53.78267],[-2.86092,53.78121],[-2.8577,53.77974],[-2.85686,53.77894],[-2.85688,53.77813],[-2.86167,53.77816],[-2.86136,53.77918],[-2.86388,53.78018],[-2.86356,53.78045],[-2.86758,53.78189],[-2.86778,53.78241],[-2.86945,53.78286],[-2.86988,53.7836],[-2.87062,53.78351],[-2.87101,53.7838],[-2.87095,53.78438],[-2.86753,53.78623],[-2.86718,53.78721],[-2.86497,53.78719],[-2.86639,53.78614],[-2.86359,53.78476],[-2.86044,53.78381]]]}},{"type":"Feature","properties":{"id":"E01025009","name":"E01025009","parent":"E07000119","type":"LSOA","pop":1589,"r":132,"ff":43,"ffd":2706.1,"ffs":0.5513,"g":53,"co":0,"mo":0,"sa":2,"ic":0},"geometry":{"type":"Polygon","coordinates":[[[-2.86718,53.78721],[-2.86753,53.78623],[-2.87095,53.78438],[-2.87101,53.7838],[-2.87062,53.78351],[-2.86988,53.7836],[-2.86945,53.78286],[-2.86778,53.78241],[-2.86758,53.78189],[-2.87065,53.78243],[-2.87292,53.78237],[-2.87994,53.78143],[-2.88038,53.78166],[-2.88044,53.78263],[-2.88094,53.78256],[-2.88106,53.78281],[-2.88041,53.78333],[-2.88088,53.78387],[-2.88053,53.78407],[-2.88094,53.78424],[-2.88221,53.78328],[-2.88343,53.78324],[-2.88417,53.7826],[-2.88548,53.78348],[-2.88553,53.78447],[-2.88687,53.78432],[-2.88743,53.78545],[-2.88709,53.78559],[-2.88795,53.78544],[-2.88797,53.78579],[-2.8871,53.78593],[-2.88672,53.787],[-2.88321,53.78675],[-2.87548,53.78679],[-2.86718,53.78721]]]}},{"type":"Feature","properties":{"id":"E01025010","name":"E01025010","parent":"E07000119","type":"LSOA","pop":1764,"r":132,"ff":42,"ffd":2381.0,"ffs":0.5385,"g":53,"co":0,"mo":0,"sa":2,"ic":0},"geometry":{"type":"Polygon","coordinates":[[[-2.89225,53.78134],[-2.88927,53.78059],[-2.8888,53.78089],[-2.88337,53.78107],[-2.87948,53.78152],[-2.8794,53.78125],[-2.88021,53.78112],[-2.88045,53.78031],[-2.877,53.78067],[-2.87955,53.77914],[-2.87832,53.77899],[-2.87778,53.77966],[-2.87777,53.77944],[-2.87716,53.77945],[-2.8752,53.77972],[-2.87485,53.78046],[-2.87482,53.77982],[-2.87332,53.7799],[-2.87324,53.77967],[-2.87084,53.78023],[-2.87049,53.77974],[-2.87038,53.77902],[-2.87104,53.77887],[-2.87088,53.7782],[-2.86939,53.7782],[-2.86945,53.77927],[-2.86694,53.77909],[-2.86769,53.78003],[-2.86883,53.77978],[-2.86893,53.78036],[-2.86996,53.78035],[-2.86999,53.78064],[-2.86935,53.78099],[-2.86791,53.78088],[-2.86829,53.78152],[-2.86726,53.78182],[-2.86356,53.78045],[-2.86388,53.78018],[-2.86136,53.77918],[-2.86167,53.77816],[-2.85688,53.77813],[-2.85686,53.77776],[-2.86229,53.77635],[-2.86352,53.77653],[-2.86755,53.77449],[-2.87448,53.77242],[-2.88009,53.76979],[-2.88549,53.77299],[-2.88799,53.77626],[-2.89011,53.77797],[-2.89356,53.77989],[-2.8962,53.78081],[-2.89633,53.78117],[-2.89522,53.78144],[-2.89428,53.78213],[-2.89225,53.78134]]]}},{"type":"Feature","properties":{"id":"E01025011","name":"E01025011","parent":"E07000119","type":"LSOA","pop":1546,"r":110,"ff":36,"ffd":2328.6,"ffs":0.5806,"g":47,"co":0,"mo":0,"sa":2,"ic":0},"geometry":{"type":"Polygon","coordinates":[[[-2.86829,53.78152],[-2.86791,53.78088],[-2.86935,53.78099],[-2.86999,53.78064],[-2.86996,53.78035],[-2.86893,53.78036],[-2.86883,53.77978],[-2.86769,53.78003],[-2.86694,53.77909],[-2.86945,53.77927],[-2.86939,53.7782],[-2.87088,53.7782],[-2.87104,53.77887],[-2.87038,53.77902],[-2.87049,53.77974],[-2.87084,53.78023],[-2.87324,53.77967],[-2.87332,53.7799],[-2.87482,53.77982],[-2.87485,53.78046],[-2.8752,53.77972],[-2.87716,53.77945],[-2.87777,53.77944],[-2.87778,53.77966],[-2.87832,53.77899],[-2.87955,53.77914],[-2.877,53.78067],[-2.88045,53.78031],[-2.88021,53.78112],[-2.8794,53.78125],[-2.87948,53.78152],[-2.87292,53.78237],[-2.87065,53.78243],[-2.86726,53.78182],[-2.86829,53.78152]]]}},{"type":"Feature","properties":{"id":"E01025012","name":"E01025012","parent":"E07000119","type":"LSOA","pop":2842,"r":166,"ff":52,"ffd":1829.7,"ffs":0.5098,"g":63,"co":0,"mo":0,"sa":2,"ic":0},"geometry":{"type":"Polygon","coordinates":[[[-2.87088,53.80605],[-2.86453,53.79712],[-2.86374,53.79619],[-2.86249,53.79551],[-2.86227,53.79434],[-2.86121,53.79312],[-2.8614,53.79072],[-2.86254,53.78891],[-2.86497,53.78719],[-2.87261,53.78702],[-2.87463,53.79056],[-2.87761,53.79051],[-2.87889,53.79083],[-2.87864,53.79123],[-2.87552,53.79164],[-2.87817,53.79263],[-2.87905,53.79226],[-2.87866,53.79215],[-2.87876,53.79166],[-2.87934,53.79148],[-2.87953,53.79169],[-2.87925,53.78969],[-2.87986,53.79029],[-2.88035,53.79033],[-2.88047,53.79091],[-2.88088,53.79096],[-2.88221,53.78992],[-2.88477,53.79],[-2.88575,53.79066],[-2.88616,53.79058],[-2.88603,53.79027],[-2.88657,53.79038],[-2.88639,53.78996],[-2.8876,53.79012],[-2.88806,53.78981],[-2.8874,53.7896],[-2.88786,53.78862],[-2.88862,53.78829],[-2.88907,53.78833],[-2.88917,53.78891],[-2.8906,53.78875],[-2.89144,53.78786],[-2.89172,53.78731],[-2.89519,53.78785],[-2.90071,53.78927],[-2.90636,53.78974],[-2.91015,53.79064],[-2.90976,53.79139],[-2.9107,53.79203],[-2.91081,53.79254],[-2.91368,53.79419],[-2.91234,53.79589],[-2.91297,53.7961],[-2.91316,53.7989],[-2.90982,53.80089],[-2.89801,53.80032],[-2.89653,53.79995],[-2.88608,53.80176],[-2.88706,53.80448],[-2.88696,53.806],[-2.88938,53.81051],[-2.8884,53.81205],[-2.89013,53.81497],[-2.88979,53.81588],[-2.89113,53.81718],[-2.89149,53.81868],[-2.88977,53.81978],[-2.88847,53.82542],[-2.8832,53.82446],[-2.87816,53.82238],[-2.8761,53.81986],[-2.87124,53.81731],[-2.86905,53.81535],[-2.86752,53.81225],[-2.86711,53.80939],[-2.87088,53.80605]]]}},{"type":"Feature","properties":{"id":"E01025013","name":"E01025013","parent":"E07000119","type":"LSOA","pop":1776,"r":65,"ff":17,"ffd":957.2,"ffs":0.5,"g":31,"co":0,"mo":0,"sa":2,"ic":0},"geometry":{"type":"Polygon","coordinates":[[[-2.87552,53.79164],[-2.87864,53.79123],[-2.87889,53.79083],[-2.87761,53.79051],[-2.87463,53.79056],[-2.87261,53.78702],[-2.87548,53.78679],[-2.88321,53.78675],[-2.88672,53.787],[-2.88689,53.78678],[-2.89172,53.78731],[-2.89144,53.78786],[-2.8906,53.78875],[-2.88917,53.78891],[-2.88907,53.78833],[-2.88862,53.78829],[-2.88786,53.78862],[-2.8874,53.7896],[-2.88806,53.78981],[-2.8876,53.79012],[-2.88639,53.78996],[-2.88657,53.79038],[-2.88603,53.79027],[-2.88616,53.79058],[-2.88575,53.79066],[-2.88477,53.79],[-2.88221,53.78992],[-2.88088,53.79096],[-2.88047,53.79091],[-2.88035,53.79033],[-2.87986,53.79029],[-2.87925,53.78969],[-2.87953,53.79169],[-2.87934,53.79148],[-2.87876,53.79166],[-2.87866,53.79215],[-2.87905,53.79226],[-2.87817,53.79263],[-2.87552,53.79164]]]}},{"type":"Feature","properties":{"id":"E01025014","name":"E01025014","parent":"E07000119","type":"LSOA","pop":1777,"r":212,"ff":58,"ffd":3263.9,"ffs":0.3946,"g":63,"co":2,"mo":2,"sa":2,"ic":0},"geometry":{"type":"MultiPolygon","coordinates":[[[[-2.82095,53.74625],[-2.82097,53.74622],[-2.82121,53.7464],[-2.82095,53.74625]]],[[[-2.8228,53.74773],[-2.82271,53.74746],[-2.82285,53.74756],[-2.8228,53.74773]]],[[[-2.7907,53.75852],[-2.79069,53.75845],[-2.79084,53.7587],[-2.7907,53.75852]]],[[[-2.8228,53.74773],[-2.82233,53.74927],[-2.82398,53.75034],[-2.82668,53.75775],[-2.82721,53.75772],[-2.82914,53.76184],[-2.82847,53.76221],[-2.82801,53.76417],[-2.82884,53.76782],[-2.8284,53.76868],[-2.83025,53.77148],[-2.82996,53.77222],[-2.83082,53.77235],[-2.83082,53.7738],[-2.83454,53.77478],[-2.83576,53.77305],[-2.8456,53.77531],[-2.84599,53.7753],[-2.84648,53.77454],[-2.84711,53.7751],[-2.84677,53.7757],[-2.85012,53.77721],[-2.84992,53.77788],[-2.85046,53.77741],[-2.85173,53.77804],[-2.8505,53.77953],[-2.84655,53.77921],[-2.84564,53.78023],[-2.84529,53.78159],[-2.84645,53.78159],[-2.84709,53.78413],[-2.84909,53.78423],[-2.85246,53.78346],[-2.86075,53.78299],[-2.85994,53.78308],[-2.86044,53.78381],[-2.86359,53.78476],[-2.86639,53.78614],[-2.86254,53.78891],[-2.8614,53.79072],[-2.86121,53.79312],[-2.86227,53.79434],[-2.86249,53.79551],[-2.86374,53.79619],[-2.86453,53.79712],[-2.87088,53.80605],[-2.86711,53.80939],[-2.86752,53.81225],[-2.86905,53.81535],[-2.87124,53.81731],[-2.8761,53.81986],[-2.87816,53.82238],[-2.8832,53.82446],[-2.8808,53.82797],[-2.87968,53.82893],[-2.87395,53.83091],[-2.87012,53.83137],[-2.86869,53.83064],[-2.86493,53.82963],[-2.86223,53.82939],[-2.85749,53.83083],[-2.85445,53.83123],[-2.8494,53.8316],[-2.84087,53.83128],[-2.83867,53.82937],[-2.8361,53.82526],[-2.82209,53.81804],[-2.81965,53.8154],[-2.81526,53.80818],[-2.81152,53.80793],[-2.78287,53.78992],[-2.78207,53.79],[-2.78051,53.78764],[-2.78507,53.78426],[-2.79115,53.78076],[-2.79819,53.77154],[-2.79866,53.77042],[-2.79842,53.76876],[-2.79793,53.76737],[-2.79863,53.76705],[-2.79912,53.76573],[-2.7967,53.76435],[-2.79615,53.76338],[-2.7953,53.76313],[-2.79499,53.76265],[-2.79559,53.76227],[-2.79558,53.7621],[-2.79445,53.76155],[-2.79438,53.76085],[-2.79242,53.76061],[-2.79081,53.75837],[-2.79053,53.75681],[-2.78984,53.75629],[-2.79073,53.7545],[-2.79416,53.75262],[-2.794,53.75179],[-2.80203,53.7501],[-2.80222,53.75032],[-2.80233,53.75003],[-2.8042,53.74961],[-2.80442,53.74984],[-2.80937,53.7485],[-2.80942,53.74883],[-2.80976,53.74891],[-2.80943,53.74877],[-2.80974,53.74843],[-2.81373,53.74753],[-2.81425,53.74748],[-2.81494,53.7479],[-2.81442,53.74743],[-2.81693,53.7468],[-2.81737,53.74728],[-2.81839,53.74713],[-2.8174,53.74675],[-2.81855,53.74674],[-2.82035,53.74609],[-2.8222,53.7471],[-2.8228,53.74773]]]]}},{"type":"Feature","properties":{"id":"E01025015","name":"E01025015","parent":"E07000119","type":"LSOA","pop":1903,"r":86,"ff":26,"ffd":1366.3,"ffs":0.5652,"g":40,"co":2,"mo":0,"sa":2,"ic":0},"geometry":{"type":"Polygon","coordinates":[[[-2.84564,53.78023],[-2.84655,53.77921],[-2.8505,53.77953],[-2.85173,53.77804],[-2.85046,53.77741],[-2.84992,53.77788],[-2.85012,53.77721],[-2.84677,53.7757],[-2.84711,53.7751],[-2.84648,53.77454],[-2.84599,53.7753],[-2.8456,53.77531],[-2.83576,53.77305],[-2.83454,53.77478],[-2.83082,53.7738],[-2.83082,53.77235],[-2.82996,53.77222],[-2.83025,53.77148],[-2.8284,53.76868],[-2.82884,53.76782],[-2.82801,53.76417],[-2.82847,53.76221],[-2.82914,53.76184],[-2.83025,53.76408],[-2.8349,53.76364],[-2.83692,53.76325],[-2.83818,53.76255],[-2.84154,53.76225],[-2.84476,53.76086],[-2.84666,53.75981],[-2.84726,53.76264],[-2.85246,53.76555],[-2.85227,53.76584],[-2.85359,53.76719],[-2.85413,53.76951],[-2.85659,53.77385],[-2.85686,53.77894],[-2.8577,53.77974],[-2.86092,53.78121],[-2.86159,53.78267],[-2.86075,53.78299],[-2.85246,53.78346],[-2.84909,53.78423],[-2.84709,53.78413],[-2.84645,53.78159],[-2.84529,53.78159],[-2.84564,53.78023]]]}},{"type":"Feature","properties":{"id":"E01025016","name":"E01025016","parent":"E07000119","type":"LSOA","pop":2341,"r":190,"ff":59,"ffd":2520.3,"ffs":0.4609,"g":61,"co":0,"mo":0,"sa":0,"ic":0},"geometry":{"type":"Polygon","coordinates":[[[-2.98214,53.76985],[-2.98204,53.76965],[-2.98416,53.76973],[-2.98425,53.7684],[-2.98321,53.76832],[-2.98362,53.76636],[-2.98188,53.7662],[-2.98142,53.76358],[-2.97284,53.76122],[-2.97282,53.75735],[-2.97372,53.75736],[-2.974,53.75686],[-2.97609,53.74953],[-2.97512,53.74727],[-2.9765,53.74626],[-2.9781,53.74572],[-2.97846,53.74463],[-2.98347,53.74624],[-2.98537,53.74738],[-2.98547,53.74519],[-2.9859,53.7452],[-2.98644,53.74522],[-2.98764,53.74692],[-2.99017,53.74646],[-2.99647,53.74763],[-2.99624,53.7481],[-2.99553,53.74795],[-2.99605,53.74849],[-2.9955,53.74844],[-2.99529,53.74871],[-2.99309,53.74828],[-2.99312,53.74751],[-2.99195,53.74708],[-2.99151,53.74717],[-2.99161,53.74846],[-2.99239,53.74922],[-2.99305,53.74893],[-2.99383,53.7493],[-2.99388,53.74985],[-2.99706,53.75102],[-2.99648,53.75147],[-2.99605,53.75133],[-2.99504,53.75177],[-2.99583,53.75234],[-2.99493,53.75284],[-2.99528,53.75318],[-2.99492,53.75342],[-2.9938,53.7528],[-2.99288,53.75273],[-2.99324,53.75372],[-2.99263,53.75465],[-2.99255,53.75403],[-2.99071,53.75412],[-2.99141,53.75571],[-2.99328,53.75603],[-2.99453,53.75666],[-2.99084,53.75667],[-2.98918,53.7571],[-2.98678,53.75688],[-2.98745,53.75934],[-2.98694,53.76079],[-2.99298,53.76376],[-2.98913,53.77008],[-2.9895,53.7723],[-2.98214,53.76985]]]}},{"type":"Feature","properties":{"id":"E01025017","name":"E01025017","parent":"E07000119","type":"LSOA","pop":1516,"r":181,"ff":57,"ffd":3759.9,"ffs":0.4672,"g":58,"co":0,"mo":0,"sa":0,"ic":0},"geometry":{"type":"Polygon","coordinates":[[[-3.0027,53.7515],[-3.00204,53.75116],[-3.00024,53.75208],[-2.99883,53.75145],[-2.99984,53.75074],[-2.99849,53.75051],[-2.99583,53.75234],[-2.99504,53.75177],[-2.99605,53.75133],[-2.99648,53.75147],[-2.99706,53.75102],[-2.99388,53.74985],[-2.99383,53.7493],[-2.99305,53.74893],[-2.99239,53.74922],[-2.99161,53.74846],[-2.99151,53.74717],[-2.99195,53.74708],[-2.99312,53.74751],[-2.99309,53.74828],[-2.99529,53.74871],[-2.9955,53.74844],[-2.99605,53.74849],[-2.99553,53.74795],[-2.99624,53.7481],[-2.99647,53.74763],[-3.00127,53.74957],[-3.00437,53.74753],[-3.00738,53.74942],[-3.00505,53.75102],[-3.00615,53.75144],[-3.00473,53.7527],[-3.00435,53.7526],[-3.00456,53.75212],[-3.0029,53.75194],[-3.0027,53.7515]]]}},{"type":"Feature","properties":{"id":"E01025018","name":"E01025018","parent":"E07000119","type":"LSOA","pop":1365,"r":197,"ff":63,"ffd":4615.4,"ffs":0.4632,"g":60,"co":0,"mo":0,"sa":0,"ic":0},"geometry":{"type":"Polygon","coordinates":[[[-2.98745,53.75934],[-2.98678,53.75688],[-2.98918,53.7571],[-2.99084,53.75667],[-2.99453,53.75666],[-2.99328,53.75603],[-2.99141,53.75571],[-2.99071,53.75412],[-2.99255,53.75403],[-2.99263,53.75465],[-2.99324,53.75372],[-2.99288,53.75273],[-2.9938,53.7528],[-2.99492,53.75342],[-2.99528,53.75318],[-2.99493,53.75284],[-2.99849,53.75051],[-2.99984,53.75074],[-2.99883,53.75145],[-3.00024,53.75208],[-3.00204,53.75116],[-3.0027,53.7515],[-3.0029,53.75194],[-3.00456,53.75212],[-3.00435,53.7526],[-3.00339,53.75237],[-3.0025,53.75294],[-3.00182,53.7527],[-3.00114,53.75298],[-2.99833,53.75528],[-3.00198,53.7569],[-3.00406,53.75838],[-3.00365,53.75868],[-3.00265,53.76024],[-3.0002,53.75971],[-3.00079,53.75883],[-2.99736,53.75751],[-2.99474,53.75707],[-2.99446,53.76127],[-2.99298,53.76376],[-2.98694,53.76079],[-2.98745,53.75934]]]}},{"type":"Feature","properties":{"id":"E01025019","name":"E01025019","parent":"E07000119","type":"LSOA","pop":2024,"r":148,"ff":49,"ffd":2420.9,"ffs":0.5506,"g":58,"co":0,"mo":0,"sa":2,"ic":0},"geometry":{"type":"Polygon","coordinates":[[[-2.90853,53.78227],[-2.89726,53.78098],[-2.89633,53.78117],[-2.8962,53.78081],[-2.89356,53.77989],[-2.89011,53.77797],[-2.88799,53.77626],[-2.88549,53.77299],[-2.88009,53.76979],[-2.88542,53.76815],[-2.8841,53.76583],[-2.88693,53.76473],[-2.88853,53.76625],[-2.89113,53.7663],[-2.8916,53.76763],[-2.89319,53.76841],[-2.89412,53.76961],[-2.8995,53.76844],[-2.90097,53.76915],[-2.90201,53.76926],[-2.90214,53.76683],[-2.90346,53.76682],[-2.90514,53.76741],[-2.90739,53.76679],[-2.90779,53.76637],[-2.91109,53.76597],[-2.91171,53.76617],[-2.91459,53.76595],[-2.92289,53.76444],[-2.92453,53.76637],[-2.92835,53.76697],[-2.92979,53.76818],[-2.93001,53.76796],[-2.93185,53.76852],[-2.93381,53.7699],[-2.93747,53.77082],[-2.93584,53.77478],[-2.92524,53.77719],[-2.92346,53.77741],[-2.9203,53.77714],[-2.91684,53.77862],[-2.91488,53.77907],[-2.91306,53.78014],[-2.90976,53.78048],[-2.90853,53.78227]]]}},{"type":"Feature","properties":{"id":"E01025020","name":"E01025020","parent":"E07000119","type":"LSOA","pop":1403,"r":119,"ff":39,"ffd":2779.8,"ffs":0.52,"g":44,"co":0,"mo":2,"sa":0,"ic":0},"geometry":{"type":"MultiPolygon","coordinates":[[[[-2.92968,53.73257],[-2.92909,53.73145],[-2.93074,53.73167],[-2.93078,53.73219],[-2.92968,53.73257]]],[[[-2.92988,53.73295],[-2.92971,53.73263],[-2.93081,53.7323],[-2.93104,53.73155],[-2.93397,53.73184],[-2.93325,53.73247],[-2.93101,53.73275],[-2.92988,53.73295]]],[[[-2.92988,53.73295],[-2.93038,53.73295],[-2.92989,53.73296],[-2.92988,53.73295]]],[[[-2.9304,53.73398],[-2.92997,53.73313],[-2.93095,53.73279],[-2.93111,53.73301],[-2.93136,53.73278],[-2.9325,53.73284],[-2.93263,53.73264],[-2.93365,53.73242],[-2.93413,53.73199],[-2.93513,53.73307],[-2.93474,53.73329],[-2.93324,53.73318],[-2.93457,53.73331],[-2.93388,53.73368],[-2.93205,53.7338],[-2.93107,53.73358],[-2.93146,53.73379],[-2.9304,53.73398]]],[[[-2.93204,53.73729],[-2.9305,53.73419],[-2.93225,53.73401],[-2.93183,53.73435],[-2.93184,53.73501],[-2.93208,53.73417],[-2.93313,53.734],[-2.93248,53.7344],[-2.93302,53.73413],[-2.93324,53.7344],[-2.9327,53.73529],[-2.93328,53.73443],[-2.9331,53.7341],[-2.93358,53.73398],[-2.93379,53.73467],[-2.93206,53.73588],[-2.93377,53.73477],[-2.93263,53.7361],[-2.9339,53.73491],[-2.9338,53.73402],[-2.93456,53.73423],[-2.93444,53.73476],[-2.93311,53.73582],[-2.9343,53.73487],[-2.93491,53.73476],[-2.93429,53.73506],[-2.93406,53.73542],[-2.93428,53.73515],[-2.93456,53.73576],[-2.93435,53.73594],[-2.93436,53.73638],[-2.93204,53.73729]]],[[[-2.93516,53.7408],[-2.93448,53.73968],[-2.93493,53.74073],[-2.93368,53.74057],[-2.9321,53.7374],[-2.933,53.73711],[-2.93268,53.73778],[-2.93326,53.73685],[-2.93397,53.73692],[-2.9338,53.73707],[-2.9344,53.73691],[-2.93362,53.73675],[-2.93455,53.73631],[-2.93467,53.73576],[-2.93444,53.73512],[-2.9351,53.73473],[-2.93459,53.73465],[-2.93483,53.73423],[-2.93428,53.73388],[-2.93527,53.73348],[-2.93527,53.73384],[-2.93557,53.73353],[-2.93635,53.73437],[-2.93644,53.73476],[-2.93651,53.73453],[-2.93669,53.73473],[-2.9361,53.73512],[-2.93674,53.73479],[-2.93748,53.73557],[-2.93639,53.73643],[-2.9375,53.73559],[-2.93818,53.73632],[-2.93739,53.73647],[-2.9383,53.73645],[-2.93936,53.73758],[-2.93773,53.73752],[-2.93705,53.7377],[-2.93585,53.73725],[-2.93684,53.73773],[-2.93566,53.73789],[-2.93738,53.7377],[-2.93771,53.73786],[-2.93681,53.73789],[-2.93566,53.7385],[-2.93686,53.73791],[-2.93775,53.73792],[-2.93799,53.73776],[-2.93806,53.73801],[-2.93851,53.73771],[-2.93901,53.73794],[-2.93884,53.73922],[-2.93744,53.73958],[-2.93516,53.7408]]],[[[-2.93421,53.74131],[-2.935,53.74124],[-2.93426,53.74135],[-2.93421,53.74131]]],[[[-2.94167,53.74195],[-2.94006,53.7415],[-2.93889,53.74159],[-2.93596,53.74119],[-2.93658,53.74054],[-2.939,53.73982],[-2.93996,53.73822],[-2.94133,53.73968],[-2.94223,53.74024],[-2.94236,53.74062],[-2.94456,53.74067],[-2.9451,53.74102],[-2.94367,53.74108],[-2.94383,53.74162],[-2.94167,53.74195]]],[[[-2.93654,53.75297],[-2.93657,53.75073],[-2.93789,53.74837],[-2.93691,53.74754],[-2.93677,53.74477],[-2.93591,53.74342],[-2.93678,53.74462],[-2.93539,53.74205],[-2.93538,53.74163],[-2.93595,53.74156],[-2.93547,53.74128],[-2.93893,53.74177],[-2.93987,53.74164],[-2.94168,53.74211],[-2.94385,53.74167],[-2.94403,53.74226],[-2.94299,53.7427],[-2.94396,53.7432],[-2.94464,53.74312],[-2.94576,53.74356],[-2.94578,53.74454],[-2.94881,53.7451],[-2.94866,53.74665],[-2.95111,53.74817],[-2.95258,53.75106],[-2.95039,53.75086],[-2.9476,53.75172],[-2.95366,53.75576],[-2.93972,53.75833],[-2.93724,53.7547],[-2.93654,53.75297]]]]}},{"type":"Feature","properties":{"id":"E01025021","name":"E01025021","parent":"E07000119","type":"LSOA","pop":1394,"r":142,"ff":43,"ffd":3084.6,"ffs":0.4778,"g":51,"co":0,"mo":0,"sa":0,"ic":0},"geometry":{"type":"Polygon","coordinates":[[[-2.9453,53.74331],[-2.94788,53.74214],[-2.94949,53.74185],[-2.94974,53.74224],[-2.95148,53.74189],[-2.9509,53.74052],[-2.95124,53.74045],[-2.9511,53.74019],[-2.95194,53.73986],[-2.95152,53.73964],[-2.95151,53.73929],[-2.95262,53.73936],[-2.95269,53.73974],[-2.95735,53.73943],[-2.9584,53.74375],[-2.95991,53.74541],[-2.96271,53.75213],[-2.95258,53.75106],[-2.95111,53.74817],[-2.94866,53.74665],[-2.94881,53.7451],[-2.94578,53.74454],[-2.94576,53.74356],[-2.9453,53.74331]]]}},{"type":"Feature","properties":{"id":"E01025022","name":"E01025022","parent":"E07000119","type":"LSOA","pop":1837,"r":118,"ff":38,"ffd":2068.6,"ffs":0.4935,"g":41,"co":0,"mo":2,"sa":0,"ic":0},"geometry":{"type":"MultiPolygon","coordinates":[[[[-2.93394,53.73179],[-2.93387,53.73171],[-2.93391,53.73172],[-2.93394,53.73179]]],[[[-2.93413,53.73199],[-2.93431,53.73182],[-2.9368,53.73212],[-2.93513,53.73307],[-2.93413,53.73199]]],[[[-2.93635,53.73437],[-2.93557,53.73353],[-2.93618,53.73291],[-2.93669,53.7333],[-2.93591,53.73371],[-2.93671,53.73346],[-2.93673,53.73325],[-2.93653,53.73289],[-2.93811,53.73315],[-2.93673,53.73366],[-2.93664,53.73401],[-2.93684,53.73368],[-2.93726,53.73384],[-2.93658,53.7341],[-2.93635,53.73437]]],[[[-2.93706,53.73403],[-2.93731,53.73385],[-2.9374,53.73442],[-2.93669,53.73473],[-2.93651,53.73453],[-2.93662,53.73414],[-2.93706,53.73403]]],[[[-2.93674,53.73479],[-2.93719,53.73455],[-2.93695,53.735],[-2.93674,53.73479]]],[[[-2.93748,53.73557],[-2.93696,53.73501],[-2.93759,53.73433],[-2.93727,53.73525],[-2.93773,53.73442],[-2.9374,53.73368],[-2.93812,53.73335],[-2.93794,53.7338],[-2.93826,53.73317],[-2.93654,53.73277],[-2.93812,53.73209],[-2.94016,53.73217],[-2.93999,53.73285],[-2.94032,53.73342],[-2.93971,53.73353],[-2.93929,53.73298],[-2.93874,53.73307],[-2.93905,53.73372],[-2.93871,53.73381],[-2.93831,53.73414],[-2.93877,53.73381],[-2.9389,53.73402],[-2.93791,53.73463],[-2.93891,53.73404],[-2.93892,53.73383],[-2.93913,53.73381],[-2.93844,53.73462],[-2.93902,53.73417],[-2.93916,53.7339],[-2.93923,53.73306],[-2.93967,53.7339],[-2.94033,53.73355],[-2.94064,53.73382],[-2.93891,53.73444],[-2.93748,53.73557]]],[[[-2.93779,53.7359],[-2.9375,53.73559],[-2.93901,53.73445],[-2.94103,53.7338],[-2.94063,53.73352],[-2.94106,53.73344],[-2.94054,53.73349],[-2.94015,53.73284],[-2.94069,53.73213],[-2.94212,53.73215],[-2.94207,53.73427],[-2.94233,53.7321],[-2.94282,53.73331],[-2.94336,53.73355],[-2.94284,53.73429],[-2.94341,53.73356],[-2.94297,53.73326],[-2.94281,53.73215],[-2.94398,53.73236],[-2.94378,53.73253],[-2.9443,53.73283],[-2.94411,53.73373],[-2.94436,53.73304],[-2.94497,53.73337],[-2.94494,53.73369],[-2.94384,53.73417],[-2.94472,53.7338],[-2.94485,53.73418],[-2.94506,53.73356],[-2.94498,53.73331],[-2.94447,53.73308],[-2.94405,53.73233],[-2.94423,53.73225],[-2.9456,53.73245],[-2.94576,53.73323],[-2.94611,53.73345],[-2.94581,53.73373],[-2.94615,53.73356],[-2.94626,53.73378],[-2.94543,53.73429],[-2.9463,53.73381],[-2.94609,53.73337],[-2.9458,53.73321],[-2.94561,53.73239],[-2.94674,53.73255],[-2.94661,53.7335],[-2.94686,53.73249],[-2.94755,53.73259],[-2.94772,53.73322],[-2.94763,53.73255],[-2.94894,53.73275],[-2.94794,53.73357],[-2.94878,53.73312],[-2.94896,53.73279],[-2.94893,53.73265],[-2.94938,53.7327],[-2.94959,53.73434],[-2.94812,53.73467],[-2.94749,53.73423],[-2.94751,53.73444],[-2.94786,53.73451],[-2.94779,53.73475],[-2.94639,53.73439],[-2.94767,53.73475],[-2.94653,53.73502],[-2.94575,53.73467],[-2.94585,53.7344],[-2.94522,53.73447],[-2.94636,53.7351],[-2.94571,53.73526],[-2.94546,53.73495],[-2.94426,53.73477],[-2.94545,53.73499],[-2.9456,53.7353],[-2.94333,53.73577],[-2.94326,53.73529],[-2.94293,53.73557],[-2.94188,53.73543],[-2.94151,53.73492],[-2.94071,53.73457],[-2.94112,53.73449],[-2.93995,53.73467],[-2.94072,53.73462],[-2.94125,53.73488],[-2.94048,53.73484],[-2.93952,53.73504],[-2.93779,53.7359]]],[[[-2.93779,53.7359],[-2.93987,53.73498],[-2.94083,53.73487],[-2.93993,53.73516],[-2.93938,53.73549],[-2.94022,53.7351],[-2.94133,53.73496],[-2.94165,53.73533],[-2.94136,53.73524],[-2.941,53.73518],[-2.94119,53.73524],[-2.9403,53.73534],[-2.94134,53.73526],[-2.94177,53.73563],[-2.94139,53.73549],[-2.94091,53.73555],[-2.94079,53.7358],[-2.9401,53.73581],[-2.93913,53.73609],[-2.93884,53.73603],[-2.93886,53.73589],[-2.93878,53.736],[-2.93904,53.73616],[-2.93818,53.73632],[-2.93779,53.7359]]],[[[-2.93936,53.73758],[-2.9383,53.73645],[-2.93957,53.73599],[-2.94028,53.73588],[-2.93956,53.73618],[-2.94093,53.73583],[-2.94092,53.73602],[-2.94136,53.73557],[-2.94159,53.7358],[-2.94242,53.73556],[-2.94284,53.73597],[-2.94204,53.73606],[-2.94093,53.7368],[-2.94041,53.73661],[-2.93989,53.73666],[-2.93944,53.73699],[-2.94009,53.73667],[-2.94072,53.73687],[-2.93936,53.73758]]],[[[-2.9453,53.74331],[-2.94464,53.74312],[-2.94396,53.7432],[-2.94299,53.7427],[-2.94403,53.74226],[-2.94385,53.74167],[-2.94484,53.74147],[-2.94383,53.74162],[-2.94367,53.74108],[-2.9451,53.74102],[-2.94456,53.74067],[-2.94236,53.74062],[-2.94223,53.74024],[-2.94133,53.73968],[-2.93996,53.73822],[-2.94029,53.73768],[-2.94373,53.73624],[-2.94516,53.73594],[-2.94517,53.73641],[-2.94539,53.73591],[-2.94616,53.73574],[-2.94615,53.73608],[-2.94647,53.73575],[-2.94661,53.73617],[-2.9473,53.73616],[-2.94646,53.73569],[-2.94736,53.73547],[-2.94782,53.73594],[-2.94804,53.73567],[-2.94887,53.73581],[-2.94835,53.73566],[-2.94804,53.73565],[-2.94785,53.73573],[-2.94769,53.73541],[-2.94966,53.73488],[-2.95001,53.73744],[-2.95074,53.7382],[-2.95193,53.73826],[-2.9521,53.73925],[-2.95151,53.73929],[-2.95152,53.73964],[-2.95194,53.73986],[-2.9511,53.74019],[-2.95124,53.74045],[-2.9509,53.74052],[-2.95148,53.74189],[-2.94974,53.74224],[-2.94949,53.74185],[-2.94788,53.74214],[-2.9453,53.74331]]]]}},{"type":"Feature","properties":{"id":"E01025023","name":"E01025023","parent":"E07000119","type":"LSOA","pop":1235,"r":218,"ff":78,"ffd":6315.8,"ffs":0.4937,"g":59,"co":0,"mo":0,"sa":0,"ic":0},"geometry":{"type":"Polygon","coordinates":[[[-3.02491,53.76509],[-3.02413,53.76282],[-3.02491,53.7623],[-3.02802,53.76216],[-3.0288,53.76256],[-3.03343,53.76242],[-3.03308,53.76302],[-3.03363,53.76322],[-3.03314,53.76339],[-3.034,53.7643],[-3.03386,53.76469],[-3.03479,53.76491],[-3.03478,53.76468],[-3.03544,53.7646],[-3.03668,53.76626],[-3.0344,53.76661],[-3.03461,53.7676],[-3.03068,53.76873],[-3.02955,53.77023],[-3.02816,53.77027],[-3.02588,53.7669],[-3.02491,53.76509]]]}},{"type":"Feature","properties":{"id":"E01025024","name":"E01025024","parent":"E07000119","type":"LSOA","pop":2487,"r":254,"ff":90,"ffd":3618.8,"ffs":0.4787,"g":65,"co":0,"mo":0,"sa":0,"ic":0},"geometry":{"type":"Polygon","coordinates":[[[-3.03567,53.76489],[-3.03544,53.7646],[-3.03478,53.76468],[-3.03479,53.76491],[-3.03386,53.76469],[-3.034,53.7643],[-3.03314,53.76339],[-3.03363,53.76322],[-3.03308,53.76302],[-3.03343,53.76242],[-3.03292,53.76241],[-3.03351,53.76176],[-3.03594,53.76159],[-3.03681,53.7628],[-3.0389,53.76204],[-3.03831,53.76209],[-3.03799,53.76179],[-3.03836,53.76153],[-3.03779,53.76158],[-3.03729,53.76109],[-3.03793,53.76091],[-3.03796,53.76039],[-3.03833,53.76025],[-3.04031,53.76208],[-3.05059,53.75927],[-3.0517,53.76096],[-3.05287,53.76165],[-3.05502,53.76202],[-3.05474,53.76398],[-3.05516,53.76381],[-3.05537,53.76426],[-3.05523,53.76697],[-3.05604,53.76827],[-3.05595,53.77067],[-3.05671,53.77327],[-3.0564,53.77604],[-3.05662,53.77652],[-3.0571,53.77653],[-3.03419,53.78057],[-3.03272,53.78066],[-3.0288,53.77312],[-3.02861,53.77262],[-3.02956,53.77232],[-3.02816,53.77027],[-3.02955,53.77023],[-3.03068,53.76873],[-3.03461,53.7676],[-3.0344,53.76661],[-3.03668,53.76626],[-3.03567,53.76489]]]}},{"type":"Feature","properties":{"id":"E01025025","name":"E01025025","parent":"E07000119","type":"LSOA","pop":1582,"r":215,"ff":77,"ffd":4867.3,"ffs":0.4968,"g":59,"co":0,"mo":0,"sa":0,"ic":0},"geometry":{"type":"Polygon","coordinates":[[[-3.03681,53.7628],[-3.03594,53.76159],[-3.03351,53.76176],[-3.03292,53.76241],[-3.0288,53.76256],[-3.02802,53.76216],[-3.02491,53.7623],[-3.02413,53.76282],[-3.02373,53.76097],[-3.0291,53.76063],[-3.03577,53.75812],[-3.03833,53.76025],[-3.03796,53.76039],[-3.03793,53.76091],[-3.03729,53.76109],[-3.03779,53.76158],[-3.03836,53.76153],[-3.03799,53.76179],[-3.03831,53.76209],[-3.0389,53.76204],[-3.03681,53.7628]]]}},{"type":"Feature","properties":{"id":"E01025026","name":"E01025026","parent":"E07000119","type":"LSOA","pop":1465,"r":232,"ff":66,"ffd":4505.1,"ffs":0.4818,"g":94,"co":0,"mo":0,"sa":2,"ic":0},"geometry":{"type":"MultiPolygon","coordinates":[[[[-2.98176,53.85843],[-2.98182,53.85832],[-2.98187,53.85837],[-2.98176,53.85844],[-2.98176,53.85843]]],[[[-2.97657,53.86181],[-2.97715,53.86153],[-2.97626,53.86162],[-2.97699,53.86121],[-2.97702,53.86058],[-2.97656,53.86104],[-2.97519,53.86063],[-2.97658,53.86114],[-2.97584,53.86142],[-2.9718,53.86014],[-2.96952,53.86015],[-2.96289,53.86149],[-2.96078,53.86114],[-2.96045,53.86083],[-2.96063,53.86111],[-2.96006,53.86102],[-2.95777,53.8598],[-2.95555,53.85625],[-2.95128,53.8527],[-2.94699,53.85069],[-2.94392,53.85007],[-2.94067,53.85082],[-2.93835,53.85183],[-2.93797,53.85164],[-2.93815,53.85193],[-2.93665,53.85283],[-2.93543,53.85441],[-2.93412,53.85376],[-2.9353,53.85447],[-2.93342,53.85617],[-2.9315,53.85546],[-2.92191,53.84843],[-2.91822,53.8437],[-2.91574,53.84397],[-2.91385,53.845],[-2.91062,53.84547],[-2.90727,53.84667],[-2.90549,53.84299],[-2.90538,53.84099],[-2.90255,53.83842],[-2.90125,53.83781],[-2.8962,53.83609],[-2.89449,53.83504],[-2.89308,53.83112],[-2.88847,53.82542],[-2.88977,53.81978],[-2.89149,53.81868],[-2.89113,53.81718],[-2.88979,53.81588],[-2.89013,53.81497],[-2.8884,53.81205],[-2.88938,53.81051],[-2.88696,53.806],[-2.88706,53.80448],[-2.88608,53.80176],[-2.89653,53.79995],[-2.89801,53.80032],[-2.90982,53.80089],[-2.91022,53.80068],[-2.91572,53.80925],[-2.91516,53.81103],[-2.91334,53.81275],[-2.91356,53.816],[-2.91401,53.81688],[-2.91736,53.81986],[-2.91797,53.82089],[-2.91678,53.82227],[-2.91729,53.825],[-2.9248,53.82515],[-2.92806,53.82577],[-2.9306,53.82546],[-2.93464,53.82439],[-2.94065,53.82451],[-2.95497,53.82325],[-2.96178,53.82835],[-2.96507,53.82989],[-2.96732,53.83254],[-2.9686,53.83483],[-2.96927,53.83872],[-2.97079,53.84049],[-2.96791,53.84219],[-2.96559,53.84464],[-2.96557,53.84731],[-2.96723,53.84851],[-2.96856,53.84915],[-2.9719,53.8499],[-2.97219,53.85097],[-2.97404,53.8522],[-2.97627,53.8524],[-2.9778,53.8528],[-2.97953,53.85452],[-2.97965,53.8553],[-2.97856,53.85684],[-2.97869,53.85736],[-2.97771,53.85762],[-2.97773,53.85794],[-2.97805,53.85811],[-2.98078,53.85738],[-2.98176,53.85827],[-2.98087,53.85894],[-2.97959,53.8589],[-2.97905,53.85915],[-2.97862,53.85896],[-2.97923,53.85974],[-2.97858,53.86034],[-2.9785,53.8615],[-2.97793,53.86187],[-2.97657,53.86181]]]]}},{"type":"Feature","properties":{"id":"E01025027","name":"E01025027","parent":"E07000119","type":"LSOA","pop":1672,"r":325,"ff":120,"ffd":7177.0,"ffs":0.4898,"g":79,"co":0,"mo":2,"sa":0,"ic":0},"geometry":{"type":"Polygon","coordinates":[[[-2.98719,53.8302],[-2.98663,53.82926],[-2.98603,53.82902],[-2.98603,53.82844],[-2.97032,53.8292],[-2.96665,53.82689],[-2.96346,53.8276],[-2.96178,53.82835],[-2.95497,53.82325],[-2.94065,53.82451],[-2.93464,53.82439],[-2.9306,53.82546],[-2.92806,53.82577],[-2.9248,53.82515],[-2.91729,53.825],[-2.91678,53.82227],[-2.91797,53.82089],[-2.91736,53.81986],[-2.91401,53.81688],[-2.91356,53.816],[-2.91334,53.81275],[-2.91516,53.81103],[-2.91572,53.80925],[-2.91022,53.80068],[-2.91316,53.7989],[-2.91297,53.7961],[-2.91234,53.79589],[-2.91368,53.79419],[-2.91188,53.79304],[-2.91303,53.79285],[-2.91453,53.79388],[-2.91547,53.79404],[-2.92229,53.79317],[-2.92486,53.79591],[-2.92697,53.79557],[-2.93267,53.79573],[-2.93371,53.79699],[-2.93642,53.79748],[-2.93943,53.79928],[-2.94193,53.79942],[-2.94443,53.79866],[-2.94587,53.79869],[-2.94799,53.79799],[-2.94915,53.79707],[-2.9517,53.79677],[-2.9639,53.79396],[-2.96391,53.79428],[-2.97145,53.7925],[-2.97802,53.80232],[-2.98649,53.8022],[-2.99187,53.80811],[-2.99231,53.80821],[-2.99393,53.81212],[-2.99349,53.81291],[-2.99444,53.81449],[-2.99237,53.81446],[-2.98926,53.81356],[-2.98797,53.81278],[-2.98224,53.81682],[-2.97556,53.81933],[-2.97499,53.82098],[-2.97968,53.82021],[-2.98583,53.82034],[-2.9852,53.82097],[-2.98938,53.82094],[-2.9914,53.82029],[-2.99146,53.82101],[-2.99226,53.82079],[-2.99286,53.8221],[-2.99475,53.82185],[-2.99446,53.82042],[-2.99502,53.81987],[-2.99316,53.81901],[-2.9933,53.81876],[-2.99493,53.81884],[-2.99501,53.81849],[-2.99655,53.81899],[-2.99811,53.81903],[-2.99846,53.82042],[-2.99998,53.82006],[-3.00218,53.82194],[-3.00273,53.82309],[-3.0062,53.82443],[-3.01008,53.82489],[-3.01167,53.82559],[-3.01065,53.82619],[-3.00972,53.82547],[-3.00907,53.82539],[-3.00718,53.82699],[-3.00495,53.82729],[-3.00215,53.82876],[-2.993,53.8295],[-2.99312,53.83103],[-2.99201,53.83102],[-2.99198,53.83068],[-2.98719,53.8302]]]}},{"type":"Feature","properties":{"id":"E01025028","name":"E01025028","parent":"E07000119","type":"LSOA","pop":1631,"r":332,"ff":124,"ffd":7602.7,"ffs":0.4921,"g":79,"co":0,"mo":2,"sa":0,"ic":0},"geometry":{"type":"Polygon","coordinates":[[[-2.99286,53.8221],[-2.99226,53.82079],[-2.99146,53.82101],[-2.9914,53.82029],[-2.98938,53.82094],[-2.9852,53.82097],[-2.98583,53.82034],[-2.97968,53.82021],[-2.97499,53.82098],[-2.97556,53.81933],[-2.98224,53.81682],[-2.98797,53.81278],[-2.98926,53.81356],[-2.99237,53.81446],[-2.99444,53.81449],[-2.99467,53.81524],[-2.9933,53.8159],[-2.99501,53.81849],[-2.99493,53.81884],[-2.9933,53.81876],[-2.99316,53.81901],[-2.99502,53.81987],[-2.99446,53.82042],[-2.99475,53.82185],[-2.99286,53.8221]]]}},{"type":"Feature","properties":{"id":"E01025029","name":"E01025029","parent":"E07000119","type":"LSOA","pop":3422,"r":86,"ff":26,"ffd":759.8,"ffs":0.5417,"g":38,"co":2,"mo":0,"sa":0,"ic":0},"geometry":{"type":"Polygon","coordinates":[[[-2.88537,53.76539],[-2.88436,53.76476],[-2.88426,53.76351],[-2.88201,53.76244],[-2.87937,53.76062],[-2.87856,53.75753],[-2.87912,53.75699],[-2.87856,53.75651],[-2.87942,53.75573],[-2.87898,53.75333],[-2.87961,53.75319],[-2.88051,53.75359],[-2.88217,53.75343],[-2.88271,53.75357],[-2.88303,53.75422],[-2.88416,53.75225],[-2.88571,53.75181],[-2.88631,53.75258],[-2.88591,53.75414],[-2.88695,53.75395],[-2.88668,53.75458],[-2.88575,53.75513],[-2.89018,53.75498],[-2.89164,53.7552],[-2.89046,53.75569],[-2.8918,53.75703],[-2.89494,53.75611],[-2.89565,53.75686],[-2.89773,53.75542],[-2.89445,53.75511],[-2.89375,53.75285],[-2.8928,53.75218],[-2.89402,53.75164],[-2.89392,53.75123],[-2.89433,53.75113],[-2.89328,53.75015],[-2.89287,53.75023],[-2.892,53.74865],[-2.89232,53.74568],[-2.89013,53.74154],[-2.88338,53.73486],[-2.89014,53.73408],[-2.89229,53.73425],[-2.89114,53.73394],[-2.89515,53.73349],[-2.89711,53.73457],[-2.89894,53.73482],[-2.89632,53.73406],[-2.8958,53.73354],[-2.89983,53.73303],[-2.90008,53.73338],[-2.90005,53.73305],[-2.90084,53.73315],[-2.90086,53.73374],[-2.90156,53.73379],[-2.90165,53.73501],[-2.90184,53.73399],[-2.90156,53.73373],[-2.90093,53.7336],[-2.90115,53.73333],[-2.9009,53.73296],[-2.90412,53.73276],[-2.90412,53.73424],[-2.90426,53.73269],[-2.9047,53.73266],[-2.90507,53.73408],[-2.90487,53.73265],[-2.90565,53.73261],[-2.90584,53.73353],[-2.90572,53.7326],[-2.90707,53.73244],[-2.90745,53.7333],[-2.9074,53.73241],[-2.90816,53.7324],[-2.90841,53.73292],[-2.90836,53.73239],[-2.90955,53.73252],[-2.90971,53.73362],[-2.90858,53.73434],[-2.90976,53.73362],[-2.90966,53.73227],[-2.91071,53.7323],[-2.91072,53.73308],[-2.91015,53.73429],[-2.90893,53.73449],[-2.91003,53.73447],[-2.91016,53.73438],[-2.91079,53.73319],[-2.91101,53.73228],[-2.91115,53.73395],[-2.91147,53.73411],[-2.91059,53.73501],[-2.91154,53.73408],[-2.9112,53.73389],[-2.91135,53.73345],[-2.91131,53.73223],[-2.91192,53.73236],[-2.91219,53.73205],[-2.91261,53.73233],[-2.91248,53.73254],[-2.91249,53.73318],[-2.91256,53.73248],[-2.91273,53.73237],[-2.91301,53.73267],[-2.91262,53.73518],[-2.91312,53.73333],[-2.91295,53.73206],[-2.91371,53.73246],[-2.91341,53.73199],[-2.91369,53.73202],[-2.91417,53.73329],[-2.91379,53.73201],[-2.91409,53.73191],[-2.91443,53.73351],[-2.91435,53.73207],[-2.9142,53.73192],[-2.91453,53.73184],[-2.91481,53.73265],[-2.91488,53.73201],[-2.9152,53.73246],[-2.91502,53.73441],[-2.91535,53.73472],[-2.91497,53.73489],[-2.91539,53.73477],[-2.91534,53.73457],[-2.91509,53.73438],[-2.91558,53.73305],[-2.9152,53.73225],[-2.91578,53.73203],[-2.91647,53.73328],[-2.91614,53.73419],[-2.91655,53.73435],[-2.91657,53.73513],[-2.91661,53.73438],[-2.91637,53.73405],[-2.91654,53.73327],[-2.91618,53.7321],[-2.91553,53.73188],[-2.91682,53.73191],[-2.91704,53.73247],[-2.91696,53.73191],[-2.91764,53.7321],[-2.91788,53.73253],[-2.91737,53.73358],[-2.91786,53.73316],[-2.91786,53.73285],[-2.9182,53.73303],[-2.91785,53.73405],[-2.91831,53.73444],[-2.91791,53.73402],[-2.91834,53.73332],[-2.91797,53.7324],[-2.91758,53.73195],[-2.9168,53.73171],[-2.91763,53.73162],[-2.91892,53.73157],[-2.91955,53.73339],[-2.91905,53.73163],[-2.92072,53.73184],[-2.92034,53.73484],[-2.92102,53.73156],[-2.92185,53.73148],[-2.92245,53.7328],[-2.922,53.73151],[-2.9229,53.73149],[-2.92292,53.73338],[-2.92312,53.73145],[-2.92909,53.73145],[-2.92968,53.73257],[-2.92794,53.73263],[-2.92451,53.73377],[-2.92797,53.73268],[-2.92971,53.73263],[-2.92989,53.73296],[-2.93038,53.73295],[-2.92915,53.73345],[-2.92997,53.73313],[-2.9304,53.73398],[-2.92913,53.73383],[-2.92667,53.7343],[-2.92632,53.73404],[-2.92578,53.73381],[-2.92614,53.73422],[-2.92525,53.73423],[-2.92592,53.73435],[-2.92616,53.73428],[-2.92634,53.7341],[-2.92629,53.73458],[-2.92356,53.73478],[-2.92244,53.73492],[-2.92163,53.73529],[-2.92352,53.73483],[-2.92321,53.73557],[-2.92371,53.73485],[-2.92607,53.73472],[-2.92581,53.73543],[-2.92626,53.7351],[-2.92618,53.73585],[-2.92661,53.73584],[-2.92625,53.73473],[-2.92713,53.73424],[-2.92722,53.73468],[-2.92754,53.73423],[-2.92931,53.73404],[-2.92751,53.73465],[-2.92715,53.73565],[-2.92738,53.73593],[-2.92754,53.73471],[-2.92952,53.73409],[-2.93013,53.73433],[-2.92826,53.73512],[-2.92938,53.73484],[-2.9286,53.73645],[-2.92929,53.73504],[-2.93027,53.73425],[-2.93053,53.73462],[-2.93005,53.73471],[-2.92965,53.7351],[-2.93018,53.73507],[-2.93003,53.73533],[-2.93053,53.73508],[-2.92972,53.73603],[-2.92982,53.73643],[-2.93002,53.73603],[-2.93028,53.73651],[-2.93082,53.73636],[-2.9301,53.73604],[-2.93062,53.73501],[-2.93001,53.7349],[-2.93068,53.73458],[-2.9305,53.73419],[-2.93204,53.73729],[-2.93088,53.73776],[-2.9321,53.7374],[-2.93368,53.74057],[-2.93228,53.7404],[-2.93148,53.73998],[-2.93171,53.74031],[-2.93325,53.74082],[-2.93279,53.74111],[-2.9319,53.741],[-2.93106,53.74061],[-2.93101,53.74026],[-2.93068,53.74043],[-2.92928,53.73973],[-2.92973,53.73932],[-2.92908,53.73953],[-2.92927,53.73911],[-2.92884,53.73917],[-2.92881,53.73858],[-2.9282,53.73826],[-2.9264,53.73795],[-2.92524,53.7373],[-2.92398,53.73736],[-2.92291,53.73702],[-2.922,53.73706],[-2.92126,53.73757],[-2.91999,53.73752],[-2.9199,53.73773],[-2.91972,53.73754],[-2.91917,53.73788],[-2.91859,53.7377],[-2.91871,53.73732],[-2.91854,53.7376],[-2.91787,53.73739],[-2.91802,53.73668],[-2.91761,53.73734],[-2.91682,53.73729],[-2.91679,53.73705],[-2.91661,53.73723],[-2.91612,53.73669],[-2.91519,53.73671],[-2.91651,53.73728],[-2.9154,53.73765],[-2.91449,53.73736],[-2.91319,53.73734],[-2.91244,53.73667],[-2.90882,53.73608],[-2.90684,53.73617],[-2.90599,53.73658],[-2.90583,53.73696],[-2.90545,53.73715],[-2.9059,53.73697],[-2.90615,53.73743],[-2.906,53.73671],[-2.90677,53.73625],[-2.90885,53.73613],[-2.91067,53.73656],[-2.91123,53.73675],[-2.90998,53.73709],[-2.91094,53.73718],[-2.91006,53.73776],[-2.91057,53.7377],[-2.91015,53.73834],[-2.91068,53.73815],[-2.9108,53.73886],[-2.91065,53.73772],[-2.91144,53.73676],[-2.91238,53.73676],[-2.91292,53.73719],[-2.91174,53.73717],[-2.9114,53.73748],[-2.91193,53.73719],[-2.91287,53.73736],[-2.913,53.73774],[-2.91309,53.73746],[-2.91417,53.7375],[-2.91418,53.73782],[-2.91435,53.7375],[-2.91547,53.73777],[-2.91637,53.73772],[-2.91669,53.73843],[-2.91563,53.73895],[-2.91681,53.73918],[-2.91552,53.73988],[-2.91618,53.73957],[-2.91662,53.73978],[-2.91709,53.73964],[-2.91732,53.73977],[-2.91685,53.74045],[-2.91725,53.74069],[-2.91663,53.74078],[-2.91712,53.74107],[-2.91636,53.74198],[-2.9168,53.74233],[-2.91655,53.74282],[-2.91688,53.74238],[-2.91647,53.74197],[-2.9172,53.7411],[-2.91671,53.74078],[-2.91731,53.74073],[-2.91738,53.74066],[-2.91696,53.74042],[-2.91743,53.73989],[-2.91739,53.73966],[-2.91706,53.73958],[-2.91661,53.73968],[-2.91705,53.73918],[-2.91625,53.7389],[-2.91689,53.73846],[-2.91661,53.7376],[-2.91692,53.73747],[-2.91912,53.73807],[-2.92122,53.73777],[-2.92152,53.73836],[-2.92151,53.73771],[-2.92289,53.7373],[-2.92503,53.73786],[-2.92499,53.73836],[-2.92515,53.73791],[-2.92466,53.73761],[-2.92802,53.73863],[-2.92835,53.7391],[-2.92777,53.73874],[-2.92595,53.73829],[-2.9254,53.73843],[-2.92503,53.7391],[-2.92323,53.73868],[-2.9249,53.73913],[-2.92474,53.73946],[-2.92146,53.73939],[-2.92435,53.73965],[-2.92377,53.73999],[-2.92105,53.73992],[-2.9196,53.74029],[-2.92047,53.74035],[-2.92012,53.74103],[-2.92074,53.74003],[-2.92364,53.74007],[-2.92254,53.74041],[-2.92324,53.74033],[-2.92307,53.7411],[-2.92219,53.74144],[-2.92296,53.74119],[-2.92385,53.74137],[-2.92312,53.74113],[-2.9233,53.74038],[-2.92488,53.7395],[-2.9259,53.73839],[-2.92782,53.73894],[-2.92853,53.73946],[-2.92873,53.74001],[-2.93038,53.74077],[-2.92963,53.74096],[-2.92795,53.74025],[-2.92523,53.73999],[-2.92791,53.74027],[-2.92855,53.74058],[-2.92777,53.74072],[-2.92868,53.74067],[-2.92972,53.74101],[-2.93053,53.7409],[-2.92933,53.74147],[-2.93077,53.741],[-2.93141,53.74159],[-2.93129,53.74121],[-2.93305,53.7415],[-2.935,53.74124],[-2.935,53.74211],[-2.93444,53.74229],[-2.93512,53.74232],[-2.93677,53.74477],[-2.93691,53.74754],[-2.93789,53.74837],[-2.93657,53.75073],[-2.93654,53.75297],[-2.93724,53.7547],[-2.93972,53.75833],[-2.93594,53.75902],[-2.93434,53.75995],[-2.93369,53.76096],[-2.93124,53.76245],[-2.93213,53.7655],[-2.93083,53.76546],[-2.9302,53.76578],[-2.93041,53.76652],[-2.92835,53.76697],[-2.92453,53.76637],[-2.92289,53.76444],[-2.91459,53.76595],[-2.91171,53.76617],[-2.91109,53.76597],[-2.90779,53.76637],[-2.90739,53.76679],[-2.90514,53.76741],[-2.90346,53.76682],[-2.90214,53.76683],[-2.90201,53.76926],[-2.90097,53.76915],[-2.8995,53.76844],[-2.89412,53.76961],[-2.89319,53.76841],[-2.8916,53.76763],[-2.89113,53.7663],[-2.88853,53.76625],[-2.88693,53.76473],[-2.88537,53.76539]]]}},{"type":"Feature","properties":{"id":"E01025030","name":"E01025030","parent":"E07000119","type":"LSOA","pop":2372,"r":70,"ff":18,"ffd":758.9,"ffs":0.5,"g":34,"co":2,"mo":0,"sa":2,"ic":0},"geometry":{"type":"Polygon","coordinates":[[[-2.87898,53.75333],[-2.87872,53.75286],[-2.88011,53.7514],[-2.88071,53.75119],[-2.88055,53.75081],[-2.88161,53.74973],[-2.88207,53.74801],[-2.8789,53.74739],[-2.87601,53.74759],[-2.87447,53.74638],[-2.87434,53.7456],[-2.87518,53.74492],[-2.87673,53.74315],[-2.87741,53.74077],[-2.87684,53.74025],[-2.87739,53.74002],[-2.87753,53.73941],[-2.87626,53.73825],[-2.87582,53.73672],[-2.87581,53.73601],[-2.8771,53.73559],[-2.88338,53.73486],[-2.89013,53.74154],[-2.89232,53.74568],[-2.892,53.74865],[-2.89287,53.75023],[-2.89328,53.75015],[-2.89433,53.75113],[-2.89392,53.75123],[-2.89402,53.75164],[-2.8928,53.75218],[-2.89375,53.75285],[-2.89445,53.75511],[-2.89773,53.75542],[-2.89565,53.75686],[-2.89494,53.75611],[-2.8918,53.75703],[-2.89046,53.75569],[-2.89164,53.7552],[-2.89018,53.75498],[-2.88575,53.75513],[-2.88668,53.75458],[-2.88695,53.75395],[-2.88591,53.75414],[-2.88631,53.75258],[-2.88571,53.75181],[-2.88416,53.75225],[-2.88303,53.75422],[-2.88271,53.75357],[-2.88217,53.75343],[-2.88051,53.75359],[-2.87961,53.75319],[-2.87898,53.75333]]]}},{"type":"Feature","properties":{"id":"E01025031","name":"E01025031","parent":"E07000119","type":"LSOA","pop":2316,"r":294,"ff":111,"ffd":4792.7,"ffs":0.4933,"g":68,"co":0,"mo":0,"sa":0,"ic":0},"geometry":{"type":"Polygon","coordinates":[[[-2.97258,53.79425],[-2.97145,53.7925],[-2.96391,53.79428],[-2.9639,53.79396],[-2.9517,53.79677],[-2.94915,53.79707],[-2.94799,53.79799],[-2.94587,53.79869],[-2.94443,53.79866],[-2.94193,53.79942],[-2.93943,53.79928],[-2.93642,53.79748],[-2.93371,53.79699],[-2.93267,53.79573],[-2.92697,53.79557],[-2.92486,53.79591],[-2.92229,53.79317],[-2.91547,53.79404],[-2.91453,53.79388],[-2.91303,53.79285],[-2.91188,53.79304],[-2.91081,53.79254],[-2.9107,53.79203],[-2.90976,53.79139],[-2.91076,53.78981],[-2.91055,53.78722],[-2.90838,53.78588],[-2.90853,53.78561],[-2.90662,53.78515],[-2.90976,53.78048],[-2.91306,53.78014],[-2.91488,53.77907],[-2.91684,53.77862],[-2.9203,53.77714],[-2.92346,53.77741],[-2.92524,53.77719],[-2.93584,53.77478],[-2.93747,53.77082],[-2.93381,53.7699],[-2.93185,53.76852],[-2.93001,53.76796],[-2.92979,53.76818],[-2.92835,53.76697],[-2.93041,53.76652],[-2.9302,53.76578],[-2.93083,53.76546],[-2.93213,53.7655],[-2.93124,53.76245],[-2.93369,53.76096],[-2.93434,53.75995],[-2.93594,53.75902],[-2.95366,53.75576],[-2.9476,53.75172],[-2.95039,53.75086],[-2.96609,53.75248],[-2.96891,53.75359],[-2.97157,53.75704],[-2.97282,53.75735],[-2.97284,53.76122],[-2.98142,53.76358],[-2.98188,53.7662],[-2.98362,53.76636],[-2.98321,53.76832],[-2.98425,53.7684],[-2.98416,53.76973],[-2.98204,53.76965],[-2.98214,53.76985],[-2.99569,53.77439],[-2.99656,53.77445],[-2.99677,53.77526],[-3.00074,53.78049],[-3.00026,53.78081],[-3.00106,53.78164],[-3.00141,53.78159],[-3.00612,53.78793],[-3.00405,53.78777],[-3.00398,53.79103],[-3.00375,53.79135],[-3.00302,53.79108],[-3.0014,53.792],[-3.00227,53.79271],[-2.99951,53.79348],[-2.99938,53.79417],[-2.99687,53.79421],[-2.99013,53.79362],[-2.98336,53.7938],[-2.98458,53.79481],[-2.98641,53.79814],[-2.98953,53.80041],[-2.98649,53.8022],[-2.97802,53.80232],[-2.97258,53.79425]]]}}]}