{"type":"FeatureCollection","features":[{"type":"Feature","properties":{"id":"E01018011","name":"E01018011","parent":"E07000009","type":"LSOA","pop":2584,"r":215,"ff":64,"ffd":2476.8,"ffs":0.3975,"g":52,"co":2,"mo":2,"sa":2,"ic":0},"geometry":{"type":"Polygon","coordinates":[[[0.24812,52.26904],[0.25423,52.26438],[0.26168,52.26016],[0.26049,52.25964],[0.25974,52.25899],[0.25975,52.25849],[0.2579,52.25721],[0.25594,52.25693],[0.25434,52.25718],[0.25216,52.25523],[0.25696,52.25171],[0.26899,52.25476],[0.27365,52.24796],[0.26377,52.24549],[0.26448,52.24392],[0.26258,52.24345],[0.26387,52.24044],[0.26324,52.24017],[0.26349,52.23865],[0.26981,52.23816],[0.26922,52.2366],[0.26735,52.23626],[0.26614,52.23405],[0.26676,52.23273],[0.27241,52.2308],[0.27253,52.23026],[0.27339,52.23041],[0.2736,52.22971],[0.27663,52.22803],[0.27622,52.22587],[0.27713,52.22418],[0.27693,52.22324],[0.27969,52.22279],[0.28332,52.22134],[0.28771,52.22032],[0.28744,52.21974],[0.28827,52.21899],[0.29216,52.2169],[0.29178,52.21636],[0.29225,52.21595],[0.2941,52.21527],[0.29408,52.21497],[0.2972,52.21393],[0.29693,52.2136],[0.29893,52.21294],[0.303,52.21054],[0.30264,52.21017],[0.30356,52.2098],[0.30308,52.20937],[0.30669,52.20747],[0.30768,52.20853],[0.31575,52.2056],[0.3198,52.20463],[0.3274,52.20986],[0.33182,52.20723],[0.33389,52.20475],[0.33603,52.2031],[0.34595,52.19906],[0.34817,52.19652],[0.35004,52.19551],[0.35152,52.19385],[0.35454,52.19215],[0.35797,52.19474],[0.36411,52.19244],[0.36246,52.19111],[0.36105,52.18933],[0.37186,52.18655],[0.37724,52.18594],[0.38028,52.18458],[0.38708,52.18231],[0.38537,52.18024],[0.39072,52.17802],[0.39399,52.17796],[0.39682,52.17705],[0.40185,52.17724],[0.40615,52.17654],[0.408,52.17694],[0.40811,52.17725],[0.40984,52.17743],[0.41444,52.17618],[0.4152,52.17585],[0.41679,52.17205],[0.41522,52.17041],[0.41978,52.16861],[0.42102,52.16838],[0.42139,52.16906],[0.4223,52.16909],[0.42609,52.16846],[0.42901,52.16744],[0.43831,52.16527],[0.43707,52.16415],[0.43828,52.16304],[0.43819,52.16072],[0.43592,52.1595],[0.43064,52.1595],[0.42712,52.16039],[0.42616,52.15992],[0.42184,52.16038],[0.41728,52.15931],[0.41258,52.15712],[0.40986,52.15642],[0.40917,52.15669],[0.40684,52.15913],[0.40545,52.15959],[0.40231,52.15942],[0.39918,52.15829],[0.3986,52.15889],[0.39715,52.15828],[0.39491,52.15797],[0.39396,52.15945],[0.3916,52.15913],[0.38891,52.1618],[0.38713,52.16199],[0.38367,52.16165],[0.37634,52.16323],[0.3764,52.16381],[0.37745,52.1638],[0.37741,52.16441],[0.37679,52.16458],[0.37621,52.16415],[0.3761,52.16452],[0.37746,52.16659],[0.37272,52.16677],[0.37096,52.16634],[0.36973,52.16744],[0.36902,52.16732],[0.36408,52.16796],[0.36166,52.16731],[0.35169,52.1687],[0.3468,52.17127],[0.34196,52.17237],[0.33987,52.17328],[0.33845,52.1744],[0.33428,52.17545],[0.33444,52.17574],[0.33066,52.17738],[0.32496,52.17891],[0.32194,52.17884],[0.32124,52.17977],[0.31811,52.18184],[0.31038,52.18573],[0.31099,52.19047],[0.30417,52.19363],[0.29672,52.19659],[0.28754,52.20119],[0.28063,52.20264],[0.27802,52.20356],[0.27816,52.20407],[0.27343,52.2055],[0.26899,52.2081],[0.2608,52.21199],[0.25663,52.21342],[0.25441,52.21452],[0.25275,52.21598],[0.25565,52.21555],[0.25643,52.21787],[0.25677,52.21787],[0.25859,52.22025],[0.25991,52.22072],[0.25986,52.22123],[0.25893,52.22117],[0.25975,52.22153],[0.25932,52.22214],[0.26011,52.22223],[0.26147,52.22086],[0.2633,52.22067],[0.26366,52.22165],[0.26559,52.22149],[0.2652,52.22217],[0.26307,52.22325],[0.26226,52.22336],[0.26161,52.22295],[0.26104,52.2231],[0.26108,52.22372],[0.26156,52.22401],[0.26267,52.22366],[0.26472,52.22588],[0.26723,52.22744],[0.26264,52.22768],[0.26197,52.22623],[0.26116,52.22622],[0.25859,52.22793],[0.25845,52.23042],[0.25653,52.23118],[0.24333,52.23055],[0.23477,52.22904],[0.23286,52.23149],[0.2309,52.2305],[0.23138,52.2297],[0.23044,52.22892],[0.2253,52.2317],[0.22769,52.23435],[0.22847,52.23584],[0.2295,52.23659],[0.22625,52.23973],[0.22203,52.24171],[0.22219,52.24289],[0.2208,52.24339],[0.21904,52.24709],[0.21774,52.24821],[0.21815,52.24922],[0.21597,52.2496],[0.21047,52.24946],[0.21876,52.25978],[0.21851,52.26043],[0.21936,52.26261],[0.22062,52.26354],[0.21793,52.26507],[0.217,52.26608],[0.21607,52.26603],[0.21605,52.26658],[0.2146,52.26714],[0.21158,52.26992],[0.21397,52.27146],[0.21518,52.27393],[0.2165,52.2743],[0.21966,52.27434],[0.22096,52.27491],[0.22265,52.27637],[0.22419,52.27844],[0.22648,52.27983],[0.22895,52.28204],[0.24614,52.27011],[0.24812,52.26904]]]}},{"type":"Feature","properties":{"id":"E01018012","name":"E01018012","parent":"E07000009","type":"LSOA","pop":1613,"r":26,"ff":13,"ffd":806.0,"ffs":0.5,"g":0,"co":3,"mo":3,"sa":3,"ic":1},"geometry":{"type":"Polygon","coordinates":[[[0.25859,52.22793],[0.26116,52.22622],[0.26197,52.22623],[0.26264,52.22768],[0.26723,52.22744],[0.26472,52.22588],[0.26267,52.22366],[0.26156,52.22401],[0.26108,52.22372],[0.26104,52.2231],[0.26161,52.22295],[0.26226,52.22336],[0.26307,52.22325],[0.2652,52.22217],[0.26559,52.22149],[0.26366,52.22165],[0.2633,52.22067],[0.26147,52.22086],[0.26011,52.22223],[0.25932,52.22214],[0.25975,52.22153],[0.25893,52.22117],[0.25986,52.22123],[0.25991,52.22072],[0.25859,52.22025],[0.25677,52.21787],[0.25643,52.21787],[0.25565,52.21555],[0.25275,52.21598],[0.24928,52.21863],[0.24969,52.21925],[0.24788,52.22124],[0.24457,52.22276],[0.24256,52.22549],[0.23978,52.22602],[0.23477,52.22904],[0.24333,52.23055],[0.25653,52.23118],[0.25845,52.23042],[0.25859,52.22793]]]}},{"type":"Feature","properties":{"id":"E01018013","name":"E01018013","parent":"E07000009","type":"LSOA","pop":1888,"r":37,"ff":13,"ffd":688.6,"ffs":0.4815,"g":9,"co":2,"mo":3,"sa":3,"ic":0},"geometry":{"type":"Polygon","coordinates":[[[0.32105,52.28007],[0.32173,52.27997],[0.32254,52.28032],[0.32299,52.27993],[0.32236,52.27908],[0.32318,52.27887],[0.32285,52.2786],[0.3231,52.27738],[0.32423,52.27734],[0.3242,52.2781],[0.32495,52.27801],[0.32548,52.27746],[0.32428,52.27701],[0.32414,52.27506],[0.32504,52.27502],[0.32506,52.27533],[0.32609,52.27511],[0.32658,52.2754],[0.32683,52.27486],[0.32763,52.27489],[0.32758,52.27428],[0.32794,52.27451],[0.32836,52.27427],[0.32758,52.27383],[0.328,52.27157],[0.32858,52.27101],[0.32823,52.27093],[0.33029,52.2694],[0.33018,52.26908],[0.33065,52.26908],[0.33111,52.26962],[0.33234,52.27005],[0.3333,52.27173],[0.33474,52.27166],[0.33505,52.27192],[0.33612,52.27148],[0.33492,52.2704],[0.33495,52.26934],[0.33795,52.2654],[0.34123,52.26695],[0.34475,52.26457],[0.34277,52.26348],[0.35076,52.25834],[0.3581,52.25251],[0.36089,52.24942],[0.35603,52.24682],[0.35666,52.24629],[0.35141,52.2447],[0.34631,52.24363],[0.34268,52.24234],[0.31981,52.25515],[0.30629,52.26374],[0.31694,52.27005],[0.31359,52.27176],[0.31284,52.27158],[0.31026,52.27191],[0.31031,52.27363],[0.3008,52.27759],[0.29557,52.27718],[0.29227,52.28058],[0.30388,52.28166],[0.31397,52.28556],[0.31615,52.28737],[0.32354,52.28686],[0.32378,52.2866],[0.3231,52.28545],[0.32296,52.2835],[0.31959,52.28061],[0.32105,52.28007]]]}},{"type":"Feature","properties":{"id":"E01018014","name":"E01018014","parent":"E07000009","type":"LSOA","pop":1787,"r":215,"ff":64,"ffd":3581.4,"ffs":0.3975,"g":52,"co":2,"mo":2,"sa":2,"ic":0},"geometry":{"type":"Polygon","coordinates":[[[0.32126,52.28195],[0.32219,52.28152],[0.32264,52.28183],[0.32303,52.2817],[0.32445,52.28003],[0.32591,52.2791],[0.32751,52.27917],[0.32825,52.27902],[0.32986,52.27948],[0.33046,52.27931],[0.33066,52.27962],[0.33132,52.27949],[0.33109,52.27928],[0.33146,52.2791],[0.3303,52.2775],[0.33055,52.27723],[0.33111,52.27735],[0.33091,52.27672],[0.33287,52.27621],[0.34511,52.27573],[0.34939,52.27664],[0.35253,52.27665],[0.34829,52.27316],[0.34242,52.26995],[0.34406,52.26981],[0.34,52.26769],[0.34123,52.26695],[0.33795,52.2654],[0.33495,52.26934],[0.33492,52.2704],[0.33612,52.27148],[0.33505,52.27192],[0.33474,52.27166],[0.3333,52.27173],[0.33234,52.27005],[0.33111,52.26962],[0.33065,52.26908],[0.33018,52.26908],[0.33029,52.2694],[0.32823,52.27093],[0.32858,52.27101],[0.328,52.27157],[0.32758,52.27383],[0.32836,52.27427],[0.32794,52.27451],[0.32758,52.27428],[0.32763,52.27489],[0.32683,52.27486],[0.32658,52.2754],[0.32609,52.27511],[0.32506,52.27533],[0.32504,52.27502],[0.32414,52.27506],[0.32428,52.27701],[0.32548,52.27746],[0.32495,52.27801],[0.3242,52.2781],[0.32423,52.27734],[0.3231,52.27738],[0.32285,52.2786],[0.32318,52.27887],[0.32236,52.27908],[0.32299,52.27993],[0.32254,52.28032],[0.32173,52.27997],[0.31959,52.28061],[0.31978,52.28093],[0.32126,52.28195]]]}},{"type":"Feature","properties":{"id":"E01018015","name":"E01018015","parent":"E07000009","type":"LSOA","pop":1372,"r":215,"ff":64,"ffd":4664.7,"ffs":0.3975,"g":52,"co":2,"mo":2,"sa":2,"ic":0},"geometry":{"type":"Polygon","coordinates":[[[0.35763,52.30503],[0.35791,52.30092],[0.36068,52.29781],[0.35877,52.29736],[0.36063,52.29357],[0.35865,52.29023],[0.35866,52.2896],[0.35922,52.28916],[0.35308,52.28509],[0.35065,52.28296],[0.35266,52.28232],[0.35546,52.27985],[0.35437,52.27848],[0.35004,52.28161],[0.33869,52.28411],[0.33604,52.28554],[0.33471,52.28668],[0.33216,52.28554],[0.33233,52.28454],[0.33331,52.2832],[0.33454,52.28288],[0.33451,52.28238],[0.33358,52.28231],[0.33324,52.28287],[0.33154,52.28288],[0.32746,52.28421],[0.32656,52.28217],[0.326,52.28212],[0.326,52.28184],[0.3267,52.28168],[0.3263,52.28068],[0.32568,52.28028],[0.32751,52.27917],[0.32591,52.2791],[0.32445,52.28003],[0.32303,52.2817],[0.32264,52.28183],[0.32219,52.28152],[0.32126,52.28195],[0.32296,52.2835],[0.3231,52.28545],[0.32378,52.2866],[0.32354,52.28686],[0.31615,52.28737],[0.31397,52.28556],[0.30388,52.28166],[0.29227,52.28058],[0.28664,52.28639],[0.28095,52.28645],[0.26763,52.3003],[0.26781,52.30083],[0.26344,52.30236],[0.26146,52.30355],[0.26663,52.30326],[0.28089,52.30689],[0.28635,52.30762],[0.28839,52.30701],[0.29044,52.30711],[0.29242,52.30667],[0.29407,52.30594],[0.29606,52.30553],[0.29894,52.30534],[0.30224,52.30628],[0.30355,52.30711],[0.30641,52.30642],[0.30831,52.3049],[0.31068,52.30452],[0.31206,52.30383],[0.32094,52.30463],[0.32475,52.30439],[0.3293,52.3053],[0.33263,52.30646],[0.33963,52.30778],[0.34952,52.30787],[0.35308,52.30874],[0.3547,52.30785],[0.35574,52.30771],[0.35596,52.30695],[0.35701,52.3065],[0.35691,52.30592],[0.35763,52.30503]]]}},{"type":"Feature","properties":{"id":"E01018016","name":"E01018016","parent":"E07000009","type":"LSOA","pop":1449,"r":34,"ff":12,"ffd":828.2,"ffs":0.48,"g":8,"co":2,"mo":3,"sa":3,"ic":0},"geometry":{"type":"Polygon","coordinates":[[[0.33869,52.28411],[0.35004,52.28161],[0.35437,52.27848],[0.35253,52.27665],[0.34939,52.27664],[0.34511,52.27573],[0.33287,52.27621],[0.33091,52.27672],[0.33111,52.27735],[0.33055,52.27723],[0.3303,52.2775],[0.33146,52.2791],[0.33109,52.27928],[0.33132,52.27949],[0.33066,52.27962],[0.33046,52.27931],[0.32986,52.27948],[0.32825,52.27902],[0.32751,52.27917],[0.32568,52.28028],[0.3263,52.28068],[0.3267,52.28168],[0.326,52.28184],[0.326,52.28212],[0.32656,52.28217],[0.32746,52.28421],[0.33154,52.28288],[0.33324,52.28287],[0.33358,52.28231],[0.33451,52.28238],[0.33454,52.28288],[0.33331,52.2832],[0.33233,52.28454],[0.33216,52.28554],[0.33471,52.28668],[0.33604,52.28554],[0.33869,52.28411]]]}},{"type":"Feature","properties":{"id":"E01018017","name":"E01018017","parent":"E07000009","type":"LSOA","pop":1459,"r":14,"ff":9,"ffd":616.9,"ffs":0.6429,"g":0,"co":3,"mo":3,"sa":3,"ic":3},"geometry":{"type":"Polygon","coordinates":[[[0.51306,52.22518],[0.51266,52.21506],[0.51282,52.21369],[0.50865,52.21398],[0.50867,52.21233],[0.50737,52.21235],[0.5067,52.20852],[0.50313,52.20704],[0.50407,52.20421],[0.50289,52.204],[0.50213,52.20305],[0.5017,52.19903],[0.50069,52.19747],[0.50135,52.1973],[0.50255,52.19603],[0.49977,52.19456],[0.50065,52.19329],[0.49916,52.19214],[0.49683,52.19131],[0.49682,52.18982],[0.49567,52.18953],[0.49579,52.18886],[0.49498,52.18873],[0.49462,52.1866],[0.49506,52.18552],[0.49385,52.18458],[0.49458,52.18415],[0.49396,52.1815],[0.4933,52.18139],[0.49316,52.18107],[0.49417,52.17818],[0.49303,52.17619],[0.49322,52.17558],[0.49108,52.17429],[0.49126,52.17199],[0.48875,52.1716],[0.48746,52.1698],[0.48876,52.16915],[0.48979,52.16805],[0.49267,52.16742],[0.49133,52.1651],[0.48973,52.16566],[0.48833,52.16468],[0.48745,52.1645],[0.48593,52.16517],[0.48244,52.16568],[0.48172,52.1663],[0.47926,52.16597],[0.47864,52.1676],[0.47724,52.16757],[0.47446,52.16586],[0.47246,52.16399],[0.47073,52.16326],[0.47019,52.16494],[0.46826,52.16785],[0.46282,52.17101],[0.46101,52.17142],[0.45726,52.17121],[0.45467,52.17254],[0.45256,52.17322],[0.4466,52.17177],[0.44475,52.17094],[0.44452,52.17108],[0.44489,52.17531],[0.44548,52.17622],[0.4452,52.17776],[0.44645,52.1796],[0.44628,52.18017],[0.44699,52.18143],[0.44651,52.18252],[0.44909,52.18349],[0.44815,52.18457],[0.44877,52.18611],[0.44856,52.18693],[0.44635,52.18917],[0.4461,52.19146],[0.44779,52.19308],[0.45063,52.19239],[0.45285,52.19398],[0.45515,52.19507],[0.45645,52.19632],[0.46113,52.1961],[0.4608,52.19861],[0.46227,52.2032],[0.45842,52.21025],[0.45522,52.21455],[0.45449,52.21658],[0.45329,52.2177],[0.45264,52.21932],[0.45201,52.21911],[0.45131,52.22039],[0.45227,52.22399],[0.45549,52.22372],[0.45697,52.22404],[0.45933,52.22537],[0.46232,52.22339],[0.46278,52.22258],[0.46354,52.22287],[0.46505,52.22262],[0.46751,52.2218],[0.47325,52.22185],[0.47238,52.22403],[0.47061,52.22668],[0.47302,52.22651],[0.47254,52.22751],[0.47502,52.22888],[0.47849,52.22839],[0.48393,52.22719],[0.48352,52.22665],[0.48405,52.22663],[0.48385,52.22635],[0.48472,52.22585],[0.48431,52.22543],[0.48475,52.22516],[0.48417,52.22518],[0.48419,52.22487],[0.48524,52.22475],[0.48806,52.22525],[0.49457,52.22277],[0.49056,52.22767],[0.49097,52.22796],[0.49202,52.22798],[0.49485,52.23016],[0.49789,52.23133],[0.50237,52.23422],[0.50736,52.23],[0.51323,52.2281],[0.51448,52.22678],[0.51306,52.22518]]]}},{"type":"Feature","properties":{"id":"E01018019","name":"E01018019","parent":"E07000009","type":"LSOA","pop":1104,"r":40,"ff":13,"ffd":1177.5,"ffs":0.4333,"g":9,"co":2,"mo":3,"sa":3,"ic":0},"geometry":{"type":"Polygon","coordinates":[[[0.41181,52.23994],[0.41527,52.23812],[0.42133,52.23969],[0.42288,52.23869],[0.4242,52.23713],[0.42643,52.23385],[0.43349,52.22724],[0.43778,52.22232],[0.44211,52.21876],[0.43368,52.21628],[0.42233,52.21432],[0.41927,52.22098],[0.40259,52.23542],[0.40919,52.23926],[0.41151,52.24012],[0.41181,52.23994]]]}},{"type":"Feature","properties":{"id":"E01018020","name":"E01018020","parent":"E07000009","type":"LSOA","pop":1707,"r":17,"ff":8,"ffd":468.7,"ffs":0.5,"g":0,"co":3,"mo":3,"sa":3,"ic":1},"geometry":{"type":"MultiPolygon","coordinates":[[[[0.25285,52.49094],[0.25007,52.48878],[0.24867,52.48944],[0.24165,52.48396],[0.25505,52.47467],[0.25421,52.47393],[0.28146,52.46081],[0.27574,52.4574],[0.27207,52.45276],[0.27155,52.45032],[0.26892,52.45038],[0.26429,52.44973],[0.26329,52.44606],[0.26368,52.44459],[0.25452,52.43765],[0.25371,52.43859],[0.25351,52.43839],[0.2525,52.43871],[0.25152,52.43779],[0.25149,52.43846],[0.25103,52.43819],[0.24801,52.43808],[0.24455,52.44005],[0.24404,52.4381],[0.23674,52.43665],[0.23564,52.43776],[0.23084,52.43622],[0.23189,52.4354],[0.22919,52.43323],[0.22913,52.43284],[0.23193,52.4325],[0.23387,52.43154],[0.22879,52.42922],[0.23422,52.42763],[0.23489,52.42836],[0.23473,52.43026],[0.23781,52.43051],[0.23833,52.43023],[0.2387,52.43082],[0.23949,52.43067],[0.2413,52.43154],[0.24324,52.43147],[0.24349,52.43182],[0.24204,52.43279],[0.24277,52.43304],[0.24404,52.43305],[0.24427,52.43263],[0.24527,52.43302],[0.24565,52.43282],[0.24601,52.43315],[0.24709,52.43265],[0.24641,52.43189],[0.2463,52.42974],[0.24529,52.42827],[0.24885,52.42382],[0.24843,52.42221],[0.24555,52.42196],[0.24604,52.41938],[0.24585,52.41678],[0.24488,52.41517],[0.24475,52.41317],[0.24231,52.41104],[0.24226,52.41003],[0.24384,52.40905],[0.24482,52.40564],[0.24163,52.40534],[0.23952,52.40615],[0.23905,52.40561],[0.23558,52.40659],[0.23309,52.40837],[0.22102,52.4137],[0.22011,52.40933],[0.20166,52.41784],[0.19817,52.41428],[0.20139,52.41209],[0.1879,52.40258],[0.18717,52.40279],[0.18509,52.40202],[0.18162,52.40367],[0.17902,52.40417],[0.17973,52.40568],[0.16737,52.40921],[0.16886,52.4107],[0.1558,52.41298],[0.14937,52.41907],[0.15565,52.41865],[0.16015,52.41892],[0.15803,52.42222],[0.15473,52.42508],[0.15371,52.42688],[0.16077,52.42898],[0.15408,52.43154],[0.24566,52.50038],[0.25285,52.49094]]],[[[0.24552,52.50055],[0.15509,52.43262],[0.14514,52.43763],[0.15104,52.44226],[0.15534,52.44017],[0.17932,52.45876],[0.17709,52.46098],[0.17594,52.46052],[0.1716,52.45715],[0.17072,52.45756],[0.20073,52.48087],[0.20163,52.48048],[0.23879,52.50919],[0.24552,52.50055]]]]}},{"type":"Feature","properties":{"id":"E01018021","name":"E01018021","parent":"E07000009","type":"LSOA","pop":1458,"r":18,"ff":9,"ffd":617.3,"ffs":0.5294,"g":0,"co":3,"mo":3,"sa":1,"ic":1},"geometry":{"type":"Polygon","coordinates":[[[0.2699,52.43754],[0.26948,52.43707],[0.27691,52.43948],[0.28215,52.43342],[0.27983,52.43392],[0.27658,52.43389],[0.26832,52.43145],[0.26796,52.42955],[0.26197,52.42783],[0.26179,52.42577],[0.25402,52.4225],[0.24843,52.42221],[0.24885,52.42382],[0.24529,52.42827],[0.2463,52.42974],[0.24641,52.43189],[0.24709,52.43265],[0.24601,52.43315],[0.24565,52.43282],[0.24527,52.43302],[0.24427,52.43263],[0.24404,52.43305],[0.24277,52.43304],[0.24204,52.43279],[0.24349,52.43182],[0.24324,52.43147],[0.2413,52.43154],[0.23949,52.43067],[0.2387,52.43082],[0.23833,52.43023],[0.23781,52.43051],[0.23473,52.43026],[0.23489,52.42836],[0.23422,52.42763],[0.22879,52.42922],[0.23387,52.43154],[0.23193,52.4325],[0.22913,52.43284],[0.22919,52.43323],[0.23189,52.4354],[0.23084,52.43622],[0.23564,52.43776],[0.23674,52.43665],[0.24404,52.4381],[0.24455,52.44005],[0.24801,52.43808],[0.25103,52.43819],[0.25149,52.43846],[0.25152,52.43779],[0.2525,52.43871],[0.25351,52.43839],[0.25371,52.43859],[0.25452,52.43765],[0.26368,52.44459],[0.26329,52.44606],[0.26429,52.44973],[0.26892,52.45038],[0.27155,52.45032],[0.2699,52.43754]]]}},{"type":"Feature","properties":{"id":"E01018022","name":"E01018022","parent":"E07000009","type":"LSOA","pop":1511,"r":8,"ff":4,"ffd":264.7,"ffs":0.5714,"g":0,"co":3,"mo":3,"sa":3,"ic":1},"geometry":{"type":"MultiPolygon","coordinates":[[[[0.16015,52.41892],[0.15565,52.41865],[0.14937,52.41907],[0.1558,52.41298],[0.16886,52.4107],[0.16737,52.40921],[0.17973,52.40568],[0.17902,52.40417],[0.18162,52.40367],[0.18509,52.40202],[0.18151,52.39395],[0.17957,52.39424],[0.17754,52.39409],[0.17723,52.39385],[0.17564,52.39201],[0.17474,52.3886],[0.16398,52.38983],[0.14392,52.39063],[0.13965,52.39135],[0.14074,52.3968],[0.14059,52.39804],[0.13972,52.39821],[0.13948,52.39956],[0.13986,52.39962],[0.14014,52.40246],[0.13967,52.40273],[0.13056,52.40409],[0.12926,52.40311],[0.12928,52.40088],[0.1217,52.40171],[0.12008,52.40151],[0.11851,52.40433],[0.11783,52.4042],[0.11768,52.40447],[0.1155,52.40386],[0.11369,52.40637],[0.11301,52.40658],[0.10997,52.40652],[0.11544,52.41068],[0.12307,52.41472],[0.12329,52.41453],[0.12312,52.41472],[0.12391,52.41512],[0.14042,52.42138],[0.15408,52.43154],[0.16077,52.42898],[0.15371,52.42688],[0.15473,52.42508],[0.15803,52.42222],[0.16015,52.41892]]],[[[0.12984,52.43573],[0.12084,52.43112],[0.11869,52.42346],[0.1238,52.42098],[0.14539,52.43748],[0.15509,52.43262],[0.14025,52.4215],[0.1238,52.4153],[0.11507,52.41066],[0.10952,52.40651],[0.10706,52.40646],[0.10666,52.4068],[0.10062,52.40255],[0.09926,52.40017],[0.09889,52.39998],[0.0978,52.40077],[0.08881,52.42084],[0.08635,52.42919],[0.08773,52.42977],[0.10664,52.42534],[0.11064,52.42768],[0.1118,52.42789],[0.11387,52.42736],[0.11391,52.42817],[0.11511,52.42989],[0.11603,52.42986],[0.11706,52.43158],[0.11698,52.43306],[0.12011,52.43413],[0.12084,52.43549],[0.12207,52.4353],[0.12647,52.43786],[0.12914,52.43665],[0.12984,52.43573]]]]}},{"type":"Feature","properties":{"id":"E01018023","name":"E01018023","parent":"E07000009","type":"LSOA","pop":2206,"r":17,"ff":9,"ffd":408.0,"ffs":0.5294,"g":0,"co":3,"mo":3,"sa":3,"ic":1},"geometry":{"type":"Polygon","coordinates":[[[0.40774,52.23096],[0.41927,52.22098],[0.42233,52.21432],[0.43368,52.21628],[0.44211,52.21876],[0.44659,52.22035],[0.45131,52.22039],[0.45201,52.21911],[0.45264,52.21932],[0.45329,52.2177],[0.45449,52.21658],[0.45522,52.21455],[0.45842,52.21025],[0.46227,52.2032],[0.4608,52.19861],[0.46113,52.1961],[0.45645,52.19632],[0.45515,52.19507],[0.45285,52.19398],[0.45063,52.19239],[0.44779,52.19308],[0.4461,52.19146],[0.44635,52.18917],[0.44856,52.18693],[0.44877,52.18611],[0.44815,52.18457],[0.44909,52.18349],[0.44651,52.18252],[0.44699,52.18143],[0.44628,52.18017],[0.44645,52.1796],[0.4452,52.17776],[0.44548,52.17622],[0.44489,52.17531],[0.44452,52.17108],[0.4433,52.16859],[0.44355,52.16646],[0.44431,52.16468],[0.4411,52.16498],[0.43939,52.16576],[0.43871,52.16571],[0.43831,52.16527],[0.42901,52.16744],[0.42609,52.16846],[0.4223,52.16909],[0.42139,52.16906],[0.42102,52.16838],[0.41978,52.16861],[0.41522,52.17041],[0.41679,52.17205],[0.4152,52.17585],[0.41444,52.17618],[0.40984,52.17743],[0.40811,52.17725],[0.408,52.17694],[0.40615,52.17654],[0.40185,52.17724],[0.39682,52.17705],[0.39399,52.17796],[0.39072,52.17802],[0.38537,52.18024],[0.38708,52.18231],[0.38028,52.18458],[0.37724,52.18594],[0.37186,52.18655],[0.36134,52.18921],[0.36105,52.18933],[0.36246,52.19111],[0.36411,52.19244],[0.35797,52.19474],[0.35454,52.19215],[0.35152,52.19385],[0.35004,52.19551],[0.34817,52.19652],[0.34595,52.19906],[0.33603,52.2031],[0.33389,52.20475],[0.33182,52.20723],[0.3274,52.20986],[0.32789,52.21074],[0.3265,52.21127],[0.32809,52.2125],[0.32937,52.21219],[0.33099,52.21374],[0.33952,52.22448],[0.35129,52.23027],[0.35756,52.23408],[0.36894,52.22779],[0.36964,52.2282],[0.37012,52.22781],[0.36944,52.22749],[0.37125,52.22656],[0.38465,52.23401],[0.39496,52.23068],[0.40259,52.23542],[0.40774,52.23096]]]}},{"type":"Feature","properties":{"id":"E01018024","name":"E01018024","parent":"E07000009","type":"LSOA","pop":1230,"r":19,"ff":9,"ffd":731.7,"ffs":0.4737,"g":0,"co":3,"mo":3,"sa":1,"ic":1},"geometry":{"type":"Polygon","coordinates":[[[0.38919,52.43595],[0.39204,52.43312],[0.39455,52.43399],[0.39695,52.43358],[0.39799,52.43396],[0.40246,52.43372],[0.40981,52.43274],[0.41904,52.43411],[0.42105,52.43422],[0.42321,52.43397],[0.4253,52.43033],[0.41765,52.42813],[0.37478,52.40973],[0.37366,52.41128],[0.36809,52.41529],[0.36572,52.41363],[0.36196,52.41318],[0.36197,52.41278],[0.35959,52.41123],[0.35946,52.41032],[0.35735,52.40892],[0.3549,52.40854],[0.35434,52.40759],[0.35319,52.40791],[0.34909,52.40611],[0.34495,52.40728],[0.34372,52.40734],[0.34351,52.40709],[0.34217,52.40791],[0.33993,52.40872],[0.3382,52.40875],[0.33791,52.40786],[0.33846,52.40722],[0.33409,52.40226],[0.33182,52.40078],[0.33102,52.3998],[0.32854,52.39893],[0.32758,52.39788],[0.32736,52.39471],[0.32227,52.39774],[0.30202,52.40056],[0.30207,52.40172],[0.29148,52.39849],[0.28864,52.3984],[0.2851,52.39771],[0.28311,52.39701],[0.28088,52.39563],[0.27829,52.39792],[0.27796,52.398],[0.27514,52.39651],[0.27167,52.39735],[0.27145,52.39811],[0.2717,52.39844],[0.27105,52.39882],[0.2707,52.39858],[0.26999,52.39899],[0.27177,52.40011],[0.27128,52.40034],[0.27066,52.4002],[0.27036,52.40054],[0.27082,52.40074],[0.26947,52.40145],[0.276,52.40302],[0.28077,52.40347],[0.28119,52.40473],[0.28174,52.40532],[0.28392,52.40714],[0.28631,52.40848],[0.28728,52.41074],[0.28885,52.41175],[0.28937,52.4134],[0.29526,52.41822],[0.30043,52.42061],[0.30228,52.42207],[0.30586,52.42273],[0.30893,52.43028],[0.31025,52.43013],[0.31231,52.43558],[0.33001,52.43851],[0.33471,52.44],[0.34218,52.43994],[0.3488,52.43874],[0.35049,52.43712],[0.35762,52.4347],[0.36782,52.43484],[0.37371,52.43769],[0.37383,52.43849],[0.37692,52.43877],[0.38011,52.44005],[0.38142,52.44026],[0.38471,52.43969],[0.3887,52.43787],[0.38919,52.43595]]]}},{"type":"Feature","properties":{"id":"E01018025","name":"E01018025","parent":"E07000009","type":"LSOA","pop":1505,"r":19,"ff":9,"ffd":598.0,"ffs":0.4737,"g":0,"co":3,"mo":3,"sa":1,"ic":1},"geometry":{"type":"Polygon","coordinates":[[[0.26947,52.40145],[0.27082,52.40074],[0.27036,52.40054],[0.27066,52.4002],[0.26827,52.39971],[0.26747,52.39889],[0.26915,52.39804],[0.26904,52.39772],[0.27005,52.39686],[0.27008,52.39598],[0.26941,52.39723],[0.26873,52.39743],[0.26838,52.39711],[0.26865,52.39664],[0.26782,52.39604],[0.26779,52.39532],[0.26834,52.39471],[0.26702,52.3945],[0.266,52.39512],[0.26611,52.39415],[0.26474,52.39417],[0.26281,52.39499],[0.26206,52.39576],[0.26156,52.39488],[0.2604,52.39408],[0.25861,52.39449],[0.25796,52.39601],[0.25826,52.3965],[0.25672,52.3969],[0.25776,52.39777],[0.25649,52.39807],[0.25677,52.39827],[0.25837,52.39863],[0.25974,52.39945],[0.26087,52.39986],[0.26239,52.39975],[0.26332,52.40142],[0.2658,52.40109],[0.26947,52.40145]]]}},{"type":"Feature","properties":{"id":"E01018026","name":"E01018026","parent":"E07000009","type":"LSOA","pop":1554,"r":20,"ff":9,"ffd":579.2,"ffs":0.45,"g":0,"co":3,"mo":3,"sa":1,"ic":1},"geometry":{"type":"Polygon","coordinates":[[[0.32227,52.39774],[0.32736,52.39471],[0.32815,52.39205],[0.32864,52.3918],[0.3329,52.39221],[0.3334,52.39066],[0.33309,52.39039],[0.33363,52.39029],[0.33431,52.38937],[0.33446,52.38823],[0.33429,52.38741],[0.33278,52.3863],[0.3336,52.38412],[0.3335,52.38283],[0.33266,52.38189],[0.33232,52.38053],[0.3341,52.37924],[0.33408,52.3784],[0.33327,52.37793],[0.33215,52.3778],[0.33061,52.37843],[0.32482,52.37609],[0.32047,52.37545],[0.32001,52.3749],[0.3204,52.37464],[0.32014,52.37379],[0.3194,52.37341],[0.3156,52.37338],[0.31186,52.37106],[0.31246,52.37018],[0.31197,52.36902],[0.30895,52.36816],[0.30728,52.36843],[0.30346,52.3665],[0.30084,52.36447],[0.29858,52.36479],[0.29333,52.36344],[0.28934,52.3645],[0.28674,52.36564],[0.28094,52.37043],[0.28056,52.37117],[0.27685,52.3715],[0.27411,52.37266],[0.27258,52.37509],[0.27155,52.37373],[0.27157,52.37316],[0.27004,52.37194],[0.26611,52.37137],[0.2619,52.37295],[0.25912,52.37066],[0.25681,52.37149],[0.25371,52.37111],[0.25196,52.3714],[0.25104,52.37205],[0.24434,52.37243],[0.24835,52.38957],[0.24901,52.39096],[0.25302,52.39403],[0.25649,52.39807],[0.25776,52.39777],[0.25672,52.3969],[0.25826,52.3965],[0.25796,52.39601],[0.25861,52.39449],[0.2604,52.39408],[0.26156,52.39488],[0.26206,52.39576],[0.26281,52.39499],[0.26474,52.39417],[0.26611,52.39415],[0.266,52.39512],[0.26702,52.3945],[0.26834,52.39471],[0.26779,52.39532],[0.26782,52.39604],[0.26865,52.39664],[0.26838,52.39711],[0.26873,52.39743],[0.26941,52.39723],[0.27008,52.39598],[0.27005,52.39686],[0.26904,52.39772],[0.26915,52.39804],[0.26747,52.39889],[0.26827,52.39971],[0.27128,52.40034],[0.27177,52.40011],[0.26999,52.39899],[0.2707,52.39858],[0.27105,52.39882],[0.2717,52.39844],[0.27145,52.39811],[0.27167,52.39735],[0.27514,52.39651],[0.27796,52.398],[0.27829,52.39792],[0.28088,52.39563],[0.28311,52.39701],[0.2851,52.39771],[0.28864,52.3984],[0.29148,52.39849],[0.30207,52.40172],[0.30202,52.40056],[0.32227,52.39774]]]}},{"type":"Feature","properties":{"id":"E01018027","name":"E01018027","parent":"E07000009","type":"LSOA","pop":2126,"r":19,"ff":9,"ffd":423.3,"ffs":0.4737,"g":0,"co":3,"mo":3,"sa":1,"ic":1},"geometry":{"type":"Polygon","coordinates":[[[0.29105,52.43211],[0.293,52.43163],[0.29901,52.43163],[0.30893,52.43028],[0.30586,52.42273],[0.30228,52.42207],[0.30043,52.42061],[0.29526,52.41822],[0.28937,52.4134],[0.28885,52.41175],[0.28728,52.41074],[0.28019,52.41185],[0.28009,52.41139],[0.27951,52.41147],[0.27909,52.41016],[0.27856,52.40923],[0.27729,52.40852],[0.2772,52.40934],[0.27754,52.40921],[0.27793,52.40949],[0.27704,52.40983],[0.27526,52.40993],[0.27512,52.40865],[0.27294,52.40932],[0.27248,52.40871],[0.27203,52.40885],[0.27149,52.40845],[0.27071,52.40873],[0.27027,52.40819],[0.26935,52.40845],[0.26825,52.4092],[0.26653,52.40967],[0.26719,52.41249],[0.26631,52.4126],[0.26668,52.41373],[0.2707,52.41335],[0.27122,52.41442],[0.27202,52.41427],[0.27454,52.41841],[0.26779,52.42028],[0.26695,52.41783],[0.26492,52.4153],[0.26245,52.41348],[0.25341,52.40932],[0.25286,52.40937],[0.25233,52.41046],[0.25233,52.4139],[0.25355,52.41883],[0.25339,52.42084],[0.25402,52.4225],[0.26179,52.42577],[0.26197,52.42783],[0.26796,52.42955],[0.26832,52.43145],[0.27658,52.43389],[0.27983,52.43392],[0.28499,52.43274],[0.29105,52.43211]]]}},{"type":"Feature","properties":{"id":"E01018032","name":"E01018032","parent":"E07000009","type":"LSOA","pop":2511,"r":18,"ff":9,"ffd":358.4,"ffs":0.5294,"g":0,"co":3,"mo":3,"sa":1,"ic":1},"geometry":{"type":"Polygon","coordinates":[[[0.25636,52.4066],[0.25712,52.40431],[0.25765,52.40366],[0.2604,52.40372],[0.26082,52.40498],[0.26195,52.4048],[0.26243,52.40614],[0.26375,52.40606],[0.26617,52.40663],[0.26755,52.40632],[0.26327,52.40135],[0.26239,52.39975],[0.26087,52.39986],[0.25974,52.39945],[0.25905,52.39983],[0.25898,52.40021],[0.2584,52.4004],[0.25822,52.4012],[0.25764,52.40123],[0.25809,52.40197],[0.25462,52.40239],[0.25456,52.40221],[0.25355,52.40199],[0.25367,52.40269],[0.25351,52.40339],[0.25471,52.4037],[0.25476,52.40406],[0.25357,52.40425],[0.25391,52.40529],[0.25304,52.40552],[0.25239,52.40633],[0.25143,52.40632],[0.25126,52.40606],[0.24948,52.40503],[0.24908,52.40398],[0.25126,52.40301],[0.25137,52.40273],[0.25239,52.40251],[0.25228,52.40207],[0.25145,52.40228],[0.25065,52.4021],[0.24998,52.40301],[0.24924,52.40297],[0.24936,52.40336],[0.24837,52.40392],[0.24795,52.40365],[0.2463,52.4041],[0.24659,52.40439],[0.24482,52.40564],[0.24384,52.40905],[0.24226,52.41003],[0.24231,52.41104],[0.24475,52.41317],[0.24488,52.41517],[0.24585,52.41678],[0.24604,52.41938],[0.24555,52.42196],[0.25402,52.4225],[0.25339,52.42084],[0.25355,52.41883],[0.25233,52.4139],[0.25233,52.41046],[0.25286,52.40937],[0.25578,52.40764],[0.25636,52.4066]]]}},{"type":"Feature","properties":{"id":"E01018033","name":"E01018033","parent":"E07000009","type":"LSOA","pop":1874,"r":18,"ff":9,"ffd":480.3,"ffs":0.5294,"g":0,"co":3,"mo":3,"sa":1,"ic":1},"geometry":{"type":"Polygon","coordinates":[[[0.25367,52.40269],[0.25355,52.40199],[0.25456,52.40221],[0.25462,52.40239],[0.25809,52.40197],[0.25764,52.40123],[0.25822,52.4012],[0.2584,52.4004],[0.25898,52.40021],[0.25905,52.39983],[0.25974,52.39945],[0.25837,52.39863],[0.25677,52.39827],[0.25598,52.39849],[0.25506,52.39812],[0.25535,52.39868],[0.2539,52.39907],[0.25356,52.3987],[0.25273,52.39913],[0.25217,52.399],[0.24973,52.3998],[0.24955,52.39952],[0.24815,52.39987],[0.24708,52.40052],[0.24828,52.40137],[0.24924,52.40297],[0.24998,52.40301],[0.25065,52.4021],[0.25145,52.40228],[0.25228,52.40207],[0.25239,52.40251],[0.25137,52.40273],[0.25126,52.40301],[0.24908,52.40398],[0.24948,52.40503],[0.25126,52.40606],[0.25143,52.40632],[0.25239,52.40633],[0.25304,52.40552],[0.25391,52.40529],[0.25357,52.40425],[0.25476,52.40406],[0.25471,52.4037],[0.25351,52.40339],[0.25367,52.40269]]]}},{"type":"Feature","properties":{"id":"E01018034","name":"E01018034","parent":"E07000009","type":"LSOA","pop":2173,"r":38,"ff":12,"ffd":552.2,"ffs":0.4138,"g":8,"co":0,"mo":3,"sa":3,"ic":0},"geometry":{"type":"Polygon","coordinates":[[[0.38184,52.33465],[0.38588,52.33345],[0.38625,52.33361],[0.38859,52.33321],[0.38962,52.33271],[0.38973,52.33209],[0.39031,52.33214],[0.39224,52.33055],[0.39339,52.32754],[0.39442,52.32678],[0.39461,52.32476],[0.39757,52.32492],[0.4038,52.32592],[0.40932,52.32771],[0.41155,52.32479],[0.41639,52.32073],[0.41814,52.31828],[0.41912,52.31841],[0.4202,52.31814],[0.42181,52.31842],[0.42363,52.31377],[0.42251,52.31358],[0.42361,52.31105],[0.42095,52.31076],[0.42263,52.30645],[0.42265,52.30619],[0.4217,52.30613],[0.42209,52.30495],[0.42027,52.30479],[0.4196,52.30403],[0.41468,52.30312],[0.41288,52.30701],[0.41249,52.30975],[0.41294,52.31089],[0.41184,52.31137],[0.4107,52.3112],[0.41071,52.31186],[0.40671,52.31123],[0.39549,52.31083],[0.39451,52.30714],[0.39196,52.30672],[0.39101,52.30779],[0.39059,52.31117],[0.38913,52.31099],[0.38724,52.31145],[0.38689,52.3112],[0.38596,52.31128],[0.38602,52.31189],[0.38441,52.31159],[0.38367,52.31238],[0.38099,52.31294],[0.38087,52.31185],[0.38037,52.31155],[0.38191,52.3104],[0.38241,52.3106],[0.38456,52.30953],[0.38517,52.30887],[0.38604,52.30863],[0.38547,52.30775],[0.38385,52.30781],[0.38439,52.30707],[0.38615,52.30635],[0.38548,52.30584],[0.38411,52.3057],[0.38314,52.30486],[0.38289,52.30376],[0.38128,52.30188],[0.3798,52.30126],[0.37935,52.30069],[0.38168,52.29772],[0.38226,52.29485],[0.3812,52.29306],[0.38076,52.293],[0.38058,52.29356],[0.37873,52.29352],[0.37843,52.29181],[0.37787,52.29125],[0.37627,52.29355],[0.37098,52.29485],[0.36887,52.29652],[0.36269,52.29768],[0.36068,52.29781],[0.35791,52.30092],[0.35763,52.30503],[0.35691,52.30592],[0.35701,52.3065],[0.35596,52.30695],[0.35574,52.30771],[0.3547,52.30785],[0.35308,52.30874],[0.34952,52.30787],[0.33963,52.30778],[0.33263,52.30646],[0.3293,52.3053],[0.32475,52.30439],[0.32094,52.30463],[0.31823,52.30445],[0.3178,52.30624],[0.32149,52.30639],[0.32145,52.30672],[0.32448,52.30711],[0.32836,52.30823],[0.33245,52.30816],[0.33584,52.309],[0.33774,52.31018],[0.33984,52.31276],[0.34262,52.3142],[0.34688,52.3153],[0.34757,52.3146],[0.35241,52.31556],[0.35415,52.31538],[0.35408,52.3159],[0.3563,52.31604],[0.36003,52.31545],[0.36154,52.31486],[0.36599,52.31659],[0.36731,52.3176],[0.36872,52.31724],[0.3697,52.31837],[0.37018,52.31821],[0.37145,52.31953],[0.37082,52.32008],[0.37311,52.32117],[0.37343,52.323],[0.37194,52.32467],[0.3735,52.32534],[0.37299,52.32574],[0.37665,52.32691],[0.37548,52.32854],[0.37344,52.33002],[0.37626,52.33181],[0.37383,52.33358],[0.37043,52.33373],[0.36516,52.33619],[0.3734,52.33851],[0.37566,52.33886],[0.3775,52.33834],[0.37766,52.33765],[0.37903,52.33712],[0.38032,52.33571],[0.38297,52.33495],[0.38184,52.33465]]]}},{"type":"Feature","properties":{"id":"E01018035","name":"E01018035","parent":"E07000009","type":"LSOA","pop":2404,"r":19,"ff":9,"ffd":374.4,"ffs":0.4737,"g":0,"co":1,"mo":3,"sa":3,"ic":1},"geometry":{"type":"Polygon","coordinates":[[[0.44756,52.31718],[0.44824,52.31686],[0.4506,52.3166],[0.45248,52.31721],[0.45303,52.3166],[0.45362,52.31683],[0.45408,52.31649],[0.45671,52.31651],[0.45845,52.3159],[0.45906,52.31536],[0.45901,52.31431],[0.45963,52.31302],[0.46046,52.31254],[0.4605,52.31167],[0.46141,52.31099],[0.46209,52.30881],[0.46455,52.30782],[0.46629,52.30792],[0.46728,52.30771],[0.46791,52.3072],[0.46832,52.30739],[0.46936,52.30708],[0.47111,52.30551],[0.4712,52.30486],[0.47036,52.30484],[0.47131,52.30422],[0.47147,52.30444],[0.47261,52.30443],[0.47235,52.30414],[0.47287,52.30394],[0.47384,52.30424],[0.47354,52.30387],[0.47393,52.30361],[0.47411,52.30398],[0.47651,52.30316],[0.47614,52.30289],[0.47659,52.30241],[0.47729,52.3025],[0.47703,52.30214],[0.47777,52.30182],[0.47857,52.30204],[0.47921,52.30182],[0.47966,52.30131],[0.47938,52.30109],[0.4801,52.30103],[0.48001,52.30056],[0.48097,52.30045],[0.4811,52.29994],[0.48243,52.29976],[0.48461,52.29789],[0.48537,52.2976],[0.48523,52.29709],[0.48579,52.2968],[0.48535,52.29635],[0.48552,52.29528],[0.4884,52.29608],[0.49634,52.29118],[0.50135,52.2893],[0.5047,52.28636],[0.50477,52.28472],[0.50121,52.28486],[0.4991,52.28461],[0.49887,52.28379],[0.50003,52.28337],[0.50016,52.28284],[0.49772,52.28189],[0.49856,52.28175],[0.49778,52.28151],[0.49808,52.28132],[0.49737,52.28073],[0.49671,52.28099],[0.49633,52.2808],[0.49671,52.28059],[0.49585,52.28037],[0.49682,52.28025],[0.49669,52.2787],[0.49821,52.2782],[0.49687,52.27771],[0.49688,52.27695],[0.49643,52.27713],[0.49601,52.27688],[0.49508,52.2758],[0.49713,52.27576],[0.49622,52.27529],[0.49809,52.27426],[0.49817,52.2737],[0.49837,52.27411],[0.49868,52.27397],[0.499,52.27322],[0.49775,52.27291],[0.49766,52.27325],[0.4958,52.27329],[0.49498,52.27224],[0.4926,52.27171],[0.45955,52.26565],[0.45252,52.26339],[0.43264,52.2581],[0.42529,52.25626],[0.42487,52.25642],[0.42421,52.25587],[0.41629,52.26262],[0.40371,52.27449],[0.39466,52.2789],[0.39535,52.28045],[0.39348,52.28086],[0.39344,52.28117],[0.38536,52.283],[0.38594,52.28588],[0.38554,52.28964],[0.3863,52.28997],[0.38272,52.29327],[0.3812,52.29306],[0.38226,52.29485],[0.38168,52.29772],[0.37935,52.30069],[0.3798,52.30126],[0.38128,52.30188],[0.38289,52.30376],[0.38314,52.30486],[0.38411,52.3057],[0.38548,52.30584],[0.38615,52.30635],[0.38439,52.30707],[0.38385,52.30781],[0.38547,52.30775],[0.38604,52.30863],[0.38517,52.30887],[0.38456,52.30953],[0.38241,52.3106],[0.38191,52.3104],[0.38037,52.31155],[0.38087,52.31185],[0.38099,52.31294],[0.38367,52.31238],[0.38441,52.31159],[0.38602,52.31189],[0.38596,52.31128],[0.38689,52.3112],[0.38724,52.31145],[0.38913,52.31099],[0.39059,52.31117],[0.39101,52.30779],[0.39196,52.30672],[0.39451,52.30714],[0.39549,52.31083],[0.40671,52.31123],[0.41071,52.31186],[0.4107,52.3112],[0.41184,52.31137],[0.41294,52.31089],[0.41249,52.30975],[0.41288,52.30701],[0.41468,52.30312],[0.4196,52.30403],[0.42027,52.30479],[0.42209,52.30495],[0.4217,52.30613],[0.42265,52.30619],[0.42263,52.30645],[0.42095,52.31076],[0.42361,52.31105],[0.42251,52.31358],[0.42887,52.31459],[0.4288,52.31489],[0.42948,52.31507],[0.42862,52.31656],[0.43078,52.31713],[0.43138,52.31583],[0.43883,52.31682],[0.44113,52.31647],[0.44195,52.31683],[0.44163,52.31722],[0.44281,52.31716],[0.4456,52.31766],[0.44662,52.31763],[0.44756,52.31718]]]}},{"type":"Feature","properties":{"id":"E01018036","name":"E01018036","parent":"E07000009","type":"LSOA","pop":1664,"r":12,"ff":6,"ffd":360.6,"ffs":0.5455,"g":0,"co":3,"mo":3,"sa":3,"ic":1},"geometry":{"type":"Polygon","coordinates":[[[0.1041,52.37508],[0.10626,52.3638],[0.11056,52.36409],[0.11767,52.36341],[0.12384,52.36104],[0.12748,52.36032],[0.13062,52.35913],[0.13216,52.36098],[0.13339,52.36372],[0.1345,52.36147],[0.1367,52.36127],[0.13643,52.35944],[0.13724,52.35903],[0.13931,52.35905],[0.14132,52.36041],[0.1434,52.35944],[0.14507,52.35996],[0.14581,52.35887],[0.1437,52.35898],[0.14312,52.35695],[0.14411,52.35668],[0.1464,52.35779],[0.14685,52.35835],[0.14756,52.35764],[0.14765,52.35807],[0.14867,52.35775],[0.14908,52.35678],[0.15175,52.35561],[0.15323,52.35605],[0.15349,52.35589],[0.15214,52.35436],[0.15251,52.35405],[0.15238,52.35335],[0.15146,52.35306],[0.1515,52.35242],[0.15249,52.35145],[0.14845,52.35229],[0.14713,52.35166],[0.14544,52.34921],[0.14386,52.35114],[0.14393,52.35214],[0.14284,52.35279],[0.142,52.35274],[0.14302,52.35209],[0.14212,52.35215],[0.14112,52.35266],[0.13659,52.35327],[0.13266,52.35355],[0.12491,52.35268],[0.11697,52.35267],[0.117,52.35209],[0.11759,52.35165],[0.11925,52.35099],[0.11848,52.35036],[0.11636,52.34689],[0.11332,52.34463],[0.11154,52.3427],[0.11093,52.34134],[0.11006,52.34075],[0.11119,52.3392],[0.11391,52.33731],[0.11688,52.33722],[0.10902,52.32943],[0.10936,52.32853],[0.10798,52.32931],[0.1048,52.32876],[0.10262,52.33029],[0.09974,52.33109],[0.09651,52.3313],[0.09355,52.33414],[0.09216,52.33434],[0.09104,52.33491],[0.08949,52.33484],[0.08905,52.33526],[0.08796,52.33525],[0.08688,52.33565],[0.08453,52.33466],[0.08221,52.33486],[0.07659,52.33705],[0.07387,52.33844],[0.06526,52.34137],[0.0593,52.34419],[0.05668,52.34639],[0.0496,52.34949],[0.04583,52.35183],[0.04602,52.35207],[0.04417,52.35277],[0.04678,52.35501],[0.04827,52.3558],[0.05025,52.35463],[0.05356,52.35436],[0.05985,52.3565],[0.06109,52.35737],[0.06305,52.35974],[0.0621,52.36474],[0.06791,52.36695],[0.08305,52.37518],[0.08453,52.37538],[0.08685,52.3747],[0.08896,52.37458],[0.08981,52.37338],[0.09112,52.37299],[0.0927,52.37356],[0.0947,52.37355],[0.1041,52.37508]]]}},{"type":"Feature","properties":{"id":"E01018037","name":"E01018037","parent":"E07000009","type":"LSOA","pop":1540,"r":12,"ff":6,"ffd":389.6,"ffs":0.5455,"g":0,"co":3,"mo":3,"sa":3,"ic":1},"geometry":{"type":"Polygon","coordinates":[[[0.16782,52.37008],[0.16868,52.36983],[0.17075,52.37085],[0.17186,52.37034],[0.17306,52.36836],[0.17461,52.36782],[0.17299,52.36647],[0.17195,52.36531],[0.17654,52.36452],[0.17499,52.36143],[0.17233,52.358],[0.16976,52.35862],[0.16718,52.35465],[0.16697,52.35319],[0.16108,52.35416],[0.16062,52.35331],[0.16516,52.35266],[0.16445,52.34992],[0.16491,52.34982],[0.16342,52.34676],[0.16283,52.34473],[0.15682,52.33746],[0.15127,52.32895],[0.14906,52.32814],[0.14827,52.32597],[0.14905,52.32553],[0.14735,52.32414],[0.14318,52.32408],[0.14218,52.32275],[0.14285,52.32124],[0.14163,52.32079],[0.14008,52.32069],[0.13439,52.3229],[0.13058,52.32512],[0.12828,52.32541],[0.12584,52.32669],[0.12305,52.32693],[0.12127,52.32781],[0.11929,52.32825],[0.11054,52.32819],[0.10936,52.32853],[0.10902,52.32943],[0.11688,52.33722],[0.11391,52.33731],[0.11119,52.3392],[0.11006,52.34075],[0.11093,52.34134],[0.11154,52.3427],[0.11332,52.34463],[0.11636,52.34689],[0.11848,52.35036],[0.11925,52.35099],[0.11759,52.35165],[0.117,52.35209],[0.11697,52.35267],[0.12491,52.35268],[0.13266,52.35355],[0.13659,52.35327],[0.14112,52.35266],[0.14212,52.35215],[0.14302,52.35209],[0.142,52.35274],[0.14284,52.35279],[0.14393,52.35214],[0.14386,52.35114],[0.14544,52.34921],[0.14713,52.35166],[0.14845,52.35229],[0.15249,52.35145],[0.1515,52.35242],[0.15146,52.35306],[0.15238,52.35335],[0.15251,52.35405],[0.15214,52.35436],[0.15349,52.35589],[0.15323,52.35605],[0.15175,52.35561],[0.14908,52.35678],[0.14867,52.35775],[0.14765,52.35807],[0.14756,52.35764],[0.14685,52.35835],[0.1464,52.35779],[0.14411,52.35668],[0.14312,52.35695],[0.1437,52.35898],[0.14581,52.35887],[0.14507,52.35996],[0.14458,52.36287],[0.14367,52.36361],[0.14535,52.36325],[0.14601,52.36541],[0.14782,52.36494],[0.15021,52.36485],[0.149,52.36534],[0.15351,52.36558],[0.15796,52.36893],[0.16166,52.37344],[0.16501,52.37237],[0.16626,52.37066],[0.16782,52.37008]]]}},{"type":"Feature","properties":{"id":"E01018038","name":"E01018038","parent":"E07000009","type":"LSOA","pop":2013,"r":14,"ff":8,"ffd":397.4,"ffs":0.6154,"g":0,"co":3,"mo":3,"sa":3,"ic":1},"geometry":{"type":"Polygon","coordinates":[[[0.2033,52.41081],[0.19026,52.40167],[0.19565,52.39978],[0.19727,52.39959],[0.19526,52.39466],[0.19843,52.39413],[0.20083,52.39444],[0.20136,52.39273],[0.20335,52.39171],[0.20315,52.39141],[0.20111,52.391],[0.20207,52.39034],[0.20319,52.38826],[0.20284,52.38812],[0.2033,52.387],[0.20223,52.38724],[0.20143,52.38686],[0.19969,52.38716],[0.19869,52.38707],[0.19722,52.38744],[0.19706,52.38684],[0.19611,52.38684],[0.19586,52.38651],[0.1966,52.38612],[0.19772,52.3865],[0.19836,52.38622],[0.19865,52.38654],[0.2015,52.38626],[0.20295,52.38539],[0.20442,52.38385],[0.20706,52.38436],[0.20758,52.38498],[0.21016,52.38508],[0.21049,52.38372],[0.21025,52.38201],[0.20763,52.38218],[0.20696,52.38157],[0.20378,52.38025],[0.19998,52.37958],[0.19491,52.37817],[0.19336,52.37806],[0.1937,52.37719],[0.19096,52.37602],[0.18923,52.37588],[0.18298,52.37643],[0.18095,52.37666],[0.17849,52.37737],[0.17178,52.37809],[0.16737,52.37766],[0.1665,52.37721],[0.16598,52.37637],[0.16501,52.37237],[0.16166,52.37344],[0.15796,52.36893],[0.15351,52.36558],[0.149,52.36534],[0.15021,52.36485],[0.14782,52.36494],[0.14601,52.36541],[0.14535,52.36325],[0.14367,52.36361],[0.14458,52.36287],[0.14507,52.35996],[0.1434,52.35944],[0.14132,52.36041],[0.13931,52.35905],[0.13724,52.35903],[0.13643,52.35944],[0.1367,52.36127],[0.1345,52.36147],[0.13339,52.36372],[0.13216,52.36098],[0.13062,52.35913],[0.12748,52.36032],[0.12384,52.36104],[0.11767,52.36341],[0.11056,52.36409],[0.10626,52.3638],[0.1041,52.37508],[0.11539,52.37684],[0.14047,52.37995],[0.13957,52.38163],[0.13944,52.38288],[0.1427,52.38527],[0.14315,52.3892],[0.14381,52.38919],[0.14392,52.39063],[0.16398,52.38983],[0.17474,52.3886],[0.17564,52.39201],[0.17723,52.39385],[0.17754,52.39409],[0.17957,52.39424],[0.18151,52.39395],[0.18509,52.40202],[0.18717,52.40279],[0.1879,52.40258],[0.20139,52.41209],[0.2033,52.41081]]]}},{"type":"Feature","properties":{"id":"E01018039","name":"E01018039","parent":"E07000009","type":"LSOA","pop":1574,"r":15,"ff":8,"ffd":508.3,"ffs":0.5714,"g":0,"co":3,"mo":3,"sa":1,"ic":1},"geometry":{"type":"Polygon","coordinates":[[[0.20166,52.41784],[0.22011,52.40933],[0.22102,52.4137],[0.23309,52.40837],[0.23558,52.40659],[0.23905,52.40561],[0.23952,52.40615],[0.24163,52.40534],[0.23951,52.40458],[0.23939,52.40408],[0.23997,52.40381],[0.23979,52.40293],[0.23953,52.40256],[0.23489,52.40219],[0.23427,52.40183],[0.2341,52.40119],[0.23328,52.39992],[0.23125,52.39916],[0.23044,52.39771],[0.22858,52.396],[0.22635,52.39443],[0.22459,52.39403],[0.22139,52.39011],[0.22008,52.38974],[0.21957,52.3891],[0.21733,52.38864],[0.21639,52.38694],[0.21813,52.38559],[0.21846,52.38416],[0.21794,52.3821],[0.22552,52.37775],[0.2209,52.37229],[0.22023,52.37238],[0.21829,52.37375],[0.21175,52.37592],[0.2101,52.37701],[0.20987,52.37755],[0.21052,52.37896],[0.21243,52.38016],[0.21296,52.38129],[0.21225,52.38364],[0.21049,52.38372],[0.21016,52.38508],[0.20758,52.38498],[0.20706,52.38436],[0.20442,52.38385],[0.20295,52.38539],[0.2015,52.38626],[0.19865,52.38654],[0.19836,52.38622],[0.19772,52.3865],[0.1966,52.38612],[0.19586,52.38651],[0.19611,52.38684],[0.19706,52.38684],[0.19722,52.38744],[0.19869,52.38707],[0.19969,52.38716],[0.20143,52.38686],[0.20223,52.38724],[0.2033,52.387],[0.20284,52.38812],[0.20319,52.38826],[0.20207,52.39034],[0.20111,52.391],[0.20315,52.39141],[0.20335,52.39171],[0.20136,52.39273],[0.20083,52.39444],[0.19843,52.39413],[0.19526,52.39466],[0.19727,52.39959],[0.19565,52.39978],[0.19026,52.40167],[0.2033,52.41081],[0.19817,52.41428],[0.20166,52.41784]]]}},{"type":"Feature","properties":{"id":"E01018040","name":"E01018040","parent":"E07000009","type":"LSOA","pop":1617,"r":17,"ff":8,"ffd":494.7,"ffs":0.4706,"g":0,"co":1,"mo":3,"sa":3,"ic":1},"geometry":{"type":"Polygon","coordinates":[[[0.40351,52.33854],[0.40273,52.33933],[0.40326,52.33876],[0.39744,52.33701],[0.39865,52.33922],[0.39912,52.34117],[0.3986,52.34238],[0.39621,52.3449],[0.39166,52.34742],[0.39474,52.34865],[0.39909,52.34981],[0.40413,52.35036],[0.40789,52.34773],[0.40939,52.3455],[0.41043,52.34572],[0.41047,52.34777],[0.41277,52.35012],[0.41213,52.35197],[0.41955,52.35346],[0.41963,52.35243],[0.42062,52.35202],[0.42264,52.35236],[0.42531,52.35214],[0.42737,52.35372],[0.42953,52.35285],[0.43137,52.35275],[0.43297,52.35222],[0.43528,52.35223],[0.43707,52.35073],[0.44028,52.34938],[0.4425,52.34883],[0.44251,52.34693],[0.44157,52.3459],[0.44158,52.34475],[0.44086,52.34426],[0.44102,52.34345],[0.44038,52.34209],[0.43834,52.34056],[0.43848,52.34003],[0.43748,52.33865],[0.43777,52.33768],[0.43695,52.33712],[0.43764,52.33529],[0.43733,52.33518],[0.4362,52.3359],[0.43579,52.33575],[0.43653,52.33497],[0.43613,52.3346],[0.43632,52.33353],[0.43506,52.33405],[0.43372,52.33338],[0.42458,52.3377],[0.42462,52.33877],[0.42364,52.34055],[0.42249,52.34094],[0.42099,52.3425],[0.41993,52.34308],[0.41883,52.34325],[0.41874,52.34398],[0.41714,52.34423],[0.41535,52.34392],[0.41447,52.34311],[0.41372,52.34295],[0.41347,52.34329],[0.41298,52.34319],[0.41244,52.34292],[0.41274,52.34244],[0.41211,52.34219],[0.41139,52.34237],[0.41055,52.34177],[0.40953,52.34252],[0.40843,52.33923],[0.40691,52.33863],[0.40754,52.33765],[0.40748,52.33675],[0.40584,52.33575],[0.40351,52.33854]]]}},{"type":"Feature","properties":{"id":"E01018041","name":"E01018041","parent":"E07000009","type":"LSOA","pop":1191,"r":17,"ff":8,"ffd":671.7,"ffs":0.4706,"g":0,"co":1,"mo":3,"sa":3,"ic":1},"geometry":{"type":"Polygon","coordinates":[[[0.40326,52.33876],[0.40273,52.33933],[0.40351,52.33854],[0.40584,52.33575],[0.40748,52.33675],[0.40754,52.33765],[0.40691,52.33863],[0.40843,52.33923],[0.40953,52.34252],[0.41055,52.34177],[0.41139,52.34237],[0.41211,52.34219],[0.41274,52.34244],[0.41244,52.34292],[0.41298,52.34319],[0.41347,52.34329],[0.41372,52.34295],[0.41447,52.34311],[0.41535,52.34392],[0.41714,52.34423],[0.41874,52.34398],[0.41883,52.34325],[0.41993,52.34308],[0.42099,52.3425],[0.42249,52.34094],[0.42364,52.34055],[0.42462,52.33877],[0.42458,52.3377],[0.43372,52.33338],[0.43025,52.33136],[0.42422,52.32922],[0.42909,52.32391],[0.42994,52.31901],[0.43078,52.31713],[0.42862,52.31656],[0.42948,52.31507],[0.4288,52.31489],[0.42887,52.31459],[0.42363,52.31377],[0.42181,52.31842],[0.4202,52.31814],[0.41912,52.31841],[0.41814,52.31828],[0.41639,52.32073],[0.41155,52.32479],[0.40932,52.32771],[0.4038,52.32592],[0.39757,52.32492],[0.39461,52.32476],[0.39442,52.32678],[0.39339,52.32754],[0.39224,52.33055],[0.39031,52.33214],[0.38973,52.33209],[0.38962,52.33271],[0.38859,52.33321],[0.38625,52.33361],[0.38588,52.33345],[0.38184,52.33465],[0.38297,52.33495],[0.38032,52.33571],[0.37903,52.33712],[0.37766,52.33765],[0.3775,52.33834],[0.3786,52.34038],[0.37582,52.3439],[0.37465,52.34445],[0.37419,52.34533],[0.37338,52.34575],[0.3731,52.34822],[0.37416,52.3499],[0.37431,52.35044],[0.37276,52.3528],[0.37133,52.35371],[0.37127,52.35483],[0.37208,52.35628],[0.37257,52.35854],[0.37417,52.36121],[0.37451,52.3677],[0.37156,52.37197],[0.36628,52.37592],[0.36589,52.37655],[0.36813,52.3774],[0.3746,52.37833],[0.36822,52.38753],[0.37899,52.39405],[0.3798,52.39468],[0.37988,52.39568],[0.38208,52.39629],[0.38461,52.39225],[0.38911,52.38737],[0.40021,52.37295],[0.40733,52.36309],[0.40746,52.36174],[0.40982,52.36022],[0.41528,52.35988],[0.41919,52.35796],[0.41872,52.35678],[0.42054,52.35579],[0.41955,52.35346],[0.41213,52.35197],[0.41277,52.35012],[0.41047,52.34777],[0.41043,52.34572],[0.40939,52.3455],[0.40789,52.34773],[0.40413,52.35036],[0.39909,52.34981],[0.39474,52.34865],[0.39166,52.34742],[0.39621,52.3449],[0.3986,52.34238],[0.39912,52.34117],[0.39865,52.33922],[0.39744,52.33701],[0.40326,52.33876]]]}},{"type":"Feature","properties":{"id":"E01018042","name":"E01018042","parent":"E07000009","type":"LSOA","pop":1428,"r":16,"ff":9,"ffd":630.3,"ffs":0.6,"g":0,"co":3,"mo":3,"sa":3,"ic":1},"geometry":{"type":"Polygon","coordinates":[[[0.3154,52.45744],[0.31332,52.45607],[0.31351,52.45583],[0.31281,52.45533],[0.31245,52.45545],[0.3129,52.45566],[0.31028,52.45649],[0.31108,52.45587],[0.31167,52.4557],[0.31232,52.45477],[0.31189,52.45423],[0.31274,52.45374],[0.31422,52.45448],[0.3148,52.45424],[0.31423,52.45373],[0.31472,52.45272],[0.31207,52.4526],[0.31051,52.45139],[0.30738,52.44966],[0.30628,52.44795],[0.30055,52.44971],[0.30001,52.45065],[0.29952,52.45074],[0.3014,52.45351],[0.30174,52.45328],[0.30126,52.45293],[0.30128,52.45234],[0.30182,52.45228],[0.30312,52.45305],[0.30552,52.4521],[0.30524,52.45362],[0.30575,52.45424],[0.30506,52.45468],[0.30566,52.45547],[0.30538,52.4559],[0.30452,52.45608],[0.30432,52.45638],[0.30476,52.45654],[0.30604,52.45611],[0.3069,52.45626],[0.30786,52.45693],[0.30866,52.4566],[0.30935,52.45667],[0.30947,52.4572],[0.31009,52.45717],[0.31093,52.45764],[0.31094,52.45803],[0.3154,52.45744]]]}},{"type":"Feature","properties":{"id":"E01018043","name":"E01018043","parent":"E07000009","type":"LSOA","pop":2356,"r":16,"ff":9,"ffd":382.0,"ffs":0.6,"g":0,"co":3,"mo":3,"sa":3,"ic":1},"geometry":{"type":"Polygon","coordinates":[[[0.322,52.46345],[0.32171,52.46232],[0.32302,52.46233],[0.32875,52.46136],[0.33149,52.46028],[0.32947,52.45208],[0.3319,52.45204],[0.33369,52.44924],[0.33764,52.43999],[0.33471,52.44],[0.33001,52.43851],[0.31231,52.43558],[0.31025,52.43013],[0.29901,52.43163],[0.293,52.43163],[0.29105,52.43211],[0.28499,52.43274],[0.28215,52.43342],[0.27691,52.43948],[0.26948,52.43707],[0.2699,52.43754],[0.27155,52.45032],[0.27207,52.45276],[0.27574,52.4574],[0.28146,52.46081],[0.28381,52.45904],[0.28308,52.45621],[0.28387,52.44903],[0.28892,52.44992],[0.29371,52.44933],[0.29392,52.45068],[0.29575,52.45063],[0.29563,52.45149],[0.29448,52.45158],[0.29464,52.45256],[0.29809,52.45247],[0.29963,52.45265],[0.29997,52.45323],[0.30103,52.45318],[0.30141,52.45367],[0.30026,52.45395],[0.30145,52.4559],[0.30228,52.45584],[0.30305,52.45648],[0.30359,52.4565],[0.30414,52.45698],[0.30476,52.45654],[0.30432,52.45638],[0.30452,52.45608],[0.30538,52.4559],[0.30566,52.45547],[0.30506,52.45468],[0.30575,52.45424],[0.30524,52.45362],[0.30552,52.4521],[0.30312,52.45305],[0.30182,52.45228],[0.30128,52.45234],[0.30126,52.45293],[0.30174,52.45328],[0.3014,52.45351],[0.29952,52.45074],[0.30001,52.45065],[0.30055,52.44971],[0.30628,52.44795],[0.30738,52.44966],[0.31051,52.45139],[0.31207,52.4526],[0.31472,52.45272],[0.31423,52.45373],[0.3148,52.45424],[0.31422,52.45448],[0.31274,52.45374],[0.31189,52.45423],[0.31232,52.45477],[0.31167,52.4557],[0.31108,52.45587],[0.31028,52.45649],[0.3129,52.45566],[0.31245,52.45545],[0.31281,52.45533],[0.31351,52.45583],[0.31407,52.45524],[0.3169,52.45625],[0.31907,52.45324],[0.31926,52.46075],[0.31998,52.46265],[0.32139,52.46409],[0.322,52.46345]]]}},{"type":"Feature","properties":{"id":"E01018044","name":"E01018044","parent":"E07000009","type":"LSOA","pop":1818,"r":16,"ff":9,"ffd":495.0,"ffs":0.6,"g":0,"co":3,"mo":3,"sa":3,"ic":1},"geometry":{"type":"Polygon","coordinates":[[[0.3417,52.50291],[0.34503,52.50169],[0.3478,52.50215],[0.34976,52.50109],[0.35281,52.50148],[0.35522,52.50076],[0.35941,52.50084],[0.36109,52.49922],[0.36209,52.49893],[0.36399,52.49946],[0.36499,52.50087],[0.36706,52.50117],[0.36714,52.49594],[0.37174,52.491],[0.37332,52.48757],[0.37621,52.48586],[0.37712,52.48428],[0.37927,52.48225],[0.38089,52.47942],[0.38428,52.47769],[0.39192,52.47553],[0.39444,52.47224],[0.3963,52.4709],[0.39797,52.46875],[0.4004,52.46729],[0.40182,52.4655],[0.40413,52.46455],[0.40591,52.4634],[0.41649,52.45946],[0.42393,52.4564],[0.4263,52.45508],[0.42853,52.45465],[0.42838,52.4543],[0.42335,52.45371],[0.42347,52.45105],[0.42378,52.44492],[0.42524,52.44438],[0.42581,52.44374],[0.42456,52.44272],[0.42777,52.43722],[0.42837,52.4366],[0.42934,52.43643],[0.428,52.43507],[0.42534,52.43414],[0.42321,52.43397],[0.42105,52.43422],[0.41904,52.43411],[0.40981,52.43274],[0.40246,52.43372],[0.39799,52.43396],[0.39695,52.43358],[0.39455,52.43399],[0.39204,52.43312],[0.38919,52.43595],[0.3887,52.43787],[0.38471,52.43969],[0.38142,52.44026],[0.38011,52.44005],[0.37692,52.43877],[0.37383,52.43849],[0.37371,52.43769],[0.36782,52.43484],[0.35762,52.4347],[0.35049,52.43712],[0.3488,52.43874],[0.34218,52.43994],[0.33764,52.43999],[0.33369,52.44924],[0.3319,52.45204],[0.32947,52.45208],[0.33149,52.46028],[0.32875,52.46136],[0.32302,52.46233],[0.32171,52.46232],[0.322,52.46345],[0.32139,52.46409],[0.31998,52.46265],[0.31926,52.46075],[0.31907,52.45324],[0.3169,52.45625],[0.31407,52.45524],[0.31332,52.45607],[0.3154,52.45744],[0.31094,52.45803],[0.31093,52.45764],[0.31009,52.45717],[0.30947,52.4572],[0.30935,52.45667],[0.30866,52.4566],[0.30786,52.45693],[0.3069,52.45626],[0.30604,52.45611],[0.30476,52.45654],[0.30414,52.45698],[0.30454,52.45801],[0.30501,52.45817],[0.30435,52.45908],[0.30346,52.4593],[0.30374,52.45959],[0.30241,52.45993],[0.30289,52.4604],[0.30339,52.46027],[0.30413,52.46101],[0.30347,52.46249],[0.30283,52.46261],[0.30295,52.46291],[0.30345,52.46292],[0.30357,52.4644],[0.30201,52.46519],[0.29975,52.46548],[0.30077,52.46834],[0.30621,52.46865],[0.30663,52.46905],[0.30884,52.46878],[0.31088,52.46908],[0.31223,52.4698],[0.31307,52.47092],[0.31351,52.47372],[0.31206,52.47603],[0.30549,52.47927],[0.30882,52.48274],[0.30794,52.48317],[0.31106,52.48481],[0.31175,52.48446],[0.31219,52.48457],[0.32208,52.49833],[0.3324,52.50855],[0.33793,52.50588],[0.3417,52.50291]]]}},{"type":"Feature","properties":{"id":"E01018045","name":"E01018045","parent":"E07000009","type":"LSOA","pop":1362,"r":16,"ff":9,"ffd":660.8,"ffs":0.6,"g":0,"co":3,"mo":3,"sa":3,"ic":1},"geometry":{"type":"Polygon","coordinates":[[[0.30936,52.51362],[0.31556,52.5127],[0.31729,52.51301],[0.31826,52.5119],[0.31839,52.50959],[0.31774,52.50874],[0.31831,52.50766],[0.32333,52.50772],[0.32877,52.50908],[0.33094,52.50914],[0.3324,52.50855],[0.32208,52.49833],[0.31219,52.48457],[0.31175,52.48446],[0.31106,52.48481],[0.30794,52.48317],[0.30882,52.48274],[0.30549,52.47927],[0.31206,52.47603],[0.31351,52.47372],[0.31307,52.47092],[0.31223,52.4698],[0.31088,52.46908],[0.30884,52.46878],[0.30663,52.46905],[0.30621,52.46865],[0.30077,52.46834],[0.29975,52.46548],[0.30201,52.46519],[0.30357,52.4644],[0.30345,52.46292],[0.30295,52.46291],[0.30283,52.46261],[0.30347,52.46249],[0.30413,52.46101],[0.30339,52.46027],[0.30289,52.4604],[0.30241,52.45993],[0.30374,52.45959],[0.30346,52.4593],[0.30435,52.45908],[0.30501,52.45817],[0.30454,52.45801],[0.30414,52.45698],[0.30359,52.4565],[0.30331,52.45774],[0.30203,52.45785],[0.30046,52.45938],[0.29985,52.45817],[0.2987,52.45841],[0.29903,52.45955],[0.29814,52.45983],[0.29598,52.4598],[0.29458,52.46112],[0.29357,52.46115],[0.29287,52.46138],[0.29283,52.46176],[0.29178,52.4619],[0.29168,52.46161],[0.28938,52.46102],[0.28499,52.45909],[0.28429,52.45996],[0.28381,52.45904],[0.28146,52.46081],[0.25421,52.47393],[0.25505,52.47467],[0.24165,52.48396],[0.24867,52.48944],[0.25007,52.48878],[0.25285,52.49094],[0.24604,52.49989],[0.25648,52.50771],[0.25731,52.50708],[0.2685,52.50898],[0.27863,52.50856],[0.28581,52.50999],[0.30936,52.51362]]]}},{"type":"Feature","properties":{"id":"E01018047","name":"E01018047","parent":"E07000009","type":"LSOA","pop":2452,"r":17,"ff":8,"ffd":326.3,"ffs":0.4706,"g":0,"co":1,"mo":3,"sa":3,"ic":1},"geometry":{"type":"Polygon","coordinates":[[[0.37478,52.40973],[0.38208,52.39629],[0.37988,52.39568],[0.3798,52.39468],[0.37899,52.39405],[0.36822,52.38753],[0.3746,52.37833],[0.36813,52.3774],[0.36589,52.37655],[0.36628,52.37592],[0.37156,52.37197],[0.37451,52.3677],[0.37417,52.36121],[0.37257,52.35854],[0.37208,52.35628],[0.37127,52.35483],[0.37133,52.35371],[0.37276,52.3528],[0.37431,52.35044],[0.37416,52.3499],[0.37069,52.34937],[0.37043,52.34963],[0.36274,52.34884],[0.36399,52.34645],[0.35997,52.34534],[0.36081,52.34347],[0.35363,52.34131],[0.34984,52.33864],[0.34795,52.34066],[0.34587,52.34004],[0.34385,52.33857],[0.3427,52.34034],[0.33957,52.3387],[0.33999,52.33838],[0.33838,52.33748],[0.33789,52.33792],[0.3381,52.33838],[0.33611,52.33963],[0.33636,52.34009],[0.33562,52.34],[0.33527,52.34024],[0.33633,52.34117],[0.3373,52.3408],[0.33815,52.34151],[0.33881,52.34176],[0.3394,52.34159],[0.33989,52.34191],[0.34267,52.34585],[0.339,52.34766],[0.33285,52.34931],[0.33319,52.34803],[0.33048,52.34717],[0.33139,52.34536],[0.33255,52.34519],[0.33363,52.34561],[0.33433,52.34507],[0.33377,52.34404],[0.33417,52.34318],[0.33498,52.34319],[0.33581,52.34263],[0.33675,52.34286],[0.33673,52.34178],[0.33632,52.3415],[0.33565,52.34198],[0.33424,52.34144],[0.33357,52.34147],[0.33255,52.34345],[0.3332,52.34395],[0.33206,52.3448],[0.33167,52.34454],[0.33076,52.34457],[0.33053,52.34582],[0.32847,52.34537],[0.32747,52.34546],[0.32686,52.34494],[0.32771,52.3429],[0.3256,52.34331],[0.32412,52.34323],[0.32447,52.34648],[0.32269,52.34795],[0.31964,52.34859],[0.31808,52.34739],[0.31719,52.34763],[0.31656,52.34714],[0.31527,52.34682],[0.31527,52.34641],[0.31624,52.34608],[0.31537,52.34524],[0.3194,52.34372],[0.32338,52.34162],[0.32637,52.33939],[0.32499,52.33905],[0.32763,52.33667],[0.32756,52.33603],[0.32653,52.33486],[0.32344,52.33518],[0.31644,52.33046],[0.31678,52.33028],[0.30271,52.32118],[0.30128,52.3224],[0.29581,52.32466],[0.29202,52.32799],[0.29114,52.33574],[0.28795,52.33533],[0.28962,52.33786],[0.28824,52.33824],[0.28728,52.33818],[0.28723,52.33896],[0.28546,52.34029],[0.28504,52.34139],[0.28566,52.3423],[0.28458,52.34338],[0.28441,52.34415],[0.28315,52.34457],[0.28292,52.34578],[0.28018,52.34722],[0.2804,52.34787],[0.27978,52.34858],[0.28098,52.34988],[0.27677,52.352],[0.27416,52.34981],[0.27192,52.34849],[0.27101,52.34871],[0.2696,52.34851],[0.2666,52.34734],[0.26342,52.34685],[0.26245,52.34725],[0.26266,52.35277],[0.25974,52.35328],[0.26062,52.35501],[0.25697,52.35531],[0.25431,52.35615],[0.25674,52.36025],[0.2596,52.36291],[0.2596,52.36445],[0.25812,52.36869],[0.25826,52.36978],[0.2619,52.37295],[0.26611,52.37137],[0.27004,52.37194],[0.27157,52.37316],[0.27155,52.37373],[0.27258,52.37509],[0.27411,52.37266],[0.27685,52.3715],[0.28056,52.37117],[0.28094,52.37043],[0.28674,52.36564],[0.28934,52.3645],[0.29333,52.36344],[0.29858,52.36479],[0.30084,52.36447],[0.30346,52.3665],[0.30728,52.36843],[0.30895,52.36816],[0.31197,52.36902],[0.31246,52.37018],[0.31186,52.37106],[0.3156,52.37338],[0.3194,52.37341],[0.32014,52.37379],[0.3204,52.37464],[0.32001,52.3749],[0.32047,52.37545],[0.32482,52.37609],[0.33061,52.37843],[0.33215,52.3778],[0.33327,52.37793],[0.33408,52.3784],[0.3341,52.37924],[0.33232,52.38053],[0.33266,52.38189],[0.3335,52.38283],[0.3336,52.38412],[0.33278,52.3863],[0.33429,52.38741],[0.33446,52.38823],[0.33431,52.38937],[0.33363,52.39029],[0.33309,52.39039],[0.3334,52.39066],[0.3329,52.39221],[0.32864,52.3918],[0.32815,52.39205],[0.32736,52.39471],[0.32758,52.39788],[0.32854,52.39893],[0.33102,52.3998],[0.33182,52.40078],[0.33409,52.40226],[0.33846,52.40722],[0.33791,52.40786],[0.3382,52.40875],[0.33993,52.40872],[0.34217,52.40791],[0.34351,52.40709],[0.34372,52.40734],[0.34495,52.40728],[0.34909,52.40611],[0.35319,52.40791],[0.35434,52.40759],[0.3549,52.40854],[0.35735,52.40892],[0.35946,52.41032],[0.35959,52.41123],[0.36197,52.41278],[0.36196,52.41318],[0.36572,52.41363],[0.36809,52.41529],[0.37366,52.41128],[0.37478,52.40973]]]}},{"type":"Feature","properties":{"id":"E01018049","name":"E01018049","parent":"E07000009","type":"LSOA","pop":2125,"r":21,"ff":10,"ffd":470.6,"ffs":0.4762,"g":0,"co":1,"mo":3,"sa":3,"ic":1},"geometry":{"type":"Polygon","coordinates":[[[0.26245,52.34725],[0.26342,52.34685],[0.2666,52.34734],[0.2696,52.34851],[0.27101,52.34871],[0.27192,52.34849],[0.27416,52.34981],[0.27677,52.352],[0.28098,52.34988],[0.27978,52.34858],[0.2804,52.34787],[0.28018,52.34722],[0.28292,52.34578],[0.28315,52.34457],[0.28441,52.34415],[0.28458,52.34338],[0.28566,52.3423],[0.28504,52.34139],[0.28546,52.34029],[0.28723,52.33896],[0.28728,52.33818],[0.28824,52.33824],[0.28962,52.33786],[0.28795,52.33533],[0.29114,52.33574],[0.29202,52.32799],[0.29581,52.32466],[0.30128,52.3224],[0.30271,52.32118],[0.31678,52.33028],[0.31644,52.33046],[0.32344,52.33518],[0.32653,52.33486],[0.32756,52.33603],[0.32763,52.33667],[0.32499,52.33905],[0.328,52.33984],[0.32864,52.33956],[0.32997,52.33723],[0.33059,52.33433],[0.33155,52.33496],[0.33231,52.33483],[0.33248,52.33449],[0.33284,52.3346],[0.33207,52.33375],[0.33131,52.33341],[0.33037,52.3338],[0.32967,52.33299],[0.33087,52.33304],[0.33067,52.33259],[0.33107,52.33237],[0.33234,52.33306],[0.33282,52.33262],[0.33273,52.33149],[0.33474,52.33188],[0.33565,52.33176],[0.33614,52.33192],[0.33822,52.33111],[0.33824,52.33079],[0.33903,52.33052],[0.33863,52.32909],[0.34145,52.32876],[0.34191,52.32931],[0.34263,52.32899],[0.34229,52.3287],[0.34359,52.32769],[0.34301,52.32725],[0.34339,52.32674],[0.34286,52.32648],[0.3432,52.32633],[0.34299,52.32584],[0.34501,52.32433],[0.34542,52.3236],[0.34652,52.32038],[0.3517,52.32287],[0.35213,52.32352],[0.35253,52.3233],[0.35296,52.32237],[0.34979,52.32169],[0.34823,52.32008],[0.34918,52.3185],[0.34882,52.31763],[0.34662,52.31729],[0.34109,52.31568],[0.34262,52.3142],[0.33984,52.31276],[0.33774,52.31018],[0.33584,52.309],[0.33245,52.30816],[0.32836,52.30823],[0.32448,52.30711],[0.32145,52.30672],[0.32149,52.30639],[0.3178,52.30624],[0.31823,52.30445],[0.31206,52.30383],[0.31068,52.30452],[0.30831,52.3049],[0.30641,52.30642],[0.30355,52.30711],[0.30224,52.30628],[0.29894,52.30534],[0.29606,52.30553],[0.29407,52.30594],[0.29242,52.30667],[0.29044,52.30711],[0.28839,52.30701],[0.28635,52.30762],[0.28089,52.30689],[0.26663,52.30326],[0.26146,52.30355],[0.25785,52.30455],[0.25683,52.30538],[0.25589,52.30552],[0.25587,52.3048],[0.25307,52.30567],[0.25328,52.30474],[0.25233,52.30409],[0.2513,52.30403],[0.24848,52.30459],[0.2471,52.30387],[0.24594,52.30407],[0.24478,52.30576],[0.24619,52.30704],[0.24726,52.3092],[0.24733,52.31055],[0.2469,52.31115],[0.24803,52.31161],[0.25027,52.31921],[0.24902,52.31909],[0.24856,52.32006],[0.24775,52.32049],[0.24795,52.32141],[0.2485,52.32171],[0.24801,52.32282],[0.24882,52.32285],[0.24982,52.32247],[0.24958,52.32457],[0.25017,52.32542],[0.24943,52.3263],[0.24827,52.32687],[0.24809,52.32864],[0.24963,52.32945],[0.25071,52.33056],[0.25475,52.32898],[0.25422,52.33184],[0.25768,52.33415],[0.25756,52.3358],[0.25488,52.34099],[0.25445,52.34156],[0.2519,52.34321],[0.25203,52.34393],[0.25371,52.34608],[0.25357,52.34708],[0.25261,52.34826],[0.25385,52.34856],[0.25415,52.3491],[0.2567,52.35032],[0.2577,52.35047],[0.25802,52.35081],[0.25767,52.35129],[0.25974,52.35328],[0.26266,52.35277],[0.26245,52.34725]]]}},{"type":"Feature","properties":{"id":"E01018050","name":"E01018050","parent":"E07000009","type":"LSOA","pop":1467,"r":21,"ff":11,"ffd":749.8,"ffs":0.5238,"g":0,"co":1,"mo":3,"sa":3,"ic":1},"geometry":{"type":"Polygon","coordinates":[[[0.37416,52.3499],[0.3731,52.34822],[0.3732,52.34674],[0.37338,52.34575],[0.37419,52.34533],[0.37465,52.34445],[0.37296,52.34338],[0.35274,52.33529],[0.3557,52.33133],[0.35741,52.32688],[0.35197,52.32721],[0.3515,52.32805],[0.35168,52.32906],[0.35199,52.32976],[0.35304,52.33038],[0.35245,52.33086],[0.34983,52.33097],[0.34838,52.32976],[0.34733,52.32936],[0.34648,52.32943],[0.34526,52.32999],[0.34513,52.33083],[0.34442,52.33084],[0.34419,52.33133],[0.34475,52.33245],[0.34229,52.33249],[0.34074,52.3319],[0.33937,52.33241],[0.33971,52.33273],[0.33938,52.33346],[0.33877,52.33347],[0.33892,52.33422],[0.33828,52.33442],[0.3389,52.3345],[0.33859,52.33493],[0.33789,52.33458],[0.33761,52.33541],[0.33861,52.3354],[0.33888,52.33577],[0.33802,52.3365],[0.3377,52.33568],[0.33679,52.33556],[0.33632,52.33582],[0.33476,52.3356],[0.33444,52.33597],[0.33319,52.33558],[0.33268,52.33577],[0.33233,52.33688],[0.33334,52.33677],[0.33374,52.33723],[0.3352,52.33758],[0.33505,52.3379],[0.33549,52.33802],[0.33636,52.33673],[0.33838,52.33748],[0.33999,52.33838],[0.33957,52.3387],[0.3427,52.34034],[0.34385,52.33857],[0.34587,52.34004],[0.34795,52.34066],[0.34984,52.33864],[0.35363,52.34131],[0.36081,52.34347],[0.35997,52.34534],[0.36399,52.34645],[0.36274,52.34884],[0.37043,52.34963],[0.37069,52.34937],[0.37416,52.3499]]]}},{"type":"Feature","properties":{"id":"E01018051","name":"E01018051","parent":"E07000009","type":"LSOA","pop":2856,"r":20,"ff":10,"ffd":350.1,"ffs":0.5,"g":0,"co":1,"mo":3,"sa":3,"ic":1},"geometry":{"type":"Polygon","coordinates":[[[0.3786,52.34038],[0.3775,52.33834],[0.37566,52.33886],[0.3734,52.33851],[0.36516,52.33619],[0.37043,52.33373],[0.37383,52.33358],[0.37626,52.33181],[0.37344,52.33002],[0.37548,52.32854],[0.37665,52.32691],[0.37299,52.32574],[0.3735,52.32534],[0.37194,52.32467],[0.37343,52.323],[0.37311,52.32117],[0.37082,52.32008],[0.37145,52.31953],[0.37018,52.31821],[0.3697,52.31837],[0.36872,52.31724],[0.36731,52.3176],[0.36599,52.31659],[0.36154,52.31486],[0.36003,52.31545],[0.3563,52.31604],[0.35408,52.3159],[0.35415,52.31538],[0.35241,52.31556],[0.34757,52.3146],[0.34688,52.3153],[0.34262,52.3142],[0.34109,52.31568],[0.34662,52.31729],[0.34882,52.31763],[0.34918,52.3185],[0.34823,52.32008],[0.34979,52.32169],[0.35296,52.32237],[0.35253,52.3233],[0.35213,52.32352],[0.3517,52.32287],[0.34652,52.32038],[0.34542,52.3236],[0.34501,52.32433],[0.34299,52.32584],[0.3432,52.32633],[0.34286,52.32648],[0.34339,52.32674],[0.34301,52.32725],[0.34359,52.32769],[0.34229,52.3287],[0.34263,52.32899],[0.34188,52.33025],[0.34226,52.33055],[0.34161,52.33085],[0.34178,52.33109],[0.34264,52.33118],[0.34358,52.33081],[0.34419,52.33133],[0.34442,52.33084],[0.34513,52.33083],[0.34526,52.32999],[0.34648,52.32943],[0.34733,52.32936],[0.34838,52.32976],[0.34983,52.33097],[0.35245,52.33086],[0.35304,52.33038],[0.35199,52.32976],[0.35168,52.32906],[0.3515,52.32805],[0.35197,52.32721],[0.35741,52.32688],[0.3557,52.33133],[0.35274,52.33529],[0.37296,52.34338],[0.37465,52.34445],[0.37582,52.3439],[0.3786,52.34038]]]}},{"type":"Feature","properties":{"id":"E01018052","name":"E01018052","parent":"E07000009","type":"LSOA","pop":1922,"r":21,"ff":11,"ffd":572.3,"ffs":0.5238,"g":0,"co":1,"mo":3,"sa":3,"ic":1},"geometry":{"type":"Polygon","coordinates":[[[0.32937,52.3388],[0.33005,52.33867],[0.33182,52.33922],[0.33324,52.33816],[0.33434,52.33876],[0.33468,52.33848],[0.3352,52.33758],[0.33374,52.33723],[0.33334,52.33677],[0.33233,52.33688],[0.33268,52.33577],[0.33319,52.33558],[0.33444,52.33597],[0.33476,52.3356],[0.33632,52.33582],[0.33679,52.33556],[0.3377,52.33568],[0.33802,52.3365],[0.33888,52.33577],[0.33861,52.3354],[0.33761,52.33541],[0.33789,52.33458],[0.33859,52.33493],[0.3389,52.3345],[0.33828,52.33442],[0.33892,52.33422],[0.33877,52.33347],[0.33938,52.33346],[0.33971,52.33273],[0.33937,52.33241],[0.34013,52.33205],[0.34074,52.3319],[0.34229,52.33249],[0.34475,52.33245],[0.34419,52.33133],[0.34358,52.33081],[0.34264,52.33118],[0.34178,52.33109],[0.34161,52.33085],[0.34226,52.33055],[0.34188,52.33025],[0.34248,52.32907],[0.34191,52.32931],[0.34145,52.32876],[0.33863,52.32909],[0.33903,52.33052],[0.33824,52.33079],[0.33822,52.33111],[0.33614,52.33192],[0.33565,52.33176],[0.33474,52.33188],[0.33273,52.33149],[0.33282,52.33262],[0.33234,52.33306],[0.33107,52.33237],[0.33067,52.33259],[0.33087,52.33304],[0.32967,52.33299],[0.33037,52.3338],[0.33131,52.33341],[0.33207,52.33375],[0.33284,52.3346],[0.33248,52.33449],[0.33231,52.33483],[0.33155,52.33496],[0.33059,52.33433],[0.32997,52.33723],[0.32864,52.33956],[0.32937,52.3388]]]}},{"type":"Feature","properties":{"id":"E01018053","name":"E01018053","parent":"E07000009","type":"LSOA","pop":1956,"r":11,"ff":7,"ffd":357.9,"ffs":0.7,"g":0,"co":3,"mo":3,"sa":3,"ic":1},"geometry":{"type":"Polygon","coordinates":[[[0.21225,52.38364],[0.21296,52.38129],[0.21243,52.38016],[0.21052,52.37896],[0.20987,52.37755],[0.2101,52.37701],[0.21175,52.37592],[0.21829,52.37375],[0.22023,52.37238],[0.2255,52.37071],[0.22712,52.37054],[0.22769,52.37082],[0.23076,52.36909],[0.23049,52.3687],[0.2312,52.36834],[0.23599,52.36744],[0.23581,52.36634],[0.23741,52.36603],[0.23108,52.36253],[0.23329,52.36038],[0.2349,52.35772],[0.23344,52.35726],[0.23173,52.35477],[0.22479,52.35381],[0.22197,52.3537],[0.22039,52.35275],[0.21994,52.35151],[0.22003,52.35124],[0.22195,52.35056],[0.22208,52.35005],[0.22106,52.34987],[0.22094,52.35014],[0.22008,52.3502],[0.21907,52.3499],[0.21959,52.34936],[0.22131,52.34902],[0.22044,52.34863],[0.21996,52.34906],[0.21939,52.34871],[0.21889,52.34898],[0.21866,52.34869],[0.21754,52.34859],[0.21326,52.3508],[0.20866,52.35522],[0.20233,52.34591],[0.20884,52.34671],[0.21097,52.34768],[0.21284,52.34753],[0.21324,52.34775],[0.21601,52.34712],[0.21192,52.34545],[0.20954,52.34169],[0.20459,52.34277],[0.19624,52.33712],[0.19365,52.3394],[0.191,52.33876],[0.19022,52.33241],[0.18717,52.33151],[0.18657,52.32279],[0.18698,52.32245],[0.1816,52.3212],[0.17769,52.321],[0.17501,52.31976],[0.17104,52.31936],[0.16992,52.31879],[0.16917,52.31777],[0.16728,52.31758],[0.16611,52.31802],[0.16418,52.32054],[0.16233,52.32153],[0.16216,52.32226],[0.16292,52.32348],[0.16258,52.32419],[0.15191,52.32464],[0.14905,52.32553],[0.14827,52.32597],[0.14906,52.32814],[0.15127,52.32895],[0.15682,52.33746],[0.16283,52.34473],[0.16342,52.34676],[0.16491,52.34982],[0.16445,52.34992],[0.16516,52.35266],[0.16062,52.35331],[0.16108,52.35416],[0.16697,52.35319],[0.16718,52.35465],[0.16976,52.35862],[0.17233,52.358],[0.17499,52.36143],[0.17654,52.36452],[0.17195,52.36531],[0.17299,52.36647],[0.17461,52.36782],[0.17306,52.36836],[0.17186,52.37034],[0.17075,52.37085],[0.16868,52.36983],[0.16626,52.37066],[0.16496,52.37242],[0.16598,52.37637],[0.1665,52.37721],[0.16737,52.37766],[0.17178,52.37809],[0.17849,52.37737],[0.18095,52.37666],[0.18298,52.37643],[0.18923,52.37588],[0.19096,52.37602],[0.1937,52.37719],[0.19336,52.37806],[0.19491,52.37817],[0.19998,52.37958],[0.20378,52.38025],[0.20696,52.38157],[0.20763,52.38218],[0.21025,52.38201],[0.21049,52.38372],[0.21225,52.38364]]]}},{"type":"Feature","properties":{"id":"E01018054","name":"E01018054","parent":"E07000009","type":"LSOA","pop":2478,"r":13,"ff":8,"ffd":322.8,"ffs":0.6667,"g":0,"co":3,"mo":3,"sa":3,"ic":1},"geometry":{"type":"Polygon","coordinates":[[[0.25196,52.3714],[0.25371,52.37111],[0.25681,52.37149],[0.25912,52.37066],[0.25826,52.36978],[0.25812,52.36869],[0.2596,52.36445],[0.2596,52.36291],[0.25674,52.36025],[0.25431,52.35615],[0.25697,52.35531],[0.26062,52.35501],[0.25974,52.35328],[0.25767,52.35129],[0.25802,52.35081],[0.2577,52.35047],[0.2567,52.35032],[0.25415,52.3491],[0.25385,52.34856],[0.25261,52.34826],[0.25357,52.34708],[0.25371,52.34608],[0.25203,52.34393],[0.2519,52.34321],[0.25445,52.34156],[0.25488,52.34099],[0.25756,52.3358],[0.25768,52.33415],[0.25422,52.33184],[0.25475,52.32898],[0.25071,52.33056],[0.24963,52.32945],[0.24809,52.32864],[0.24827,52.32687],[0.24943,52.3263],[0.25017,52.32542],[0.24958,52.32457],[0.24982,52.32247],[0.24446,52.32454],[0.24378,52.32536],[0.23937,52.32559],[0.23902,52.32494],[0.2393,52.3247],[0.23847,52.32371],[0.23987,52.32197],[0.23895,52.32033],[0.20589,52.31685],[0.20328,52.3169],[0.1986,52.31841],[0.20001,52.32341],[0.19817,52.32408],[0.19627,52.32425],[0.19289,52.32314],[0.18988,52.32316],[0.18698,52.32245],[0.18657,52.32279],[0.18717,52.33151],[0.19022,52.33241],[0.191,52.33876],[0.19365,52.3394],[0.19624,52.33712],[0.20459,52.34277],[0.20954,52.34169],[0.21192,52.34545],[0.21601,52.34712],[0.21324,52.34775],[0.21284,52.34753],[0.21097,52.34768],[0.20884,52.34671],[0.20233,52.34591],[0.20866,52.35522],[0.21326,52.3508],[0.21445,52.35009],[0.21754,52.34859],[0.21866,52.34869],[0.21889,52.34898],[0.21939,52.34871],[0.21996,52.34906],[0.22044,52.34863],[0.22131,52.34902],[0.21959,52.34936],[0.21907,52.3499],[0.22008,52.3502],[0.22094,52.35014],[0.22106,52.34987],[0.22208,52.35005],[0.22195,52.35056],[0.22003,52.35124],[0.21994,52.35151],[0.22039,52.35275],[0.22197,52.3537],[0.22479,52.35381],[0.23173,52.35477],[0.23344,52.35726],[0.2349,52.35772],[0.23329,52.36038],[0.23108,52.36253],[0.23741,52.36603],[0.23581,52.36634],[0.23599,52.36744],[0.2312,52.36834],[0.23049,52.3687],[0.23076,52.36909],[0.22769,52.37082],[0.22712,52.37054],[0.2255,52.37071],[0.2209,52.37229],[0.22552,52.37775],[0.23559,52.37355],[0.24449,52.37302],[0.24434,52.37243],[0.25104,52.37205],[0.25196,52.3714]]]}},{"type":"Feature","properties":{"id":"E01018055","name":"E01018055","parent":"E07000009","type":"LSOA","pop":1978,"r":10,"ff":5,"ffd":252.8,"ffs":0.5556,"g":0,"co":3,"mo":3,"sa":3,"ic":1},"geometry":{"type":"Polygon","coordinates":[[[0.13219,52.38908],[0.13258,52.38849],[0.13034,52.38767],[0.13089,52.37884],[0.11539,52.37684],[0.1036,52.375],[0.10184,52.38322],[0.10003,52.38549],[0.09571,52.38869],[0.1005,52.38861],[0.10122,52.38783],[0.102,52.38765],[0.10466,52.38855],[0.10605,52.38959],[0.10788,52.3884],[0.10887,52.38878],[0.11087,52.38788],[0.11233,52.38818],[0.11291,52.38803],[0.11299,52.38827],[0.11414,52.38845],[0.11661,52.38815],[0.11782,52.38846],[0.12123,52.38871],[0.12087,52.38937],[0.12136,52.38923],[0.12175,52.38951],[0.12113,52.39069],[0.12166,52.39078],[0.12254,52.38922],[0.12364,52.38947],[0.12343,52.38994],[0.12527,52.39026],[0.12499,52.39141],[0.13051,52.39171],[0.13039,52.39203],[0.12861,52.39279],[0.12896,52.39324],[0.13248,52.39265],[0.1326,52.39233],[0.1354,52.3918],[0.13521,52.39087],[0.13581,52.38933],[0.13638,52.38904],[0.13219,52.38908]]]}},{"type":"Feature","properties":{"id":"E01018056","name":"E01018056","parent":"E07000009","type":"LSOA","pop":2140,"r":10,"ff":5,"ffd":233.6,"ffs":0.5556,"g":0,"co":3,"mo":3,"sa":3,"ic":1},"geometry":{"type":"MultiPolygon","coordinates":[[[[0.11369,52.40637],[0.1155,52.40386],[0.11768,52.40447],[0.11783,52.4042],[0.11851,52.40433],[0.12008,52.40151],[0.1217,52.40171],[0.12928,52.40088],[0.12926,52.40311],[0.13056,52.40409],[0.13967,52.40273],[0.14014,52.40246],[0.13986,52.39962],[0.13948,52.39956],[0.13972,52.39821],[0.14059,52.39804],[0.14074,52.3968],[0.13965,52.39135],[0.14392,52.39063],[0.14381,52.38919],[0.14315,52.3892],[0.1427,52.38527],[0.13944,52.38288],[0.13957,52.38163],[0.14047,52.37995],[0.13089,52.37884],[0.13034,52.38767],[0.13258,52.38849],[0.13219,52.38908],[0.13638,52.38904],[0.13581,52.38933],[0.13521,52.39087],[0.1354,52.3918],[0.1326,52.39233],[0.13248,52.39265],[0.12896,52.39324],[0.12861,52.39279],[0.13039,52.39203],[0.13051,52.39171],[0.12499,52.39141],[0.12527,52.39026],[0.12343,52.38994],[0.12364,52.38947],[0.12254,52.38922],[0.12166,52.39078],[0.12113,52.39069],[0.12175,52.38951],[0.12136,52.38923],[0.12087,52.38937],[0.12123,52.38871],[0.11782,52.38846],[0.11661,52.38815],[0.11414,52.38845],[0.11299,52.38827],[0.11291,52.38803],[0.11233,52.38818],[0.11087,52.38788],[0.10887,52.38878],[0.10788,52.3884],[0.10605,52.38959],[0.10466,52.38855],[0.102,52.38765],[0.10122,52.38783],[0.1005,52.38861],[0.09571,52.38869],[0.10003,52.38549],[0.10184,52.38322],[0.1036,52.375],[0.0947,52.37355],[0.0927,52.37356],[0.09112,52.37299],[0.08981,52.37338],[0.08896,52.37458],[0.08685,52.3747],[0.08453,52.37538],[0.08305,52.37518],[0.06791,52.36695],[0.0621,52.36474],[0.06305,52.35974],[0.06109,52.35737],[0.05985,52.3565],[0.05356,52.35436],[0.05025,52.35463],[0.04827,52.3558],[0.04999,52.35684],[0.09351,52.39078],[0.10019,52.39849],[0.10657,52.40395],[0.10997,52.40652],[0.11301,52.40658],[0.11369,52.40637]]],[[[0.08881,52.42084],[0.0978,52.40077],[0.09889,52.39998],[0.09926,52.40017],[0.10062,52.40255],[0.10666,52.4068],[0.10706,52.40646],[0.10952,52.40651],[0.10014,52.39876],[0.09322,52.39086],[0.05123,52.35835],[0.05048,52.35901],[0.0494,52.36287],[0.04866,52.36399],[0.04918,52.36449],[0.04759,52.36773],[0.04675,52.36837],[0.04598,52.37181],[0.04371,52.37561],[0.04195,52.38069],[0.03883,52.38278],[0.03639,52.3836],[0.03442,52.38575],[0.04647,52.39224],[0.05438,52.3954],[0.05445,52.39656],[0.0562,52.39783],[0.05518,52.39928],[0.05513,52.40015],[0.05297,52.40161],[0.05204,52.40505],[0.05021,52.40665],[0.05017,52.40736],[0.05259,52.40884],[0.04797,52.41127],[0.04515,52.41199],[0.04169,52.41336],[0.04335,52.41641],[0.04312,52.41743],[0.04365,52.41813],[0.04538,52.4191],[0.04654,52.41876],[0.04956,52.41675],[0.0491,52.41606],[0.05006,52.41512],[0.05253,52.41457],[0.05528,52.41443],[0.05877,52.41544],[0.06268,52.418],[0.07017,52.4206],[0.07021,52.42149],[0.07287,52.4211],[0.07331,52.42143],[0.07485,52.42145],[0.0776,52.42077],[0.08012,52.42141],[0.08289,52.42361],[0.08111,52.4248],[0.08167,52.42659],[0.08239,52.42723],[0.0849,52.4281],[0.08635,52.42919],[0.08881,52.42084]]]]}},{"type":"Feature","properties":{"id":"E01018057","name":"E01018057","parent":"E07000009","type":"LSOA","pop":2071,"r":215,"ff":64,"ffd":3090.3,"ffs":0.3975,"g":52,"co":2,"mo":2,"sa":2,"ic":0},"geometry":{"type":"Polygon","coordinates":[[[0.25307,52.30567],[0.25587,52.3048],[0.25589,52.30552],[0.25683,52.30538],[0.25785,52.30455],[0.26146,52.30355],[0.26344,52.30236],[0.26781,52.30083],[0.26763,52.3003],[0.28095,52.28645],[0.28664,52.28639],[0.29557,52.27718],[0.3008,52.27759],[0.31031,52.27363],[0.31026,52.27191],[0.31284,52.27158],[0.31359,52.27176],[0.31694,52.27005],[0.30629,52.26374],[0.31981,52.25515],[0.35756,52.23408],[0.35129,52.23027],[0.33952,52.22448],[0.33099,52.21374],[0.32937,52.21219],[0.32809,52.2125],[0.3265,52.21127],[0.32789,52.21074],[0.3274,52.20986],[0.3198,52.20463],[0.31575,52.2056],[0.30768,52.20853],[0.30669,52.20747],[0.30564,52.2079],[0.30308,52.20937],[0.30356,52.2098],[0.30264,52.21017],[0.303,52.21054],[0.29893,52.21294],[0.29693,52.2136],[0.2972,52.21393],[0.29408,52.21497],[0.2941,52.21527],[0.29225,52.21595],[0.29178,52.21636],[0.29216,52.2169],[0.28827,52.21899],[0.28744,52.21974],[0.28771,52.22032],[0.28332,52.22134],[0.27969,52.22279],[0.27693,52.22324],[0.27713,52.22418],[0.27622,52.22587],[0.27663,52.22803],[0.2736,52.22971],[0.27339,52.23041],[0.27253,52.23026],[0.27241,52.2308],[0.26676,52.23273],[0.26614,52.23405],[0.26735,52.23626],[0.26922,52.2366],[0.26981,52.23816],[0.26349,52.23865],[0.26324,52.24017],[0.26387,52.24044],[0.26258,52.24345],[0.26448,52.24392],[0.26377,52.24549],[0.27365,52.24796],[0.26899,52.25476],[0.25696,52.25171],[0.25216,52.25523],[0.25434,52.25718],[0.25594,52.25693],[0.2579,52.25721],[0.25975,52.25849],[0.25974,52.25899],[0.26049,52.25964],[0.26168,52.26016],[0.25423,52.26438],[0.24812,52.26904],[0.24614,52.27011],[0.22895,52.28204],[0.22983,52.28358],[0.22999,52.28614],[0.23679,52.28993],[0.24047,52.29043],[0.24168,52.29115],[0.24196,52.29263],[0.24111,52.29456],[0.24124,52.29555],[0.24313,52.29736],[0.24406,52.29962],[0.24604,52.30117],[0.2471,52.30387],[0.24848,52.30459],[0.2513,52.30403],[0.25233,52.30409],[0.25328,52.30474],[0.25307,52.30567]]]}},{"type":"Feature","properties":{"id":"E01032611","name":"E01032611","parent":"E07000009","type":"LSOA","pop":1623,"r":39,"ff":13,"ffd":801.0,"ffs":0.4483,"g":9,"co":2,"mo":3,"sa":3,"ic":0},"geometry":{"type":"Polygon","coordinates":[[[0.42696,52.2536],[0.42976,52.2515],[0.43227,52.25156],[0.4342,52.2495],[0.4434,52.24264],[0.44626,52.24294],[0.44606,52.2436],[0.44928,52.24367],[0.45042,52.24334],[0.45334,52.24755],[0.45543,52.24763],[0.45963,52.24382],[0.46511,52.24038],[0.47078,52.24097],[0.47464,52.23775],[0.47792,52.23453],[0.47661,52.23439],[0.47613,52.23394],[0.48017,52.23272],[0.48306,52.2322],[0.48569,52.23403],[0.48416,52.2348],[0.48612,52.2365],[0.48933,52.23853],[0.4898,52.23838],[0.48939,52.23811],[0.49002,52.23771],[0.49175,52.23889],[0.49275,52.23799],[0.49493,52.23926],[0.50089,52.23554],[0.50237,52.23422],[0.49789,52.23133],[0.49485,52.23016],[0.49202,52.22798],[0.49097,52.22796],[0.49056,52.22767],[0.49457,52.22277],[0.48806,52.22525],[0.48524,52.22475],[0.48419,52.22487],[0.48417,52.22518],[0.48475,52.22516],[0.48431,52.22543],[0.48472,52.22585],[0.48385,52.22635],[0.48405,52.22663],[0.48352,52.22665],[0.48393,52.22719],[0.47849,52.22839],[0.47502,52.22888],[0.47254,52.22751],[0.47302,52.22651],[0.47061,52.22668],[0.47238,52.22403],[0.47325,52.22185],[0.46751,52.2218],[0.46505,52.22262],[0.46354,52.22287],[0.46278,52.22258],[0.46232,52.22339],[0.45933,52.22537],[0.45697,52.22404],[0.45549,52.22372],[0.45227,52.22399],[0.45131,52.22039],[0.44659,52.22035],[0.44211,52.21876],[0.43778,52.22232],[0.43349,52.22724],[0.42643,52.23385],[0.4242,52.23713],[0.42288,52.23869],[0.42133,52.23969],[0.42138,52.23998],[0.42075,52.24019],[0.42114,52.24029],[0.42088,52.2426],[0.41722,52.24636],[0.41452,52.24786],[0.42696,52.2536]]]}},{"type":"Feature","properties":{"id":"E01033425","name":"E01033425","parent":"E07000009","type":"LSOA","pop":1933,"r":18,"ff":9,"ffd":465.6,"ffs":0.5294,"g":0,"co":3,"mo":3,"sa":1,"ic":1},"geometry":{"type":"Polygon","coordinates":[[[0.2463,52.4041],[0.24795,52.40365],[0.24837,52.40392],[0.24936,52.40336],[0.24828,52.40137],[0.24708,52.40052],[0.24815,52.39987],[0.24517,52.39807],[0.24693,52.39748],[0.24842,52.39816],[0.24927,52.39801],[0.24937,52.3977],[0.24644,52.39673],[0.24704,52.39626],[0.24606,52.39619],[0.24601,52.3965],[0.24526,52.39628],[0.24527,52.39525],[0.24351,52.39538],[0.24309,52.3952],[0.24283,52.39553],[0.24379,52.39583],[0.24336,52.39646],[0.24298,52.39663],[0.24233,52.39603],[0.24147,52.39638],[0.24261,52.39677],[0.24261,52.39701],[0.24112,52.39749],[0.24019,52.39815],[0.2341,52.40119],[0.23427,52.40183],[0.23489,52.40219],[0.23953,52.40256],[0.23979,52.40293],[0.23997,52.40381],[0.23939,52.40408],[0.23951,52.40458],[0.24163,52.40534],[0.24482,52.40564],[0.24659,52.40439],[0.2463,52.4041]]]}},{"type":"Feature","properties":{"id":"E01033426","name":"E01033426","parent":"E07000009","type":"LSOA","pop":2025,"r":19,"ff":9,"ffd":444.4,"ffs":0.5,"g":0,"co":3,"mo":3,"sa":1,"ic":1},"geometry":{"type":"Polygon","coordinates":[[[0.27239,52.4149],[0.27202,52.41427],[0.27122,52.41442],[0.2707,52.41335],[0.26668,52.41373],[0.26631,52.4126],[0.26719,52.41249],[0.26653,52.40967],[0.26825,52.4092],[0.26935,52.40845],[0.2688,52.4076],[0.27124,52.40673],[0.27042,52.40587],[0.26796,52.40679],[0.26755,52.40632],[0.26617,52.40663],[0.26375,52.40606],[0.26243,52.40614],[0.26195,52.4048],[0.26082,52.40498],[0.2604,52.40372],[0.25765,52.40366],[0.25712,52.40431],[0.25636,52.4066],[0.25578,52.40764],[0.25286,52.40937],[0.25341,52.40932],[0.26245,52.41348],[0.26492,52.4153],[0.26695,52.41783],[0.26779,52.42028],[0.27454,52.41841],[0.27239,52.4149]]]}},{"type":"Feature","properties":{"id":"E01033427","name":"E01033427","parent":"E07000009","type":"LSOA","pop":1363,"r":17,"ff":8,"ffd":586.9,"ffs":0.4706,"g":0,"co":1,"mo":3,"sa":3,"ic":1},"geometry":{"type":"Polygon","coordinates":[[[0.32269,52.34795],[0.32447,52.34648],[0.32412,52.34323],[0.3256,52.34331],[0.32771,52.3429],[0.32686,52.34494],[0.32747,52.34546],[0.32847,52.34537],[0.33053,52.34582],[0.33076,52.34457],[0.33167,52.34454],[0.33206,52.3448],[0.3332,52.34395],[0.33255,52.34345],[0.33293,52.34249],[0.33123,52.34171],[0.33083,52.34194],[0.32918,52.34117],[0.32985,52.34039],[0.32867,52.34033],[0.328,52.33984],[0.32637,52.33939],[0.32338,52.34162],[0.3194,52.34372],[0.31537,52.34524],[0.31624,52.34608],[0.31527,52.34641],[0.31527,52.34682],[0.31656,52.34714],[0.31719,52.34763],[0.31808,52.34739],[0.31964,52.34859],[0.32269,52.34795]]]}},{"type":"Feature","properties":{"id":"E01033429","name":"E01033429","parent":"E07000009","type":"LSOA","pop":2068,"r":17,"ff":8,"ffd":386.8,"ffs":0.4706,"g":0,"co":1,"mo":3,"sa":3,"ic":1},"geometry":{"type":"Polygon","coordinates":[[[0.34267,52.34585],[0.33989,52.34191],[0.3394,52.34159],[0.33881,52.34176],[0.33815,52.34151],[0.3373,52.3408],[0.33633,52.34117],[0.33527,52.34024],[0.33562,52.34],[0.33636,52.34009],[0.33611,52.33963],[0.3381,52.33838],[0.33789,52.33792],[0.33838,52.33748],[0.33636,52.33673],[0.33549,52.33802],[0.33505,52.3379],[0.33434,52.33876],[0.33324,52.33816],[0.33182,52.33922],[0.33005,52.33867],[0.32937,52.3388],[0.32868,52.33957],[0.328,52.33984],[0.32867,52.34033],[0.32985,52.34039],[0.32918,52.34117],[0.33083,52.34194],[0.33123,52.34171],[0.33293,52.34249],[0.33357,52.34147],[0.33424,52.34144],[0.33565,52.34198],[0.33632,52.3415],[0.33673,52.34178],[0.33675,52.34286],[0.33581,52.34263],[0.33498,52.34319],[0.33417,52.34318],[0.33377,52.34404],[0.33433,52.34507],[0.33363,52.34561],[0.33255,52.34519],[0.33139,52.34536],[0.33048,52.34717],[0.33319,52.34803],[0.33285,52.34931],[0.339,52.34766],[0.34267,52.34585]]]}},{"type":"Feature","properties":{"id":"E01033430","name":"E01033430","parent":"E07000009","type":"LSOA","pop":1358,"r":19,"ff":9,"ffd":662.7,"ffs":0.4737,"g":0,"co":3,"mo":3,"sa":1,"ic":1},"geometry":{"type":"Polygon","coordinates":[[[0.27793,52.40949],[0.27754,52.40921],[0.2772,52.40934],[0.27729,52.40852],[0.27577,52.40803],[0.27145,52.40394],[0.27105,52.40424],[0.26972,52.4039],[0.2696,52.40331],[0.26938,52.40326],[0.26951,52.40347],[0.2668,52.40426],[0.26559,52.40399],[0.26796,52.40679],[0.27042,52.40587],[0.27124,52.40673],[0.2688,52.4076],[0.26935,52.40845],[0.27027,52.40819],[0.27071,52.40873],[0.27149,52.40845],[0.27203,52.40885],[0.27248,52.40871],[0.27294,52.40932],[0.27512,52.40865],[0.27526,52.40993],[0.27704,52.40983],[0.27793,52.40949]]]}},{"type":"Feature","properties":{"id":"E01035531","name":"E01035531","parent":"E07000009","type":"LSOA","pop":1314,"r":16,"ff":9,"ffd":684.9,"ffs":0.6,"g":0,"co":3,"mo":3,"sa":3,"ic":1},"geometry":{"type":"Polygon","coordinates":[[[0.29587,52.46],[0.29598,52.4598],[0.29814,52.45983],[0.29903,52.45955],[0.2987,52.45841],[0.29985,52.45817],[0.30046,52.45938],[0.30203,52.45785],[0.30331,52.45774],[0.30359,52.4565],[0.30305,52.45648],[0.30228,52.45584],[0.30145,52.4559],[0.30097,52.45514],[0.29897,52.45497],[0.29692,52.45411],[0.29635,52.45422],[0.29629,52.45524],[0.29573,52.45557],[0.29559,52.45525],[0.29438,52.45632],[0.29336,52.45652],[0.29454,52.4566],[0.29535,52.4572],[0.29446,52.4569],[0.29489,52.4582],[0.29482,52.45857],[0.29339,52.45849],[0.2936,52.45928],[0.29339,52.45975],[0.2941,52.46007],[0.29587,52.46]]]}},{"type":"Feature","properties":{"id":"E01035532","name":"E01035532","parent":"E07000009","type":"LSOA","pop":2258,"r":16,"ff":9,"ffd":398.6,"ffs":0.6,"g":0,"co":3,"mo":3,"sa":3,"ic":1},"geometry":{"type":"Polygon","coordinates":[[[0.29458,52.46112],[0.29587,52.46],[0.2941,52.46007],[0.29339,52.45975],[0.2936,52.45928],[0.29339,52.45849],[0.29482,52.45857],[0.29489,52.4582],[0.29446,52.4569],[0.29535,52.4572],[0.29454,52.4566],[0.29336,52.45652],[0.29438,52.45632],[0.29559,52.45525],[0.29573,52.45557],[0.29629,52.45524],[0.29635,52.45422],[0.29692,52.45411],[0.29897,52.45497],[0.30097,52.45514],[0.30026,52.45395],[0.30141,52.45367],[0.30103,52.45318],[0.29997,52.45323],[0.29963,52.45265],[0.29809,52.45247],[0.29464,52.45256],[0.29448,52.45158],[0.29563,52.45149],[0.29575,52.45063],[0.29392,52.45068],[0.29371,52.44933],[0.28892,52.44992],[0.28387,52.44903],[0.28308,52.45621],[0.28381,52.45904],[0.28429,52.45996],[0.28499,52.45909],[0.28938,52.46102],[0.29168,52.46161],[0.29178,52.4619],[0.29283,52.46176],[0.29287,52.46138],[0.29357,52.46115],[0.29458,52.46112]]]}},{"type":"Feature","properties":{"id":"E01035533","name":"E01035533","parent":"E07000009","type":"LSOA","pop":1826,"r":20,"ff":9,"ffd":492.9,"ffs":0.45,"g":0,"co":3,"mo":3,"sa":1,"ic":1},"geometry":{"type":"Polygon","coordinates":[[[0.28198,52.41149],[0.28728,52.41074],[0.28631,52.40848],[0.28392,52.40714],[0.28119,52.40473],[0.27729,52.40561],[0.27765,52.40604],[0.27714,52.40646],[0.2771,52.40726],[0.28027,52.40822],[0.27854,52.40922],[0.27909,52.41016],[0.27951,52.41147],[0.28009,52.41139],[0.28019,52.41185],[0.28198,52.41149]]]}},{"type":"Feature","properties":{"id":"E01035534","name":"E01035534","parent":"E07000009","type":"LSOA","pop":1241,"r":17,"ff":7,"ffd":564.1,"ffs":0.4118,"g":0,"co":3,"mo":3,"sa":1,"ic":1},"geometry":{"type":"Polygon","coordinates":[[[0.28119,52.40473],[0.28077,52.40347],[0.276,52.40302],[0.27386,52.40241],[0.26797,52.40124],[0.2658,52.40109],[0.26332,52.40142],[0.26559,52.40399],[0.2668,52.40426],[0.26951,52.40347],[0.26938,52.40326],[0.2696,52.40331],[0.26972,52.4039],[0.27105,52.40424],[0.27145,52.40394],[0.27577,52.40803],[0.27729,52.40852],[0.27854,52.40922],[0.28027,52.40822],[0.2771,52.40726],[0.27714,52.40646],[0.27765,52.40604],[0.27729,52.40561],[0.28119,52.40473]]]}},{"type":"Feature","properties":{"id":"E01035535","name":"E01035535","parent":"E07000009","type":"LSOA","pop":2374,"r":18,"ff":9,"ffd":379.1,"ffs":0.5294,"g":0,"co":3,"mo":3,"sa":1,"ic":1},"geometry":{"type":"Polygon","coordinates":[[[0.24147,52.39638],[0.24233,52.39603],[0.24298,52.39663],[0.24336,52.39646],[0.24379,52.39583],[0.24283,52.39553],[0.24309,52.3952],[0.24351,52.39538],[0.24527,52.39525],[0.24526,52.39628],[0.24601,52.3965],[0.24606,52.39619],[0.24704,52.39626],[0.24644,52.39673],[0.24937,52.3977],[0.24927,52.39801],[0.24842,52.39816],[0.24693,52.39748],[0.24517,52.39807],[0.24815,52.39987],[0.24955,52.39952],[0.24973,52.3998],[0.25217,52.399],[0.25273,52.39913],[0.25356,52.3987],[0.2539,52.39907],[0.25535,52.39868],[0.25506,52.39812],[0.25598,52.39849],[0.25677,52.39827],[0.25302,52.39403],[0.24901,52.39096],[0.24835,52.38957],[0.24449,52.37302],[0.23559,52.37355],[0.22552,52.37775],[0.21794,52.3821],[0.21846,52.38416],[0.21813,52.38559],[0.21639,52.38694],[0.21733,52.38864],[0.21957,52.3891],[0.22008,52.38974],[0.22139,52.39011],[0.22459,52.39403],[0.22635,52.39443],[0.22858,52.396],[0.23044,52.39771],[0.23125,52.39916],[0.23328,52.39992],[0.2341,52.40119],[0.24019,52.39815],[0.24112,52.39749],[0.24261,52.39701],[0.24261,52.39677],[0.24147,52.39638]]]}}]}