{"type":"FeatureCollection","features":[{"type":"Feature","properties":{"id":"E01023289","name":"E01023289","parent":"E07000095","type":"LSOA","pop":1747,"r":193,"ff":81,"ffd":4636.5,"ffs":0.5192,"g":35,"co":0,"mo":0,"sa":0,"ic":0},"geometry":{"type":"Polygon","coordinates":[[[-0.02797,51.74972],[-0.02844,51.7482],[-0.02724,51.74877],[-0.02658,51.74859],[-0.02713,51.74811],[-0.0266,51.74789],[-0.02685,51.74734],[-0.0262,51.74767],[-0.02617,51.74712],[-0.02555,51.74686],[-0.0254,51.74739],[-0.02442,51.74778],[-0.02337,51.74739],[-0.02386,51.74682],[-0.02321,51.74657],[-0.02344,51.74589],[-0.02449,51.74598],[-0.02489,51.74547],[-0.02353,51.74492],[-0.02447,51.7443],[-0.02414,51.74403],[-0.02469,51.74346],[-0.02359,51.74313],[-0.02377,51.74271],[-0.02451,51.74283],[-0.02475,51.74254],[-0.02414,51.74227],[-0.02413,51.7417],[-0.02586,51.74085],[-0.02626,51.7403],[-0.02867,51.73957],[-0.032,51.73767],[-0.03274,51.73799],[-0.03944,51.73937],[-0.04237,51.73956],[-0.0429,51.73937],[-0.04545,51.73979],[-0.04601,51.73997],[-0.04589,51.74065],[-0.04831,51.74118],[-0.04859,51.74187],[-0.05026,51.74174],[-0.0524,51.74238],[-0.05069,51.74421],[-0.05074,51.74696],[-0.04988,51.75088],[-0.02787,51.75004],[-0.02797,51.74972]]]}},{"type":"Feature","properties":{"id":"E01023290","name":"E01023290","parent":"E07000095","type":"LSOA","pop":1581,"r":190,"ff":78,"ffd":4933.6,"ffs":0.5065,"g":34,"co":0,"mo":0,"sa":0,"ic":0},"geometry":{"type":"Polygon","coordinates":[[[-0.02466,51.75383],[-0.02426,51.75188],[-0.02075,51.75183],[-0.02098,51.75132],[-0.02158,51.75127],[-0.02081,51.75086],[-0.01908,51.75084],[-0.01795,51.75043],[-0.01857,51.74974],[-0.01931,51.74993],[-0.01911,51.74959],[-0.0186,51.74964],[-0.01922,51.7475],[-0.01886,51.74717],[-0.01911,51.747],[-0.01954,51.74725],[-0.02005,51.74679],[-0.01954,51.74647],[-0.01952,51.74611],[-0.02045,51.74618],[-0.02151,51.74552],[-0.02079,51.74508],[-0.02129,51.74461],[-0.02234,51.74491],[-0.0227,51.74442],[-0.02214,51.74416],[-0.02242,51.74366],[-0.02181,51.74369],[-0.02297,51.74233],[-0.02377,51.74271],[-0.02359,51.74313],[-0.02469,51.74346],[-0.02414,51.74403],[-0.02447,51.7443],[-0.02353,51.74492],[-0.02489,51.74547],[-0.02449,51.74598],[-0.02344,51.74589],[-0.02321,51.74657],[-0.02386,51.74682],[-0.02337,51.74739],[-0.02442,51.74778],[-0.0254,51.74739],[-0.02555,51.74686],[-0.02617,51.74712],[-0.0262,51.74767],[-0.02685,51.74734],[-0.0266,51.74789],[-0.02713,51.74811],[-0.02658,51.74859],[-0.02724,51.74877],[-0.02844,51.7482],[-0.02787,51.75004],[-0.02519,51.75378],[-0.02466,51.75383]]]}},{"type":"Feature","properties":{"id":"E01023291","name":"E01023291","parent":"E07000095","type":"LSOA","pop":1555,"r":198,"ff":80,"ffd":5144.7,"ffs":0.5063,"g":38,"co":0,"mo":0,"sa":0,"ic":0},"geometry":{"type":"Polygon","coordinates":[[[-0.01156,51.75227],[-0.01119,51.7499],[-0.00937,51.74931],[-0.00913,51.74881],[-0.00807,51.74843],[-0.01094,51.74512],[-0.00956,51.745],[-0.00962,51.74401],[-0.01138,51.7449],[-0.01194,51.7438],[-0.01327,51.74486],[-0.01662,51.74536],[-0.01754,51.7463],[-0.01713,51.74638],[-0.01667,51.74724],[-0.01753,51.74697],[-0.01831,51.74716],[-0.01865,51.74799],[-0.01896,51.74799],[-0.0186,51.74964],[-0.01911,51.74959],[-0.01931,51.74993],[-0.01857,51.74974],[-0.01795,51.75043],[-0.01908,51.75084],[-0.02081,51.75086],[-0.02158,51.75127],[-0.02098,51.75132],[-0.02075,51.75183],[-0.01606,51.752],[-0.01497,51.75282],[-0.01156,51.75227]]]}},{"type":"Feature","properties":{"id":"E01023292","name":"E01023292","parent":"E07000095","type":"LSOA","pop":1597,"r":204,"ff":86,"ffd":5385.1,"ffs":0.5212,"g":37,"co":0,"mo":0,"sa":0,"ic":0},"geometry":{"type":"Polygon","coordinates":[[[-0.01831,51.74716],[-0.01753,51.74697],[-0.01667,51.74724],[-0.01713,51.74638],[-0.01754,51.7463],[-0.01662,51.74536],[-0.01327,51.74486],[-0.01194,51.7438],[-0.01138,51.7449],[-0.00962,51.74401],[-0.00956,51.745],[-0.00425,51.74535],[-0.00083,51.74616],[0.00153,51.74546],[0.00084,51.74483],[-0.00493,51.74208],[-0.00648,51.74168],[-0.00714,51.74169],[-0.01228,51.743],[-0.01282,51.74284],[-0.01349,51.74224],[-0.01359,51.74127],[-0.01265,51.7377],[-0.01375,51.7354],[-0.01533,51.73524],[-0.01606,51.73369],[-0.01852,51.734],[-0.01661,51.73815],[-0.02031,51.739],[-0.0214,51.73964],[-0.02261,51.7398],[-0.02249,51.73846],[-0.02543,51.73921],[-0.02648,51.73707],[-0.02474,51.73678],[-0.02552,51.73544],[-0.0285,51.73615],[-0.032,51.73767],[-0.02867,51.73957],[-0.02626,51.7403],[-0.02586,51.74085],[-0.02413,51.7417],[-0.02414,51.74227],[-0.02475,51.74254],[-0.02451,51.74283],[-0.02297,51.74233],[-0.02181,51.74369],[-0.02242,51.74366],[-0.02214,51.74416],[-0.0227,51.74442],[-0.02234,51.74491],[-0.02129,51.74461],[-0.02079,51.74508],[-0.02151,51.74552],[-0.02045,51.74618],[-0.01952,51.74611],[-0.01954,51.74647],[-0.02005,51.74679],[-0.01954,51.74725],[-0.01911,51.747],[-0.01886,51.74717],[-0.01922,51.7475],[-0.01896,51.74799],[-0.01865,51.74799],[-0.01831,51.74716]]]}},{"type":"Feature","properties":{"id":"E01023293","name":"E01023293","parent":"E07000095","type":"LSOA","pop":1810,"r":293,"ff":127,"ffd":7016.6,"ffs":0.5336,"g":53,"co":0,"mo":2,"sa":0,"ic":0},"geometry":{"type":"Polygon","coordinates":[[[-0.05938,51.70708],[-0.05817,51.70477],[-0.05869,51.7044],[-0.05805,51.70355],[-0.056,51.70222],[-0.05331,51.7021],[-0.05409,51.70166],[-0.05149,51.70156],[-0.05156,51.70103],[-0.05209,51.70073],[-0.05156,51.70019],[-0.05206,51.70006],[-0.05263,51.70025],[-0.05314,51.70004],[-0.05375,51.70034],[-0.05351,51.69947],[-0.05401,51.69934],[-0.05411,51.69803],[-0.05281,51.69807],[-0.05253,51.69865],[-0.05213,51.69844],[-0.05267,51.69668],[-0.0527,51.69323],[-0.05105,51.6928],[-0.05063,51.6938],[-0.05108,51.69688],[-0.04971,51.69903],[-0.047,51.69866],[-0.04532,51.69812],[-0.04462,51.69756],[-0.04498,51.69378],[-0.04515,51.68904],[-0.04578,51.6873],[-0.04893,51.68405],[-0.04918,51.68427],[-0.05169,51.68353],[-0.05546,51.68317],[-0.0611,51.68291],[-0.06548,51.68363],[-0.07784,51.68843],[-0.07718,51.69258],[-0.07412,51.691],[-0.07366,51.69135],[-0.07098,51.6918],[-0.07023,51.69419],[-0.06935,51.69514],[-0.06932,51.69696],[-0.07077,51.69705],[-0.07049,51.70007],[-0.06889,51.69999],[-0.06902,51.70101],[-0.06397,51.70096],[-0.06355,51.70268],[-0.06117,51.7069],[-0.06084,51.70656],[-0.05938,51.70708]]]}},{"type":"Feature","properties":{"id":"E01023294","name":"E01023294","parent":"E07000095","type":"LSOA","pop":2005,"r":316,"ff":143,"ffd":7132.2,"ffs":0.55,"g":54,"co":0,"mo":0,"sa":0,"ic":0},"geometry":{"type":"Polygon","coordinates":[[[-0.04127,51.70836],[-0.04335,51.70524],[-0.0431,51.70223],[-0.04462,51.69756],[-0.04532,51.69812],[-0.047,51.69866],[-0.04924,51.69999],[-0.04887,51.70048],[-0.04672,51.70029],[-0.04683,51.70082],[-0.04897,51.70197],[-0.04939,51.70438],[-0.04926,51.70525],[-0.04868,51.70544],[-0.04976,51.70693],[-0.04973,51.70847],[-0.04672,51.7082],[-0.04521,51.70854],[-0.04503,51.70893],[-0.04127,51.70836]]]}},{"type":"Feature","properties":{"id":"E01023295","name":"E01023295","parent":"E07000095","type":"LSOA","pop":1364,"r":312,"ff":138,"ffd":10117.3,"ffs":0.5412,"g":55,"co":0,"mo":0,"sa":0,"ic":0},"geometry":{"type":"Polygon","coordinates":[[[-0.04521,51.70854],[-0.04672,51.7082],[-0.04973,51.70847],[-0.04976,51.70693],[-0.04868,51.70544],[-0.04926,51.70525],[-0.04939,51.70438],[-0.05083,51.70546],[-0.05231,51.70515],[-0.0564,51.70521],[-0.05817,51.70477],[-0.05938,51.70708],[-0.06084,51.70656],[-0.06117,51.7069],[-0.06103,51.70899],[-0.0532,51.70838],[-0.05264,51.70971],[-0.04503,51.70893],[-0.04521,51.70854]]]}},{"type":"Feature","properties":{"id":"E01023296","name":"E01023296","parent":"E07000095","type":"LSOA","pop":1930,"r":296,"ff":130,"ffd":6735.8,"ffs":0.5439,"g":55,"co":0,"mo":2,"sa":0,"ic":0},"geometry":{"type":"Polygon","coordinates":[[[-0.04683,51.70082],[-0.04672,51.70029],[-0.04887,51.70048],[-0.04924,51.69999],[-0.047,51.69866],[-0.04971,51.69903],[-0.05108,51.69688],[-0.05063,51.6938],[-0.05105,51.6928],[-0.0527,51.69323],[-0.05267,51.69668],[-0.05213,51.69844],[-0.05253,51.69865],[-0.05281,51.69807],[-0.05411,51.69803],[-0.05401,51.69934],[-0.05351,51.69947],[-0.05375,51.70034],[-0.05314,51.70004],[-0.05263,51.70025],[-0.05206,51.70006],[-0.05156,51.70019],[-0.05209,51.70073],[-0.05156,51.70103],[-0.05149,51.70156],[-0.05409,51.70166],[-0.05331,51.7021],[-0.056,51.70222],[-0.05805,51.70355],[-0.05869,51.7044],[-0.05817,51.70477],[-0.0564,51.70521],[-0.05231,51.70515],[-0.05083,51.70546],[-0.04939,51.70438],[-0.04897,51.70197],[-0.04683,51.70082]]]}},{"type":"Feature","properties":{"id":"E01023297","name":"E01023297","parent":"E07000095","type":"LSOA","pop":1378,"r":280,"ff":124,"ffd":8998.5,"ffs":0.5415,"g":50,"co":0,"mo":0,"sa":0,"ic":0},"geometry":{"type":"Polygon","coordinates":[[[-0.04072,51.70791],[-0.04002,51.70777],[-0.03954,51.70799],[-0.03928,51.70773],[-0.03991,51.7071],[-0.04112,51.70674],[-0.0405,51.70612],[-0.0399,51.70608],[-0.03941,51.70661],[-0.03853,51.70626],[-0.0383,51.70663],[-0.03768,51.70653],[-0.0377,51.7047],[-0.03636,51.70499],[-0.03498,51.70321],[-0.03612,51.70286],[-0.03618,51.70231],[-0.0399,51.7028],[-0.04304,51.70262],[-0.04335,51.70524],[-0.04127,51.70836],[-0.04064,51.70828],[-0.04072,51.70791]]]}},{"type":"Feature","properties":{"id":"E01023298","name":"E01023298","parent":"E07000095","type":"LSOA","pop":1578,"r":244,"ff":106,"ffd":6717.4,"ffs":0.5196,"g":39,"co":0,"mo":0,"sa":0,"ic":0},"geometry":{"type":"Polygon","coordinates":[[[-0.02559,51.70833],[-0.02785,51.7072],[-0.02832,51.70729],[-0.02811,51.70634],[-0.02897,51.70622],[-0.02861,51.7056],[-0.02817,51.70562],[-0.02805,51.70463],[-0.02567,51.70493],[-0.02695,51.70362],[-0.02696,51.70315],[-0.0294,51.70313],[-0.02878,51.70434],[-0.02924,51.70431],[-0.02955,51.70497],[-0.03069,51.70498],[-0.03136,51.70521],[-0.03135,51.70461],[-0.03341,51.70444],[-0.03372,51.70475],[-0.03329,51.70486],[-0.03337,51.70557],[-0.03169,51.70615],[-0.03165,51.70643],[-0.03421,51.70669],[-0.034,51.70702],[-0.03442,51.70704],[-0.03459,51.70767],[-0.03503,51.70778],[-0.0347,51.7081],[-0.03552,51.70862],[-0.0351,51.70938],[-0.03424,51.7098],[-0.02559,51.70833]]]}},{"type":"Feature","properties":{"id":"E01023299","name":"E01023299","parent":"E07000095","type":"LSOA","pop":1996,"r":252,"ff":112,"ffd":5611.2,"ffs":0.5333,"g":41,"co":0,"mo":0,"sa":0,"ic":0},"geometry":{"type":"Polygon","coordinates":[[[-0.01757,51.7074],[-0.01974,51.70322],[-0.01879,51.69965],[-0.02429,51.69976],[-0.02751,51.70087],[-0.02809,51.70087],[-0.02812,51.70046],[-0.02976,51.70058],[-0.03007,51.70158],[-0.03169,51.70147],[-0.03172,51.70274],[-0.03367,51.70275],[-0.03397,51.7035],[-0.03387,51.7037],[-0.03305,51.70365],[-0.03258,51.70306],[-0.03256,51.70405],[-0.03178,51.70411],[-0.03191,51.70446],[-0.03243,51.70446],[-0.03135,51.70461],[-0.03136,51.70521],[-0.03069,51.70498],[-0.02955,51.70497],[-0.02924,51.70431],[-0.02878,51.70434],[-0.0294,51.70313],[-0.02696,51.70315],[-0.02695,51.70362],[-0.02567,51.70493],[-0.02805,51.70463],[-0.02817,51.70562],[-0.02861,51.7056],[-0.02897,51.70622],[-0.02811,51.70634],[-0.02832,51.70729],[-0.02785,51.7072],[-0.02559,51.70833],[-0.01757,51.7074]]]}},{"type":"Feature","properties":{"id":"E01023300","name":"E01023300","parent":"E07000095","type":"LSOA","pop":1615,"r":251,"ff":108,"ffd":6687.3,"ffs":0.5217,"g":43,"co":0,"mo":0,"sa":0,"ic":0},"geometry":{"type":"Polygon","coordinates":[[[-0.03172,51.70274],[-0.03169,51.70147],[-0.03007,51.70158],[-0.02976,51.70058],[-0.02812,51.70046],[-0.02809,51.70087],[-0.02751,51.70087],[-0.02429,51.69976],[-0.02478,51.69873],[-0.02643,51.69706],[-0.0266,51.69737],[-0.03212,51.69754],[-0.03457,51.69739],[-0.03431,51.69939],[-0.03451,51.70112],[-0.03352,51.70191],[-0.03299,51.7019],[-0.03261,51.7028],[-0.03172,51.70274]]]}},{"type":"Feature","properties":{"id":"E01023301","name":"E01023301","parent":"E07000095","type":"LSOA","pop":1980,"r":271,"ff":118,"ffd":5959.6,"ffs":0.5315,"g":48,"co":0,"mo":0,"sa":0,"ic":0},"geometry":{"type":"Polygon","coordinates":[[[-0.0347,51.7081],[-0.03503,51.70778],[-0.03459,51.70767],[-0.03442,51.70704],[-0.034,51.70702],[-0.03421,51.70669],[-0.03165,51.70643],[-0.03169,51.70615],[-0.03337,51.70557],[-0.03329,51.70486],[-0.03372,51.70475],[-0.03341,51.70444],[-0.03191,51.70446],[-0.03178,51.70411],[-0.03256,51.70405],[-0.03258,51.70306],[-0.03305,51.70365],[-0.03387,51.7037],[-0.03397,51.7035],[-0.03367,51.70275],[-0.03261,51.7028],[-0.03299,51.7019],[-0.03352,51.70191],[-0.03451,51.70112],[-0.03486,51.70222],[-0.03618,51.70231],[-0.03612,51.70286],[-0.03498,51.70321],[-0.03636,51.70499],[-0.0377,51.7047],[-0.03768,51.70653],[-0.0383,51.70663],[-0.03853,51.70626],[-0.03941,51.70661],[-0.0399,51.70608],[-0.0405,51.70612],[-0.04112,51.70674],[-0.03991,51.7071],[-0.03928,51.70773],[-0.03954,51.70799],[-0.04002,51.70777],[-0.04072,51.70791],[-0.04064,51.70828],[-0.03738,51.70789],[-0.0368,51.70906],[-0.03534,51.71003],[-0.03424,51.7098],[-0.0351,51.70938],[-0.03552,51.70862],[-0.0347,51.7081]]]}},{"type":"Feature","properties":{"id":"E01023302","name":"E01023302","parent":"E07000095","type":"LSOA","pop":1482,"r":238,"ff":105,"ffd":7085.0,"ffs":0.5385,"g":41,"co":0,"mo":0,"sa":0,"ic":0},"geometry":{"type":"Polygon","coordinates":[[[-0.03388,51.71348],[-0.03219,51.71304],[-0.0316,51.71338],[-0.02671,51.71266],[-0.02554,51.71147],[-0.02751,51.71028],[-0.02889,51.7105],[-0.0291,51.71001],[-0.03071,51.70993],[-0.03151,51.71043],[-0.03144,51.7109],[-0.03242,51.71105],[-0.03297,51.71042],[-0.034,51.71003],[-0.03415,51.71038],[-0.03568,51.71075],[-0.0354,51.71154],[-0.03478,51.71202],[-0.03511,51.71271],[-0.03559,51.71302],[-0.03468,51.71341],[-0.03426,51.71317],[-0.03388,51.71348]]]}},{"type":"Feature","properties":{"id":"E01023303","name":"E01023303","parent":"E07000095","type":"LSOA","pop":1580,"r":253,"ff":110,"ffd":6962.0,"ffs":0.5263,"g":42,"co":0,"mo":0,"sa":0,"ic":0},"geometry":{"type":"Polygon","coordinates":[[[-0.034,51.71003],[-0.03417,51.70979],[-0.03534,51.71003],[-0.0368,51.70906],[-0.03738,51.70789],[-0.04237,51.70853],[-0.04202,51.70949],[-0.04067,51.71014],[-0.04025,51.71426],[-0.04089,51.71442],[-0.04001,51.71488],[-0.03891,51.71422],[-0.03902,51.71357],[-0.03643,51.71335],[-0.03648,51.71304],[-0.03559,51.71302],[-0.03511,51.71271],[-0.03478,51.71202],[-0.0354,51.71154],[-0.03568,51.71075],[-0.03415,51.71038],[-0.034,51.71003]]]}},{"type":"Feature","properties":{"id":"E01023304","name":"E01023304","parent":"E07000095","type":"LSOA","pop":1582,"r":239,"ff":103,"ffd":6510.7,"ffs":0.5255,"g":41,"co":0,"mo":0,"sa":0,"ic":0},"geometry":{"type":"Polygon","coordinates":[[[-0.03238,51.71606],[-0.02936,51.7156],[-0.02878,51.71597],[-0.02797,51.71591],[-0.03052,51.714],[-0.03047,51.71355],[-0.02964,51.71361],[-0.02982,51.71385],[-0.02883,51.71444],[-0.02678,51.71424],[-0.02693,51.71327],[-0.02193,51.71282],[-0.02021,51.7121],[-0.01644,51.71165],[-0.01757,51.70743],[-0.02559,51.70833],[-0.03417,51.70979],[-0.034,51.71003],[-0.03297,51.71042],[-0.03242,51.71105],[-0.03144,51.7109],[-0.03151,51.71043],[-0.03071,51.70993],[-0.0291,51.71001],[-0.02889,51.7105],[-0.02751,51.71028],[-0.02554,51.71147],[-0.02671,51.71266],[-0.0316,51.71338],[-0.03219,51.71304],[-0.03388,51.71348],[-0.03287,51.71473],[-0.03238,51.71606]]]}},{"type":"Feature","properties":{"id":"E01023305","name":"E01023305","parent":"E07000095","type":"LSOA","pop":1403,"r":273,"ff":111,"ffd":7911.6,"ffs":0.5045,"g":51,"co":0,"mo":0,"sa":0,"ic":0},"geometry":{"type":"Polygon","coordinates":[[[-0.02947,51.71707],[-0.02959,51.71677],[-0.02911,51.71666],[-0.02755,51.71707],[-0.02766,51.71634],[-0.03342,51.71686],[-0.03355,51.71656],[-0.03243,51.71642],[-0.03238,51.71606],[-0.03287,51.71473],[-0.03426,51.71317],[-0.03468,51.71341],[-0.03559,51.71302],[-0.03648,51.71304],[-0.03643,51.71335],[-0.03902,51.71357],[-0.03891,51.71422],[-0.04001,51.71488],[-0.04089,51.71442],[-0.04259,51.71485],[-0.04237,51.71547],[-0.03928,51.71682],[-0.03935,51.71941],[-0.03725,51.72149],[-0.03578,51.72081],[-0.03135,51.7198],[-0.03271,51.71913],[-0.03174,51.71898],[-0.03189,51.7179],[-0.03244,51.71782],[-0.03228,51.71735],[-0.02947,51.71707]]]}},{"type":"Feature","properties":{"id":"E01023306","name":"E01023306","parent":"E07000095","type":"LSOA","pop":1529,"r":234,"ff":98,"ffd":6409.4,"ffs":0.5158,"g":42,"co":0,"mo":0,"sa":0,"ic":0},"geometry":{"type":"Polygon","coordinates":[[[-0.02553,51.71747],[-0.02478,51.7169],[-0.02246,51.71686],[-0.02187,51.71832],[-0.01504,51.71724],[-0.01644,51.71165],[-0.02021,51.7121],[-0.02193,51.71282],[-0.02693,51.71327],[-0.02678,51.71424],[-0.02883,51.71444],[-0.02982,51.71385],[-0.02964,51.71361],[-0.03047,51.71355],[-0.03052,51.714],[-0.02797,51.71591],[-0.02878,51.71597],[-0.02936,51.7156],[-0.03238,51.71606],[-0.03243,51.71642],[-0.03355,51.71656],[-0.03342,51.71686],[-0.02766,51.71634],[-0.02755,51.71707],[-0.02911,51.71666],[-0.02959,51.71677],[-0.02947,51.71707],[-0.03228,51.71735],[-0.03244,51.71782],[-0.03189,51.7179],[-0.03174,51.71898],[-0.03271,51.71913],[-0.03135,51.7198],[-0.02537,51.71873],[-0.02553,51.71747]]]}},{"type":"Feature","properties":{"id":"E01023307","name":"E01023307","parent":"E07000095","type":"LSOA","pop":1552,"r":255,"ff":102,"ffd":6572.2,"ffs":0.505,"g":52,"co":0,"mo":0,"sa":2,"ic":0},"geometry":{"type":"Polygon","coordinates":[[[-0.08887,51.73531],[-0.08144,51.7344],[-0.06878,51.73423],[-0.06536,51.7347],[-0.06282,51.73446],[-0.05656,51.7347],[-0.05684,51.73439],[-0.04646,51.73329],[-0.0414,51.73212],[-0.04682,51.72201],[-0.04344,51.7172],[-0.04519,51.71579],[-0.04861,51.71549],[-0.05001,51.71589],[-0.05101,51.71455],[-0.0516,51.71516],[-0.05292,51.71566],[-0.05851,51.72073],[-0.06041,51.7212],[-0.06236,51.72149],[-0.06686,51.72148],[-0.06855,51.72202],[-0.07194,51.72243],[-0.07201,51.72209],[-0.07257,51.72207],[-0.07253,51.72156],[-0.07379,51.72151],[-0.0738,51.72099],[-0.07266,51.72097],[-0.07247,51.72039],[-0.07116,51.72029],[-0.07123,51.72],[-0.07497,51.72074],[-0.08403,51.72454],[-0.08796,51.7249],[-0.09334,51.72483],[-0.10197,51.72515],[-0.10526,51.72611],[-0.10745,51.72547],[-0.10547,51.72771],[-0.10535,51.7289],[-0.10457,51.72921],[-0.10306,51.72922],[-0.10181,51.73008],[-0.10232,51.73172],[-0.1018,51.7318],[-0.10146,51.73298],[-0.09861,51.73593],[-0.08887,51.73531]]]}},{"type":"Feature","properties":{"id":"E01023308","name":"E01023308","parent":"E07000095","type":"LSOA","pop":1708,"r":272,"ff":115,"ffd":6733.0,"ffs":0.5275,"g":52,"co":0,"mo":0,"sa":0,"ic":0},"geometry":{"type":"Polygon","coordinates":[[[-0.06855,51.72202],[-0.06686,51.72148],[-0.06236,51.72149],[-0.06041,51.7212],[-0.06095,51.72073],[-0.06241,51.72061],[-0.06226,51.72012],[-0.06063,51.71985],[-0.06058,51.71864],[-0.06105,51.7177],[-0.06211,51.71812],[-0.06451,51.71827],[-0.06882,51.71964],[-0.07123,51.72],[-0.07116,51.72029],[-0.07247,51.72039],[-0.07266,51.72097],[-0.0738,51.72099],[-0.07379,51.72151],[-0.07253,51.72156],[-0.07257,51.72207],[-0.07201,51.72209],[-0.07194,51.72243],[-0.06855,51.72202]]]}},{"type":"Feature","properties":{"id":"E01023309","name":"E01023309","parent":"E07000095","type":"LSOA","pop":1651,"r":272,"ff":118,"ffd":7147.2,"ffs":0.5388,"g":52,"co":0,"mo":0,"sa":0,"ic":0},"geometry":{"type":"Polygon","coordinates":[[[-0.0516,51.71516],[-0.05101,51.71455],[-0.05001,51.71589],[-0.04861,51.71549],[-0.04986,51.71423],[-0.04978,51.71352],[-0.0489,51.71373],[-0.04856,51.7132],[-0.04793,51.71327],[-0.04822,51.71355],[-0.0479,51.71381],[-0.04658,51.71348],[-0.04704,51.71271],[-0.04777,51.71239],[-0.05033,51.71231],[-0.05131,51.71347],[-0.05431,51.71431],[-0.05768,51.71584],[-0.06105,51.7177],[-0.06058,51.71864],[-0.06063,51.71985],[-0.06226,51.72012],[-0.06241,51.72061],[-0.06095,51.72073],[-0.06041,51.7212],[-0.05851,51.72073],[-0.05292,51.71566],[-0.0516,51.71516]]]}},{"type":"Feature","properties":{"id":"E01023310","name":"E01023310","parent":"E07000095","type":"LSOA","pop":2888,"r":260,"ff":114,"ffd":3947.4,"ffs":0.5352,"g":46,"co":0,"mo":0,"sa":0,"ic":0},"geometry":{"type":"Polygon","coordinates":[[[-0.04025,51.71426],[-0.04067,51.71014],[-0.04202,51.70949],[-0.04237,51.70853],[-0.04923,51.70946],[-0.05033,51.71231],[-0.04777,51.71239],[-0.04704,51.71271],[-0.04658,51.71348],[-0.0479,51.71381],[-0.04822,51.71355],[-0.04793,51.71327],[-0.04856,51.7132],[-0.0489,51.71373],[-0.04978,51.71352],[-0.04986,51.71423],[-0.04861,51.71549],[-0.04519,51.71579],[-0.04344,51.7172],[-0.04682,51.72201],[-0.0414,51.73212],[-0.03349,51.73036],[-0.03296,51.72964],[-0.0299,51.7278],[-0.02827,51.72733],[-0.03173,51.72318],[-0.0335,51.72234],[-0.03725,51.72149],[-0.03935,51.71941],[-0.03928,51.71682],[-0.04237,51.71547],[-0.04259,51.71485],[-0.04025,51.71426]]]}},{"type":"Feature","properties":{"id":"E01023311","name":"E01023311","parent":"E07000095","type":"LSOA","pop":2269,"r":281,"ff":118,"ffd":5200.5,"ffs":0.5244,"g":54,"co":2,"mo":2,"sa":0,"ic":0},"geometry":{"type":"Polygon","coordinates":[[[-0.08559,51.72046],[-0.08442,51.71996],[-0.08411,51.7202],[-0.07981,51.71858],[-0.07965,51.71903],[-0.07758,51.71983],[-0.07803,51.71829],[-0.07659,51.71745],[-0.07407,51.71705],[-0.07238,51.71752],[-0.07385,51.71593],[-0.07852,51.71545],[-0.08182,51.71575],[-0.08653,51.715],[-0.08719,51.71411],[-0.08509,51.71281],[-0.08488,51.71234],[-0.08539,51.71156],[-0.08388,51.71112],[-0.08198,51.71117],[-0.07974,51.71031],[-0.07554,51.71017],[-0.07559,51.71098],[-0.07443,51.71115],[-0.073,51.71054],[-0.07174,51.71188],[-0.06853,51.71226],[-0.0675,51.71166],[-0.06468,51.71099],[-0.06525,51.70964],[-0.06888,51.7099],[-0.06935,51.7065],[-0.07386,51.70671],[-0.07337,51.70624],[-0.07233,51.70633],[-0.06971,51.70528],[-0.06807,51.70431],[-0.06355,51.70268],[-0.06397,51.70096],[-0.06902,51.70101],[-0.06889,51.69999],[-0.07049,51.70007],[-0.07077,51.69705],[-0.06932,51.69696],[-0.06935,51.69514],[-0.07023,51.69419],[-0.07098,51.6918],[-0.07366,51.69135],[-0.07412,51.691],[-0.07718,51.69258],[-0.07784,51.68843],[-0.079,51.68891],[-0.08482,51.69009],[-0.09015,51.6899],[-0.09429,51.69008],[-0.09838,51.69091],[-0.0977,51.69702],[-0.08912,51.69651],[-0.09001,51.70158],[-0.08911,51.7022],[-0.08986,51.70476],[-0.08889,51.70453],[-0.08827,51.70611],[-0.08833,51.70726],[-0.08925,51.70754],[-0.08993,51.70733],[-0.09101,51.70773],[-0.09074,51.70903],[-0.09127,51.70912],[-0.09249,51.70591],[-0.09299,51.70597],[-0.09288,51.70779],[-0.09256,51.70832],[-0.09323,51.70857],[-0.09208,51.70854],[-0.09192,51.70925],[-0.09475,51.70901],[-0.09526,51.70945],[-0.09483,51.70949],[-0.09523,51.71112],[-0.09361,51.7106],[-0.09309,51.71007],[-0.09195,51.71015],[-0.09251,51.71061],[-0.09217,51.71165],[-0.09277,51.71179],[-0.09084,51.71289],[-0.09104,51.71322],[-0.09067,51.71341],[-0.09035,51.71312],[-0.08995,51.71332],[-0.09019,51.71371],[-0.08978,51.71383],[-0.09194,51.71813],[-0.09226,51.71965],[-0.09072,51.71982],[-0.08977,51.71955],[-0.08745,51.72035],[-0.08559,51.72046]]]}},{"type":"Feature","properties":{"id":"E01023312","name":"E01023312","parent":"E07000095","type":"LSOA","pop":1739,"r":274,"ff":116,"ffd":6670.5,"ffs":0.5297,"g":53,"co":0,"mo":0,"sa":0,"ic":0},"geometry":{"type":"Polygon","coordinates":[[[-0.06481,51.71836],[-0.06451,51.71827],[-0.06579,51.71721],[-0.06811,51.71749],[-0.06939,51.71502],[-0.06822,51.71487],[-0.06795,51.71445],[-0.06636,51.71399],[-0.0675,51.71166],[-0.06853,51.71226],[-0.07174,51.71188],[-0.073,51.71054],[-0.07443,51.71115],[-0.07559,51.71098],[-0.07554,51.71017],[-0.07974,51.71031],[-0.08198,51.71117],[-0.08388,51.71112],[-0.08539,51.71156],[-0.08488,51.71234],[-0.08509,51.71281],[-0.08719,51.71411],[-0.08653,51.715],[-0.08182,51.71575],[-0.07852,51.71545],[-0.07385,51.71593],[-0.07238,51.71752],[-0.07407,51.71705],[-0.0756,51.71724],[-0.07575,51.71859],[-0.07333,51.71845],[-0.07295,51.71913],[-0.07228,51.71941],[-0.07212,51.72011],[-0.06882,51.71964],[-0.06481,51.71836]]]}},{"type":"Feature","properties":{"id":"E01023313","name":"E01023313","parent":"E07000095","type":"LSOA","pop":1675,"r":272,"ff":114,"ffd":6806.0,"ffs":0.5229,"g":52,"co":2,"mo":2,"sa":2,"ic":0},"geometry":{"type":"Polygon","coordinates":[[[-0.09019,51.71371],[-0.08995,51.71332],[-0.09035,51.71312],[-0.09067,51.71341],[-0.09104,51.71322],[-0.09084,51.71289],[-0.09277,51.71179],[-0.09217,51.71165],[-0.09251,51.71061],[-0.09195,51.71015],[-0.09309,51.71007],[-0.09361,51.7106],[-0.09523,51.71112],[-0.09483,51.70949],[-0.09526,51.70945],[-0.09475,51.70901],[-0.09192,51.70925],[-0.09208,51.70854],[-0.09323,51.70857],[-0.09256,51.70832],[-0.09288,51.70779],[-0.09299,51.70597],[-0.09249,51.70591],[-0.09127,51.70912],[-0.09074,51.70903],[-0.09101,51.70773],[-0.08993,51.70733],[-0.08925,51.70754],[-0.08833,51.70726],[-0.08827,51.70611],[-0.08889,51.70453],[-0.08986,51.70476],[-0.08911,51.7022],[-0.09001,51.70158],[-0.08912,51.69651],[-0.0977,51.69702],[-0.09838,51.69091],[-0.10578,51.69188],[-0.10606,51.69262],[-0.10567,51.69434],[-0.1064,51.69675],[-0.10629,51.69776],[-0.10749,51.70551],[-0.10723,51.70737],[-0.10726,51.70888],[-0.1076,51.71141],[-0.10733,51.71279],[-0.10558,51.71362],[-0.10812,51.71425],[-0.11268,51.71788],[-0.11418,51.72034],[-0.11387,51.72095],[-0.10901,51.7241],[-0.10745,51.72547],[-0.10526,51.72611],[-0.10197,51.72515],[-0.09334,51.72483],[-0.09311,51.72222],[-0.09194,51.71813],[-0.08978,51.71383],[-0.09019,51.71371]]]}},{"type":"Feature","properties":{"id":"E01023314","name":"E01023314","parent":"E07000095","type":"LSOA","pop":1595,"r":319,"ff":144,"ffd":9028.2,"ffs":0.5517,"g":56,"co":0,"mo":0,"sa":0,"ic":0},"geometry":{"type":"Polygon","coordinates":[[[-0.0646,51.71353],[-0.06146,51.71328],[-0.06048,51.71338],[-0.06043,51.71241],[-0.06126,51.71069],[-0.06103,51.70899],[-0.06117,51.7069],[-0.06355,51.70268],[-0.06807,51.70431],[-0.06971,51.70528],[-0.07233,51.70633],[-0.07337,51.70624],[-0.07386,51.70671],[-0.06935,51.7065],[-0.06888,51.7099],[-0.06525,51.70964],[-0.06468,51.71099],[-0.0675,51.71166],[-0.06636,51.71399],[-0.0646,51.71353]]]}},{"type":"Feature","properties":{"id":"E01023315","name":"E01023315","parent":"E07000095","type":"LSOA","pop":1765,"r":250,"ff":102,"ffd":5779.0,"ffs":0.5152,"g":51,"co":0,"mo":0,"sa":2,"ic":0},"geometry":{"type":"Polygon","coordinates":[[[-0.07479,51.72067],[-0.07212,51.72011],[-0.07228,51.71941],[-0.07295,51.71913],[-0.07333,51.71845],[-0.07575,51.71859],[-0.0756,51.71724],[-0.07659,51.71745],[-0.07803,51.71829],[-0.07758,51.71983],[-0.07965,51.71903],[-0.07981,51.71858],[-0.08411,51.7202],[-0.08442,51.71996],[-0.08559,51.72046],[-0.08745,51.72035],[-0.08977,51.71955],[-0.09072,51.71982],[-0.09226,51.71965],[-0.09311,51.72222],[-0.09334,51.72483],[-0.08796,51.7249],[-0.08403,51.72454],[-0.07479,51.72067]]]}},{"type":"Feature","properties":{"id":"E01023316","name":"E01023316","parent":"E07000095","type":"LSOA","pop":1319,"r":200,"ff":78,"ffd":5913.6,"ffs":0.4845,"g":37,"co":0,"mo":0,"sa":0,"ic":0},"geometry":{"type":"Polygon","coordinates":[[[0.00557,51.78007],[0.00318,51.77714],[0.00154,51.77727],[-0.00184,51.77664],[-0.00284,51.77748],[-0.00281,51.77796],[-0.00343,51.77772],[-0.00367,51.77818],[-0.00535,51.77827],[-0.00537,51.77772],[-0.00672,51.77762],[-0.00719,51.77764],[-0.00723,51.77808],[-0.00894,51.77826],[-0.00883,51.77741],[-0.00916,51.77675],[-0.00992,51.77679],[-0.00995,51.7775],[-0.01109,51.77732],[-0.0118,51.77886],[-0.01299,51.77888],[-0.0129,51.77927],[-0.01248,51.7793],[-0.01245,51.77909],[0.00557,51.78007]]]}},{"type":"Feature","properties":{"id":"E01023317","name":"E01023317","parent":"E07000095","type":"LSOA","pop":2614,"r":212,"ff":80,"ffd":3060.4,"ffs":0.4734,"g":41,"co":0,"mo":0,"sa":0,"ic":0},"geometry":{"type":"Polygon","coordinates":[[[-0.01267,51.78052],[-0.01248,51.7793],[-0.0129,51.77927],[-0.01299,51.77888],[-0.0118,51.77886],[-0.01109,51.77732],[-0.00995,51.7775],[-0.00992,51.77679],[-0.00916,51.77675],[-0.00883,51.77741],[-0.00759,51.77706],[-0.00756,51.77621],[-0.00801,51.77604],[-0.01033,51.77614],[-0.01086,51.77592],[-0.01081,51.77562],[-0.01024,51.77545],[-0.0098,51.77578],[-0.00919,51.77561],[-0.00918,51.77526],[-0.00811,51.77526],[-0.0081,51.77562],[-0.00754,51.77571],[-0.00758,51.77408],[-0.00912,51.77408],[-0.00903,51.77353],[-0.00983,51.77346],[-0.0109,51.77353],[-0.01147,51.7739],[-0.01185,51.77267],[-0.0141,51.77246],[-0.01411,51.77272],[-0.01632,51.77335],[-0.01659,51.7739],[-0.01705,51.7739],[-0.01697,51.77454],[-0.0182,51.7754],[-0.01999,51.77596],[-0.02007,51.77619],[-0.01766,51.77675],[-0.01887,51.7766],[-0.01925,51.77715],[-0.01978,51.77719],[-0.01947,51.77847],[-0.02103,51.77873],[-0.0198,51.77896],[-0.01985,51.77973],[-0.01867,51.77959],[-0.01801,51.77998],[-0.01813,51.78048],[-0.0178,51.78058],[-0.01267,51.78052]]]}},{"type":"Feature","properties":{"id":"E01023318","name":"E01023318","parent":"E07000095","type":"LSOA","pop":1599,"r":205,"ff":78,"ffd":4878.0,"ffs":0.4785,"g":40,"co":0,"mo":0,"sa":0,"ic":0},"geometry":{"type":"Polygon","coordinates":[[[-0.00367,51.77818],[-0.00343,51.77772],[-0.00281,51.77796],[-0.00284,51.77748],[-0.00184,51.77664],[-0.00354,51.77406],[-0.00527,51.7724],[-0.00818,51.77234],[-0.00826,51.77296],[-0.01185,51.77267],[-0.01147,51.7739],[-0.0109,51.77353],[-0.00983,51.77346],[-0.00903,51.77353],[-0.00912,51.77408],[-0.00758,51.77408],[-0.00754,51.77571],[-0.0081,51.77562],[-0.00811,51.77526],[-0.00918,51.77526],[-0.00919,51.77561],[-0.0098,51.77578],[-0.01024,51.77545],[-0.01081,51.77562],[-0.01086,51.77592],[-0.01033,51.77614],[-0.00801,51.77604],[-0.00756,51.77621],[-0.00759,51.77706],[-0.00883,51.77741],[-0.00894,51.77826],[-0.00723,51.77808],[-0.00719,51.77764],[-0.00672,51.77762],[-0.00537,51.77772],[-0.00535,51.77827],[-0.00367,51.77818]]]}},{"type":"Feature","properties":{"id":"E01023319","name":"E01023319","parent":"E07000095","type":"LSOA","pop":1546,"r":206,"ff":79,"ffd":5110.0,"ffs":0.4817,"g":40,"co":0,"mo":0,"sa":0,"ic":0},"geometry":{"type":"Polygon","coordinates":[[[-0.01697,51.77454],[-0.01705,51.7739],[-0.01659,51.7739],[-0.01632,51.77335],[-0.01411,51.77272],[-0.01408,51.76951],[-0.01292,51.76753],[-0.01139,51.76575],[-0.01542,51.76555],[-0.01649,51.76641],[-0.01999,51.76777],[-0.02352,51.76985],[-0.02771,51.77045],[-0.03208,51.77046],[-0.03436,51.77288],[-0.03391,51.77357],[-0.03255,51.77368],[-0.03083,51.77181],[-0.02809,51.77141],[-0.02805,51.77216],[-0.02546,51.77211],[-0.02604,51.77436],[-0.02415,51.77413],[-0.02289,51.77352],[-0.02149,51.7737],[-0.02124,51.77506],[-0.02002,51.77556],[-0.01999,51.77596],[-0.0182,51.7754],[-0.01697,51.77454]]]}},{"type":"Feature","properties":{"id":"E01023320","name":"E01023320","parent":"E07000095","type":"LSOA","pop":2314,"r":214,"ff":84,"ffd":3630.1,"ffs":0.4855,"g":39,"co":0,"mo":0,"sa":0,"ic":0},"geometry":{"type":"Polygon","coordinates":[[[0.00035,51.76207],[0.00226,51.7613],[0.00347,51.76024],[0.00524,51.75938],[0.00471,51.7583],[-0.00455,51.75831],[-0.00617,51.75936],[-0.00703,51.75871],[-0.00829,51.75873],[-0.00887,51.75934],[-0.00863,51.75972],[-0.01093,51.76005],[-0.011,51.75957],[-0.01176,51.7593],[-0.01211,51.75861],[-0.00958,51.75785],[-0.00962,51.75761],[-0.01048,51.75751],[-0.0105,51.75659],[-0.01093,51.7565],[-0.01193,51.75681],[-0.01196,51.75729],[-0.01264,51.75741],[-0.01305,51.75662],[-0.01387,51.75697],[-0.01395,51.75733],[-0.01475,51.75741],[-0.01605,51.75704],[-0.01586,51.75796],[-0.01711,51.75785],[-0.0177,51.75861],[-0.01754,51.75999],[-0.01898,51.7601],[-0.01882,51.76045],[-0.01812,51.76046],[-0.01826,51.76079],[-0.01381,51.76122],[-0.0125,51.7616],[-0.01196,51.76134],[-0.0121,51.76105],[-0.01166,51.76106],[-0.01156,51.76196],[-0.01108,51.76212],[-0.0107,51.76141],[-0.0101,51.76127],[-0.00938,51.76194],[-0.0067,51.76164],[-0.00555,51.76303],[-0.00407,51.763],[-0.00296,51.76251],[0.00035,51.76207]]]}},{"type":"Feature","properties":{"id":"E01023321","name":"E01023321","parent":"E07000095","type":"LSOA","pop":1974,"r":195,"ff":77,"ffd":3900.7,"ffs":0.4936,"g":37,"co":0,"mo":0,"sa":0,"ic":0},"geometry":{"type":"Polygon","coordinates":[[[-0.00887,51.75934],[-0.00829,51.75873],[-0.00703,51.75871],[-0.00617,51.75936],[-0.00455,51.75831],[0.00471,51.7583],[0.00404,51.75693],[0.00413,51.75536],[0.00228,51.75418],[0.00326,51.75361],[0.00299,51.75293],[0.00153,51.74546],[-0.00083,51.74616],[-0.00425,51.74535],[-0.00956,51.745],[-0.01094,51.74512],[-0.00807,51.74843],[-0.00913,51.74881],[-0.00937,51.74931],[-0.01119,51.7499],[-0.01156,51.75227],[-0.01497,51.75282],[-0.01606,51.752],[-0.02426,51.75188],[-0.02466,51.75383],[-0.02519,51.75378],[-0.02787,51.75004],[-0.0333,51.75023],[-0.03363,51.75317],[-0.0297,51.75326],[-0.01855,51.75529],[-0.01804,51.75556],[-0.01807,51.75649],[-0.01609,51.75675],[-0.01605,51.75704],[-0.01475,51.75741],[-0.01395,51.75733],[-0.01387,51.75697],[-0.01305,51.75662],[-0.01264,51.75741],[-0.01196,51.75729],[-0.01193,51.75681],[-0.01093,51.7565],[-0.0105,51.75659],[-0.01048,51.75751],[-0.00962,51.75761],[-0.00958,51.75785],[-0.01211,51.75861],[-0.01176,51.7593],[-0.011,51.75957],[-0.01093,51.76005],[-0.00863,51.75972],[-0.00887,51.75934]]]}},{"type":"Feature","properties":{"id":"E01023322","name":"E01023322","parent":"E07000095","type":"LSOA","pop":2211,"r":222,"ff":84,"ffd":3799.2,"ffs":0.4641,"g":39,"co":0,"mo":0,"sa":0,"ic":0},"geometry":{"type":"Polygon","coordinates":[[[-0.03436,51.77288],[-0.03208,51.77046],[-0.02771,51.77045],[-0.02352,51.76985],[-0.01999,51.76777],[-0.01649,51.76641],[-0.01542,51.76555],[-0.00859,51.76585],[-0.00858,51.76502],[-0.00823,51.76499],[-0.00819,51.76449],[-0.00701,51.76406],[-0.00722,51.76366],[-0.00937,51.76373],[-0.01152,51.76416],[-0.01179,51.76376],[-0.01224,51.76389],[-0.01452,51.7636],[-0.01488,51.76415],[-0.0203,51.76375],[-0.02075,51.76441],[-0.02185,51.76433],[-0.02207,51.76384],[-0.02166,51.76332],[-0.02117,51.76362],[-0.02076,51.76323],[-0.02037,51.7635],[-0.01999,51.76329],[-0.01919,51.76347],[-0.01893,51.76315],[-0.01725,51.76338],[-0.01713,51.76283],[-0.01921,51.76239],[-0.02116,51.76227],[-0.01981,51.76159],[-0.01971,51.76123],[-0.02168,51.76127],[-0.02371,51.76193],[-0.02395,51.76167],[-0.02386,51.76125],[-0.02296,51.761],[-0.02275,51.76011],[-0.01754,51.75999],[-0.0177,51.75861],[-0.01711,51.75785],[-0.01586,51.75796],[-0.01609,51.75675],[-0.01807,51.75649],[-0.01804,51.75556],[-0.01855,51.75529],[-0.0297,51.75326],[-0.03363,51.75317],[-0.0333,51.75023],[-0.05025,51.7509],[-0.04882,51.76127],[-0.04885,51.76485],[-0.04791,51.76879],[-0.04568,51.77017],[-0.04461,51.77023],[-0.03968,51.77232],[-0.03887,51.77256],[-0.0385,51.77211],[-0.03697,51.77268],[-0.03436,51.77288]]]}},{"type":"Feature","properties":{"id":"E01023323","name":"E01023323","parent":"E07000095","type":"LSOA","pop":1746,"r":235,"ff":89,"ffd":5097.4,"ffs":0.466,"g":42,"co":0,"mo":0,"sa":0,"ic":0},"geometry":{"type":"Polygon","coordinates":[[[-0.0059,51.7641],[-0.00407,51.763],[-0.00555,51.76303],[-0.0067,51.76164],[-0.00938,51.76194],[-0.0101,51.76127],[-0.0107,51.76141],[-0.01108,51.76212],[-0.01156,51.76196],[-0.01166,51.76106],[-0.0121,51.76105],[-0.01196,51.76134],[-0.0125,51.7616],[-0.01381,51.76122],[-0.01826,51.76079],[-0.01812,51.76046],[-0.01882,51.76045],[-0.01898,51.7601],[-0.02275,51.76011],[-0.02296,51.761],[-0.02386,51.76125],[-0.02395,51.76167],[-0.02371,51.76193],[-0.02168,51.76127],[-0.01971,51.76123],[-0.01981,51.76159],[-0.02116,51.76227],[-0.01921,51.76239],[-0.01713,51.76283],[-0.01725,51.76338],[-0.01893,51.76315],[-0.01919,51.76347],[-0.01999,51.76329],[-0.02037,51.7635],[-0.02076,51.76323],[-0.02117,51.76362],[-0.02166,51.76332],[-0.02207,51.76384],[-0.02185,51.76433],[-0.02075,51.76441],[-0.0203,51.76375],[-0.01488,51.76415],[-0.01452,51.7636],[-0.01224,51.76389],[-0.01179,51.76376],[-0.01152,51.76416],[-0.00937,51.76373],[-0.00722,51.76366],[-0.00701,51.76406],[-0.00819,51.76449],[-0.00823,51.76499],[-0.0059,51.7641]]]}},{"type":"Feature","properties":{"id":"E01023324","name":"E01023324","parent":"E07000095","type":"LSOA","pop":1350,"r":303,"ff":133,"ffd":9851.9,"ffs":0.5385,"g":54,"co":0,"mo":0,"sa":0,"ic":0},"geometry":{"type":"Polygon","coordinates":[[[-0.06025,51.71735],[-0.05768,51.71584],[-0.05852,51.71505],[-0.05788,51.7144],[-0.05779,51.71329],[-0.0586,51.71314],[-0.05885,51.7119],[-0.06043,51.71241],[-0.06048,51.71338],[-0.06146,51.71328],[-0.0646,51.71353],[-0.06795,51.71445],[-0.06822,51.71487],[-0.06939,51.71502],[-0.06811,51.71749],[-0.06579,51.71721],[-0.06451,51.71827],[-0.06211,51.71812],[-0.06025,51.71735]]]}},{"type":"Feature","properties":{"id":"E01023325","name":"E01023325","parent":"E07000095","type":"LSOA","pop":1379,"r":307,"ff":138,"ffd":10007.3,"ffs":0.552,"g":55,"co":0,"mo":0,"sa":0,"ic":0},"geometry":{"type":"Polygon","coordinates":[[[-0.05559,51.71323],[-0.05604,51.71168],[-0.05485,51.71163],[-0.05526,51.70986],[-0.05788,51.71013],[-0.05802,51.70872],[-0.06103,51.70899],[-0.06126,51.71069],[-0.06043,51.71241],[-0.05885,51.7119],[-0.0586,51.71314],[-0.05779,51.71329],[-0.05788,51.7144],[-0.05852,51.71505],[-0.05768,51.71584],[-0.05575,51.71494],[-0.05607,51.71427],[-0.05566,51.71377],[-0.05611,51.71334],[-0.05559,51.71323]]]}},{"type":"Feature","properties":{"id":"E01023326","name":"E01023326","parent":"E07000095","type":"LSOA","pop":1594,"r":295,"ff":131,"ffd":8218.3,"ffs":0.5413,"g":51,"co":0,"mo":0,"sa":0,"ic":0},"geometry":{"type":"Polygon","coordinates":[[[-0.05018,51.71186],[-0.04923,51.70946],[-0.05264,51.70971],[-0.0532,51.70838],[-0.05802,51.70872],[-0.05788,51.71013],[-0.05526,51.70986],[-0.05511,51.71004],[-0.05485,51.71163],[-0.05604,51.71168],[-0.05559,51.71323],[-0.05611,51.71334],[-0.05566,51.71377],[-0.05607,51.71427],[-0.05575,51.71494],[-0.05431,51.71431],[-0.05131,51.71347],[-0.05033,51.71231],[-0.05018,51.71186]]]}},{"type":"Feature","properties":{"id":"E01023327","name":"E01023327","parent":"E07000095","type":"LSOA","pop":1329,"r":216,"ff":83,"ffd":6245.3,"ffs":0.4743,"g":39,"co":0,"mo":0,"sa":0,"ic":0},"geometry":{"type":"Polygon","coordinates":[[[-0.00496,51.7713],[-0.00461,51.77096],[-0.00405,51.77098],[-0.00386,51.77016],[-0.0044,51.77015],[-0.00428,51.76969],[-0.00507,51.76965],[-0.00465,51.76893],[-0.00535,51.76864],[-0.00454,51.76847],[-0.0046,51.76774],[-0.00517,51.76817],[-0.00528,51.76786],[-0.00709,51.76783],[-0.00737,51.76745],[-0.00481,51.76719],[-0.00482,51.76686],[-0.00564,51.76693],[-0.00641,51.76625],[-0.00691,51.76647],[-0.00839,51.76626],[-0.00859,51.76585],[-0.01139,51.76575],[-0.01292,51.76753],[-0.01143,51.76798],[-0.01183,51.7691],[-0.01022,51.76958],[-0.01044,51.77025],[-0.00978,51.77072],[-0.00935,51.77073],[-0.00913,51.77039],[-0.00919,51.77002],[-0.00967,51.76996],[-0.00917,51.7697],[-0.0076,51.76976],[-0.00793,51.76908],[-0.00738,51.76894],[-0.00708,51.76939],[-0.00608,51.76964],[-0.0062,51.7701],[-0.00544,51.77123],[-0.00496,51.7713]]]}},{"type":"Feature","properties":{"id":"E01023328","name":"E01023328","parent":"E07000095","type":"LSOA","pop":1425,"r":203,"ff":78,"ffd":5473.7,"ffs":0.4815,"g":39,"co":0,"mo":0,"sa":0,"ic":0},"geometry":{"type":"Polygon","coordinates":[[[-0.00041,51.77365],[-0.00016,51.7735],[0.00026,51.77363],[0.00103,51.77283],[0.00245,51.77266],[0.00096,51.77222],[0.0017,51.77143],[0.00036,51.77083],[0.00049,51.7705],[-0.00026,51.77021],[-0.00027,51.76983],[-0.0016,51.76984],[-0.00268,51.76908],[-0.00295,51.76971],[-0.00428,51.76969],[-0.0044,51.77015],[-0.00386,51.77016],[-0.00405,51.77098],[-0.00461,51.77096],[-0.00496,51.7713],[-0.00544,51.77123],[-0.0062,51.7701],[-0.00668,51.77009],[-0.00527,51.7724],[-0.00354,51.77406],[-0.00184,51.77664],[0.00154,51.77727],[0.00318,51.77714],[0.00199,51.77594],[0.0027,51.77456],[0.00036,51.77408],[-0.00041,51.77365]]]}},{"type":"Feature","properties":{"id":"E01023329","name":"E01023329","parent":"E07000095","type":"LSOA","pop":1307,"r":208,"ff":79,"ffd":6044.4,"ffs":0.4759,"g":40,"co":0,"mo":0,"sa":0,"ic":0},"geometry":{"type":"Polygon","coordinates":[[[-0.00826,51.77296],[-0.00818,51.77234],[-0.00527,51.7724],[-0.00668,51.77009],[-0.0062,51.7701],[-0.00608,51.76964],[-0.00708,51.76939],[-0.00738,51.76894],[-0.00793,51.76908],[-0.0076,51.76976],[-0.00917,51.7697],[-0.00967,51.76996],[-0.00919,51.77002],[-0.00913,51.77039],[-0.00935,51.77073],[-0.00978,51.77072],[-0.01044,51.77025],[-0.01022,51.76958],[-0.01183,51.7691],[-0.01143,51.76798],[-0.01292,51.76753],[-0.01408,51.76951],[-0.0141,51.77246],[-0.00826,51.77296]]]}},{"type":"Feature","properties":{"id":"E01023330","name":"E01023330","parent":"E07000095","type":"LSOA","pop":1828,"r":202,"ff":77,"ffd":4212.3,"ffs":0.4753,"g":38,"co":0,"mo":0,"sa":0,"ic":0},"geometry":{"type":"Polygon","coordinates":[[[0.0027,51.77456],[0.00496,51.77132],[0.00624,51.76997],[0.00743,51.769],[0.00855,51.76863],[0.0092,51.76771],[0.01048,51.7673],[0.01113,51.76647],[0.01205,51.76613],[0.01208,51.76492],[0.01403,51.76438],[0.01375,51.76432],[0.01451,51.76321],[0.01314,51.76286],[0.01207,51.76091],[0.01328,51.75927],[0.01336,51.75787],[0.01062,51.75579],[0.00796,51.75549],[0.00413,51.75536],[0.00404,51.75693],[0.00524,51.75938],[0.00347,51.76024],[0.00226,51.7613],[0.00035,51.76207],[-0.00296,51.76251],[0.00015,51.7653],[0.00247,51.76664],[0.00143,51.76749],[0.00117,51.76709],[0.00072,51.76734],[-0.00025,51.76708],[-0.00047,51.76736],[-0.00037,51.76775],[-0.00214,51.76756],[-0.00263,51.7672],[-0.00351,51.76964],[-0.00295,51.76971],[-0.00268,51.76908],[-0.0016,51.76984],[-0.00027,51.76983],[-0.00026,51.77021],[0.00049,51.7705],[0.00036,51.77083],[0.0017,51.77143],[0.00096,51.77222],[0.00245,51.77266],[0.00103,51.77283],[0.00026,51.77363],[-0.00016,51.7735],[-0.00041,51.77365],[0.00036,51.77408],[0.0027,51.77456]]]}},{"type":"Feature","properties":{"id":"E01023331","name":"E01023331","parent":"E07000095","type":"LSOA","pop":1789,"r":203,"ff":77,"ffd":4304.1,"ffs":0.4753,"g":39,"co":0,"mo":0,"sa":0,"ic":0},"geometry":{"type":"Polygon","coordinates":[[[-0.00351,51.76964],[-0.00263,51.7672],[-0.00214,51.76756],[-0.00037,51.76775],[-0.00047,51.76736],[-0.00025,51.76708],[0.00072,51.76734],[0.00117,51.76709],[0.00143,51.76749],[0.00247,51.76664],[0.00015,51.7653],[-0.00296,51.76251],[-0.0059,51.7641],[-0.00858,51.76502],[-0.00859,51.76585],[-0.00839,51.76626],[-0.00691,51.76647],[-0.00641,51.76625],[-0.00564,51.76693],[-0.00482,51.76686],[-0.00481,51.76719],[-0.00737,51.76745],[-0.00709,51.76783],[-0.00528,51.76786],[-0.00517,51.76817],[-0.0046,51.76774],[-0.00454,51.76847],[-0.00535,51.76864],[-0.00465,51.76893],[-0.00507,51.76965],[-0.00351,51.76964]]]}},{"type":"Feature","properties":{"id":"E01023332","name":"E01023332","parent":"E07000095","type":"LSOA","pop":2595,"r":324,"ff":147,"ffd":5664.7,"ffs":0.5485,"g":54,"co":0,"mo":0,"sa":0,"ic":0},"geometry":{"type":"Polygon","coordinates":[[[-0.0389,51.6973],[-0.03893,51.69611],[-0.03666,51.69612],[-0.03664,51.69646],[-0.03454,51.69606],[-0.03455,51.69565],[-0.03817,51.69586],[-0.03829,51.69504],[-0.03668,51.69505],[-0.03627,51.69421],[-0.03524,51.69427],[-0.03519,51.69404],[-0.03458,51.69407],[-0.0342,51.69276],[-0.0319,51.69348],[-0.03109,51.69308],[-0.03167,51.69279],[-0.03133,51.69232],[-0.03205,51.69218],[-0.03175,51.69151],[-0.03038,51.69148],[-0.03032,51.69112],[-0.03069,51.69069],[-0.0319,51.6907],[-0.0318,51.68998],[-0.03088,51.68996],[-0.03064,51.69039],[-0.02955,51.69033],[-0.02919,51.68997],[-0.02945,51.68951],[-0.02881,51.68939],[-0.02884,51.68913],[-0.03744,51.68943],[-0.04117,51.68994],[-0.0451,51.6913],[-0.04498,51.69378],[-0.04166,51.69538],[-0.04008,51.6974],[-0.0389,51.6973]]]}},{"type":"Feature","properties":{"id":"E01023333","name":"E01023333","parent":"E07000095","type":"LSOA","pop":2190,"r":278,"ff":121,"ffd":5525.1,"ffs":0.5261,"g":47,"co":0,"mo":0,"sa":0,"ic":0},"geometry":{"type":"Polygon","coordinates":[[[-0.03431,51.69939],[-0.03457,51.69739],[-0.03212,51.69754],[-0.0266,51.69737],[-0.02643,51.69706],[-0.02811,51.69558],[-0.0311,51.69381],[-0.0342,51.69276],[-0.03458,51.69407],[-0.03519,51.69404],[-0.03524,51.69427],[-0.03627,51.69421],[-0.03668,51.69505],[-0.03829,51.69504],[-0.0383,51.69548],[-0.03817,51.69586],[-0.03455,51.69565],[-0.03454,51.69606],[-0.03587,51.69628],[-0.03519,51.69688],[-0.03519,51.69747],[-0.03686,51.69779],[-0.03635,51.69824],[-0.03526,51.6981],[-0.0349,51.69849],[-0.03523,51.69889],[-0.03431,51.69939]]]}},{"type":"Feature","properties":{"id":"E01023334","name":"E01023334","parent":"E07000095","type":"LSOA","pop":1836,"r":292,"ff":128,"ffd":6971.7,"ffs":0.5356,"g":52,"co":0,"mo":0,"sa":0,"ic":0},"geometry":{"type":"Polygon","coordinates":[[[-0.0349,51.69849],[-0.03526,51.6981],[-0.03635,51.69824],[-0.03686,51.69779],[-0.03519,51.69747],[-0.03519,51.69688],[-0.03587,51.69628],[-0.03664,51.69646],[-0.03666,51.69612],[-0.03893,51.69611],[-0.0389,51.6973],[-0.04008,51.6974],[-0.04166,51.69538],[-0.04498,51.69378],[-0.04462,51.69756],[-0.04304,51.70262],[-0.0399,51.7028],[-0.03486,51.70222],[-0.0343,51.70038],[-0.03431,51.69939],[-0.03523,51.69889],[-0.0349,51.69849]]]}},{"type":"Feature","properties":{"id":"E01023335","name":"E01023335","parent":"E07000095","type":"LSOA","pop":1760,"r":287,"ff":122,"ffd":6931.8,"ffs":0.5191,"g":51,"co":0,"mo":0,"sa":0,"ic":0},"geometry":{"type":"Polygon","coordinates":[[[-0.01712,51.69322],[-0.0163,51.69018],[-0.01694,51.69009],[-0.01927,51.69122],[-0.02688,51.69168],[-0.02763,51.69022],[-0.02782,51.68908],[-0.02884,51.68913],[-0.02881,51.68939],[-0.02945,51.68951],[-0.02919,51.68997],[-0.02955,51.69033],[-0.03064,51.69039],[-0.03088,51.68996],[-0.0318,51.68998],[-0.0319,51.6907],[-0.03069,51.69069],[-0.03032,51.69112],[-0.03038,51.69148],[-0.03175,51.69151],[-0.03205,51.69218],[-0.03133,51.69232],[-0.03167,51.69279],[-0.03109,51.69308],[-0.0319,51.69348],[-0.02811,51.69558],[-0.02478,51.69873],[-0.02429,51.69976],[-0.01879,51.69965],[-0.01712,51.69322]]]}},{"type":"Feature","properties":{"id":"E01023336","name":"E01023336","parent":"E07000095","type":"LSOA","pop":2237,"r":320,"ff":140,"ffd":6258.4,"ffs":0.5303,"g":54,"co":0,"mo":0,"sa":0,"ic":0},"geometry":{"type":"Polygon","coordinates":[[[-0.02542,51.69158],[-0.0264,51.68558],[-0.02887,51.68563],[-0.02901,51.68604],[-0.02985,51.68617],[-0.03223,51.68736],[-0.03291,51.68823],[-0.03436,51.6876],[-0.03546,51.68772],[-0.03763,51.68719],[-0.03778,51.68759],[-0.03713,51.68777],[-0.03796,51.68799],[-0.03814,51.68763],[-0.03903,51.68807],[-0.03744,51.68943],[-0.02782,51.68908],[-0.02763,51.69022],[-0.02688,51.69168],[-0.02542,51.69158]]]}},{"type":"Feature","properties":{"id":"E01023337","name":"E01023337","parent":"E07000095","type":"LSOA","pop":2124,"r":350,"ff":160,"ffd":7533.0,"ffs":0.5442,"g":54,"co":0,"mo":0,"sa":0,"ic":0},"geometry":{"type":"Polygon","coordinates":[[[-0.03291,51.68823],[-0.03223,51.68736],[-0.02985,51.68617],[-0.02901,51.68604],[-0.02887,51.68563],[-0.0264,51.68558],[-0.02693,51.68211],[-0.0294,51.68243],[-0.03673,51.68257],[-0.03709,51.68286],[-0.04009,51.68299],[-0.04009,51.68319],[-0.03921,51.68324],[-0.03919,51.68358],[-0.03841,51.68369],[-0.03768,51.68341],[-0.03699,51.68362],[-0.03656,51.68409],[-0.03695,51.68457],[-0.03621,51.68486],[-0.03666,51.68529],[-0.03595,51.68564],[-0.03681,51.68651],[-0.03769,51.68654],[-0.03765,51.68683],[-0.03819,51.68687],[-0.03815,51.68724],[-0.03763,51.68719],[-0.03546,51.68772],[-0.03436,51.6876],[-0.03291,51.68823]]]}},{"type":"Feature","properties":{"id":"E01023339","name":"E01023339","parent":"E07000095","type":"LSOA","pop":1574,"r":327,"ff":146,"ffd":9275.7,"ffs":0.5348,"g":52,"co":0,"mo":0,"sa":0,"ic":0},"geometry":{"type":"Polygon","coordinates":[[[-0.03903,51.68807],[-0.03814,51.68763],[-0.03796,51.68799],[-0.03713,51.68777],[-0.03778,51.68759],[-0.03763,51.68719],[-0.03815,51.68724],[-0.03819,51.68687],[-0.03765,51.68683],[-0.03769,51.68654],[-0.03681,51.68651],[-0.03595,51.68564],[-0.03666,51.68529],[-0.03621,51.68486],[-0.03695,51.68457],[-0.03656,51.68409],[-0.03699,51.68362],[-0.03768,51.68341],[-0.03841,51.68369],[-0.03919,51.68358],[-0.03921,51.68324],[-0.04009,51.68319],[-0.04009,51.68299],[-0.04376,51.68311],[-0.04366,51.68335],[-0.0466,51.6834],[-0.04832,51.68408],[-0.04893,51.68405],[-0.04578,51.6873],[-0.04515,51.68904],[-0.0451,51.6913],[-0.04117,51.68994],[-0.03744,51.68943],[-0.03903,51.68807]]]}},{"type":"Feature","properties":{"id":"E01023340","name":"E01023340","parent":"E07000095","type":"LSOA","pop":1859,"r":214,"ff":92,"ffd":4948.9,"ffs":0.5349,"g":40,"co":0,"mo":0,"sa":0,"ic":0},"geometry":{"type":"Polygon","coordinates":[[[-0.02031,51.739],[-0.01661,51.73815],[-0.01852,51.734],[-0.01606,51.73369],[-0.01533,51.73524],[-0.01375,51.7354],[-0.01297,51.73339],[-0.01388,51.73167],[-0.01466,51.73185],[-0.01482,51.73088],[-0.02002,51.73176],[-0.0211,51.73221],[-0.02072,51.73284],[-0.01964,51.73324],[-0.01929,51.73415],[-0.02058,51.73433],[-0.02114,51.73332],[-0.0228,51.73356],[-0.02231,51.73471],[-0.02305,51.73501],[-0.02267,51.73633],[-0.02324,51.73648],[-0.02302,51.73824],[-0.02571,51.73885],[-0.02543,51.73921],[-0.02249,51.73846],[-0.02261,51.7398],[-0.02226,51.73985],[-0.0214,51.73964],[-0.02031,51.739]]]}},{"type":"Feature","properties":{"id":"E01023341","name":"E01023341","parent":"E07000095","type":"LSOA","pop":1817,"r":231,"ff":96,"ffd":5283.4,"ffs":0.5246,"g":46,"co":0,"mo":0,"sa":0,"ic":0},"geometry":{"type":"Polygon","coordinates":[[[-0.0524,51.74238],[-0.05026,51.74174],[-0.04859,51.74187],[-0.04831,51.74118],[-0.04589,51.74065],[-0.04601,51.73997],[-0.04545,51.73979],[-0.0429,51.73937],[-0.04237,51.73956],[-0.03944,51.73937],[-0.03274,51.73799],[-0.0285,51.73615],[-0.02552,51.73544],[-0.02474,51.73678],[-0.02648,51.73707],[-0.02571,51.73885],[-0.02302,51.73824],[-0.02324,51.73648],[-0.02267,51.73633],[-0.02305,51.73501],[-0.02231,51.73471],[-0.0228,51.73356],[-0.02114,51.73332],[-0.02058,51.73433],[-0.01929,51.73415],[-0.01964,51.73324],[-0.02072,51.73284],[-0.0211,51.73221],[-0.02002,51.73176],[-0.01482,51.73088],[-0.01466,51.73185],[-0.01388,51.73167],[-0.01353,51.72856],[-0.0162,51.72893],[-0.01893,51.7306],[-0.01958,51.73064],[-0.01995,51.73],[-0.02278,51.73035],[-0.02329,51.73092],[-0.02411,51.73109],[-0.0242,51.73063],[-0.0248,51.73066],[-0.02493,51.73094],[-0.02587,51.7306],[-0.03122,51.73136],[-0.03259,51.73052],[-0.03296,51.72964],[-0.03349,51.73036],[-0.04646,51.73329],[-0.05635,51.73428],[-0.05684,51.73439],[-0.05656,51.7347],[-0.05823,51.73473],[-0.05508,51.73699],[-0.05508,51.74079],[-0.05572,51.7409],[-0.0553,51.74268],[-0.0524,51.74238]]]}},{"type":"Feature","properties":{"id":"E01023343","name":"E01023343","parent":"E07000095","type":"LSOA","pop":2167,"r":237,"ff":100,"ffd":4614.7,"ffs":0.5236,"g":44,"co":0,"mo":0,"sa":0,"ic":0},"geometry":{"type":"Polygon","coordinates":[[[-0.02329,51.73092],[-0.02278,51.73035],[-0.01995,51.73],[-0.01958,51.73064],[-0.01893,51.7306],[-0.0162,51.72893],[-0.01353,51.72856],[-0.01403,51.72398],[-0.01752,51.72477],[-0.02359,51.72507],[-0.02625,51.72432],[-0.02643,51.72474],[-0.0259,51.72513],[-0.02583,51.72792],[-0.02501,51.72799],[-0.0245,51.72881],[-0.02542,51.72895],[-0.02495,51.72975],[-0.0248,51.73066],[-0.0242,51.73063],[-0.02411,51.73109],[-0.02329,51.73092]]]}},{"type":"Feature","properties":{"id":"E01023344","name":"E01023344","parent":"E07000095","type":"LSOA","pop":1888,"r":235,"ff":97,"ffd":5137.7,"ffs":0.5132,"g":44,"co":0,"mo":0,"sa":0,"ic":0},"geometry":{"type":"Polygon","coordinates":[[[-0.03126,51.72253],[-0.0311,51.72117],[-0.02978,51.72122],[-0.02849,51.72238],[-0.02651,51.72187],[-0.02685,51.72122],[-0.02652,51.72082],[-0.02618,51.7208],[-0.02609,51.72117],[-0.0253,51.72104],[-0.0252,51.72169],[-0.02422,51.72199],[-0.02349,51.72174],[-0.02357,51.72104],[-0.02115,51.72067],[-0.01444,51.72068],[-0.01504,51.71724],[-0.02187,51.71832],[-0.02246,51.71686],[-0.02478,51.7169],[-0.02553,51.71747],[-0.02537,51.71873],[-0.03135,51.7198],[-0.03578,51.72081],[-0.03725,51.72149],[-0.0335,51.72234],[-0.03173,51.72318],[-0.03126,51.72253]]]}},{"type":"Feature","properties":{"id":"E01035583","name":"E01035583","parent":"E07000095","type":"LSOA","pop":1359,"r":237,"ff":100,"ffd":7358.4,"ffs":0.5236,"g":44,"co":0,"mo":0,"sa":0,"ic":0},"geometry":{"type":"Polygon","coordinates":[[[-0.03122,51.73136],[-0.02587,51.7306],[-0.02493,51.73094],[-0.0248,51.73066],[-0.02495,51.72975],[-0.02542,51.72895],[-0.0245,51.72881],[-0.02501,51.72799],[-0.02583,51.72792],[-0.0259,51.72513],[-0.02643,51.72474],[-0.02688,51.72493],[-0.02832,51.72329],[-0.02849,51.72238],[-0.02978,51.72122],[-0.0311,51.72117],[-0.03126,51.72253],[-0.03173,51.72318],[-0.02827,51.72733],[-0.0299,51.7278],[-0.03296,51.72964],[-0.03259,51.73052],[-0.03122,51.73136]]]}},{"type":"Feature","properties":{"id":"E01035584","name":"E01035584","parent":"E07000095","type":"LSOA","pop":1587,"r":234,"ff":97,"ffd":6112.2,"ffs":0.516,"g":44,"co":0,"mo":0,"sa":0,"ic":0},"geometry":{"type":"Polygon","coordinates":[[[-0.01752,51.72477],[-0.01403,51.72398],[-0.01444,51.72068],[-0.02115,51.72067],[-0.02357,51.72104],[-0.02349,51.72174],[-0.02422,51.72199],[-0.0252,51.72169],[-0.0253,51.72104],[-0.02609,51.72117],[-0.02618,51.7208],[-0.02652,51.72082],[-0.02685,51.72122],[-0.02651,51.72187],[-0.02849,51.72238],[-0.02832,51.72329],[-0.02688,51.72493],[-0.02643,51.72474],[-0.02625,51.72432],[-0.02359,51.72507],[-0.01752,51.72477]]]}},{"type":"Feature","properties":{"id":"E01035585","name":"E01035585","parent":"E07000095","type":"LSOA","pop":1657,"r":300,"ff":130,"ffd":7845.5,"ffs":0.5263,"g":52,"co":0,"mo":0,"sa":0,"ic":0},"geometry":{"type":"Polygon","coordinates":[[[-0.0178,51.69061],[-0.01694,51.69009],[-0.0163,51.69018],[-0.01162,51.68674],[-0.01505,51.68627],[-0.01503,51.68604],[-0.01712,51.68559],[-0.01688,51.68408],[-0.0176,51.68402],[-0.01786,51.6835],[-0.01829,51.68359],[-0.01876,51.6854],[-0.01949,51.68537],[-0.01945,51.68505],[-0.01992,51.68498],[-0.02019,51.68533],[-0.02133,51.68501],[-0.02212,51.68515],[-0.02221,51.68562],[-0.0264,51.68558],[-0.02542,51.69158],[-0.01927,51.69122],[-0.0178,51.69061]]]}},{"type":"Feature","properties":{"id":"E01035586","name":"E01035586","parent":"E07000095","type":"LSOA","pop":1372,"r":283,"ff":123,"ffd":8965.0,"ffs":0.5256,"g":48,"co":0,"mo":0,"sa":0,"ic":0},"geometry":{"type":"Polygon","coordinates":[[[-0.01177,51.68404],[-0.01192,51.68088],[-0.01801,51.68103],[-0.02693,51.68211],[-0.0264,51.68558],[-0.02221,51.68562],[-0.02212,51.68515],[-0.02133,51.68501],[-0.02019,51.68533],[-0.01992,51.68498],[-0.01945,51.68505],[-0.01949,51.68537],[-0.01876,51.6854],[-0.01829,51.68359],[-0.01786,51.6835],[-0.0176,51.68402],[-0.01688,51.68408],[-0.01712,51.68559],[-0.01503,51.68604],[-0.01505,51.68627],[-0.01162,51.68674],[-0.0109,51.68532],[-0.01177,51.68404]]]}}]}