{"type":"FeatureCollection","features":[{"type":"Feature","properties":{"id":"E01025231","name":"E01025231","parent":"E07000123","type":"LSOA","pop":1509,"r":351,"ff":115,"ffd":7620.9,"ffs":0.4389,"g":87,"co":0,"mo":0,"sa":0,"ic":0},"geometry":{"type":"Polygon","coordinates":[[[-2.73349,53.76886],[-2.73229,53.76871],[-2.73194,53.769],[-2.73221,53.76919],[-2.7312,53.76935],[-2.73112,53.76891],[-2.73022,53.76897],[-2.72983,53.76877],[-2.73012,53.7685],[-2.72888,53.76842],[-2.73051,53.76712],[-2.72998,53.7668],[-2.72945,53.76695],[-2.72908,53.7665],[-2.72977,53.76618],[-2.73023,53.76653],[-2.73079,53.76636],[-2.73127,53.76536],[-2.72971,53.76484],[-2.73023,53.7642],[-2.72978,53.76398],[-2.7314,53.76284],[-2.73435,53.76304],[-2.74075,53.76279],[-2.74073,53.76565],[-2.74198,53.76528],[-2.74324,53.76573],[-2.74352,53.76665],[-2.74246,53.76825],[-2.7415,53.76878],[-2.73956,53.76864],[-2.74032,53.76676],[-2.73724,53.76605],[-2.73515,53.76603],[-2.73495,53.76642],[-2.73552,53.76705],[-2.73446,53.76787],[-2.73526,53.76873],[-2.73627,53.76902],[-2.73593,53.76939],[-2.73427,53.76941],[-2.73349,53.76886]]]}},{"type":"Feature","properties":{"id":"E01025232","name":"E01025232","parent":"E07000123","type":"LSOA","pop":1667,"r":357,"ff":118,"ffd":7078.6,"ffs":0.4419,"g":88,"co":0,"mo":0,"sa":0,"ic":0},"geometry":{"type":"Polygon","coordinates":[[[-2.72523,53.7672],[-2.72288,53.76572],[-2.72037,53.76508],[-2.7228,53.76404],[-2.72717,53.76484],[-2.72971,53.76484],[-2.73127,53.76536],[-2.73079,53.76636],[-2.73023,53.76653],[-2.72977,53.76618],[-2.72908,53.7665],[-2.72945,53.76695],[-2.72998,53.7668],[-2.73051,53.76712],[-2.72888,53.76842],[-2.73012,53.7685],[-2.72983,53.76877],[-2.73022,53.76897],[-2.72986,53.76928],[-2.72725,53.76825],[-2.72523,53.7672]]]}},{"type":"Feature","properties":{"id":"E01025233","name":"E01025233","parent":"E07000123","type":"LSOA","pop":1319,"r":351,"ff":116,"ffd":8794.5,"ffs":0.4411,"g":86,"co":0,"mo":0,"sa":0,"ic":0},"geometry":{"type":"Polygon","coordinates":[[[-2.73127,53.77498],[-2.7302,53.773],[-2.72892,53.7726],[-2.72843,53.77084],[-2.73241,53.77007],[-2.72986,53.76928],[-2.73022,53.76897],[-2.73112,53.76891],[-2.7312,53.76935],[-2.73221,53.76919],[-2.73194,53.769],[-2.73229,53.76871],[-2.73349,53.76886],[-2.73427,53.76941],[-2.73593,53.76939],[-2.73627,53.76902],[-2.73526,53.76873],[-2.73446,53.76787],[-2.73552,53.76705],[-2.73495,53.76642],[-2.73515,53.76603],[-2.73724,53.76605],[-2.74032,53.76676],[-2.73939,53.76886],[-2.73944,53.77192],[-2.74621,53.77392],[-2.74397,53.77457],[-2.74037,53.77404],[-2.73913,53.77458],[-2.73695,53.77412],[-2.73665,53.77373],[-2.7356,53.77426],[-2.73304,53.77417],[-2.73265,53.77469],[-2.73127,53.77498]]]}},{"type":"Feature","properties":{"id":"E01025234","name":"E01025234","parent":"E07000123","type":"LSOA","pop":1584,"r":338,"ff":110,"ffd":6944.4,"ffs":0.44,"g":86,"co":0,"mo":0,"sa":0,"ic":0},"geometry":{"type":"Polygon","coordinates":[[[-2.6386,53.79527],[-2.63642,53.79505],[-2.63572,53.7954],[-2.63518,53.79528],[-2.63711,53.79277],[-2.64001,53.79007],[-2.64615,53.78711],[-2.64919,53.78441],[-2.65093,53.78367],[-2.65678,53.78217],[-2.65882,53.77956],[-2.65908,53.77887],[-2.66023,53.77906],[-2.66042,53.77998],[-2.65946,53.78008],[-2.6587,53.78069],[-2.66069,53.78087],[-2.65923,53.78126],[-2.66093,53.78218],[-2.66063,53.7827],[-2.66133,53.78317],[-2.66137,53.78351],[-2.65984,53.78375],[-2.66006,53.78405],[-2.66089,53.78402],[-2.66151,53.78483],[-2.6631,53.78457],[-2.66417,53.78531],[-2.66207,53.7853],[-2.66098,53.78584],[-2.66101,53.78635],[-2.65953,53.78666],[-2.6565,53.78642],[-2.65232,53.78674],[-2.64593,53.79108],[-2.63986,53.79608],[-2.63999,53.79553],[-2.6386,53.79527]]]}},{"type":"Feature","properties":{"id":"E01025235","name":"E01025235","parent":"E07000123","type":"LSOA","pop":1913,"r":350,"ff":115,"ffd":6011.5,"ffs":0.4373,"g":85,"co":0,"mo":0,"sa":0,"ic":0},"geometry":{"type":"Polygon","coordinates":[[[-2.67367,53.78019],[-2.67295,53.77962],[-2.67137,53.77965],[-2.66992,53.78012],[-2.66957,53.78055],[-2.6681,53.77981],[-2.66792,53.7795],[-2.66577,53.77948],[-2.66648,53.77855],[-2.66394,53.77827],[-2.66643,53.77687],[-2.66888,53.77601],[-2.66927,53.77537],[-2.67424,53.77302],[-2.67396,53.77327],[-2.67434,53.77313],[-2.67487,53.77343],[-2.6773,53.77619],[-2.67863,53.77802],[-2.67355,53.77816],[-2.67276,53.7784],[-2.67483,53.78125],[-2.67398,53.7814],[-2.67378,53.7811],[-2.67382,53.78066],[-2.67307,53.7804],[-2.67367,53.78019]]]}},{"type":"Feature","properties":{"id":"E01025236","name":"E01025236","parent":"E07000123","type":"LSOA","pop":1575,"r":345,"ff":110,"ffd":6984.1,"ffs":0.4314,"g":88,"co":0,"mo":0,"sa":0,"ic":0},"geometry":{"type":"Polygon","coordinates":[[[-2.66042,53.77998],[-2.66023,53.77906],[-2.65908,53.77887],[-2.65963,53.77779],[-2.66095,53.77647],[-2.66457,53.77426],[-2.66677,53.7732],[-2.66927,53.77537],[-2.66888,53.77601],[-2.66643,53.77687],[-2.66394,53.77827],[-2.66648,53.77855],[-2.66577,53.77948],[-2.66583,53.77971],[-2.66287,53.77914],[-2.65987,53.78169],[-2.65923,53.78126],[-2.66069,53.78087],[-2.6587,53.78069],[-2.65946,53.78008],[-2.66042,53.77998]]]}},{"type":"Feature","properties":{"id":"E01025237","name":"E01025237","parent":"E07000123","type":"LSOA","pop":1667,"r":348,"ff":111,"ffd":6658.7,"ffs":0.4286,"g":87,"co":0,"mo":0,"sa":0,"ic":0},"geometry":{"type":"Polygon","coordinates":[[[-2.66651,53.7853],[-2.66581,53.78511],[-2.66417,53.78531],[-2.6631,53.78457],[-2.66151,53.78483],[-2.66089,53.78402],[-2.66006,53.78405],[-2.65984,53.78375],[-2.66266,53.78329],[-2.66292,53.78405],[-2.66459,53.78374],[-2.66541,53.78327],[-2.66478,53.78176],[-2.66405,53.7818],[-2.66452,53.78155],[-2.66419,53.78137],[-2.66417,53.78111],[-2.66475,53.78102],[-2.66494,53.7816],[-2.66544,53.78154],[-2.66565,53.78193],[-2.66615,53.78198],[-2.66666,53.78189],[-2.66662,53.78146],[-2.66727,53.78132],[-2.66782,53.78157],[-2.66863,53.78105],[-2.66909,53.78179],[-2.67084,53.78163],[-2.67199,53.78131],[-2.67217,53.78097],[-2.67157,53.78042],[-2.67234,53.78026],[-2.67282,53.78115],[-2.67378,53.7811],[-2.67398,53.7814],[-2.67699,53.78088],[-2.6795,53.7837],[-2.67732,53.78414],[-2.67352,53.7837],[-2.67304,53.78392],[-2.6718,53.78367],[-2.66651,53.7853]]]}},{"type":"Feature","properties":{"id":"E01025238","name":"E01025238","parent":"E07000123","type":"LSOA","pop":1569,"r":349,"ff":112,"ffd":7138.3,"ffs":0.4308,"g":87,"co":0,"mo":0,"sa":0,"ic":0},"geometry":{"type":"Polygon","coordinates":[[[-2.66292,53.78405],[-2.66266,53.78329],[-2.66137,53.78351],[-2.66133,53.78317],[-2.66063,53.7827],[-2.66093,53.78218],[-2.65987,53.78169],[-2.66287,53.77914],[-2.66583,53.77971],[-2.66577,53.77948],[-2.66792,53.7795],[-2.6681,53.77981],[-2.66957,53.78055],[-2.66992,53.78012],[-2.67137,53.77965],[-2.67295,53.77962],[-2.67367,53.78019],[-2.67307,53.7804],[-2.67382,53.78066],[-2.67378,53.7811],[-2.67282,53.78115],[-2.67234,53.78026],[-2.67157,53.78042],[-2.67217,53.78097],[-2.67199,53.78131],[-2.67084,53.78163],[-2.66909,53.78179],[-2.66863,53.78105],[-2.66782,53.78157],[-2.66727,53.78132],[-2.66662,53.78146],[-2.66666,53.78189],[-2.66615,53.78198],[-2.66565,53.78193],[-2.66544,53.78154],[-2.66494,53.7816],[-2.66475,53.78102],[-2.66417,53.78111],[-2.66419,53.78137],[-2.66452,53.78155],[-2.66405,53.7818],[-2.66478,53.78176],[-2.66541,53.78327],[-2.66459,53.78374],[-2.66292,53.78405]]]}},{"type":"Feature","properties":{"id":"E01025239","name":"E01025239","parent":"E07000123","type":"LSOA","pop":1507,"r":342,"ff":114,"ffd":7564.7,"ffs":0.4436,"g":83,"co":0,"mo":0,"sa":0,"ic":0},"geometry":{"type":"Polygon","coordinates":[[[-2.72176,53.78053],[-2.72153,53.77998],[-2.71968,53.78062],[-2.71849,53.78061],[-2.71704,53.77944],[-2.71707,53.77881],[-2.71609,53.77855],[-2.71613,53.77792],[-2.71655,53.77783],[-2.71587,53.77708],[-2.7195,53.77663],[-2.7202,53.77726],[-2.72163,53.77653],[-2.72171,53.77693],[-2.72233,53.77684],[-2.72293,53.77723],[-2.72438,53.77656],[-2.72458,53.77684],[-2.72492,53.77675],[-2.7256,53.77767],[-2.72603,53.77758],[-2.72648,53.77809],[-2.7279,53.77761],[-2.72818,53.77783],[-2.72712,53.77817],[-2.72738,53.77847],[-2.72608,53.77874],[-2.72626,53.77908],[-2.72588,53.77896],[-2.72453,53.77939],[-2.72545,53.78041],[-2.72824,53.78001],[-2.72918,53.7802],[-2.72732,53.78138],[-2.72674,53.78347],[-2.72556,53.78357],[-2.72218,53.7833],[-2.72227,53.78294],[-2.7214,53.78268],[-2.72163,53.78189],[-2.72233,53.78175],[-2.72176,53.78053]]]}},{"type":"Feature","properties":{"id":"E01025240","name":"E01025240","parent":"E07000123","type":"LSOA","pop":1748,"r":339,"ff":112,"ffd":6407.3,"ffs":0.4392,"g":82,"co":0,"mo":0,"sa":0,"ic":0},"geometry":{"type":"Polygon","coordinates":[[[-2.72545,53.78041],[-2.72453,53.77939],[-2.72588,53.77896],[-2.72626,53.77908],[-2.72608,53.77874],[-2.72738,53.77847],[-2.72712,53.77817],[-2.72818,53.77783],[-2.7279,53.77761],[-2.72648,53.77809],[-2.72603,53.77758],[-2.7256,53.77767],[-2.72492,53.77675],[-2.72458,53.77684],[-2.72438,53.77656],[-2.72293,53.77723],[-2.72233,53.77684],[-2.72171,53.77693],[-2.72163,53.77653],[-2.7202,53.77726],[-2.7195,53.77663],[-2.72101,53.77635],[-2.72214,53.77573],[-2.72382,53.77592],[-2.7246,53.77552],[-2.72529,53.77569],[-2.7256,53.77527],[-2.72958,53.77533],[-2.73127,53.77498],[-2.73503,53.7773],[-2.73333,53.77851],[-2.72918,53.7802],[-2.72824,53.78001],[-2.72545,53.78041]]]}},{"type":"Feature","properties":{"id":"E01025241","name":"E01025241","parent":"E07000123","type":"LSOA","pop":1715,"r":345,"ff":114,"ffd":6647.2,"ffs":0.4402,"g":84,"co":0,"mo":0,"sa":0,"ic":0},"geometry":{"type":"Polygon","coordinates":[[[-2.71143,53.78358],[-2.70982,53.7776],[-2.71587,53.77708],[-2.71655,53.77783],[-2.71613,53.77792],[-2.71609,53.77855],[-2.71707,53.77881],[-2.71704,53.77944],[-2.71849,53.78061],[-2.71968,53.78062],[-2.72153,53.77998],[-2.72233,53.78175],[-2.72163,53.78189],[-2.7214,53.78268],[-2.72227,53.78294],[-2.72218,53.7833],[-2.71796,53.78298],[-2.71596,53.78337],[-2.71426,53.78336],[-2.71156,53.78411],[-2.71143,53.78358]]]}},{"type":"Feature","properties":{"id":"E01025242","name":"E01025242","parent":"E07000123","type":"LSOA","pop":1817,"r":346,"ff":114,"ffd":6274.1,"ffs":0.4368,"g":83,"co":0,"mo":0,"sa":0,"ic":0},"geometry":{"type":"Polygon","coordinates":[[[-2.70107,53.78915],[-2.69843,53.78692],[-2.7043,53.78577],[-2.70354,53.78463],[-2.70019,53.78381],[-2.70129,53.7823],[-2.70331,53.78095],[-2.70327,53.78052],[-2.70439,53.77962],[-2.70626,53.77918],[-2.70609,53.77844],[-2.70525,53.77839],[-2.70577,53.77802],[-2.70673,53.77829],[-2.70899,53.77802],[-2.70927,53.77843],[-2.71004,53.77841],[-2.71248,53.78756],[-2.71186,53.78772],[-2.71131,53.78822],[-2.70827,53.78856],[-2.70735,53.78782],[-2.70107,53.78915]]]}},{"type":"Feature","properties":{"id":"E01025243","name":"E01025243","parent":"E07000123","type":"LSOA","pop":2333,"r":346,"ff":114,"ffd":4886.4,"ffs":0.4368,"g":83,"co":0,"mo":0,"sa":0,"ic":0},"geometry":{"type":"Polygon","coordinates":[[[-2.69685,53.78054],[-2.69673,53.77925],[-2.69351,53.77945],[-2.69336,53.77873],[-2.6923,53.7788],[-2.68764,53.77787],[-2.68902,53.77653],[-2.69366,53.77664],[-2.69493,53.77611],[-2.70646,53.77607],[-2.70885,53.77622],[-2.70982,53.7776],[-2.71004,53.77841],[-2.70927,53.77843],[-2.70899,53.77802],[-2.70673,53.77829],[-2.70577,53.77802],[-2.70525,53.77839],[-2.70609,53.77844],[-2.70626,53.77918],[-2.70439,53.77962],[-2.70327,53.78052],[-2.70331,53.78095],[-2.70129,53.7823],[-2.70019,53.78381],[-2.70354,53.78463],[-2.7043,53.78577],[-2.69843,53.78692],[-2.69686,53.78496],[-2.69701,53.78368],[-2.69806,53.78233],[-2.69797,53.78055],[-2.69685,53.78054]]]}},{"type":"Feature","properties":{"id":"E01025244","name":"E01025244","parent":"E07000123","type":"LSOA","pop":1812,"r":380,"ff":129,"ffd":7119.2,"ffs":0.451,"g":92,"co":0,"mo":0,"sa":0,"ic":0},"geometry":{"type":"Polygon","coordinates":[[[-2.68718,53.76917],[-2.68671,53.76837],[-2.68843,53.76834],[-2.68842,53.76784],[-2.68668,53.76807],[-2.68654,53.76762],[-2.69586,53.76633],[-2.69612,53.76726],[-2.69147,53.7679],[-2.69135,53.76838],[-2.6908,53.76847],[-2.69064,53.7691],[-2.68915,53.76913],[-2.68878,53.7687],[-2.68835,53.76933],[-2.68718,53.76917]]]}},{"type":"Feature","properties":{"id":"E01025245","name":"E01025245","parent":"E07000123","type":"LSOA","pop":2762,"r":368,"ff":123,"ffd":4453.3,"ffs":0.4457,"g":90,"co":0,"mo":0,"sa":0,"ic":0},"geometry":{"type":"Polygon","coordinates":[[[-2.67863,53.77802],[-2.6773,53.77619],[-2.67487,53.77343],[-2.67434,53.77313],[-2.67396,53.77327],[-2.68318,53.76861],[-2.68415,53.77051],[-2.68328,53.77076],[-2.6842,53.77104],[-2.68494,53.77066],[-2.68676,53.77274],[-2.68832,53.77306],[-2.68952,53.77406],[-2.6899,53.774],[-2.68985,53.77453],[-2.68902,53.77653],[-2.68702,53.77679],[-2.68645,53.77647],[-2.68537,53.77707],[-2.68187,53.77787],[-2.68129,53.77792],[-2.68048,53.77752],[-2.67863,53.77802]]]}},{"type":"Feature","properties":{"id":"E01025246","name":"E01025246","parent":"E07000123","type":"LSOA","pop":1903,"r":379,"ff":129,"ffd":6778.8,"ffs":0.4526,"g":92,"co":0,"mo":0,"sa":0,"ic":0},"geometry":{"type":"Polygon","coordinates":[[[-2.68985,53.77453],[-2.6899,53.774],[-2.68952,53.77406],[-2.68832,53.77306],[-2.68676,53.77274],[-2.68494,53.77066],[-2.6842,53.77104],[-2.68328,53.77076],[-2.68415,53.77051],[-2.68318,53.76861],[-2.68654,53.76762],[-2.68668,53.76807],[-2.68842,53.76784],[-2.68843,53.76834],[-2.68671,53.76837],[-2.68718,53.76917],[-2.68835,53.76933],[-2.68878,53.7687],[-2.68915,53.76913],[-2.69064,53.7691],[-2.6908,53.76847],[-2.69135,53.76838],[-2.68985,53.77453]]]}},{"type":"Feature","properties":{"id":"E01025247","name":"E01025247","parent":"E07000123","type":"LSOA","pop":1821,"r":399,"ff":131,"ffd":7193.8,"ffs":0.4411,"g":100,"co":0,"mo":0,"sa":0,"ic":0},"geometry":{"type":"Polygon","coordinates":[[[-2.67585,53.76135],[-2.67551,53.75975],[-2.67388,53.75985],[-2.67478,53.75917],[-2.67654,53.75914],[-2.67624,53.75772],[-2.67687,53.75693],[-2.67576,53.75508],[-2.67757,53.75334],[-2.67999,53.75346],[-2.67973,53.75311],[-2.6801,53.75347],[-2.68218,53.7563],[-2.68064,53.75689],[-2.68251,53.75845],[-2.68331,53.75819],[-2.68439,53.75888],[-2.68385,53.75921],[-2.68405,53.75993],[-2.68504,53.76088],[-2.67544,53.76348],[-2.67416,53.76147],[-2.67585,53.76135]]]}},{"type":"Feature","properties":{"id":"E01025248","name":"E01025248","parent":"E07000123","type":"LSOA","pop":1453,"r":385,"ff":123,"ffd":8465.2,"ffs":0.4377,"g":102,"co":0,"mo":0,"sa":0,"ic":0},"geometry":{"type":"Polygon","coordinates":[[[-2.66026,53.76571],[-2.66026,53.76548],[-2.66239,53.76549],[-2.66241,53.76504],[-2.66106,53.76402],[-2.66172,53.76145],[-2.66143,53.75966],[-2.66535,53.76056],[-2.66691,53.76153],[-2.66919,53.76191],[-2.66992,53.76236],[-2.66971,53.76268],[-2.67052,53.7628],[-2.67118,53.76336],[-2.67067,53.76384],[-2.67017,53.76365],[-2.66866,53.76407],[-2.66838,53.76447],[-2.66923,53.76473],[-2.66933,53.76508],[-2.66892,53.76513],[-2.66912,53.76546],[-2.66026,53.76571]]]}},{"type":"Feature","properties":{"id":"E01025249","name":"E01025249","parent":"E07000123","type":"LSOA","pop":1118,"r":406,"ff":128,"ffd":11449.0,"ffs":0.431,"g":107,"co":0,"mo":0,"sa":0,"ic":0},"geometry":{"type":"Polygon","coordinates":[[[-2.65041,53.76572],[-2.64389,53.76497],[-2.64382,53.76134],[-2.64502,53.76022],[-2.64664,53.75997],[-2.65239,53.76107],[-2.65547,53.76091],[-2.65744,53.7599],[-2.65891,53.75779],[-2.66143,53.75966],[-2.66172,53.76145],[-2.66106,53.76402],[-2.66241,53.76504],[-2.66239,53.76549],[-2.66026,53.76548],[-2.66026,53.76571],[-2.65041,53.76572]]]}},{"type":"Feature","properties":{"id":"E01025250","name":"E01025250","parent":"E07000123","type":"LSOA","pop":1744,"r":391,"ff":128,"ffd":7339.4,"ffs":0.4414,"g":99,"co":0,"mo":0,"sa":0,"ic":0},"geometry":{"type":"MultiPolygon","coordinates":[[[[-2.67946,53.75322],[-2.67969,53.75312],[-2.67999,53.75346],[-2.67782,53.75335],[-2.67946,53.75322]]],[[[-2.66866,53.76407],[-2.67017,53.76365],[-2.67067,53.76384],[-2.67118,53.76336],[-2.67052,53.7628],[-2.66971,53.76268],[-2.66992,53.76236],[-2.66919,53.76191],[-2.66691,53.76153],[-2.66535,53.76056],[-2.66143,53.75966],[-2.65891,53.75779],[-2.65922,53.75361],[-2.66051,53.75145],[-2.66192,53.7502],[-2.66225,53.75038],[-2.66535,53.74885],[-2.66726,53.74864],[-2.6691,53.74883],[-2.67363,53.7502],[-2.67781,53.75305],[-2.67773,53.75335],[-2.67576,53.75508],[-2.67687,53.75693],[-2.67624,53.75772],[-2.67654,53.75914],[-2.67478,53.75917],[-2.67388,53.75985],[-2.67551,53.75975],[-2.67585,53.76135],[-2.67416,53.76147],[-2.67544,53.76348],[-2.66912,53.76546],[-2.66892,53.76513],[-2.66933,53.76508],[-2.66923,53.76473],[-2.66838,53.76447],[-2.66866,53.76407]]]]}},{"type":"Feature","properties":{"id":"E01025251","name":"E01025251","parent":"E07000123","type":"LSOA","pop":1556,"r":346,"ff":114,"ffd":7326.5,"ffs":0.4368,"g":83,"co":0,"mo":0,"sa":0,"ic":0},"geometry":{"type":"Polygon","coordinates":[[[-2.68582,53.78861],[-2.68543,53.78693],[-2.68483,53.7857],[-2.68614,53.7863],[-2.68425,53.78383],[-2.6857,53.7833],[-2.6856,53.78296],[-2.6862,53.78277],[-2.68553,53.781],[-2.6877,53.78082],[-2.68687,53.77832],[-2.68764,53.77787],[-2.6923,53.7788],[-2.69336,53.77873],[-2.69351,53.77945],[-2.69673,53.77925],[-2.69685,53.78054],[-2.69797,53.78055],[-2.69806,53.78233],[-2.69701,53.78368],[-2.69638,53.78382],[-2.69549,53.78485],[-2.6929,53.78636],[-2.69147,53.7862],[-2.68977,53.78692],[-2.68927,53.78784],[-2.6871,53.78772],[-2.68645,53.78848],[-2.68582,53.78861]]]}},{"type":"Feature","properties":{"id":"E01025252","name":"E01025252","parent":"E07000123","type":"LSOA","pop":1417,"r":346,"ff":114,"ffd":8045.2,"ffs":0.4368,"g":83,"co":0,"mo":0,"sa":0,"ic":0},"geometry":{"type":"Polygon","coordinates":[[[-2.67852,53.78268],[-2.67699,53.78088],[-2.67483,53.78125],[-2.67276,53.7784],[-2.67355,53.77816],[-2.67849,53.77805],[-2.68048,53.77752],[-2.68129,53.77792],[-2.68187,53.77787],[-2.68537,53.77707],[-2.68645,53.77647],[-2.68702,53.77679],[-2.68902,53.77653],[-2.68764,53.77787],[-2.68687,53.77832],[-2.6877,53.78082],[-2.68553,53.781],[-2.68532,53.78057],[-2.6846,53.78067],[-2.68401,53.78193],[-2.68079,53.78233],[-2.67948,53.78161],[-2.67897,53.78178],[-2.67852,53.78268]]]}},{"type":"Feature","properties":{"id":"E01025253","name":"E01025253","parent":"E07000123","type":"LSOA","pop":1864,"r":328,"ff":103,"ffd":5525.8,"ffs":0.4274,"g":85,"co":0,"mo":2,"sa":0,"ic":0},"geometry":{"type":"Polygon","coordinates":[[[-2.66668,53.79159],[-2.66607,53.79036],[-2.66531,53.78983],[-2.66693,53.78946],[-2.66734,53.79039],[-2.66908,53.79009],[-2.66974,53.78959],[-2.66967,53.78937],[-2.66829,53.78947],[-2.66857,53.78865],[-2.66819,53.78816],[-2.66901,53.78802],[-2.6694,53.78882],[-2.67198,53.7883],[-2.67266,53.78776],[-2.67225,53.78679],[-2.67531,53.78691],[-2.67552,53.78818],[-2.67677,53.78835],[-2.67645,53.78895],[-2.67717,53.79041],[-2.67791,53.79075],[-2.68003,53.7911],[-2.68071,53.79063],[-2.68216,53.79134],[-2.68273,53.79114],[-2.68237,53.79074],[-2.68606,53.78912],[-2.68814,53.79138],[-2.68342,53.79362],[-2.68259,53.7943],[-2.68435,53.79529],[-2.6818,53.7979],[-2.68165,53.79952],[-2.67612,53.79957],[-2.67454,53.79833],[-2.67372,53.79809],[-2.67364,53.79696],[-2.67193,53.79573],[-2.67299,53.79479],[-2.67306,53.79363],[-2.66644,53.79195],[-2.66668,53.79159]]]}},{"type":"Feature","properties":{"id":"E01025254","name":"E01025254","parent":"E07000123","type":"LSOA","pop":1216,"r":361,"ff":112,"ffd":9210.5,"ffs":0.4211,"g":93,"co":0,"mo":2,"sa":0,"ic":0},"geometry":{"type":"Polygon","coordinates":[[[-2.68216,53.79134],[-2.68071,53.79063],[-2.68003,53.7911],[-2.67791,53.79075],[-2.67717,53.79041],[-2.67645,53.78895],[-2.67677,53.78835],[-2.67552,53.78818],[-2.67531,53.78691],[-2.67604,53.78679],[-2.6769,53.78712],[-2.67785,53.78685],[-2.67961,53.78722],[-2.67963,53.78613],[-2.67917,53.78621],[-2.6784,53.78502],[-2.67991,53.78409],[-2.67852,53.78268],[-2.67897,53.78178],[-2.67948,53.78161],[-2.68079,53.78233],[-2.68401,53.78193],[-2.6846,53.78067],[-2.68532,53.78057],[-2.6862,53.78277],[-2.6856,53.78296],[-2.6857,53.7833],[-2.68425,53.78383],[-2.68614,53.7863],[-2.68483,53.7857],[-2.68543,53.78693],[-2.68606,53.78912],[-2.68237,53.79074],[-2.68273,53.79114],[-2.68216,53.79134]]]}},{"type":"Feature","properties":{"id":"E01025255","name":"E01025255","parent":"E07000123","type":"LSOA","pop":1464,"r":369,"ff":114,"ffd":7786.9,"ffs":0.4222,"g":97,"co":0,"mo":2,"sa":0,"ic":0},"geometry":{"type":"Polygon","coordinates":[[[-2.64593,53.79108],[-2.65232,53.78674],[-2.6565,53.78642],[-2.65953,53.78666],[-2.66101,53.78635],[-2.66098,53.78584],[-2.66207,53.7853],[-2.66408,53.78532],[-2.66581,53.78511],[-2.66651,53.7853],[-2.6718,53.78367],[-2.67304,53.78392],[-2.67352,53.7837],[-2.67732,53.78414],[-2.6795,53.7837],[-2.67991,53.78409],[-2.6784,53.78502],[-2.67917,53.78621],[-2.67963,53.78613],[-2.67961,53.78722],[-2.67785,53.78685],[-2.6769,53.78712],[-2.67604,53.78679],[-2.67225,53.78679],[-2.67266,53.78776],[-2.67198,53.7883],[-2.6694,53.78882],[-2.66901,53.78802],[-2.66819,53.78816],[-2.66857,53.78865],[-2.66829,53.78947],[-2.66967,53.78937],[-2.66974,53.78959],[-2.66908,53.79009],[-2.66734,53.79039],[-2.66693,53.78946],[-2.66531,53.78983],[-2.66607,53.79036],[-2.66668,53.79159],[-2.66644,53.79195],[-2.66224,53.79034],[-2.65511,53.79229],[-2.64993,53.79325],[-2.64826,53.79196],[-2.64593,53.79108]]]}},{"type":"Feature","properties":{"id":"E01025256","name":"E01025256","parent":"E07000123","type":"LSOA","pop":1527,"r":340,"ff":111,"ffd":7269.2,"ffs":0.437,"g":84,"co":0,"mo":2,"sa":0,"ic":0},"geometry":{"type":"Polygon","coordinates":[[[-2.71404,53.79414],[-2.71353,53.79139],[-2.71156,53.78411],[-2.71426,53.78336],[-2.71596,53.78337],[-2.71796,53.78298],[-2.72556,53.78357],[-2.72559,53.7839],[-2.72326,53.78396],[-2.72105,53.78471],[-2.72005,53.78485],[-2.71904,53.78436],[-2.71829,53.78448],[-2.71825,53.78413],[-2.71726,53.78426],[-2.718,53.78466],[-2.71552,53.78514],[-2.71557,53.78609],[-2.71624,53.78632],[-2.7167,53.78716],[-2.71719,53.78707],[-2.71736,53.78774],[-2.71692,53.78832],[-2.71787,53.78859],[-2.71776,53.78893],[-2.7171,53.78959],[-2.71655,53.78962],[-2.71683,53.7905],[-2.71786,53.79086],[-2.71811,53.79066],[-2.71807,53.79127],[-2.71732,53.7915],[-2.71786,53.79205],[-2.71748,53.79222],[-2.71633,53.79181],[-2.71574,53.79221],[-2.71664,53.79332],[-2.71616,53.79331],[-2.716,53.79374],[-2.71489,53.79378],[-2.71446,53.79416],[-2.71404,53.79414]]]}},{"type":"Feature","properties":{"id":"E01025257","name":"E01025257","parent":"E07000123","type":"LSOA","pop":1686,"r":318,"ff":98,"ffd":5812.6,"ffs":0.4188,"g":82,"co":0,"mo":0,"sa":0,"ic":0},"geometry":{"type":"Polygon","coordinates":[[[-2.72664,53.79587],[-2.7266,53.79526],[-2.72601,53.7941],[-2.72554,53.7941],[-2.72574,53.79384],[-2.72385,53.79381],[-2.72246,53.79344],[-2.72393,53.79289],[-2.72275,53.79132],[-2.72265,53.79094],[-2.72432,53.79048],[-2.72672,53.79119],[-2.72732,53.79091],[-2.72668,53.78645],[-2.72648,53.78621],[-2.72444,53.78659],[-2.72326,53.78396],[-2.72559,53.7839],[-2.72556,53.78357],[-2.72674,53.78347],[-2.72732,53.78138],[-2.72918,53.7802],[-2.73094,53.77942],[-2.73184,53.78139],[-2.73137,53.78253],[-2.73239,53.78303],[-2.73267,53.78402],[-2.73394,53.78507],[-2.73486,53.78707],[-2.73675,53.78843],[-2.73884,53.78897],[-2.74004,53.7889],[-2.74051,53.78859],[-2.74078,53.7888],[-2.73934,53.79177],[-2.73975,53.79215],[-2.74368,53.79023],[-2.74627,53.79094],[-2.74502,53.79155],[-2.74546,53.79235],[-2.74464,53.79261],[-2.74479,53.79294],[-2.74201,53.79477],[-2.72959,53.79626],[-2.72942,53.79598],[-2.72863,53.79613],[-2.72838,53.79558],[-2.72481,53.79665],[-2.72472,53.79603],[-2.72664,53.79587]]]}},{"type":"Feature","properties":{"id":"E01025258","name":"E01025258","parent":"E07000123","type":"LSOA","pop":1543,"r":346,"ff":114,"ffd":7388.2,"ffs":0.4368,"g":83,"co":0,"mo":0,"sa":0,"ic":0},"geometry":{"type":"Polygon","coordinates":[[[-2.72026,53.79271],[-2.71963,53.79166],[-2.71862,53.79193],[-2.71807,53.79127],[-2.71811,53.79066],[-2.71786,53.79086],[-2.71683,53.7905],[-2.71655,53.78962],[-2.7171,53.78959],[-2.71776,53.78893],[-2.71787,53.78859],[-2.71692,53.78832],[-2.71736,53.78774],[-2.71719,53.78707],[-2.7167,53.78716],[-2.71624,53.78632],[-2.71557,53.78609],[-2.71552,53.78514],[-2.718,53.78466],[-2.71726,53.78426],[-2.71825,53.78413],[-2.71829,53.78448],[-2.71904,53.78436],[-2.72005,53.78485],[-2.72105,53.78471],[-2.72326,53.78396],[-2.72444,53.78659],[-2.72648,53.78621],[-2.72668,53.78645],[-2.72732,53.79091],[-2.72672,53.79119],[-2.72432,53.79048],[-2.72265,53.79094],[-2.72275,53.79132],[-2.72184,53.79157],[-2.72211,53.79208],[-2.72026,53.79271]]]}},{"type":"Feature","properties":{"id":"E01025259","name":"E01025259","parent":"E07000123","type":"LSOA","pop":2988,"r":331,"ff":103,"ffd":3447.1,"ffs":0.4256,"g":87,"co":0,"mo":0,"sa":0,"ic":0},"geometry":{"type":"Polygon","coordinates":[[[-2.71529,53.79785],[-2.71426,53.79613],[-2.71404,53.79414],[-2.71446,53.79416],[-2.71489,53.79378],[-2.716,53.79374],[-2.71616,53.79331],[-2.71664,53.79332],[-2.71574,53.79221],[-2.71633,53.79181],[-2.71748,53.79222],[-2.71786,53.79205],[-2.71732,53.7915],[-2.71807,53.79127],[-2.71862,53.79193],[-2.71963,53.79166],[-2.72026,53.79271],[-2.72211,53.79208],[-2.72184,53.79157],[-2.72275,53.79132],[-2.72393,53.79289],[-2.72246,53.79344],[-2.72385,53.79381],[-2.72574,53.79384],[-2.72554,53.7941],[-2.72601,53.7941],[-2.7266,53.79526],[-2.72664,53.79587],[-2.72472,53.79603],[-2.72481,53.79665],[-2.72838,53.79558],[-2.72863,53.79613],[-2.72942,53.79598],[-2.72959,53.79626],[-2.72839,53.79674],[-2.72981,53.7991],[-2.71671,53.80082],[-2.71529,53.79785]]]}},{"type":"Feature","properties":{"id":"E01025260","name":"E01025260","parent":"E07000123","type":"LSOA","pop":1894,"r":323,"ff":106,"ffd":5596.6,"ffs":0.438,"g":79,"co":0,"mo":0,"sa":0,"ic":0},"geometry":{"type":"Polygon","coordinates":[[[-2.74542,53.78117],[-2.74498,53.7811],[-2.74276,53.78173],[-2.74171,53.78068],[-2.74282,53.78023],[-2.741,53.78009],[-2.74224,53.77927],[-2.74159,53.77872],[-2.74048,53.77872],[-2.73996,53.77842],[-2.73883,53.77659],[-2.7356,53.77426],[-2.73665,53.77373],[-2.73695,53.77412],[-2.73913,53.77458],[-2.74037,53.77404],[-2.74397,53.77457],[-2.74621,53.77392],[-2.74937,53.77474],[-2.75061,53.77673],[-2.75156,53.77947],[-2.75053,53.78059],[-2.74862,53.78081],[-2.74723,53.78137],[-2.74561,53.78174],[-2.74542,53.78117]]]}},{"type":"Feature","properties":{"id":"E01025261","name":"E01025261","parent":"E07000123","type":"LSOA","pop":1469,"r":326,"ff":108,"ffd":7351.9,"ffs":0.4408,"g":79,"co":0,"mo":0,"sa":0,"ic":0},"geometry":{"type":"Polygon","coordinates":[[[-2.73265,53.77469],[-2.73304,53.77417],[-2.7356,53.77426],[-2.73883,53.77659],[-2.73996,53.77842],[-2.74048,53.77872],[-2.74159,53.77872],[-2.74224,53.77927],[-2.74049,53.7805],[-2.74114,53.78133],[-2.74064,53.78178],[-2.74089,53.7821],[-2.7391,53.78215],[-2.73754,53.78297],[-2.73826,53.78411],[-2.73394,53.78507],[-2.73267,53.78402],[-2.73239,53.78303],[-2.73137,53.78253],[-2.73184,53.78139],[-2.73094,53.77942],[-2.73405,53.77814],[-2.73503,53.7773],[-2.73127,53.77498],[-2.73265,53.77469]]]}},{"type":"Feature","properties":{"id":"E01025262","name":"E01025262","parent":"E07000123","type":"LSOA","pop":1474,"r":321,"ff":105,"ffd":7123.5,"ffs":0.4375,"g":79,"co":0,"mo":0,"sa":0,"ic":0},"geometry":{"type":"Polygon","coordinates":[[[-2.74761,53.78451],[-2.74808,53.78414],[-2.74328,53.78444],[-2.74367,53.78403],[-2.7424,53.78303],[-2.74103,53.78324],[-2.74071,53.78284],[-2.73796,53.78358],[-2.73754,53.78297],[-2.7391,53.78215],[-2.74089,53.7821],[-2.74064,53.78178],[-2.74114,53.78133],[-2.74049,53.7805],[-2.741,53.78009],[-2.74282,53.78023],[-2.74171,53.78068],[-2.74276,53.78173],[-2.74498,53.7811],[-2.74542,53.78117],[-2.74561,53.78174],[-2.74723,53.78137],[-2.74862,53.78081],[-2.75053,53.78059],[-2.75156,53.77947],[-2.75175,53.78098],[-2.75167,53.78234],[-2.75123,53.78436],[-2.75032,53.787],[-2.7484,53.78663],[-2.74774,53.7863],[-2.74741,53.78523],[-2.74816,53.78503],[-2.74761,53.78451]]]}},{"type":"Feature","properties":{"id":"E01025263","name":"E01025263","parent":"E07000123","type":"LSOA","pop":1493,"r":323,"ff":103,"ffd":6898.9,"ffs":0.4328,"g":83,"co":0,"mo":0,"sa":0,"ic":0},"geometry":{"type":"Polygon","coordinates":[[[-2.73934,53.79177],[-2.74078,53.7888],[-2.74116,53.78865],[-2.74088,53.78847],[-2.74268,53.78779],[-2.74447,53.78816],[-2.74527,53.78729],[-2.74468,53.78695],[-2.74568,53.78696],[-2.74647,53.78616],[-2.7461,53.7856],[-2.74629,53.78481],[-2.74673,53.78506],[-2.74726,53.78488],[-2.74774,53.7863],[-2.7484,53.78663],[-2.75032,53.787],[-2.75042,53.78682],[-2.74982,53.78851],[-2.74804,53.79112],[-2.74532,53.7921],[-2.74502,53.79155],[-2.74627,53.79094],[-2.74368,53.79023],[-2.73975,53.79215],[-2.73934,53.79177]]]}},{"type":"Feature","properties":{"id":"E01025264","name":"E01025264","parent":"E07000123","type":"LSOA","pop":1733,"r":322,"ff":105,"ffd":6058.9,"ffs":0.4357,"g":79,"co":0,"mo":0,"sa":0,"ic":0},"geometry":{"type":"Polygon","coordinates":[[[-2.73884,53.78897],[-2.73675,53.78843],[-2.73486,53.78707],[-2.73394,53.78507],[-2.73826,53.78411],[-2.73796,53.78358],[-2.74071,53.78284],[-2.74103,53.78324],[-2.7424,53.78303],[-2.74367,53.78403],[-2.74328,53.78444],[-2.74808,53.78414],[-2.74761,53.78451],[-2.74816,53.78503],[-2.74741,53.78523],[-2.74726,53.78488],[-2.74673,53.78506],[-2.74629,53.78481],[-2.7461,53.7856],[-2.74647,53.78616],[-2.74568,53.78696],[-2.74468,53.78695],[-2.74527,53.78729],[-2.74447,53.78816],[-2.74268,53.78779],[-2.74088,53.78847],[-2.74116,53.78865],[-2.74078,53.7888],[-2.74051,53.78859],[-2.74004,53.7889],[-2.73884,53.78897]]]}},{"type":"Feature","properties":{"id":"E01025265","name":"E01025265","parent":"E07000123","type":"LSOA","pop":1406,"r":310,"ff":100,"ffd":7112.4,"ffs":0.4348,"g":78,"co":0,"mo":0,"sa":0,"ic":0},"geometry":{"type":"Polygon","coordinates":[[[-2.74947,53.77289],[-2.75019,53.77185],[-2.75121,53.77219],[-2.75249,53.77175],[-2.75364,53.77183],[-2.75377,53.77151],[-2.75449,53.77184],[-2.75455,53.77226],[-2.75611,53.77243],[-2.756,53.77179],[-2.75532,53.77152],[-2.75492,53.77046],[-2.754,53.77022],[-2.75491,53.76978],[-2.75694,53.76975],[-2.75714,53.77008],[-2.75767,53.77004],[-2.75781,53.77083],[-2.75862,53.77152],[-2.75997,53.77102],[-2.75835,53.77043],[-2.75905,53.76963],[-2.76044,53.76964],[-2.76162,53.77156],[-2.76563,53.77524],[-2.75881,53.77549],[-2.75423,53.77532],[-2.75055,53.77488],[-2.75071,53.77442],[-2.75028,53.77435],[-2.75082,53.77415],[-2.75081,53.77288],[-2.74947,53.77289]]]}},{"type":"Feature","properties":{"id":"E01025266","name":"E01025266","parent":"E07000123","type":"LSOA","pop":1151,"r":328,"ff":106,"ffd":9209.4,"ffs":0.4344,"g":82,"co":0,"mo":0,"sa":0,"ic":0},"geometry":{"type":"Polygon","coordinates":[[[-2.742,53.77274],[-2.73944,53.77192],[-2.73939,53.76886],[-2.73956,53.76864],[-2.74263,53.76888],[-2.74311,53.76937],[-2.74421,53.76953],[-2.74567,53.76947],[-2.74514,53.77017],[-2.74594,53.77034],[-2.74689,53.77247],[-2.74906,53.772],[-2.74947,53.77289],[-2.75081,53.77288],[-2.75082,53.77415],[-2.75028,53.77435],[-2.75071,53.77442],[-2.75055,53.77488],[-2.74937,53.77474],[-2.742,53.77274]]]}},{"type":"Feature","properties":{"id":"E01025267","name":"E01025267","parent":"E07000123","type":"LSOA","pop":1423,"r":320,"ff":103,"ffd":7238.2,"ffs":0.4328,"g":80,"co":0,"mo":0,"sa":0,"ic":0},"geometry":{"type":"Polygon","coordinates":[[[-2.74947,53.77289],[-2.74906,53.772],[-2.74689,53.77247],[-2.74594,53.77034],[-2.74514,53.77017],[-2.74567,53.76947],[-2.74421,53.76953],[-2.74311,53.76937],[-2.74263,53.76888],[-2.7415,53.76878],[-2.74246,53.76825],[-2.74352,53.76665],[-2.7433,53.76616],[-2.74723,53.76684],[-2.74865,53.76755],[-2.75016,53.76763],[-2.74986,53.7682],[-2.75034,53.76866],[-2.75118,53.76858],[-2.75125,53.76817],[-2.7527,53.76804],[-2.75273,53.76719],[-2.75337,53.76716],[-2.75358,53.76742],[-2.75421,53.76736],[-2.75431,53.76794],[-2.75482,53.76805],[-2.75502,53.76772],[-2.75514,53.76804],[-2.7556,53.76776],[-2.7555,53.76707],[-2.75631,53.76703],[-2.75648,53.76731],[-2.75694,53.76696],[-2.75747,53.76727],[-2.75718,53.76807],[-2.75756,53.76805],[-2.75769,53.76844],[-2.75416,53.76884],[-2.75408,53.76921],[-2.7547,53.76948],[-2.75491,53.76978],[-2.754,53.77022],[-2.75492,53.77046],[-2.75532,53.77152],[-2.756,53.77179],[-2.75611,53.77243],[-2.75455,53.77226],[-2.75449,53.77184],[-2.75377,53.77151],[-2.75364,53.77183],[-2.75249,53.77175],[-2.75121,53.77219],[-2.75019,53.77185],[-2.74947,53.77289]]]}},{"type":"Feature","properties":{"id":"E01025268","name":"E01025268","parent":"E07000123","type":"LSOA","pop":1890,"r":321,"ff":104,"ffd":5502.6,"ffs":0.4388,"g":82,"co":0,"mo":0,"sa":0,"ic":0},"geometry":{"type":"Polygon","coordinates":[[[-2.75781,53.77083],[-2.75767,53.77004],[-2.75714,53.77008],[-2.75694,53.76975],[-2.75491,53.76978],[-2.7547,53.76948],[-2.75408,53.76921],[-2.75416,53.76884],[-2.75769,53.76844],[-2.75756,53.76805],[-2.75718,53.76807],[-2.75747,53.76727],[-2.75635,53.7668],[-2.75672,53.76647],[-2.75711,53.76664],[-2.75758,53.76611],[-2.75781,53.76539],[-2.75747,53.76508],[-2.75677,53.7651],[-2.75673,53.76642],[-2.75593,53.76609],[-2.75497,53.76612],[-2.75552,53.76564],[-2.75275,53.76353],[-2.7539,53.76292],[-2.7557,53.76269],[-2.75655,53.76302],[-2.75695,53.76279],[-2.75738,53.76338],[-2.75957,53.76327],[-2.76225,53.76167],[-2.76325,53.76173],[-2.76248,53.76338],[-2.75882,53.76506],[-2.75933,53.76599],[-2.75943,53.76809],[-2.76044,53.76964],[-2.75905,53.76963],[-2.75835,53.77043],[-2.75997,53.77102],[-2.75862,53.77152],[-2.75781,53.77083]]]}},{"type":"Feature","properties":{"id":"E01025269","name":"E01025269","parent":"E07000123","type":"LSOA","pop":1824,"r":328,"ff":106,"ffd":5811.4,"ffs":0.4362,"g":83,"co":0,"mo":0,"sa":0,"ic":0},"geometry":{"type":"Polygon","coordinates":[[[-2.74865,53.76755],[-2.74723,53.76684],[-2.7433,53.76616],[-2.74324,53.76573],[-2.74198,53.76528],[-2.74073,53.76565],[-2.74075,53.76279],[-2.74857,53.7627],[-2.75669,53.76148],[-2.76225,53.76167],[-2.75957,53.76327],[-2.75738,53.76338],[-2.75695,53.76279],[-2.75655,53.76302],[-2.7557,53.76269],[-2.7539,53.76292],[-2.75275,53.76353],[-2.75552,53.76564],[-2.75497,53.76612],[-2.75593,53.76609],[-2.75673,53.76642],[-2.75677,53.7651],[-2.75747,53.76508],[-2.75781,53.76539],[-2.75758,53.76611],[-2.75711,53.76664],[-2.75672,53.76647],[-2.75635,53.7668],[-2.75694,53.76696],[-2.75648,53.76731],[-2.75631,53.76703],[-2.7555,53.76707],[-2.7556,53.76776],[-2.75514,53.76804],[-2.75502,53.76772],[-2.75482,53.76805],[-2.75431,53.76794],[-2.75421,53.76736],[-2.75358,53.76742],[-2.75337,53.76716],[-2.75273,53.76719],[-2.7527,53.76804],[-2.75125,53.76817],[-2.75118,53.76858],[-2.75034,53.76866],[-2.74986,53.7682],[-2.75016,53.76763],[-2.74865,53.76755]]]}},{"type":"Feature","properties":{"id":"E01025270","name":"E01025270","parent":"E07000123","type":"LSOA","pop":1655,"r":309,"ff":97,"ffd":5861.0,"ffs":0.4254,"g":79,"co":0,"mo":0,"sa":0,"ic":0},"geometry":{"type":"MultiPolygon","coordinates":[[[[-2.79382,53.75183],[-2.794,53.75179],[-2.79416,53.75262],[-2.79073,53.7545],[-2.78984,53.75629],[-2.78951,53.75595],[-2.79005,53.75585],[-2.78941,53.7558],[-2.78843,53.75306],[-2.79382,53.75183]]],[[[-2.79556,53.76212],[-2.79555,53.76209],[-2.79558,53.7621],[-2.79556,53.76212]]],[[[-2.76162,53.77156],[-2.76053,53.76976],[-2.76113,53.76962],[-2.76189,53.77079],[-2.76371,53.77037],[-2.76241,53.76861],[-2.76223,53.76793],[-2.76263,53.7677],[-2.76487,53.76785],[-2.7647,53.76727],[-2.76716,53.76728],[-2.76699,53.76678],[-2.76506,53.76684],[-2.76482,53.76604],[-2.7652,53.76573],[-2.76741,53.76538],[-2.76684,53.76482],[-2.76714,53.76426],[-2.76421,53.76508],[-2.76334,53.76514],[-2.76361,53.76502],[-2.7641,53.7639],[-2.76469,53.76391],[-2.76503,53.76439],[-2.76662,53.76373],[-2.767,53.76395],[-2.7681,53.76368],[-2.76855,53.7643],[-2.76915,53.76418],[-2.76871,53.76336],[-2.76966,53.76312],[-2.7706,53.76365],[-2.7697,53.76385],[-2.77085,53.76435],[-2.76979,53.76479],[-2.77034,53.76511],[-2.77121,53.76481],[-2.77152,53.76521],[-2.77088,53.76541],[-2.77159,53.76615],[-2.77335,53.76568],[-2.77335,53.76601],[-2.77391,53.76614],[-2.77429,53.76561],[-2.775,53.7655],[-2.77459,53.76414],[-2.77345,53.76368],[-2.77407,53.76338],[-2.77138,53.76257],[-2.77102,53.76278],[-2.76731,53.76193],[-2.76701,53.76276],[-2.76672,53.76263],[-2.76401,53.7638],[-2.76107,53.7644],[-2.76094,53.76421],[-2.76248,53.76338],[-2.76436,53.75922],[-2.76415,53.75643],[-2.76429,53.7564],[-2.7739,53.75501],[-2.77771,53.75479],[-2.77814,53.7545],[-2.78292,53.75417],[-2.78446,53.7537],[-2.78789,53.75327],[-2.78911,53.75611],[-2.78791,53.75631],[-2.78777,53.75612],[-2.78698,53.75646],[-2.78648,53.75628],[-2.78684,53.75648],[-2.78616,53.75654],[-2.7847,53.75633],[-2.78625,53.75658],[-2.78901,53.75628],[-2.78889,53.75692],[-2.78736,53.75683],[-2.7847,53.75734],[-2.78339,53.7569],[-2.78456,53.75739],[-2.7844,53.75742],[-2.78513,53.75748],[-2.7875,53.75689],[-2.78882,53.75704],[-2.78953,53.75657],[-2.7902,53.75687],[-2.79057,53.7578],[-2.79006,53.75785],[-2.79005,53.75836],[-2.789,53.75862],[-2.78501,53.75861],[-2.78287,53.75806],[-2.78226,53.75729],[-2.78248,53.75788],[-2.78314,53.75821],[-2.78504,53.75863],[-2.78739,53.75869],[-2.7888,53.75867],[-2.79012,53.75839],[-2.79036,53.75792],[-2.79126,53.75936],[-2.78956,53.75944],[-2.79137,53.75945],[-2.79242,53.76084],[-2.79409,53.76096],[-2.79417,53.76158],[-2.79531,53.7621],[-2.79378,53.76366],[-2.79172,53.76402],[-2.78987,53.76555],[-2.78889,53.76541],[-2.78929,53.7657],[-2.78766,53.76528],[-2.78762,53.76556],[-2.78895,53.76578],[-2.79009,53.76577],[-2.79187,53.76416],[-2.79368,53.7638],[-2.79499,53.76265],[-2.7953,53.76313],[-2.79615,53.76338],[-2.7967,53.76435],[-2.79912,53.76573],[-2.79863,53.76705],[-2.79793,53.76737],[-2.79842,53.76876],[-2.79463,53.77037],[-2.79181,53.77],[-2.79053,53.77198],[-2.79021,53.77155],[-2.79108,53.76977],[-2.79068,53.76958],[-2.78948,53.76992],[-2.78636,53.77173],[-2.78599,53.7713],[-2.77847,53.77123],[-2.76977,53.77421],[-2.77034,53.77548],[-2.76607,53.77547],[-2.76162,53.77156]]]]}},{"type":"Feature","properties":{"id":"E01025271","name":"E01025271","parent":"E07000123","type":"LSOA","pop":1561,"r":313,"ff":102,"ffd":6534.3,"ffs":0.4397,"g":79,"co":0,"mo":0,"sa":0,"ic":0},"geometry":{"type":"Polygon","coordinates":[[[-2.76189,53.77079],[-2.76113,53.76962],[-2.76053,53.76976],[-2.75943,53.76809],[-2.75933,53.76599],[-2.75882,53.76506],[-2.76094,53.76421],[-2.76107,53.7644],[-2.76401,53.7638],[-2.76672,53.76263],[-2.76701,53.76276],[-2.76731,53.76193],[-2.77102,53.76278],[-2.77138,53.76257],[-2.77407,53.76338],[-2.77345,53.76368],[-2.77459,53.76414],[-2.775,53.7655],[-2.77429,53.76561],[-2.77391,53.76614],[-2.77335,53.76601],[-2.77335,53.76568],[-2.77159,53.76615],[-2.77088,53.76541],[-2.77152,53.76521],[-2.77121,53.76481],[-2.77034,53.76511],[-2.76979,53.76479],[-2.77085,53.76435],[-2.7697,53.76385],[-2.7706,53.76365],[-2.76966,53.76312],[-2.76871,53.76336],[-2.76915,53.76418],[-2.76855,53.7643],[-2.7681,53.76368],[-2.767,53.76395],[-2.76662,53.76373],[-2.76503,53.76439],[-2.76469,53.76391],[-2.7641,53.7639],[-2.76361,53.76502],[-2.76334,53.76514],[-2.76421,53.76508],[-2.76714,53.76426],[-2.76684,53.76482],[-2.76741,53.76538],[-2.7652,53.76573],[-2.76482,53.76604],[-2.76506,53.76684],[-2.76699,53.76678],[-2.76716,53.76728],[-2.7647,53.76727],[-2.76487,53.76785],[-2.76263,53.7677],[-2.76223,53.76793],[-2.76241,53.76861],[-2.76371,53.77037],[-2.76189,53.77079]]]}},{"type":"Feature","properties":{"id":"E01025272","name":"E01025272","parent":"E07000123","type":"LSOA","pop":4295,"r":302,"ff":88,"ffd":2048.9,"ffs":0.3982,"g":79,"co":0,"mo":2,"sa":0,"ic":0},"geometry":{"type":"Polygon","coordinates":[[[-2.77809,53.78521],[-2.77779,53.78473],[-2.77564,53.78543],[-2.76606,53.78629],[-2.76066,53.78705],[-2.76191,53.78582],[-2.76104,53.78502],[-2.76092,53.78399],[-2.75902,53.78458],[-2.75843,53.78365],[-2.75896,53.78334],[-2.75876,53.78303],[-2.75811,53.7832],[-2.75716,53.7823],[-2.75913,53.78158],[-2.75856,53.78081],[-2.75643,53.78014],[-2.75435,53.78122],[-2.75175,53.78098],[-2.75156,53.77947],[-2.75061,53.77673],[-2.74937,53.77474],[-2.75423,53.77532],[-2.75881,53.77549],[-2.76563,53.77524],[-2.76607,53.77547],[-2.77034,53.77548],[-2.76977,53.77421],[-2.77847,53.77123],[-2.78599,53.7713],[-2.78636,53.77173],[-2.78948,53.76992],[-2.79068,53.76958],[-2.79108,53.76977],[-2.79021,53.77155],[-2.79053,53.77198],[-2.79181,53.77],[-2.79463,53.77037],[-2.79842,53.76876],[-2.79866,53.77042],[-2.79819,53.77154],[-2.79115,53.78076],[-2.78507,53.78426],[-2.78051,53.78764],[-2.77886,53.78795],[-2.77801,53.78727],[-2.77809,53.78521]]]}},{"type":"Feature","properties":{"id":"E01025273","name":"E01025273","parent":"E07000123","type":"LSOA","pop":1283,"r":306,"ff":90,"ffd":7014.8,"ffs":0.4018,"g":80,"co":0,"mo":2,"sa":0,"ic":0},"geometry":{"type":"Polygon","coordinates":[[[-2.75106,53.78489],[-2.75167,53.78234],[-2.75175,53.78098],[-2.75435,53.78122],[-2.75643,53.78014],[-2.75856,53.78081],[-2.75913,53.78158],[-2.75716,53.7823],[-2.75811,53.7832],[-2.75876,53.78303],[-2.75896,53.78334],[-2.75843,53.78365],[-2.75902,53.78458],[-2.76092,53.78399],[-2.76104,53.78502],[-2.76191,53.78582],[-2.76066,53.78705],[-2.74982,53.78851],[-2.75106,53.78489]]]}},{"type":"Feature","properties":{"id":"E01025274","name":"E01025274","parent":"E07000123","type":"LSOA","pop":2336,"r":365,"ff":120,"ffd":5137.0,"ffs":0.4478,"g":95,"co":0,"mo":0,"sa":0,"ic":0},"geometry":{"type":"Polygon","coordinates":[[[-2.71087,53.77389],[-2.71045,53.77331],[-2.708,53.77357],[-2.70693,53.77389],[-2.70556,53.77102],[-2.70636,53.77084],[-2.70731,53.77117],[-2.70933,53.77047],[-2.71021,53.77064],[-2.71005,53.77036],[-2.71098,53.77015],[-2.71048,53.76961],[-2.71071,53.76918],[-2.71291,53.77257],[-2.71223,53.77295],[-2.71263,53.77358],[-2.71087,53.77389]]]}},{"type":"Feature","properties":{"id":"E01025275","name":"E01025275","parent":"E07000123","type":"LSOA","pop":1934,"r":371,"ff":125,"ffd":6463.3,"ffs":0.4496,"g":91,"co":0,"mo":0,"sa":0,"ic":0},"geometry":{"type":"Polygon","coordinates":[[[-2.69366,53.77664],[-2.68902,53.77653],[-2.68985,53.77453],[-2.69059,53.77128],[-2.70012,53.77147],[-2.69969,53.76922],[-2.70492,53.76897],[-2.71018,53.76837],[-2.71071,53.76918],[-2.71048,53.76961],[-2.71098,53.77015],[-2.71005,53.77036],[-2.71021,53.77064],[-2.70933,53.77047],[-2.70731,53.77117],[-2.70636,53.77084],[-2.70556,53.77102],[-2.70693,53.77389],[-2.70753,53.77481],[-2.70885,53.77622],[-2.70646,53.77607],[-2.69493,53.77611],[-2.69366,53.77664]]]}},{"type":"Feature","properties":{"id":"E01025276","name":"E01025276","parent":"E07000123","type":"LSOA","pop":1889,"r":351,"ff":116,"ffd":6140.8,"ffs":0.4394,"g":85,"co":0,"mo":0,"sa":0,"ic":0},"geometry":{"type":"Polygon","coordinates":[[[-2.70753,53.77481],[-2.70693,53.77389],[-2.70948,53.77334],[-2.71045,53.77331],[-2.71087,53.77389],[-2.71263,53.77358],[-2.71223,53.77295],[-2.71291,53.77257],[-2.71584,53.77709],[-2.70982,53.7776],[-2.7093,53.77676],[-2.70753,53.77481]]]}},{"type":"Feature","properties":{"id":"E01025277","name":"E01025277","parent":"E07000123","type":"LSOA","pop":3820,"r":261,"ff":69,"ffd":1806.3,"ffs":0.3876,"g":81,"co":0,"mo":2,"sa":0,"ic":0},"geometry":{"type":"Polygon","coordinates":[[[-2.71192,53.81873],[-2.70375,53.81762],[-2.70447,53.8159],[-2.70239,53.81019],[-2.70314,53.80903],[-2.70302,53.80844],[-2.70055,53.80792],[-2.70033,53.80809],[-2.69963,53.80755],[-2.6983,53.80729],[-2.69726,53.8078],[-2.69445,53.80752],[-2.69426,53.80777],[-2.69256,53.80721],[-2.69125,53.80797],[-2.68828,53.8081],[-2.68896,53.80592],[-2.68807,53.80535],[-2.68627,53.80505],[-2.68537,53.80425],[-2.68166,53.80334],[-2.68141,53.80364],[-2.68114,53.80268],[-2.67984,53.80254],[-2.67941,53.80172],[-2.67763,53.80105],[-2.67612,53.79957],[-2.68358,53.79953],[-2.68875,53.80082],[-2.69133,53.8006],[-2.69335,53.79983],[-2.6941,53.80007],[-2.69498,53.79959],[-2.6961,53.80022],[-2.70095,53.79889],[-2.70888,53.79759],[-2.70977,53.79759],[-2.71135,53.79824],[-2.71529,53.79785],[-2.71671,53.80082],[-2.72981,53.7991],[-2.73439,53.81031],[-2.7362,53.81549],[-2.73247,53.81687],[-2.73083,53.81795],[-2.72864,53.81801],[-2.72734,53.81851],[-2.72582,53.8186],[-2.72378,53.81843],[-2.72308,53.81873],[-2.72185,53.81843],[-2.72063,53.81929],[-2.721,53.81984],[-2.7183,53.821],[-2.71802,53.82073],[-2.71483,53.82063],[-2.71397,53.8195],[-2.71192,53.81873]]]}},{"type":"Feature","properties":{"id":"E01025278","name":"E01025278","parent":"E07000123","type":"LSOA","pop":3306,"r":198,"ff":58,"ffd":1754.4,"ffs":0.4496,"g":67,"co":0,"mo":0,"sa":0,"ic":0},"geometry":{"type":"Polygon","coordinates":[[[-2.64649,53.81744],[-2.64409,53.81345],[-2.6438,53.8113],[-2.6426,53.81124],[-2.64217,53.81086],[-2.63927,53.81105],[-2.63697,53.81207],[-2.63629,53.81161],[-2.63507,53.81167],[-2.63455,53.81124],[-2.63093,53.81289],[-2.62955,53.81328],[-2.62934,53.81378],[-2.62887,53.81371],[-2.62842,53.81409],[-2.62767,53.8141],[-2.62524,53.81502],[-2.62522,53.81546],[-2.62471,53.81556],[-2.62238,53.8138],[-2.61981,53.81026],[-2.61689,53.80889],[-2.61451,53.80637],[-2.61262,53.80491],[-2.6123,53.8039],[-2.61022,53.80466],[-2.6083,53.80422],[-2.60291,53.80064],[-2.60101,53.79898],[-2.60116,53.7987],[-2.59886,53.79742],[-2.59725,53.79734],[-2.59595,53.79679],[-2.59544,53.7962],[-2.59696,53.79565],[-2.59808,53.79472],[-2.60178,53.78968],[-2.60157,53.78689],[-2.59926,53.78222],[-2.59949,53.78147],[-2.60112,53.78063],[-2.60597,53.77897],[-2.60872,53.77853],[-2.61187,53.77858],[-2.61882,53.77937],[-2.62518,53.78173],[-2.63031,53.78273],[-2.63192,53.78279],[-2.62245,53.78672],[-2.62229,53.78756],[-2.62114,53.78858],[-2.6263,53.79145],[-2.62929,53.79114],[-2.63064,53.79034],[-2.63125,53.79087],[-2.6341,53.79091],[-2.63476,53.79218],[-2.63701,53.79291],[-2.63518,53.79528],[-2.63572,53.7954],[-2.63642,53.79505],[-2.6386,53.79527],[-2.63999,53.79553],[-2.63986,53.79608],[-2.64593,53.79108],[-2.64826,53.79196],[-2.64993,53.79325],[-2.65511,53.79229],[-2.66224,53.79034],[-2.66644,53.79195],[-2.67306,53.79363],[-2.67299,53.79479],[-2.67193,53.79573],[-2.67364,53.79696],[-2.67372,53.79809],[-2.67454,53.79833],[-2.67763,53.80105],[-2.67941,53.80172],[-2.67984,53.80254],[-2.68114,53.80268],[-2.68141,53.80364],[-2.68166,53.80334],[-2.68537,53.80425],[-2.68627,53.80505],[-2.68807,53.80535],[-2.68896,53.80592],[-2.68828,53.8081],[-2.68742,53.80795],[-2.68539,53.80836],[-2.68327,53.80956],[-2.68265,53.80914],[-2.68196,53.80956],[-2.67973,53.80861],[-2.67887,53.80943],[-2.67719,53.8102],[-2.67557,53.81023],[-2.67522,53.81064],[-2.67394,53.81083],[-2.6736,53.81055],[-2.67282,53.8106],[-2.67132,53.81096],[-2.67054,53.81151],[-2.66961,53.81149],[-2.66926,53.81109],[-2.66585,53.81116],[-2.66466,53.81176],[-2.66112,53.81236],[-2.65917,53.81309],[-2.65642,53.81242],[-2.65557,53.81331],[-2.65398,53.81366],[-2.65304,53.81347],[-2.65219,53.81406],[-2.65146,53.81403],[-2.65119,53.81591],[-2.64965,53.81663],[-2.64649,53.81744]]]}},{"type":"Feature","properties":{"id":"E01025279","name":"E01025279","parent":"E07000123","type":"LSOA","pop":3422,"r":14,"ff":10,"ffd":292.2,"ffs":0.7143,"g":0,"co":3,"mo":3,"sa":3,"ic":1},"geometry":{"type":"Polygon","coordinates":[[[-2.65724,53.89617],[-2.65325,53.89588],[-2.65208,53.89608],[-2.6516,53.89555],[-2.64923,53.89495],[-2.64713,53.89479],[-2.64674,53.89431],[-2.64554,53.89454],[-2.64474,53.89277],[-2.63796,53.89107],[-2.63597,53.89029],[-2.63474,53.88833],[-2.63626,53.88625],[-2.63685,53.88451],[-2.63553,53.88279],[-2.62956,53.88181],[-2.62538,53.8803],[-2.62613,53.87794],[-2.62507,53.87614],[-2.62749,53.8744],[-2.62584,53.87011],[-2.62626,53.86784],[-2.6251,53.86702],[-2.62691,53.86522],[-2.62829,53.86348],[-2.62999,53.8622],[-2.62887,53.86079],[-2.62936,53.85999],[-2.62864,53.85972],[-2.62897,53.8593],[-2.62856,53.85864],[-2.62707,53.85774],[-2.62644,53.85784],[-2.62438,53.85722],[-2.62325,53.8564],[-2.62029,53.85642],[-2.62088,53.85596],[-2.62062,53.85546],[-2.61953,53.85554],[-2.61937,53.85471],[-2.61727,53.85306],[-2.6164,53.85173],[-2.61515,53.85162],[-2.61441,53.85109],[-2.61661,53.85064],[-2.6179,53.84934],[-2.61987,53.84873],[-2.62086,53.84889],[-2.6225,53.8476],[-2.62326,53.84672],[-2.62046,53.84555],[-2.60796,53.8388],[-2.61032,53.83495],[-2.61023,53.82875],[-2.61059,53.82743],[-2.61038,53.82699],[-2.61099,53.82649],[-2.61142,53.8253],[-2.61317,53.82361],[-2.61508,53.82257],[-2.61509,53.82117],[-2.61575,53.82075],[-2.61566,53.82031],[-2.6165,53.81958],[-2.6174,53.81953],[-2.61788,53.81907],[-2.61833,53.81918],[-2.61961,53.81819],[-2.62031,53.81812],[-2.6214,53.81724],[-2.62522,53.81546],[-2.62524,53.81502],[-2.62767,53.8141],[-2.62842,53.81409],[-2.62887,53.81371],[-2.62934,53.81378],[-2.62955,53.81328],[-2.63093,53.81289],[-2.63455,53.81124],[-2.63507,53.81167],[-2.63629,53.81161],[-2.63697,53.81207],[-2.63927,53.81105],[-2.64217,53.81086],[-2.6426,53.81124],[-2.6438,53.8113],[-2.64409,53.81345],[-2.64649,53.81744],[-2.64965,53.81663],[-2.6482,53.81869],[-2.64213,53.82131],[-2.64165,53.82279],[-2.6453,53.82258],[-2.64604,53.82274],[-2.64604,53.82324],[-2.64752,53.82434],[-2.65072,53.82483],[-2.65123,53.82462],[-2.65249,53.82479],[-2.65612,53.82824],[-2.65989,53.82701],[-2.66134,53.82893],[-2.66221,53.82921],[-2.66989,53.82816],[-2.67193,53.82848],[-2.67435,53.83092],[-2.6769,53.8323],[-2.67814,53.83217],[-2.68073,53.83105],[-2.67955,53.82811],[-2.6812,53.82686],[-2.68462,53.8252],[-2.68258,53.82538],[-2.6794,53.82345],[-2.67637,53.8215],[-2.67731,53.82135],[-2.67642,53.82075],[-2.67574,53.81961],[-2.67247,53.81957],[-2.67089,53.81918],[-2.67042,53.81812],[-2.66853,53.81628],[-2.66926,53.81109],[-2.66961,53.81149],[-2.67054,53.81151],[-2.67132,53.81096],[-2.67282,53.8106],[-2.6736,53.81055],[-2.67394,53.81083],[-2.67522,53.81064],[-2.67557,53.81023],[-2.67719,53.8102],[-2.67887,53.80943],[-2.67973,53.80861],[-2.68196,53.80956],[-2.68265,53.80914],[-2.68327,53.80956],[-2.68539,53.80836],[-2.68742,53.80795],[-2.68828,53.8081],[-2.69125,53.80797],[-2.69256,53.80721],[-2.69426,53.80777],[-2.69445,53.80752],[-2.69726,53.8078],[-2.6983,53.80729],[-2.69963,53.80755],[-2.70033,53.80809],[-2.70055,53.80792],[-2.70302,53.80844],[-2.70314,53.80903],[-2.70239,53.81019],[-2.70447,53.8159],[-2.702,53.82236],[-2.70166,53.8272],[-2.70284,53.83424],[-2.70237,53.83612],[-2.70321,53.83599],[-2.70372,53.83643],[-2.70286,53.83783],[-2.7033,53.83856],[-2.70528,53.83876],[-2.70649,53.8396],[-2.70619,53.83993],[-2.70463,53.83983],[-2.70414,53.8407],[-2.70315,53.84079],[-2.70347,53.84109],[-2.70226,53.84137],[-2.70182,53.84209],[-2.70111,53.84231],[-2.70146,53.84274],[-2.69986,53.8428],[-2.70025,53.84323],[-2.69837,53.84406],[-2.69807,53.84493],[-2.699,53.84582],[-2.69845,53.8472],[-2.69882,53.84752],[-2.6978,53.84867],[-2.69954,53.84845],[-2.69906,53.84941],[-2.6994,53.84991],[-2.69848,53.85012],[-2.69885,53.8529],[-2.70042,53.85434],[-2.70128,53.85398],[-2.70668,53.8537],[-2.70715,53.85343],[-2.70982,53.85364],[-2.71192,53.85639],[-2.71094,53.85762],[-2.70777,53.85977],[-2.7073,53.86118],[-2.70572,53.86142],[-2.70581,53.86243],[-2.70448,53.86319],[-2.70326,53.86496],[-2.70393,53.86641],[-2.70608,53.86902],[-2.70511,53.86917],[-2.7049,53.87006],[-2.7042,53.87054],[-2.69992,53.87153],[-2.69728,53.87249],[-2.69436,53.87291],[-2.69288,53.87406],[-2.69083,53.8742],[-2.69061,53.87744],[-2.69003,53.87784],[-2.69058,53.87808],[-2.69075,53.87901],[-2.68833,53.88001],[-2.68724,53.88225],[-2.68919,53.88322],[-2.68817,53.88381],[-2.68777,53.88453],[-2.68937,53.88549],[-2.68934,53.88812],[-2.68756,53.88864],[-2.68715,53.88995],[-2.68599,53.89081],[-2.68294,53.89127],[-2.68093,53.89252],[-2.67875,53.89182],[-2.67221,53.8921],[-2.67033,53.89167],[-2.66818,53.89238],[-2.66567,53.89427],[-2.66426,53.89412],[-2.66237,53.89514],[-2.65806,53.89462],[-2.65724,53.89617]]]}},{"type":"Feature","properties":{"id":"E01025281","name":"E01025281","parent":"E07000123","type":"LSOA","pop":2547,"r":191,"ff":44,"ffd":1727.5,"ffs":0.3729,"g":71,"co":0,"mo":2,"sa":0,"ic":0},"geometry":{"type":"Polygon","coordinates":[[[-2.70042,53.85434],[-2.69885,53.8529],[-2.69848,53.85012],[-2.6994,53.84991],[-2.69906,53.84941],[-2.69954,53.84845],[-2.6978,53.84867],[-2.69882,53.84752],[-2.69845,53.8472],[-2.699,53.84582],[-2.69807,53.84493],[-2.69837,53.84406],[-2.70025,53.84323],[-2.69986,53.8428],[-2.70146,53.84274],[-2.70111,53.84231],[-2.70182,53.84209],[-2.70226,53.84137],[-2.70347,53.84109],[-2.70315,53.84079],[-2.70414,53.8407],[-2.70463,53.83983],[-2.70619,53.83993],[-2.70649,53.8396],[-2.70528,53.83876],[-2.7033,53.83856],[-2.70286,53.83783],[-2.70372,53.83643],[-2.70321,53.83599],[-2.70237,53.83612],[-2.70284,53.83424],[-2.70166,53.8272],[-2.702,53.82236],[-2.70375,53.81762],[-2.71192,53.81873],[-2.71397,53.8195],[-2.71483,53.82063],[-2.71802,53.82073],[-2.7183,53.821],[-2.721,53.81984],[-2.72063,53.81929],[-2.72185,53.81843],[-2.72308,53.81873],[-2.72378,53.81843],[-2.72582,53.8186],[-2.72734,53.81851],[-2.72864,53.81801],[-2.73083,53.81795],[-2.73247,53.81687],[-2.7362,53.81549],[-2.73439,53.81031],[-2.72981,53.7991],[-2.72839,53.79674],[-2.72959,53.79626],[-2.74201,53.79477],[-2.74326,53.79388],[-2.7443,53.79443],[-2.74308,53.79725],[-2.74343,53.79798],[-2.75102,53.79789],[-2.74979,53.79964],[-2.75289,53.80126],[-2.75205,53.80162],[-2.75024,53.80177],[-2.74937,53.80156],[-2.74798,53.80174],[-2.74747,53.80128],[-2.74543,53.80195],[-2.74529,53.80163],[-2.74363,53.80139],[-2.74056,53.80409],[-2.74317,53.80579],[-2.74947,53.80745],[-2.7507,53.80737],[-2.75274,53.80967],[-2.75431,53.81038],[-2.75375,53.81075],[-2.75534,53.81166],[-2.7562,53.81154],[-2.75654,53.81107],[-2.75797,53.81087],[-2.758,53.80973],[-2.7571,53.80842],[-2.75305,53.8066],[-2.75322,53.80642],[-2.75769,53.80631],[-2.75853,53.80644],[-2.75854,53.807],[-2.75975,53.80741],[-2.76035,53.8073],[-2.76255,53.80668],[-2.76083,53.80587],[-2.76035,53.80512],[-2.76087,53.80477],[-2.76288,53.80465],[-2.76409,53.80487],[-2.76719,53.80331],[-2.76734,53.80368],[-2.76799,53.80367],[-2.76785,53.80404],[-2.76909,53.80395],[-2.76924,53.80455],[-2.77015,53.80423],[-2.77087,53.80472],[-2.77263,53.8049],[-2.77223,53.80527],[-2.77374,53.80624],[-2.77524,53.8088],[-2.77637,53.80927],[-2.76953,53.81347],[-2.76584,53.81399],[-2.76496,53.8124],[-2.76442,53.8126],[-2.76398,53.81325],[-2.76397,53.81529],[-2.76161,53.81702],[-2.75918,53.81798],[-2.76042,53.82099],[-2.76191,53.82185],[-2.76724,53.82256],[-2.77125,53.82073],[-2.77662,53.82186],[-2.77697,53.82279],[-2.77488,53.82395],[-2.77475,53.82459],[-2.77246,53.8258],[-2.76921,53.82509],[-2.76858,53.82656],[-2.76946,53.82917],[-2.76683,53.83035],[-2.76745,53.83162],[-2.7685,53.83169],[-2.77078,53.83323],[-2.77104,53.83394],[-2.77026,53.83619],[-2.7688,53.8373],[-2.76175,53.82786],[-2.75808,53.82588],[-2.75634,53.82582],[-2.75485,53.82436],[-2.75351,53.82373],[-2.75137,53.82383],[-2.75088,53.82343],[-2.75,53.82352],[-2.74947,53.8232],[-2.74814,53.82307],[-2.73845,53.82311],[-2.73616,53.82345],[-2.73645,53.82496],[-2.73602,53.82539],[-2.73758,53.82923],[-2.73943,53.83776],[-2.74009,53.83907],[-2.73973,53.84019],[-2.74035,53.84155],[-2.74173,53.84259],[-2.74201,53.84465],[-2.74251,53.84467],[-2.7435,53.84649],[-2.74671,53.84972],[-2.74655,53.85081],[-2.74624,53.85105],[-2.74036,53.85018],[-2.73815,53.85055],[-2.73779,53.85089],[-2.73526,53.85095],[-2.73426,53.85071],[-2.73139,53.85157],[-2.72903,53.85122],[-2.72603,53.84973],[-2.72588,53.84938],[-2.72431,53.8495],[-2.71905,53.85044],[-2.71775,53.8514],[-2.71674,53.85151],[-2.71497,53.85312],[-2.70982,53.85364],[-2.70715,53.85343],[-2.70668,53.8537],[-2.70128,53.85398],[-2.70042,53.85434]]]}},{"type":"Feature","properties":{"id":"E01025282","name":"E01025282","parent":"E07000123","type":"LSOA","pop":2141,"r":162,"ff":44,"ffd":2055.1,"ffs":0.4272,"g":57,"co":2,"mo":2,"sa":2,"ic":0},"geometry":{"type":"Polygon","coordinates":[[[-2.67193,53.82848],[-2.66989,53.82816],[-2.66221,53.82921],[-2.66134,53.82893],[-2.65989,53.82701],[-2.65612,53.82824],[-2.65249,53.82479],[-2.65123,53.82462],[-2.65072,53.82483],[-2.64752,53.82434],[-2.64604,53.82324],[-2.64604,53.82274],[-2.6453,53.82258],[-2.64165,53.82279],[-2.64213,53.82131],[-2.6482,53.81869],[-2.64965,53.81663],[-2.65119,53.81591],[-2.65146,53.81403],[-2.65219,53.81406],[-2.65304,53.81347],[-2.65398,53.81366],[-2.65557,53.81331],[-2.65642,53.81242],[-2.65917,53.81309],[-2.66112,53.81236],[-2.66466,53.81176],[-2.66585,53.81116],[-2.66926,53.81109],[-2.66853,53.81628],[-2.67042,53.81812],[-2.67089,53.81918],[-2.67247,53.81957],[-2.67574,53.81961],[-2.67642,53.82075],[-2.67731,53.82135],[-2.67637,53.8215],[-2.6794,53.82345],[-2.68258,53.82538],[-2.68462,53.8252],[-2.6812,53.82686],[-2.67955,53.82811],[-2.68073,53.83105],[-2.67814,53.83217],[-2.6769,53.8323],[-2.67435,53.83092],[-2.67193,53.82848]]]}},{"type":"Feature","properties":{"id":"E01025283","name":"E01025283","parent":"E07000123","type":"LSOA","pop":1795,"r":331,"ff":104,"ffd":5793.9,"ffs":0.428,"g":86,"co":0,"mo":0,"sa":0,"ic":0},"geometry":{"type":"Polygon","coordinates":[[[-2.64611,53.7735],[-2.64684,53.77254],[-2.64643,53.77189],[-2.64847,53.77084],[-2.64879,53.77047],[-2.64969,53.77028],[-2.65028,53.77048],[-2.65194,53.77009],[-2.65237,53.7698],[-2.65289,53.76987],[-2.65379,53.7705],[-2.65343,53.77084],[-2.65224,53.77099],[-2.65251,53.77131],[-2.65485,53.77197],[-2.65486,53.77233],[-2.65268,53.77316],[-2.65255,53.77363],[-2.65198,53.77384],[-2.65144,53.77338],[-2.65069,53.77363],[-2.651,53.77421],[-2.64904,53.77506],[-2.64981,53.77555],[-2.64961,53.7761],[-2.65021,53.77649],[-2.64969,53.77826],[-2.64683,53.77874],[-2.64531,53.77685],[-2.64621,53.77643],[-2.64559,53.77534],[-2.64604,53.77522],[-2.64575,53.77433],[-2.64611,53.7735]]]}},{"type":"Feature","properties":{"id":"E01025284","name":"E01025284","parent":"E07000123","type":"LSOA","pop":1856,"r":348,"ff":108,"ffd":5819.0,"ffs":0.4252,"g":92,"co":0,"mo":0,"sa":0,"ic":0},"geometry":{"type":"Polygon","coordinates":[[[-2.64961,53.7761],[-2.64981,53.77555],[-2.64904,53.77506],[-2.651,53.77421],[-2.65069,53.77363],[-2.65144,53.77338],[-2.65198,53.77384],[-2.65255,53.77363],[-2.65268,53.77316],[-2.65486,53.77233],[-2.65485,53.77197],[-2.65251,53.77131],[-2.65224,53.77099],[-2.65343,53.77084],[-2.65379,53.7705],[-2.65542,53.77027],[-2.6551,53.77094],[-2.65432,53.77114],[-2.65455,53.77159],[-2.65518,53.77154],[-2.65548,53.77188],[-2.65659,53.77183],[-2.65696,53.77129],[-2.65497,53.76839],[-2.65731,53.76836],[-2.65718,53.76792],[-2.65668,53.76783],[-2.65673,53.76718],[-2.65806,53.76683],[-2.65998,53.7699],[-2.66148,53.77019],[-2.66225,53.77213],[-2.66376,53.77214],[-2.66411,53.77184],[-2.66599,53.77317],[-2.66702,53.77238],[-2.66795,53.77247],[-2.66258,53.77536],[-2.66095,53.77647],[-2.66043,53.77631],[-2.66056,53.77597],[-2.65914,53.7759],[-2.65872,53.77509],[-2.65807,53.77484],[-2.65739,53.7752],[-2.65837,53.77572],[-2.65794,53.7756],[-2.65765,53.77643],[-2.6557,53.77513],[-2.65469,53.77615],[-2.65355,53.77612],[-2.65324,53.77562],[-2.6525,53.77599],[-2.65319,53.77632],[-2.65245,53.77712],[-2.65414,53.77738],[-2.65369,53.77877],[-2.64983,53.77915],[-2.64802,53.77961],[-2.64716,53.77867],[-2.64969,53.77826],[-2.65021,53.77649],[-2.64961,53.7761]]]}},{"type":"Feature","properties":{"id":"E01025285","name":"E01025285","parent":"E07000123","type":"LSOA","pop":1492,"r":359,"ff":113,"ffd":7573.7,"ffs":0.4297,"g":94,"co":0,"mo":0,"sa":0,"ic":0},"geometry":{"type":"Polygon","coordinates":[[[-2.66795,53.77247],[-2.66702,53.77238],[-2.66599,53.77317],[-2.66411,53.77184],[-2.66671,53.77105],[-2.6669,53.77065],[-2.66796,53.77078],[-2.6687,53.77038],[-2.66812,53.76991],[-2.66827,53.76867],[-2.67153,53.77042],[-2.67657,53.77188],[-2.66927,53.77537],[-2.66677,53.7732],[-2.66795,53.77247]]]}},{"type":"Feature","properties":{"id":"E01025286","name":"E01025286","parent":"E07000123","type":"LSOA","pop":1826,"r":350,"ff":110,"ffd":6024.1,"ffs":0.4314,"g":93,"co":0,"mo":0,"sa":0,"ic":0},"geometry":{"type":"Polygon","coordinates":[[[-2.63125,53.79087],[-2.63064,53.79034],[-2.62929,53.79114],[-2.6263,53.79145],[-2.62114,53.78858],[-2.62229,53.78756],[-2.62245,53.78672],[-2.63192,53.78279],[-2.63346,53.78253],[-2.63465,53.78185],[-2.63523,53.78095],[-2.635,53.78016],[-2.63387,53.77951],[-2.62753,53.77735],[-2.62291,53.77465],[-2.62154,53.77306],[-2.62179,53.77122],[-2.62511,53.76858],[-2.62803,53.76731],[-2.63543,53.76572],[-2.64254,53.76581],[-2.64369,53.7654],[-2.64389,53.76497],[-2.65041,53.76572],[-2.66323,53.76571],[-2.66827,53.76867],[-2.66812,53.76991],[-2.6687,53.77038],[-2.66796,53.77078],[-2.6669,53.77065],[-2.66671,53.77105],[-2.66411,53.77184],[-2.66376,53.77214],[-2.66225,53.77213],[-2.66148,53.77019],[-2.65998,53.7699],[-2.65806,53.76683],[-2.65673,53.76718],[-2.65668,53.76783],[-2.65718,53.76792],[-2.65731,53.76836],[-2.65497,53.76839],[-2.65696,53.77129],[-2.65659,53.77183],[-2.65548,53.77188],[-2.65518,53.77154],[-2.65455,53.77159],[-2.65432,53.77114],[-2.6551,53.77094],[-2.65542,53.77027],[-2.65379,53.7705],[-2.65289,53.76987],[-2.65237,53.7698],[-2.65194,53.77009],[-2.65028,53.77048],[-2.64969,53.77028],[-2.64879,53.77047],[-2.64847,53.77084],[-2.64643,53.77189],[-2.64684,53.77254],[-2.64611,53.7735],[-2.64575,53.77433],[-2.64604,53.77522],[-2.64559,53.77534],[-2.64621,53.77643],[-2.64531,53.77685],[-2.64683,53.77874],[-2.64716,53.77867],[-2.64924,53.78132],[-2.64887,53.78141],[-2.64945,53.78232],[-2.64987,53.78223],[-2.65093,53.78367],[-2.64919,53.78441],[-2.64615,53.78711],[-2.64001,53.79007],[-2.63701,53.79291],[-2.63476,53.79218],[-2.6341,53.79091],[-2.63125,53.79087]]]}},{"type":"Feature","properties":{"id":"E01025287","name":"E01025287","parent":"E07000123","type":"LSOA","pop":1988,"r":337,"ff":108,"ffd":5432.6,"ffs":0.4337,"g":86,"co":0,"mo":0,"sa":0,"ic":0},"geometry":{"type":"Polygon","coordinates":[[[-2.65093,53.78367],[-2.64987,53.78223],[-2.64945,53.78232],[-2.64887,53.78141],[-2.64924,53.78132],[-2.64768,53.77927],[-2.64802,53.77961],[-2.64983,53.77915],[-2.65369,53.77877],[-2.65414,53.77738],[-2.65245,53.77712],[-2.65319,53.77632],[-2.6525,53.77599],[-2.65324,53.77562],[-2.65355,53.77612],[-2.65469,53.77615],[-2.6557,53.77513],[-2.65765,53.77643],[-2.65794,53.7756],[-2.65837,53.77572],[-2.65739,53.7752],[-2.65807,53.77484],[-2.65872,53.77509],[-2.65914,53.7759],[-2.66056,53.77597],[-2.66043,53.77631],[-2.66095,53.77647],[-2.65963,53.77779],[-2.65882,53.77956],[-2.65709,53.78196],[-2.65644,53.78236],[-2.65093,53.78367]]]}},{"type":"Feature","properties":{"id":"E01025288","name":"E01025288","parent":"E07000123","type":"LSOA","pop":1876,"r":353,"ff":118,"ffd":6290.0,"ffs":0.4504,"g":89,"co":2,"mo":0,"sa":0,"ic":0},"geometry":{"type":"MultiPolygon","coordinates":[[[[-2.73264,53.75781],[-2.72663,53.75739],[-2.72516,53.75707],[-2.72518,53.75694],[-2.7284,53.75741],[-2.73337,53.75763],[-2.73783,53.75757],[-2.75288,53.75681],[-2.75704,53.75569],[-2.75731,53.75636],[-2.75242,53.75703],[-2.74451,53.75754],[-2.73264,53.75781]]],[[[-2.72276,53.76335],[-2.71909,53.75857],[-2.72063,53.75709],[-2.72503,53.75789],[-2.73036,53.75856],[-2.75114,53.75795],[-2.75013,53.75855],[-2.75675,53.7579],[-2.76415,53.75643],[-2.76436,53.75922],[-2.76325,53.76173],[-2.75669,53.76148],[-2.74857,53.7627],[-2.73435,53.76304],[-2.7314,53.76284],[-2.72978,53.76398],[-2.73023,53.7642],[-2.72971,53.76484],[-2.72717,53.76484],[-2.72335,53.7642],[-2.7228,53.76404],[-2.72318,53.76365],[-2.72276,53.76335]]]]}},{"type":"Feature","properties":{"id":"E01025289","name":"E01025289","parent":"E07000123","type":"LSOA","pop":1505,"r":374,"ff":129,"ffd":8571.4,"ffs":0.4607,"g":92,"co":0,"mo":0,"sa":0,"ic":0},"geometry":{"type":"MultiPolygon","coordinates":[[[[-2.72117,53.75621],[-2.71889,53.75487],[-2.71823,53.7533],[-2.71854,53.75352],[-2.71924,53.75486],[-2.72092,53.756],[-2.72149,53.75559],[-2.72273,53.75636],[-2.72518,53.75694],[-2.72516,53.75707],[-2.72117,53.75621]]],[[[-2.70965,53.7594],[-2.70923,53.75864],[-2.70978,53.75855],[-2.70995,53.75898],[-2.71092,53.75805],[-2.71065,53.75789],[-2.71142,53.75777],[-2.71163,53.75814],[-2.71208,53.75806],[-2.71279,53.75712],[-2.7143,53.75652],[-2.71409,53.7563],[-2.71465,53.75592],[-2.71429,53.75601],[-2.71351,53.75547],[-2.71379,53.7553],[-2.71301,53.75511],[-2.71272,53.75484],[-2.71445,53.75428],[-2.71332,53.7536],[-2.71279,53.75354],[-2.71334,53.75266],[-2.71276,53.75207],[-2.71304,53.75175],[-2.71423,53.752],[-2.71398,53.75238],[-2.71528,53.75301],[-2.71636,53.75264],[-2.71635,53.75241],[-2.71591,53.75247],[-2.71587,53.75174],[-2.71631,53.7521],[-2.71661,53.75211],[-2.71782,53.75556],[-2.71928,53.75671],[-2.72504,53.75785],[-2.72063,53.75709],[-2.71909,53.75857],[-2.71019,53.75975],[-2.70965,53.7594]]]]}},{"type":"Feature","properties":{"id":"E01025290","name":"E01025290","parent":"E07000123","type":"LSOA","pop":1946,"r":376,"ff":130,"ffd":6680.4,"ffs":0.461,"g":92,"co":0,"mo":0,"sa":0,"ic":0},"geometry":{"type":"Polygon","coordinates":[[[-2.70965,53.7594],[-2.70844,53.75828],[-2.70794,53.7571],[-2.70752,53.75471],[-2.70658,53.75184],[-2.70714,53.75153],[-2.70825,53.75163],[-2.70936,53.753],[-2.71137,53.75168],[-2.71276,53.75207],[-2.71334,53.75266],[-2.71279,53.75354],[-2.71332,53.7536],[-2.71445,53.75428],[-2.71272,53.75484],[-2.71301,53.75511],[-2.71379,53.7553],[-2.71351,53.75547],[-2.71429,53.75601],[-2.71465,53.75592],[-2.71409,53.7563],[-2.7143,53.75652],[-2.71279,53.75712],[-2.71208,53.75806],[-2.71163,53.75814],[-2.71142,53.75777],[-2.71065,53.75789],[-2.71092,53.75805],[-2.70995,53.75898],[-2.70978,53.75855],[-2.70923,53.75864],[-2.70965,53.7594]]]}},{"type":"Feature","properties":{"id":"E01025291","name":"E01025291","parent":"E07000123","type":"LSOA","pop":1377,"r":371,"ff":128,"ffd":9295.6,"ffs":0.4604,"g":91,"co":0,"mo":0,"sa":0,"ic":0},"geometry":{"type":"Polygon","coordinates":[[[-2.71528,53.75301],[-2.71398,53.75238],[-2.71423,53.752],[-2.71304,53.75175],[-2.71276,53.75207],[-2.71137,53.75168],[-2.70936,53.753],[-2.70825,53.75163],[-2.70714,53.75153],[-2.70658,53.75184],[-2.70635,53.75031],[-2.70938,53.7484],[-2.71117,53.74839],[-2.71507,53.74978],[-2.71638,53.75146],[-2.71661,53.75211],[-2.71631,53.7521],[-2.71587,53.75174],[-2.71591,53.75247],[-2.71635,53.75241],[-2.71636,53.75264],[-2.71528,53.75301]]]}},{"type":"Feature","properties":{"id":"E01025292","name":"E01025292","parent":"E07000123","type":"LSOA","pop":2335,"r":374,"ff":127,"ffd":5439.0,"ffs":0.452,"g":91,"co":0,"mo":0,"sa":0,"ic":0},"geometry":{"type":"Polygon","coordinates":[[[-2.6993,53.77014],[-2.69889,53.76929],[-2.69672,53.76936],[-2.69662,53.76898],[-2.69747,53.76838],[-2.69939,53.76811],[-2.69876,53.76563],[-2.70022,53.76533],[-2.69908,53.76445],[-2.70055,53.76389],[-2.70037,53.76361],[-2.70239,53.76315],[-2.7026,53.76347],[-2.70403,53.76348],[-2.70495,53.76383],[-2.70611,53.76266],[-2.71018,53.76837],[-2.70492,53.76897],[-2.69969,53.76922],[-2.6993,53.77014]]]}},{"type":"Feature","properties":{"id":"E01025293","name":"E01025293","parent":"E07000123","type":"LSOA","pop":2457,"r":383,"ff":131,"ffd":5331.7,"ffs":0.4533,"g":92,"co":0,"mo":0,"sa":0,"ic":0},"geometry":{"type":"Polygon","coordinates":[[[-2.69364,53.76948],[-2.69354,53.76841],[-2.69133,53.76845],[-2.69147,53.7679],[-2.69612,53.76726],[-2.69586,53.76633],[-2.69173,53.76692],[-2.69154,53.76579],[-2.69085,53.76393],[-2.68978,53.76204],[-2.69068,53.76128],[-2.69614,53.76268],[-2.6976,53.76267],[-2.69909,53.76447],[-2.70022,53.76533],[-2.69876,53.76563],[-2.69939,53.76811],[-2.69747,53.76838],[-2.69662,53.76898],[-2.69672,53.76936],[-2.69364,53.76948]]]}},{"type":"Feature","properties":{"id":"E01025294","name":"E01025294","parent":"E07000123","type":"LSOA","pop":2029,"r":371,"ff":125,"ffd":6160.7,"ffs":0.4496,"g":91,"co":0,"mo":0,"sa":0,"ic":0},"geometry":{"type":"Polygon","coordinates":[[[-2.69077,53.77058],[-2.69133,53.76845],[-2.69354,53.76841],[-2.69364,53.76948],[-2.69889,53.76929],[-2.6993,53.77014],[-2.69969,53.76922],[-2.70012,53.77147],[-2.69059,53.77128],[-2.69077,53.77058]]]}},{"type":"Feature","properties":{"id":"E01025295","name":"E01025295","parent":"E07000123","type":"LSOA","pop":3022,"r":389,"ff":131,"ffd":4334.9,"ffs":0.4502,"g":96,"co":0,"mo":0,"sa":0,"ic":0},"geometry":{"type":"Polygon","coordinates":[[[-2.68278,53.76881],[-2.68054,53.76828],[-2.68099,53.76809],[-2.68114,53.7684],[-2.68169,53.76832],[-2.68255,53.76776],[-2.68094,53.76641],[-2.68205,53.76601],[-2.68203,53.76567],[-2.68332,53.76494],[-2.68449,53.76585],[-2.68685,53.76475],[-2.68635,53.76418],[-2.68585,53.76398],[-2.68511,53.76422],[-2.68462,53.76372],[-2.68497,53.76362],[-2.68378,53.76348],[-2.68222,53.76361],[-2.68038,53.76292],[-2.67938,53.76304],[-2.67851,53.76338],[-2.67915,53.76339],[-2.67949,53.76381],[-2.67916,53.76391],[-2.67755,53.76317],[-2.67668,53.76317],[-2.68721,53.76032],[-2.69068,53.76128],[-2.68978,53.76204],[-2.69085,53.76393],[-2.69154,53.76579],[-2.69173,53.76692],[-2.68654,53.76762],[-2.68278,53.76881]]]}},{"type":"Feature","properties":{"id":"E01025296","name":"E01025296","parent":"E07000123","type":"LSOA","pop":2109,"r":385,"ff":122,"ffd":5784.7,"ffs":0.4311,"g":100,"co":0,"mo":0,"sa":0,"ic":0},"geometry":{"type":"Polygon","coordinates":[[[-2.67068,53.76997],[-2.66827,53.76867],[-2.66323,53.76571],[-2.66907,53.76547],[-2.66901,53.76578],[-2.67099,53.76529],[-2.67189,53.76663],[-2.67253,53.76647],[-2.67255,53.76607],[-2.67325,53.76638],[-2.67387,53.76616],[-2.67512,53.76703],[-2.67555,53.76796],[-2.67454,53.76876],[-2.67631,53.76832],[-2.67646,53.76849],[-2.67498,53.76905],[-2.6752,53.7693],[-2.67605,53.76917],[-2.6783,53.77103],[-2.67657,53.77188],[-2.67153,53.77042],[-2.67068,53.76997]]]}},{"type":"Feature","properties":{"id":"E01025297","name":"E01025297","parent":"E07000123","type":"LSOA","pop":2722,"r":386,"ff":127,"ffd":4665.7,"ffs":0.4441,"g":98,"co":0,"mo":0,"sa":0,"ic":0},"geometry":{"type":"Polygon","coordinates":[[[-2.67822,53.76567],[-2.67794,53.76548],[-2.67554,53.76624],[-2.67525,53.76558],[-2.6739,53.76571],[-2.67387,53.76616],[-2.67325,53.76638],[-2.67255,53.76607],[-2.67253,53.76647],[-2.67189,53.76663],[-2.67099,53.76529],[-2.66901,53.76578],[-2.66907,53.76547],[-2.67638,53.76324],[-2.67755,53.76317],[-2.67916,53.76391],[-2.67949,53.76381],[-2.67915,53.76339],[-2.67851,53.76338],[-2.67938,53.76304],[-2.68038,53.76292],[-2.68222,53.76361],[-2.68378,53.76348],[-2.68497,53.76362],[-2.68462,53.76372],[-2.68511,53.76422],[-2.68585,53.76398],[-2.68635,53.76418],[-2.68685,53.76475],[-2.68449,53.76585],[-2.68332,53.76494],[-2.68203,53.76567],[-2.68205,53.76601],[-2.68013,53.76662],[-2.67872,53.76649],[-2.67822,53.76567]]]}},{"type":"Feature","properties":{"id":"E01025298","name":"E01025298","parent":"E07000123","type":"LSOA","pop":2023,"r":381,"ff":128,"ffd":6327.2,"ffs":0.4507,"g":95,"co":0,"mo":0,"sa":0,"ic":0},"geometry":{"type":"Polygon","coordinates":[[[-2.6783,53.77103],[-2.67605,53.76917],[-2.6752,53.7693],[-2.67498,53.76905],[-2.67646,53.76849],[-2.67631,53.76832],[-2.67454,53.76876],[-2.67555,53.76796],[-2.67512,53.76703],[-2.67387,53.76616],[-2.6739,53.76571],[-2.67525,53.76558],[-2.67554,53.76624],[-2.67794,53.76548],[-2.67872,53.76649],[-2.68013,53.76662],[-2.68094,53.76641],[-2.68255,53.76776],[-2.68169,53.76832],[-2.68114,53.7684],[-2.68099,53.76809],[-2.68054,53.76828],[-2.68278,53.76881],[-2.6783,53.77103]]]}},{"type":"Feature","properties":{"id":"E01025299","name":"E01025299","parent":"E07000123","type":"LSOA","pop":1546,"r":346,"ff":114,"ffd":7373.9,"ffs":0.4368,"g":83,"co":0,"mo":2,"sa":0,"ic":0},"geometry":{"type":"Polygon","coordinates":[[[-2.71059,53.79557],[-2.71063,53.79513],[-2.7094,53.79515],[-2.70793,53.79545],[-2.70808,53.7957],[-2.70764,53.79578],[-2.70544,53.79498],[-2.70518,53.79516],[-2.70505,53.7947],[-2.70701,53.79397],[-2.70634,53.79308],[-2.70562,53.79335],[-2.70588,53.79394],[-2.70427,53.79396],[-2.70448,53.79357],[-2.704,53.79359],[-2.70419,53.79304],[-2.70369,53.79305],[-2.7036,53.79258],[-2.70486,53.79237],[-2.70582,53.79275],[-2.70644,53.79215],[-2.7077,53.79233],[-2.70765,53.79203],[-2.70809,53.79199],[-2.70819,53.79231],[-2.70918,53.79216],[-2.70918,53.79095],[-2.70864,53.78899],[-2.7078,53.78822],[-2.70827,53.78856],[-2.71131,53.78822],[-2.71186,53.78772],[-2.71248,53.78756],[-2.71397,53.79319],[-2.71344,53.79324],[-2.71354,53.79371],[-2.71117,53.79398],[-2.71225,53.79435],[-2.7122,53.79534],[-2.71131,53.79619],[-2.71083,53.79624],[-2.71059,53.79557]]]}},{"type":"Feature","properties":{"id":"E01025300","name":"E01025300","parent":"E07000123","type":"LSOA","pop":1244,"r":342,"ff":113,"ffd":9083.6,"ffs":0.4414,"g":84,"co":0,"mo":0,"sa":0,"ic":0},"geometry":{"type":"Polygon","coordinates":[[[-2.69472,53.79469],[-2.69415,53.79414],[-2.69335,53.79423],[-2.68689,53.78952],[-2.68618,53.78933],[-2.68582,53.78861],[-2.68645,53.78848],[-2.6871,53.78772],[-2.68927,53.78784],[-2.68977,53.78692],[-2.69147,53.7862],[-2.6929,53.78636],[-2.69549,53.78485],[-2.69638,53.78382],[-2.69701,53.78368],[-2.69686,53.78496],[-2.6984,53.78691],[-2.70107,53.78915],[-2.70735,53.78782],[-2.70864,53.78899],[-2.70918,53.79095],[-2.70918,53.79216],[-2.70819,53.79231],[-2.70809,53.79199],[-2.70765,53.79203],[-2.7077,53.79233],[-2.70644,53.79215],[-2.70582,53.79275],[-2.70486,53.79237],[-2.7036,53.79258],[-2.70302,53.79279],[-2.70314,53.7932],[-2.70081,53.79377],[-2.70049,53.79357],[-2.70121,53.7931],[-2.70043,53.79225],[-2.70148,53.79146],[-2.70106,53.79077],[-2.70015,53.79061],[-2.70022,53.79033],[-2.69963,53.79045],[-2.69859,53.78964],[-2.69661,53.78981],[-2.69582,53.79109],[-2.69632,53.79132],[-2.69594,53.79205],[-2.69651,53.7928],[-2.69786,53.79285],[-2.6958,53.7946],[-2.69472,53.79469]]]}},{"type":"Feature","properties":{"id":"E01025301","name":"E01025301","parent":"E07000123","type":"LSOA","pop":1135,"r":346,"ff":114,"ffd":10044.1,"ffs":0.4368,"g":83,"co":0,"mo":2,"sa":0,"ic":0},"geometry":{"type":"Polygon","coordinates":[[[-2.69657,53.79847],[-2.69781,53.79693],[-2.69824,53.79668],[-2.69958,53.79708],[-2.69947,53.79591],[-2.70071,53.79557],[-2.70188,53.79592],[-2.70278,53.79568],[-2.70362,53.79677],[-2.70483,53.79633],[-2.70388,53.79569],[-2.70549,53.79545],[-2.70564,53.7958],[-2.70604,53.79571],[-2.70599,53.79609],[-2.70744,53.79622],[-2.70714,53.79642],[-2.70775,53.79669],[-2.70768,53.79701],[-2.70592,53.79731],[-2.70609,53.79765],[-2.70466,53.79792],[-2.70483,53.79828],[-2.70095,53.79889],[-2.69869,53.79946],[-2.69811,53.79949],[-2.69813,53.79913],[-2.69657,53.79847]]]}},{"type":"Feature","properties":{"id":"E01025302","name":"E01025302","parent":"E07000123","type":"LSOA","pop":1220,"r":346,"ff":114,"ffd":9344.3,"ffs":0.4368,"g":83,"co":0,"mo":2,"sa":0,"ic":0},"geometry":{"type":"Polygon","coordinates":[[[-2.70609,53.79765],[-2.70592,53.79731],[-2.70768,53.79701],[-2.70775,53.79669],[-2.70714,53.79642],[-2.70744,53.79622],[-2.70599,53.79609],[-2.70604,53.79571],[-2.70564,53.7958],[-2.70549,53.79545],[-2.70388,53.79569],[-2.70483,53.79633],[-2.70362,53.79677],[-2.70278,53.79568],[-2.70188,53.79592],[-2.70071,53.79557],[-2.70264,53.79483],[-2.70251,53.79446],[-2.70194,53.79447],[-2.70148,53.79406],[-2.70245,53.79375],[-2.70239,53.79345],[-2.70314,53.7932],[-2.70302,53.79279],[-2.7036,53.79258],[-2.70369,53.79305],[-2.70419,53.79304],[-2.704,53.79359],[-2.70448,53.79357],[-2.70427,53.79396],[-2.70588,53.79394],[-2.70562,53.79335],[-2.70634,53.79308],[-2.70701,53.79397],[-2.70505,53.7947],[-2.70518,53.79516],[-2.70544,53.79498],[-2.70764,53.79578],[-2.70808,53.7957],[-2.70793,53.79545],[-2.7094,53.79515],[-2.71063,53.79513],[-2.71083,53.79624],[-2.71131,53.79619],[-2.7122,53.79534],[-2.71225,53.79435],[-2.71117,53.79398],[-2.71354,53.79371],[-2.71344,53.79324],[-2.71397,53.79319],[-2.71426,53.79613],[-2.71529,53.79785],[-2.71135,53.79824],[-2.70977,53.79759],[-2.70888,53.79759],[-2.70483,53.79828],[-2.70466,53.79792],[-2.70609,53.79765]]]}},{"type":"Feature","properties":{"id":"E01025303","name":"E01025303","parent":"E07000123","type":"LSOA","pop":1342,"r":339,"ff":110,"ffd":8196.7,"ffs":0.44,"g":87,"co":0,"mo":2,"sa":0,"ic":0},"geometry":{"type":"Polygon","coordinates":[[[-2.68875,53.80082],[-2.68358,53.79953],[-2.68165,53.79952],[-2.6818,53.7979],[-2.68435,53.79529],[-2.68259,53.7943],[-2.68342,53.79362],[-2.68814,53.79138],[-2.68618,53.78933],[-2.68689,53.78952],[-2.69335,53.79423],[-2.69415,53.79414],[-2.69472,53.79469],[-2.6958,53.7946],[-2.69786,53.79285],[-2.69651,53.7928],[-2.69594,53.79205],[-2.69632,53.79132],[-2.69582,53.79109],[-2.69661,53.78981],[-2.69859,53.78964],[-2.69963,53.79045],[-2.70022,53.79033],[-2.70015,53.79061],[-2.70106,53.79077],[-2.70148,53.79146],[-2.70043,53.79225],[-2.70121,53.7931],[-2.70049,53.79357],[-2.70081,53.79377],[-2.70239,53.79345],[-2.70245,53.79375],[-2.70148,53.79406],[-2.70194,53.79447],[-2.70251,53.79446],[-2.70264,53.79483],[-2.69947,53.79591],[-2.69958,53.79708],[-2.69824,53.79668],[-2.69781,53.79693],[-2.69657,53.79847],[-2.69813,53.79913],[-2.69811,53.79949],[-2.69869,53.79946],[-2.6961,53.80022],[-2.69498,53.79959],[-2.6941,53.80007],[-2.69335,53.79983],[-2.69133,53.8006],[-2.68875,53.80082]]]}},{"type":"Feature","properties":{"id":"E01025304","name":"E01025304","parent":"E07000123","type":"LSOA","pop":1920,"r":403,"ff":135,"ffd":7031.2,"ffs":0.453,"g":103,"co":0,"mo":0,"sa":0,"ic":0},"geometry":{"type":"Polygon","coordinates":[[[-2.6895,53.75602],[-2.68743,53.75469],[-2.68596,53.75552],[-2.68505,53.75484],[-2.68379,53.75494],[-2.68281,53.75568],[-2.68178,53.75578],[-2.67973,53.75311],[-2.6814,53.75245],[-2.68366,53.75059],[-2.68551,53.7496],[-2.68861,53.74923],[-2.6916,53.75002],[-2.69554,53.75227],[-2.69586,53.75228],[-2.69565,53.7526],[-2.69266,53.7536],[-2.69155,53.75375],[-2.69199,53.7541],[-2.69123,53.75454],[-2.69058,53.75416],[-2.69007,53.75445],[-2.69068,53.75482],[-2.6901,53.75545],[-2.68924,53.75493],[-2.68877,53.7552],[-2.68974,53.75582],[-2.6895,53.75602]]]}},{"type":"Feature","properties":{"id":"E01025305","name":"E01025305","parent":"E07000123","type":"LSOA","pop":1871,"r":407,"ff":134,"ffd":7161.9,"ffs":0.4452,"g":104,"co":0,"mo":0,"sa":0,"ic":0},"geometry":{"type":"Polygon","coordinates":[[[-2.68439,53.75888],[-2.68331,53.75819],[-2.68251,53.75845],[-2.68064,53.75689],[-2.68218,53.7563],[-2.68178,53.75578],[-2.68281,53.75568],[-2.68379,53.75494],[-2.68505,53.75484],[-2.68596,53.75552],[-2.68743,53.75469],[-2.68958,53.75607],[-2.6862,53.75727],[-2.68631,53.75806],[-2.68725,53.75948],[-2.68653,53.7598],[-2.68721,53.76032],[-2.68504,53.76088],[-2.68405,53.75993],[-2.68385,53.75921],[-2.68439,53.75888]]]}},{"type":"Feature","properties":{"id":"E01025306","name":"E01025306","parent":"E07000123","type":"LSOA","pop":2338,"r":388,"ff":132,"ffd":5645.9,"ffs":0.4552,"g":96,"co":0,"mo":0,"sa":0,"ic":0},"geometry":{"type":"Polygon","coordinates":[[[-2.7012,53.7588],[-2.7015,53.75802],[-2.70073,53.75812],[-2.7,53.75677],[-2.6993,53.75686],[-2.69984,53.75821],[-2.6991,53.75833],[-2.69879,53.75759],[-2.6992,53.75755],[-2.69911,53.75718],[-2.69881,53.75677],[-2.69842,53.75689],[-2.69729,53.7558],[-2.69698,53.75595],[-2.69542,53.75491],[-2.69568,53.75541],[-2.69443,53.75496],[-2.69417,53.75509],[-2.69562,53.75609],[-2.69527,53.75628],[-2.69419,53.75534],[-2.69356,53.75545],[-2.69325,53.75521],[-2.69352,53.75468],[-2.69245,53.75456],[-2.69252,53.75416],[-2.69199,53.7541],[-2.69155,53.75375],[-2.69266,53.7536],[-2.69565,53.7526],[-2.69586,53.75228],[-2.70245,53.75167],[-2.70635,53.75031],[-2.70658,53.75184],[-2.70752,53.75471],[-2.70794,53.7571],[-2.70613,53.75738],[-2.70542,53.75878],[-2.70298,53.76011],[-2.69967,53.75929],[-2.7012,53.7588]]]}},{"type":"Feature","properties":{"id":"E01025308","name":"E01025308","parent":"E07000123","type":"LSOA","pop":1875,"r":351,"ff":118,"ffd":6293.3,"ffs":0.4453,"g":84,"co":0,"mo":0,"sa":0,"ic":0},"geometry":{"type":"Polygon","coordinates":[[[-2.71562,53.77674],[-2.71221,53.77149],[-2.71436,53.77102],[-2.71506,53.77209],[-2.71398,53.77233],[-2.71444,53.77349],[-2.71519,53.77342],[-2.71542,53.77381],[-2.71605,53.77367],[-2.71579,53.77327],[-2.71844,53.77273],[-2.71891,53.77384],[-2.71997,53.77372],[-2.71898,53.77401],[-2.71962,53.77597],[-2.72211,53.77575],[-2.72101,53.77635],[-2.7195,53.77663],[-2.71584,53.77709],[-2.71562,53.77674]]]}},{"type":"Feature","properties":{"id":"E01025309","name":"E01025309","parent":"E07000123","type":"LSOA","pop":1272,"r":343,"ff":114,"ffd":8962.3,"ffs":0.4419,"g":83,"co":2,"mo":0,"sa":0,"ic":0},"geometry":{"type":"Polygon","coordinates":[[[-2.71962,53.77597],[-2.71898,53.77401],[-2.71997,53.77372],[-2.71891,53.77384],[-2.71873,53.77341],[-2.72104,53.77294],[-2.72068,53.77229],[-2.72313,53.77184],[-2.72418,53.77353],[-2.7251,53.77335],[-2.72537,53.77357],[-2.72743,53.77314],[-2.72756,53.77289],[-2.72634,53.77274],[-2.72691,53.77214],[-2.72796,53.77258],[-2.72892,53.7726],[-2.7302,53.773],[-2.73127,53.77498],[-2.72958,53.77533],[-2.7256,53.77527],[-2.72529,53.77569],[-2.7246,53.77552],[-2.72382,53.77592],[-2.72262,53.77571],[-2.71962,53.77597]]]}},{"type":"Feature","properties":{"id":"E01025310","name":"E01025310","parent":"E07000123","type":"LSOA","pop":1755,"r":355,"ff":119,"ffd":6780.6,"ffs":0.4457,"g":86,"co":2,"mo":0,"sa":0,"ic":0},"geometry":{"type":"Polygon","coordinates":[[[-2.71542,53.77381],[-2.71519,53.77342],[-2.71444,53.77349],[-2.71398,53.77233],[-2.71506,53.77209],[-2.71436,53.77102],[-2.71733,53.77037],[-2.71636,53.7674],[-2.71739,53.76706],[-2.71791,53.76669],[-2.71887,53.76804],[-2.71939,53.76814],[-2.72104,53.76977],[-2.72073,53.76983],[-2.72109,53.77043],[-2.72019,53.77061],[-2.72072,53.77098],[-2.72132,53.77083],[-2.72172,53.77211],[-2.72068,53.77229],[-2.72104,53.77294],[-2.71873,53.77341],[-2.71844,53.77273],[-2.71579,53.77327],[-2.71605,53.77367],[-2.71542,53.77381]]]}},{"type":"Feature","properties":{"id":"E01025311","name":"E01025311","parent":"E07000123","type":"LSOA","pop":1283,"r":351,"ff":118,"ffd":9197.2,"ffs":0.447,"g":85,"co":2,"mo":0,"sa":0,"ic":0},"geometry":{"type":"Polygon","coordinates":[[[-2.72537,53.77357],[-2.7251,53.77335],[-2.72418,53.77353],[-2.72313,53.77184],[-2.72406,53.77166],[-2.72392,53.7714],[-2.72475,53.77124],[-2.72437,53.77002],[-2.72352,53.77018],[-2.72366,53.76896],[-2.72504,53.76889],[-2.72542,53.76961],[-2.72619,53.76947],[-2.72629,53.76965],[-2.72721,53.76971],[-2.72784,53.76852],[-2.73241,53.77007],[-2.72843,53.77084],[-2.72892,53.7726],[-2.72796,53.77258],[-2.72691,53.77214],[-2.72634,53.77274],[-2.72756,53.77289],[-2.72743,53.77314],[-2.72537,53.77357]]]}},{"type":"Feature","properties":{"id":"E01025312","name":"E01025312","parent":"E07000123","type":"LSOA","pop":1781,"r":346,"ff":114,"ffd":6400.9,"ffs":0.4368,"g":83,"co":2,"mo":0,"sa":0,"ic":0},"geometry":{"type":"Polygon","coordinates":[[[-2.72172,53.77211],[-2.72132,53.77083],[-2.72072,53.77098],[-2.72019,53.77061],[-2.72109,53.77043],[-2.72073,53.76983],[-2.72104,53.76977],[-2.71939,53.76814],[-2.71887,53.76804],[-2.71791,53.76669],[-2.71739,53.76706],[-2.71636,53.7674],[-2.71537,53.7649],[-2.72037,53.76508],[-2.72288,53.76572],[-2.72523,53.7672],[-2.72784,53.76852],[-2.72721,53.76971],[-2.72629,53.76965],[-2.72619,53.76947],[-2.72542,53.76961],[-2.72504,53.76889],[-2.72366,53.76896],[-2.72352,53.77018],[-2.72437,53.77002],[-2.72475,53.77124],[-2.72392,53.7714],[-2.72406,53.77166],[-2.72172,53.77211]]]}},{"type":"Feature","properties":{"id":"E01025313","name":"E01025313","parent":"E07000123","type":"LSOA","pop":2019,"r":362,"ff":122,"ffd":6042.6,"ffs":0.4502,"g":89,"co":0,"mo":0,"sa":0,"ic":0},"geometry":{"type":"Polygon","coordinates":[[[-2.71018,53.76837],[-2.70611,53.76266],[-2.70889,53.76252],[-2.70908,53.76329],[-2.70982,53.76312],[-2.71163,53.76424],[-2.71164,53.76484],[-2.71363,53.76759],[-2.7162,53.76686],[-2.71733,53.77037],[-2.71221,53.77149],[-2.71018,53.76837]]]}},{"type":"Feature","properties":{"id":"E01025314","name":"E01025314","parent":"E07000123","type":"LSOA","pop":2799,"r":364,"ff":119,"ffd":4251.5,"ffs":0.4457,"g":95,"co":0,"mo":0,"sa":0,"ic":0},"geometry":{"type":"Polygon","coordinates":[[[-2.7129,53.76659],[-2.71164,53.76484],[-2.71163,53.76424],[-2.70982,53.76312],[-2.70908,53.76329],[-2.70889,53.76252],[-2.70797,53.76264],[-2.70468,53.75915],[-2.70542,53.75878],[-2.70613,53.75738],[-2.70794,53.7571],[-2.70844,53.75828],[-2.71019,53.75975],[-2.71909,53.75857],[-2.72276,53.76335],[-2.72318,53.76365],[-2.7228,53.76404],[-2.72037,53.76508],[-2.71537,53.7649],[-2.7162,53.76686],[-2.71363,53.76759],[-2.7129,53.76659]]]}},{"type":"Feature","properties":{"id":"E01033223","name":"E01033223","parent":"E07000123","type":"LSOA","pop":1735,"r":380,"ff":131,"ffd":7550.4,"ffs":0.458,"g":92,"co":0,"mo":0,"sa":0,"ic":0},"geometry":{"type":"Polygon","coordinates":[[[-2.69908,53.76445],[-2.6976,53.76267],[-2.69614,53.76268],[-2.68839,53.76074],[-2.6897,53.75984],[-2.69047,53.75976],[-2.69277,53.75968],[-2.69356,53.76055],[-2.69436,53.76034],[-2.69407,53.76001],[-2.69467,53.75982],[-2.69387,53.75959],[-2.6963,53.75882],[-2.69662,53.7589],[-2.69581,53.76003],[-2.6965,53.76011],[-2.69684,53.76053],[-2.69955,53.76036],[-2.69913,53.75953],[-2.69816,53.75944],[-2.69769,53.75902],[-2.69744,53.75756],[-2.69797,53.75756],[-2.69842,53.75689],[-2.69881,53.75677],[-2.6992,53.75755],[-2.69879,53.75759],[-2.6991,53.75833],[-2.69984,53.75821],[-2.6993,53.75686],[-2.7,53.75677],[-2.70073,53.75812],[-2.7015,53.75802],[-2.7012,53.7588],[-2.69967,53.75929],[-2.70298,53.76011],[-2.70468,53.75915],[-2.70797,53.76264],[-2.70611,53.76266],[-2.70495,53.76383],[-2.70403,53.76348],[-2.7026,53.76347],[-2.70239,53.76315],[-2.70037,53.76361],[-2.70055,53.76389],[-2.69908,53.76445]]]}},{"type":"Feature","properties":{"id":"E01033224","name":"E01033224","parent":"E07000123","type":"LSOA","pop":1236,"r":401,"ff":134,"ffd":10841.4,"ffs":0.4482,"g":100,"co":0,"mo":0,"sa":0,"ic":0},"geometry":{"type":"Polygon","coordinates":[[[-2.68653,53.7598],[-2.68725,53.75948],[-2.68631,53.75806],[-2.6862,53.75727],[-2.68958,53.75607],[-2.69102,53.75709],[-2.68997,53.75747],[-2.69114,53.75767],[-2.69065,53.75791],[-2.69097,53.75811],[-2.69215,53.75808],[-2.69352,53.7592],[-2.69396,53.75899],[-2.69341,53.75864],[-2.69369,53.75831],[-2.69424,53.75849],[-2.6945,53.75756],[-2.69519,53.75771],[-2.69576,53.75743],[-2.69504,53.7569],[-2.69527,53.75628],[-2.69562,53.75609],[-2.69417,53.75509],[-2.69443,53.75496],[-2.69568,53.75541],[-2.69542,53.75491],[-2.69698,53.75595],[-2.69729,53.7558],[-2.69842,53.75689],[-2.69797,53.75756],[-2.69744,53.75756],[-2.69769,53.75902],[-2.69816,53.75944],[-2.69913,53.75953],[-2.69955,53.76036],[-2.69684,53.76053],[-2.6965,53.76011],[-2.69581,53.76003],[-2.69662,53.7589],[-2.6963,53.75882],[-2.69387,53.75959],[-2.69467,53.75982],[-2.69407,53.76001],[-2.69436,53.76034],[-2.69356,53.76055],[-2.69277,53.75968],[-2.6897,53.75984],[-2.68839,53.76074],[-2.68721,53.76032],[-2.68653,53.7598]]]}},{"type":"Feature","properties":{"id":"E01033226","name":"E01033226","parent":"E07000123","type":"LSOA","pop":1087,"r":364,"ff":119,"ffd":10947.6,"ffs":0.4457,"g":95,"co":0,"mo":0,"sa":0,"ic":0},"geometry":{"type":"Polygon","coordinates":[[[-2.69352,53.7592],[-2.69215,53.75808],[-2.69097,53.75811],[-2.69065,53.75791],[-2.69114,53.75767],[-2.68997,53.75747],[-2.69102,53.75709],[-2.6895,53.75602],[-2.68974,53.75582],[-2.68877,53.7552],[-2.68924,53.75493],[-2.6901,53.75545],[-2.69068,53.75482],[-2.69007,53.75445],[-2.69058,53.75416],[-2.69123,53.75454],[-2.69199,53.7541],[-2.69252,53.75416],[-2.69245,53.75456],[-2.69352,53.75468],[-2.69325,53.75521],[-2.69356,53.75545],[-2.69419,53.75534],[-2.69527,53.75628],[-2.69504,53.7569],[-2.69576,53.75743],[-2.69519,53.75771],[-2.6945,53.75756],[-2.69424,53.75849],[-2.69369,53.75831],[-2.69341,53.75864],[-2.69396,53.75899],[-2.69352,53.7592]]]}},{"type":"Feature","properties":{"id":"E01034346","name":"E01034346","parent":"E07000123","type":"LSOA","pop":1217,"r":22,"ff":11,"ffd":903.9,"ffs":0.5238,"g":1,"co":3,"mo":3,"sa":1,"ic":1},"geometry":{"type":"Polygon","coordinates":[[[-2.77104,53.83394],[-2.77078,53.83323],[-2.7685,53.83169],[-2.76745,53.83162],[-2.76683,53.83035],[-2.76946,53.82917],[-2.76858,53.82656],[-2.76921,53.82509],[-2.77246,53.8258],[-2.77475,53.82459],[-2.77488,53.82395],[-2.77697,53.82279],[-2.77662,53.82186],[-2.77125,53.82073],[-2.76724,53.82256],[-2.76191,53.82185],[-2.76042,53.82099],[-2.75918,53.81798],[-2.76161,53.81702],[-2.76397,53.81529],[-2.76398,53.81325],[-2.76442,53.8126],[-2.76496,53.8124],[-2.76584,53.81399],[-2.76953,53.81347],[-2.77637,53.80927],[-2.77524,53.8088],[-2.77374,53.80624],[-2.77223,53.80527],[-2.77263,53.8049],[-2.77087,53.80472],[-2.77015,53.80423],[-2.76924,53.80455],[-2.76909,53.80395],[-2.76785,53.80404],[-2.76799,53.80367],[-2.76734,53.80368],[-2.76719,53.80331],[-2.76409,53.80487],[-2.76288,53.80465],[-2.76087,53.80477],[-2.76035,53.80512],[-2.76083,53.80587],[-2.76255,53.80668],[-2.76035,53.8073],[-2.75975,53.80741],[-2.75854,53.807],[-2.75853,53.80644],[-2.75769,53.80631],[-2.75322,53.80642],[-2.75305,53.8066],[-2.7571,53.80842],[-2.758,53.80973],[-2.75797,53.81087],[-2.75654,53.81107],[-2.7562,53.81154],[-2.75534,53.81166],[-2.75375,53.81075],[-2.75431,53.81038],[-2.75274,53.80967],[-2.7507,53.80737],[-2.74947,53.80745],[-2.74317,53.80579],[-2.74056,53.80409],[-2.74363,53.80139],[-2.74529,53.80163],[-2.74543,53.80195],[-2.74747,53.80128],[-2.74798,53.80174],[-2.74937,53.80156],[-2.75024,53.80177],[-2.75205,53.80162],[-2.75289,53.80126],[-2.75469,53.80102],[-2.75603,53.80135],[-2.75786,53.80092],[-2.75819,53.80118],[-2.75848,53.8008],[-2.75931,53.8012],[-2.7605,53.80058],[-2.76287,53.80159],[-2.76408,53.79939],[-2.76397,53.79702],[-2.76221,53.79392],[-2.76351,53.7941],[-2.76781,53.79154],[-2.76862,53.79044],[-2.76835,53.78963],[-2.77062,53.78589],[-2.77564,53.78543],[-2.77779,53.78473],[-2.77809,53.78521],[-2.77801,53.78727],[-2.77886,53.78795],[-2.78051,53.78764],[-2.78207,53.79],[-2.78287,53.78992],[-2.81152,53.80793],[-2.81526,53.80818],[-2.81965,53.8154],[-2.82209,53.81804],[-2.82599,53.81999],[-2.8103,53.82432],[-2.80914,53.82416],[-2.80507,53.82507],[-2.80319,53.82585],[-2.80198,53.82589],[-2.80205,53.8249],[-2.8005,53.82487],[-2.79847,53.82438],[-2.79757,53.82471],[-2.79863,53.82548],[-2.7985,53.82604],[-2.79639,53.82781],[-2.79714,53.82858],[-2.79961,53.82911],[-2.80097,53.83178],[-2.80027,53.83194],[-2.80013,53.83314],[-2.7977,53.83341],[-2.79418,53.83445],[-2.79338,53.83669],[-2.79104,53.83388],[-2.78703,53.83214],[-2.78388,53.83348],[-2.78177,53.83337],[-2.78097,53.83411],[-2.78221,53.83544],[-2.78031,53.83682],[-2.77359,53.83909],[-2.7743,53.83986],[-2.77069,53.84042],[-2.7688,53.8373],[-2.77026,53.83619],[-2.77104,53.83394]]]}},{"type":"Feature","properties":{"id":"E01034347","name":"E01034347","parent":"E07000123","type":"LSOA","pop":4088,"r":299,"ff":87,"ffd":2128.2,"ffs":0.3955,"g":77,"co":0,"mo":2,"sa":0,"ic":0},"geometry":{"type":"Polygon","coordinates":[[[-2.76287,53.80159],[-2.7605,53.80058],[-2.75931,53.8012],[-2.75848,53.8008],[-2.75819,53.80118],[-2.75786,53.80092],[-2.75603,53.80135],[-2.75469,53.80102],[-2.75289,53.80126],[-2.74979,53.79964],[-2.75102,53.79789],[-2.74343,53.79798],[-2.74308,53.79725],[-2.7443,53.79443],[-2.74326,53.79388],[-2.74479,53.79294],[-2.74464,53.79261],[-2.74546,53.79235],[-2.74532,53.7921],[-2.74804,53.79112],[-2.74982,53.78851],[-2.76606,53.78629],[-2.77062,53.78589],[-2.76835,53.78963],[-2.76862,53.79044],[-2.76781,53.79154],[-2.76351,53.7941],[-2.76221,53.79392],[-2.76397,53.79702],[-2.76408,53.79939],[-2.76287,53.80159]]]}}]}