{"type":"FeatureCollection","features":[{"type":"Feature","properties":{"id":"E01022421","name":"E01022421","parent":"E07000083","type":"LSOA","pop":1732,"r":310,"ff":107,"ffd":6177.8,"ffs":0.4842,"g":87,"co":2,"mo":0,"sa":0,"ic":0},"geometry":{"type":"Polygon","coordinates":[[[-2.15895,51.85004],[-2.15895,51.84814],[-2.15667,51.84835],[-2.15669,51.8474],[-2.15712,51.84713],[-2.15588,51.84567],[-2.15467,51.84548],[-2.15531,51.84458],[-2.15381,51.84405],[-2.15422,51.84271],[-2.15356,51.84174],[-2.15399,51.84154],[-2.15446,51.84188],[-2.15632,51.8417],[-2.15647,51.84259],[-2.15744,51.84267],[-2.1573,51.84124],[-2.15821,51.8412],[-2.15903,51.842],[-2.15931,51.84168],[-2.15992,51.84171],[-2.16009,51.84073],[-2.15954,51.84069],[-2.15961,51.84034],[-2.16055,51.84028],[-2.16061,51.84125],[-2.16117,51.84115],[-2.16104,51.84223],[-2.16164,51.84345],[-2.16092,51.84499],[-2.15961,51.84599],[-2.16399,51.84746],[-2.16311,51.84771],[-2.1596,51.84701],[-2.15922,51.84778],[-2.16087,51.84826],[-2.16057,51.84923],[-2.15951,51.84933],[-2.15942,51.84993],[-2.15895,51.85004]]]}},{"type":"Feature","properties":{"id":"E01022423","name":"E01022423","parent":"E07000083","type":"LSOA","pop":3553,"r":310,"ff":107,"ffd":3011.5,"ffs":0.482,"g":86,"co":2,"mo":0,"sa":0,"ic":0},"geometry":{"type":"Polygon","coordinates":[[[-2.14986,51.86278],[-2.14869,51.86063],[-2.14685,51.85908],[-2.146,51.85886],[-2.14523,51.8564],[-2.14572,51.85583],[-2.14474,51.85486],[-2.14433,51.85231],[-2.14328,51.85098],[-2.1426,51.84849],[-2.14087,51.84698],[-2.14239,51.84613],[-2.14304,51.84686],[-2.14424,51.84667],[-2.14501,51.84691],[-2.146,51.84611],[-2.14763,51.8464],[-2.14971,51.84732],[-2.14933,51.84806],[-2.14835,51.84808],[-2.1483,51.84877],[-2.15005,51.8499],[-2.15124,51.85005],[-2.15292,51.84945],[-2.15256,51.85108],[-2.15102,51.85296],[-2.15856,51.85144],[-2.15835,51.84925],[-2.15741,51.84972],[-2.15692,51.84917],[-2.15463,51.84946],[-2.15447,51.84921],[-2.15673,51.84867],[-2.15667,51.84835],[-2.15895,51.84814],[-2.15895,51.85004],[-2.15942,51.84993],[-2.15951,51.84933],[-2.16057,51.84923],[-2.16087,51.84826],[-2.15922,51.84778],[-2.1596,51.84701],[-2.16311,51.84771],[-2.16399,51.84746],[-2.15961,51.84599],[-2.16092,51.84499],[-2.16164,51.84345],[-2.16337,51.84329],[-2.16436,51.84189],[-2.16743,51.84034],[-2.16984,51.84087],[-2.17026,51.84023],[-2.17233,51.84072],[-2.17279,51.84099],[-2.17237,51.84416],[-2.17243,51.84627],[-2.1728,51.84655],[-2.17232,51.84753],[-2.17349,51.84775],[-2.17346,51.84819],[-2.17227,51.85027],[-2.16935,51.84926],[-2.16807,51.85156],[-2.16709,51.85421],[-2.16904,51.85483],[-2.16894,51.85511],[-2.17027,51.85572],[-2.17117,51.8558],[-2.17117,51.8562],[-2.17367,51.85684],[-2.17218,51.85969],[-2.17124,51.85973],[-2.17085,51.86045],[-2.16867,51.86152],[-2.16733,51.86102],[-2.16644,51.86105],[-2.16611,51.86033],[-2.16478,51.86036],[-2.16492,51.86092],[-2.16358,51.86127],[-2.16265,51.85975],[-2.1602,51.86057],[-2.16061,51.86116],[-2.16026,51.8613],[-2.16034,51.86262],[-2.15942,51.8626],[-2.15852,51.86136],[-2.15755,51.86193],[-2.15721,51.86348],[-2.15523,51.86406],[-2.15281,51.86578],[-2.15214,51.86556],[-2.15168,51.86478],[-2.15072,51.86424],[-2.15056,51.86313],[-2.14986,51.86278]]]}},{"type":"Feature","properties":{"id":"E01022424","name":"E01022424","parent":"E07000083","type":"LSOA","pop":1787,"r":304,"ff":104,"ffd":5819.8,"ffs":0.4837,"g":87,"co":2,"mo":0,"sa":0,"ic":0},"geometry":{"type":"Polygon","coordinates":[[[-2.15256,51.85108],[-2.15292,51.84945],[-2.15124,51.85005],[-2.15005,51.8499],[-2.1483,51.84877],[-2.14835,51.84808],[-2.14933,51.84806],[-2.14971,51.84732],[-2.14763,51.8464],[-2.146,51.84611],[-2.14501,51.84691],[-2.14424,51.84667],[-2.14304,51.84686],[-2.14549,51.84505],[-2.14664,51.84492],[-2.1481,51.84407],[-2.14876,51.84433],[-2.14971,51.84422],[-2.14998,51.84378],[-2.15105,51.84385],[-2.15128,51.84367],[-2.15208,51.84394],[-2.1527,51.84482],[-2.15308,51.84437],[-2.15428,51.84459],[-2.15419,51.84418],[-2.15531,51.84458],[-2.15467,51.84548],[-2.15588,51.84567],[-2.15712,51.84713],[-2.15669,51.8474],[-2.15673,51.84867],[-2.15447,51.84921],[-2.15463,51.84946],[-2.15692,51.84917],[-2.15741,51.84972],[-2.15835,51.84925],[-2.15856,51.85144],[-2.15102,51.85296],[-2.15256,51.85108]]]}},{"type":"Feature","properties":{"id":"E01022425","name":"E01022425","parent":"E07000083","type":"LSOA","pop":1235,"r":341,"ff":124,"ffd":10040.5,"ffs":0.4901,"g":86,"co":2,"mo":0,"sa":0,"ic":0},"geometry":{"type":"Polygon","coordinates":[[[-2.17492,51.87972],[-2.17479,51.87914],[-2.17528,51.87899],[-2.17541,51.87809],[-2.17672,51.87862],[-2.18701,51.87581],[-2.18694,51.87668],[-2.18773,51.87704],[-2.19003,51.87764],[-2.19347,51.87939],[-2.19434,51.87914],[-2.19613,51.87973],[-2.17637,51.88408],[-2.17598,51.88275],[-2.17634,51.88146],[-2.17509,51.88108],[-2.17504,51.88042],[-2.17411,51.88007],[-2.17492,51.87972]]]}},{"type":"Feature","properties":{"id":"E01022426","name":"E01022426","parent":"E07000083","type":"LSOA","pop":1387,"r":347,"ff":128,"ffd":9228.6,"ffs":0.4961,"g":87,"co":2,"mo":0,"sa":0,"ic":0},"geometry":{"type":"Polygon","coordinates":[[[-2.15228,51.88096],[-2.15237,51.87936],[-2.1517,51.87924],[-2.15175,51.87688],[-2.1513,51.87636],[-2.14963,51.87585],[-2.15016,51.8754],[-2.14951,51.87538],[-2.1493,51.8751],[-2.14855,51.87522],[-2.14823,51.87419],[-2.14897,51.87249],[-2.14884,51.87098],[-2.14982,51.86778],[-2.15188,51.86637],[-2.15115,51.86607],[-2.15214,51.86556],[-2.15281,51.86578],[-2.15523,51.86406],[-2.15721,51.86348],[-2.15755,51.86193],[-2.15852,51.86136],[-2.15942,51.8626],[-2.16034,51.86262],[-2.16026,51.8613],[-2.16061,51.86116],[-2.16096,51.86308],[-2.15967,51.86315],[-2.16044,51.86513],[-2.16358,51.86496],[-2.16503,51.86424],[-2.16815,51.86534],[-2.16794,51.86565],[-2.17009,51.86618],[-2.17352,51.86546],[-2.17421,51.86684],[-2.17703,51.86758],[-2.17707,51.8684],[-2.17653,51.8688],[-2.17757,51.8696],[-2.18014,51.86937],[-2.18019,51.86959],[-2.18069,51.86954],[-2.18099,51.87053],[-2.18023,51.8717],[-2.18181,51.87192],[-2.18179,51.87144],[-2.18244,51.8714],[-2.18672,51.87203],[-2.18754,51.8701],[-2.18941,51.86927],[-2.19025,51.86999],[-2.18986,51.87017],[-2.19357,51.87028],[-2.19265,51.87199],[-2.19355,51.87209],[-2.19425,51.87309],[-2.18701,51.87581],[-2.17894,51.87801],[-2.17818,51.87696],[-2.17824,51.87542],[-2.17598,51.87542],[-2.17324,51.87502],[-2.17146,51.87567],[-2.17142,51.876],[-2.17045,51.87501],[-2.16931,51.87599],[-2.16906,51.87586],[-2.16796,51.87633],[-2.16629,51.87639],[-2.1653,51.87723],[-2.1658,51.87765],[-2.16574,51.87841],[-2.1655,51.87879],[-2.16473,51.87872],[-2.1647,51.87939],[-2.16543,51.88014],[-2.16715,51.87999],[-2.16799,51.88074],[-2.15425,51.8828],[-2.15228,51.88096]]]}},{"type":"Feature","properties":{"id":"E01022427","name":"E01022427","parent":"E07000083","type":"LSOA","pop":1357,"r":335,"ff":123,"ffd":9064.1,"ffs":0.498,"g":86,"co":2,"mo":0,"sa":0,"ic":0},"geometry":{"type":"Polygon","coordinates":[[[-2.16799,51.88074],[-2.16715,51.87999],[-2.16543,51.88014],[-2.1647,51.87939],[-2.16473,51.87872],[-2.1655,51.87879],[-2.16574,51.87841],[-2.1658,51.87765],[-2.1653,51.87723],[-2.16629,51.87639],[-2.16796,51.87633],[-2.16906,51.87586],[-2.16931,51.87599],[-2.17045,51.87501],[-2.17142,51.876],[-2.17146,51.87567],[-2.17324,51.87502],[-2.17598,51.87542],[-2.17824,51.87542],[-2.17818,51.87696],[-2.17894,51.87801],[-2.17672,51.87862],[-2.17541,51.87809],[-2.17528,51.87899],[-2.17479,51.87914],[-2.17492,51.87972],[-2.17411,51.88007],[-2.17504,51.88042],[-2.17509,51.88108],[-2.17634,51.88146],[-2.17598,51.88275],[-2.17637,51.88408],[-2.15459,51.88891],[-2.15575,51.88352],[-2.15523,51.88351],[-2.15425,51.8828],[-2.16799,51.88074]]]}},{"type":"Feature","properties":{"id":"E01022428","name":"E01022428","parent":"E07000083","type":"LSOA","pop":2704,"r":317,"ff":110,"ffd":4068.0,"ffs":0.4661,"g":79,"co":0,"mo":0,"sa":0,"ic":0},"geometry":{"type":"Polygon","coordinates":[[[-2.18496,51.88776],[-2.18518,51.88704],[-2.18416,51.88688],[-2.18439,51.88729],[-2.18325,51.88744],[-2.18243,51.88705],[-2.18324,51.88667],[-2.18319,51.88573],[-2.184,51.88552],[-2.18504,51.88689],[-2.18633,51.8875],[-2.18713,51.88685],[-2.1887,51.88669],[-2.19071,51.88508],[-2.19073,51.88417],[-2.18941,51.88383],[-2.18968,51.88316],[-2.18881,51.88272],[-2.18948,51.88221],[-2.18883,51.88132],[-2.19261,51.88048],[-2.19613,51.87973],[-2.19761,51.88009],[-2.20261,51.8827],[-2.20344,51.8837],[-2.20139,51.8843],[-2.19345,51.88547],[-2.19366,51.8868],[-2.19217,51.88694],[-2.19208,51.88902],[-2.19464,51.89016],[-2.19347,51.89157],[-2.19161,51.89007],[-2.19226,51.88962],[-2.18978,51.8891],[-2.19,51.88879],[-2.18614,51.8883],[-2.18496,51.88776]]]}},{"type":"Feature","properties":{"id":"E01022429","name":"E01022429","parent":"E07000083","type":"LSOA","pop":1603,"r":335,"ff":119,"ffd":7423.6,"ffs":0.4837,"g":87,"co":2,"mo":0,"sa":0,"ic":0},"geometry":{"type":"Polygon","coordinates":[[[-2.16335,51.89979],[-2.16254,51.89821],[-2.15966,51.8986],[-2.15914,51.89764],[-2.15738,51.89682],[-2.15639,51.89594],[-2.15623,51.89448],[-2.15676,51.89434],[-2.15459,51.88891],[-2.18011,51.88325],[-2.18172,51.88378],[-2.18239,51.8836],[-2.18267,51.88388],[-2.18208,51.88421],[-2.18163,51.88517],[-2.18097,51.88491],[-2.18082,51.88566],[-2.18195,51.88563],[-2.1818,51.88641],[-2.18294,51.88668],[-2.18243,51.88705],[-2.18325,51.88744],[-2.18439,51.88729],[-2.18416,51.88688],[-2.18518,51.88704],[-2.18496,51.88776],[-2.18614,51.8883],[-2.18588,51.88847],[-2.18633,51.88904],[-2.18527,51.88888],[-2.18482,51.8899],[-2.18396,51.89045],[-2.18346,51.89015],[-2.18247,51.89129],[-2.18043,51.89167],[-2.1776,51.89138],[-2.16683,51.89303],[-2.1683,51.89857],[-2.16335,51.89979]]]}},{"type":"Feature","properties":{"id":"E01022430","name":"E01022430","parent":"E07000083","type":"LSOA","pop":1497,"r":337,"ff":117,"ffd":7815.6,"ffs":0.4699,"g":86,"co":2,"mo":0,"sa":0,"ic":0},"geometry":{"type":"Polygon","coordinates":[[[-2.18504,51.88689],[-2.184,51.88552],[-2.18319,51.88573],[-2.18324,51.88667],[-2.1818,51.88641],[-2.18195,51.88563],[-2.18082,51.88566],[-2.18097,51.88491],[-2.18163,51.88517],[-2.18208,51.88421],[-2.18267,51.88388],[-2.18239,51.8836],[-2.18172,51.88378],[-2.18011,51.88325],[-2.18883,51.88132],[-2.18948,51.88221],[-2.18881,51.88272],[-2.18968,51.88316],[-2.18941,51.88383],[-2.19073,51.88417],[-2.19071,51.88508],[-2.1887,51.88669],[-2.18713,51.88685],[-2.18633,51.8875],[-2.18504,51.88689]]]}},{"type":"Feature","properties":{"id":"E01022431","name":"E01022431","parent":"E07000083","type":"LSOA","pop":1875,"r":291,"ff":104,"ffd":5546.7,"ffs":0.4837,"g":75,"co":0,"mo":0,"sa":0,"ic":0},"geometry":{"type":"Polygon","coordinates":[[[-2.1687,51.90039],[-2.16735,51.89975],[-2.16489,51.89997],[-2.16335,51.89979],[-2.1683,51.89857],[-2.16683,51.89303],[-2.1776,51.89138],[-2.18043,51.89167],[-2.18247,51.89129],[-2.18346,51.89015],[-2.18396,51.89045],[-2.18482,51.8899],[-2.18527,51.88888],[-2.18633,51.88904],[-2.18588,51.88847],[-2.18614,51.8883],[-2.19,51.88879],[-2.18978,51.8891],[-2.19226,51.88962],[-2.19161,51.89007],[-2.19347,51.89157],[-2.19276,51.89217],[-2.19272,51.89342],[-2.1933,51.89503],[-2.1915,51.89581],[-2.19321,51.89747],[-2.19912,51.89699],[-2.2015,51.89644],[-2.20279,51.89715],[-2.20434,51.89674],[-2.20461,51.89719],[-2.20095,51.89802],[-2.20023,51.89843],[-2.19325,51.89912],[-2.18797,51.89899],[-2.18069,51.89743],[-2.17874,51.89769],[-2.17686,51.89894],[-2.17332,51.89964],[-2.17049,51.90091],[-2.16863,51.90071],[-2.1687,51.90039]]]}},{"type":"Feature","properties":{"id":"E01022432","name":"E01022432","parent":"E07000083","type":"LSOA","pop":2035,"r":204,"ff":75,"ffd":3685.5,"ffs":0.4688,"g":43,"co":3,"mo":2,"sa":0,"ic":0},"geometry":{"type":"Polygon","coordinates":[[[-2.07691,51.94461],[-2.0725,51.94369],[-2.0704,51.94378],[-2.06452,51.94309],[-2.06323,51.94319],[-2.06146,51.94283],[-2.05975,51.94199],[-2.05192,51.94184],[-2.05233,51.93652],[-2.05597,51.93706],[-2.05702,51.93809],[-2.05815,51.93815],[-2.05915,51.93994],[-2.06354,51.93993],[-2.06543,51.9396],[-2.06554,51.93771],[-2.07077,51.93776],[-2.07111,51.93597],[-2.07252,51.9364],[-2.07392,51.93097],[-2.07587,51.93167],[-2.07882,51.93203],[-2.08124,51.93156],[-2.08378,51.93186],[-2.08722,51.93159],[-2.08967,51.93197],[-2.09096,51.9328],[-2.09172,51.93471],[-2.0924,51.93466],[-2.0951,51.93618],[-2.10288,51.93645],[-2.10495,51.93727],[-2.10503,51.93775],[-2.10679,51.93903],[-2.10507,51.93979],[-2.10093,51.94002],[-2.09646,51.94293],[-2.09492,51.94332],[-2.09243,51.94333],[-2.09318,51.94253],[-2.09126,51.9422],[-2.08204,51.94135],[-2.08143,51.94413],[-2.07948,51.9439],[-2.07742,51.94337],[-2.07691,51.94461]]]}},{"type":"Feature","properties":{"id":"E01022433","name":"E01022433","parent":"E07000083","type":"LSOA","pop":2043,"r":204,"ff":75,"ffd":3671.1,"ffs":0.4688,"g":43,"co":3,"mo":2,"sa":0,"ic":0},"geometry":{"type":"Polygon","coordinates":[[[-2.03567,51.9561],[-2.03945,51.95157],[-2.0381,51.94904],[-2.03902,51.94815],[-2.04063,51.94783],[-2.03957,51.94639],[-2.04125,51.94591],[-2.04175,51.94456],[-2.04235,51.94448],[-2.04214,51.94374],[-2.04226,51.9435],[-2.04336,51.94361],[-2.04332,51.94322],[-2.04435,51.94318],[-2.04375,51.9425],[-2.04488,51.942],[-2.04485,51.94112],[-2.04439,51.94103],[-2.04446,51.93942],[-2.04394,51.93807],[-2.04841,51.93798],[-2.04816,51.93676],[-2.05233,51.93652],[-2.05191,51.9419],[-2.05213,51.94219],[-2.0516,51.94434],[-2.05185,51.94572],[-2.05157,51.94661],[-2.05097,51.94692],[-2.0476,51.95569],[-2.04719,51.9553],[-2.04237,51.95643],[-2.04223,51.95495],[-2.03959,51.95458],[-2.0384,51.95496],[-2.03858,51.95566],[-2.03985,51.95589],[-2.04049,51.95702],[-2.03838,51.95642],[-2.03567,51.9561]]]}},{"type":"Feature","properties":{"id":"E01022434","name":"E01022434","parent":"E07000083","type":"LSOA","pop":2075,"r":204,"ff":75,"ffd":3614.5,"ffs":0.4688,"g":43,"co":3,"mo":2,"sa":0,"ic":0},"geometry":{"type":"Polygon","coordinates":[[[-2.00478,51.98002],[-2.00434,51.97961],[-1.9996,51.97972],[-2.00099,51.97542],[-2.00209,51.97363],[-2.00256,51.97126],[-2.00018,51.97123],[-2.00086,51.97012],[-2.0004,51.96753],[-1.99983,51.9677],[-1.99923,51.96609],[-1.99757,51.96404],[-1.99765,51.96304],[-1.99672,51.96202],[-1.99494,51.96198],[-1.99497,51.96163],[-1.99808,51.95737],[-1.99915,51.95834],[-2.00057,51.95847],[-2.00339,51.95967],[-2.00512,51.95824],[-2.00576,51.95395],[-2.00431,51.95175],[-2.00232,51.95064],[-2.00204,51.94979],[-2.00399,51.94843],[-2.0047,51.94841],[-2.00838,51.94396],[-2.00564,51.94408],[-2.00315,51.94324],[-2.00192,51.94334],[-2.00315,51.94245],[-2.00384,51.94112],[-2.00759,51.93902],[-2.00827,51.9382],[-2.00801,51.93778],[-2.00607,51.93782],[-2.00604,51.93632],[-2.00475,51.93449],[-2.00578,51.93231],[-2.00528,51.93137],[-2.00282,51.93067],[-2.00296,51.92983],[-1.99519,51.92744],[-1.99317,51.92923],[-1.9928,51.93125],[-1.99158,51.93144],[-1.99132,51.92861],[-1.99265,51.92778],[-1.99338,51.92679],[-1.98502,51.92346],[-1.98379,51.92421],[-1.98128,51.9217],[-1.97839,51.92156],[-1.97689,51.91862],[-1.97784,51.91748],[-1.98015,51.91252],[-1.98023,51.9112],[-1.97964,51.91074],[-1.97979,51.91029],[-1.98116,51.90894],[-1.98676,51.9109],[-1.99417,51.91498],[-1.99492,51.91341],[-1.9963,51.91203],[-1.99806,51.90739],[-2.00042,51.90407],[-2.00967,51.90587],[-2.01022,51.90292],[-2.02345,51.90241],[-2.02464,51.90207],[-2.0299,51.9041],[-2.03377,51.90442],[-2.03591,51.90514],[-2.03777,51.90533],[-2.03754,51.90758],[-2.03639,51.90745],[-2.03622,51.90813],[-2.03458,51.90795],[-2.0338,51.90845],[-2.03315,51.90926],[-2.03348,51.91018],[-2.03322,51.91135],[-2.03268,51.91144],[-2.03268,51.91179],[-2.03354,51.9118],[-2.03353,51.91278],[-2.03662,51.91294],[-2.03651,51.91411],[-2.03777,51.91395],[-2.04038,51.91449],[-2.04062,51.91537],[-2.03969,51.91917],[-2.0399,51.9224],[-2.04554,51.92276],[-2.04818,51.92351],[-2.0526,51.92608],[-2.05501,51.92702],[-2.06017,51.92809],[-2.06265,51.9273],[-2.06453,51.92874],[-2.06721,51.92963],[-2.06898,51.93046],[-2.07069,51.93062],[-2.07191,51.93126],[-2.07392,51.93097],[-2.07252,51.9364],[-2.07111,51.93597],[-2.07077,51.93776],[-2.06554,51.93771],[-2.06543,51.9396],[-2.06354,51.93993],[-2.05915,51.93994],[-2.05815,51.93815],[-2.05702,51.93809],[-2.05597,51.93706],[-2.05233,51.93652],[-2.04816,51.93676],[-2.04841,51.93798],[-2.04394,51.93807],[-2.04446,51.93942],[-2.04439,51.94103],[-2.04485,51.94112],[-2.04488,51.942],[-2.04375,51.9425],[-2.04435,51.94318],[-2.04332,51.94322],[-2.04336,51.94361],[-2.04226,51.9435],[-2.04214,51.94374],[-2.04235,51.94448],[-2.04175,51.94456],[-2.04125,51.94591],[-2.03957,51.94639],[-2.04063,51.94783],[-2.03902,51.94815],[-2.0381,51.94904],[-2.03945,51.95157],[-2.03567,51.9561],[-2.03254,51.95558],[-2.03256,51.95505],[-2.03098,51.95351],[-2.03104,51.95292],[-2.02993,51.95237],[-2.02319,51.95049],[-2.02174,51.95117],[-2.01911,51.95285],[-2.01894,51.95393],[-2.02146,51.95477],[-2.02283,51.95629],[-2.02453,51.95718],[-2.02796,51.95772],[-2.02946,51.95894],[-2.02949,51.9606],[-2.03187,51.96437],[-2.03141,51.96506],[-2.03185,51.96921],[-2.0323,51.96997],[-2.032,51.9707],[-2.03246,51.97144],[-2.03373,51.97178],[-2.032,51.97166],[-2.03203,51.97244],[-2.03011,51.97249],[-2.02454,51.97051],[-2.02362,51.96998],[-2.02274,51.96859],[-2.02119,51.96789],[-2.02014,51.96848],[-2.01859,51.96866],[-2.01725,51.96939],[-2.01534,51.97255],[-2.0164,51.97893],[-2.01567,51.97896],[-2.0152,51.97823],[-2.01318,51.97859],[-2.00781,51.97768],[-2.007,51.97852],[-2.00713,51.97996],[-2.00478,51.98002]]]}},{"type":"Feature","properties":{"id":"E01022437","name":"E01022437","parent":"E07000083","type":"LSOA","pop":1558,"r":204,"ff":75,"ffd":4813.9,"ffs":0.4688,"g":43,"co":3,"mo":2,"sa":0,"ic":0},"geometry":{"type":"Polygon","coordinates":[[[-2.08981,51.95772],[-2.08909,51.9573],[-2.08822,51.95761],[-2.08344,51.95756],[-2.08135,51.95725],[-2.07625,51.95746],[-2.0764,51.95082],[-2.07731,51.95087],[-2.07758,51.94857],[-2.07243,51.94815],[-2.07251,51.94762],[-2.07172,51.94755],[-2.07194,51.94722],[-2.07099,51.94713],[-2.07099,51.94754],[-2.07039,51.94778],[-2.06965,51.94748],[-2.06991,51.94707],[-2.06851,51.94693],[-2.06843,51.94748],[-2.0681,51.94747],[-2.06766,51.94744],[-2.06779,51.94689],[-2.06607,51.94696],[-2.06567,51.94728],[-2.06641,51.94745],[-2.06554,51.94765],[-2.06623,51.94807],[-2.06793,51.94822],[-2.06791,51.94897],[-2.06848,51.94895],[-2.06843,51.95026],[-2.06809,51.95039],[-2.06696,51.94986],[-2.06739,51.94904],[-2.06432,51.94882],[-2.06397,51.94805],[-2.06295,51.94738],[-2.06343,51.94711],[-2.06293,51.94692],[-2.06317,51.94567],[-2.06168,51.94566],[-2.06164,51.94493],[-2.05901,51.94481],[-2.059,51.9443],[-2.05977,51.9439],[-2.0595,51.94325],[-2.06005,51.94291],[-2.05878,51.94199],[-2.05975,51.94199],[-2.06146,51.94283],[-2.06323,51.94319],[-2.06391,51.94313],[-2.06442,51.94347],[-2.06409,51.9452],[-2.06505,51.94531],[-2.06501,51.94575],[-2.06601,51.94564],[-2.06584,51.94529],[-2.06718,51.94541],[-2.06745,51.94506],[-2.06778,51.94528],[-2.0674,51.94586],[-2.06645,51.94568],[-2.06651,51.94628],[-2.06719,51.94664],[-2.06762,51.94632],[-2.06913,51.94666],[-2.07252,51.94672],[-2.07257,51.94725],[-2.07442,51.94744],[-2.07741,51.94723],[-2.07892,51.94656],[-2.07899,51.94632],[-2.07816,51.9462],[-2.07948,51.9439],[-2.08143,51.94413],[-2.08204,51.94135],[-2.09126,51.9422],[-2.09318,51.94253],[-2.09243,51.94333],[-2.09492,51.94332],[-2.09756,51.94801],[-2.09608,51.94985],[-2.09533,51.95154],[-2.09224,51.95439],[-2.09074,51.95743],[-2.09049,51.95771],[-2.08981,51.95772]]]}},{"type":"Feature","properties":{"id":"E01022438","name":"E01022438","parent":"E07000083","type":"LSOA","pop":1314,"r":204,"ff":75,"ffd":5707.8,"ffs":0.4688,"g":43,"co":3,"mo":2,"sa":0,"ic":0},"geometry":{"type":"Polygon","coordinates":[[[-2.06913,51.94666],[-2.06762,51.94632],[-2.06719,51.94664],[-2.06651,51.94628],[-2.06645,51.94568],[-2.0674,51.94586],[-2.06778,51.94528],[-2.06745,51.94506],[-2.06718,51.94541],[-2.06584,51.94529],[-2.06601,51.94564],[-2.06501,51.94575],[-2.06505,51.94531],[-2.06409,51.9452],[-2.06442,51.94347],[-2.06391,51.94313],[-2.0685,51.94366],[-2.0725,51.94369],[-2.07691,51.94461],[-2.07742,51.94337],[-2.07948,51.9439],[-2.07816,51.9462],[-2.07899,51.94632],[-2.07892,51.94656],[-2.07741,51.94723],[-2.07442,51.94744],[-2.07257,51.94725],[-2.07252,51.94672],[-2.06913,51.94666]]]}},{"type":"Feature","properties":{"id":"E01022439","name":"E01022439","parent":"E07000083","type":"LSOA","pop":3218,"r":191,"ff":66,"ffd":2051.0,"ffs":0.4714,"g":50,"co":2,"mo":2,"sa":0,"ic":0},"geometry":{"type":"Polygon","coordinates":[[[-2.07398,51.95664],[-2.07233,51.95638],[-2.0718,51.95656],[-2.07089,51.95589],[-2.06961,51.95572],[-2.06654,51.9561],[-2.06632,51.95474],[-2.06736,51.95209],[-2.06603,51.95206],[-2.06465,51.9515],[-2.06598,51.95125],[-2.06597,51.94898],[-2.06739,51.94904],[-2.06696,51.94986],[-2.06809,51.95039],[-2.06843,51.95026],[-2.06848,51.94895],[-2.06791,51.94897],[-2.06793,51.94822],[-2.06623,51.94807],[-2.06554,51.94765],[-2.06641,51.94745],[-2.06567,51.94728],[-2.06607,51.94696],[-2.06779,51.94689],[-2.06766,51.94744],[-2.06843,51.94748],[-2.06851,51.94693],[-2.06991,51.94707],[-2.06965,51.94748],[-2.07039,51.94778],[-2.07099,51.94754],[-2.07099,51.94713],[-2.07194,51.94722],[-2.07172,51.94755],[-2.07251,51.94762],[-2.07243,51.94815],[-2.07758,51.94857],[-2.07731,51.95087],[-2.0764,51.95082],[-2.07625,51.95746],[-2.07398,51.95664]]]}},{"type":"Feature","properties":{"id":"E01022440","name":"E01022440","parent":"E07000083","type":"LSOA","pop":3228,"r":313,"ff":110,"ffd":3407.7,"ffs":0.4701,"g":77,"co":0,"mo":0,"sa":0,"ic":0},"geometry":{"type":"Polygon","coordinates":[[[-2.22575,51.90776],[-2.22268,51.90701],[-2.22137,51.90723],[-2.22137,51.90655],[-2.21327,51.90602],[-2.21326,51.90516],[-2.21412,51.90362],[-2.21599,51.90221],[-2.21871,51.90098],[-2.2185,51.89906],[-2.21625,51.89527],[-2.21639,51.89503],[-2.21836,51.89473],[-2.22014,51.8939],[-2.2203,51.89341],[-2.22067,51.89353],[-2.22277,51.89265],[-2.22489,51.89082],[-2.22655,51.89023],[-2.22719,51.88764],[-2.22613,51.88707],[-2.22728,51.8859],[-2.22759,51.88491],[-2.23015,51.88297],[-2.22853,51.8819],[-2.23161,51.88174],[-2.23472,51.88205],[-2.23782,51.88277],[-2.23796,51.88311],[-2.24276,51.88228],[-2.24679,51.88083],[-2.25296,51.87713],[-2.25549,51.87633],[-2.2583,51.87595],[-2.25839,51.87571],[-2.26041,51.87556],[-2.26153,51.87678],[-2.26176,51.87805],[-2.26027,51.88002],[-2.25822,51.88091],[-2.25149,51.8828],[-2.25015,51.88353],[-2.24967,51.88424],[-2.2498,51.88485],[-2.25093,51.88561],[-2.25439,51.8869],[-2.25427,51.88772],[-2.25284,51.88736],[-2.25067,51.88728],[-2.24969,51.88824],[-2.24911,51.8881],[-2.2483,51.88866],[-2.24537,51.88902],[-2.24492,51.8898],[-2.2436,51.88994],[-2.24321,51.8904],[-2.24048,51.89132],[-2.2395,51.89295],[-2.24023,51.89477],[-2.23657,51.8968],[-2.23187,51.90038],[-2.23119,51.90223],[-2.22922,51.9035],[-2.22758,51.90632],[-2.22575,51.90776]]]}},{"type":"Feature","properties":{"id":"E01022441","name":"E01022441","parent":"E07000083","type":"LSOA","pop":1563,"r":262,"ff":89,"ffd":5694.2,"ffs":0.4917,"g":79,"co":2,"mo":2,"sa":0,"ic":0},"geometry":{"type":"Polygon","coordinates":[[[-2.18801,51.97247],[-2.18695,51.97119],[-2.18617,51.97125],[-2.18336,51.96972],[-2.18308,51.96906],[-2.18353,51.96804],[-2.17803,51.96803],[-2.17545,51.96631],[-2.17253,51.96526],[-2.17128,51.96596],[-2.17072,51.96572],[-2.16884,51.96622],[-2.1611,51.96674],[-2.15372,51.96628],[-2.14857,51.96538],[-2.14978,51.96212],[-2.14851,51.96039],[-2.14699,51.95951],[-2.147,51.95922],[-2.1433,51.95799],[-2.14286,51.95808],[-2.14298,51.95784],[-2.14044,51.95678],[-2.13948,51.95692],[-2.13751,51.95526],[-2.13786,51.95458],[-2.13736,51.95426],[-2.13667,51.9549],[-2.13572,51.9544],[-2.13275,51.95382],[-2.13245,51.95346],[-2.13164,51.95337],[-2.13163,51.95304],[-2.12898,51.95275],[-2.12773,51.95196],[-2.12735,51.95007],[-2.12671,51.94929],[-2.12477,51.94903],[-2.1233,51.94856],[-2.12296,51.94803],[-2.12211,51.94813],[-2.12118,51.94769],[-2.12094,51.9468],[-2.11986,51.94601],[-2.11913,51.94458],[-2.11648,51.94314],[-2.11385,51.94029],[-2.11212,51.93968],[-2.11193,51.93924],[-2.11004,51.93914],[-2.10959,51.93876],[-2.10848,51.93959],[-2.10655,51.93887],[-2.10668,51.93755],[-2.1052,51.93644],[-2.10586,51.93479],[-2.10677,51.93484],[-2.10691,51.93416],[-2.10764,51.93406],[-2.10711,51.93166],[-2.10656,51.93154],[-2.1065,51.93085],[-2.1061,51.93075],[-2.1066,51.92987],[-2.10598,51.92823],[-2.10635,51.92709],[-2.1055,51.92633],[-2.10517,51.925],[-2.10454,51.92472],[-2.10332,51.92336],[-2.1054,51.92156],[-2.10697,51.91891],[-2.10963,51.91589],[-2.11262,51.91658],[-2.11395,51.9163],[-2.11494,51.91646],[-2.11533,51.91706],[-2.11678,51.91762],[-2.11888,51.91793],[-2.12008,51.91872],[-2.12135,51.91914],[-2.12209,51.91896],[-2.12442,51.91945],[-2.12497,51.919],[-2.12539,51.91914],[-2.1254,51.91978],[-2.12591,51.9197],[-2.12594,51.92013],[-2.12711,51.92008],[-2.12745,51.92046],[-2.12795,51.9202],[-2.12902,51.92073],[-2.13092,51.92076],[-2.13255,51.92015],[-2.13354,51.91921],[-2.13436,51.91971],[-2.13891,51.92014],[-2.1388,51.92082],[-2.13971,51.92081],[-2.13828,51.92288],[-2.13429,51.92679],[-2.13983,51.92881],[-2.14172,51.93041],[-2.1485,51.93247],[-2.15298,51.93632],[-2.15755,51.93955],[-2.15578,51.94067],[-2.15451,51.94244],[-2.15451,51.9443],[-2.15381,51.94615],[-2.15482,51.94634],[-2.15533,51.94546],[-2.15725,51.9456],[-2.15709,51.94658],[-2.16077,51.94693],[-2.1635,51.94765],[-2.16451,51.94635],[-2.16681,51.94666],[-2.16734,51.94585],[-2.16582,51.94553],[-2.16725,51.94343],[-2.18436,51.94151],[-2.19946,51.93933],[-2.20206,51.93952],[-2.20261,51.94063],[-2.2024,51.94139],[-2.20164,51.94204],[-2.20244,51.94424],[-2.20138,51.94464],[-2.19598,51.94904],[-2.19691,51.94917],[-2.19692,51.95112],[-2.1992,51.95117],[-2.20083,51.95165],[-2.20347,51.95095],[-2.20482,51.95134],[-2.20618,51.95284],[-2.20628,51.9538],[-2.203,51.95461],[-2.20109,51.95399],[-2.20137,51.95339],[-2.201,51.9529],[-2.20041,51.9532],[-2.19973,51.95562],[-2.19884,51.95659],[-2.19982,51.95695],[-2.2008,51.95493],[-2.20142,51.95454],[-2.20153,51.95517],[-2.20318,51.95701],[-2.20442,51.95719],[-2.20507,51.9579],[-2.20211,51.96333],[-2.19543,51.96741],[-2.19189,51.97309],[-2.18801,51.97247]]]}},{"type":"Feature","properties":{"id":"E01022442","name":"E01022442","parent":"E07000083","type":"LSOA","pop":1818,"r":243,"ff":79,"ffd":4345.4,"ffs":0.4675,"g":73,"co":2,"mo":0,"sa":2,"ic":0},"geometry":{"type":"Polygon","coordinates":[[[-2.20153,51.95517],[-2.20142,51.95454],[-2.2008,51.95493],[-2.19982,51.95695],[-2.19884,51.95659],[-2.19973,51.95562],[-2.20041,51.9532],[-2.201,51.9529],[-2.20137,51.95339],[-2.20109,51.95399],[-2.203,51.95461],[-2.20628,51.9538],[-2.20618,51.95284],[-2.20482,51.95134],[-2.20347,51.95095],[-2.20083,51.95165],[-2.1992,51.95117],[-2.19692,51.95112],[-2.19691,51.94917],[-2.19598,51.94904],[-2.20138,51.94464],[-2.20244,51.94424],[-2.20164,51.94204],[-2.2024,51.94139],[-2.20261,51.94063],[-2.20206,51.93952],[-2.19946,51.93933],[-2.18436,51.94151],[-2.16725,51.94343],[-2.16582,51.94553],[-2.16734,51.94585],[-2.16681,51.94666],[-2.16451,51.94635],[-2.1635,51.94765],[-2.16077,51.94693],[-2.15709,51.94658],[-2.15725,51.9456],[-2.15533,51.94546],[-2.15482,51.94634],[-2.15381,51.94615],[-2.15451,51.9443],[-2.15451,51.94244],[-2.15578,51.94067],[-2.15755,51.93955],[-2.15878,51.93933],[-2.15935,51.93858],[-2.16006,51.93831],[-2.16143,51.93669],[-2.16038,51.93664],[-2.1604,51.93645],[-2.16173,51.93658],[-2.16466,51.93383],[-2.16517,51.9323],[-2.16488,51.93125],[-2.16548,51.9304],[-2.16945,51.92804],[-2.17198,51.9254],[-2.17439,51.92712],[-2.17625,51.92679],[-2.17878,51.92681],[-2.18145,51.92528],[-2.18375,51.92441],[-2.18387,51.92393],[-2.18507,51.92307],[-2.18336,51.92128],[-2.18258,51.91796],[-2.18086,51.91361],[-2.18058,51.91153],[-2.17883,51.90941],[-2.18131,51.90797],[-2.18234,51.90694],[-2.18397,51.9062],[-2.18482,51.90715],[-2.1833,51.90831],[-2.18506,51.90738],[-2.18589,51.90817],[-2.1886,51.90892],[-2.18695,51.91074],[-2.18774,51.91104],[-2.18973,51.90932],[-2.19027,51.90942],[-2.19183,51.90788],[-2.18925,51.90685],[-2.18853,51.90694],[-2.18859,51.9065],[-2.18729,51.90584],[-2.18955,51.90525],[-2.19265,51.90687],[-2.1933,51.90666],[-2.19681,51.90729],[-2.19674,51.90753],[-2.20162,51.90924],[-2.20368,51.90947],[-2.20431,51.9093],[-2.21012,51.91008],[-2.21032,51.91103],[-2.20855,51.91103],[-2.20843,51.91192],[-2.20927,51.91241],[-2.20962,51.91313],[-2.21119,51.91355],[-2.21227,51.91215],[-2.21217,51.90999],[-2.21327,51.90602],[-2.22137,51.90655],[-2.22137,51.90723],[-2.22268,51.90701],[-2.22575,51.90776],[-2.22758,51.90632],[-2.22922,51.9035],[-2.23119,51.90223],[-2.23187,51.90038],[-2.23657,51.8968],[-2.24023,51.89477],[-2.2395,51.89295],[-2.24048,51.89132],[-2.24321,51.8904],[-2.2436,51.88994],[-2.24492,51.8898],[-2.24537,51.88902],[-2.2483,51.88866],[-2.24911,51.8881],[-2.24969,51.88824],[-2.25067,51.88728],[-2.25284,51.88736],[-2.25427,51.88772],[-2.25439,51.8869],[-2.25737,51.88806],[-2.25959,51.89019],[-2.26088,51.89216],[-2.26079,51.89382],[-2.26337,51.90083],[-2.26778,51.90532],[-2.27095,51.91367],[-2.27145,51.91575],[-2.2708,51.9175],[-2.26631,51.92191],[-2.26353,51.92405],[-2.26171,51.92433],[-2.25484,51.92275],[-2.2519,51.92283],[-2.24998,51.9234],[-2.2454,51.92573],[-2.23901,51.92693],[-2.23075,51.92974],[-2.22408,51.93081],[-2.22266,51.93203],[-2.22273,51.93373],[-2.224,51.93518],[-2.22632,51.93634],[-2.22815,51.93779],[-2.22888,51.93948],[-2.22871,51.94087],[-2.22739,51.94353],[-2.22743,51.94704],[-2.2266,51.9491],[-2.22551,51.95027],[-2.22387,51.95117],[-2.22188,51.95134],[-2.21793,51.95072],[-2.21504,51.95162],[-2.2136,51.95318],[-2.21258,51.95695],[-2.21171,51.95844],[-2.21036,51.95972],[-2.20749,51.96131],[-2.20211,51.96333],[-2.20507,51.9579],[-2.20442,51.95719],[-2.20318,51.95701],[-2.20153,51.95517]]]}},{"type":"Feature","properties":{"id":"E01022443","name":"E01022443","parent":"E07000083","type":"LSOA","pop":1546,"r":230,"ff":82,"ffd":5304.0,"ffs":0.4767,"g":57,"co":2,"mo":2,"sa":0,"ic":0},"geometry":{"type":"Polygon","coordinates":[[[-2.2798,51.91395],[-2.27899,51.91347],[-2.27719,51.91383],[-2.27285,51.91353],[-2.27095,51.91367],[-2.26778,51.90532],[-2.26337,51.90083],[-2.26079,51.89382],[-2.26088,51.89216],[-2.25959,51.89019],[-2.25737,51.88806],[-2.25093,51.88561],[-2.2498,51.88485],[-2.24967,51.88424],[-2.25015,51.88353],[-2.25149,51.8828],[-2.25822,51.88091],[-2.26027,51.88002],[-2.26176,51.87805],[-2.26153,51.87678],[-2.26041,51.87556],[-2.26491,51.87571],[-2.26615,51.8753],[-2.26754,51.8752],[-2.2667,51.87774],[-2.26794,51.88214],[-2.2672,51.88509],[-2.26751,51.88782],[-2.26697,51.88936],[-2.26754,51.88946],[-2.26831,51.88789],[-2.26812,51.8847],[-2.26878,51.88145],[-2.26763,51.87722],[-2.26867,51.87783],[-2.27337,51.87812],[-2.27833,51.87883],[-2.28163,51.88041],[-2.28387,51.87898],[-2.28687,51.87883],[-2.288,51.87898],[-2.29062,51.88018],[-2.29226,51.88043],[-2.29276,51.8798],[-2.29344,51.87981],[-2.29378,51.88071],[-2.29466,51.88074],[-2.29566,51.88121],[-2.29627,51.88073],[-2.29686,51.88067],[-2.29696,51.88113],[-2.29645,51.88135],[-2.29733,51.88181],[-2.29909,51.88159],[-2.29966,51.88111],[-2.29935,51.88096],[-2.3,51.88103],[-2.29987,51.8805],[-2.29941,51.8804],[-2.29931,51.87945],[-2.30127,51.87967],[-2.30066,51.88054],[-2.30566,51.88332],[-2.30575,51.88608],[-2.3074,51.88869],[-2.29957,51.89129],[-2.29727,51.89244],[-2.29687,51.89278],[-2.29718,51.89307],[-2.29526,51.89332],[-2.29527,51.89393],[-2.28989,51.89431],[-2.29291,51.89603],[-2.29594,51.89651],[-2.29545,51.89699],[-2.29557,51.89755],[-2.29718,51.89974],[-2.29722,51.9028],[-2.2963,51.9045],[-2.2954,51.90442],[-2.29663,51.90299],[-2.29522,51.90277],[-2.29363,51.90365],[-2.29555,51.90536],[-2.29169,51.90637],[-2.28789,51.90945],[-2.28482,51.91128],[-2.2862,51.91302],[-2.28579,51.91687],[-2.28729,51.92097],[-2.28452,51.92311],[-2.28361,51.9233],[-2.28171,51.92222],[-2.28115,51.92106],[-2.28181,51.92068],[-2.2816,51.91927],[-2.28216,51.91761],[-2.28162,51.91406],[-2.2798,51.91395]]]}},{"type":"Feature","properties":{"id":"E01022444","name":"E01022444","parent":"E07000083","type":"LSOA","pop":1742,"r":243,"ff":91,"ffd":5223.9,"ffs":0.4946,"g":58,"co":2,"mo":2,"sa":0,"ic":0},"geometry":{"type":"Polygon","coordinates":[[[-2.26763,51.87722],[-2.26856,51.87377],[-2.27077,51.87081],[-2.27054,51.8683],[-2.27229,51.86685],[-2.27338,51.86459],[-2.27545,51.86296],[-2.27808,51.86213],[-2.2862,51.86108],[-2.28821,51.8603],[-2.28881,51.8596],[-2.28886,51.85829],[-2.28061,51.84688],[-2.27992,51.84494],[-2.2811,51.84369],[-2.28811,51.84078],[-2.29076,51.83914],[-2.29146,51.83747],[-2.2911,51.83484],[-2.29185,51.83394],[-2.29383,51.83289],[-2.29551,51.83252],[-2.29698,51.83258],[-2.29887,51.83324],[-2.30067,51.8346],[-2.30206,51.83744],[-2.30362,51.8445],[-2.30523,51.84638],[-2.30755,51.84727],[-2.31315,51.84782],[-2.31959,51.84773],[-2.32283,51.84803],[-2.32469,51.84845],[-2.32896,51.85019],[-2.33297,51.85077],[-2.33734,51.85],[-2.34343,51.84802],[-2.35197,51.8465],[-2.35246,51.84719],[-2.35275,51.84941],[-2.35064,51.8501],[-2.34685,51.85449],[-2.34415,51.85466],[-2.339,51.85389],[-2.33458,51.85502],[-2.33266,51.85598],[-2.33134,51.8559],[-2.32702,51.85654],[-2.32321,51.85621],[-2.32204,51.85788],[-2.32023,51.85896],[-2.31653,51.86035],[-2.31592,51.86098],[-2.31816,51.86261],[-2.31727,51.86553],[-2.31705,51.86768],[-2.31745,51.86845],[-2.32196,51.86883],[-2.32486,51.8687],[-2.3268,51.87086],[-2.32852,51.87168],[-2.32974,51.87186],[-2.3314,51.87364],[-2.33457,51.87548],[-2.33458,51.87622],[-2.3332,51.87661],[-2.33303,51.87731],[-2.33091,51.87836],[-2.3311,51.87951],[-2.33069,51.87962],[-2.32951,51.87921],[-2.32831,51.87944],[-2.32692,51.88218],[-2.32575,51.88269],[-2.32353,51.8852],[-2.32105,51.88632],[-2.31987,51.88848],[-2.31739,51.88721],[-2.31689,51.88751],[-2.31588,51.88718],[-2.31514,51.88823],[-2.31467,51.88812],[-2.31413,51.88848],[-2.31343,51.88809],[-2.31151,51.88867],[-2.30952,51.8878],[-2.30914,51.88835],[-2.3074,51.88869],[-2.30575,51.88608],[-2.30566,51.88332],[-2.30066,51.88054],[-2.30127,51.87967],[-2.29931,51.87945],[-2.29941,51.8804],[-2.29987,51.8805],[-2.3,51.88103],[-2.29935,51.88096],[-2.29966,51.88111],[-2.29909,51.88159],[-2.29733,51.88181],[-2.29645,51.88135],[-2.29696,51.88113],[-2.29686,51.88067],[-2.29627,51.88073],[-2.29566,51.88121],[-2.29466,51.88074],[-2.29378,51.88071],[-2.29344,51.87981],[-2.29276,51.8798],[-2.29226,51.88043],[-2.29062,51.88018],[-2.288,51.87898],[-2.28687,51.87883],[-2.28387,51.87898],[-2.28163,51.88041],[-2.27833,51.87883],[-2.27337,51.87812],[-2.26867,51.87783],[-2.26763,51.87722]]]}},{"type":"Feature","properties":{"id":"E01022445","name":"E01022445","parent":"E07000083","type":"LSOA","pop":1475,"r":5,"ff":2,"ffd":135.6,"ffs":0.4,"g":0,"co":3,"mo":3,"sa":3,"ic":3},"geometry":{"type":"Polygon","coordinates":[[[-2.17945,51.99926],[-2.17663,51.99719],[-2.17603,51.99722],[-2.17487,51.99612],[-2.17618,51.99602],[-2.17678,51.99533],[-2.17537,51.99145],[-2.17514,51.98836],[-2.17569,51.98609],[-2.1769,51.98406],[-2.17876,51.98261],[-2.18518,51.98022],[-2.18772,51.97861],[-2.18991,51.97649],[-2.19543,51.96741],[-2.20211,51.96333],[-2.20749,51.96131],[-2.21036,51.95972],[-2.21171,51.95844],[-2.21258,51.95695],[-2.2136,51.95318],[-2.21504,51.95162],[-2.21793,51.95072],[-2.22188,51.95134],[-2.22387,51.95117],[-2.22551,51.95027],[-2.2266,51.9491],[-2.22743,51.94704],[-2.22739,51.94353],[-2.22871,51.94087],[-2.22888,51.93948],[-2.22815,51.93779],[-2.22632,51.93634],[-2.224,51.93518],[-2.22273,51.93373],[-2.22266,51.93203],[-2.22408,51.93081],[-2.23075,51.92974],[-2.23901,51.92693],[-2.2454,51.92573],[-2.24998,51.9234],[-2.2519,51.92283],[-2.25484,51.92275],[-2.26171,51.92433],[-2.26353,51.92405],[-2.26631,51.92191],[-2.2708,51.9175],[-2.27145,51.91575],[-2.27095,51.91367],[-2.27285,51.91353],[-2.27719,51.91383],[-2.27899,51.91347],[-2.2798,51.91395],[-2.28162,51.91406],[-2.28216,51.91761],[-2.2816,51.91927],[-2.28181,51.92068],[-2.28115,51.92106],[-2.28171,51.92222],[-2.28361,51.9233],[-2.28386,51.9237],[-2.28791,51.92544],[-2.29531,51.93325],[-2.29157,51.93786],[-2.29228,51.93875],[-2.29214,51.94097],[-2.29066,51.94226],[-2.28905,51.94294],[-2.28888,51.94409],[-2.28791,51.94549],[-2.28601,51.94538],[-2.2823,51.94417],[-2.28137,51.94584],[-2.28381,51.94844],[-2.28403,51.95094],[-2.28332,51.95185],[-2.2797,51.95285],[-2.27731,51.95309],[-2.27452,51.9528],[-2.26772,51.95313],[-2.26848,51.95856],[-2.26917,51.95926],[-2.27157,51.96051],[-2.27076,51.96157],[-2.27098,51.96309],[-2.26972,51.96751],[-2.27056,51.96894],[-2.26763,51.96841],[-2.26777,51.96808],[-2.26362,51.96735],[-2.25869,51.96782],[-2.2565,51.96711],[-2.25136,51.96657],[-2.25181,51.9675],[-2.25163,51.96821],[-2.25111,51.96876],[-2.24891,51.96822],[-2.24624,51.9715],[-2.24397,51.9729],[-2.24279,51.97427],[-2.24358,51.97471],[-2.24331,51.97517],[-2.23763,51.98092],[-2.23437,51.9855],[-2.23317,51.98671],[-2.22781,51.98863],[-2.22898,51.99085],[-2.2264,51.99078],[-2.22443,51.99278],[-2.2233,51.99288],[-2.22061,51.9955],[-2.21695,51.99408],[-2.21445,51.99538],[-2.21561,51.99589],[-2.21363,51.99669],[-2.21249,51.99675],[-2.20559,51.99534],[-2.20564,51.99639],[-2.20289,51.99636],[-2.20305,51.99535],[-2.20084,51.99481],[-2.20046,51.99573],[-2.19841,51.99557],[-2.1972,51.99501],[-2.1971,51.99435],[-2.1952,51.99436],[-2.19441,51.99318],[-2.19366,51.99342],[-2.19036,51.99156],[-2.18508,51.99056],[-2.18369,51.99085],[-2.1817,51.99189],[-2.17943,51.99485],[-2.17985,51.99681],[-2.1815,51.99911],[-2.18111,51.99948],[-2.17945,51.99926]]]}},{"type":"Feature","properties":{"id":"E01022447","name":"E01022447","parent":"E07000083","type":"LSOA","pop":1551,"r":293,"ff":103,"ffd":6640.9,"ffs":0.4703,"g":73,"co":0,"mo":0,"sa":0,"ic":0},"geometry":{"type":"Polygon","coordinates":[[[-2.19321,51.89747],[-2.1915,51.89581],[-2.1933,51.89503],[-2.19272,51.89342],[-2.19276,51.89217],[-2.19464,51.89016],[-2.19208,51.88902],[-2.19217,51.88694],[-2.19366,51.8868],[-2.19345,51.88547],[-2.20139,51.8843],[-2.20344,51.8837],[-2.20261,51.8827],[-2.19761,51.88009],[-2.19434,51.87914],[-2.19347,51.87939],[-2.19003,51.87764],[-2.18694,51.87668],[-2.18699,51.87589],[-2.19768,51.87191],[-2.19899,51.87521],[-2.19968,51.87791],[-2.19803,51.87869],[-2.19911,51.88061],[-2.20123,51.87955],[-2.20337,51.88179],[-2.20479,51.88289],[-2.20666,51.88373],[-2.20902,51.88447],[-2.20859,51.88494],[-2.20882,51.88593],[-2.21081,51.88649],[-2.21073,51.8869],[-2.20958,51.88748],[-2.21008,51.88812],[-2.20769,51.88814],[-2.20779,51.88749],[-2.20645,51.88714],[-2.20634,51.88688],[-2.20735,51.8862],[-2.20555,51.88533],[-2.20541,51.88492],[-2.2042,51.88477],[-2.20249,51.88609],[-2.20312,51.88704],[-2.20257,51.88728],[-2.20267,51.88766],[-2.2032,51.88773],[-2.20308,51.88888],[-2.20135,51.88925],[-2.20434,51.89674],[-2.20279,51.89715],[-2.2015,51.89644],[-2.19912,51.89699],[-2.19321,51.89747]]]}},{"type":"Feature","properties":{"id":"E01022448","name":"E01022448","parent":"E07000083","type":"LSOA","pop":3023,"r":309,"ff":109,"ffd":3605.7,"ffs":0.4698,"g":75,"co":0,"mo":0,"sa":0,"ic":0},"geometry":{"type":"Polygon","coordinates":[[[-2.20843,51.91192],[-2.20855,51.91103],[-2.21032,51.91103],[-2.21012,51.91008],[-2.20431,51.9093],[-2.20368,51.90947],[-2.20162,51.90924],[-2.19674,51.90753],[-2.19681,51.90729],[-2.1933,51.90666],[-2.19265,51.90687],[-2.18955,51.90525],[-2.18729,51.90584],[-2.18859,51.9065],[-2.18853,51.90694],[-2.18925,51.90685],[-2.19183,51.90788],[-2.19027,51.90942],[-2.18973,51.90932],[-2.18774,51.91104],[-2.18695,51.91074],[-2.1886,51.90892],[-2.18589,51.90817],[-2.18506,51.90738],[-2.1833,51.90831],[-2.18482,51.90715],[-2.18397,51.9062],[-2.18234,51.90694],[-2.18131,51.90797],[-2.17883,51.90941],[-2.17693,51.90799],[-2.17493,51.90462],[-2.17115,51.90051],[-2.17332,51.89964],[-2.17686,51.89894],[-2.17874,51.89769],[-2.18069,51.89743],[-2.18797,51.89899],[-2.19325,51.89912],[-2.20023,51.89843],[-2.20095,51.89802],[-2.20461,51.89719],[-2.20135,51.88925],[-2.20308,51.88888],[-2.2032,51.88773],[-2.20267,51.88766],[-2.20257,51.88728],[-2.20312,51.88704],[-2.20249,51.88609],[-2.2042,51.88477],[-2.20541,51.88492],[-2.20555,51.88533],[-2.20735,51.8862],[-2.20634,51.88688],[-2.20645,51.88714],[-2.20779,51.88749],[-2.20769,51.88814],[-2.21008,51.88812],[-2.20958,51.88748],[-2.21073,51.8869],[-2.21081,51.88649],[-2.20882,51.88593],[-2.20859,51.88494],[-2.20902,51.88447],[-2.21407,51.88522],[-2.21858,51.88479],[-2.22853,51.8819],[-2.23015,51.88297],[-2.22759,51.88491],[-2.22728,51.8859],[-2.22613,51.88707],[-2.22719,51.88764],[-2.22655,51.89023],[-2.22489,51.89082],[-2.22277,51.89265],[-2.22067,51.89353],[-2.2203,51.89341],[-2.22014,51.8939],[-2.21836,51.89473],[-2.21639,51.89503],[-2.21625,51.89527],[-2.2185,51.89906],[-2.21871,51.90098],[-2.21599,51.90221],[-2.21412,51.90362],[-2.21326,51.90516],[-2.21327,51.90602],[-2.21217,51.90999],[-2.21227,51.91215],[-2.21119,51.91355],[-2.20962,51.91313],[-2.20927,51.91241],[-2.20843,51.91192]]]}},{"type":"Feature","properties":{"id":"E01022449","name":"E01022449","parent":"E07000083","type":"LSOA","pop":2001,"r":11,"ff":6,"ffd":299.9,"ffs":0.5455,"g":0,"co":3,"mo":3,"sa":3,"ic":1},"geometry":{"type":"Polygon","coordinates":[[[-1.90897,52.04259],[-1.90324,52.03889],[-1.89643,52.03591],[-1.89133,52.03283],[-1.88801,52.03146],[-1.88501,52.0295],[-1.87931,52.02695],[-1.87643,52.02529],[-1.87357,52.02433],[-1.8673,52.01796],[-1.86227,52.01749],[-1.86379,52.01442],[-1.86202,52.01336],[-1.86154,52.01263],[-1.85989,52.01274],[-1.85711,52.0112],[-1.85675,52.01064],[-1.8548,52.0102],[-1.85107,52.0084],[-1.84725,52.00766],[-1.84448,52.00833],[-1.84389,52.008],[-1.84328,52.00809],[-1.84131,52.00692],[-1.84002,52.00731],[-1.83718,52.00586],[-1.83302,52.0059],[-1.82972,52.00514],[-1.8262,52.00476],[-1.82109,52.00327],[-1.81793,52.00138],[-1.80687,52.00267],[-1.80631,52.00095],[-1.8048,51.99901],[-1.80168,51.9969],[-1.80519,51.99614],[-1.80824,51.99437],[-1.81022,51.99176],[-1.8122,51.98802],[-1.8204,51.9874],[-1.82327,51.98822],[-1.82479,51.98915],[-1.83195,51.98779],[-1.84251,51.98779],[-1.84716,51.98848],[-1.85406,51.99082],[-1.85756,51.99145],[-1.86176,51.9932],[-1.86536,51.99516],[-1.86752,51.99402],[-1.86939,51.99357],[-1.87402,51.99453],[-1.8789,51.99456],[-1.88481,51.99596],[-1.88803,51.99798],[-1.89633,51.99784],[-1.89684,51.99769],[-1.898,51.9963],[-1.89896,51.99624],[-1.90275,51.99683],[-1.90292,51.99736],[-1.9055,51.99809],[-1.90862,51.9986],[-1.91278,51.99877],[-1.9159,51.99947],[-1.91795,51.9991],[-1.92043,51.99921],[-1.92828,52.0013],[-1.93087,52.00147],[-1.92857,51.99922],[-1.9277,51.99883],[-1.93,51.99701],[-1.93115,51.99448],[-1.93231,51.98462],[-1.93386,51.98291],[-1.93804,51.98326],[-1.93834,51.98299],[-1.93842,51.98322],[-1.93981,51.98331],[-1.94068,51.98308],[-1.94134,51.98389],[-1.94426,51.98484],[-1.94627,51.98513],[-1.94998,51.98698],[-1.95399,51.98768],[-1.95393,51.98423],[-1.95322,51.98401],[-1.95419,51.98367],[-1.95368,51.98354],[-1.95416,51.98324],[-1.95457,51.98336],[-1.95426,51.98225],[-1.954,51.98246],[-1.95375,51.98217],[-1.95565,51.9817],[-1.95429,51.97899],[-1.95609,51.97707],[-1.96165,51.97772],[-1.96222,51.97851],[-1.96203,51.98068],[-1.9632,51.98105],[-1.9729,51.98095],[-1.97293,51.9819],[-1.97634,51.9816],[-1.97751,51.98285],[-1.97924,51.98287],[-1.98186,51.98452],[-1.98376,51.9841],[-1.98507,51.98664],[-1.98623,51.98699],[-1.98885,51.98874],[-1.99001,51.98871],[-1.99079,51.98909],[-1.99154,51.98982],[-1.99171,51.9912],[-1.98348,51.99044],[-1.97511,51.99017],[-1.97593,51.9915],[-1.97852,51.99193],[-1.98153,51.99352],[-1.98273,51.99377],[-1.98016,51.99664],[-1.97945,52.00037],[-1.97998,52.00145],[-1.98203,52.00198],[-1.98128,52.00335],[-1.98361,52.00656],[-1.98555,52.00815],[-1.98815,52.00795],[-1.98762,52.00944],[-1.98906,52.00997],[-1.98968,52.0096],[-1.99189,52.00954],[-1.99404,52.00875],[-1.99629,52.00848],[-1.99836,52.00746],[-2.0035,52.00242],[-2.00623,52.00052],[-2.01196,51.99509],[-2.01531,51.9912],[-2.01569,51.99122],[-2.01828,51.98923],[-2.01933,51.98925],[-2.02157,51.98666],[-2.02275,51.98602],[-2.02499,51.98604],[-2.02701,51.98503],[-2.0289,51.98487],[-2.03381,51.98314],[-2.03413,51.98355],[-2.03681,51.98328],[-2.03765,51.98373],[-2.04037,51.98431],[-2.04104,51.98498],[-2.04196,51.98737],[-2.04594,51.98709],[-2.0485,51.98762],[-2.05055,51.98758],[-2.05164,51.98785],[-2.05186,51.9889],[-2.05254,51.98912],[-2.05508,51.98859],[-2.05937,51.99148],[-2.06605,51.99394],[-2.07192,51.99509],[-2.07127,51.99617],[-2.07082,51.99603],[-2.07069,51.99631],[-2.07032,52.00008],[-2.07172,51.99949],[-2.07361,51.99936],[-2.0736,52.00464],[-2.07262,52.00486],[-2.07266,52.00526],[-2.07178,52.00584],[-2.07113,52.00599],[-2.07094,52.00573],[-2.07041,52.00613],[-2.06395,52.00744],[-2.06155,52.00848],[-2.061,52.00948],[-2.05971,52.00998],[-2.05929,52.00947],[-2.05719,52.00982],[-2.05321,52.00864],[-2.05156,52.00875],[-2.05016,52.00739],[-2.0493,52.00701],[-2.04868,52.00712],[-2.05009,52.00602],[-2.04951,52.0038],[-2.04495,52.00365],[-2.03836,52.0046],[-2.03684,52.00604],[-2.03715,52.00663],[-2.03684,52.00699],[-2.03795,52.00794],[-2.03825,52.00956],[-2.0344,52.00981],[-2.03265,52.00964],[-2.02913,52.01004],[-2.027,52.0106],[-2.02738,52.01151],[-2.02818,52.01187],[-2.02809,52.01235],[-2.02923,52.01289],[-2.02167,52.01565],[-2.02367,52.01695],[-2.01964,52.01869],[-2.01698,52.02026],[-2.01342,52.02135],[-2.00925,52.02315],[-2.00528,52.02535],[-1.99925,52.0293],[-1.99756,52.0299],[-1.99519,52.02656],[-1.99394,52.02739],[-1.99399,52.02782],[-1.99258,52.02929],[-1.98414,52.03588],[-1.96311,52.03616],[-1.9567,52.03715],[-1.95422,52.03733],[-1.95402,52.0371],[-1.95139,52.03773],[-1.95103,52.03669],[-1.95052,52.03667],[-1.95084,52.03597],[-1.95043,52.03548],[-1.94919,52.03518],[-1.948,52.03399],[-1.94752,52.03189],[-1.94581,52.03167],[-1.94225,52.03236],[-1.93991,52.03228],[-1.93376,52.03084],[-1.93202,52.02995],[-1.93107,52.03024],[-1.92704,52.03666],[-1.9232,52.03564],[-1.92216,52.03562],[-1.92053,52.03814],[-1.92005,52.0382],[-1.91974,52.03892],[-1.91914,52.03886],[-1.91668,52.0421],[-1.9157,52.04169],[-1.91345,52.04446],[-1.90897,52.04259]]]}},{"type":"Feature","properties":{"id":"E01022450","name":"E01022450","parent":"E07000083","type":"LSOA","pop":2133,"r":21,"ff":12,"ffd":562.6,"ffs":0.5714,"g":0,"co":3,"mo":3,"sa":3,"ic":1},"geometry":{"type":"Polygon","coordinates":[[[-2.11192,52.00771],[-2.1124,52.00714],[-2.1113,52.00719],[-2.11068,52.00746],[-2.11037,52.00719],[-2.11016,52.00764],[-2.10874,52.00766],[-2.10875,51.99743],[-2.11468,51.99702],[-2.11499,51.99924],[-2.11245,51.99981],[-2.11494,52.00112],[-2.11497,52.00462],[-2.11576,52.00461],[-2.11563,52.00527],[-2.11609,52.00534],[-2.11551,52.00539],[-2.11548,52.00565],[-2.11515,52.00587],[-2.11417,52.00579],[-2.11422,52.00542],[-2.1136,52.00543],[-2.11343,52.00711],[-2.11282,52.00721],[-2.11277,52.0076],[-2.11192,52.00771]]]}},{"type":"Feature","properties":{"id":"E01022451","name":"E01022451","parent":"E07000083","type":"LSOA","pop":1484,"r":21,"ff":12,"ffd":808.6,"ffs":0.5714,"g":0,"co":3,"mo":3,"sa":3,"ic":1},"geometry":{"type":"Polygon","coordinates":[[[-2.11157,52.0148],[-2.10873,52.01428],[-2.10874,52.00766],[-2.11016,52.00764],[-2.11037,52.00719],[-2.11068,52.00746],[-2.1113,52.00719],[-2.1124,52.00714],[-2.11192,52.00771],[-2.11277,52.0076],[-2.11282,52.00721],[-2.11343,52.00711],[-2.1136,52.00543],[-2.11422,52.00542],[-2.11417,52.00579],[-2.11515,52.00587],[-2.11548,52.00565],[-2.11589,52.00631],[-2.1175,52.00637],[-2.11799,52.00531],[-2.12095,52.00551],[-2.12223,52.00472],[-2.12111,52.01129],[-2.12037,52.0117],[-2.12007,52.01318],[-2.11951,52.01351],[-2.11913,52.01324],[-2.11904,52.01356],[-2.11827,52.01375],[-2.11853,52.01397],[-2.11805,52.01438],[-2.11737,52.01418],[-2.1163,52.01457],[-2.11588,52.01433],[-2.11389,52.0146],[-2.11361,52.01498],[-2.11165,52.01535],[-2.11157,52.0148]]]}},{"type":"Feature","properties":{"id":"E01022452","name":"E01022452","parent":"E07000083","type":"LSOA","pop":1304,"r":21,"ff":12,"ffd":920.2,"ffs":0.5714,"g":0,"co":3,"mo":3,"sa":3,"ic":1},"geometry":{"type":"Polygon","coordinates":[[[-2.11609,52.00534],[-2.11563,52.00527],[-2.11576,52.00461],[-2.11497,52.00462],[-2.11494,52.00112],[-2.11245,51.99981],[-2.11499,51.99924],[-2.11468,51.99702],[-2.11338,51.9971],[-2.11438,51.99703],[-2.12356,51.99647],[-2.12223,52.00472],[-2.12095,52.00551],[-2.11799,52.00531],[-2.1175,52.00637],[-2.11589,52.00631],[-2.11548,52.00565],[-2.11551,52.00539],[-2.11609,52.00534]]]}},{"type":"Feature","properties":{"id":"E01022453","name":"E01022453","parent":"E07000083","type":"LSOA","pop":2469,"r":31,"ff":21,"ffd":850.5,"ffs":0.6774,"g":0,"co":3,"mo":3,"sa":3,"ic":1},"geometry":{"type":"Polygon","coordinates":[[[-2.05937,51.99148],[-2.05508,51.98859],[-2.05254,51.98912],[-2.05186,51.9889],[-2.05164,51.98785],[-2.05055,51.98758],[-2.0485,51.98762],[-2.04594,51.98709],[-2.04196,51.98737],[-2.04104,51.98498],[-2.04037,51.98431],[-2.03765,51.98373],[-2.03681,51.98328],[-2.03861,51.98171],[-2.03686,51.97962],[-2.03705,51.97898],[-2.03666,51.97877],[-2.0372,51.97735],[-2.03585,51.97693],[-2.03508,51.97567],[-2.03501,51.97424],[-2.03586,51.97215],[-2.03203,51.97244],[-2.032,51.97166],[-2.03373,51.97178],[-2.03246,51.97144],[-2.032,51.9707],[-2.0323,51.96997],[-2.03185,51.96921],[-2.03141,51.96506],[-2.03187,51.96437],[-2.02949,51.9606],[-2.02946,51.95894],[-2.02796,51.95772],[-2.02453,51.95718],[-2.02283,51.95629],[-2.02146,51.95477],[-2.01894,51.95393],[-2.01911,51.95285],[-2.02174,51.95117],[-2.02319,51.95049],[-2.02993,51.95237],[-2.03104,51.95292],[-2.03098,51.95351],[-2.03256,51.95505],[-2.03254,51.95558],[-2.03838,51.95642],[-2.04049,51.95702],[-2.03985,51.95589],[-2.03858,51.95566],[-2.0384,51.95496],[-2.03959,51.95458],[-2.04223,51.95495],[-2.04237,51.95643],[-2.04719,51.9553],[-2.0476,51.95569],[-2.05131,51.95527],[-2.05131,51.95571],[-2.05399,51.9558],[-2.05481,51.95893],[-2.05911,51.95829],[-2.06191,51.95811],[-2.06336,51.95749],[-2.06361,51.9569],[-2.06508,51.9563],[-2.06961,51.95572],[-2.07089,51.95589],[-2.0718,51.95656],[-2.07233,51.95638],[-2.07398,51.95664],[-2.07625,51.95746],[-2.08135,51.95725],[-2.08344,51.95756],[-2.08822,51.95761],[-2.08909,51.9573],[-2.08981,51.95772],[-2.09049,51.95771],[-2.09224,51.95439],[-2.09533,51.95154],[-2.09608,51.94985],[-2.09756,51.94801],[-2.09492,51.94332],[-2.09646,51.94293],[-2.10093,51.94002],[-2.10507,51.93979],[-2.10679,51.93903],[-2.10848,51.93959],[-2.10959,51.93876],[-2.11004,51.93914],[-2.11193,51.93924],[-2.11212,51.93968],[-2.11385,51.94029],[-2.11648,51.94314],[-2.11913,51.94458],[-2.11986,51.94601],[-2.12094,51.9468],[-2.12118,51.94769],[-2.12211,51.94813],[-2.12296,51.94803],[-2.1233,51.94856],[-2.12477,51.94903],[-2.12671,51.94929],[-2.12735,51.95007],[-2.12773,51.95196],[-2.12898,51.95275],[-2.13163,51.95304],[-2.13164,51.95337],[-2.13245,51.95346],[-2.13275,51.95382],[-2.13572,51.9544],[-2.13667,51.9549],[-2.13736,51.95426],[-2.13786,51.95458],[-2.13751,51.95526],[-2.13948,51.95692],[-2.14044,51.95678],[-2.14298,51.95784],[-2.14286,51.95808],[-2.1433,51.95799],[-2.147,51.95922],[-2.14699,51.95951],[-2.14851,51.96039],[-2.14978,51.96212],[-2.14886,51.96464],[-2.14762,51.96512],[-2.14729,51.96598],[-2.14641,51.96659],[-2.14702,51.96707],[-2.14599,51.96857],[-2.14601,51.96922],[-2.1452,51.96976],[-2.1458,51.9713],[-2.14665,51.97203],[-2.14629,51.97225],[-2.14512,51.97194],[-2.1405,51.97233],[-2.13732,51.97228],[-2.13708,51.97083],[-2.13257,51.9717],[-2.12997,51.97177],[-2.12911,51.96991],[-2.12694,51.97122],[-2.1199,51.97337],[-2.11956,51.9737],[-2.11563,51.97399],[-2.10753,51.97391],[-2.10516,51.97307],[-2.10097,51.97297],[-2.09606,51.97186],[-2.08997,51.97228],[-2.08561,51.973],[-2.08647,51.97508],[-2.086,51.97523],[-2.08747,51.9806],[-2.08711,51.98465],[-2.08692,51.98499],[-2.08304,51.98621],[-2.07846,51.98711],[-2.07298,51.9876],[-2.07392,51.98887],[-2.07342,51.99183],[-2.06609,51.99326],[-2.06605,51.99394],[-2.05937,51.99148]]]}},{"type":"Feature","properties":{"id":"E01022454","name":"E01022454","parent":"E07000083","type":"LSOA","pop":2936,"r":333,"ff":110,"ffd":3746.6,"ffs":0.4527,"g":88,"co":2,"mo":0,"sa":0,"ic":0},"geometry":{"type":"Polygon","coordinates":[[[-2.11212,51.87977],[-2.10752,51.87887],[-2.1059,51.87837],[-2.10409,51.87671],[-2.10233,51.876],[-2.09752,51.87886],[-2.09653,51.87603],[-2.09627,51.87579],[-2.09799,51.87516],[-2.09749,51.87456],[-2.09571,51.87515],[-2.09518,51.8747],[-2.09329,51.87538],[-2.09313,51.87527],[-2.09234,51.87375],[-2.09275,51.87233],[-2.09234,51.87121],[-2.08976,51.87218],[-2.08568,51.87311],[-2.08443,51.87223],[-2.08352,51.87294],[-2.08184,51.87244],[-2.08131,51.8719],[-2.08241,51.87117],[-2.08172,51.87101],[-2.08105,51.87126],[-2.0807,51.87086],[-2.07988,51.87122],[-2.08029,51.87167],[-2.07935,51.87224],[-2.07985,51.87299],[-2.07683,51.87286],[-2.07695,51.87236],[-2.07606,51.87204],[-2.07648,51.86936],[-2.07531,51.86848],[-2.07219,51.86849],[-2.07001,51.86888],[-2.06955,51.86849],[-2.06987,51.86708],[-2.07127,51.86562],[-2.07029,51.86443],[-2.07067,51.86187],[-2.07193,51.86019],[-2.0745,51.85869],[-2.07461,51.85826],[-2.07998,51.8569],[-2.08049,51.85654],[-2.08,51.85624],[-2.0801,51.85572],[-2.08214,51.85492],[-2.08392,51.85463],[-2.08746,51.85637],[-2.08929,51.8568],[-2.09113,51.85668],[-2.09196,51.85613],[-2.09467,51.85639],[-2.09656,51.85619],[-2.09841,51.85656],[-2.10787,51.85749],[-2.11014,51.85676],[-2.11489,51.85624],[-2.11454,51.85611],[-2.11504,51.85497],[-2.11574,51.85486],[-2.11695,51.85344],[-2.119,51.85384],[-2.12089,51.8549],[-2.12364,51.85491],[-2.12472,51.8553],[-2.12522,51.85599],[-2.12734,51.85725],[-2.1211,51.86202],[-2.12199,51.8624],[-2.12146,51.86289],[-2.12335,51.86413],[-2.12419,51.86345],[-2.12621,51.86549],[-2.12524,51.86624],[-2.12818,51.8675],[-2.12904,51.86922],[-2.12868,51.86961],[-2.12891,51.87124],[-2.13036,51.87136],[-2.13037,51.87105],[-2.13157,51.87099],[-2.13107,51.87401],[-2.12963,51.8737],[-2.12944,51.87422],[-2.13338,51.87529],[-2.13484,51.87603],[-2.13281,51.8782],[-2.12948,51.87803],[-2.12773,51.8797],[-2.12603,51.87927],[-2.12313,51.88304],[-2.12187,51.8825],[-2.11917,51.88198],[-2.11212,51.87977]]]}},{"type":"Feature","properties":{"id":"E01022455","name":"E01022455","parent":"E07000083","type":"LSOA","pop":1852,"r":22,"ff":12,"ffd":647.9,"ffs":0.5455,"g":0,"co":3,"mo":3,"sa":3,"ic":1},"geometry":{"type":"Polygon","coordinates":[[[-2.12147,52.00919],[-2.12421,51.99336],[-2.1251,51.99346],[-2.12551,51.99311],[-2.12592,51.99336],[-2.12872,51.99305],[-2.13117,51.99314],[-2.1359,51.99294],[-2.13601,51.99257],[-2.1371,51.99212],[-2.13797,51.99224],[-2.13908,51.99181],[-2.14037,51.99078],[-2.14177,51.99152],[-2.14207,51.99208],[-2.14331,51.9924],[-2.14461,51.99224],[-2.14512,51.99152],[-2.14609,51.99117],[-2.1489,51.99087],[-2.14848,51.99234],[-2.14894,51.99302],[-2.14751,51.99369],[-2.14808,51.99529],[-2.1438,51.99633],[-2.1436,51.99682],[-2.14381,51.99905],[-2.14236,51.99925],[-2.14182,51.9998],[-2.14064,51.99946],[-2.13845,51.99956],[-2.13683,51.99985],[-2.13559,51.99966],[-2.13496,51.99991],[-2.13394,52.00132],[-2.13325,52.00168],[-2.13343,52.00251],[-2.13235,52.00274],[-2.13268,52.00306],[-2.13193,52.00399],[-2.13203,52.0053],[-2.13152,52.00591],[-2.13077,52.00612],[-2.13071,52.00646],[-2.12963,52.0063],[-2.12783,52.00724],[-2.12715,52.00728],[-2.12586,52.00905],[-2.12386,52.01001],[-2.12406,52.01022],[-2.12336,52.0109],[-2.12111,52.01129],[-2.12147,52.00919]]]}},{"type":"Feature","properties":{"id":"E01022456","name":"E01022456","parent":"E07000083","type":"LSOA","pop":1256,"r":22,"ff":12,"ffd":955.4,"ffs":0.5455,"g":0,"co":3,"mo":1,"sa":3,"ic":1},"geometry":{"type":"Polygon","coordinates":[[[-2.16374,51.98765],[-2.16264,51.98623],[-2.16404,51.98592],[-2.16318,51.98545],[-2.16384,51.98516],[-2.16366,51.98478],[-2.16182,51.98541],[-2.16082,51.98432],[-2.16009,51.98436],[-2.15699,51.9827],[-2.15579,51.98346],[-2.15524,51.98245],[-2.1534,51.98203],[-2.15272,51.98276],[-2.15051,51.98264],[-2.14829,51.98349],[-2.14898,51.9824],[-2.14859,51.98121],[-2.14851,51.97945],[-2.14896,51.97863],[-2.1484,51.9782],[-2.14838,51.97746],[-2.14868,51.97723],[-2.14838,51.97598],[-2.14751,51.97564],[-2.14811,51.97523],[-2.14805,51.97455],[-2.14753,51.97444],[-2.14736,51.97376],[-2.14628,51.97292],[-2.14629,51.97225],[-2.14665,51.97203],[-2.1458,51.9713],[-2.1452,51.96976],[-2.14601,51.96922],[-2.14599,51.96857],[-2.14702,51.96707],[-2.14641,51.96659],[-2.14729,51.96598],[-2.14762,51.96512],[-2.14886,51.96464],[-2.14857,51.96538],[-2.15372,51.96628],[-2.1611,51.96674],[-2.16884,51.96622],[-2.17072,51.96572],[-2.17128,51.96596],[-2.17253,51.96526],[-2.17545,51.96631],[-2.17803,51.96803],[-2.18353,51.96804],[-2.18308,51.96906],[-2.18336,51.96972],[-2.18617,51.97125],[-2.18695,51.97119],[-2.18801,51.97247],[-2.19189,51.97309],[-2.18991,51.97649],[-2.18772,51.97861],[-2.18518,51.98022],[-2.17876,51.98261],[-2.1769,51.98406],[-2.1759,51.98393],[-2.17523,51.98424],[-2.17437,51.9852],[-2.17448,51.98598],[-2.1727,51.98658],[-2.17101,51.98637],[-2.16924,51.98744],[-2.16817,51.98724],[-2.1674,51.98778],[-2.16625,51.98794],[-2.16621,51.98864],[-2.16576,51.98889],[-2.1652,51.98842],[-2.16377,51.98834],[-2.16374,51.98765]]]}},{"type":"Feature","properties":{"id":"E01022457","name":"E01022457","parent":"E07000083","type":"LSOA","pop":1338,"r":22,"ff":12,"ffd":896.9,"ffs":0.5455,"g":0,"co":3,"mo":1,"sa":3,"ic":1},"geometry":{"type":"Polygon","coordinates":[[[-2.15952,51.98913],[-2.15995,51.98676],[-2.15905,51.98702],[-2.15746,51.98573],[-2.15687,51.98581],[-2.15565,51.98534],[-2.1549,51.98555],[-2.15445,51.98694],[-2.15351,51.98768],[-2.15406,51.98901],[-2.1537,51.98904],[-2.15273,51.98766],[-2.15262,51.98716],[-2.15219,51.98689],[-2.15301,51.98664],[-2.15289,51.98567],[-2.15203,51.98577],[-2.14942,51.98529],[-2.14829,51.98349],[-2.15051,51.98264],[-2.15272,51.98276],[-2.1534,51.98203],[-2.15524,51.98245],[-2.15579,51.98346],[-2.15699,51.9827],[-2.16009,51.98436],[-2.16082,51.98432],[-2.16182,51.98541],[-2.16366,51.98478],[-2.16384,51.98516],[-2.16318,51.98545],[-2.16404,51.98592],[-2.16264,51.98623],[-2.16374,51.98765],[-2.16377,51.98834],[-2.16201,51.9888],[-2.16054,51.9887],[-2.15952,51.98913]]]}},{"type":"Feature","properties":{"id":"E01022458","name":"E01022458","parent":"E07000083","type":"LSOA","pop":1440,"r":22,"ff":12,"ffd":833.3,"ffs":0.5455,"g":0,"co":3,"mo":1,"sa":3,"ic":1},"geometry":{"type":"Polygon","coordinates":[[[-2.14894,51.99302],[-2.14848,51.99234],[-2.1489,51.99087],[-2.15091,51.99075],[-2.15031,51.98932],[-2.14969,51.98893],[-2.15017,51.98869],[-2.14977,51.9885],[-2.15009,51.98815],[-2.14945,51.98774],[-2.15026,51.9859],[-2.14942,51.98529],[-2.15203,51.98577],[-2.15289,51.98567],[-2.15301,51.98664],[-2.15219,51.98689],[-2.15262,51.98716],[-2.15273,51.98766],[-2.1537,51.98904],[-2.15406,51.98901],[-2.15351,51.98768],[-2.15445,51.98694],[-2.1549,51.98555],[-2.15565,51.98534],[-2.15687,51.98581],[-2.15746,51.98573],[-2.15905,51.98702],[-2.15995,51.98676],[-2.15952,51.98913],[-2.1585,51.9902],[-2.1586,51.99066],[-2.15755,51.99141],[-2.15598,51.99161],[-2.15535,51.99126],[-2.15355,51.99155],[-2.15262,51.9911],[-2.15084,51.99276],[-2.14915,51.99246],[-2.14894,51.99302]]]}},{"type":"Feature","properties":{"id":"E01022459","name":"E01022459","parent":"E07000083","type":"LSOA","pop":1438,"r":21,"ff":12,"ffd":834.5,"ffs":0.5714,"g":0,"co":3,"mo":1,"sa":3,"ic":1},"geometry":{"type":"Polygon","coordinates":[[[-2.15535,51.99692],[-2.15492,51.99669],[-2.15399,51.99712],[-2.15467,51.99574],[-2.15408,51.99572],[-2.15429,51.99529],[-2.15278,51.99551],[-2.15263,51.9951],[-2.15463,51.99495],[-2.15392,51.99431],[-2.15338,51.99409],[-2.15325,51.99299],[-2.15435,51.99263],[-2.15413,51.99233],[-2.1526,51.99258],[-2.15157,51.99213],[-2.15262,51.9911],[-2.15355,51.99155],[-2.15535,51.99126],[-2.15598,51.99161],[-2.15755,51.99141],[-2.1586,51.99066],[-2.1585,51.9902],[-2.15932,51.9893],[-2.16054,51.9887],[-2.16201,51.9888],[-2.16377,51.98834],[-2.1652,51.98842],[-2.16576,51.98889],[-2.16621,51.98864],[-2.16625,51.98794],[-2.1674,51.98778],[-2.16817,51.98724],[-2.16924,51.98744],[-2.17101,51.98637],[-2.1727,51.98658],[-2.17448,51.98598],[-2.17437,51.9852],[-2.17523,51.98424],[-2.1759,51.98393],[-2.1769,51.98406],[-2.17569,51.98609],[-2.17514,51.98836],[-2.17537,51.99145],[-2.17678,51.99533],[-2.17618,51.99602],[-2.17487,51.99612],[-2.17174,51.99484],[-2.17027,51.99467],[-2.16627,51.99535],[-2.16427,51.99648],[-2.15888,51.99584],[-2.15826,51.99602],[-2.15802,51.99649],[-2.15698,51.99646],[-2.15604,51.9975],[-2.15505,51.99727],[-2.15535,51.99692]]]}},{"type":"Feature","properties":{"id":"E01022460","name":"E01022460","parent":"E07000083","type":"LSOA","pop":1961,"r":20,"ff":12,"ffd":611.9,"ffs":0.6,"g":0,"co":3,"mo":1,"sa":3,"ic":1},"geometry":{"type":"Polygon","coordinates":[[[-2.15073,52.00661],[-2.14629,52.00458],[-2.14541,52.00476],[-2.14374,52.0041],[-2.14296,52.00417],[-2.1466,52.00189],[-2.14992,52.00051],[-2.15062,52.00095],[-2.15238,52.00004],[-2.15232,51.99938],[-2.15309,51.99891],[-2.15252,51.99861],[-2.15279,51.9984],[-2.14993,51.99783],[-2.14589,51.99821],[-2.14604,51.99887],[-2.14381,51.99905],[-2.1436,51.99682],[-2.1438,51.99633],[-2.14808,51.99529],[-2.14751,51.99369],[-2.14894,51.99302],[-2.14915,51.99246],[-2.15084,51.99276],[-2.15157,51.99213],[-2.1526,51.99258],[-2.15413,51.99233],[-2.15435,51.99263],[-2.15325,51.99299],[-2.15338,51.99409],[-2.15392,51.99431],[-2.15463,51.99495],[-2.15263,51.9951],[-2.15278,51.99551],[-2.15429,51.99529],[-2.15408,51.99572],[-2.15467,51.99574],[-2.15399,51.99712],[-2.15492,51.99669],[-2.15535,51.99692],[-2.15505,51.99727],[-2.15604,51.9975],[-2.15336,52.00037],[-2.15332,52.00313],[-2.15073,52.00661]]]}},{"type":"Feature","properties":{"id":"E01022461","name":"E01022461","parent":"E07000083","type":"LSOA","pop":1332,"r":20,"ff":12,"ffd":900.9,"ffs":0.6,"g":0,"co":3,"mo":3,"sa":3,"ic":1},"geometry":{"type":"Polygon","coordinates":[[[-2.14173,52.00458],[-2.13906,52.00395],[-2.14082,52.0024],[-2.13974,52.00173],[-2.13914,52.00064],[-2.13972,52.00024],[-2.14182,51.9998],[-2.14236,51.99925],[-2.14604,51.99887],[-2.14589,51.99821],[-2.14993,51.99783],[-2.15279,51.9984],[-2.15252,51.99861],[-2.15309,51.99891],[-2.15232,51.99938],[-2.15238,52.00004],[-2.15062,52.00095],[-2.14992,52.00051],[-2.1466,52.00189],[-2.14296,52.00417],[-2.14244,52.00416],[-2.14173,52.00458]]]}},{"type":"Feature","properties":{"id":"E01022462","name":"E01022462","parent":"E07000083","type":"LSOA","pop":2036,"r":16,"ff":7,"ffd":343.8,"ffs":0.4375,"g":0,"co":3,"mo":3,"sa":3,"ic":3},"geometry":{"type":"Polygon","coordinates":[[[-2.15525,52.04852],[-2.14949,52.04693],[-2.14722,52.04676],[-2.14226,52.04569],[-2.13728,52.04585],[-2.13372,52.04633],[-2.12631,52.04322],[-2.12044,52.04216],[-2.11838,52.04211],[-2.11721,52.03926],[-2.11609,52.03787],[-2.11626,52.03697],[-2.11561,52.03617],[-2.11733,52.03351],[-2.11983,52.03247],[-2.12559,52.0306],[-2.12929,52.02979],[-2.13617,52.02935],[-2.13838,52.02856],[-2.13996,52.02739],[-2.14005,52.0264],[-2.14117,52.02454],[-2.14175,52.02153],[-2.14236,52.01958],[-2.14465,52.01669],[-2.14568,52.01407],[-2.14807,52.01272],[-2.14966,52.01126],[-2.15073,52.00661],[-2.15332,52.00313],[-2.15336,52.00037],[-2.15698,51.99646],[-2.15802,51.99649],[-2.15826,51.99602],[-2.15888,51.99584],[-2.16427,51.99648],[-2.16385,51.99736],[-2.16355,52.00149],[-2.16472,52.0042],[-2.17213,52.00846],[-2.18407,52.0139],[-2.18768,52.01908],[-2.18305,52.01975],[-2.17688,52.02262],[-2.17713,52.02395],[-2.17831,52.02563],[-2.17757,52.02646],[-2.17759,52.02721],[-2.17856,52.02858],[-2.17811,52.02921],[-2.1794,52.03195],[-2.17922,52.03369],[-2.17976,52.03486],[-2.18055,52.03548],[-2.18033,52.03732],[-2.18088,52.04019],[-2.18045,52.04226],[-2.17786,52.04413],[-2.17698,52.04547],[-2.1755,52.04648],[-2.17411,52.04705],[-2.17138,52.04757],[-2.17079,52.04751],[-2.17053,52.04706],[-2.16831,52.04871],[-2.16641,52.04903],[-2.16451,52.05005],[-2.16204,52.05057],[-2.15813,52.05021],[-2.15552,52.04935],[-2.15525,52.04852]]]}},{"type":"Feature","properties":{"id":"E01022463","name":"E01022463","parent":"E07000083","type":"LSOA","pop":1384,"r":74,"ff":17,"ffd":1228.3,"ffs":0.4474,"g":35,"co":3,"mo":2,"sa":2,"ic":2},"geometry":{"type":"Polygon","coordinates":[[[-1.95546,51.95845],[-1.95393,51.9577],[-1.93574,51.958],[-1.93331,51.95691],[-1.93153,51.95747],[-1.93104,51.95441],[-1.92847,51.94993],[-1.92687,51.94451],[-1.92415,51.94033],[-1.92319,51.93489],[-1.91836,51.93579],[-1.91629,51.93435],[-1.90723,51.93231],[-1.90641,51.93205],[-1.90633,51.93139],[-1.89737,51.92999],[-1.89449,51.92862],[-1.89136,51.92791],[-1.88929,51.92677],[-1.88721,51.92619],[-1.89091,51.92246],[-1.89082,51.92127],[-1.89198,51.9196],[-1.8914,51.91856],[-1.89033,51.9182],[-1.89046,51.9177],[-1.88679,51.91729],[-1.88666,51.91462],[-1.88786,51.91189],[-1.88365,51.91079],[-1.88324,51.91093],[-1.8772,51.9092],[-1.87173,51.90896],[-1.86853,51.90795],[-1.8712,51.90395],[-1.87713,51.90085],[-1.88041,51.89796],[-1.88073,51.89679],[-1.87854,51.89669],[-1.87852,51.89728],[-1.87297,51.89665],[-1.869,51.89707],[-1.86681,51.89691],[-1.86212,51.89746],[-1.85703,51.89678],[-1.85485,51.89578],[-1.85361,51.89343],[-1.85522,51.89315],[-1.85583,51.89338],[-1.85866,51.89246],[-1.86041,51.89071],[-1.86205,51.88972],[-1.86907,51.89185],[-1.87339,51.89366],[-1.8726,51.89024],[-1.87548,51.89],[-1.88289,51.89153],[-1.8835,51.89198],[-1.88341,51.8925],[-1.88218,51.89428],[-1.89602,51.8943],[-1.89535,51.89335],[-1.89664,51.89113],[-1.89769,51.89109],[-1.8983,51.88994],[-1.89941,51.88911],[-1.90021,51.88931],[-1.90167,51.88701],[-1.90285,51.88741],[-1.90314,51.88716],[-1.90598,51.88802],[-1.90752,51.88758],[-1.91216,51.8876],[-1.91494,51.88916],[-1.92166,51.89421],[-1.92732,51.89643],[-1.92834,51.89902],[-1.92741,51.90085],[-1.92674,51.90131],[-1.92667,51.90327],[-1.92724,51.90315],[-1.92987,51.90392],[-1.92941,51.9047],[-1.93308,51.90512],[-1.93576,51.90623],[-1.93886,51.9069],[-1.94008,51.90634],[-1.93954,51.90498],[-1.94236,51.90487],[-1.94247,51.90528],[-1.94572,51.90546],[-1.9528,51.90503],[-1.95321,51.90411],[-1.95279,51.90312],[-1.9533,51.90286],[-1.95756,51.90229],[-1.96058,51.90246],[-1.96217,51.90279],[-1.96576,51.90429],[-1.97254,51.90584],[-1.97604,51.90628],[-1.98114,51.90839],[-1.98116,51.90894],[-1.97979,51.91029],[-1.97964,51.91074],[-1.98023,51.9112],[-1.98015,51.91252],[-1.97784,51.91748],[-1.97689,51.91862],[-1.97839,51.92156],[-1.98128,51.9217],[-1.98379,51.92421],[-1.9823,51.9247],[-1.98057,51.92627],[-1.97061,51.92768],[-1.97193,51.9299],[-1.9734,51.93083],[-1.97286,51.93172],[-1.97083,51.93322],[-1.96508,51.93535],[-1.96391,51.93689],[-1.96301,51.9373],[-1.96127,51.93902],[-1.96126,51.93987],[-1.95876,51.94158],[-1.96167,51.94311],[-1.96215,51.94422],[-1.96695,51.94729],[-1.96948,51.94846],[-1.97122,51.94878],[-1.97298,51.9486],[-1.97284,51.94434],[-1.97391,51.94151],[-1.97563,51.94116],[-1.97858,51.94723],[-1.97632,51.94779],[-1.97508,51.94856],[-1.97903,51.94931],[-1.97904,51.94966],[-1.97672,51.94988],[-1.97516,51.94949],[-1.97404,51.95129],[-1.97476,51.95132],[-1.97485,51.95155],[-1.97357,51.95179],[-1.97321,51.95133],[-1.97063,51.95089],[-1.96996,51.95183],[-1.96906,51.95202],[-1.96921,51.9523],[-1.96873,51.95248],[-1.96976,51.95313],[-1.9705,51.95292],[-1.97101,51.95314],[-1.96911,51.9541],[-1.96977,51.95452],[-1.97065,51.95404],[-1.97146,51.95437],[-1.97133,51.95482],[-1.9719,51.95511],[-1.97106,51.95548],[-1.9705,51.9563],[-1.97138,51.95775],[-1.96977,51.95801],[-1.96897,51.95763],[-1.97022,51.95693],[-1.96812,51.95466],[-1.96745,51.95505],[-1.9671,51.95489],[-1.96569,51.95677],[-1.9647,51.95667],[-1.96414,51.95757],[-1.96312,51.95763],[-1.96265,51.95806],[-1.96239,51.95766],[-1.96139,51.95774],[-1.96114,51.95751],[-1.96022,51.95785],[-1.95974,51.95768],[-1.95976,51.95665],[-1.95952,51.9578],[-1.95799,51.95833],[-1.95546,51.95845]]]}},{"type":"Feature","properties":{"id":"E01022464","name":"E01022464","parent":"E07000083","type":"LSOA","pop":1527,"r":73,"ff":17,"ffd":1113.3,"ffs":0.4474,"g":34,"co":3,"mo":2,"sa":2,"ic":2},"geometry":{"type":"Polygon","coordinates":[[[-1.96827,51.96023],[-1.96821,51.95999],[-1.96772,51.96004],[-1.9679,51.95942],[-1.96707,51.95826],[-1.9668,51.95676],[-1.96802,51.95646],[-1.9681,51.95612],[-1.96669,51.95554],[-1.9671,51.95489],[-1.96745,51.95505],[-1.96812,51.95466],[-1.97022,51.95693],[-1.96897,51.95763],[-1.96977,51.95801],[-1.97138,51.95775],[-1.9705,51.9563],[-1.97106,51.95548],[-1.9719,51.95511],[-1.97133,51.95482],[-1.97146,51.95437],[-1.97065,51.95404],[-1.96977,51.95452],[-1.96911,51.9541],[-1.97101,51.95314],[-1.9705,51.95292],[-1.96976,51.95313],[-1.96873,51.95248],[-1.96921,51.9523],[-1.96906,51.95202],[-1.96996,51.95183],[-1.97063,51.95089],[-1.97321,51.95133],[-1.97357,51.95179],[-1.97485,51.95155],[-1.97476,51.95132],[-1.97404,51.95129],[-1.97516,51.94949],[-1.97672,51.94988],[-1.97904,51.94966],[-1.97907,51.95005],[-1.97795,51.95078],[-1.97919,51.95182],[-1.98046,51.95215],[-1.98319,51.95192],[-1.9836,51.95422],[-1.9832,51.95446],[-1.97864,51.9538],[-1.97627,51.95478],[-1.97552,51.95586],[-1.97679,51.95908],[-1.97778,51.95972],[-1.97721,51.95982],[-1.97637,51.95938],[-1.97496,51.95989],[-1.96872,51.95992],[-1.96827,51.96023]]]}},{"type":"Feature","properties":{"id":"E01022465","name":"E01022465","parent":"E07000083","type":"LSOA","pop":1822,"r":6,"ff":4,"ffd":219.5,"ffs":0.6667,"g":0,"co":3,"mo":3,"sa":3,"ic":3},"geometry":{"type":"Polygon","coordinates":[[[-1.98762,52.00944],[-1.98815,52.00795],[-1.98555,52.00815],[-1.98361,52.00656],[-1.98128,52.00335],[-1.98203,52.00198],[-1.97998,52.00145],[-1.97945,52.00037],[-1.98016,51.99664],[-1.98273,51.99377],[-1.98153,51.99352],[-1.97852,51.99193],[-1.97593,51.9915],[-1.97511,51.99017],[-1.98348,51.99044],[-1.99171,51.9912],[-1.99154,51.98982],[-1.99079,51.98909],[-1.99001,51.98871],[-1.98885,51.98874],[-1.98623,51.98699],[-1.98507,51.98664],[-1.98376,51.9841],[-1.98186,51.98452],[-1.97924,51.98287],[-1.97751,51.98285],[-1.97634,51.9816],[-1.97293,51.9819],[-1.9729,51.98095],[-1.9632,51.98105],[-1.96203,51.98068],[-1.96222,51.97851],[-1.96165,51.97772],[-1.95947,51.97756],[-1.96058,51.97359],[-1.95992,51.97216],[-1.96197,51.97128],[-1.96782,51.97051],[-1.96702,51.96984],[-1.96535,51.96992],[-1.96485,51.9682],[-1.96519,51.96801],[-1.96405,51.96765],[-1.96468,51.96689],[-1.9614,51.96591],[-1.96247,51.96441],[-1.96215,51.96272],[-1.96646,51.96297],[-1.96781,51.96364],[-1.96986,51.96333],[-1.96978,51.96298],[-1.98147,51.96285],[-1.98046,51.96112],[-1.97679,51.95908],[-1.97552,51.95586],[-1.97627,51.95478],[-1.97864,51.9538],[-1.9832,51.95446],[-1.9836,51.95422],[-1.98319,51.95192],[-1.98046,51.95215],[-1.97919,51.95182],[-1.97795,51.95078],[-1.97907,51.95005],[-1.97903,51.94931],[-1.97508,51.94856],[-1.97632,51.94779],[-1.97858,51.94723],[-1.97563,51.94116],[-1.97391,51.94151],[-1.97284,51.94434],[-1.97298,51.9486],[-1.97122,51.94878],[-1.96948,51.94846],[-1.96695,51.94729],[-1.96215,51.94422],[-1.96167,51.94311],[-1.95876,51.94158],[-1.96126,51.93987],[-1.96127,51.93902],[-1.96301,51.9373],[-1.96391,51.93689],[-1.96508,51.93535],[-1.97083,51.93322],[-1.97286,51.93172],[-1.9734,51.93083],[-1.97193,51.9299],[-1.97061,51.92768],[-1.98057,51.92627],[-1.9823,51.9247],[-1.98379,51.92421],[-1.98502,51.92346],[-1.99338,51.92679],[-1.99265,51.92778],[-1.99132,51.92861],[-1.99158,51.93144],[-1.9928,51.93125],[-1.99317,51.92923],[-1.99519,51.92744],[-2.00296,51.92983],[-2.00282,51.93067],[-2.00528,51.93137],[-2.00578,51.93231],[-2.00475,51.93449],[-2.00604,51.93632],[-2.00607,51.93782],[-2.00801,51.93778],[-2.00827,51.9382],[-2.00759,51.93902],[-2.00384,51.94112],[-2.00315,51.94245],[-2.00192,51.94334],[-2.00315,51.94324],[-2.00564,51.94408],[-2.00838,51.94396],[-2.0047,51.94841],[-2.00399,51.94843],[-2.00204,51.94979],[-2.00232,51.95064],[-2.00431,51.95175],[-2.00576,51.95395],[-2.00512,51.95824],[-2.00339,51.95967],[-2.00057,51.95847],[-1.99915,51.95834],[-1.99808,51.95737],[-1.99497,51.96163],[-1.99494,51.96198],[-1.99672,51.96202],[-1.99765,51.96304],[-1.99757,51.96404],[-1.99923,51.96609],[-1.99983,51.9677],[-2.0004,51.96753],[-2.00086,51.97012],[-2.00018,51.97123],[-2.00256,51.97126],[-2.00209,51.97363],[-2.00099,51.97542],[-1.9996,51.97972],[-2.00434,51.97961],[-2.00478,51.98002],[-2.00713,51.97996],[-2.007,51.97852],[-2.00781,51.97768],[-2.01318,51.97859],[-2.0152,51.97823],[-2.01567,51.97896],[-2.0164,51.97893],[-2.01534,51.97255],[-2.01725,51.96939],[-2.01859,51.96866],[-2.02014,51.96848],[-2.02119,51.96789],[-2.02274,51.96859],[-2.02362,51.96998],[-2.02454,51.97051],[-2.03011,51.97249],[-2.03586,51.97215],[-2.03501,51.97424],[-2.03508,51.97567],[-2.03585,51.97693],[-2.0372,51.97735],[-2.03666,51.97877],[-2.03705,51.97898],[-2.03686,51.97962],[-2.03861,51.98171],[-2.03681,51.98328],[-2.03413,51.98355],[-2.03381,51.98314],[-2.0289,51.98487],[-2.02701,51.98503],[-2.02499,51.98604],[-2.02275,51.98602],[-2.02157,51.98666],[-2.01933,51.98925],[-2.01828,51.98923],[-2.01569,51.99122],[-2.01531,51.9912],[-2.01196,51.99509],[-2.00623,52.00052],[-2.0035,52.00242],[-1.99836,52.00746],[-1.99629,52.00848],[-1.99404,52.00875],[-1.99189,52.00954],[-1.98968,52.0096],[-1.98906,52.00997],[-1.98762,52.00944]]]}},{"type":"Feature","properties":{"id":"E01022466","name":"E01022466","parent":"E07000083","type":"LSOA","pop":2346,"r":7,"ff":5,"ffd":213.1,"ffs":0.7143,"g":0,"co":3,"mo":3,"sa":3,"ic":3},"geometry":{"type":"Polygon","coordinates":[[[-1.92043,51.99921],[-1.91795,51.9991],[-1.9159,51.99947],[-1.91278,51.99877],[-1.90862,51.9986],[-1.9055,51.99809],[-1.90292,51.99736],[-1.90275,51.99683],[-1.89896,51.99624],[-1.898,51.9963],[-1.89684,51.99769],[-1.89633,51.99784],[-1.88803,51.99798],[-1.88481,51.99596],[-1.8789,51.99456],[-1.87402,51.99453],[-1.86939,51.99357],[-1.87432,51.99107],[-1.87618,51.98955],[-1.87849,51.98857],[-1.88343,51.98361],[-1.87164,51.98157],[-1.86846,51.98059],[-1.86956,51.97881],[-1.87199,51.97756],[-1.87275,51.97674],[-1.87301,51.97448],[-1.87541,51.97151],[-1.87523,51.97004],[-1.87636,51.96812],[-1.87423,51.96558],[-1.8745,51.9651],[-1.87721,51.96445],[-1.87997,51.96427],[-1.88197,51.96533],[-1.89078,51.96057],[-1.8927,51.96024],[-1.89707,51.96033],[-1.89961,51.96149],[-1.90282,51.96234],[-1.90157,51.96432],[-1.90127,51.96624],[-1.90062,51.96715],[-1.90312,51.96813],[-1.90408,51.96917],[-1.90652,51.96838],[-1.90892,51.96814],[-1.91028,51.9686],[-1.91093,51.96938],[-1.91308,51.9687],[-1.91357,51.96822],[-1.91466,51.9666],[-1.91472,51.96584],[-1.91533,51.96552],[-1.91559,51.96361],[-1.91663,51.96273],[-1.92056,51.96333],[-1.92285,51.96303],[-1.92609,51.96146],[-1.92761,51.96044],[-1.92837,51.95906],[-1.93153,51.95747],[-1.93331,51.95691],[-1.93574,51.958],[-1.95393,51.9577],[-1.95546,51.95845],[-1.95799,51.95833],[-1.95952,51.9578],[-1.95976,51.95665],[-1.95974,51.95768],[-1.96022,51.95785],[-1.96114,51.95751],[-1.96139,51.95774],[-1.96239,51.95766],[-1.96265,51.95806],[-1.96312,51.95763],[-1.96414,51.95757],[-1.9647,51.95667],[-1.96569,51.95677],[-1.96669,51.95554],[-1.9681,51.95612],[-1.96802,51.95646],[-1.9668,51.95676],[-1.96707,51.95826],[-1.9679,51.95942],[-1.96772,51.96004],[-1.96821,51.95999],[-1.96827,51.96023],[-1.96872,51.95992],[-1.97496,51.95989],[-1.97637,51.95938],[-1.97721,51.95982],[-1.97778,51.95972],[-1.98046,51.96112],[-1.98147,51.96285],[-1.96978,51.96298],[-1.96986,51.96333],[-1.96781,51.96364],[-1.96646,51.96297],[-1.96215,51.96272],[-1.96247,51.96441],[-1.9614,51.96591],[-1.96468,51.96689],[-1.96405,51.96765],[-1.96519,51.96801],[-1.96485,51.9682],[-1.96535,51.96992],[-1.96702,51.96984],[-1.96782,51.97051],[-1.96197,51.97128],[-1.95992,51.97216],[-1.96058,51.97359],[-1.95947,51.97756],[-1.95609,51.97707],[-1.95429,51.97899],[-1.95565,51.9817],[-1.95375,51.98217],[-1.954,51.98246],[-1.95426,51.98225],[-1.95457,51.98336],[-1.95416,51.98324],[-1.95368,51.98354],[-1.95419,51.98367],[-1.95322,51.98401],[-1.95393,51.98423],[-1.95399,51.98768],[-1.94998,51.98698],[-1.94627,51.98513],[-1.94426,51.98484],[-1.94134,51.98389],[-1.94068,51.98308],[-1.93981,51.98331],[-1.93842,51.98322],[-1.93834,51.98299],[-1.93804,51.98326],[-1.93386,51.98291],[-1.93231,51.98462],[-1.93115,51.99448],[-1.93,51.99701],[-1.9277,51.99883],[-1.92857,51.99922],[-1.93087,52.00147],[-1.92828,52.0013],[-1.92043,51.99921]]]}},{"type":"Feature","properties":{"id":"E01032938","name":"E01032938","parent":"E07000083","type":"LSOA","pop":2746,"r":23,"ff":12,"ffd":437.0,"ffs":0.5217,"g":0,"co":3,"mo":3,"sa":3,"ic":1},"geometry":{"type":"Polygon","coordinates":[[[-2.0604,52.01451],[-2.05971,52.00998],[-2.061,52.00948],[-2.06155,52.00848],[-2.06395,52.00744],[-2.07041,52.00613],[-2.07094,52.00573],[-2.07113,52.00599],[-2.07178,52.00584],[-2.07266,52.00526],[-2.07262,52.00486],[-2.0736,52.00464],[-2.07361,51.99936],[-2.07172,51.99949],[-2.07032,52.00008],[-2.07069,51.99631],[-2.07082,51.99603],[-2.07127,51.99617],[-2.07192,51.99509],[-2.06605,51.99394],[-2.06609,51.99326],[-2.07342,51.99183],[-2.07392,51.98887],[-2.07298,51.9876],[-2.07846,51.98711],[-2.08304,51.98621],[-2.08692,51.98499],[-2.08711,51.98465],[-2.08747,51.9806],[-2.086,51.97523],[-2.08647,51.97508],[-2.08561,51.973],[-2.08997,51.97228],[-2.09606,51.97186],[-2.10097,51.97297],[-2.10516,51.97307],[-2.10753,51.97391],[-2.11563,51.97399],[-2.11956,51.9737],[-2.1199,51.97337],[-2.12694,51.97122],[-2.12911,51.96991],[-2.12997,51.97177],[-2.13257,51.9717],[-2.13708,51.97083],[-2.13732,51.97228],[-2.1405,51.97233],[-2.14512,51.97194],[-2.14629,51.97225],[-2.14628,51.97292],[-2.14736,51.97376],[-2.14753,51.97444],[-2.14805,51.97455],[-2.14811,51.97523],[-2.14751,51.97564],[-2.14838,51.97598],[-2.14868,51.97723],[-2.14838,51.97746],[-2.1484,51.9782],[-2.14896,51.97863],[-2.14853,51.97963],[-2.14827,51.97934],[-2.14436,51.97919],[-2.14348,51.97979],[-2.14404,51.98015],[-2.14353,51.98026],[-2.14364,51.98088],[-2.14258,51.98059],[-2.14205,51.9814],[-2.14166,51.98157],[-2.14134,51.9811],[-2.1395,51.98055],[-2.13927,51.9814],[-2.13703,51.98137],[-2.13609,51.98014],[-2.13895,51.98013],[-2.13985,51.97918],[-2.13527,51.97874],[-2.13379,51.97884],[-2.13366,51.97848],[-2.13335,51.97972],[-2.13394,51.9809],[-2.13363,51.98184],[-2.13127,51.9819],[-2.13131,51.98303],[-2.12709,51.98353],[-2.12583,51.98392],[-2.12326,51.984],[-2.12222,51.98677],[-2.12115,51.98699],[-2.1217,51.98883],[-2.12146,51.99106],[-2.12159,51.99361],[-2.12066,51.99368],[-2.12122,51.99417],[-2.12227,51.99414],[-2.12307,51.99461],[-2.124,51.99408],[-2.12356,51.99647],[-2.10875,51.99743],[-2.10873,52.01428],[-2.1076,52.01459],[-2.10535,52.014],[-2.10238,52.01383],[-2.09974,52.01319],[-2.09938,52.01286],[-2.09856,52.0129],[-2.09834,52.01326],[-2.09767,52.01306],[-2.09771,52.01178],[-2.09738,52.01155],[-2.09689,52.01168],[-2.09676,52.0114],[-2.09566,52.01199],[-2.09553,52.01163],[-2.09395,52.0118],[-2.09415,52.01148],[-2.09338,52.01128],[-2.09307,52.01158],[-2.09236,52.01111],[-2.09136,52.01142],[-2.08953,52.0113],[-2.08927,52.01093],[-2.08751,52.01064],[-2.08625,52.01114],[-2.08493,52.01048],[-2.08458,52.01085],[-2.08348,52.01109],[-2.08077,52.01077],[-2.07885,52.0117],[-2.07813,52.01109],[-2.07673,52.01104],[-2.07678,52.01165],[-2.07627,52.01188],[-2.07572,52.01154],[-2.07457,52.0118],[-2.07248,52.01155],[-2.07149,52.01215],[-2.07098,52.01181],[-2.07029,52.01261],[-2.06948,52.01252],[-2.0681,52.01312],[-2.06681,52.01309],[-2.06681,52.01347],[-2.06562,52.01383],[-2.06387,52.01417],[-2.06292,52.01389],[-2.06241,52.0144],[-2.06084,52.01468],[-2.0604,52.01451]]]}},{"type":"Feature","properties":{"id":"E01032939","name":"E01032939","parent":"E07000083","type":"LSOA","pop":1476,"r":22,"ff":12,"ffd":813.0,"ffs":0.5455,"g":0,"co":3,"mo":3,"sa":3,"ic":1},"geometry":{"type":"Polygon","coordinates":[[[-2.12307,51.99461],[-2.12227,51.99414],[-2.12122,51.99417],[-2.12066,51.99368],[-2.12159,51.99361],[-2.12146,51.99106],[-2.1217,51.98883],[-2.12115,51.98699],[-2.12222,51.98677],[-2.12326,51.984],[-2.12583,51.98392],[-2.12709,51.98353],[-2.13131,51.98303],[-2.13127,51.9819],[-2.13363,51.98184],[-2.13372,51.9815],[-2.13772,51.98469],[-2.14011,51.98409],[-2.14115,51.98553],[-2.143,51.98505],[-2.1429,51.98401],[-2.14257,51.98345],[-2.14417,51.98295],[-2.14467,51.98213],[-2.14275,51.9822],[-2.14282,51.9816],[-2.14205,51.9814],[-2.14258,51.98059],[-2.14364,51.98088],[-2.14353,51.98026],[-2.14404,51.98015],[-2.14348,51.97979],[-2.14436,51.97919],[-2.14827,51.97934],[-2.14853,51.97963],[-2.14859,51.98121],[-2.14898,51.9824],[-2.14829,51.98349],[-2.14942,51.98529],[-2.15026,51.9859],[-2.14945,51.98774],[-2.15009,51.98815],[-2.14977,51.9885],[-2.15017,51.98869],[-2.14969,51.98893],[-2.15031,51.98932],[-2.15091,51.99075],[-2.14609,51.99117],[-2.14512,51.99152],[-2.14461,51.99224],[-2.14331,51.9924],[-2.14207,51.99208],[-2.14177,51.99152],[-2.14037,51.99078],[-2.13908,51.99181],[-2.13797,51.99224],[-2.1371,51.99212],[-2.13601,51.99257],[-2.1359,51.99294],[-2.13117,51.99314],[-2.12872,51.99305],[-2.12592,51.99336],[-2.12551,51.99311],[-2.1251,51.99346],[-2.12421,51.99336],[-2.124,51.99408],[-2.12307,51.99461]]]}},{"type":"Feature","properties":{"id":"E01032940","name":"E01032940","parent":"E07000083","type":"LSOA","pop":1579,"r":22,"ff":12,"ffd":760.0,"ffs":0.5455,"g":0,"co":3,"mo":3,"sa":3,"ic":1},"geometry":{"type":"Polygon","coordinates":[[[-2.14115,51.98553],[-2.14011,51.98409],[-2.13772,51.98469],[-2.13372,51.9815],[-2.13394,51.9809],[-2.13335,51.97972],[-2.13366,51.97848],[-2.13379,51.97884],[-2.13527,51.97874],[-2.13985,51.97918],[-2.13895,51.98013],[-2.13609,51.98014],[-2.13703,51.98137],[-2.13927,51.9814],[-2.1395,51.98055],[-2.14134,51.9811],[-2.14166,51.98157],[-2.14205,51.9814],[-2.14282,51.9816],[-2.14275,51.9822],[-2.14467,51.98213],[-2.14417,51.98295],[-2.14257,51.98345],[-2.1429,51.98401],[-2.143,51.98505],[-2.14115,51.98553]]]}},{"type":"Feature","properties":{"id":"E01034805","name":"E01034805","parent":"E07000083","type":"LSOA","pop":1944,"r":370,"ff":128,"ffd":6584.4,"ffs":0.4588,"g":89,"co":2,"mo":0,"sa":0,"ic":0},"geometry":{"type":"Polygon","coordinates":[[[-2.15755,51.93955],[-2.15298,51.93632],[-2.1485,51.93247],[-2.14172,51.93041],[-2.13983,51.92881],[-2.13429,51.92679],[-2.13828,51.92288],[-2.13971,51.92081],[-2.1388,51.92082],[-2.13891,51.92014],[-2.13436,51.91971],[-2.13354,51.91921],[-2.13255,51.92015],[-2.13092,51.92076],[-2.12902,51.92073],[-2.12795,51.9202],[-2.12745,51.92046],[-2.12711,51.92008],[-2.12594,51.92013],[-2.12591,51.9197],[-2.1254,51.91978],[-2.12539,51.91914],[-2.12497,51.919],[-2.12897,51.91363],[-2.13026,51.91032],[-2.13145,51.90844],[-2.13295,51.90669],[-2.13347,51.90497],[-2.13631,51.90004],[-2.13728,51.89919],[-2.13961,51.89455],[-2.14147,51.89182],[-2.14303,51.88889],[-2.14239,51.88451],[-2.12608,51.88739],[-2.1244,51.88601],[-2.12675,51.88459],[-2.12753,51.88443],[-2.12739,51.88398],[-2.12858,51.88241],[-2.12773,51.8797],[-2.12948,51.87803],[-2.13281,51.8782],[-2.13484,51.87603],[-2.13338,51.87529],[-2.12944,51.87422],[-2.12963,51.8737],[-2.13107,51.87401],[-2.1314,51.87254],[-2.13191,51.87236],[-2.13886,51.87338],[-2.14017,51.87318],[-2.1364,51.87005],[-2.1377,51.86746],[-2.1414,51.86377],[-2.15072,51.86424],[-2.15168,51.86478],[-2.15214,51.86556],[-2.15115,51.86607],[-2.15188,51.86637],[-2.14982,51.86778],[-2.14884,51.87098],[-2.14897,51.87249],[-2.14823,51.87419],[-2.14855,51.87522],[-2.1493,51.8751],[-2.14951,51.87538],[-2.15016,51.8754],[-2.14963,51.87585],[-2.1513,51.87636],[-2.15175,51.87688],[-2.1517,51.87924],[-2.15237,51.87936],[-2.15228,51.88096],[-2.15425,51.8828],[-2.15523,51.88351],[-2.15575,51.88352],[-2.15459,51.88891],[-2.15676,51.89434],[-2.15623,51.89448],[-2.15639,51.89594],[-2.15738,51.89682],[-2.15914,51.89764],[-2.15966,51.8986],[-2.16254,51.89821],[-2.16335,51.89979],[-2.16489,51.89997],[-2.16735,51.89975],[-2.1687,51.90039],[-2.16863,51.90071],[-2.16954,51.90086],[-2.17049,51.90091],[-2.17115,51.90051],[-2.17493,51.90462],[-2.17693,51.90799],[-2.17883,51.90941],[-2.18058,51.91153],[-2.18086,51.91361],[-2.18258,51.91796],[-2.18336,51.92128],[-2.18507,51.92307],[-2.18387,51.92393],[-2.18375,51.92441],[-2.18145,51.92528],[-2.17878,51.92681],[-2.17625,51.92679],[-2.17439,51.92712],[-2.17198,51.9254],[-2.16945,51.92804],[-2.16548,51.9304],[-2.16488,51.93125],[-2.16517,51.9323],[-2.16466,51.93383],[-2.16173,51.93658],[-2.1604,51.93645],[-2.16038,51.93664],[-2.16143,51.93669],[-2.16006,51.93831],[-2.15935,51.93858],[-2.15878,51.93933],[-2.15755,51.93955]]]}},{"type":"Feature","properties":{"id":"E01034806","name":"E01034806","parent":"E07000083","type":"LSOA","pop":1119,"r":292,"ff":93,"ffd":8311.0,"ffs":0.4581,"g":87,"co":2,"mo":0,"sa":2,"ic":0},"geometry":{"type":"Polygon","coordinates":[[[-2.13886,51.87338],[-2.13191,51.87236],[-2.1314,51.87254],[-2.13157,51.87099],[-2.13037,51.87105],[-2.13036,51.87136],[-2.12891,51.87124],[-2.12868,51.86961],[-2.12904,51.86922],[-2.12818,51.8675],[-2.12524,51.86624],[-2.12621,51.86549],[-2.12419,51.86345],[-2.12335,51.86413],[-2.12146,51.86289],[-2.12199,51.8624],[-2.1211,51.86202],[-2.12734,51.85725],[-2.12522,51.85599],[-2.12472,51.8553],[-2.12364,51.85491],[-2.12089,51.8549],[-2.119,51.85384],[-2.11695,51.85344],[-2.11574,51.85486],[-2.11504,51.85497],[-2.11454,51.85611],[-2.11489,51.85624],[-2.11014,51.85676],[-2.10787,51.85749],[-2.09841,51.85656],[-2.09856,51.85553],[-2.09782,51.85443],[-2.09688,51.85122],[-2.09853,51.85018],[-2.10113,51.8474],[-2.10175,51.84728],[-2.10355,51.84596],[-2.10289,51.84531],[-2.10753,51.84278],[-2.10472,51.84225],[-2.09953,51.84326],[-2.09873,51.8432],[-2.10047,51.84215],[-2.10016,51.84166],[-2.10082,51.84125],[-2.10027,51.84087],[-2.10015,51.84003],[-2.10099,51.83757],[-2.1054,51.83495],[-2.10817,51.83386],[-2.11024,51.83381],[-2.11314,51.83445],[-2.11157,51.83342],[-2.11029,51.83178],[-2.11166,51.83179],[-2.1112,51.83077],[-2.11114,51.82848],[-2.11052,51.82815],[-2.11157,51.82718],[-2.11412,51.82681],[-2.1142,51.82596],[-2.11364,51.82509],[-2.11394,51.82389],[-2.11489,51.82279],[-2.11742,51.82109],[-2.12087,51.81961],[-2.13197,51.81937],[-2.13425,51.81992],[-2.13692,51.82134],[-2.14134,51.82191],[-2.14249,51.82153],[-2.14648,51.82134],[-2.14923,51.82273],[-2.15285,51.82315],[-2.15324,51.82421],[-2.15252,51.82516],[-2.14793,51.82605],[-2.14777,51.82728],[-2.1452,51.82867],[-2.14346,51.83337],[-2.14251,51.8346],[-2.14073,51.83579],[-2.14171,51.83707],[-2.14153,51.83855],[-2.14217,51.83963],[-2.14206,51.84087],[-2.14229,51.8421],[-2.14279,51.84216],[-2.1431,51.84267],[-2.14276,51.84392],[-2.14375,51.84474],[-2.14512,51.84502],[-2.14393,51.84527],[-2.14087,51.84698],[-2.1426,51.84849],[-2.14328,51.85098],[-2.14433,51.85231],[-2.14474,51.85486],[-2.14572,51.85583],[-2.14523,51.8564],[-2.146,51.85886],[-2.14685,51.85908],[-2.14869,51.86063],[-2.14986,51.86278],[-2.15056,51.86313],[-2.15072,51.86424],[-2.1414,51.86377],[-2.1377,51.86746],[-2.1364,51.87005],[-2.14017,51.87318],[-2.13886,51.87338]]]}},{"type":"Feature","properties":{"id":"E01034807","name":"E01034807","parent":"E07000083","type":"LSOA","pop":1593,"r":319,"ff":114,"ffd":7156.3,"ffs":0.4914,"g":85,"co":2,"mo":0,"sa":0,"ic":0},"geometry":{"type":"Polygon","coordinates":[[[-2.19025,51.86999],[-2.18941,51.86927],[-2.18754,51.8701],[-2.18672,51.87203],[-2.18244,51.8714],[-2.18179,51.87144],[-2.18181,51.87192],[-2.18023,51.8717],[-2.18099,51.87053],[-2.18069,51.86954],[-2.18019,51.86959],[-2.18014,51.86937],[-2.17757,51.8696],[-2.17653,51.8688],[-2.17707,51.8684],[-2.17703,51.86758],[-2.17421,51.86684],[-2.17352,51.86546],[-2.17009,51.86618],[-2.16794,51.86565],[-2.16815,51.86534],[-2.16503,51.86424],[-2.16358,51.86496],[-2.16044,51.86513],[-2.15967,51.86315],[-2.16096,51.86308],[-2.16061,51.86116],[-2.1602,51.86057],[-2.16265,51.85975],[-2.16358,51.86127],[-2.16492,51.86092],[-2.16478,51.86036],[-2.16611,51.86033],[-2.16644,51.86105],[-2.16733,51.86102],[-2.16867,51.86152],[-2.17085,51.86045],[-2.17124,51.85973],[-2.17218,51.85969],[-2.17367,51.85684],[-2.17117,51.8562],[-2.17117,51.8558],[-2.17027,51.85572],[-2.16894,51.85511],[-2.16904,51.85483],[-2.16709,51.85421],[-2.16807,51.85156],[-2.16935,51.84926],[-2.17227,51.85027],[-2.17346,51.84819],[-2.17349,51.84775],[-2.17232,51.84753],[-2.1728,51.84655],[-2.17517,51.8475],[-2.17536,51.84657],[-2.17916,51.84862],[-2.17986,51.84864],[-2.17995,51.84895],[-2.18158,51.84965],[-2.1837,51.85017],[-2.18107,51.8532],[-2.17726,51.85593],[-2.18644,51.86176],[-2.18887,51.86304],[-2.19204,51.86435],[-2.19639,51.86559],[-2.1962,51.8681],[-2.19768,51.87191],[-2.19425,51.87309],[-2.19355,51.87209],[-2.19265,51.87199],[-2.19357,51.87028],[-2.18986,51.87017],[-2.19025,51.86999]]]}},{"type":"Feature","properties":{"id":"E01034808","name":"E01034808","parent":"E07000083","type":"LSOA","pop":1887,"r":294,"ff":105,"ffd":5564.4,"ffs":0.4884,"g":77,"co":2,"mo":0,"sa":0,"ic":0},"geometry":{"type":"Polygon","coordinates":[[[-2.17776,51.84793],[-2.17536,51.84657],[-2.17517,51.8475],[-2.1728,51.84655],[-2.17341,51.84565],[-2.17635,51.8439],[-2.17783,51.84325],[-2.17865,51.84183],[-2.18343,51.84288],[-2.18507,51.84405],[-2.18671,51.84467],[-2.18651,51.84502],[-2.18695,51.84471],[-2.18772,51.84499],[-2.1837,51.85017],[-2.18158,51.84965],[-2.17995,51.84895],[-2.17986,51.84864],[-2.17916,51.84862],[-2.17776,51.84793]]]}},{"type":"Feature","properties":{"id":"E01034809","name":"E01034809","parent":"E07000083","type":"LSOA","pop":1463,"r":290,"ff":98,"ffd":6698.6,"ffs":0.478,"g":83,"co":2,"mo":0,"sa":0,"ic":0},"geometry":{"type":"Polygon","coordinates":[[[-2.17077,51.83694],[-2.17205,51.83482],[-2.1726,51.83536],[-2.17458,51.83603],[-2.17577,51.837],[-2.17904,51.83784],[-2.17975,51.8383],[-2.18005,51.83913],[-2.18006,51.83976],[-2.17783,51.84325],[-2.17635,51.8439],[-2.17341,51.84565],[-2.1728,51.84655],[-2.17243,51.84627],[-2.17237,51.84416],[-2.17279,51.84099],[-2.17233,51.84072],[-2.173,51.8395],[-2.17195,51.83921],[-2.17219,51.83871],[-2.17318,51.83858],[-2.17324,51.83833],[-2.17133,51.83815],[-2.17077,51.83694]]]}},{"type":"Feature","properties":{"id":"E01034810","name":"E01034810","parent":"E07000083","type":"LSOA","pop":2164,"r":295,"ff":100,"ffd":4621.1,"ffs":0.4831,"g":86,"co":2,"mo":0,"sa":0,"ic":0},"geometry":{"type":"Polygon","coordinates":[[[-2.14375,51.84474],[-2.14276,51.84392],[-2.1431,51.84267],[-2.14279,51.84216],[-2.14229,51.8421],[-2.14206,51.84087],[-2.14217,51.83963],[-2.14153,51.83855],[-2.14171,51.83707],[-2.14073,51.83579],[-2.14251,51.8346],[-2.14346,51.83337],[-2.1452,51.82867],[-2.14777,51.82728],[-2.14793,51.82605],[-2.15252,51.82516],[-2.15324,51.82421],[-2.15285,51.82315],[-2.15641,51.82363],[-2.16008,51.82456],[-2.16097,51.82529],[-2.16369,51.82647],[-2.16426,51.82843],[-2.16606,51.82837],[-2.16786,51.83045],[-2.17095,51.83184],[-2.17205,51.83482],[-2.17077,51.83694],[-2.17133,51.83815],[-2.17324,51.83833],[-2.17318,51.83858],[-2.17219,51.83871],[-2.17195,51.83921],[-2.173,51.8395],[-2.17233,51.84072],[-2.17026,51.84023],[-2.16984,51.84087],[-2.16743,51.84034],[-2.16436,51.84189],[-2.16337,51.84329],[-2.16164,51.84345],[-2.16104,51.84223],[-2.16117,51.84115],[-2.16061,51.84125],[-2.16055,51.84028],[-2.15961,51.84034],[-2.15954,51.84069],[-2.16009,51.84073],[-2.15992,51.84171],[-2.15931,51.84168],[-2.15903,51.842],[-2.15821,51.8412],[-2.1573,51.84124],[-2.15744,51.84267],[-2.15647,51.84259],[-2.15632,51.8417],[-2.15446,51.84188],[-2.15399,51.84154],[-2.15356,51.84174],[-2.15422,51.84271],[-2.15381,51.84405],[-2.15419,51.84418],[-2.15428,51.84459],[-2.15308,51.84437],[-2.1527,51.84482],[-2.15208,51.84394],[-2.15128,51.84367],[-2.15105,51.84385],[-2.14998,51.84378],[-2.14971,51.84422],[-2.14876,51.84433],[-2.1481,51.84407],[-2.14664,51.84492],[-2.14549,51.84505],[-2.14304,51.84686],[-2.14239,51.84613],[-2.14393,51.84527],[-2.14512,51.84502],[-2.14375,51.84474]]]}},{"type":"Feature","properties":{"id":"E01034811","name":"E01034811","parent":"E07000083","type":"LSOA","pop":1674,"r":165,"ff":60,"ffd":3584.2,"ffs":0.5128,"g":47,"co":2,"mo":2,"sa":2,"ic":0},"geometry":{"type":"Polygon","coordinates":[[[-2.05694,51.95238],[-2.05785,51.95064],[-2.0587,51.95046],[-2.05862,51.95074],[-2.06051,51.9513],[-2.06141,51.95062],[-2.06196,51.95072],[-2.06183,51.95099],[-2.06289,51.95077],[-2.06267,51.95102],[-2.06312,51.95147],[-2.0642,51.95111],[-2.06417,51.95146],[-2.06603,51.95206],[-2.06736,51.95209],[-2.06632,51.95474],[-2.06654,51.9561],[-2.06508,51.9563],[-2.06361,51.9569],[-2.06336,51.95749],[-2.06191,51.95811],[-2.06114,51.95811],[-2.06078,51.95709],[-2.0592,51.95538],[-2.05795,51.95311],[-2.05694,51.95238]]]}},{"type":"Feature","properties":{"id":"E01034812","name":"E01034812","parent":"E07000083","type":"LSOA","pop":1408,"r":156,"ff":58,"ffd":4119.3,"ffs":0.5179,"g":43,"co":3,"mo":2,"sa":2,"ic":0},"geometry":{"type":"Polygon","coordinates":[[[-2.05131,51.95571],[-2.05131,51.95527],[-2.0476,51.95569],[-2.05003,51.94958],[-2.05201,51.9504],[-2.0561,51.95128],[-2.05597,51.9521],[-2.05658,51.95224],[-2.05544,51.95356],[-2.05832,51.95411],[-2.0592,51.95538],[-2.06078,51.95709],[-2.06114,51.95811],[-2.05481,51.95893],[-2.05399,51.9558],[-2.05131,51.95571]]]}},{"type":"Feature","properties":{"id":"E01034813","name":"E01034813","parent":"E07000083","type":"LSOA","pop":1230,"r":204,"ff":75,"ffd":6097.6,"ffs":0.4688,"g":43,"co":3,"mo":2,"sa":2,"ic":0},"geometry":{"type":"Polygon","coordinates":[[[-2.05003,51.94958],[-2.05097,51.94692],[-2.05236,51.94708],[-2.0528,51.94685],[-2.05301,51.94749],[-2.0536,51.94773],[-2.05522,51.9477],[-2.05524,51.94819],[-2.05583,51.94832],[-2.0564,51.94834],[-2.05633,51.94801],[-2.05734,51.94821],[-2.05707,51.94841],[-2.05765,51.94854],[-2.05766,51.94897],[-2.05685,51.94905],[-2.05673,51.94941],[-2.05747,51.94934],[-2.05818,51.95007],[-2.05694,51.95238],[-2.05795,51.95311],[-2.05867,51.95444],[-2.05832,51.95411],[-2.05544,51.95356],[-2.05658,51.95224],[-2.05597,51.9521],[-2.0561,51.95128],[-2.05201,51.9504],[-2.05003,51.94958]]]}},{"type":"Feature","properties":{"id":"E01034814","name":"E01034814","parent":"E07000083","type":"LSOA","pop":1233,"r":204,"ff":75,"ffd":6082.7,"ffs":0.4688,"g":43,"co":3,"mo":2,"sa":0,"ic":0},"geometry":{"type":"Polygon","coordinates":[[[-2.06417,51.95146],[-2.0642,51.95111],[-2.06312,51.95147],[-2.06267,51.95102],[-2.06289,51.95077],[-2.06183,51.95099],[-2.06196,51.95072],[-2.06141,51.95062],[-2.06051,51.9513],[-2.05862,51.95074],[-2.0587,51.95046],[-2.05785,51.95064],[-2.05818,51.95007],[-2.05747,51.94934],[-2.05673,51.94941],[-2.05685,51.94905],[-2.05766,51.94897],[-2.05765,51.94854],[-2.05707,51.94841],[-2.05734,51.94821],[-2.05633,51.94801],[-2.0564,51.94834],[-2.05583,51.94832],[-2.05524,51.94819],[-2.05522,51.9477],[-2.0536,51.94773],[-2.05301,51.94749],[-2.0528,51.94685],[-2.0528,51.94579],[-2.05446,51.94591],[-2.05443,51.9462],[-2.05495,51.94623],[-2.0554,51.94518],[-2.05734,51.9465],[-2.05771,51.94632],[-2.05735,51.9459],[-2.05907,51.9462],[-2.06161,51.94612],[-2.06168,51.94566],[-2.06317,51.94567],[-2.06293,51.94692],[-2.06343,51.94711],[-2.06295,51.94738],[-2.06397,51.94805],[-2.06432,51.94882],[-2.06597,51.94898],[-2.06598,51.95125],[-2.06417,51.95146]]]}},{"type":"Feature","properties":{"id":"E01034815","name":"E01034815","parent":"E07000083","type":"LSOA","pop":1455,"r":204,"ff":75,"ffd":5154.6,"ffs":0.4688,"g":43,"co":3,"mo":2,"sa":0,"ic":0},"geometry":{"type":"Polygon","coordinates":[[[-2.05157,51.94661],[-2.05185,51.94572],[-2.0516,51.94434],[-2.05213,51.94219],[-2.05192,51.94184],[-2.05878,51.94199],[-2.06005,51.94291],[-2.0595,51.94325],[-2.05977,51.9439],[-2.059,51.9443],[-2.05901,51.94481],[-2.06164,51.94493],[-2.06161,51.94612],[-2.05907,51.9462],[-2.05735,51.9459],[-2.05771,51.94632],[-2.05734,51.9465],[-2.0554,51.94518],[-2.05495,51.94623],[-2.05443,51.9462],[-2.05446,51.94591],[-2.0528,51.94579],[-2.0528,51.94685],[-2.05236,51.94708],[-2.05097,51.94692],[-2.05157,51.94661]]]}}]}