{"type":"FeatureCollection","features":[{"type":"Feature","properties":{"id":"E01030377","name":"E01030377","parent":"E07000208","type":"LSOA","pop":2474,"r":496,"ff":196,"ffd":7922.4,"ffs":0.49,"g":93,"co":0,"mo":2,"sa":0,"ic":0},"geometry":{"type":"Polygon","coordinates":[[[-0.25739,51.37045],[-0.25606,51.36927],[-0.25556,51.36947],[-0.25406,51.36833],[-0.25499,51.36975],[-0.25389,51.37029],[-0.25192,51.36756],[-0.25101,51.36536],[-0.25034,51.36543],[-0.24957,51.36324],[-0.25093,51.36125],[-0.2514,51.36111],[-0.25164,51.36144],[-0.25286,51.36127],[-0.25376,51.36187],[-0.25432,51.36151],[-0.26216,51.36671],[-0.26152,51.36708],[-0.2611,51.36688],[-0.25856,51.36899],[-0.26014,51.36975],[-0.25972,51.3707],[-0.25739,51.37045]]]}},{"type":"Feature","properties":{"id":"E01030378","name":"E01030378","parent":"E07000208","type":"LSOA","pop":1709,"r":476,"ff":188,"ffd":11000.6,"ffs":0.4883,"g":88,"co":0,"mo":2,"sa":0,"ic":0},"geometry":{"type":"Polygon","coordinates":[[[-0.25273,51.37176],[-0.25196,51.37082],[-0.2511,51.37115],[-0.24937,51.36958],[-0.24698,51.36868],[-0.24674,51.36926],[-0.24468,51.36906],[-0.24535,51.36695],[-0.24608,51.36694],[-0.24704,51.36524],[-0.25124,51.35952],[-0.25432,51.36151],[-0.25376,51.36187],[-0.25286,51.36127],[-0.25164,51.36144],[-0.2514,51.36111],[-0.25093,51.36125],[-0.24957,51.36324],[-0.25034,51.36543],[-0.25101,51.36536],[-0.25192,51.36756],[-0.25389,51.37029],[-0.25499,51.36975],[-0.25406,51.36833],[-0.25556,51.36947],[-0.25606,51.36927],[-0.25739,51.37045],[-0.25972,51.3707],[-0.25965,51.37108],[-0.25843,51.37116],[-0.25458,51.37245],[-0.25401,51.37289],[-0.25273,51.37176]]]}},{"type":"Feature","properties":{"id":"E01030379","name":"E01030379","parent":"E07000208","type":"LSOA","pop":1579,"r":371,"ff":141,"ffd":8929.7,"ffs":0.4812,"g":76,"co":0,"mo":2,"sa":0,"ic":0},"geometry":{"type":"Polygon","coordinates":[[[-0.25451,51.33476],[-0.25162,51.33191],[-0.25087,51.33224],[-0.25083,51.33177],[-0.25017,51.33141],[-0.2483,51.33212],[-0.24659,51.33046],[-0.24704,51.33054],[-0.24746,51.33006],[-0.24858,51.32984],[-0.24881,51.32909],[-0.24483,51.32762],[-0.24044,51.32643],[-0.23422,51.32762],[-0.23389,51.32732],[-0.23616,51.32626],[-0.24297,51.32128],[-0.24113,51.31726],[-0.24497,51.31763],[-0.2476,51.31872],[-0.24837,51.31929],[-0.24744,51.31996],[-0.24908,51.32147],[-0.2495,51.32272],[-0.24983,51.32228],[-0.25199,51.32247],[-0.25258,51.3228],[-0.24789,51.32452],[-0.24786,51.32595],[-0.25056,51.32768],[-0.25247,51.32808],[-0.25308,51.32891],[-0.25497,51.32906],[-0.25381,51.32977],[-0.2549,51.33043],[-0.25558,51.33012],[-0.25598,51.32958],[-0.25572,51.32934],[-0.25711,51.32995],[-0.25565,51.33097],[-0.2569,51.33176],[-0.25751,51.33239],[-0.25684,51.33302],[-0.25702,51.33332],[-0.25541,51.33392],[-0.2551,51.33368],[-0.25473,51.33383],[-0.25522,51.33428],[-0.25451,51.33476]]]}},{"type":"Feature","properties":{"id":"E01030380","name":"E01030380","parent":"E07000208","type":"LSOA","pop":1451,"r":317,"ff":120,"ffd":8270.2,"ffs":0.4979,"g":74,"co":0,"mo":2,"sa":0,"ic":0},"geometry":{"type":"Polygon","coordinates":[[[-0.25306,51.32887],[-0.25247,51.32808],[-0.25056,51.32768],[-0.24786,51.32595],[-0.24789,51.32452],[-0.25258,51.3228],[-0.25199,51.32247],[-0.24983,51.32228],[-0.2495,51.32272],[-0.24908,51.32147],[-0.24744,51.31996],[-0.24837,51.31929],[-0.2476,51.31872],[-0.24497,51.31763],[-0.24113,51.31726],[-0.24131,51.31616],[-0.24363,51.31434],[-0.2444,51.31301],[-0.24419,51.31186],[-0.24477,51.31143],[-0.25442,51.31352],[-0.25629,51.31362],[-0.25821,51.31425],[-0.25894,51.31545],[-0.25854,51.31733],[-0.26056,51.32138],[-0.25983,51.32135],[-0.25975,51.32185],[-0.26129,51.32455],[-0.25963,51.32512],[-0.25889,51.32449],[-0.25783,51.32457],[-0.25744,51.3235],[-0.25692,51.32401],[-0.25566,51.32393],[-0.25547,51.32417],[-0.25554,51.32528],[-0.25636,51.32662],[-0.25609,51.3271],[-0.25483,51.32674],[-0.25448,51.32687],[-0.25466,51.3286],[-0.2537,51.32834],[-0.25306,51.32887]]]}},{"type":"Feature","properties":{"id":"E01030381","name":"E01030381","parent":"E07000208","type":"LSOA","pop":1465,"r":322,"ff":124,"ffd":8464.2,"ffs":0.496,"g":70,"co":0,"mo":2,"sa":0,"ic":0},"geometry":{"type":"Polygon","coordinates":[[[-0.25381,51.32977],[-0.25497,51.32906],[-0.25306,51.32887],[-0.2537,51.32834],[-0.25466,51.3286],[-0.25448,51.32687],[-0.25483,51.32674],[-0.25609,51.3271],[-0.25636,51.32662],[-0.25554,51.32528],[-0.25547,51.32417],[-0.25566,51.32393],[-0.25692,51.32401],[-0.25744,51.3235],[-0.25783,51.32457],[-0.25889,51.32449],[-0.25963,51.32512],[-0.26129,51.32455],[-0.25975,51.32185],[-0.25983,51.32135],[-0.26056,51.32138],[-0.26018,51.32071],[-0.26295,51.32458],[-0.26414,51.32753],[-0.2635,51.32739],[-0.26247,51.32863],[-0.2632,51.32893],[-0.26243,51.32916],[-0.26155,51.3305],[-0.26026,51.3298],[-0.25963,51.33011],[-0.25887,51.32953],[-0.25797,51.33028],[-0.25572,51.32934],[-0.25598,51.32958],[-0.25558,51.33012],[-0.2549,51.33043],[-0.25381,51.32977]]]}},{"type":"Feature","properties":{"id":"E01030382","name":"E01030382","parent":"E07000208","type":"LSOA","pop":1608,"r":372,"ff":144,"ffd":8955.2,"ffs":0.4881,"g":75,"co":0,"mo":2,"sa":0,"ic":0},"geometry":{"type":"Polygon","coordinates":[[[-0.24721,51.33562],[-0.24629,51.33458],[-0.24791,51.33316],[-0.24522,51.33076],[-0.24525,51.33033],[-0.24406,51.32902],[-0.24483,51.32762],[-0.24881,51.32909],[-0.24858,51.32984],[-0.24746,51.33006],[-0.24704,51.33054],[-0.24659,51.33046],[-0.2483,51.33212],[-0.25017,51.33141],[-0.25083,51.33177],[-0.25087,51.33224],[-0.25162,51.33191],[-0.25451,51.33476],[-0.25484,51.3346],[-0.25567,51.33483],[-0.2574,51.33397],[-0.25713,51.33455],[-0.25794,51.3357],[-0.25104,51.33989],[-0.24721,51.33562]]]}},{"type":"Feature","properties":{"id":"E01030384","name":"E01030384","parent":"E07000208","type":"LSOA","pop":2710,"r":376,"ff":144,"ffd":5313.7,"ffs":0.4848,"g":77,"co":0,"mo":2,"sa":0,"ic":0},"geometry":{"type":"Polygon","coordinates":[[[-0.27436,51.34715],[-0.27359,51.34634],[-0.27313,51.34666],[-0.27112,51.34542],[-0.27098,51.3439],[-0.27154,51.34363],[-0.27034,51.34216],[-0.27024,51.3415],[-0.27089,51.34101],[-0.27029,51.3403],[-0.26929,51.34065],[-0.26899,51.34112],[-0.26964,51.34195],[-0.26923,51.34222],[-0.26764,51.34119],[-0.26828,51.3407],[-0.26783,51.34029],[-0.26818,51.33999],[-0.26925,51.33994],[-0.26935,51.34019],[-0.27167,51.33879],[-0.27258,51.33969],[-0.27215,51.34],[-0.27248,51.34037],[-0.27198,51.34052],[-0.27351,51.34166],[-0.27463,51.34195],[-0.27738,51.34079],[-0.27782,51.34134],[-0.278,51.34205],[-0.28004,51.34146],[-0.28328,51.34093],[-0.28434,51.34007],[-0.28755,51.3439],[-0.28658,51.34439],[-0.28465,51.3442],[-0.28077,51.34541],[-0.2795,51.34441],[-0.27949,51.34285],[-0.27658,51.3434],[-0.276,51.34507],[-0.276,51.3457],[-0.27699,51.34616],[-0.27436,51.34715]]]}},{"type":"Feature","properties":{"id":"E01030385","name":"E01030385","parent":"E07000208","type":"LSOA","pop":1847,"r":347,"ff":135,"ffd":7309.1,"ffs":0.4891,"g":69,"co":0,"mo":2,"sa":0,"ic":0},"geometry":{"type":"Polygon","coordinates":[[[-0.26547,51.348],[-0.26592,51.34705],[-0.26448,51.34685],[-0.26449,51.34653],[-0.26318,51.34625],[-0.26325,51.34605],[-0.26392,51.34613],[-0.26482,51.34505],[-0.26391,51.34476],[-0.2637,51.34502],[-0.26223,51.34446],[-0.26235,51.34355],[-0.26104,51.34334],[-0.26289,51.34016],[-0.26334,51.33968],[-0.26476,51.34059],[-0.26585,51.33979],[-0.26621,51.33977],[-0.26688,51.34135],[-0.26764,51.34119],[-0.26923,51.34222],[-0.26964,51.34195],[-0.26899,51.34112],[-0.26929,51.34065],[-0.27029,51.3403],[-0.27089,51.34101],[-0.27024,51.3415],[-0.27034,51.34216],[-0.27154,51.34363],[-0.27098,51.3439],[-0.27112,51.34542],[-0.27064,51.34558],[-0.27061,51.3479],[-0.27013,51.34767],[-0.26991,51.34676],[-0.26807,51.34668],[-0.26891,51.34706],[-0.26791,51.34752],[-0.26677,51.34726],[-0.26612,51.3481],[-0.26547,51.348]]]}},{"type":"Feature","properties":{"id":"E01030386","name":"E01030386","parent":"E07000208","type":"LSOA","pop":1418,"r":564,"ff":219,"ffd":15444.3,"ffs":0.4824,"g":106,"co":0,"mo":2,"sa":0,"ic":0},"geometry":{"type":"Polygon","coordinates":[[[-0.25702,51.37884],[-0.25722,51.37844],[-0.25462,51.37784],[-0.25403,51.37732],[-0.25349,51.37752],[-0.2543,51.37807],[-0.2538,51.37847],[-0.25333,51.37806],[-0.25261,51.37814],[-0.2523,51.37777],[-0.25359,51.37523],[-0.25129,51.37478],[-0.25125,51.37411],[-0.24973,51.37413],[-0.24906,51.37509],[-0.24828,51.37503],[-0.2482,51.37334],[-0.24968,51.37334],[-0.24966,51.37244],[-0.24904,51.37173],[-0.25034,51.37135],[-0.25119,51.37218],[-0.25273,51.37176],[-0.25401,51.37289],[-0.25458,51.37245],[-0.25843,51.37116],[-0.25876,51.37206],[-0.25967,51.37205],[-0.26076,51.37404],[-0.25709,51.37517],[-0.25729,51.37575],[-0.25677,51.37561],[-0.25657,51.37584],[-0.25804,51.37729],[-0.25854,51.3772],[-0.25822,51.37757],[-0.25891,51.3779],[-0.25849,51.37812],[-0.25873,51.37856],[-0.2594,51.37848],[-0.2598,51.3789],[-0.25892,51.37908],[-0.25702,51.37884]]]}},{"type":"Feature","properties":{"id":"E01030387","name":"E01030387","parent":"E07000208","type":"LSOA","pop":1555,"r":500,"ff":198,"ffd":12733.1,"ffs":0.4853,"g":89,"co":0,"mo":2,"sa":0,"ic":0},"geometry":{"type":"Polygon","coordinates":[[[-0.24469,51.37174],[-0.24456,51.37017],[-0.24468,51.36906],[-0.24674,51.36926],[-0.24698,51.36868],[-0.24937,51.36958],[-0.2511,51.37115],[-0.25196,51.37082],[-0.25273,51.37176],[-0.25119,51.37218],[-0.25034,51.37135],[-0.24904,51.37173],[-0.24966,51.37244],[-0.24968,51.37334],[-0.2482,51.37334],[-0.24828,51.37503],[-0.24477,51.37499],[-0.24469,51.37174]]]}},{"type":"Feature","properties":{"id":"E01030388","name":"E01030388","parent":"E07000208","type":"LSOA","pop":1513,"r":555,"ff":214,"ffd":14144.1,"ffs":0.4942,"g":117,"co":0,"mo":2,"sa":0,"ic":0},"geometry":{"type":"Polygon","coordinates":[[[-0.2598,51.3789],[-0.2594,51.37848],[-0.25873,51.37856],[-0.25849,51.37812],[-0.25891,51.3779],[-0.25822,51.37757],[-0.25854,51.3772],[-0.25804,51.37729],[-0.25657,51.37584],[-0.25677,51.37561],[-0.25729,51.37575],[-0.25709,51.37517],[-0.26076,51.37404],[-0.26001,51.37243],[-0.25967,51.37205],[-0.25876,51.37206],[-0.25843,51.37116],[-0.25965,51.37108],[-0.25977,51.37046],[-0.26046,51.37062],[-0.26101,51.37124],[-0.26334,51.37289],[-0.26845,51.37075],[-0.27073,51.37184],[-0.27255,51.37226],[-0.26847,51.37383],[-0.26481,51.37556],[-0.26247,51.37725],[-0.26115,51.3796],[-0.25892,51.37908],[-0.2598,51.3789]]]}},{"type":"Feature","properties":{"id":"E01030389","name":"E01030389","parent":"E07000208","type":"LSOA","pop":1603,"r":556,"ff":218,"ffd":13599.5,"ffs":0.4877,"g":105,"co":0,"mo":2,"sa":0,"ic":0},"geometry":{"type":"Polygon","coordinates":[[[-0.24503,51.38003],[-0.24518,51.37724],[-0.24477,51.37499],[-0.24906,51.37509],[-0.24973,51.37413],[-0.25125,51.37411],[-0.25129,51.37478],[-0.25359,51.37523],[-0.2523,51.37777],[-0.25261,51.37814],[-0.25333,51.37806],[-0.2538,51.37847],[-0.2543,51.37807],[-0.25349,51.37752],[-0.25403,51.37732],[-0.25462,51.37784],[-0.25722,51.37844],[-0.25702,51.37884],[-0.25375,51.37878],[-0.25126,51.37915],[-0.24795,51.38016],[-0.24503,51.38003]]]}},{"type":"Feature","properties":{"id":"E01030390","name":"E01030390","parent":"E07000208","type":"LSOA","pop":2144,"r":504,"ff":191,"ffd":8908.6,"ffs":0.467,"g":92,"co":0,"mo":2,"sa":0,"ic":0},"geometry":{"type":"Polygon","coordinates":[[[-0.24541,51.35382],[-0.24427,51.35031],[-0.24717,51.35033],[-0.24725,51.35087],[-0.24537,51.3507],[-0.24674,51.35248],[-0.24852,51.35235],[-0.24885,51.35268],[-0.25047,51.35118],[-0.24997,51.35031],[-0.25139,51.35001],[-0.24963,51.34938],[-0.2527,51.34782],[-0.25316,51.34815],[-0.25278,51.34848],[-0.25374,51.34905],[-0.25599,51.34843],[-0.25797,51.34867],[-0.25416,51.35526],[-0.25124,51.35952],[-0.24541,51.35382]]]}},{"type":"Feature","properties":{"id":"E01030391","name":"E01030391","parent":"E07000208","type":"LSOA","pop":2019,"r":396,"ff":152,"ffd":7528.5,"ffs":0.4872,"g":82,"co":0,"mo":2,"sa":0,"ic":0},"geometry":{"type":"Polygon","coordinates":[[[-0.25779,51.34607],[-0.25757,51.34583],[-0.25557,51.34632],[-0.25508,51.34498],[-0.25453,51.34472],[-0.25449,51.34444],[-0.25361,51.3442],[-0.2536,51.34374],[-0.25293,51.34375],[-0.25317,51.34321],[-0.25229,51.34315],[-0.2526,51.34268],[-0.25008,51.34051],[-0.25794,51.3357],[-0.25945,51.33709],[-0.25524,51.33987],[-0.25632,51.34052],[-0.25572,51.34086],[-0.25993,51.34526],[-0.25874,51.34733],[-0.25632,51.34664],[-0.25779,51.34607]]]}},{"type":"Feature","properties":{"id":"E01030392","name":"E01030392","parent":"E07000208","type":"LSOA","pop":2011,"r":452,"ff":171,"ffd":8503.2,"ffs":0.479,"g":93,"co":0,"mo":2,"sa":0,"ic":0},"geometry":{"type":"Polygon","coordinates":[[[-0.24885,51.35268],[-0.24852,51.35235],[-0.24674,51.35248],[-0.24537,51.3507],[-0.24725,51.35087],[-0.24717,51.35033],[-0.24427,51.35031],[-0.2444,51.34889],[-0.2454,51.34679],[-0.2463,51.3458],[-0.24801,51.34507],[-0.24665,51.3427],[-0.25008,51.34051],[-0.2526,51.34268],[-0.25229,51.34315],[-0.25317,51.34321],[-0.25293,51.34375],[-0.2536,51.34374],[-0.25361,51.3442],[-0.25449,51.34444],[-0.25453,51.34472],[-0.25508,51.34498],[-0.25557,51.34632],[-0.25757,51.34583],[-0.25779,51.34607],[-0.25632,51.34664],[-0.25874,51.34733],[-0.25797,51.34867],[-0.25599,51.34843],[-0.25374,51.34905],[-0.25278,51.34848],[-0.25316,51.34815],[-0.2527,51.34782],[-0.24963,51.34938],[-0.25139,51.35001],[-0.24997,51.35031],[-0.25047,51.35118],[-0.24885,51.35268]]]}},{"type":"Feature","properties":{"id":"E01030393","name":"E01030393","parent":"E07000208","type":"LSOA","pop":1960,"r":376,"ff":144,"ffd":7346.9,"ffs":0.4848,"g":77,"co":0,"mo":2,"sa":0,"ic":0},"geometry":{"type":"Polygon","coordinates":[[[-0.26101,51.37124],[-0.26046,51.37062],[-0.25977,51.37046],[-0.26014,51.36975],[-0.25856,51.36899],[-0.2611,51.36688],[-0.26152,51.36708],[-0.26216,51.36671],[-0.26349,51.36757],[-0.26469,51.36726],[-0.26467,51.36662],[-0.26715,51.36719],[-0.26868,51.36616],[-0.26997,51.36757],[-0.27161,51.36763],[-0.27205,51.36789],[-0.27361,51.36951],[-0.27402,51.37066],[-0.27359,51.37153],[-0.27255,51.37226],[-0.27073,51.37184],[-0.26845,51.37075],[-0.26334,51.37289],[-0.26101,51.37124]]]}},{"type":"Feature","properties":{"id":"E01030394","name":"E01030394","parent":"E07000208","type":"LSOA","pop":1785,"r":517,"ff":204,"ffd":11428.6,"ffs":0.4904,"g":99,"co":0,"mo":2,"sa":0,"ic":0},"geometry":{"type":"Polygon","coordinates":[[[-0.26216,51.36671],[-0.26166,51.3663],[-0.26214,51.36601],[-0.26169,51.36519],[-0.26084,51.36519],[-0.26027,51.36482],[-0.26267,51.36293],[-0.26225,51.36257],[-0.2613,51.3627],[-0.26144,51.36249],[-0.26024,51.36174],[-0.26059,51.36106],[-0.25913,51.36088],[-0.26267,51.35978],[-0.26346,51.3589],[-0.26444,51.35917],[-0.26526,51.36011],[-0.26731,51.36031],[-0.26878,51.36128],[-0.26966,51.36215],[-0.27079,51.36421],[-0.27161,51.36763],[-0.26997,51.36757],[-0.26868,51.36616],[-0.26715,51.36719],[-0.26467,51.36662],[-0.26469,51.36726],[-0.26349,51.36757],[-0.26216,51.36671]]]}},{"type":"Feature","properties":{"id":"E01030395","name":"E01030395","parent":"E07000208","type":"LSOA","pop":1792,"r":489,"ff":188,"ffd":10491.1,"ffs":0.4747,"g":90,"co":0,"mo":2,"sa":0,"ic":0},"geometry":{"type":"Polygon","coordinates":[[[-0.26044,51.3655],[-0.25124,51.35952],[-0.25416,51.35526],[-0.255,51.35582],[-0.25763,51.35618],[-0.25875,51.35717],[-0.26087,51.35762],[-0.26346,51.3589],[-0.26267,51.35978],[-0.25913,51.36088],[-0.26059,51.36106],[-0.26024,51.36174],[-0.26144,51.36249],[-0.2613,51.3627],[-0.26225,51.36257],[-0.26267,51.36293],[-0.26027,51.36482],[-0.26084,51.36519],[-0.26169,51.36519],[-0.26214,51.36601],[-0.26166,51.3663],[-0.26044,51.3655]]]}},{"type":"Feature","properties":{"id":"E01030396","name":"E01030396","parent":"E07000208","type":"LSOA","pop":2519,"r":393,"ff":146,"ffd":5796.0,"ffs":0.4695,"g":80,"co":0,"mo":2,"sa":0,"ic":0},"geometry":{"type":"Polygon","coordinates":[[[-0.23721,51.34801],[-0.23959,51.34681],[-0.24077,51.34714],[-0.24164,51.34635],[-0.24033,51.34603],[-0.23998,51.34235],[-0.23806,51.34353],[-0.23562,51.34395],[-0.23636,51.34535],[-0.2354,51.34518],[-0.23563,51.34484],[-0.23511,51.3446],[-0.23433,51.34472],[-0.23405,51.34509],[-0.23326,51.34501],[-0.23388,51.34559],[-0.23317,51.34625],[-0.23238,51.34559],[-0.23144,51.34567],[-0.22914,51.34637],[-0.22909,51.3459],[-0.22773,51.34465],[-0.22947,51.34458],[-0.22998,51.3451],[-0.23056,51.34494],[-0.23038,51.34448],[-0.23076,51.3444],[-0.23164,51.34485],[-0.23171,51.34445],[-0.23249,51.34422],[-0.23231,51.34394],[-0.23115,51.34409],[-0.23092,51.34353],[-0.2243,51.3415],[-0.22444,51.34174],[-0.2221,51.34044],[-0.22324,51.33981],[-0.22433,51.34006],[-0.22683,51.33789],[-0.22978,51.33654],[-0.22921,51.33589],[-0.22191,51.3308],[-0.22094,51.32986],[-0.23389,51.32732],[-0.23422,51.32762],[-0.24044,51.32643],[-0.24483,51.32762],[-0.24406,51.32902],[-0.24525,51.33033],[-0.24522,51.33076],[-0.24791,51.33316],[-0.24629,51.33458],[-0.25104,51.33989],[-0.24665,51.3427],[-0.24801,51.34507],[-0.2463,51.3458],[-0.2454,51.34679],[-0.24493,51.34768],[-0.24195,51.34685],[-0.24078,51.34785],[-0.24003,51.34772],[-0.24035,51.34746],[-0.2398,51.34725],[-0.23828,51.34815],[-0.23745,51.3483],[-0.23721,51.34801]]]}},{"type":"Feature","properties":{"id":"E01030398","name":"E01030398","parent":"E07000208","type":"LSOA","pop":1716,"r":469,"ff":181,"ffd":10547.8,"ffs":0.4776,"g":87,"co":0,"mo":2,"sa":0,"ic":0},"geometry":{"type":"Polygon","coordinates":[[[-0.22219,51.35452],[-0.22204,51.35389],[-0.22209,51.35132],[-0.22126,51.35117],[-0.22042,51.35142],[-0.22024,51.35031],[-0.21843,51.3466],[-0.21919,51.34654],[-0.21914,51.34602],[-0.22086,51.34674],[-0.22167,51.34838],[-0.2226,51.34881],[-0.22256,51.34942],[-0.22312,51.34976],[-0.22439,51.34819],[-0.22501,51.34861],[-0.22337,51.3506],[-0.22515,51.35106],[-0.2259,51.35086],[-0.22636,51.35113],[-0.22753,51.35061],[-0.22814,51.35114],[-0.2366,51.34737],[-0.23745,51.3483],[-0.23828,51.34815],[-0.2398,51.34725],[-0.24035,51.34746],[-0.24003,51.34772],[-0.24078,51.34785],[-0.24195,51.34685],[-0.24493,51.34768],[-0.2444,51.34889],[-0.24427,51.35031],[-0.24471,51.35189],[-0.24367,51.35237],[-0.24426,51.35418],[-0.2429,51.35487],[-0.24262,51.35438],[-0.23991,51.35558],[-0.24038,51.35637],[-0.23984,51.35649],[-0.24042,51.35706],[-0.24062,51.35879],[-0.23319,51.36601],[-0.22875,51.36344],[-0.22695,51.36263],[-0.22442,51.35958],[-0.22274,51.35695],[-0.22219,51.35452]]]}},{"type":"Feature","properties":{"id":"E01030399","name":"E01030399","parent":"E07000208","type":"LSOA","pop":2424,"r":422,"ff":166,"ffd":6848.2,"ffs":0.497,"g":86,"co":0,"mo":2,"sa":0,"ic":0},"geometry":{"type":"Polygon","coordinates":[[[-0.27156,51.36722],[-0.27079,51.36421],[-0.27121,51.36419],[-0.27105,51.36375],[-0.27247,51.36274],[-0.27338,51.36121],[-0.2753,51.36227],[-0.277,51.36159],[-0.27645,51.36116],[-0.27681,51.36101],[-0.2777,51.36153],[-0.27726,51.3618],[-0.27882,51.36213],[-0.27967,51.36151],[-0.28067,51.36134],[-0.28204,51.36219],[-0.28198,51.36265],[-0.28169,51.36302],[-0.28224,51.3633],[-0.28236,51.36394],[-0.28359,51.36482],[-0.28259,51.36516],[-0.28301,51.36556],[-0.28202,51.36611],[-0.28112,51.36592],[-0.28082,51.36526],[-0.27872,51.36511],[-0.27724,51.36625],[-0.27602,51.36556],[-0.27179,51.36688],[-0.27201,51.36713],[-0.27156,51.36722]]]}},{"type":"Feature","properties":{"id":"E01030400","name":"E01030400","parent":"E07000208","type":"LSOA","pop":1581,"r":406,"ff":158,"ffd":9993.7,"ffs":0.4862,"g":80,"co":0,"mo":2,"sa":0,"ic":0},"geometry":{"type":"Polygon","coordinates":[[[-0.27179,51.36688],[-0.27602,51.36556],[-0.27724,51.36625],[-0.27872,51.36511],[-0.28082,51.36526],[-0.28112,51.36592],[-0.28202,51.36611],[-0.27982,51.36782],[-0.27724,51.36851],[-0.27641,51.36892],[-0.27583,51.37001],[-0.27402,51.37066],[-0.27361,51.36951],[-0.27161,51.36763],[-0.27156,51.36722],[-0.27201,51.36713],[-0.27179,51.36688]]]}},{"type":"Feature","properties":{"id":"E01030401","name":"E01030401","parent":"E07000208","type":"LSOA","pop":2826,"r":398,"ff":156,"ffd":5520.2,"ffs":0.4906,"g":79,"co":0,"mo":2,"sa":0,"ic":0},"geometry":{"type":"Polygon","coordinates":[[[-0.28204,51.36219],[-0.28067,51.36134],[-0.27967,51.36151],[-0.27882,51.36213],[-0.27726,51.3618],[-0.2777,51.36153],[-0.27681,51.36101],[-0.27645,51.36116],[-0.277,51.36159],[-0.2753,51.36227],[-0.27204,51.36053],[-0.27372,51.3582],[-0.27432,51.35881],[-0.27525,51.35826],[-0.27406,51.35755],[-0.27466,51.35715],[-0.27393,51.35667],[-0.27615,51.35353],[-0.27868,51.35285],[-0.28287,51.34961],[-0.28681,51.3442],[-0.28804,51.34376],[-0.28852,51.34449],[-0.28938,51.3447],[-0.28891,51.34549],[-0.29276,51.34672],[-0.29432,51.34686],[-0.29401,51.34724],[-0.2962,51.34855],[-0.29611,51.34878],[-0.2978,51.34925],[-0.29277,51.35265],[-0.29266,51.35361],[-0.29144,51.35476],[-0.29108,51.35656],[-0.28897,51.35871],[-0.28697,51.35937],[-0.28508,51.36121],[-0.2876,51.36181],[-0.28828,51.36208],[-0.28813,51.36226],[-0.28702,51.36267],[-0.2857,51.36405],[-0.28408,51.36514],[-0.28301,51.36556],[-0.28259,51.36516],[-0.28359,51.36482],[-0.28236,51.36394],[-0.28224,51.3633],[-0.28169,51.36302],[-0.28198,51.36265],[-0.28204,51.36219]]]}},{"type":"Feature","properties":{"id":"E01030402","name":"E01030402","parent":"E07000208","type":"LSOA","pop":2491,"r":304,"ff":119,"ffd":4777.2,"ffs":0.5,"g":65,"co":0,"mo":2,"sa":0,"ic":0},"geometry":{"type":"Polygon","coordinates":[[[-0.28852,51.34449],[-0.28804,51.34376],[-0.28755,51.3439],[-0.28434,51.34007],[-0.28328,51.34093],[-0.28014,51.34145],[-0.28028,51.34085],[-0.27964,51.34033],[-0.28163,51.33967],[-0.28246,51.33851],[-0.28154,51.33798],[-0.28176,51.33756],[-0.28036,51.33716],[-0.28146,51.33608],[-0.28391,51.33676],[-0.2847,51.33561],[-0.28602,51.33629],[-0.28801,51.3361],[-0.28838,51.33558],[-0.29113,51.33566],[-0.29261,51.33525],[-0.29748,51.33566],[-0.29753,51.33749],[-0.29872,51.33713],[-0.30072,51.33689],[-0.30223,51.33723],[-0.3034,51.33812],[-0.3033,51.33874],[-0.30057,51.33935],[-0.30117,51.34068],[-0.30059,51.34165],[-0.30115,51.34163],[-0.30404,51.343],[-0.30158,51.34504],[-0.30008,51.34749],[-0.2978,51.34925],[-0.29611,51.34878],[-0.2962,51.34855],[-0.29401,51.34724],[-0.29432,51.34686],[-0.29276,51.34672],[-0.28891,51.34549],[-0.28938,51.3447],[-0.28852,51.34449]]]}},{"type":"Feature","properties":{"id":"E01030403","name":"E01030403","parent":"E07000208","type":"LSOA","pop":1620,"r":298,"ff":121,"ffd":7469.1,"ffs":0.5149,"g":62,"co":0,"mo":2,"sa":0,"ic":0},"geometry":{"type":"Polygon","coordinates":[[[-0.27782,51.34134],[-0.27738,51.34079],[-0.27463,51.34195],[-0.27351,51.34166],[-0.27198,51.34052],[-0.27248,51.34037],[-0.27215,51.34],[-0.27258,51.33969],[-0.27167,51.33879],[-0.27022,51.33965],[-0.26918,51.33736],[-0.27148,51.33683],[-0.27252,51.33599],[-0.27139,51.33492],[-0.27207,51.33459],[-0.2716,51.33363],[-0.27242,51.33328],[-0.27523,51.33408],[-0.2755,51.33491],[-0.27464,51.33533],[-0.2744,51.33604],[-0.27547,51.33593],[-0.27686,51.33622],[-0.27916,51.33602],[-0.27967,51.337],[-0.28176,51.33756],[-0.28154,51.33798],[-0.28246,51.33851],[-0.28163,51.33967],[-0.27964,51.34033],[-0.28028,51.34085],[-0.28014,51.34145],[-0.278,51.34205],[-0.27782,51.34134]]]}},{"type":"Feature","properties":{"id":"E01030404","name":"E01030404","parent":"E07000208","type":"LSOA","pop":1617,"r":269,"ff":106,"ffd":6555.3,"ffs":0.5121,"g":61,"co":0,"mo":2,"sa":0,"ic":0},"geometry":{"type":"Polygon","coordinates":[[[-0.27967,51.337],[-0.27916,51.33602],[-0.27686,51.33622],[-0.27547,51.33593],[-0.2744,51.33604],[-0.27464,51.33533],[-0.2755,51.33491],[-0.27523,51.33408],[-0.27242,51.33328],[-0.27545,51.33166],[-0.28014,51.32861],[-0.28137,51.33007],[-0.28187,51.32994],[-0.28205,51.33072],[-0.28242,51.33074],[-0.28302,51.33169],[-0.28229,51.33152],[-0.28254,51.33267],[-0.28342,51.33193],[-0.28511,51.33155],[-0.2856,51.33194],[-0.28636,51.33187],[-0.2864,51.33228],[-0.28446,51.33316],[-0.28242,51.33313],[-0.28228,51.33419],[-0.28838,51.33558],[-0.28801,51.3361],[-0.28602,51.33629],[-0.2847,51.33561],[-0.28391,51.33676],[-0.28146,51.33608],[-0.28036,51.33716],[-0.27967,51.337]]]}},{"type":"Feature","properties":{"id":"E01030405","name":"E01030405","parent":"E07000208","type":"LSOA","pop":1819,"r":179,"ff":62,"ffd":3408.5,"ffs":0.4769,"g":48,"co":0,"mo":2,"sa":0,"ic":1},"geometry":{"type":"Polygon","coordinates":[[[-0.30404,51.343],[-0.30115,51.34163],[-0.30059,51.34165],[-0.30117,51.34068],[-0.30057,51.33935],[-0.3033,51.33874],[-0.3034,51.33812],[-0.30223,51.33723],[-0.30072,51.33689],[-0.29872,51.33713],[-0.29753,51.33749],[-0.29748,51.33566],[-0.29261,51.33525],[-0.29113,51.33566],[-0.28838,51.33558],[-0.28228,51.33419],[-0.28242,51.33313],[-0.28446,51.33316],[-0.2864,51.33228],[-0.28636,51.33187],[-0.2856,51.33194],[-0.28511,51.33155],[-0.28342,51.33193],[-0.28254,51.33267],[-0.28229,51.33152],[-0.28302,51.33169],[-0.28242,51.33074],[-0.28205,51.33072],[-0.28187,51.32994],[-0.28137,51.33007],[-0.28014,51.32861],[-0.28259,51.32708],[-0.28086,51.32455],[-0.28355,51.32356],[-0.28766,51.32112],[-0.28854,51.32167],[-0.28945,51.32331],[-0.29081,51.32469],[-0.29228,51.32491],[-0.29236,51.32526],[-0.29357,51.32521],[-0.29743,51.32586],[-0.30501,51.33298],[-0.30619,51.33508],[-0.30493,51.33675],[-0.30542,51.33948],[-0.30404,51.343]]]}},{"type":"Feature","properties":{"id":"E01030406","name":"E01030406","parent":"E07000208","type":"LSOA","pop":1632,"r":533,"ff":205,"ffd":12561.3,"ffs":0.4713,"g":95,"co":0,"mo":2,"sa":0,"ic":0},"geometry":{"type":"Polygon","coordinates":[[[-0.24442,51.3622],[-0.24482,51.36178],[-0.24557,51.3618],[-0.24646,51.36213],[-0.24817,51.36181],[-0.24789,51.36172],[-0.24836,51.36086],[-0.24909,51.3608],[-0.24819,51.3599],[-0.246,51.35969],[-0.24622,51.35891],[-0.24441,51.35757],[-0.24276,51.35641],[-0.24212,51.35666],[-0.24097,51.35599],[-0.2407,51.35523],[-0.24262,51.35438],[-0.2429,51.35487],[-0.24426,51.35418],[-0.24367,51.35237],[-0.24471,51.35189],[-0.24541,51.35382],[-0.25124,51.35952],[-0.24704,51.36524],[-0.24503,51.36456],[-0.24607,51.36331],[-0.24417,51.36258],[-0.24442,51.3622]]]}},{"type":"Feature","properties":{"id":"E01030407","name":"E01030407","parent":"E07000208","type":"LSOA","pop":1470,"r":538,"ff":208,"ffd":14149.7,"ffs":0.476,"g":98,"co":0,"mo":2,"sa":0,"ic":0},"geometry":{"type":"Polygon","coordinates":[[[-0.23943,51.36299],[-0.23804,51.3624],[-0.23762,51.36288],[-0.23676,51.36266],[-0.24062,51.35879],[-0.24042,51.35706],[-0.23984,51.35649],[-0.24038,51.35637],[-0.23991,51.35558],[-0.2407,51.35523],[-0.24097,51.35599],[-0.24212,51.35666],[-0.24276,51.35641],[-0.24622,51.35891],[-0.246,51.35969],[-0.24819,51.3599],[-0.24909,51.3608],[-0.24836,51.36086],[-0.24789,51.36172],[-0.24817,51.36181],[-0.24646,51.36213],[-0.24557,51.3618],[-0.24482,51.36178],[-0.24442,51.3622],[-0.24227,51.36109],[-0.23991,51.3634],[-0.23943,51.36299]]]}},{"type":"Feature","properties":{"id":"E01030408","name":"E01030408","parent":"E07000208","type":"LSOA","pop":1860,"r":516,"ff":201,"ffd":10806.5,"ffs":0.4774,"g":92,"co":0,"mo":2,"sa":0,"ic":0},"geometry":{"type":"Polygon","coordinates":[[[-0.23656,51.36669],[-0.23398,51.3654],[-0.23676,51.36266],[-0.23762,51.36288],[-0.23804,51.3624],[-0.23943,51.36299],[-0.23991,51.3634],[-0.24227,51.36109],[-0.24442,51.3622],[-0.24417,51.36258],[-0.24607,51.36331],[-0.24503,51.36456],[-0.24704,51.36524],[-0.24608,51.36694],[-0.24122,51.36627],[-0.24089,51.36704],[-0.23869,51.36699],[-0.23656,51.36669]]]}},{"type":"Feature","properties":{"id":"E01030409","name":"E01030409","parent":"E07000208","type":"LSOA","pop":1753,"r":332,"ff":133,"ffd":7587.0,"ffs":0.5115,"g":70,"co":0,"mo":2,"sa":0,"ic":0},"geometry":{"type":"Polygon","coordinates":[[[-0.26688,51.34135],[-0.26621,51.33977],[-0.26585,51.33979],[-0.26611,51.33905],[-0.26544,51.33802],[-0.26508,51.33807],[-0.26532,51.33757],[-0.26336,51.33695],[-0.26368,51.33646],[-0.26387,51.3351],[-0.26514,51.33613],[-0.26707,51.3352],[-0.26676,51.33475],[-0.26863,51.33496],[-0.26859,51.33476],[-0.2716,51.33363],[-0.27207,51.33459],[-0.27139,51.33492],[-0.27252,51.33599],[-0.27148,51.33683],[-0.26918,51.33736],[-0.27022,51.33965],[-0.26935,51.34019],[-0.26925,51.33994],[-0.26818,51.33999],[-0.26783,51.34029],[-0.26828,51.3407],[-0.26764,51.34119],[-0.26688,51.34135]]]}},{"type":"Feature","properties":{"id":"E01030410","name":"E01030410","parent":"E07000208","type":"LSOA","pop":1923,"r":357,"ff":143,"ffd":7436.3,"ffs":0.4983,"g":68,"co":0,"mo":2,"sa":0,"ic":0},"geometry":{"type":"Polygon","coordinates":[[[-0.25524,51.33987],[-0.25952,51.33704],[-0.25983,51.33647],[-0.26011,51.33665],[-0.26129,51.33612],[-0.2621,51.33674],[-0.26532,51.33757],[-0.26508,51.33807],[-0.26544,51.33802],[-0.26611,51.33905],[-0.26585,51.33979],[-0.26476,51.34059],[-0.26334,51.33968],[-0.26289,51.34016],[-0.25993,51.34526],[-0.25572,51.34086],[-0.25632,51.34052],[-0.25524,51.33987]]]}},{"type":"Feature","properties":{"id":"E01030412","name":"E01030412","parent":"E07000208","type":"LSOA","pop":2236,"r":350,"ff":141,"ffd":6305.9,"ffs":0.509,"g":71,"co":0,"mo":2,"sa":0,"ic":0},"geometry":{"type":"Polygon","coordinates":[[[-0.25945,51.33709],[-0.25794,51.3357],[-0.25713,51.33455],[-0.2574,51.33397],[-0.25567,51.33483],[-0.25484,51.3346],[-0.25522,51.33428],[-0.25473,51.33383],[-0.2551,51.33368],[-0.25541,51.33392],[-0.25702,51.33332],[-0.25684,51.33302],[-0.25751,51.33239],[-0.2569,51.33176],[-0.25565,51.33097],[-0.25711,51.32995],[-0.25797,51.33028],[-0.25887,51.32953],[-0.25963,51.33011],[-0.26026,51.3298],[-0.26126,51.33034],[-0.26115,51.33099],[-0.2605,51.33126],[-0.2626,51.33328],[-0.2633,51.33295],[-0.26422,51.33303],[-0.26459,51.33409],[-0.26411,51.3342],[-0.26338,51.33367],[-0.2631,51.33388],[-0.26336,51.33413],[-0.26208,51.33433],[-0.26326,51.33533],[-0.26265,51.33558],[-0.26368,51.33646],[-0.26336,51.33695],[-0.2621,51.33674],[-0.26129,51.33612],[-0.26011,51.33665],[-0.25983,51.33647],[-0.25945,51.33709]]]}},{"type":"Feature","properties":{"id":"E01030413","name":"E01030413","parent":"E07000208","type":"LSOA","pop":1996,"r":423,"ff":159,"ffd":7965.9,"ffs":0.4704,"g":83,"co":0,"mo":2,"sa":0,"ic":0},"geometry":{"type":"Polygon","coordinates":[[[-0.25672,51.35399],[-0.25788,51.35183],[-0.25727,51.35168],[-0.25759,51.35106],[-0.25669,51.35088],[-0.2598,51.34549],[-0.26256,51.34673],[-0.26176,51.34957],[-0.262,51.34966],[-0.2616,51.35015],[-0.26167,51.3505],[-0.26411,51.35158],[-0.2631,51.35252],[-0.26154,51.35209],[-0.26145,51.35267],[-0.25955,51.35503],[-0.25889,51.35497],[-0.25901,51.35471],[-0.25672,51.35399]]]}},{"type":"Feature","properties":{"id":"E01030414","name":"E01030414","parent":"E07000208","type":"LSOA","pop":1370,"r":406,"ff":158,"ffd":11532.8,"ffs":0.4847,"g":78,"co":0,"mo":2,"sa":0,"ic":0},"geometry":{"type":"Polygon","coordinates":[[[-0.26346,51.3589],[-0.26822,51.35782],[-0.26864,51.35824],[-0.26934,51.35828],[-0.26958,51.35775],[-0.27171,51.35787],[-0.2715,51.35702],[-0.27248,51.3564],[-0.27214,51.3561],[-0.27267,51.35582],[-0.27466,51.35715],[-0.27406,51.35755],[-0.27525,51.35826],[-0.27432,51.35881],[-0.27372,51.3582],[-0.27204,51.36053],[-0.27338,51.36121],[-0.27247,51.36274],[-0.27105,51.36375],[-0.27121,51.36419],[-0.27079,51.36421],[-0.26966,51.36215],[-0.26878,51.36128],[-0.26731,51.36031],[-0.26526,51.36011],[-0.26444,51.35917],[-0.26346,51.3589]]]}},{"type":"Feature","properties":{"id":"E01030415","name":"E01030415","parent":"E07000208","type":"LSOA","pop":1687,"r":380,"ff":149,"ffd":8832.2,"ffs":0.4901,"g":74,"co":0,"mo":2,"sa":0,"ic":0},"geometry":{"type":"Polygon","coordinates":[[[-0.25416,51.35526],[-0.25669,51.35088],[-0.25759,51.35106],[-0.25727,51.35168],[-0.25788,51.35183],[-0.25672,51.35399],[-0.25901,51.35471],[-0.25889,51.35497],[-0.25955,51.35503],[-0.26145,51.35267],[-0.26154,51.35209],[-0.2631,51.35252],[-0.26411,51.35158],[-0.26167,51.3505],[-0.2616,51.35015],[-0.262,51.34966],[-0.26258,51.34977],[-0.26268,51.34952],[-0.26401,51.34988],[-0.26784,51.35184],[-0.26668,51.35185],[-0.26626,51.35212],[-0.26721,51.35257],[-0.2669,51.35283],[-0.26738,51.35322],[-0.26534,51.35516],[-0.26442,51.35542],[-0.26304,51.355],[-0.26207,51.35554],[-0.2614,51.35554],[-0.26087,51.35762],[-0.25875,51.35717],[-0.25763,51.35618],[-0.255,51.35582],[-0.25416,51.35526]]]}},{"type":"Feature","properties":{"id":"E01030416","name":"E01030416","parent":"E07000208","type":"LSOA","pop":1438,"r":408,"ff":162,"ffd":11265.6,"ffs":0.4939,"g":78,"co":0,"mo":2,"sa":0,"ic":0},"geometry":{"type":"Polygon","coordinates":[[[-0.26171,51.35809],[-0.26087,51.35762],[-0.2614,51.35554],[-0.26207,51.35554],[-0.26304,51.355],[-0.26442,51.35542],[-0.26534,51.35516],[-0.26738,51.35322],[-0.2669,51.35283],[-0.26721,51.35257],[-0.26626,51.35212],[-0.26668,51.35185],[-0.26784,51.35184],[-0.27063,51.35452],[-0.27267,51.35582],[-0.27214,51.3561],[-0.27248,51.3564],[-0.2715,51.35702],[-0.27171,51.35787],[-0.26958,51.35775],[-0.26934,51.35828],[-0.26864,51.35824],[-0.26822,51.35782],[-0.26346,51.3589],[-0.26171,51.35809]]]}},{"type":"Feature","properties":{"id":"E01030417","name":"E01030417","parent":"E07000208","type":"LSOA","pop":1444,"r":217,"ff":84,"ffd":5817.2,"ffs":0.5185,"g":54,"co":0,"mo":2,"sa":0,"ic":1},"geometry":{"type":"Polygon","coordinates":[[[-0.26846,51.325],[-0.26877,51.32421],[-0.26827,51.32357],[-0.26754,51.32424],[-0.26584,51.32466],[-0.26124,51.32234],[-0.26018,51.32071],[-0.25854,51.31733],[-0.25894,51.31545],[-0.25821,51.31425],[-0.25629,51.31362],[-0.25442,51.31352],[-0.24477,51.31143],[-0.24419,51.31186],[-0.24407,51.31134],[-0.24144,51.31155],[-0.24081,51.31068],[-0.24103,51.3098],[-0.24286,51.31029],[-0.24275,51.31012],[-0.24413,51.30917],[-0.24322,51.30693],[-0.24601,51.30284],[-0.24974,51.30749],[-0.25846,51.30713],[-0.2607,51.30802],[-0.26189,51.30931],[-0.26334,51.30947],[-0.26644,51.31241],[-0.26887,51.31389],[-0.27161,51.31248],[-0.27395,51.313],[-0.27739,51.31461],[-0.27899,51.3134],[-0.28032,51.31329],[-0.28169,51.31143],[-0.28421,51.31286],[-0.28508,51.31593],[-0.28636,51.31887],[-0.28207,51.31924],[-0.27944,51.32118],[-0.27897,51.32103],[-0.27738,51.32142],[-0.27237,51.32397],[-0.27127,51.32314],[-0.27071,51.3231],[-0.27039,51.32399],[-0.27079,51.3243],[-0.2704,51.32469],[-0.26999,51.32502],[-0.26954,51.32472],[-0.26928,51.3251],[-0.26846,51.325]]]}},{"type":"Feature","properties":{"id":"E01030418","name":"E01030418","parent":"E07000208","type":"LSOA","pop":1542,"r":218,"ff":80,"ffd":5188.1,"ffs":0.4969,"g":55,"co":0,"mo":2,"sa":0,"ic":3},"geometry":{"type":"Polygon","coordinates":[[[-0.27395,51.313],[-0.27161,51.31248],[-0.26887,51.31389],[-0.26644,51.31241],[-0.26334,51.30947],[-0.26189,51.30931],[-0.2607,51.30802],[-0.25846,51.30713],[-0.24974,51.30749],[-0.24601,51.30284],[-0.24676,51.30134],[-0.24713,51.29804],[-0.2499,51.29866],[-0.2516,51.29962],[-0.25316,51.29923],[-0.25882,51.29943],[-0.26045,51.29925],[-0.26396,51.29961],[-0.26746,51.29758],[-0.26985,51.2941],[-0.27223,51.29233],[-0.27531,51.29832],[-0.27821,51.30214],[-0.27856,51.30524],[-0.27921,51.30738],[-0.28075,51.31042],[-0.28169,51.31143],[-0.28032,51.31329],[-0.27899,51.3134],[-0.27739,51.31461],[-0.27395,51.313]]]}},{"type":"Feature","properties":{"id":"E01030419","name":"E01030419","parent":"E07000208","type":"LSOA","pop":1877,"r":255,"ff":101,"ffd":5380.9,"ffs":0.5206,"g":59,"co":0,"mo":2,"sa":0,"ic":0},"geometry":{"type":"Polygon","coordinates":[[[-0.27524,51.33069],[-0.27318,51.32934],[-0.27017,51.3302],[-0.27023,51.33057],[-0.26729,51.33089],[-0.26699,51.3312],[-0.26501,51.32928],[-0.26295,51.32458],[-0.26124,51.32234],[-0.26584,51.32466],[-0.26754,51.32424],[-0.26827,51.32357],[-0.26877,51.32421],[-0.26846,51.325],[-0.26928,51.3251],[-0.26954,51.32472],[-0.26999,51.32502],[-0.27079,51.3243],[-0.27039,51.32399],[-0.27071,51.3231],[-0.27127,51.32314],[-0.27237,51.32397],[-0.27334,51.32354],[-0.27388,51.32398],[-0.27378,51.32443],[-0.27426,51.32461],[-0.274,51.32554],[-0.27451,51.32576],[-0.27541,51.32577],[-0.27552,51.32534],[-0.27641,51.32498],[-0.27703,51.32529],[-0.27737,51.3261],[-0.27833,51.3264],[-0.27725,51.32661],[-0.27768,51.3269],[-0.27819,51.32671],[-0.28014,51.32861],[-0.27545,51.33166],[-0.27459,51.33108],[-0.27524,51.33069]]]}},{"type":"Feature","properties":{"id":"E01030420","name":"E01030420","parent":"E07000208","type":"LSOA","pop":1469,"r":229,"ff":89,"ffd":6058.5,"ffs":0.5266,"g":59,"co":0,"mo":2,"sa":0,"ic":1},"geometry":{"type":"Polygon","coordinates":[[[-0.27859,51.32711],[-0.27819,51.32671],[-0.27768,51.3269],[-0.27725,51.32661],[-0.27833,51.3264],[-0.27737,51.3261],[-0.27703,51.32529],[-0.27641,51.32498],[-0.27552,51.32534],[-0.27541,51.32577],[-0.27451,51.32576],[-0.274,51.32554],[-0.27426,51.32461],[-0.27378,51.32443],[-0.27388,51.32398],[-0.27334,51.32354],[-0.27738,51.32142],[-0.27897,51.32103],[-0.27944,51.32118],[-0.28207,51.31924],[-0.28636,51.31887],[-0.28766,51.32112],[-0.28355,51.32356],[-0.28086,51.32455],[-0.28259,51.32708],[-0.28014,51.32861],[-0.27859,51.32711]]]}},{"type":"Feature","properties":{"id":"E01032624","name":"E01032624","parent":"E07000208","type":"LSOA","pop":2004,"r":493,"ff":189,"ffd":9431.1,"ffs":0.4678,"g":86,"co":0,"mo":2,"sa":0,"ic":0},"geometry":{"type":"Polygon","coordinates":[[[-0.22636,51.35113],[-0.2259,51.35086],[-0.22515,51.35106],[-0.22337,51.3506],[-0.22501,51.34861],[-0.22439,51.34819],[-0.22312,51.34976],[-0.22256,51.34942],[-0.2226,51.34881],[-0.22167,51.34838],[-0.22086,51.34674],[-0.21914,51.34602],[-0.21919,51.34654],[-0.21843,51.3466],[-0.21726,51.34339],[-0.22264,51.34087],[-0.22444,51.34174],[-0.2243,51.3415],[-0.23092,51.34353],[-0.23115,51.34409],[-0.23231,51.34394],[-0.23249,51.34422],[-0.23171,51.34445],[-0.23164,51.34485],[-0.23076,51.3444],[-0.23038,51.34448],[-0.23056,51.34494],[-0.22998,51.3451],[-0.22947,51.34458],[-0.22773,51.34465],[-0.22909,51.3459],[-0.22914,51.34637],[-0.23144,51.34567],[-0.23238,51.34559],[-0.23317,51.34625],[-0.23388,51.34559],[-0.23326,51.34501],[-0.23405,51.34509],[-0.23433,51.34472],[-0.23511,51.3446],[-0.23563,51.34484],[-0.2354,51.34518],[-0.23636,51.34535],[-0.23562,51.34395],[-0.23806,51.34353],[-0.23998,51.34235],[-0.24033,51.34603],[-0.24164,51.34635],[-0.24077,51.34714],[-0.23959,51.34681],[-0.23721,51.34801],[-0.2366,51.34737],[-0.22814,51.35114],[-0.22753,51.35061],[-0.22636,51.35113]]]}},{"type":"Feature","properties":{"id":"E01034287","name":"E01034287","parent":"E07000208","type":"LSOA","pop":1768,"r":366,"ff":143,"ffd":8088.2,"ffs":0.4897,"g":72,"co":0,"mo":2,"sa":0,"ic":0},"geometry":{"type":"Polygon","coordinates":[[[-0.26608,51.3508],[-0.26782,51.34905],[-0.26793,51.3485],[-0.26739,51.34831],[-0.26786,51.34798],[-0.26843,51.34807],[-0.26864,51.34846],[-0.26879,51.3491],[-0.26827,51.34938],[-0.26921,51.34958],[-0.27021,51.34912],[-0.26949,51.34843],[-0.26937,51.34763],[-0.26864,51.34732],[-0.26891,51.34706],[-0.26807,51.34668],[-0.26991,51.34676],[-0.27013,51.34767],[-0.27061,51.3479],[-0.27064,51.34558],[-0.27112,51.34542],[-0.27313,51.34666],[-0.27359,51.34634],[-0.27436,51.34715],[-0.27699,51.34616],[-0.276,51.3457],[-0.276,51.34507],[-0.27658,51.3434],[-0.27949,51.34285],[-0.2795,51.34441],[-0.28077,51.34541],[-0.28465,51.3442],[-0.28658,51.34439],[-0.28681,51.3442],[-0.28287,51.34961],[-0.27868,51.35285],[-0.27615,51.35353],[-0.27393,51.35667],[-0.27063,51.35452],[-0.26784,51.35184],[-0.26608,51.3508]]]}},{"type":"Feature","properties":{"id":"E01034288","name":"E01034288","parent":"E07000208","type":"LSOA","pop":1463,"r":379,"ff":151,"ffd":10321.3,"ffs":0.5,"g":75,"co":0,"mo":2,"sa":0,"ic":0},"geometry":{"type":"Polygon","coordinates":[[[-0.26401,51.34988],[-0.26268,51.34952],[-0.26258,51.34977],[-0.26176,51.34957],[-0.26256,51.34673],[-0.2598,51.34549],[-0.26104,51.34334],[-0.26235,51.34355],[-0.26223,51.34446],[-0.2637,51.34502],[-0.26391,51.34476],[-0.26482,51.34505],[-0.26392,51.34613],[-0.26325,51.34605],[-0.26318,51.34625],[-0.26449,51.34653],[-0.26448,51.34685],[-0.26592,51.34705],[-0.26547,51.348],[-0.26612,51.3481],[-0.26677,51.34726],[-0.26791,51.34752],[-0.26864,51.34732],[-0.26937,51.34763],[-0.26949,51.34843],[-0.27021,51.34912],[-0.26921,51.34958],[-0.26827,51.34938],[-0.26879,51.3491],[-0.26864,51.34846],[-0.26843,51.34807],[-0.26786,51.34798],[-0.26739,51.34831],[-0.26793,51.3485],[-0.26782,51.34905],[-0.26608,51.3508],[-0.26401,51.34988]]]}},{"type":"Feature","properties":{"id":"E01034289","name":"E01034289","parent":"E07000208","type":"LSOA","pop":1629,"r":376,"ff":144,"ffd":8839.8,"ffs":0.4848,"g":77,"co":0,"mo":2,"sa":0,"ic":0},"geometry":{"type":"Polygon","coordinates":[[[-0.26859,51.33476],[-0.26824,51.33417],[-0.26749,51.33426],[-0.26696,51.33317],[-0.2668,51.33184],[-0.26556,51.33212],[-0.26565,51.3313],[-0.26484,51.33123],[-0.26444,51.33077],[-0.26605,51.33029],[-0.26699,51.3312],[-0.26729,51.33089],[-0.27023,51.33057],[-0.27017,51.3302],[-0.27318,51.32934],[-0.27524,51.33069],[-0.27459,51.33108],[-0.27545,51.33166],[-0.27242,51.33328],[-0.26859,51.33476]]]}},{"type":"Feature","properties":{"id":"E01034290","name":"E01034290","parent":"E07000208","type":"LSOA","pop":1471,"r":309,"ff":123,"ffd":8361.7,"ffs":0.5104,"g":66,"co":0,"mo":2,"sa":0,"ic":0},"geometry":{"type":"Polygon","coordinates":[[[-0.26326,51.33533],[-0.26208,51.33433],[-0.26336,51.33413],[-0.2631,51.33388],[-0.26338,51.33367],[-0.26411,51.3342],[-0.26459,51.33409],[-0.26422,51.33303],[-0.2633,51.33295],[-0.2626,51.33328],[-0.2605,51.33126],[-0.26115,51.33099],[-0.26126,51.33034],[-0.26155,51.3305],[-0.26243,51.32916],[-0.2632,51.32893],[-0.26247,51.32863],[-0.2635,51.32739],[-0.26414,51.32753],[-0.26501,51.32928],[-0.26605,51.33029],[-0.26444,51.33077],[-0.26484,51.33123],[-0.26565,51.3313],[-0.26556,51.33212],[-0.2668,51.33184],[-0.26696,51.33317],[-0.26749,51.33426],[-0.26824,51.33417],[-0.26863,51.33496],[-0.26676,51.33475],[-0.26707,51.3352],[-0.26514,51.33613],[-0.26387,51.3351],[-0.26368,51.33646],[-0.26265,51.33558],[-0.26326,51.33533]]]}}]}