{"type":"FeatureCollection","features":[{"type":"Feature","properties":{"id":"E01031776","name":"E01031776","parent":"E07000229","type":"LSOA","pop":1589,"r":245,"ff":84,"ffd":5286.3,"ffs":0.4667,"g":63,"co":2,"mo":0,"sa":0,"ic":0},"geometry":{"type":"Polygon","coordinates":[[[-0.37015,50.83263],[-0.36997,50.83214],[-0.36879,50.83234],[-0.36764,50.83201],[-0.36776,50.83094],[-0.36735,50.8308],[-0.36858,50.82976],[-0.36838,50.82889],[-0.36884,50.82886],[-0.36701,50.82893],[-0.36705,50.82975],[-0.36654,50.82978],[-0.36616,50.82823],[-0.36717,50.82744],[-0.36876,50.82692],[-0.36913,50.82779],[-0.37121,50.82761],[-0.37115,50.82797],[-0.37227,50.82848],[-0.37267,50.83061],[-0.37222,50.83064],[-0.372,50.8303],[-0.37156,50.83076],[-0.37087,50.83058],[-0.37031,50.83085],[-0.37031,50.83118],[-0.37096,50.83134],[-0.3713,50.83241],[-0.37015,50.83263]]]}},{"type":"Feature","properties":{"id":"E01031777","name":"E01031777","parent":"E07000229","type":"LSOA","pop":1831,"r":243,"ff":84,"ffd":4587.7,"ffs":0.48,"g":66,"co":0,"mo":0,"sa":0,"ic":0},"geometry":{"type":"Polygon","coordinates":[[[-0.36491,50.83115],[-0.36422,50.82993],[-0.36377,50.8297],[-0.36417,50.82938],[-0.3621,50.82931],[-0.36134,50.82783],[-0.35799,50.8284],[-0.35454,50.82821],[-0.35571,50.8277],[-0.3553,50.82702],[-0.35537,50.82595],[-0.35714,50.82594],[-0.35708,50.82549],[-0.35895,50.82534],[-0.35888,50.82506],[-0.35977,50.82564],[-0.36047,50.82559],[-0.36031,50.82472],[-0.35895,50.82451],[-0.35888,50.82417],[-0.35841,50.82411],[-0.35844,50.82332],[-0.36016,50.82366],[-0.36006,50.82318],[-0.36052,50.82309],[-0.36134,50.82368],[-0.36289,50.82331],[-0.36305,50.82402],[-0.36239,50.82491],[-0.36447,50.82635],[-0.36548,50.8257],[-0.3654,50.825],[-0.3662,50.82441],[-0.36819,50.82433],[-0.36835,50.82513],[-0.36655,50.82561],[-0.36676,50.82609],[-0.36726,50.82634],[-0.36803,50.8262],[-0.36845,50.82667],[-0.36898,50.82667],[-0.36876,50.82692],[-0.36717,50.82744],[-0.36616,50.82823],[-0.36654,50.82978],[-0.36705,50.82975],[-0.36701,50.82893],[-0.36884,50.82886],[-0.36838,50.82889],[-0.36858,50.82976],[-0.36735,50.8308],[-0.36663,50.83079],[-0.36615,50.83148],[-0.36491,50.83115]]]}},{"type":"Feature","properties":{"id":"E01031778","name":"E01031778","parent":"E07000229","type":"LSOA","pop":1508,"r":246,"ff":87,"ffd":5769.2,"ffs":0.4754,"g":61,"co":2,"mo":0,"sa":0,"ic":0},"geometry":{"type":"Polygon","coordinates":[[[-0.37031,50.83085],[-0.37087,50.83058],[-0.37156,50.83076],[-0.372,50.8303],[-0.37222,50.83064],[-0.37267,50.83061],[-0.37227,50.82848],[-0.37115,50.82797],[-0.37121,50.82761],[-0.37422,50.82821],[-0.38095,50.83242],[-0.38065,50.83288],[-0.37487,50.83336],[-0.37163,50.83398],[-0.37096,50.83134],[-0.37031,50.83118],[-0.37031,50.83085]]]}},{"type":"Feature","properties":{"id":"E01031779","name":"E01031779","parent":"E07000229","type":"LSOA","pop":1290,"r":242,"ff":84,"ffd":6511.6,"ffs":0.48,"g":65,"co":0,"mo":0,"sa":0,"ic":0},"geometry":{"type":"Polygon","coordinates":[[[-0.3543,50.82682],[-0.35416,50.82601],[-0.35378,50.82601],[-0.35326,50.82524],[-0.35179,50.8249],[-0.35074,50.82287],[-0.34943,50.82255],[-0.36326,50.8202],[-0.36368,50.8207],[-0.36333,50.82111],[-0.36416,50.82135],[-0.3647,50.82189],[-0.36396,50.82232],[-0.36289,50.82331],[-0.36134,50.82368],[-0.36052,50.82309],[-0.36006,50.82318],[-0.36016,50.82366],[-0.35844,50.82332],[-0.35841,50.82411],[-0.35888,50.82417],[-0.35895,50.82451],[-0.36031,50.82472],[-0.36047,50.82559],[-0.35977,50.82564],[-0.35888,50.82506],[-0.35895,50.82534],[-0.35708,50.82549],[-0.35714,50.82594],[-0.35537,50.82595],[-0.3553,50.82702],[-0.3543,50.82682]]]}},{"type":"Feature","properties":{"id":"E01031780","name":"E01031780","parent":"E07000229","type":"LSOA","pop":1469,"r":243,"ff":85,"ffd":5786.2,"ffs":0.4857,"g":66,"co":0,"mo":0,"sa":0,"ic":0},"geometry":{"type":"Polygon","coordinates":[[[-0.36845,50.82667],[-0.36803,50.8262],[-0.36726,50.82634],[-0.36676,50.82609],[-0.36655,50.82561],[-0.36835,50.82513],[-0.36819,50.82433],[-0.3662,50.82441],[-0.3654,50.825],[-0.36548,50.8257],[-0.36447,50.82635],[-0.36239,50.82491],[-0.36305,50.82402],[-0.36289,50.82331],[-0.36396,50.82232],[-0.3647,50.82189],[-0.36416,50.82135],[-0.36333,50.82111],[-0.36368,50.8207],[-0.36326,50.8202],[-0.36892,50.81918],[-0.36927,50.82112],[-0.36974,50.82232],[-0.36887,50.82295],[-0.36898,50.82667],[-0.36845,50.82667]]]}},{"type":"Feature","properties":{"id":"E01031781","name":"E01031781","parent":"E07000229","type":"LSOA","pop":1581,"r":254,"ff":85,"ffd":5376.3,"ffs":0.4696,"g":71,"co":0,"mo":0,"sa":0,"ic":0},"geometry":{"type":"Polygon","coordinates":[[[-0.35895,50.83462],[-0.35884,50.83419],[-0.35712,50.83433],[-0.35834,50.83064],[-0.35465,50.8297],[-0.35319,50.82904],[-0.35454,50.82821],[-0.35799,50.8284],[-0.36134,50.82783],[-0.3621,50.82931],[-0.36417,50.82938],[-0.36377,50.8297],[-0.36422,50.82993],[-0.36491,50.83115],[-0.36615,50.83148],[-0.36663,50.83079],[-0.36776,50.83094],[-0.36764,50.83201],[-0.36879,50.83234],[-0.36997,50.83214],[-0.37015,50.83263],[-0.3713,50.83241],[-0.37162,50.83349],[-0.37163,50.83398],[-0.36546,50.83432],[-0.35914,50.83559],[-0.35895,50.83462]]]}},{"type":"Feature","properties":{"id":"E01031782","name":"E01031782","parent":"E07000229","type":"LSOA","pop":1815,"r":254,"ff":92,"ffd":5068.9,"ffs":0.4718,"g":57,"co":0,"mo":0,"sa":0,"ic":0},"geometry":{"type":"Polygon","coordinates":[[[-0.41091,50.82435],[-0.41066,50.82134],[-0.41154,50.82131],[-0.41126,50.82087],[-0.41251,50.82084],[-0.41225,50.81946],[-0.41722,50.81911],[-0.41706,50.81953],[-0.41769,50.81984],[-0.41777,50.82026],[-0.41694,50.82054],[-0.4173,50.82097],[-0.41832,50.82143],[-0.41902,50.82129],[-0.41985,50.82155],[-0.41951,50.82297],[-0.42078,50.82287],[-0.42089,50.82318],[-0.42018,50.82328],[-0.42025,50.82361],[-0.42067,50.82353],[-0.42223,50.82449],[-0.42248,50.8254],[-0.42004,50.82625],[-0.40816,50.82845],[-0.40821,50.82664],[-0.41086,50.82461],[-0.41091,50.82435]]]}},{"type":"Feature","properties":{"id":"E01031783","name":"E01031783","parent":"E07000229","type":"LSOA","pop":1590,"r":250,"ff":91,"ffd":5723.3,"ffs":0.474,"g":56,"co":0,"mo":0,"sa":0,"ic":0},"geometry":{"type":"Polygon","coordinates":[[[-0.41951,50.82297],[-0.41985,50.82155],[-0.41902,50.82129],[-0.41832,50.82143],[-0.4173,50.82097],[-0.41694,50.82054],[-0.41777,50.82026],[-0.41769,50.81984],[-0.41706,50.81953],[-0.41722,50.81911],[-0.41145,50.81954],[-0.41144,50.81918],[-0.4121,50.81893],[-0.41376,50.81894],[-0.4137,50.81824],[-0.41426,50.81789],[-0.41766,50.818],[-0.41772,50.81749],[-0.42179,50.81753],[-0.42197,50.81898],[-0.42076,50.81946],[-0.42063,50.81992],[-0.42099,50.81991],[-0.42093,50.82079],[-0.42206,50.82003],[-0.42268,50.82035],[-0.42377,50.82025],[-0.42387,50.82079],[-0.42444,50.8211],[-0.42389,50.82142],[-0.42386,50.82189],[-0.42451,50.82228],[-0.42387,50.82276],[-0.42131,50.82262],[-0.42078,50.82287],[-0.41951,50.82297]]]}},{"type":"Feature","properties":{"id":"E01031785","name":"E01031785","parent":"E07000229","type":"LSOA","pop":1561,"r":247,"ff":88,"ffd":5637.4,"ffs":0.4632,"g":55,"co":0,"mo":0,"sa":0,"ic":0},"geometry":{"type":"Polygon","coordinates":[[[-0.42721,50.82004],[-0.42662,50.81972],[-0.42646,50.81895],[-0.42861,50.81892],[-0.42865,50.81795],[-0.4292,50.81795],[-0.42987,50.81859],[-0.43034,50.81819],[-0.43019,50.81764],[-0.43564,50.81769],[-0.44194,50.81733],[-0.44268,50.81916],[-0.44224,50.81998],[-0.44295,50.81985],[-0.44366,50.82146],[-0.43476,50.82234],[-0.43013,50.82248],[-0.42709,50.82299],[-0.42633,50.82205],[-0.42797,50.82195],[-0.42801,50.82171],[-0.42681,50.82145],[-0.42685,50.82071],[-0.42666,50.82034],[-0.42721,50.82004]]]}},{"type":"Feature","properties":{"id":"E01031786","name":"E01031786","parent":"E07000229","type":"LSOA","pop":1619,"r":251,"ff":90,"ffd":5559.0,"ffs":0.4663,"g":56,"co":0,"mo":0,"sa":0,"ic":0},"geometry":{"type":"Polygon","coordinates":[[[-0.42223,50.82449],[-0.42067,50.82353],[-0.42025,50.82361],[-0.42018,50.82328],[-0.42089,50.82318],[-0.42078,50.82287],[-0.42131,50.82262],[-0.42387,50.82276],[-0.42451,50.82228],[-0.42386,50.82189],[-0.42389,50.82142],[-0.42444,50.8211],[-0.42387,50.82079],[-0.42377,50.82025],[-0.42268,50.82035],[-0.42206,50.82003],[-0.42093,50.82079],[-0.42099,50.81991],[-0.42063,50.81992],[-0.42076,50.81946],[-0.42197,50.81898],[-0.42179,50.81753],[-0.43019,50.81764],[-0.43034,50.81819],[-0.42987,50.81859],[-0.4292,50.81795],[-0.42865,50.81795],[-0.42861,50.81892],[-0.42646,50.81895],[-0.42662,50.81972],[-0.42721,50.82004],[-0.42666,50.82034],[-0.42685,50.82071],[-0.42681,50.82145],[-0.42801,50.82171],[-0.42797,50.82195],[-0.42633,50.82205],[-0.42709,50.82299],[-0.42248,50.8254],[-0.42223,50.82449]]]}},{"type":"Feature","properties":{"id":"E01031787","name":"E01031787","parent":"E07000229","type":"LSOA","pop":2047,"r":238,"ff":86,"ffd":4201.3,"ffs":0.4886,"g":60,"co":0,"mo":0,"sa":0,"ic":0},"geometry":{"type":"Polygon","coordinates":[[[-0.37168,50.81288],[-0.37223,50.81266],[-0.37186,50.81151],[-0.37251,50.81147],[-0.37281,50.81093],[-0.37275,50.80922],[-0.37115,50.80934],[-0.37128,50.80962],[-0.371,50.80936],[-0.37018,50.80948],[-0.36907,50.8098],[-0.36919,50.81026],[-0.36864,50.80987],[-0.36812,50.81049],[-0.3679,50.80997],[-0.36014,50.81153],[-0.36004,50.81128],[-0.36342,50.81041],[-0.36383,50.81002],[-0.37252,50.80859],[-0.37461,50.8086],[-0.37505,50.80834],[-0.37825,50.80801],[-0.37845,50.80991],[-0.37906,50.81148],[-0.37647,50.81161],[-0.37652,50.81218],[-0.37569,50.81256],[-0.37575,50.81284],[-0.3767,50.81276],[-0.37643,50.81356],[-0.37576,50.81361],[-0.37569,50.81418],[-0.37455,50.81438],[-0.37464,50.81478],[-0.37156,50.81516],[-0.37095,50.81372],[-0.37158,50.81337],[-0.37168,50.81288]]]}},{"type":"Feature","properties":{"id":"E01031788","name":"E01031788","parent":"E07000229","type":"LSOA","pop":2303,"r":242,"ff":86,"ffd":3734.3,"ffs":0.4859,"g":63,"co":0,"mo":0,"sa":0,"ic":0},"geometry":{"type":"Polygon","coordinates":[[[-0.36403,50.82006],[-0.3639,50.81964],[-0.36296,50.8198],[-0.36261,50.81935],[-0.36619,50.81889],[-0.36522,50.81843],[-0.36621,50.81762],[-0.36791,50.81832],[-0.36917,50.81775],[-0.369,50.81694],[-0.36855,50.81695],[-0.36845,50.81661],[-0.36922,50.81629],[-0.3691,50.81563],[-0.36834,50.8153],[-0.36731,50.81548],[-0.36731,50.81593],[-0.3678,50.81617],[-0.36734,50.81641],[-0.36553,50.81616],[-0.36538,50.81577],[-0.36594,50.81548],[-0.36547,50.81515],[-0.36827,50.81467],[-0.36818,50.81411],[-0.37095,50.81372],[-0.37156,50.81516],[-0.37306,50.81497],[-0.37168,50.81578],[-0.37102,50.81576],[-0.37161,50.81661],[-0.37246,50.81688],[-0.37213,50.816],[-0.37257,50.81563],[-0.37422,50.81548],[-0.37464,50.81707],[-0.37267,50.81714],[-0.37272,50.81869],[-0.36937,50.81908],[-0.36403,50.82006]]]}},{"type":"Feature","properties":{"id":"E01031790","name":"E01031790","parent":"E07000229","type":"LSOA","pop":2005,"r":236,"ff":84,"ffd":4189.5,"ffs":0.4828,"g":60,"co":0,"mo":0,"sa":0,"ic":0},"geometry":{"type":"Polygon","coordinates":[[[-0.37268,50.81763],[-0.37267,50.81714],[-0.37464,50.81707],[-0.37422,50.81548],[-0.37257,50.81563],[-0.37213,50.816],[-0.37246,50.81688],[-0.37161,50.81661],[-0.37102,50.81576],[-0.37168,50.81578],[-0.37306,50.81497],[-0.37464,50.81478],[-0.37455,50.81438],[-0.37569,50.81418],[-0.37576,50.81361],[-0.37643,50.81356],[-0.3767,50.81276],[-0.37575,50.81284],[-0.37569,50.81256],[-0.37652,50.81218],[-0.37647,50.81161],[-0.37906,50.81148],[-0.37951,50.8133],[-0.3797,50.81336],[-0.38262,50.81312],[-0.3829,50.81493],[-0.38218,50.8148],[-0.38108,50.81546],[-0.38018,50.81515],[-0.38031,50.81445],[-0.37992,50.8143],[-0.37919,50.81459],[-0.3782,50.81431],[-0.37813,50.81491],[-0.37859,50.81518],[-0.37744,50.81676],[-0.37804,50.81692],[-0.37801,50.81728],[-0.37746,50.81763],[-0.37615,50.81737],[-0.37493,50.81769],[-0.37452,50.81864],[-0.37272,50.81869],[-0.37268,50.81763]]]}},{"type":"Feature","properties":{"id":"E01031791","name":"E01031791","parent":"E07000229","type":"LSOA","pop":2220,"r":240,"ff":87,"ffd":3918.9,"ffs":0.486,"g":59,"co":0,"mo":0,"sa":0,"ic":0},"geometry":{"type":"Polygon","coordinates":[[[-0.37493,50.81769],[-0.37615,50.81737],[-0.37746,50.81763],[-0.37801,50.81728],[-0.37804,50.81692],[-0.37744,50.81676],[-0.37859,50.81518],[-0.37813,50.81491],[-0.3782,50.81431],[-0.37919,50.81459],[-0.37992,50.8143],[-0.38031,50.81445],[-0.38018,50.81515],[-0.38108,50.81546],[-0.38218,50.8148],[-0.3829,50.81493],[-0.38328,50.81772],[-0.38363,50.81807],[-0.38687,50.81829],[-0.38727,50.81855],[-0.37452,50.81864],[-0.37493,50.81769]]]}},{"type":"Feature","properties":{"id":"E01031792","name":"E01031792","parent":"E07000229","type":"LSOA","pop":1411,"r":253,"ff":91,"ffd":6449.3,"ffs":0.4667,"g":57,"co":0,"mo":0,"sa":0,"ic":0},"geometry":{"type":"Polygon","coordinates":[[[-0.41509,50.83879],[-0.41512,50.83845],[-0.41464,50.83873],[-0.41339,50.8387],[-0.41341,50.83795],[-0.41152,50.83777],[-0.41241,50.83569],[-0.40585,50.83543],[-0.40587,50.83451],[-0.40677,50.83423],[-0.40713,50.83344],[-0.40759,50.83341],[-0.40781,50.83389],[-0.41036,50.83349],[-0.41019,50.83389],[-0.41082,50.83411],[-0.41217,50.83394],[-0.41205,50.833],[-0.41261,50.83294],[-0.41289,50.83173],[-0.41525,50.83163],[-0.4169,50.8321],[-0.41723,50.83254],[-0.41669,50.83241],[-0.41652,50.83286],[-0.4159,50.83254],[-0.41503,50.83334],[-0.41568,50.83375],[-0.4164,50.83346],[-0.41631,50.83315],[-0.41669,50.83337],[-0.41707,50.83486],[-0.4163,50.83494],[-0.41637,50.83552],[-0.41812,50.83546],[-0.41814,50.83578],[-0.41528,50.83579],[-0.41557,50.8362],[-0.41501,50.83638],[-0.4151,50.83755],[-0.41569,50.83819],[-0.41551,50.83879],[-0.41509,50.83879]]]}},{"type":"Feature","properties":{"id":"E01031793","name":"E01031793","parent":"E07000229","type":"LSOA","pop":1335,"r":247,"ff":89,"ffd":6666.7,"ffs":0.4709,"g":57,"co":0,"mo":0,"sa":0,"ic":0},"geometry":{"type":"Polygon","coordinates":[[[-0.41483,50.84101],[-0.41505,50.83874],[-0.41464,50.83873],[-0.41512,50.83845],[-0.41509,50.83879],[-0.41551,50.83879],[-0.41569,50.83819],[-0.4151,50.83755],[-0.41501,50.83638],[-0.41557,50.8362],[-0.41528,50.83579],[-0.41883,50.83572],[-0.41954,50.83554],[-0.42136,50.8344],[-0.42195,50.83425],[-0.42236,50.83812],[-0.4223,50.84068],[-0.41967,50.84119],[-0.41483,50.84101]]]}},{"type":"Feature","properties":{"id":"E01031794","name":"E01031794","parent":"E07000229","type":"LSOA","pop":1499,"r":255,"ff":93,"ffd":6204.1,"ffs":0.4721,"g":57,"co":0,"mo":0,"sa":0,"ic":0},"geometry":{"type":"Polygon","coordinates":[[[-0.40587,50.83451],[-0.40584,50.83192],[-0.40512,50.8317],[-0.40519,50.83107],[-0.4056,50.83108],[-0.40544,50.82999],[-0.4051,50.82954],[-0.40424,50.8296],[-0.40415,50.82923],[-0.41191,50.82767],[-0.41246,50.83002],[-0.41221,50.83038],[-0.41212,50.83129],[-0.41281,50.83129],[-0.41289,50.83173],[-0.41261,50.83294],[-0.41205,50.833],[-0.41217,50.83394],[-0.41082,50.83411],[-0.41019,50.83389],[-0.41036,50.83349],[-0.40781,50.83389],[-0.40759,50.83341],[-0.40713,50.83344],[-0.40677,50.83423],[-0.40587,50.83451]]]}},{"type":"Feature","properties":{"id":"E01031795","name":"E01031795","parent":"E07000229","type":"LSOA","pop":1658,"r":251,"ff":90,"ffd":5428.2,"ffs":0.4663,"g":57,"co":0,"mo":0,"sa":0,"ic":0},"geometry":{"type":"Polygon","coordinates":[[[-0.41503,50.83334],[-0.4159,50.83254],[-0.41652,50.83286],[-0.41669,50.83241],[-0.41723,50.83254],[-0.4169,50.8321],[-0.41525,50.83163],[-0.41289,50.83173],[-0.41281,50.83129],[-0.41212,50.83129],[-0.41221,50.83038],[-0.41246,50.83002],[-0.41799,50.82962],[-0.42088,50.82994],[-0.42148,50.83016],[-0.42166,50.83249],[-0.42139,50.83277],[-0.41981,50.83275],[-0.41976,50.83304],[-0.41669,50.83337],[-0.41631,50.83315],[-0.4164,50.83346],[-0.41568,50.83375],[-0.41503,50.83334]]]}},{"type":"Feature","properties":{"id":"E01031796","name":"E01031796","parent":"E07000229","type":"LSOA","pop":1629,"r":243,"ff":85,"ffd":5217.9,"ffs":0.467,"g":59,"co":0,"mo":0,"sa":0,"ic":0},"geometry":{"type":"Polygon","coordinates":[[[-0.3789,50.82152],[-0.37853,50.82089],[-0.37858,50.82048],[-0.37915,50.82043],[-0.37876,50.81918],[-0.37916,50.81918],[-0.3794,50.81858],[-0.38727,50.81855],[-0.38766,50.81922],[-0.38786,50.82111],[-0.38749,50.82087],[-0.38584,50.82112],[-0.38486,50.82015],[-0.38302,50.82002],[-0.38296,50.82072],[-0.38361,50.82096],[-0.38294,50.82116],[-0.38297,50.82149],[-0.38132,50.82172],[-0.38053,50.82115],[-0.38056,50.8217],[-0.37956,50.82189],[-0.38015,50.82213],[-0.37966,50.82241],[-0.3797,50.82357],[-0.37922,50.82357],[-0.37835,50.82247],[-0.3789,50.82152]]]}},{"type":"Feature","properties":{"id":"E01031797","name":"E01031797","parent":"E07000229","type":"LSOA","pop":1278,"r":250,"ff":90,"ffd":7042.3,"ffs":0.4762,"g":59,"co":0,"mo":0,"sa":0,"ic":0},"geometry":{"type":"Polygon","coordinates":[[[-0.38681,50.82739],[-0.38627,50.82577],[-0.38521,50.82579],[-0.38487,50.82439],[-0.38282,50.82435],[-0.38298,50.82389],[-0.38358,50.82385],[-0.38371,50.82252],[-0.38606,50.82248],[-0.38641,50.82171],[-0.3858,50.82166],[-0.38638,50.82149],[-0.38636,50.82112],[-0.38749,50.82087],[-0.38786,50.82111],[-0.3882,50.82382],[-0.39168,50.82376],[-0.39155,50.8263],[-0.39226,50.8274],[-0.39221,50.82906],[-0.39042,50.8289],[-0.39042,50.82836],[-0.3887,50.8283],[-0.38847,50.82787],[-0.38681,50.82739]]]}},{"type":"Feature","properties":{"id":"E01031798","name":"E01031798","parent":"E07000229","type":"LSOA","pop":1512,"r":246,"ff":87,"ffd":5754.0,"ffs":0.4807,"g":63,"co":0,"mo":0,"sa":0,"ic":0},"geometry":{"type":"Polygon","coordinates":[[[-0.36901,50.82743],[-0.36876,50.82692],[-0.36898,50.82667],[-0.36887,50.82295],[-0.36974,50.82232],[-0.36927,50.82112],[-0.36892,50.81918],[-0.37158,50.81878],[-0.37496,50.81863],[-0.37581,50.81946],[-0.37527,50.81971],[-0.37425,50.81965],[-0.37282,50.82021],[-0.37314,50.82262],[-0.37368,50.82253],[-0.37383,50.82175],[-0.37504,50.82214],[-0.37508,50.82242],[-0.3742,50.8228],[-0.37427,50.82333],[-0.37369,50.824],[-0.3739,50.82433],[-0.37331,50.82435],[-0.37381,50.82633],[-0.37329,50.82636],[-0.37263,50.8272],[-0.3708,50.82698],[-0.36974,50.82752],[-0.36901,50.82743]]]}},{"type":"Feature","properties":{"id":"E01031799","name":"E01031799","parent":"E07000229","type":"LSOA","pop":1644,"r":249,"ff":88,"ffd":5352.8,"ffs":0.4731,"g":61,"co":0,"mo":0,"sa":0,"ic":0},"geometry":{"type":"Polygon","coordinates":[[[-0.37422,50.82821],[-0.37121,50.82761],[-0.36913,50.82779],[-0.36901,50.82743],[-0.36974,50.82752],[-0.3708,50.82698],[-0.37263,50.8272],[-0.37329,50.82636],[-0.37381,50.82633],[-0.37331,50.82435],[-0.3739,50.82433],[-0.37369,50.824],[-0.37427,50.82333],[-0.37559,50.82361],[-0.3757,50.82297],[-0.37806,50.82273],[-0.37793,50.82389],[-0.3791,50.82392],[-0.37922,50.82357],[-0.3797,50.82357],[-0.37973,50.82393],[-0.38013,50.82392],[-0.38066,50.82532],[-0.38016,50.82587],[-0.38055,50.82651],[-0.38192,50.82667],[-0.38212,50.82768],[-0.38082,50.82782],[-0.38103,50.82883],[-0.38029,50.82884],[-0.3803,50.82936],[-0.37642,50.82959],[-0.37422,50.82821]]]}},{"type":"Feature","properties":{"id":"E01031800","name":"E01031800","parent":"E07000229","type":"LSOA","pop":1624,"r":246,"ff":87,"ffd":5357.1,"ffs":0.4728,"g":60,"co":0,"mo":0,"sa":0,"ic":0},"geometry":{"type":"Polygon","coordinates":[[[-0.38103,50.82883],[-0.38082,50.82782],[-0.38212,50.82768],[-0.38192,50.82667],[-0.38055,50.82651],[-0.38016,50.82587],[-0.38066,50.82532],[-0.38013,50.82392],[-0.37973,50.82393],[-0.37966,50.82241],[-0.38015,50.82213],[-0.37956,50.82189],[-0.38056,50.8217],[-0.38053,50.82115],[-0.38132,50.82172],[-0.38297,50.82149],[-0.38294,50.82116],[-0.38361,50.82096],[-0.38296,50.82072],[-0.38302,50.82002],[-0.38486,50.82015],[-0.38584,50.82112],[-0.38636,50.82112],[-0.38638,50.82149],[-0.3858,50.82166],[-0.38641,50.82171],[-0.38606,50.82248],[-0.38371,50.82252],[-0.38358,50.82385],[-0.38298,50.82389],[-0.38282,50.82435],[-0.38487,50.82439],[-0.38521,50.82579],[-0.38627,50.82577],[-0.38681,50.82739],[-0.38847,50.82787],[-0.3887,50.8283],[-0.38583,50.82837],[-0.38522,50.82879],[-0.38465,50.82879],[-0.38465,50.82858],[-0.38389,50.82879],[-0.38348,50.82845],[-0.38295,50.82879],[-0.38226,50.82842],[-0.38162,50.82846],[-0.38169,50.82874],[-0.38103,50.82883]]]}},{"type":"Feature","properties":{"id":"E01031801","name":"E01031801","parent":"E07000229","type":"LSOA","pop":1751,"r":246,"ff":87,"ffd":4968.6,"ffs":0.4754,"g":61,"co":0,"mo":0,"sa":0,"ic":0},"geometry":{"type":"Polygon","coordinates":[[[-0.37793,50.82389],[-0.37806,50.82273],[-0.3757,50.82297],[-0.37559,50.82361],[-0.37427,50.82333],[-0.3742,50.8228],[-0.37508,50.82242],[-0.37504,50.82214],[-0.37383,50.82175],[-0.37368,50.82253],[-0.37314,50.82262],[-0.37282,50.82021],[-0.37425,50.81965],[-0.37527,50.81971],[-0.37581,50.81946],[-0.37496,50.81863],[-0.3794,50.81858],[-0.37916,50.81918],[-0.37876,50.81918],[-0.37915,50.82043],[-0.37858,50.82048],[-0.37853,50.82089],[-0.3789,50.82152],[-0.37835,50.82247],[-0.37922,50.82357],[-0.3791,50.82392],[-0.37793,50.82389]]]}},{"type":"Feature","properties":{"id":"E01031802","name":"E01031802","parent":"E07000229","type":"LSOA","pop":1632,"r":247,"ff":89,"ffd":5453.4,"ffs":0.4684,"g":55,"co":0,"mo":2,"sa":0,"ic":0},"geometry":{"type":"Polygon","coordinates":[[[-0.42647,50.81592],[-0.42619,50.8151],[-0.42761,50.81513],[-0.42776,50.81467],[-0.42753,50.81272],[-0.42691,50.81265],[-0.42691,50.81176],[-0.42952,50.81171],[-0.42953,50.81205],[-0.43,50.81204],[-0.43047,50.80982],[-0.4302,50.80767],[-0.43246,50.80747],[-0.43256,50.80498],[-0.43626,50.8038],[-0.43708,50.80634],[-0.4374,50.808],[-0.43927,50.81248],[-0.44011,50.81247],[-0.44194,50.81733],[-0.43564,50.81769],[-0.42817,50.81761],[-0.42809,50.81667],[-0.42987,50.81664],[-0.43046,50.8164],[-0.43049,50.81601],[-0.42647,50.81592]]]}},{"type":"Feature","properties":{"id":"E01031803","name":"E01031803","parent":"E07000229","type":"LSOA","pop":1535,"r":247,"ff":90,"ffd":5863.2,"ffs":0.4762,"g":56,"co":0,"mo":0,"sa":0,"ic":0},"geometry":{"type":"Polygon","coordinates":[[[-0.42583,50.81298],[-0.42429,50.81294],[-0.42404,50.81408],[-0.42276,50.81443],[-0.4226,50.8141],[-0.42324,50.8138],[-0.42214,50.81336],[-0.42302,50.81303],[-0.42317,50.81241],[-0.42401,50.81225],[-0.42415,50.81191],[-0.42329,50.81173],[-0.42314,50.81067],[-0.4222,50.81082],[-0.42131,50.81171],[-0.42107,50.81172],[-0.42044,50.80952],[-0.42111,50.80938],[-0.42103,50.809],[-0.42352,50.8089],[-0.42289,50.80562],[-0.42148,50.80565],[-0.42128,50.80502],[-0.42239,50.80483],[-0.42257,50.80434],[-0.43597,50.80314],[-0.43626,50.8038],[-0.43256,50.80498],[-0.43246,50.80747],[-0.4302,50.80767],[-0.43047,50.80982],[-0.43,50.81204],[-0.42953,50.81205],[-0.42952,50.81171],[-0.42691,50.81176],[-0.42691,50.81265],[-0.42753,50.81272],[-0.42776,50.81467],[-0.42761,50.81513],[-0.42619,50.8151],[-0.42583,50.81298]]]}},{"type":"Feature","properties":{"id":"E01031804","name":"E01031804","parent":"E07000229","type":"LSOA","pop":1754,"r":250,"ff":90,"ffd":5131.1,"ffs":0.4688,"g":56,"co":0,"mo":0,"sa":0,"ic":0},"geometry":{"type":"Polygon","coordinates":[[[-0.41003,50.81743],[-0.40901,50.81294],[-0.408,50.81294],[-0.40694,50.80831],[-0.40745,50.8082],[-0.40789,50.80873],[-0.41035,50.8084],[-0.41018,50.80789],[-0.40919,50.80751],[-0.40972,50.80716],[-0.40915,50.80672],[-0.40933,50.80632],[-0.41275,50.80622],[-0.41339,50.80648],[-0.41272,50.80665],[-0.41156,50.80801],[-0.41212,50.8082],[-0.41202,50.80848],[-0.4132,50.80931],[-0.41303,50.81032],[-0.41417,50.81047],[-0.41469,50.81026],[-0.41503,50.81163],[-0.41606,50.81156],[-0.4161,50.81118],[-0.41666,50.81156],[-0.41648,50.81196],[-0.41694,50.81194],[-0.41679,50.81092],[-0.41746,50.81115],[-0.41777,50.81237],[-0.41892,50.81251],[-0.41672,50.81265],[-0.41747,50.81297],[-0.4179,50.81531],[-0.41526,50.81547],[-0.41538,50.81583],[-0.41582,50.81581],[-0.41624,50.81746],[-0.41003,50.81743]]]}},{"type":"Feature","properties":{"id":"E01031805","name":"E01031805","parent":"E07000229","type":"LSOA","pop":1653,"r":250,"ff":90,"ffd":5444.6,"ffs":0.4688,"g":56,"co":0,"mo":0,"sa":0,"ic":0},"geometry":{"type":"Polygon","coordinates":[[[-0.41777,50.81237],[-0.41746,50.81115],[-0.41679,50.81092],[-0.41694,50.81194],[-0.41648,50.81196],[-0.41666,50.81156],[-0.4161,50.81118],[-0.41606,50.81156],[-0.41503,50.81163],[-0.41469,50.81026],[-0.41417,50.81047],[-0.41303,50.81032],[-0.4132,50.80931],[-0.41202,50.80848],[-0.41212,50.8082],[-0.41156,50.80801],[-0.41272,50.80665],[-0.41339,50.80648],[-0.41275,50.80622],[-0.40933,50.80632],[-0.40915,50.80672],[-0.40972,50.80716],[-0.40919,50.80751],[-0.41018,50.80789],[-0.41035,50.8084],[-0.40789,50.80873],[-0.40745,50.8082],[-0.40694,50.80831],[-0.40671,50.80801],[-0.40581,50.80564],[-0.42128,50.80502],[-0.42148,50.80565],[-0.42289,50.80562],[-0.42352,50.8089],[-0.42103,50.809],[-0.42111,50.80938],[-0.42044,50.80952],[-0.42107,50.81172],[-0.42131,50.81171],[-0.42163,50.81231],[-0.41892,50.81251],[-0.41777,50.81237]]]}},{"type":"Feature","properties":{"id":"E01031806","name":"E01031806","parent":"E07000229","type":"LSOA","pop":1768,"r":252,"ff":92,"ffd":5203.6,"ffs":0.4742,"g":56,"co":0,"mo":0,"sa":0,"ic":0},"geometry":{"type":"Polygon","coordinates":[[[-0.41624,50.81746],[-0.41582,50.81581],[-0.41538,50.81583],[-0.41526,50.81547],[-0.4179,50.81531],[-0.41747,50.81297],[-0.41672,50.81265],[-0.42163,50.81231],[-0.42131,50.81171],[-0.4222,50.81082],[-0.42314,50.81067],[-0.42329,50.81173],[-0.42415,50.81191],[-0.42401,50.81225],[-0.42317,50.81241],[-0.42302,50.81303],[-0.42214,50.81336],[-0.42324,50.8138],[-0.4226,50.8141],[-0.42276,50.81443],[-0.42404,50.81408],[-0.42429,50.81294],[-0.42583,50.81298],[-0.42647,50.81592],[-0.43049,50.81601],[-0.43046,50.8164],[-0.42987,50.81664],[-0.42809,50.81667],[-0.42817,50.81761],[-0.41624,50.81746]]]}},{"type":"Feature","properties":{"id":"E01031807","name":"E01031807","parent":"E07000229","type":"LSOA","pop":1902,"r":238,"ff":84,"ffd":4416.4,"ffs":0.4719,"g":58,"co":0,"mo":0,"sa":0,"ic":0},"geometry":{"type":"Polygon","coordinates":[[[-0.39149,50.8166],[-0.39136,50.81601],[-0.39076,50.81615],[-0.39009,50.81536],[-0.3895,50.81543],[-0.38944,50.81574],[-0.38818,50.81581],[-0.38765,50.81466],[-0.38694,50.8145],[-0.38666,50.81398],[-0.38625,50.81408],[-0.38589,50.81379],[-0.38677,50.81366],[-0.38699,50.81299],[-0.38514,50.81311],[-0.38441,50.81268],[-0.38473,50.81203],[-0.38442,50.81184],[-0.3851,50.81149],[-0.38509,50.81071],[-0.38748,50.8105],[-0.38728,50.80971],[-0.38768,50.80968],[-0.38799,50.81045],[-0.38901,50.81076],[-0.38989,50.81055],[-0.39005,50.81099],[-0.39052,50.81096],[-0.39092,50.81409],[-0.39362,50.81412],[-0.39413,50.81648],[-0.39335,50.81652],[-0.39267,50.81614],[-0.39271,50.81655],[-0.39149,50.8166]]]}},{"type":"Feature","properties":{"id":"E01031808","name":"E01031808","parent":"E07000229","type":"LSOA","pop":1885,"r":239,"ff":87,"ffd":4615.4,"ffs":0.4888,"g":59,"co":0,"mo":0,"sa":0,"ic":0},"geometry":{"type":"Polygon","coordinates":[[[-0.37903,50.81147],[-0.37845,50.80991],[-0.37831,50.80852],[-0.38013,50.80817],[-0.38043,50.80841],[-0.381,50.80849],[-0.38113,50.80882],[-0.38202,50.80875],[-0.38211,50.80934],[-0.38299,50.80923],[-0.38297,50.809],[-0.38312,50.80935],[-0.38286,50.80952],[-0.38306,50.80993],[-0.38514,50.80987],[-0.38407,50.81081],[-0.38376,50.81143],[-0.38251,50.81135],[-0.38168,50.81194],[-0.37924,50.81193],[-0.37903,50.81147]]]}},{"type":"Feature","properties":{"id":"E01031809","name":"E01031809","parent":"E07000229","type":"LSOA","pop":1901,"r":238,"ff":84,"ffd":4418.7,"ffs":0.4719,"g":58,"co":0,"mo":0,"sa":0,"ic":0},"geometry":{"type":"Polygon","coordinates":[[[-0.38407,50.81081],[-0.38514,50.80987],[-0.38306,50.80993],[-0.38286,50.80952],[-0.38312,50.80935],[-0.38297,50.809],[-0.38299,50.80923],[-0.38211,50.80934],[-0.38202,50.80875],[-0.38113,50.80882],[-0.381,50.80849],[-0.38043,50.80841],[-0.38013,50.80817],[-0.37831,50.80852],[-0.37825,50.80801],[-0.38841,50.80678],[-0.38872,50.80848],[-0.3905,50.80839],[-0.39093,50.81017],[-0.39028,50.8102],[-0.39052,50.81096],[-0.39005,50.81099],[-0.38989,50.81055],[-0.38901,50.81076],[-0.38799,50.81045],[-0.38768,50.80968],[-0.38728,50.80971],[-0.38748,50.8105],[-0.38509,50.81071],[-0.38509,50.81147],[-0.38407,50.81081]]]}},{"type":"Feature","properties":{"id":"E01031810","name":"E01031810","parent":"E07000229","type":"LSOA","pop":1916,"r":241,"ff":86,"ffd":4488.5,"ffs":0.4751,"g":58,"co":0,"mo":0,"sa":0,"ic":0},"geometry":{"type":"Polygon","coordinates":[[[-0.38318,50.81676],[-0.38295,50.81525],[-0.38363,50.81529],[-0.38392,50.81603],[-0.38485,50.81608],[-0.38565,50.81676],[-0.38677,50.81675],[-0.3876,50.81646],[-0.38768,50.81679],[-0.38831,50.81676],[-0.38818,50.81581],[-0.38944,50.81574],[-0.3895,50.81543],[-0.39009,50.81536],[-0.39076,50.81615],[-0.39136,50.81601],[-0.39149,50.8166],[-0.39271,50.81655],[-0.39267,50.81614],[-0.39335,50.81652],[-0.39413,50.81648],[-0.39453,50.81829],[-0.38727,50.81855],[-0.38687,50.81829],[-0.38363,50.81807],[-0.38328,50.81772],[-0.38318,50.81676]]]}},{"type":"Feature","properties":{"id":"E01031811","name":"E01031811","parent":"E07000229","type":"LSOA","pop":1620,"r":239,"ff":87,"ffd":5370.4,"ffs":0.4888,"g":59,"co":0,"mo":0,"sa":0,"ic":0},"geometry":{"type":"Polygon","coordinates":[[[-0.38565,50.81676],[-0.38485,50.81608],[-0.38392,50.81603],[-0.38363,50.81529],[-0.38295,50.81525],[-0.38262,50.81312],[-0.37951,50.8133],[-0.37924,50.81193],[-0.38168,50.81194],[-0.38251,50.81135],[-0.38376,50.81143],[-0.38407,50.81081],[-0.38509,50.81147],[-0.38442,50.81184],[-0.38473,50.81203],[-0.38441,50.81268],[-0.38514,50.81311],[-0.38699,50.81299],[-0.38677,50.81366],[-0.38589,50.81379],[-0.38625,50.81408],[-0.38666,50.81398],[-0.38694,50.8145],[-0.38765,50.81466],[-0.38818,50.81581],[-0.38831,50.81676],[-0.38768,50.81679],[-0.3876,50.81646],[-0.38677,50.81675],[-0.38565,50.81676]]]}},{"type":"Feature","properties":{"id":"E01031812","name":"E01031812","parent":"E07000229","type":"LSOA","pop":1659,"r":241,"ff":85,"ffd":5123.6,"ffs":0.4696,"g":58,"co":0,"mo":0,"sa":0,"ic":0},"geometry":{"type":"Polygon","coordinates":[[[-0.39453,50.81829],[-0.39362,50.81412],[-0.39092,50.81409],[-0.39028,50.8102],[-0.39093,50.81017],[-0.3905,50.80839],[-0.39215,50.80929],[-0.39267,50.80924],[-0.39295,50.8106],[-0.3945,50.81096],[-0.39416,50.81141],[-0.39674,50.81108],[-0.39712,50.81282],[-0.39766,50.81257],[-0.39798,50.81287],[-0.39744,50.81316],[-0.39728,50.81382],[-0.39819,50.81374],[-0.39857,50.81424],[-0.39782,50.81468],[-0.39723,50.81549],[-0.39648,50.81535],[-0.39527,50.81572],[-0.39568,50.81639],[-0.39631,50.81638],[-0.39637,50.81673],[-0.39709,50.81681],[-0.39671,50.81788],[-0.3986,50.81781],[-0.39843,50.81806],[-0.39453,50.81829]]]}},{"type":"Feature","properties":{"id":"E01031813","name":"E01031813","parent":"E07000229","type":"LSOA","pop":1797,"r":232,"ff":84,"ffd":4674.5,"ffs":0.48,"g":55,"co":0,"mo":0,"sa":0,"ic":0},"geometry":{"type":"Polygon","coordinates":[[[-0.40558,50.81551],[-0.40541,50.8147],[-0.40411,50.81476],[-0.404,50.81406],[-0.40277,50.81419],[-0.40289,50.81473],[-0.40136,50.81486],[-0.39996,50.81466],[-0.39888,50.81521],[-0.39782,50.81468],[-0.39857,50.81424],[-0.39819,50.81374],[-0.39728,50.81382],[-0.39744,50.81316],[-0.39798,50.81287],[-0.39766,50.81257],[-0.39712,50.81282],[-0.39694,50.8121],[-0.39779,50.81207],[-0.39787,50.81143],[-0.39895,50.81135],[-0.3994,50.81217],[-0.39869,50.81221],[-0.39886,50.81274],[-0.39949,50.8127],[-0.39991,50.81367],[-0.40033,50.81371],[-0.40009,50.81278],[-0.40063,50.81262],[-0.40013,50.81069],[-0.40077,50.81051],[-0.40065,50.8102],[-0.40142,50.81056],[-0.40204,50.81038],[-0.40276,50.81046],[-0.40299,50.80998],[-0.40385,50.80989],[-0.4043,50.81038],[-0.40452,50.81245],[-0.40475,50.81304],[-0.40577,50.81308],[-0.40606,50.81196],[-0.40721,50.81185],[-0.40731,50.81218],[-0.40782,50.81215],[-0.408,50.81294],[-0.40901,50.81294],[-0.40954,50.81525],[-0.40558,50.81551]]]}},{"type":"Feature","properties":{"id":"E01031814","name":"E01031814","parent":"E07000229","type":"LSOA","pop":1768,"r":243,"ff":87,"ffd":4920.8,"ffs":0.4703,"g":56,"co":0,"mo":0,"sa":0,"ic":0},"geometry":{"type":"Polygon","coordinates":[[[-0.39991,50.81367],[-0.39949,50.8127],[-0.39886,50.81274],[-0.39869,50.81221],[-0.3994,50.81217],[-0.39852,50.81028],[-0.39859,50.8099],[-0.39914,50.80983],[-0.39924,50.8094],[-0.39986,50.80943],[-0.39967,50.80874],[-0.39864,50.80887],[-0.39848,50.80812],[-0.39898,50.80779],[-0.39972,50.80789],[-0.39978,50.80743],[-0.39884,50.8064],[-0.38848,50.80724],[-0.38841,50.80678],[-0.39995,50.80573],[-0.40581,50.80564],[-0.40694,50.80831],[-0.40782,50.81215],[-0.40731,50.81218],[-0.40721,50.81185],[-0.40606,50.81196],[-0.40577,50.81308],[-0.40475,50.81304],[-0.40452,50.81245],[-0.4043,50.81038],[-0.40385,50.80989],[-0.40299,50.80998],[-0.40276,50.81046],[-0.40204,50.81038],[-0.40142,50.81056],[-0.40065,50.8102],[-0.40077,50.81051],[-0.40013,50.81069],[-0.40063,50.81262],[-0.40009,50.81278],[-0.40033,50.81371],[-0.39991,50.81367]]]}},{"type":"Feature","properties":{"id":"E01031815","name":"E01031815","parent":"E07000229","type":"LSOA","pop":1571,"r":241,"ff":85,"ffd":5410.6,"ffs":0.4696,"g":58,"co":0,"mo":0,"sa":0,"ic":0},"geometry":{"type":"Polygon","coordinates":[[[-0.39694,50.8121],[-0.39674,50.81108],[-0.39416,50.81141],[-0.3945,50.81096],[-0.39295,50.8106],[-0.39267,50.80924],[-0.39215,50.80929],[-0.3905,50.80839],[-0.38872,50.80848],[-0.38848,50.80724],[-0.39884,50.8064],[-0.39978,50.80743],[-0.39972,50.80789],[-0.39898,50.80779],[-0.39848,50.80812],[-0.39864,50.80887],[-0.39967,50.80874],[-0.39986,50.80943],[-0.39924,50.8094],[-0.39914,50.80983],[-0.39859,50.8099],[-0.39852,50.81028],[-0.39895,50.81135],[-0.39787,50.81143],[-0.39779,50.81207],[-0.39694,50.8121]]]}},{"type":"Feature","properties":{"id":"E01031816","name":"E01031816","parent":"E07000229","type":"LSOA","pop":1661,"r":244,"ff":87,"ffd":5237.8,"ffs":0.4703,"g":57,"co":0,"mo":0,"sa":0,"ic":0},"geometry":{"type":"Polygon","coordinates":[[[-0.39843,50.81806],[-0.3986,50.81781],[-0.39671,50.81788],[-0.39709,50.81681],[-0.39637,50.81673],[-0.39631,50.81638],[-0.39568,50.81639],[-0.39527,50.81572],[-0.39648,50.81535],[-0.39723,50.81549],[-0.39782,50.81468],[-0.39888,50.81521],[-0.39996,50.81466],[-0.40136,50.81486],[-0.40289,50.81473],[-0.40277,50.81419],[-0.404,50.81406],[-0.40411,50.81476],[-0.40541,50.8147],[-0.40558,50.81551],[-0.40954,50.81525],[-0.41003,50.81743],[-0.39843,50.81806]]]}},{"type":"Feature","properties":{"id":"E01031817","name":"E01031817","parent":"E07000229","type":"LSOA","pop":1820,"r":254,"ff":91,"ffd":5000.0,"ffs":0.4643,"g":57,"co":0,"mo":0,"sa":0,"ic":0},"geometry":{"type":"Polygon","coordinates":[[[-0.427,50.83053],[-0.42569,50.82988],[-0.42612,50.82981],[-0.42614,50.83006],[-0.42674,50.83006],[-0.42771,50.82926],[-0.42718,50.82872],[-0.42768,50.82706],[-0.42616,50.82684],[-0.42569,50.82651],[-0.42086,50.82876],[-0.41878,50.82847],[-0.41896,50.82796],[-0.41816,50.82754],[-0.41827,50.8272],[-0.4203,50.82669],[-0.42004,50.82625],[-0.42248,50.8254],[-0.42709,50.82299],[-0.43013,50.82248],[-0.42989,50.82433],[-0.43158,50.82661],[-0.43132,50.82717],[-0.43092,50.82743],[-0.43122,50.82921],[-0.43044,50.82908],[-0.43041,50.82884],[-0.43004,50.82916],[-0.42899,50.82915],[-0.42885,50.82992],[-0.42988,50.83004],[-0.42846,50.83195],[-0.42794,50.83176],[-0.42813,50.8315],[-0.42689,50.83106],[-0.427,50.83053]]]}},{"type":"Feature","properties":{"id":"E01031818","name":"E01031818","parent":"E07000229","type":"LSOA","pop":2028,"r":252,"ff":91,"ffd":4487.2,"ffs":0.4691,"g":57,"co":0,"mo":0,"sa":0,"ic":0},"geometry":{"type":"Polygon","coordinates":[[[-0.41814,50.83578],[-0.41812,50.83546],[-0.41637,50.83552],[-0.4163,50.83494],[-0.41707,50.83486],[-0.41669,50.83337],[-0.41976,50.83304],[-0.41981,50.83275],[-0.42139,50.83277],[-0.42166,50.83249],[-0.42148,50.83016],[-0.42088,50.82994],[-0.41799,50.82962],[-0.41246,50.83002],[-0.41191,50.82767],[-0.42004,50.82625],[-0.4203,50.82669],[-0.41827,50.8272],[-0.41816,50.82754],[-0.41896,50.82796],[-0.41878,50.82847],[-0.42086,50.82876],[-0.42204,50.82809],[-0.42288,50.82912],[-0.42351,50.82864],[-0.424,50.82891],[-0.42415,50.83003],[-0.4237,50.83072],[-0.42385,50.83122],[-0.42513,50.83183],[-0.42503,50.83435],[-0.42196,50.83457],[-0.42195,50.83425],[-0.42136,50.8344],[-0.41954,50.83554],[-0.41814,50.83578]]]}},{"type":"Feature","properties":{"id":"E01031820","name":"E01031820","parent":"E07000229","type":"LSOA","pop":1689,"r":239,"ff":85,"ffd":5032.6,"ffs":0.4749,"g":58,"co":2,"mo":0,"sa":0,"ic":0},"geometry":{"type":"Polygon","coordinates":[[[-0.38547,50.85641],[-0.38433,50.85602],[-0.38376,50.85124],[-0.38276,50.84881],[-0.38389,50.84284],[-0.38517,50.84251],[-0.38689,50.84277],[-0.38772,50.84184],[-0.38971,50.84092],[-0.38978,50.84321],[-0.39285,50.84336],[-0.39382,50.84278],[-0.39474,50.84267],[-0.39504,50.84356],[-0.39551,50.84388],[-0.39613,50.8438],[-0.39631,50.84422],[-0.39556,50.84447],[-0.39546,50.84523],[-0.39491,50.84475],[-0.39426,50.84482],[-0.394,50.84548],[-0.39498,50.84591],[-0.39566,50.84573],[-0.3967,50.84708],[-0.39575,50.84755],[-0.39674,50.85001],[-0.39733,50.84941],[-0.39796,50.84978],[-0.39881,50.84977],[-0.39962,50.85204],[-0.39882,50.85274],[-0.39959,50.85442],[-0.40036,50.85421],[-0.40147,50.8564],[-0.40186,50.85631],[-0.40224,50.85678],[-0.39676,50.85814],[-0.39535,50.85911],[-0.39246,50.85965],[-0.38879,50.85955],[-0.38804,50.85822],[-0.38547,50.85641]]]}},{"type":"Feature","properties":{"id":"E01031821","name":"E01031821","parent":"E07000229","type":"LSOA","pop":1779,"r":240,"ff":87,"ffd":4890.4,"ffs":0.4833,"g":58,"co":2,"mo":0,"sa":0,"ic":0},"geometry":{"type":"Polygon","coordinates":[[[-0.40224,50.85678],[-0.40186,50.85631],[-0.40147,50.8564],[-0.40036,50.85421],[-0.39959,50.85442],[-0.39882,50.85274],[-0.39962,50.85204],[-0.39881,50.84977],[-0.39796,50.84978],[-0.39733,50.84941],[-0.39674,50.85001],[-0.39575,50.84755],[-0.3967,50.84708],[-0.39566,50.84573],[-0.39498,50.84591],[-0.394,50.84548],[-0.39426,50.84482],[-0.39491,50.84475],[-0.39546,50.84523],[-0.39556,50.84447],[-0.39631,50.84422],[-0.39613,50.8438],[-0.39551,50.84388],[-0.39504,50.84356],[-0.39474,50.84267],[-0.39382,50.84278],[-0.39356,50.84094],[-0.39292,50.84095],[-0.39258,50.8402],[-0.39303,50.83987],[-0.39286,50.83956],[-0.39146,50.83916],[-0.39215,50.83877],[-0.39189,50.83867],[-0.39265,50.83854],[-0.39289,50.8388],[-0.39595,50.83847],[-0.3983,50.83867],[-0.39891,50.83899],[-0.39947,50.84024],[-0.39887,50.84205],[-0.39791,50.84208],[-0.39797,50.84254],[-0.39763,50.84258],[-0.39791,50.84334],[-0.39862,50.84326],[-0.39901,50.84499],[-0.40197,50.84871],[-0.40544,50.85462],[-0.40332,50.85648],[-0.40224,50.85678]]]}},{"type":"Feature","properties":{"id":"E01031822","name":"E01031822","parent":"E07000229","type":"LSOA","pop":1570,"r":251,"ff":90,"ffd":5732.5,"ffs":0.4762,"g":60,"co":2,"mo":0,"sa":0,"ic":0},"geometry":{"type":"Polygon","coordinates":[[[-0.38971,50.84092],[-0.3891,50.83814],[-0.38865,50.83801],[-0.38892,50.83778],[-0.38847,50.83751],[-0.38851,50.83705],[-0.38601,50.83595],[-0.38551,50.83625],[-0.3846,50.83555],[-0.38405,50.83463],[-0.3846,50.83447],[-0.3842,50.83395],[-0.38461,50.83366],[-0.38415,50.83326],[-0.38511,50.8325],[-0.38449,50.83206],[-0.38349,50.83212],[-0.38357,50.83178],[-0.3844,50.83164],[-0.3844,50.83127],[-0.38339,50.83046],[-0.3866,50.83052],[-0.38607,50.83144],[-0.38722,50.83255],[-0.38856,50.83209],[-0.38906,50.83241],[-0.38905,50.8332],[-0.3896,50.83381],[-0.39,50.83342],[-0.39086,50.83329],[-0.39099,50.83184],[-0.39017,50.83154],[-0.39015,50.83106],[-0.3912,50.831],[-0.39153,50.82935],[-0.39215,50.82934],[-0.39183,50.83169],[-0.39156,50.83738],[-0.39265,50.83854],[-0.39189,50.83867],[-0.39215,50.83877],[-0.39146,50.83916],[-0.39286,50.83956],[-0.39303,50.83987],[-0.39258,50.8402],[-0.39292,50.84095],[-0.39356,50.84094],[-0.39382,50.84278],[-0.39285,50.84336],[-0.38978,50.84321],[-0.38971,50.84092]]]}},{"type":"Feature","properties":{"id":"E01031823","name":"E01031823","parent":"E07000229","type":"LSOA","pop":1565,"r":237,"ff":83,"ffd":5303.5,"ffs":0.4743,"g":60,"co":2,"mo":0,"sa":0,"ic":0},"geometry":{"type":"Polygon","coordinates":[[[-0.37884,50.86263],[-0.37787,50.86147],[-0.37512,50.86145],[-0.37126,50.86077],[-0.36745,50.86053],[-0.36805,50.85831],[-0.36712,50.85624],[-0.369,50.85528],[-0.36723,50.85181],[-0.36671,50.84866],[-0.36546,50.84694],[-0.36209,50.84689],[-0.36207,50.84654],[-0.36025,50.84625],[-0.35852,50.84353],[-0.35951,50.84236],[-0.35963,50.84099],[-0.35937,50.83968],[-0.35973,50.83824],[-0.35934,50.83796],[-0.35956,50.83665],[-0.35914,50.83559],[-0.36546,50.83432],[-0.37163,50.83398],[-0.37487,50.83336],[-0.38065,50.83288],[-0.38095,50.83242],[-0.3828,50.8327],[-0.38415,50.83326],[-0.38461,50.83366],[-0.3842,50.83395],[-0.3846,50.83447],[-0.38405,50.83463],[-0.3846,50.83555],[-0.38551,50.83625],[-0.38601,50.83595],[-0.38851,50.83705],[-0.38847,50.83751],[-0.38892,50.83778],[-0.38865,50.83801],[-0.3891,50.83814],[-0.38971,50.84092],[-0.38772,50.84184],[-0.38689,50.84277],[-0.38517,50.84251],[-0.38389,50.84284],[-0.38276,50.84881],[-0.38376,50.85124],[-0.38433,50.85602],[-0.38547,50.85641],[-0.38804,50.85822],[-0.38879,50.85955],[-0.38824,50.85953],[-0.38265,50.86278],[-0.38104,50.86325],[-0.37884,50.86263]]]}},{"type":"Feature","properties":{"id":"E01031824","name":"E01031824","parent":"E07000229","type":"LSOA","pop":1324,"r":251,"ff":90,"ffd":6797.6,"ffs":0.4762,"g":60,"co":0,"mo":0,"sa":0,"ic":0},"geometry":{"type":"Polygon","coordinates":[[[-0.38906,50.83241],[-0.38856,50.83209],[-0.38722,50.83255],[-0.38607,50.83144],[-0.3866,50.83052],[-0.38339,50.83046],[-0.3844,50.83127],[-0.3844,50.83164],[-0.38357,50.83178],[-0.38349,50.83212],[-0.38449,50.83206],[-0.38511,50.8325],[-0.38415,50.83326],[-0.3828,50.8327],[-0.38095,50.83242],[-0.37642,50.82959],[-0.3803,50.82936],[-0.38029,50.82884],[-0.38169,50.82874],[-0.38162,50.82846],[-0.38226,50.82842],[-0.38295,50.82879],[-0.38348,50.82845],[-0.38389,50.82879],[-0.38465,50.82858],[-0.38465,50.82879],[-0.38522,50.82879],[-0.38583,50.82837],[-0.39042,50.82836],[-0.39042,50.8289],[-0.39221,50.82906],[-0.39215,50.82934],[-0.39153,50.82935],[-0.3912,50.831],[-0.39015,50.83106],[-0.39017,50.83154],[-0.39099,50.83184],[-0.39086,50.83329],[-0.39,50.83342],[-0.3896,50.83381],[-0.38905,50.8332],[-0.38906,50.83241]]]}},{"type":"Feature","properties":{"id":"E01031825","name":"E01031825","parent":"E07000229","type":"LSOA","pop":1606,"r":247,"ff":90,"ffd":5604.0,"ffs":0.4762,"g":57,"co":0,"mo":0,"sa":0,"ic":0},"geometry":{"type":"Polygon","coordinates":[[[-0.3983,50.83867],[-0.39595,50.83847],[-0.39289,50.8388],[-0.39156,50.83738],[-0.39161,50.83661],[-0.39223,50.83661],[-0.39279,50.83597],[-0.39446,50.83594],[-0.39436,50.83533],[-0.39371,50.83514],[-0.39499,50.83387],[-0.39551,50.83421],[-0.39681,50.83413],[-0.39673,50.83356],[-0.39721,50.8332],[-0.39672,50.83311],[-0.39655,50.83253],[-0.39748,50.83259],[-0.39777,50.8319],[-0.39843,50.83194],[-0.39837,50.8316],[-0.39899,50.83136],[-0.39908,50.83176],[-0.39879,50.83242],[-0.39941,50.8334],[-0.39986,50.83336],[-0.39994,50.83423],[-0.40077,50.83468],[-0.40264,50.83473],[-0.40339,50.83519],[-0.40403,50.83611],[-0.40348,50.83641],[-0.40327,50.83799],[-0.4022,50.8383],[-0.4022,50.83869],[-0.40273,50.83888],[-0.40095,50.83937],[-0.40108,50.83996],[-0.39947,50.84024],[-0.39891,50.83899],[-0.3983,50.83867]]]}},{"type":"Feature","properties":{"id":"E01031826","name":"E01031826","parent":"E07000229","type":"LSOA","pop":1440,"r":250,"ff":91,"ffd":6319.4,"ffs":0.474,"g":57,"co":0,"mo":0,"sa":0,"ic":0},"geometry":{"type":"Polygon","coordinates":[[[-0.40588,50.83652],[-0.40563,50.83607],[-0.40403,50.83611],[-0.40339,50.83519],[-0.40264,50.83473],[-0.40077,50.83468],[-0.39994,50.83423],[-0.39986,50.83336],[-0.39941,50.8334],[-0.39879,50.83242],[-0.39908,50.83176],[-0.39964,50.83176],[-0.3996,50.83241],[-0.3999,50.83242],[-0.40028,50.83162],[-0.40184,50.83163],[-0.4019,50.83082],[-0.40033,50.83085],[-0.40021,50.83025],[-0.39973,50.83008],[-0.40256,50.82986],[-0.40287,50.83038],[-0.40357,50.82976],[-0.40425,50.83002],[-0.40399,50.83015],[-0.40448,50.83062],[-0.40508,50.83052],[-0.40504,50.83011],[-0.40544,50.82999],[-0.4056,50.83108],[-0.40519,50.83107],[-0.40512,50.8317],[-0.40584,50.83192],[-0.40585,50.83543],[-0.40842,50.8356],[-0.40839,50.836],[-0.40893,50.83596],[-0.40838,50.83609],[-0.40844,50.83656],[-0.40922,50.83673],[-0.40938,50.83756],[-0.40847,50.83807],[-0.40819,50.83719],[-0.4072,50.83706],[-0.407,50.83657],[-0.40588,50.83652]]]}},{"type":"Feature","properties":{"id":"E01031827","name":"E01031827","parent":"E07000229","type":"LSOA","pop":1500,"r":247,"ff":90,"ffd":6000.0,"ffs":0.4762,"g":57,"co":0,"mo":0,"sa":0,"ic":0},"geometry":{"type":"Polygon","coordinates":[[[-0.39161,50.83661],[-0.392,50.83028],[-0.40415,50.82923],[-0.40424,50.8296],[-0.4051,50.82954],[-0.40544,50.82999],[-0.40504,50.83011],[-0.40508,50.83052],[-0.40448,50.83062],[-0.40399,50.83015],[-0.40425,50.83002],[-0.40357,50.82976],[-0.40287,50.83038],[-0.40256,50.82986],[-0.39973,50.83008],[-0.40021,50.83025],[-0.40033,50.83085],[-0.4019,50.83082],[-0.40184,50.83163],[-0.40028,50.83162],[-0.3999,50.83242],[-0.3996,50.83241],[-0.39964,50.83176],[-0.39908,50.83176],[-0.39899,50.83136],[-0.39837,50.8316],[-0.39843,50.83194],[-0.39777,50.8319],[-0.39748,50.83259],[-0.39655,50.83253],[-0.39672,50.83311],[-0.39721,50.8332],[-0.39673,50.83356],[-0.39681,50.83413],[-0.39551,50.83421],[-0.39499,50.83387],[-0.39371,50.83514],[-0.39436,50.83533],[-0.39446,50.83594],[-0.39279,50.83597],[-0.39223,50.83661],[-0.39161,50.83661]]]}},{"type":"Feature","properties":{"id":"E01031828","name":"E01031828","parent":"E07000229","type":"LSOA","pop":1269,"r":240,"ff":88,"ffd":6934.6,"ffs":0.4835,"g":57,"co":0,"mo":0,"sa":0,"ic":0},"geometry":{"type":"Polygon","coordinates":[[[-0.41058,50.85354],[-0.40928,50.85226],[-0.40728,50.85283],[-0.4069,50.85358],[-0.40544,50.85462],[-0.40197,50.84871],[-0.39901,50.84499],[-0.39862,50.84326],[-0.39791,50.84334],[-0.39763,50.84258],[-0.39797,50.84254],[-0.39791,50.84208],[-0.39887,50.84205],[-0.39947,50.84024],[-0.40108,50.83996],[-0.40207,50.84027],[-0.4015,50.84064],[-0.40239,50.84071],[-0.40237,50.84112],[-0.40501,50.84098],[-0.40552,50.84134],[-0.40548,50.84185],[-0.40609,50.84224],[-0.40557,50.84271],[-0.40552,50.84345],[-0.40384,50.84392],[-0.40365,50.84446],[-0.40455,50.84481],[-0.40442,50.84578],[-0.40248,50.8468],[-0.40283,50.84723],[-0.40364,50.84731],[-0.4047,50.84665],[-0.4051,50.84618],[-0.40689,50.84653],[-0.4083,50.84629],[-0.40898,50.84648],[-0.40965,50.84573],[-0.41116,50.84602],[-0.41535,50.84579],[-0.41609,50.84681],[-0.4179,50.84537],[-0.41774,50.84591],[-0.42214,50.84608],[-0.42302,50.84812],[-0.42196,50.85085],[-0.42288,50.85177],[-0.42415,50.85486],[-0.4243,50.85693],[-0.42279,50.86023],[-0.42005,50.86008],[-0.41677,50.85708],[-0.41539,50.85668],[-0.41607,50.85634],[-0.41559,50.85518],[-0.41172,50.85405],[-0.41058,50.85354]]]}},{"type":"Feature","properties":{"id":"E01031829","name":"E01031829","parent":"E07000229","type":"LSOA","pop":1593,"r":252,"ff":92,"ffd":5775.3,"ffs":0.4742,"g":57,"co":0,"mo":0,"sa":0,"ic":0},"geometry":{"type":"Polygon","coordinates":[[[-0.40248,50.8468],[-0.40442,50.84578],[-0.40455,50.84481],[-0.40365,50.84446],[-0.40384,50.84392],[-0.40552,50.84345],[-0.40557,50.84271],[-0.40609,50.84224],[-0.40548,50.84185],[-0.40552,50.84134],[-0.40501,50.84098],[-0.40237,50.84112],[-0.40239,50.84071],[-0.40331,50.84066],[-0.40275,50.83948],[-0.40325,50.83921],[-0.40371,50.83939],[-0.40332,50.83982],[-0.40842,50.83981],[-0.40919,50.83944],[-0.41099,50.83985],[-0.41173,50.83969],[-0.41199,50.83835],[-0.41134,50.83803],[-0.41152,50.83777],[-0.41341,50.83795],[-0.41339,50.8387],[-0.41505,50.83874],[-0.41483,50.84101],[-0.41967,50.84119],[-0.4223,50.84068],[-0.42214,50.84608],[-0.41774,50.84591],[-0.4179,50.84537],[-0.41609,50.84681],[-0.41535,50.84579],[-0.41116,50.84602],[-0.40965,50.84573],[-0.40898,50.84648],[-0.4083,50.84629],[-0.40689,50.84653],[-0.4051,50.84618],[-0.4047,50.84665],[-0.40364,50.84731],[-0.40283,50.84723],[-0.40248,50.8468]]]}},{"type":"Feature","properties":{"id":"E01031830","name":"E01031830","parent":"E07000229","type":"LSOA","pop":1555,"r":249,"ff":91,"ffd":5852.1,"ffs":0.4764,"g":57,"co":0,"mo":0,"sa":0,"ic":0},"geometry":{"type":"Polygon","coordinates":[[[-0.40095,50.83937],[-0.40273,50.83888],[-0.4022,50.83869],[-0.4022,50.8383],[-0.40327,50.83799],[-0.40348,50.83641],[-0.40403,50.83611],[-0.40563,50.83607],[-0.40588,50.83652],[-0.407,50.83657],[-0.4072,50.83706],[-0.40819,50.83719],[-0.40847,50.83807],[-0.40938,50.83756],[-0.40922,50.83673],[-0.40844,50.83656],[-0.40838,50.83609],[-0.40893,50.83596],[-0.40839,50.836],[-0.40842,50.8356],[-0.41241,50.83569],[-0.41134,50.83803],[-0.41199,50.83835],[-0.41173,50.83969],[-0.41099,50.83985],[-0.40919,50.83944],[-0.40842,50.83981],[-0.40332,50.83982],[-0.40371,50.83939],[-0.40325,50.83921],[-0.40275,50.83948],[-0.40331,50.84066],[-0.40239,50.84071],[-0.4015,50.84064],[-0.40207,50.84027],[-0.40108,50.83996],[-0.40095,50.83937]]]}},{"type":"Feature","properties":{"id":"E01031831","name":"E01031831","parent":"E07000229","type":"LSOA","pop":1701,"r":238,"ff":86,"ffd":5055.8,"ffs":0.4914,"g":61,"co":0,"mo":0,"sa":0,"ic":0},"geometry":{"type":"Polygon","coordinates":[[[-0.355,50.82033],[-0.35445,50.8198],[-0.35509,50.81894],[-0.35578,50.8191],[-0.3555,50.82028],[-0.35888,50.81996],[-0.35712,50.8189],[-0.35794,50.8183],[-0.35781,50.81805],[-0.3568,50.81779],[-0.35635,50.81809],[-0.35555,50.81791],[-0.35543,50.81719],[-0.35449,50.81706],[-0.35443,50.8168],[-0.36162,50.81578],[-0.36339,50.8192],[-0.36261,50.81935],[-0.36296,50.8198],[-0.3639,50.81964],[-0.36403,50.82006],[-0.35461,50.82167],[-0.35411,50.82049],[-0.355,50.82033]]]}},{"type":"Feature","properties":{"id":"E01031832","name":"E01031832","parent":"E07000229","type":"LSOA","pop":1585,"r":239,"ff":85,"ffd":5362.8,"ffs":0.4857,"g":62,"co":0,"mo":0,"sa":0,"ic":0},"geometry":{"type":"Polygon","coordinates":[[[-0.33418,50.81907],[-0.33254,50.81746],[-0.33604,50.81622],[-0.33896,50.81552],[-0.33917,50.81594],[-0.34827,50.81396],[-0.34833,50.81429],[-0.35086,50.81407],[-0.35107,50.81513],[-0.35004,50.81538],[-0.34961,50.81679],[-0.34698,50.81666],[-0.3471,50.81702],[-0.34676,50.817],[-0.34714,50.81733],[-0.34638,50.81755],[-0.34664,50.81876],[-0.34556,50.81873],[-0.34571,50.82005],[-0.34385,50.82086],[-0.34249,50.82244],[-0.34091,50.82274],[-0.34077,50.82238],[-0.33874,50.82206],[-0.33418,50.81907]]]}},{"type":"Feature","properties":{"id":"E01031833","name":"E01031833","parent":"E07000229","type":"LSOA","pop":1590,"r":237,"ff":86,"ffd":5408.8,"ffs":0.4886,"g":59,"co":0,"mo":0,"sa":0,"ic":0},"geometry":{"type":"Polygon","coordinates":[[[-0.35194,50.81805],[-0.351,50.81708],[-0.3471,50.81702],[-0.34698,50.81666],[-0.34961,50.81679],[-0.35004,50.81538],[-0.35107,50.81513],[-0.35086,50.81407],[-0.35157,50.81364],[-0.35159,50.81506],[-0.35221,50.81458],[-0.35255,50.81526],[-0.35299,50.8152],[-0.35293,50.81297],[-0.35475,50.81295],[-0.3549,50.81463],[-0.35574,50.81435],[-0.35603,50.81475],[-0.35652,50.81471],[-0.35663,50.815],[-0.35588,50.81528],[-0.35618,50.81612],[-0.35677,50.81628],[-0.35772,50.81603],[-0.35786,50.81639],[-0.35443,50.8168],[-0.35449,50.81706],[-0.35496,50.81707],[-0.35524,50.81817],[-0.35303,50.81821],[-0.35323,50.81876],[-0.3526,50.81878],[-0.35289,50.81903],[-0.35208,50.81883],[-0.35184,50.81846],[-0.35194,50.81805]]]}},{"type":"Feature","properties":{"id":"E01031834","name":"E01031834","parent":"E07000229","type":"LSOA","pop":1636,"r":236,"ff":85,"ffd":5195.6,"ffs":0.4885,"g":60,"co":0,"mo":0,"sa":0,"ic":0},"geometry":{"type":"Polygon","coordinates":[[[-0.34389,50.82272],[-0.34287,50.82231],[-0.34249,50.82244],[-0.34385,50.82086],[-0.34571,50.82005],[-0.34556,50.81873],[-0.34664,50.81876],[-0.34638,50.81755],[-0.34714,50.81733],[-0.34676,50.817],[-0.351,50.81708],[-0.35194,50.81805],[-0.35184,50.81846],[-0.35208,50.81883],[-0.35289,50.81903],[-0.3526,50.81878],[-0.35323,50.81876],[-0.35303,50.81821],[-0.35524,50.81817],[-0.35496,50.81707],[-0.35543,50.81719],[-0.35555,50.81791],[-0.35635,50.81809],[-0.3568,50.81779],[-0.35781,50.81805],[-0.35794,50.8183],[-0.35712,50.8189],[-0.35888,50.81996],[-0.3555,50.82028],[-0.35578,50.8191],[-0.35509,50.81894],[-0.35445,50.8198],[-0.355,50.82033],[-0.35411,50.82049],[-0.35461,50.82167],[-0.34418,50.82335],[-0.34389,50.82272]]]}},{"type":"Feature","properties":{"id":"E01031835","name":"E01031835","parent":"E07000229","type":"LSOA","pop":2044,"r":237,"ff":86,"ffd":4207.4,"ffs":0.4886,"g":59,"co":0,"mo":0,"sa":0,"ic":0},"geometry":{"type":"Polygon","coordinates":[[[-0.35786,50.81639],[-0.35772,50.81603],[-0.35677,50.81628],[-0.35618,50.81612],[-0.35588,50.81528],[-0.35663,50.815],[-0.35652,50.81471],[-0.35603,50.81475],[-0.35574,50.81435],[-0.3549,50.81463],[-0.35475,50.81295],[-0.35293,50.81297],[-0.35299,50.8152],[-0.35255,50.81526],[-0.35221,50.81458],[-0.35159,50.81506],[-0.35157,50.81364],[-0.35086,50.81407],[-0.34833,50.81429],[-0.34827,50.81396],[-0.33917,50.81594],[-0.33896,50.81552],[-0.34371,50.81438],[-0.34853,50.8136],[-0.35234,50.81263],[-0.35728,50.81202],[-0.36004,50.81128],[-0.36052,50.81249],[-0.36159,50.81237],[-0.36272,50.81562],[-0.35786,50.81639]]]}},{"type":"Feature","properties":{"id":"E01031836","name":"E01031836","parent":"E07000229","type":"LSOA","pop":1637,"r":249,"ff":91,"ffd":5558.9,"ffs":0.4764,"g":57,"co":0,"mo":0,"sa":0,"ic":0},"geometry":{"type":"Polygon","coordinates":[[[-0.40299,50.82401],[-0.40315,50.82291],[-0.40159,50.823],[-0.40153,50.8227],[-0.40081,50.82282],[-0.40058,50.82191],[-0.40012,50.82169],[-0.40053,50.8213],[-0.3996,50.8213],[-0.39906,50.82175],[-0.39863,50.82112],[-0.39717,50.82117],[-0.39662,50.81935],[-0.39717,50.81931],[-0.39652,50.819],[-0.397,50.81896],[-0.39686,50.81843],[-0.39636,50.81845],[-0.39633,50.81819],[-0.40504,50.81766],[-0.40554,50.82073],[-0.40475,50.82076],[-0.40496,50.82259],[-0.40489,50.82501],[-0.40451,50.82504],[-0.40458,50.82471],[-0.40416,50.82461],[-0.40417,50.82414],[-0.40299,50.82401]]]}},{"type":"Feature","properties":{"id":"E01031837","name":"E01031837","parent":"E07000229","type":"LSOA","pop":1925,"r":247,"ff":89,"ffd":4623.4,"ffs":0.4759,"g":58,"co":0,"mo":0,"sa":0,"ic":0},"geometry":{"type":"Polygon","coordinates":[[[-0.39163,50.82257],[-0.39069,50.8222],[-0.39005,50.82231],[-0.38992,50.8219],[-0.38931,50.82184],[-0.38924,50.82119],[-0.38972,50.82116],[-0.38974,50.82075],[-0.3892,50.82072],[-0.38917,50.82024],[-0.38821,50.82039],[-0.38866,50.82206],[-0.38798,50.82208],[-0.38766,50.81922],[-0.38727,50.81855],[-0.39633,50.81819],[-0.39636,50.81845],[-0.39686,50.81843],[-0.397,50.81896],[-0.39652,50.819],[-0.39717,50.81931],[-0.39662,50.81935],[-0.39733,50.82179],[-0.39567,50.82185],[-0.39551,50.82132],[-0.39438,50.82111],[-0.39471,50.82084],[-0.39421,50.82042],[-0.39238,50.82077],[-0.39234,50.82065],[-0.39115,50.82106],[-0.39203,50.82213],[-0.39163,50.82257]]]}},{"type":"Feature","properties":{"id":"E01031838","name":"E01031838","parent":"E07000229","type":"LSOA","pop":1597,"r":67,"ff":37,"ffd":2316.8,"ffs":0.5873,"g":3,"co":1,"mo":1,"sa":1,"ic":1},"geometry":{"type":"Polygon","coordinates":[[[-0.3916,50.82549],[-0.39168,50.82376],[-0.3882,50.82382],[-0.38798,50.82208],[-0.38866,50.82206],[-0.38821,50.82039],[-0.38917,50.82024],[-0.3892,50.82072],[-0.38974,50.82075],[-0.38972,50.82116],[-0.38924,50.82119],[-0.38931,50.82184],[-0.38992,50.8219],[-0.39005,50.82231],[-0.39069,50.8222],[-0.39163,50.82257],[-0.39203,50.82213],[-0.39115,50.82106],[-0.39234,50.82065],[-0.39238,50.82077],[-0.39421,50.82042],[-0.39471,50.82084],[-0.39438,50.82111],[-0.39551,50.82132],[-0.39567,50.82185],[-0.39733,50.82179],[-0.39717,50.82117],[-0.39769,50.82105],[-0.39863,50.82112],[-0.39906,50.82175],[-0.3996,50.8213],[-0.40053,50.8213],[-0.40012,50.82169],[-0.40058,50.82191],[-0.40081,50.82282],[-0.40023,50.82291],[-0.40007,50.82333],[-0.39836,50.82351],[-0.39842,50.82389],[-0.39713,50.824],[-0.39746,50.8254],[-0.39803,50.82542],[-0.39665,50.8258],[-0.39685,50.82622],[-0.3956,50.82618],[-0.39549,50.82524],[-0.39392,50.82472],[-0.39244,50.82533],[-0.39212,50.82612],[-0.39155,50.8263],[-0.3916,50.82549]]]}},{"type":"Feature","properties":{"id":"E01031839","name":"E01031839","parent":"E07000229","type":"LSOA","pop":1824,"r":247,"ff":90,"ffd":4934.2,"ffs":0.4762,"g":57,"co":0,"mo":0,"sa":0,"ic":0},"geometry":{"type":"Polygon","coordinates":[[[-0.39221,50.82906],[-0.39226,50.8274],[-0.39155,50.8263],[-0.39212,50.82612],[-0.39244,50.82533],[-0.39392,50.82472],[-0.39549,50.82524],[-0.3956,50.82618],[-0.39685,50.82622],[-0.39665,50.8258],[-0.39803,50.82542],[-0.39868,50.8258],[-0.39864,50.82673],[-0.39779,50.82686],[-0.39778,50.82737],[-0.39971,50.8287],[-0.40016,50.82844],[-0.40158,50.82888],[-0.40135,50.82946],[-0.392,50.83028],[-0.39221,50.82906]]]}},{"type":"Feature","properties":{"id":"E01031840","name":"E01031840","parent":"E07000229","type":"LSOA","pop":1717,"r":250,"ff":91,"ffd":5299.9,"ffs":0.474,"g":57,"co":0,"mo":0,"sa":0,"ic":0},"geometry":{"type":"Polygon","coordinates":[[[-0.40158,50.82888],[-0.40016,50.82844],[-0.39971,50.8287],[-0.39778,50.82737],[-0.39779,50.82686],[-0.39864,50.82673],[-0.39868,50.8258],[-0.39803,50.82542],[-0.39746,50.8254],[-0.39713,50.824],[-0.39842,50.82389],[-0.39836,50.82351],[-0.40007,50.82333],[-0.40023,50.82291],[-0.40153,50.8227],[-0.40159,50.823],[-0.40315,50.82291],[-0.40299,50.82401],[-0.40417,50.82414],[-0.40416,50.82461],[-0.40458,50.82471],[-0.40451,50.82504],[-0.40489,50.82501],[-0.40503,50.82911],[-0.40135,50.82946],[-0.40158,50.82888]]]}},{"type":"Feature","properties":{"id":"E01034826","name":"E01034826","parent":"E07000229","type":"LSOA","pop":2013,"r":244,"ff":89,"ffd":4421.3,"ffs":0.4759,"g":56,"co":0,"mo":0,"sa":0,"ic":0},"geometry":{"type":"Polygon","coordinates":[[[-0.42615,50.83654],[-0.42225,50.83649],[-0.42196,50.83457],[-0.42503,50.83435],[-0.42513,50.83183],[-0.42385,50.83122],[-0.4237,50.83072],[-0.42415,50.83003],[-0.424,50.82891],[-0.42351,50.82864],[-0.42288,50.82912],[-0.42204,50.82809],[-0.42356,50.82762],[-0.42569,50.82651],[-0.42616,50.82684],[-0.42768,50.82706],[-0.42718,50.82872],[-0.42771,50.82926],[-0.42674,50.83006],[-0.42614,50.83006],[-0.42612,50.82981],[-0.42569,50.82988],[-0.427,50.83053],[-0.42689,50.83106],[-0.42813,50.8315],[-0.42794,50.83176],[-0.42846,50.83195],[-0.42988,50.83004],[-0.42885,50.82992],[-0.42899,50.82915],[-0.43004,50.82916],[-0.43041,50.82884],[-0.43044,50.82908],[-0.43122,50.82921],[-0.43104,50.82759],[-0.43251,50.82754],[-0.43214,50.8289],[-0.43274,50.82876],[-0.43314,50.82996],[-0.4317,50.8309],[-0.43198,50.83332],[-0.43087,50.834],[-0.4284,50.83344],[-0.42827,50.83493],[-0.42912,50.83504],[-0.42974,50.83431],[-0.43023,50.83469],[-0.42903,50.83536],[-0.42875,50.836],[-0.42799,50.83616],[-0.42808,50.83677],[-0.42757,50.83687],[-0.42785,50.83697],[-0.42615,50.83654]]]}},{"type":"Feature","properties":{"id":"E01034827","name":"E01034827","parent":"E07000229","type":"LSOA","pop":2282,"r":243,"ff":88,"ffd":3856.3,"ffs":0.4731,"g":56,"co":0,"mo":0,"sa":0,"ic":0},"geometry":{"type":"Polygon","coordinates":[[[-0.42232,50.84031],[-0.42225,50.83649],[-0.42497,50.83641],[-0.42785,50.83697],[-0.42757,50.83687],[-0.42808,50.83677],[-0.42799,50.83616],[-0.42875,50.836],[-0.42903,50.83536],[-0.43023,50.83469],[-0.42974,50.83431],[-0.42912,50.83504],[-0.42827,50.83493],[-0.4284,50.83344],[-0.43087,50.834],[-0.43198,50.83332],[-0.4317,50.8309],[-0.43314,50.82996],[-0.43274,50.82876],[-0.43214,50.8289],[-0.43251,50.82754],[-0.43104,50.82759],[-0.43092,50.82743],[-0.43132,50.82717],[-0.43158,50.82661],[-0.42989,50.82433],[-0.43013,50.82248],[-0.43476,50.82234],[-0.44366,50.82146],[-0.44511,50.82749],[-0.4437,50.83158],[-0.44359,50.83308],[-0.44593,50.83477],[-0.44653,50.83633],[-0.44568,50.83621],[-0.44546,50.83678],[-0.44334,50.83719],[-0.44601,50.83985],[-0.43854,50.84068],[-0.43293,50.83984],[-0.42502,50.83987],[-0.4223,50.84068],[-0.42232,50.84031]]]}},{"type":"Feature","properties":{"id":"E01034828","name":"E01034828","parent":"E07000229","type":"LSOA","pop":1694,"r":252,"ff":91,"ffd":5371.9,"ffs":0.4691,"g":57,"co":0,"mo":0,"sa":0,"ic":0},"geometry":{"type":"Polygon","coordinates":[[[-0.40551,50.81999],[-0.40544,50.81922],[-0.40928,50.81892],[-0.40997,50.81965],[-0.41062,50.8199],[-0.41099,50.81958],[-0.41225,50.81946],[-0.41251,50.82084],[-0.41126,50.82087],[-0.41154,50.82131],[-0.41066,50.82134],[-0.41086,50.82461],[-0.40821,50.82664],[-0.40816,50.82845],[-0.40503,50.82911],[-0.40496,50.82259],[-0.40475,50.82076],[-0.40554,50.82073],[-0.40551,50.81999]]]}},{"type":"Feature","properties":{"id":"E01034829","name":"E01034829","parent":"E07000229","type":"LSOA","pop":1392,"r":251,"ff":90,"ffd":6465.5,"ffs":0.4688,"g":57,"co":0,"mo":0,"sa":0,"ic":0},"geometry":{"type":"Polygon","coordinates":[[[-0.40997,50.81965],[-0.40928,50.81892],[-0.40544,50.81922],[-0.40544,50.81957],[-0.40504,50.81766],[-0.41003,50.81743],[-0.41772,50.81749],[-0.41766,50.818],[-0.41426,50.81789],[-0.4137,50.81824],[-0.41376,50.81894],[-0.4121,50.81893],[-0.41144,50.81918],[-0.41145,50.81954],[-0.41099,50.81958],[-0.41062,50.8199],[-0.40997,50.81965]]]}},{"type":"Feature","properties":{"id":"E01034830","name":"E01034830","parent":"E07000229","type":"LSOA","pop":1273,"r":238,"ff":86,"ffd":6755.7,"ffs":0.4971,"g":63,"co":0,"mo":0,"sa":0,"ic":0},"geometry":{"type":"Polygon","coordinates":[[[-0.36339,50.8192],[-0.36162,50.81578],[-0.36272,50.81562],[-0.36159,50.81237],[-0.36052,50.81249],[-0.36014,50.81153],[-0.36623,50.81023],[-0.36655,50.812],[-0.36585,50.81201],[-0.36576,50.81169],[-0.36466,50.81174],[-0.3647,50.8121],[-0.36406,50.81215],[-0.36422,50.81257],[-0.36481,50.81314],[-0.36581,50.81299],[-0.36607,50.81445],[-0.36547,50.81515],[-0.36594,50.81548],[-0.36538,50.81577],[-0.36553,50.81616],[-0.36734,50.81641],[-0.3678,50.81617],[-0.36731,50.81593],[-0.36731,50.81548],[-0.36834,50.8153],[-0.3691,50.81563],[-0.36922,50.81629],[-0.36845,50.81661],[-0.36855,50.81695],[-0.369,50.81694],[-0.36917,50.81775],[-0.36791,50.81832],[-0.36621,50.81762],[-0.36522,50.81843],[-0.36619,50.81889],[-0.36339,50.8192]]]}},{"type":"Feature","properties":{"id":"E01034831","name":"E01034831","parent":"E07000229","type":"LSOA","pop":1427,"r":242,"ff":86,"ffd":6026.6,"ffs":0.4886,"g":64,"co":0,"mo":0,"sa":0,"ic":0},"geometry":{"type":"Polygon","coordinates":[[[-0.36591,50.81398],[-0.36581,50.81299],[-0.36481,50.81314],[-0.36422,50.81257],[-0.36406,50.81215],[-0.3647,50.8121],[-0.36466,50.81174],[-0.36576,50.81169],[-0.36585,50.81201],[-0.36655,50.812],[-0.36623,50.81023],[-0.3679,50.80997],[-0.36812,50.81049],[-0.36864,50.80987],[-0.36919,50.81026],[-0.36907,50.8098],[-0.37018,50.80948],[-0.371,50.80936],[-0.37128,50.80962],[-0.37115,50.80934],[-0.37275,50.80922],[-0.37281,50.81093],[-0.37251,50.81147],[-0.37186,50.81151],[-0.37223,50.81266],[-0.37168,50.81288],[-0.37158,50.81337],[-0.37095,50.81372],[-0.36818,50.81411],[-0.36827,50.81467],[-0.36547,50.81515],[-0.36607,50.81445],[-0.36591,50.81398]]]}}]}