{"type":"FeatureCollection","features":[{"type":"Feature","properties":{"id":"E01020910","name":"E01020910","parent":"E07000061","type":"LSOA","pop":2185,"r":240,"ff":88,"ffd":4027.5,"ffs":0.4632,"g":49,"co":0,"mo":0,"sa":0,"ic":0},"geometry":{"type":"Polygon","coordinates":[[[0.30288,50.77517],[0.30188,50.77439],[0.30187,50.77378],[0.29708,50.77089],[0.29632,50.77014],[0.2953,50.7705],[0.29546,50.77087],[0.29498,50.77129],[0.29555,50.77131],[0.29534,50.77162],[0.29436,50.77136],[0.29433,50.77191],[0.29354,50.7717],[0.2928,50.7723],[0.29289,50.77357],[0.29361,50.77348],[0.29408,50.77436],[0.29453,50.77416],[0.29471,50.77431],[0.29402,50.77462],[0.29498,50.77554],[0.2964,50.77495],[0.29676,50.77534],[0.29747,50.77523],[0.29742,50.77569],[0.29797,50.77562],[0.2979,50.77541],[0.29898,50.77561],[0.29874,50.77518],[0.29895,50.77486],[0.30002,50.77483],[0.3005,50.77549],[0.30385,50.77727],[0.30719,50.77831],[0.3078,50.77736],[0.30288,50.77517]]]}},{"type":"Feature","properties":{"id":"E01020911","name":"E01020911","parent":"E07000061","type":"LSOA","pop":2590,"r":224,"ff":79,"ffd":3050.2,"ffs":0.4514,"g":48,"co":0,"mo":0,"sa":0,"ic":0},"geometry":{"type":"Polygon","coordinates":[[[0.28895,50.77164],[0.28886,50.77119],[0.2893,50.77137],[0.28969,50.77116],[0.2904,50.77154],[0.29116,50.77141],[0.29115,50.77072],[0.29186,50.77094],[0.29197,50.77082],[0.29195,50.77047],[0.29093,50.76993],[0.29196,50.769],[0.29161,50.76862],[0.29076,50.76876],[0.29024,50.76796],[0.29048,50.76768],[0.29102,50.76783],[0.29215,50.76748],[0.29168,50.76749],[0.29065,50.76647],[0.289,50.76753],[0.2868,50.7683],[0.28366,50.76857],[0.28115,50.76908],[0.28149,50.76953],[0.28489,50.77118],[0.28737,50.77086],[0.28811,50.77123],[0.28788,50.77149],[0.28824,50.77171],[0.28895,50.77164]]]}},{"type":"Feature","properties":{"id":"E01020912","name":"E01020912","parent":"E07000061","type":"LSOA","pop":2472,"r":225,"ff":79,"ffd":3195.8,"ffs":0.4489,"g":48,"co":0,"mo":0,"sa":0,"ic":0},"geometry":{"type":"Polygon","coordinates":[[[0.29312,50.77214],[0.29354,50.7717],[0.29433,50.77191],[0.29436,50.77136],[0.29534,50.77162],[0.29555,50.77131],[0.29498,50.77129],[0.29546,50.77087],[0.2953,50.7705],[0.29632,50.77014],[0.29502,50.76885],[0.29515,50.76858],[0.29453,50.76814],[0.29479,50.76803],[0.29174,50.76591],[0.29065,50.76647],[0.29168,50.76749],[0.29215,50.76748],[0.29102,50.76783],[0.29048,50.76768],[0.29024,50.76796],[0.29076,50.76876],[0.29161,50.76862],[0.29196,50.769],[0.29093,50.76993],[0.29195,50.77047],[0.29197,50.77082],[0.29186,50.77094],[0.29115,50.77072],[0.29116,50.77141],[0.2904,50.77154],[0.28969,50.77116],[0.2893,50.77137],[0.28886,50.77119],[0.28895,50.77164],[0.28951,50.77191],[0.28949,50.77233],[0.29039,50.77192],[0.29127,50.77205],[0.29251,50.77124],[0.29249,50.7719],[0.29312,50.77214]]]}},{"type":"Feature","properties":{"id":"E01020913","name":"E01020913","parent":"E07000061","type":"LSOA","pop":2411,"r":234,"ff":85,"ffd":3525.5,"ffs":0.4595,"g":48,"co":0,"mo":0,"sa":0,"ic":0},"geometry":{"type":"Polygon","coordinates":[[[0.30988,50.77878],[0.3078,50.77736],[0.30719,50.77831],[0.30385,50.77727],[0.30354,50.77765],[0.30363,50.77869],[0.30187,50.77901],[0.30318,50.78011],[0.30159,50.7805],[0.30187,50.78084],[0.3014,50.781],[0.30678,50.78599],[0.31203,50.78343],[0.31261,50.78271],[0.31426,50.78254],[0.31581,50.78095],[0.30988,50.77878]]]}},{"type":"Feature","properties":{"id":"E01020914","name":"E01020914","parent":"E07000061","type":"LSOA","pop":2034,"r":227,"ff":81,"ffd":3982.3,"ffs":0.4551,"g":48,"co":0,"mo":0,"sa":0,"ic":0},"geometry":{"type":"Polygon","coordinates":[[[0.29826,50.77675],[0.29789,50.77614],[0.29834,50.77619],[0.29797,50.77562],[0.29742,50.77569],[0.29747,50.77523],[0.29676,50.77534],[0.2964,50.77495],[0.29498,50.77554],[0.29402,50.77462],[0.29471,50.77431],[0.29453,50.77416],[0.29408,50.77436],[0.29361,50.77348],[0.29289,50.77357],[0.29334,50.77423],[0.29225,50.77493],[0.29036,50.77498],[0.28998,50.77383],[0.28935,50.77378],[0.28986,50.77491],[0.28872,50.77425],[0.28736,50.77458],[0.28737,50.77671],[0.28784,50.77718],[0.29004,50.77618],[0.29154,50.77724],[0.29283,50.77758],[0.2952,50.77756],[0.29826,50.77675]]]}},{"type":"Feature","properties":{"id":"E01020915","name":"E01020915","parent":"E07000061","type":"LSOA","pop":1722,"r":232,"ff":84,"ffd":4878.0,"ffs":0.459,"g":48,"co":0,"mo":0,"sa":0,"ic":0},"geometry":{"type":"Polygon","coordinates":[[[0.30385,50.77727],[0.3005,50.77549],[0.30002,50.77483],[0.29895,50.77486],[0.29874,50.77518],[0.29898,50.77561],[0.2979,50.77541],[0.29834,50.77619],[0.29789,50.77614],[0.29826,50.77675],[0.29793,50.77693],[0.3014,50.781],[0.30187,50.78084],[0.30159,50.7805],[0.30318,50.78011],[0.30187,50.77901],[0.30363,50.77869],[0.30354,50.77765],[0.30385,50.77727]]]}},{"type":"Feature","properties":{"id":"E01020916","name":"E01020916","parent":"E07000061","type":"LSOA","pop":2008,"r":227,"ff":81,"ffd":4033.9,"ffs":0.4551,"g":48,"co":0,"mo":0,"sa":0,"ic":0},"geometry":{"type":"Polygon","coordinates":[[[0.29334,50.77423],[0.29289,50.77357],[0.2928,50.7723],[0.29312,50.77214],[0.29249,50.7719],[0.29251,50.77124],[0.29127,50.77205],[0.29039,50.77192],[0.28949,50.77233],[0.28951,50.77191],[0.28895,50.77164],[0.28824,50.77171],[0.28788,50.77149],[0.28811,50.77123],[0.28737,50.77086],[0.28489,50.77118],[0.28676,50.77304],[0.28736,50.77458],[0.28872,50.77425],[0.28986,50.77491],[0.28935,50.77378],[0.28998,50.77383],[0.29036,50.77498],[0.29225,50.77493],[0.29334,50.77423]]]}},{"type":"Feature","properties":{"id":"E01020917","name":"E01020917","parent":"E07000061","type":"LSOA","pop":1520,"r":240,"ff":88,"ffd":5789.5,"ffs":0.4632,"g":49,"co":0,"mo":0,"sa":0,"ic":0},"geometry":{"type":"Polygon","coordinates":[[[0.27498,50.8064],[0.27553,50.80551],[0.27447,50.80532],[0.27471,50.80484],[0.27435,50.8047],[0.27493,50.80415],[0.27437,50.80376],[0.27553,50.80337],[0.27499,50.80271],[0.27449,50.80287],[0.27463,50.80315],[0.27394,50.80324],[0.27399,50.80287],[0.27445,50.80282],[0.27433,50.80241],[0.2719,50.80224],[0.2718,50.80268],[0.27287,50.80274],[0.27315,50.80331],[0.26749,50.80585],[0.26846,50.80651],[0.2688,50.80625],[0.26996,50.80665],[0.27185,50.80763],[0.27259,50.80833],[0.2733,50.80842],[0.27498,50.8064]]]}},{"type":"Feature","properties":{"id":"E01020918","name":"E01020918","parent":"E07000061","type":"LSOA","pop":1686,"r":230,"ff":82,"ffd":4863.6,"ffs":0.453,"g":48,"co":0,"mo":0,"sa":0,"ic":0},"geometry":{"type":"Polygon","coordinates":[[[0.2814,50.80577],[0.28343,50.80401],[0.2825,50.80352],[0.28209,50.80394],[0.28049,50.80376],[0.27952,50.80333],[0.27907,50.80374],[0.27881,50.80325],[0.2792,50.80274],[0.27727,50.80197],[0.27706,50.80239],[0.27612,50.80224],[0.27637,50.80192],[0.27563,50.80188],[0.27433,50.80241],[0.27445,50.80282],[0.27399,50.80287],[0.27394,50.80324],[0.27463,50.80315],[0.27449,50.80287],[0.27499,50.80271],[0.27553,50.80337],[0.27437,50.80376],[0.27493,50.80415],[0.27435,50.8047],[0.27471,50.80484],[0.27447,50.80532],[0.27553,50.80551],[0.27586,50.80486],[0.2769,50.80477],[0.27783,50.80734],[0.27986,50.80931],[0.28198,50.80734],[0.28312,50.80655],[0.2814,50.80577]]]}},{"type":"Feature","properties":{"id":"E01020919","name":"E01020919","parent":"E07000061","type":"LSOA","pop":1564,"r":237,"ff":86,"ffd":5498.7,"ffs":0.4574,"g":48,"co":0,"mo":0,"sa":0,"ic":0},"geometry":{"type":"Polygon","coordinates":[[[0.2825,50.80352],[0.2818,50.80313],[0.28197,50.80257],[0.28267,50.80233],[0.28248,50.80204],[0.28313,50.80214],[0.2837,50.80176],[0.28389,50.80105],[0.28246,50.80072],[0.28207,50.80004],[0.28132,50.79988],[0.28106,50.80024],[0.28073,50.79975],[0.28177,50.7994],[0.28097,50.79811],[0.27931,50.80017],[0.27779,50.80058],[0.27764,50.80041],[0.27602,50.80046],[0.27591,50.7999],[0.27518,50.79958],[0.27415,50.80024],[0.27506,50.80077],[0.27486,50.80128],[0.27433,50.80155],[0.27446,50.80119],[0.27375,50.80097],[0.27339,50.80149],[0.27292,50.80141],[0.2719,50.80172],[0.2719,50.80224],[0.27433,50.80241],[0.27563,50.80188],[0.27637,50.80192],[0.27612,50.80224],[0.27706,50.80239],[0.27727,50.80197],[0.2792,50.80274],[0.27881,50.80325],[0.27907,50.80374],[0.27952,50.80333],[0.28049,50.80376],[0.28209,50.80394],[0.2825,50.80352]]]}},{"type":"Feature","properties":{"id":"E01020920","name":"E01020920","parent":"E07000061","type":"LSOA","pop":1575,"r":236,"ff":85,"ffd":5396.8,"ffs":0.4545,"g":48,"co":0,"mo":0,"sa":0,"ic":0},"geometry":{"type":"Polygon","coordinates":[[[0.28936,50.80226],[0.2904,50.80057],[0.291,50.79918],[0.29205,50.79769],[0.29167,50.79651],[0.28738,50.7935],[0.28637,50.79446],[0.28639,50.79528],[0.28588,50.79571],[0.28353,50.79658],[0.28161,50.79806],[0.28183,50.79843],[0.28359,50.79825],[0.28477,50.7995],[0.28383,50.80036],[0.28249,50.79959],[0.28207,50.80004],[0.28246,50.80072],[0.28389,50.80105],[0.28388,50.80153],[0.28313,50.80214],[0.28248,50.80204],[0.28267,50.80233],[0.28197,50.80257],[0.2818,50.80313],[0.28343,50.80401],[0.2814,50.80577],[0.28312,50.80655],[0.28781,50.80376],[0.28936,50.80226]]]}},{"type":"Feature","properties":{"id":"E01020921","name":"E01020921","parent":"E07000061","type":"LSOA","pop":1461,"r":239,"ff":87,"ffd":5954.8,"ffs":0.4579,"g":48,"co":0,"mo":0,"sa":0,"ic":0},"geometry":{"type":"Polygon","coordinates":[[[0.2719,50.80172],[0.27292,50.80141],[0.27339,50.80149],[0.27375,50.80097],[0.27446,50.80119],[0.27433,50.80155],[0.27486,50.80128],[0.27506,50.80077],[0.27415,50.80024],[0.27518,50.79958],[0.27591,50.7999],[0.27602,50.80046],[0.27764,50.80041],[0.27743,50.7994],[0.27621,50.7993],[0.27615,50.79755],[0.27545,50.79752],[0.2746,50.79794],[0.27371,50.79775],[0.27338,50.79725],[0.27429,50.79703],[0.27414,50.79682],[0.27326,50.79696],[0.27334,50.79635],[0.27393,50.79614],[0.2733,50.79597],[0.2728,50.79618],[0.27286,50.79498],[0.27591,50.79521],[0.27634,50.79344],[0.27446,50.79109],[0.2748,50.79023],[0.27407,50.7895],[0.27377,50.78956],[0.27422,50.79043],[0.27324,50.79186],[0.27006,50.79088],[0.26592,50.79024],[0.26583,50.79048],[0.26777,50.79183],[0.26782,50.79218],[0.26449,50.79322],[0.26394,50.79365],[0.26926,50.79675],[0.26678,50.79744],[0.26708,50.79865],[0.26618,50.80181],[0.26917,50.80252],[0.2718,50.80268],[0.2719,50.80172]]]}},{"type":"Feature","properties":{"id":"E01020922","name":"E01020922","parent":"E07000061","type":"LSOA","pop":1480,"r":239,"ff":88,"ffd":5945.9,"ffs":0.4632,"g":48,"co":0,"mo":0,"sa":0,"ic":0},"geometry":{"type":"Polygon","coordinates":[[[0.27931,50.80017],[0.28097,50.79811],[0.28177,50.7994],[0.28073,50.79975],[0.28106,50.80024],[0.28132,50.79988],[0.28207,50.80004],[0.28249,50.79959],[0.28383,50.80036],[0.28477,50.7995],[0.28359,50.79825],[0.28183,50.79843],[0.28161,50.79806],[0.28353,50.79658],[0.28588,50.79571],[0.28639,50.79528],[0.28637,50.79446],[0.28738,50.7935],[0.2837,50.79166],[0.28159,50.7912],[0.27705,50.79114],[0.2748,50.79023],[0.27446,50.79109],[0.27634,50.79344],[0.27591,50.79521],[0.27286,50.79498],[0.2728,50.79618],[0.2733,50.79597],[0.27393,50.79614],[0.27334,50.79635],[0.27326,50.79696],[0.27414,50.79682],[0.27429,50.79703],[0.27338,50.79725],[0.27371,50.79775],[0.2746,50.79794],[0.27545,50.79752],[0.27615,50.79755],[0.27621,50.7993],[0.27743,50.7994],[0.27779,50.80058],[0.27931,50.80017]]]}},{"type":"Feature","properties":{"id":"E01020923","name":"E01020923","parent":"E07000061","type":"LSOA","pop":1386,"r":233,"ff":84,"ffd":6060.6,"ffs":0.4541,"g":47,"co":0,"mo":0,"sa":0,"ic":0},"geometry":{"type":"Polygon","coordinates":[[[0.26996,50.80665],[0.2688,50.80625],[0.26846,50.80651],[0.26749,50.80585],[0.26461,50.80715],[0.26633,50.80854],[0.26927,50.80969],[0.27148,50.81006],[0.2733,50.80842],[0.27259,50.80833],[0.27185,50.80763],[0.26996,50.80665]]]}},{"type":"Feature","properties":{"id":"E01020924","name":"E01020924","parent":"E07000061","type":"LSOA","pop":1337,"r":231,"ff":84,"ffd":6282.7,"ffs":0.4641,"g":49,"co":0,"mo":0,"sa":0,"ic":0},"geometry":{"type":"Polygon","coordinates":[[[0.29923,50.81284],[0.30017,50.81272],[0.3008,50.81173],[0.3012,50.81148],[0.30017,50.80987],[0.30212,50.80829],[0.30239,50.80847],[0.30214,50.80816],[0.30304,50.80819],[0.30376,50.80772],[0.3037,50.80722],[0.3042,50.80714],[0.30426,50.80673],[0.30357,50.80623],[0.30231,50.80719],[0.30213,50.80646],[0.30272,50.80592],[0.3011,50.80536],[0.30085,50.80557],[0.29994,50.80521],[0.29982,50.80534],[0.30044,50.80613],[0.29929,50.80665],[0.3006,50.80751],[0.29938,50.80873],[0.29884,50.80884],[0.2979,50.80842],[0.2981,50.80768],[0.29636,50.8079],[0.29753,50.8088],[0.29708,50.80906],[0.29727,50.80968],[0.29585,50.8105],[0.29429,50.81015],[0.29427,50.81144],[0.29663,50.81166],[0.29616,50.81233],[0.2956,50.81245],[0.29592,50.81282],[0.29923,50.81284]]]}},{"type":"Feature","properties":{"id":"E01020925","name":"E01020925","parent":"E07000061","type":"LSOA","pop":1548,"r":233,"ff":84,"ffd":5426.4,"ffs":0.459,"g":49,"co":0,"mo":0,"sa":0,"ic":0},"geometry":{"type":"Polygon","coordinates":[[[0.29424,50.81077],[0.29429,50.81015],[0.29585,50.8105],[0.29727,50.80968],[0.29708,50.80906],[0.29753,50.8088],[0.29636,50.8079],[0.2981,50.80768],[0.2979,50.80842],[0.29884,50.80884],[0.29938,50.80873],[0.3006,50.80751],[0.29929,50.80665],[0.30044,50.80613],[0.29982,50.80534],[0.30018,50.80471],[0.29896,50.80509],[0.29624,50.80386],[0.2959,50.80395],[0.29554,50.80361],[0.2952,50.80398],[0.29536,50.8045],[0.29663,50.80535],[0.29618,50.80545],[0.29606,50.8059],[0.29521,50.80637],[0.29495,50.80708],[0.29369,50.80883],[0.29253,50.80875],[0.29141,50.80893],[0.29115,50.80965],[0.29271,50.81014],[0.29333,50.81146],[0.29427,50.81144],[0.29424,50.81077]]]}},{"type":"Feature","properties":{"id":"E01020926","name":"E01020926","parent":"E07000061","type":"LSOA","pop":1440,"r":234,"ff":86,"ffd":5972.2,"ffs":0.4649,"g":48,"co":0,"mo":0,"sa":0,"ic":0},"geometry":{"type":"Polygon","coordinates":[[[0.3049,50.80913],[0.30829,50.80821],[0.3088,50.8083],[0.30902,50.80795],[0.31024,50.80785],[0.31384,50.80875],[0.31583,50.80867],[0.31584,50.8081],[0.31788,50.80673],[0.3202,50.80697],[0.31835,50.80555],[0.318,50.80414],[0.31682,50.8055],[0.31382,50.80398],[0.31346,50.80451],[0.31215,50.80414],[0.31176,50.80463],[0.3091,50.80386],[0.3084,50.80504],[0.30761,50.80451],[0.30738,50.80479],[0.30778,50.80497],[0.30721,50.80524],[0.30803,50.80553],[0.30725,50.80603],[0.306,50.80601],[0.30597,50.80633],[0.30426,50.80673],[0.3042,50.80714],[0.3037,50.80722],[0.30376,50.80772],[0.30304,50.80819],[0.30214,50.80816],[0.30288,50.80877],[0.30376,50.8091],[0.3049,50.80913]]]}},{"type":"Feature","properties":{"id":"E01020927","name":"E01020927","parent":"E07000061","type":"LSOA","pop":1441,"r":230,"ff":83,"ffd":5759.9,"ffs":0.4611,"g":49,"co":0,"mo":0,"sa":0,"ic":0},"geometry":{"type":"Polygon","coordinates":[[[0.28706,50.81074],[0.28638,50.81064],[0.28789,50.80883],[0.29176,50.81125],[0.29333,50.81146],[0.29271,50.81014],[0.29115,50.80965],[0.29141,50.80893],[0.29253,50.80875],[0.29369,50.80883],[0.29495,50.80708],[0.29521,50.80637],[0.29606,50.8059],[0.29618,50.80545],[0.29663,50.80535],[0.29536,50.8045],[0.2952,50.80398],[0.29554,50.80361],[0.2959,50.80395],[0.29655,50.80368],[0.29719,50.80389],[0.29767,50.80338],[0.29868,50.80427],[0.29946,50.8039],[0.29944,50.80361],[0.29987,50.80398],[0.30002,50.80325],[0.29897,50.80277],[0.2975,50.80317],[0.29556,50.80118],[0.29143,50.7987],[0.291,50.79918],[0.2904,50.80057],[0.28936,50.80226],[0.28781,50.80376],[0.28312,50.80655],[0.28198,50.80734],[0.27986,50.80931],[0.28387,50.81196],[0.28444,50.81128],[0.28398,50.81108],[0.28368,50.81125],[0.28315,50.811],[0.2833,50.81077],[0.28479,50.811],[0.28494,50.81138],[0.28605,50.81145],[0.28605,50.81195],[0.28655,50.81205],[0.2866,50.8117],[0.2872,50.81164],[0.28706,50.81074]]]}},{"type":"Feature","properties":{"id":"E01020928","name":"E01020928","parent":"E07000061","type":"LSOA","pop":1594,"r":235,"ff":87,"ffd":5458.0,"ffs":0.4703,"g":49,"co":0,"mo":0,"sa":0,"ic":0},"geometry":{"type":"Polygon","coordinates":[[[0.30231,50.80719],[0.30357,50.80623],[0.30426,50.80673],[0.30597,50.80633],[0.306,50.80601],[0.30725,50.80603],[0.30803,50.80553],[0.30721,50.80524],[0.30621,50.80446],[0.30546,50.80437],[0.30565,50.80393],[0.30512,50.80386],[0.30405,50.80292],[0.30369,50.80234],[0.30388,50.80134],[0.30488,50.8008],[0.30584,50.80103],[0.30644,50.80052],[0.30548,50.79977],[0.30597,50.79946],[0.30687,50.79952],[0.30707,50.79902],[0.30654,50.79912],[0.3064,50.79866],[0.3036,50.79976],[0.30312,50.79916],[0.29913,50.79979],[0.29707,50.80019],[0.29556,50.80118],[0.2975,50.80317],[0.29897,50.80277],[0.30002,50.80325],[0.29987,50.80398],[0.29944,50.80361],[0.29946,50.8039],[0.29868,50.80427],[0.29767,50.80338],[0.29719,50.80389],[0.29655,50.80368],[0.29624,50.80386],[0.29896,50.80509],[0.30018,50.80471],[0.29994,50.80521],[0.30085,50.80557],[0.3011,50.80536],[0.30272,50.80592],[0.30213,50.80646],[0.30231,50.80719]]]}},{"type":"Feature","properties":{"id":"E01020929","name":"E01020929","parent":"E07000061","type":"LSOA","pop":1874,"r":233,"ff":86,"ffd":4589.1,"ffs":0.4674,"g":48,"co":0,"mo":0,"sa":0,"ic":0},"geometry":{"type":"Polygon","coordinates":[[[0.30738,50.80479],[0.30761,50.80451],[0.3084,50.80504],[0.3091,50.80386],[0.31176,50.80463],[0.31215,50.80414],[0.31346,50.80451],[0.31382,50.80398],[0.31159,50.80181],[0.30995,50.80067],[0.31112,50.79903],[0.30762,50.79816],[0.3064,50.79866],[0.30654,50.79912],[0.30707,50.79902],[0.30687,50.79952],[0.30597,50.79946],[0.30548,50.79977],[0.30644,50.80052],[0.30584,50.80103],[0.30488,50.8008],[0.30388,50.80134],[0.30369,50.80234],[0.30405,50.80292],[0.30512,50.80386],[0.30565,50.80393],[0.30546,50.80437],[0.30621,50.80446],[0.30721,50.80524],[0.30778,50.80497],[0.30738,50.80479]]]}},{"type":"Feature","properties":{"id":"E01020930","name":"E01020930","parent":"E07000061","type":"LSOA","pop":1372,"r":228,"ff":82,"ffd":5976.7,"ffs":0.4607,"g":49,"co":0,"mo":0,"sa":0,"ic":0},"geometry":{"type":"Polygon","coordinates":[[[0.28989,50.81305],[0.29592,50.81282],[0.2956,50.81245],[0.29616,50.81233],[0.29663,50.81166],[0.29176,50.81125],[0.28789,50.80883],[0.28638,50.81064],[0.28706,50.81074],[0.2872,50.81164],[0.2866,50.8117],[0.28655,50.81205],[0.28605,50.81195],[0.28605,50.81145],[0.28494,50.81138],[0.28479,50.811],[0.2833,50.81077],[0.28315,50.811],[0.28368,50.81125],[0.28398,50.81108],[0.28444,50.81128],[0.28387,50.81196],[0.2866,50.81283],[0.28989,50.81305]]]}},{"type":"Feature","properties":{"id":"E01020931","name":"E01020931","parent":"E07000061","type":"LSOA","pop":1732,"r":209,"ff":74,"ffd":4272.5,"ffs":0.4512,"g":44,"co":0,"mo":2,"sa":0,"ic":0},"geometry":{"type":"Polygon","coordinates":[[[0.26769,50.76493],[0.27087,50.76386],[0.27193,50.76395],[0.27255,50.76436],[0.27407,50.76393],[0.2737,50.76319],[0.27282,50.76285],[0.27153,50.76154],[0.27197,50.76144],[0.27259,50.76162],[0.27257,50.76128],[0.27321,50.76122],[0.27336,50.76086],[0.27455,50.76059],[0.27508,50.75981],[0.27438,50.7598],[0.2742,50.75929],[0.27539,50.75923],[0.27508,50.75894],[0.27536,50.75885],[0.2765,50.75918],[0.27684,50.75851],[0.27661,50.75818],[0.27622,50.75831],[0.27645,50.75766],[0.27534,50.75715],[0.27628,50.7564],[0.27427,50.75541],[0.27227,50.75699],[0.27097,50.75669],[0.27009,50.75865],[0.2692,50.75863],[0.26736,50.7575],[0.26662,50.75906],[0.26554,50.75887],[0.26475,50.75931],[0.26418,50.75926],[0.26427,50.75995],[0.26281,50.76062],[0.26451,50.76163],[0.26159,50.76141],[0.25962,50.76218],[0.25947,50.76268],[0.26021,50.76329],[0.26106,50.76504],[0.26769,50.76493]]]}},{"type":"Feature","properties":{"id":"E01020932","name":"E01020932","parent":"E07000061","type":"LSOA","pop":1353,"r":210,"ff":74,"ffd":5469.3,"ffs":0.4512,"g":45,"co":0,"mo":2,"sa":0,"ic":0},"geometry":{"type":"Polygon","coordinates":[[[0.27455,50.76498],[0.27478,50.76472],[0.2765,50.76559],[0.27686,50.76366],[0.27652,50.76359],[0.27632,50.76251],[0.27519,50.76233],[0.27535,50.76145],[0.27585,50.76157],[0.27638,50.76126],[0.2766,50.76047],[0.27804,50.76044],[0.27761,50.75939],[0.27923,50.75964],[0.27942,50.75915],[0.28009,50.75932],[0.28013,50.75873],[0.28134,50.75871],[0.27628,50.7564],[0.27534,50.75715],[0.27645,50.75766],[0.27622,50.75831],[0.27661,50.75818],[0.27684,50.75851],[0.2765,50.75918],[0.27536,50.75885],[0.27508,50.75894],[0.27539,50.75923],[0.2742,50.75929],[0.27438,50.7598],[0.27508,50.75981],[0.27455,50.76059],[0.27336,50.76086],[0.27321,50.76122],[0.27257,50.76128],[0.27259,50.76162],[0.27197,50.76144],[0.27153,50.76154],[0.27282,50.76285],[0.2737,50.76319],[0.27407,50.76393],[0.27255,50.76436],[0.27193,50.76395],[0.27087,50.76386],[0.26769,50.76493],[0.26106,50.76504],[0.2614,50.76593],[0.26329,50.76674],[0.27148,50.76847],[0.27209,50.76817],[0.27455,50.76498]]]}},{"type":"Feature","properties":{"id":"E01020935","name":"E01020935","parent":"E07000061","type":"LSOA","pop":2319,"r":219,"ff":77,"ffd":3320.4,"ffs":0.4451,"g":45,"co":0,"mo":0,"sa":0,"ic":0},"geometry":{"type":"Polygon","coordinates":[[[0.289,50.76753],[0.28979,50.76703],[0.28944,50.76677],[0.28848,50.76716],[0.28752,50.76644],[0.28667,50.76686],[0.28729,50.76704],[0.2866,50.76741],[0.2859,50.76693],[0.28518,50.76752],[0.28492,50.76693],[0.28539,50.76657],[0.28514,50.7662],[0.28462,50.76631],[0.28481,50.76541],[0.28427,50.76543],[0.28438,50.7649],[0.28374,50.76497],[0.28398,50.76429],[0.28535,50.76361],[0.28219,50.76292],[0.28122,50.76484],[0.28048,50.7647],[0.2803,50.76524],[0.27913,50.76521],[0.27899,50.76485],[0.27664,50.76484],[0.2765,50.76559],[0.2783,50.76675],[0.27961,50.76829],[0.27964,50.769],[0.27982,50.76919],[0.28366,50.76857],[0.2868,50.7683],[0.289,50.76753]]]}},{"type":"Feature","properties":{"id":"E01020936","name":"E01020936","parent":"E07000061","type":"LSOA","pop":1765,"r":219,"ff":77,"ffd":4362.6,"ffs":0.4451,"g":45,"co":0,"mo":0,"sa":0,"ic":0},"geometry":{"type":"Polygon","coordinates":[[[0.28979,50.76703],[0.29174,50.76591],[0.28858,50.76299],[0.2868,50.76071],[0.28539,50.76149],[0.28429,50.76058],[0.28414,50.7612],[0.28498,50.7619],[0.28379,50.76241],[0.2818,50.7623],[0.28172,50.76178],[0.28112,50.76171],[0.28102,50.76224],[0.27954,50.76213],[0.27982,50.76264],[0.27893,50.76257],[0.27867,50.76393],[0.27813,50.76385],[0.27803,50.7648],[0.27899,50.76485],[0.27913,50.76521],[0.2803,50.76524],[0.28048,50.7647],[0.28122,50.76484],[0.28219,50.76292],[0.28535,50.76361],[0.28398,50.76429],[0.28374,50.76497],[0.28438,50.7649],[0.28427,50.76543],[0.28481,50.76541],[0.28462,50.76631],[0.28514,50.7662],[0.28539,50.76657],[0.28492,50.76693],[0.28518,50.76752],[0.2859,50.76693],[0.2866,50.76741],[0.28729,50.76704],[0.28667,50.76686],[0.28752,50.76644],[0.28848,50.76716],[0.28944,50.76677],[0.28979,50.76703]]]}},{"type":"Feature","properties":{"id":"E01020937","name":"E01020937","parent":"E07000061","type":"LSOA","pop":2125,"r":214,"ff":75,"ffd":3529.4,"ffs":0.4412,"g":43,"co":0,"mo":0,"sa":0,"ic":0},"geometry":{"type":"Polygon","coordinates":[[[0.27803,50.7648],[0.27813,50.76385],[0.27867,50.76393],[0.27893,50.76257],[0.27982,50.76264],[0.27954,50.76213],[0.28102,50.76224],[0.28112,50.76171],[0.28172,50.76178],[0.2818,50.7623],[0.28379,50.76241],[0.28498,50.7619],[0.28414,50.7612],[0.28429,50.76058],[0.28134,50.75871],[0.28013,50.75873],[0.28009,50.75932],[0.27942,50.75915],[0.27923,50.75964],[0.27761,50.75939],[0.27804,50.76044],[0.2766,50.76047],[0.27638,50.76126],[0.27585,50.76157],[0.27535,50.76145],[0.27519,50.76233],[0.27632,50.76251],[0.27652,50.76359],[0.27686,50.76366],[0.27664,50.76484],[0.27803,50.7648]]]}},{"type":"Feature","properties":{"id":"E01020938","name":"E01020938","parent":"E07000061","type":"LSOA","pop":1644,"r":220,"ff":79,"ffd":4805.4,"ffs":0.4593,"g":47,"co":0,"mo":0,"sa":0,"ic":0},"geometry":{"type":"Polygon","coordinates":[[[0.25094,50.78022],[0.25153,50.77991],[0.25355,50.78012],[0.25328,50.77962],[0.25405,50.7794],[0.25391,50.77902],[0.25469,50.77865],[0.25498,50.77912],[0.25544,50.77915],[0.25682,50.77665],[0.25722,50.77689],[0.2585,50.77696],[0.2594,50.77632],[0.2589,50.7761],[0.25788,50.77638],[0.25807,50.77606],[0.25721,50.7758],[0.25739,50.77548],[0.25694,50.77534],[0.25646,50.77592],[0.25582,50.77571],[0.25639,50.77443],[0.25706,50.77465],[0.2576,50.7734],[0.25645,50.773],[0.25661,50.77251],[0.25596,50.77284],[0.25492,50.77261],[0.25526,50.77216],[0.25297,50.77167],[0.25253,50.77108],[0.25148,50.77073],[0.24991,50.77273],[0.24962,50.77325],[0.25273,50.77425],[0.25312,50.77475],[0.25355,50.77461],[0.25334,50.77491],[0.25414,50.77516],[0.25477,50.77483],[0.25533,50.77555],[0.25515,50.77579],[0.25397,50.77542],[0.25282,50.77683],[0.25296,50.77806],[0.25225,50.77814],[0.25135,50.77765],[0.25117,50.77808],[0.25167,50.77875],[0.25047,50.77975],[0.25094,50.78022]]]}},{"type":"Feature","properties":{"id":"E01020939","name":"E01020939","parent":"E07000061","type":"LSOA","pop":1595,"r":224,"ff":81,"ffd":5078.4,"ffs":0.4602,"g":47,"co":0,"mo":0,"sa":0,"ic":0},"geometry":{"type":"Polygon","coordinates":[[[0.26409,50.78014],[0.265,50.77832],[0.26644,50.77612],[0.26589,50.77597],[0.26583,50.77507],[0.26413,50.77481],[0.26436,50.77427],[0.2649,50.77387],[0.26382,50.77338],[0.26355,50.77391],[0.26196,50.77344],[0.26149,50.7738],[0.26095,50.77372],[0.26109,50.77456],[0.26003,50.77488],[0.25955,50.77473],[0.25932,50.77502],[0.25811,50.77463],[0.25786,50.77491],[0.25639,50.77443],[0.25582,50.77571],[0.25646,50.77592],[0.25694,50.77534],[0.25739,50.77548],[0.25721,50.7758],[0.25807,50.77606],[0.25788,50.77638],[0.2589,50.7761],[0.2594,50.77632],[0.2585,50.77696],[0.25722,50.77689],[0.25753,50.77713],[0.25715,50.77767],[0.2562,50.77823],[0.25655,50.77882],[0.2573,50.77849],[0.25776,50.7786],[0.25808,50.77817],[0.25869,50.77849],[0.2597,50.77815],[0.26015,50.77754],[0.26191,50.7781],[0.26083,50.78006],[0.26275,50.78009],[0.26289,50.77974],[0.26352,50.77979],[0.26409,50.78014]]]}},{"type":"Feature","properties":{"id":"E01020940","name":"E01020940","parent":"E07000061","type":"LSOA","pop":1685,"r":228,"ff":81,"ffd":4807.1,"ffs":0.45,"g":47,"co":0,"mo":0,"sa":0,"ic":0},"geometry":{"type":"Polygon","coordinates":[[[0.26196,50.78365],[0.26409,50.78014],[0.26352,50.77979],[0.26289,50.77974],[0.26275,50.78009],[0.26083,50.78006],[0.26191,50.7781],[0.26015,50.77754],[0.2597,50.77815],[0.25869,50.77849],[0.25808,50.77817],[0.25776,50.7786],[0.2573,50.77849],[0.25655,50.77882],[0.2562,50.77823],[0.25715,50.77767],[0.25753,50.77713],[0.25682,50.77665],[0.25544,50.77915],[0.25493,50.78103],[0.25436,50.78088],[0.2541,50.78164],[0.25452,50.78253],[0.25537,50.78263],[0.255,50.78488],[0.25445,50.78499],[0.25555,50.78746],[0.25653,50.7884],[0.25714,50.78865],[0.25951,50.78577],[0.26105,50.78486],[0.26196,50.78365]]]}},{"type":"Feature","properties":{"id":"E01020941","name":"E01020941","parent":"E07000061","type":"LSOA","pop":1809,"r":171,"ff":58,"ffd":3206.2,"ffs":0.4531,"g":42,"co":0,"mo":0,"sa":0,"ic":0},"geometry":{"type":"Polygon","coordinates":[[[0.255,50.78488],[0.25537,50.78263],[0.25452,50.78253],[0.2541,50.78164],[0.25436,50.78088],[0.25493,50.78103],[0.25545,50.77915],[0.25498,50.77912],[0.25469,50.77865],[0.25391,50.77902],[0.25405,50.7794],[0.25328,50.77962],[0.25355,50.78012],[0.25153,50.77991],[0.25094,50.78022],[0.25047,50.77975],[0.25167,50.77875],[0.25117,50.77808],[0.25133,50.77705],[0.25052,50.77665],[0.25004,50.77578],[0.24945,50.77565],[0.24924,50.77742],[0.24992,50.77748],[0.24995,50.77921],[0.24975,50.78041],[0.24925,50.78072],[0.24676,50.78085],[0.2462,50.78221],[0.24765,50.78271],[0.24841,50.78247],[0.24852,50.78295],[0.24911,50.78296],[0.25021,50.78415],[0.25254,50.78419],[0.25292,50.78373],[0.25427,50.78353],[0.25425,50.78463],[0.25445,50.78499],[0.255,50.78488]]]}},{"type":"Feature","properties":{"id":"E01020942","name":"E01020942","parent":"E07000061","type":"LSOA","pop":1506,"r":218,"ff":77,"ffd":5112.9,"ffs":0.4529,"g":47,"co":0,"mo":0,"sa":0,"ic":0},"geometry":{"type":"Polygon","coordinates":[[[0.23941,50.78438],[0.24075,50.78143],[0.2462,50.78221],[0.24676,50.78085],[0.24925,50.78072],[0.24975,50.78041],[0.24995,50.77921],[0.24992,50.77748],[0.24924,50.77742],[0.24945,50.77565],[0.25004,50.77578],[0.25052,50.77665],[0.25133,50.77705],[0.25135,50.77765],[0.25225,50.77814],[0.25296,50.77806],[0.25282,50.77683],[0.25397,50.77542],[0.25515,50.77579],[0.25533,50.77555],[0.25477,50.77483],[0.25414,50.77516],[0.25334,50.77491],[0.25355,50.77461],[0.25312,50.77475],[0.25273,50.77425],[0.24962,50.77325],[0.25148,50.77073],[0.25253,50.77108],[0.25308,50.77055],[0.25556,50.77028],[0.25425,50.77018],[0.25211,50.76947],[0.2527,50.76833],[0.25406,50.76874],[0.25435,50.7683],[0.25495,50.76848],[0.25486,50.76795],[0.25457,50.76815],[0.254,50.7675],[0.25339,50.76608],[0.2514,50.76415],[0.25122,50.76181],[0.24906,50.76268],[0.24659,50.76519],[0.23429,50.7611],[0.22982,50.76043],[0.21224,50.76014],[0.21509,50.76097],[0.21721,50.76206],[0.215,50.76353],[0.21705,50.7745],[0.21643,50.77473],[0.21878,50.77611],[0.2228,50.77975],[0.22763,50.78329],[0.23077,50.78864],[0.23298,50.78806],[0.23582,50.78626],[0.23941,50.78438]]]}},{"type":"Feature","properties":{"id":"E01020943","name":"E01020943","parent":"E07000061","type":"LSOA","pop":1581,"r":224,"ff":80,"ffd":5060.1,"ffs":0.4571,"g":48,"co":0,"mo":0,"sa":0,"ic":0},"geometry":{"type":"Polygon","coordinates":[[[0.26702,50.77348],[0.26671,50.77264],[0.26293,50.77221],[0.2631,50.77189],[0.26234,50.77185],[0.26283,50.77114],[0.26107,50.77062],[0.26121,50.77034],[0.26087,50.77024],[0.25956,50.77202],[0.25886,50.77181],[0.2576,50.7734],[0.25706,50.77465],[0.25786,50.77491],[0.25811,50.77463],[0.25932,50.77502],[0.25955,50.77473],[0.26003,50.77488],[0.26109,50.77456],[0.26095,50.77372],[0.26149,50.7738],[0.26196,50.77344],[0.26355,50.77391],[0.26382,50.77338],[0.2649,50.77387],[0.26436,50.77427],[0.26413,50.77481],[0.26583,50.77507],[0.26589,50.77597],[0.26644,50.77612],[0.26661,50.77592],[0.26613,50.77481],[0.26676,50.77427],[0.26702,50.77348]]]}},{"type":"Feature","properties":{"id":"E01020944","name":"E01020944","parent":"E07000061","type":"LSOA","pop":1516,"r":217,"ff":77,"ffd":5079.2,"ffs":0.4556,"g":47,"co":0,"mo":0,"sa":0,"ic":0},"geometry":{"type":"Polygon","coordinates":[[[0.25763,50.77338],[0.25886,50.77181],[0.25956,50.77202],[0.26087,50.77024],[0.26121,50.77034],[0.26107,50.77062],[0.26283,50.77114],[0.26234,50.77185],[0.2631,50.77189],[0.26389,50.77084],[0.26509,50.76973],[0.26636,50.76751],[0.26329,50.76674],[0.2614,50.76593],[0.26021,50.76329],[0.25947,50.76268],[0.25962,50.76218],[0.26159,50.76141],[0.26451,50.76163],[0.26193,50.76019],[0.26045,50.76],[0.25122,50.76181],[0.2514,50.76415],[0.25339,50.76608],[0.254,50.7675],[0.25457,50.76815],[0.25486,50.76795],[0.25495,50.76848],[0.25435,50.7683],[0.25406,50.76874],[0.2527,50.76833],[0.25211,50.76947],[0.25425,50.77018],[0.25556,50.77028],[0.25308,50.77055],[0.25253,50.77108],[0.25297,50.77167],[0.25526,50.77216],[0.25492,50.77261],[0.25596,50.77284],[0.25661,50.77251],[0.25645,50.773],[0.25763,50.77338]]]}},{"type":"Feature","properties":{"id":"E01020945","name":"E01020945","parent":"E07000061","type":"LSOA","pop":1944,"r":236,"ff":84,"ffd":4321.0,"ffs":0.4492,"g":48,"co":0,"mo":0,"sa":0,"ic":0},"geometry":{"type":"Polygon","coordinates":[[[0.26926,50.79675],[0.26394,50.79365],[0.26449,50.79322],[0.26782,50.79218],[0.26777,50.79183],[0.26583,50.79048],[0.26745,50.78592],[0.26643,50.78614],[0.26613,50.78689],[0.26529,50.78692],[0.26362,50.78647],[0.2638,50.78625],[0.26215,50.7849],[0.26093,50.78578],[0.26189,50.78592],[0.26249,50.78667],[0.26072,50.78707],[0.26025,50.78689],[0.26,50.78715],[0.26063,50.78759],[0.26254,50.78794],[0.26161,50.7883],[0.26212,50.78885],[0.26116,50.78979],[0.26,50.79012],[0.25994,50.7905],[0.25821,50.79029],[0.25779,50.79086],[0.25657,50.79082],[0.25578,50.79112],[0.2566,50.7913],[0.25612,50.79283],[0.25577,50.79288],[0.25528,50.7935],[0.25549,50.79326],[0.25592,50.79353],[0.25617,50.79491],[0.25743,50.79545],[0.25819,50.79471],[0.25872,50.7951],[0.26017,50.79473],[0.26072,50.79566],[0.26279,50.79626],[0.26202,50.79669],[0.25989,50.79628],[0.25949,50.79747],[0.26269,50.79757],[0.26314,50.7982],[0.26678,50.79981],[0.26708,50.79865],[0.26678,50.79744],[0.26926,50.79675]]]}},{"type":"Feature","properties":{"id":"E01020946","name":"E01020946","parent":"E07000061","type":"LSOA","pop":1751,"r":225,"ff":80,"ffd":4568.8,"ffs":0.452,"g":47,"co":0,"mo":0,"sa":0,"ic":0},"geometry":{"type":"Polygon","coordinates":[[[0.24852,50.80217],[0.24989,50.80074],[0.25048,50.79884],[0.25422,50.79903],[0.25555,50.79951],[0.25644,50.80008],[0.25751,50.79925],[0.25852,50.79934],[0.25795,50.79872],[0.25726,50.79853],[0.25637,50.7989],[0.25539,50.7982],[0.25626,50.79654],[0.25729,50.79594],[0.25743,50.79545],[0.25617,50.79491],[0.25592,50.79353],[0.25549,50.79326],[0.25528,50.7935],[0.25577,50.79288],[0.25247,50.79241],[0.25197,50.79201],[0.2524,50.79149],[0.25187,50.79158],[0.25185,50.79137],[0.25271,50.79091],[0.25259,50.79045],[0.25338,50.7903],[0.25264,50.78975],[0.25236,50.79008],[0.25019,50.78963],[0.24437,50.79024],[0.24245,50.78968],[0.23978,50.7894],[0.2373,50.78697],[0.23582,50.78626],[0.23298,50.78806],[0.23077,50.78864],[0.23242,50.79345],[0.23391,50.79568],[0.23309,50.79681],[0.23011,50.79765],[0.22692,50.79944],[0.2283,50.80008],[0.22772,50.80087],[0.23257,50.80142],[0.23386,50.80128],[0.23426,50.80166],[0.23631,50.80151],[0.23666,50.80223],[0.23733,50.80211],[0.23767,50.80252],[0.23945,50.80215],[0.2405,50.80285],[0.24219,50.80313],[0.2441,50.80537],[0.24599,50.80534],[0.24582,50.80484],[0.24723,50.8041],[0.24617,50.8031],[0.24852,50.80217]]]}},{"type":"Feature","properties":{"id":"E01020947","name":"E01020947","parent":"E07000061","type":"LSOA","pop":1603,"r":228,"ff":82,"ffd":5115.4,"ffs":0.4556,"g":47,"co":0,"mo":0,"sa":0,"ic":0},"geometry":{"type":"Polygon","coordinates":[[[0.25612,50.79283],[0.2566,50.7913],[0.25578,50.79112],[0.25657,50.79082],[0.25779,50.79086],[0.25821,50.79029],[0.25994,50.7905],[0.26,50.79012],[0.26116,50.78979],[0.26212,50.78885],[0.26161,50.7883],[0.26254,50.78794],[0.26063,50.78759],[0.26,50.78715],[0.26025,50.78689],[0.26072,50.78707],[0.26249,50.78667],[0.26189,50.78592],[0.25951,50.78577],[0.25714,50.78865],[0.25653,50.7884],[0.25555,50.78746],[0.25425,50.78463],[0.25427,50.78353],[0.25292,50.78373],[0.25254,50.78419],[0.25021,50.78415],[0.24911,50.78296],[0.24852,50.78295],[0.24841,50.78247],[0.24765,50.78271],[0.2462,50.78221],[0.24075,50.78143],[0.23941,50.78438],[0.23582,50.78626],[0.2373,50.78697],[0.23978,50.7894],[0.24245,50.78968],[0.24437,50.79024],[0.25019,50.78963],[0.25236,50.79008],[0.25264,50.78975],[0.25338,50.7903],[0.25259,50.79045],[0.25271,50.79091],[0.25185,50.79137],[0.25187,50.79158],[0.2524,50.79149],[0.25197,50.79201],[0.25247,50.79241],[0.25612,50.79283]]]}},{"type":"Feature","properties":{"id":"E01020948","name":"E01020948","parent":"E07000061","type":"LSOA","pop":1481,"r":234,"ff":83,"ffd":5604.3,"ffs":0.4486,"g":48,"co":0,"mo":0,"sa":0,"ic":0},"geometry":{"type":"Polygon","coordinates":[[[0.27422,50.79043],[0.27377,50.78956],[0.27407,50.7895],[0.27259,50.78399],[0.27174,50.78328],[0.26946,50.78395],[0.26966,50.78301],[0.27107,50.78125],[0.27277,50.78079],[0.26883,50.77925],[0.26653,50.77853],[0.26546,50.78067],[0.26461,50.78094],[0.26395,50.78055],[0.26105,50.78486],[0.25951,50.78577],[0.26093,50.78578],[0.26215,50.7849],[0.2638,50.78625],[0.26362,50.78647],[0.26529,50.78692],[0.26613,50.78689],[0.26643,50.78614],[0.26745,50.78592],[0.26583,50.79048],[0.26592,50.79024],[0.27006,50.79088],[0.27324,50.79186],[0.27422,50.79043]]]}},{"type":"Feature","properties":{"id":"E01020949","name":"E01020949","parent":"E07000061","type":"LSOA","pop":1608,"r":236,"ff":86,"ffd":5348.3,"ffs":0.4574,"g":47,"co":0,"mo":0,"sa":0,"ic":0},"geometry":{"type":"Polygon","coordinates":[[[0.2681,50.80556],[0.27315,50.80331],[0.27287,50.80274],[0.26917,50.80252],[0.26618,50.80181],[0.26584,50.80219],[0.26457,50.80202],[0.26455,50.80319],[0.2633,50.8048],[0.26326,50.80561],[0.26244,50.80562],[0.26238,50.80532],[0.26158,50.80518],[0.2612,50.80547],[0.26088,50.80608],[0.26735,50.81056],[0.26927,50.80969],[0.26633,50.80854],[0.26461,50.80715],[0.2681,50.80556]]]}},{"type":"Feature","properties":{"id":"E01020950","name":"E01020950","parent":"E07000061","type":"LSOA","pop":1545,"r":238,"ff":87,"ffd":5631.1,"ffs":0.4579,"g":47,"co":0,"mo":0,"sa":0,"ic":0},"geometry":{"type":"Polygon","coordinates":[[[0.26455,50.80319],[0.26457,50.80202],[0.26584,50.80219],[0.26618,50.80181],[0.26678,50.79981],[0.26314,50.7982],[0.26269,50.79757],[0.25949,50.79747],[0.25989,50.79628],[0.26202,50.79669],[0.26279,50.79626],[0.26072,50.79566],[0.26017,50.79473],[0.25872,50.7951],[0.25819,50.79471],[0.25743,50.79545],[0.25729,50.79594],[0.25626,50.79654],[0.25539,50.7982],[0.25637,50.7989],[0.25726,50.79853],[0.25795,50.79872],[0.25852,50.79934],[0.25981,50.79989],[0.25891,50.80086],[0.26156,50.80202],[0.26087,50.80306],[0.26147,50.80349],[0.26094,50.80404],[0.26233,50.80486],[0.26158,50.80518],[0.26238,50.80532],[0.26244,50.80562],[0.26326,50.80561],[0.2633,50.8048],[0.26455,50.80319]]]}},{"type":"Feature","properties":{"id":"E01020951","name":"E01020951","parent":"E07000061","type":"LSOA","pop":1628,"r":234,"ff":86,"ffd":5282.6,"ffs":0.4649,"g":48,"co":0,"mo":0,"sa":0,"ic":0},"geometry":{"type":"Polygon","coordinates":[[[0.29913,50.79979],[0.30312,50.79916],[0.3036,50.79976],[0.30762,50.79816],[0.30812,50.79785],[0.30885,50.79686],[0.30611,50.79689],[0.30043,50.79617],[0.30198,50.79488],[0.30988,50.79474],[0.30936,50.79537],[0.31095,50.79456],[0.31365,50.79452],[0.31398,50.79311],[0.31434,50.79288],[0.31037,50.7897],[0.30408,50.78345],[0.30318,50.78367],[0.30233,50.78318],[0.30063,50.78303],[0.30023,50.78328],[0.30078,50.78342],[0.30076,50.78375],[0.29964,50.78451],[0.30114,50.78703],[0.3008,50.78761],[0.29753,50.78561],[0.29735,50.78473],[0.2966,50.78457],[0.29604,50.78538],[0.29529,50.78503],[0.29466,50.78526],[0.2949,50.78573],[0.29331,50.78664],[0.29472,50.78752],[0.29367,50.78826],[0.29473,50.78897],[0.29569,50.78834],[0.29665,50.78907],[0.29517,50.78978],[0.29683,50.79049],[0.2887,50.79391],[0.28857,50.79431],[0.29167,50.79651],[0.29205,50.79769],[0.29143,50.7987],[0.29556,50.80118],[0.29707,50.80019],[0.29913,50.79979]]]}},{"type":"Feature","properties":{"id":"E01020952","name":"E01020952","parent":"E07000061","type":"LSOA","pop":1891,"r":234,"ff":85,"ffd":4495.0,"ffs":0.4595,"g":48,"co":0,"mo":0,"sa":0,"ic":0},"geometry":{"type":"Polygon","coordinates":[[[0.30076,50.78375],[0.30078,50.78342],[0.30023,50.78328],[0.30063,50.78303],[0.30233,50.78318],[0.30318,50.78367],[0.30408,50.78345],[0.3014,50.781],[0.29793,50.77693],[0.29761,50.77702],[0.29757,50.77769],[0.29836,50.77806],[0.29795,50.77823],[0.29826,50.77868],[0.2966,50.77916],[0.29693,50.77964],[0.29588,50.77993],[0.29732,50.78129],[0.29695,50.78152],[0.29617,50.78133],[0.29536,50.78057],[0.29403,50.7802],[0.29355,50.78032],[0.29289,50.78001],[0.29177,50.78055],[0.29268,50.78134],[0.29156,50.78196],[0.29204,50.78248],[0.2941,50.78194],[0.29346,50.78149],[0.29435,50.78112],[0.29546,50.78258],[0.29763,50.78387],[0.29809,50.78356],[0.29838,50.78374],[0.29735,50.78473],[0.29753,50.78561],[0.3008,50.78761],[0.30114,50.78703],[0.29964,50.78451],[0.30076,50.78375]]]}},{"type":"Feature","properties":{"id":"E01020953","name":"E01020953","parent":"E07000061","type":"LSOA","pop":1541,"r":232,"ff":84,"ffd":5451.0,"ffs":0.459,"g":48,"co":0,"mo":0,"sa":0,"ic":0},"geometry":{"type":"Polygon","coordinates":[[[0.29665,50.78907],[0.29569,50.78834],[0.29473,50.78897],[0.29367,50.78826],[0.29472,50.78752],[0.29331,50.78664],[0.2949,50.78573],[0.29466,50.78526],[0.29529,50.78503],[0.29604,50.78538],[0.2966,50.78457],[0.29735,50.78473],[0.29838,50.78374],[0.29809,50.78356],[0.29763,50.78387],[0.29546,50.78258],[0.29435,50.78112],[0.29346,50.78149],[0.2941,50.78194],[0.29126,50.78271],[0.28984,50.78186],[0.28898,50.7825],[0.28535,50.78299],[0.28494,50.78285],[0.28159,50.7912],[0.2837,50.79166],[0.28738,50.7935],[0.28857,50.79431],[0.2887,50.79391],[0.29683,50.79049],[0.29517,50.78978],[0.29665,50.78907]]]}},{"type":"Feature","properties":{"id":"E01020954","name":"E01020954","parent":"E07000061","type":"LSOA","pop":1761,"r":231,"ff":83,"ffd":4713.2,"ffs":0.456,"g":48,"co":0,"mo":0,"sa":0,"ic":0},"geometry":{"type":"Polygon","coordinates":[[[0.28913,50.78225],[0.28984,50.78186],[0.29126,50.78271],[0.29204,50.78248],[0.29156,50.78196],[0.29268,50.78134],[0.29177,50.78055],[0.29289,50.78001],[0.29355,50.78032],[0.29403,50.7802],[0.29536,50.78057],[0.29617,50.78133],[0.29695,50.78152],[0.29732,50.78129],[0.29588,50.77993],[0.29693,50.77964],[0.2966,50.77916],[0.29826,50.77868],[0.29795,50.77823],[0.29836,50.77806],[0.29757,50.77769],[0.29761,50.77702],[0.2952,50.77756],[0.29283,50.77758],[0.29154,50.77724],[0.29004,50.77618],[0.28784,50.77718],[0.28737,50.77671],[0.28494,50.78285],[0.28535,50.78299],[0.28898,50.7825],[0.28913,50.78225]]]}},{"type":"Feature","properties":{"id":"E01020955","name":"E01020955","parent":"E07000061","type":"LSOA","pop":1656,"r":233,"ff":86,"ffd":5193.2,"ffs":0.4674,"g":48,"co":0,"mo":0,"sa":0,"ic":0},"geometry":{"type":"Polygon","coordinates":[[[0.31093,50.80072],[0.31113,50.80041],[0.3137,50.80066],[0.31345,50.80013],[0.3153,50.80031],[0.31602,50.79956],[0.31687,50.80027],[0.31753,50.79872],[0.31647,50.79906],[0.31579,50.7989],[0.31604,50.79841],[0.31647,50.79831],[0.31659,50.79767],[0.31516,50.79691],[0.31361,50.79683],[0.31316,50.79783],[0.31177,50.79749],[0.31202,50.79703],[0.31186,50.7966],[0.31057,50.79635],[0.31076,50.7961],[0.31126,50.79621],[0.31153,50.7957],[0.31031,50.79529],[0.30983,50.79556],[0.30936,50.79537],[0.30988,50.79474],[0.30198,50.79488],[0.30043,50.79617],[0.30611,50.79689],[0.30885,50.79686],[0.30812,50.79785],[0.30762,50.79816],[0.31112,50.79903],[0.30995,50.80067],[0.31159,50.80181],[0.31228,50.80153],[0.31093,50.80072]]]}},{"type":"Feature","properties":{"id":"E01020956","name":"E01020956","parent":"E07000061","type":"LSOA","pop":1652,"r":230,"ff":84,"ffd":5084.7,"ffs":0.4641,"g":48,"co":0,"mo":0,"sa":0,"ic":0},"geometry":{"type":"Polygon","coordinates":[[[0.32383,50.8068],[0.32482,50.80623],[0.32535,50.80637],[0.32595,50.80609],[0.32696,50.8054],[0.32697,50.80502],[0.32869,50.80482],[0.33032,50.80546],[0.33151,50.80432],[0.333,50.80412],[0.33249,50.80228],[0.33293,50.80216],[0.33061,50.80075],[0.32703,50.79929],[0.32537,50.79889],[0.32535,50.79916],[0.32609,50.79941],[0.32428,50.80127],[0.32226,50.80048],[0.32294,50.79969],[0.32138,50.79939],[0.32051,50.79839],[0.31997,50.79829],[0.31883,50.79828],[0.31753,50.79872],[0.31687,50.80027],[0.31602,50.79956],[0.3153,50.80031],[0.31345,50.80013],[0.3137,50.80066],[0.31113,50.80041],[0.31093,50.80072],[0.31228,50.80153],[0.31159,50.80181],[0.3132,50.80351],[0.31682,50.8055],[0.318,50.80414],[0.31835,50.80555],[0.3202,50.80697],[0.32069,50.80659],[0.32407,50.80786],[0.32383,50.8068]]]}},{"type":"Feature","properties":{"id":"E01020957","name":"E01020957","parent":"E07000061","type":"LSOA","pop":1582,"r":233,"ff":85,"ffd":5372.9,"ffs":0.462,"g":48,"co":0,"mo":0,"sa":0,"ic":0},"geometry":{"type":"Polygon","coordinates":[[[0.32537,50.79889],[0.32021,50.79639],[0.31763,50.79408],[0.31434,50.79288],[0.31398,50.79311],[0.31365,50.79452],[0.31095,50.79456],[0.30936,50.79537],[0.30983,50.79556],[0.31031,50.79529],[0.31153,50.7957],[0.31126,50.79621],[0.31076,50.7961],[0.31057,50.79635],[0.31186,50.7966],[0.31202,50.79703],[0.31177,50.79749],[0.31316,50.79783],[0.31361,50.79683],[0.31516,50.79691],[0.31659,50.79767],[0.31647,50.79831],[0.31604,50.79841],[0.31579,50.7989],[0.31647,50.79906],[0.31883,50.79828],[0.32051,50.79839],[0.32138,50.79939],[0.32294,50.79969],[0.32226,50.80048],[0.32428,50.80127],[0.32609,50.79941],[0.32535,50.79916],[0.32537,50.79889]]]}},{"type":"Feature","properties":{"id":"E01020959","name":"E01020959","parent":"E07000061","type":"LSOA","pop":1565,"r":233,"ff":85,"ffd":5431.3,"ffs":0.462,"g":48,"co":0,"mo":0,"sa":0,"ic":0},"geometry":{"type":"Polygon","coordinates":[[[0.31597,50.79103],[0.31604,50.79031],[0.31655,50.79058],[0.31707,50.79004],[0.31793,50.79061],[0.31856,50.79024],[0.31797,50.78958],[0.31708,50.78974],[0.31656,50.78932],[0.31601,50.78921],[0.31567,50.78864],[0.3156,50.78795],[0.31508,50.78765],[0.31505,50.78819],[0.31389,50.78904],[0.31352,50.78696],[0.31302,50.787],[0.31301,50.78764],[0.31097,50.7869],[0.30996,50.78709],[0.31048,50.7877],[0.30991,50.78806],[0.30934,50.78771],[0.30874,50.78791],[0.31037,50.7897],[0.31434,50.79288],[0.31763,50.79408],[0.31809,50.79386],[0.31693,50.79312],[0.31712,50.79292],[0.31597,50.79103]]]}},{"type":"Feature","properties":{"id":"E01020960","name":"E01020960","parent":"E07000061","type":"LSOA","pop":2375,"r":225,"ff":81,"ffd":3410.5,"ffs":0.4602,"g":48,"co":2,"mo":0,"sa":0,"ic":0},"geometry":{"type":"Polygon","coordinates":[[[0.32478,50.79385],[0.32562,50.79362],[0.32708,50.79374],[0.32854,50.79309],[0.32701,50.79116],[0.32767,50.79067],[0.32723,50.78967],[0.32733,50.78911],[0.32792,50.78849],[0.32854,50.78822],[0.32557,50.78813],[0.32506,50.78794],[0.32689,50.78674],[0.3259,50.78655],[0.32044,50.78955],[0.31961,50.78968],[0.31908,50.78915],[0.31854,50.78912],[0.31833,50.78853],[0.31656,50.78932],[0.31708,50.78974],[0.31797,50.78958],[0.31856,50.79024],[0.31793,50.79061],[0.31707,50.79004],[0.31655,50.79058],[0.31673,50.79093],[0.31759,50.79107],[0.31942,50.7929],[0.31973,50.79261],[0.31938,50.79231],[0.32032,50.79185],[0.32054,50.79224],[0.32159,50.79224],[0.32285,50.79368],[0.32478,50.79385]]]}},{"type":"Feature","properties":{"id":"E01020961","name":"E01020961","parent":"E07000061","type":"LSOA","pop":1423,"r":233,"ff":85,"ffd":5973.3,"ffs":0.462,"g":48,"co":0,"mo":0,"sa":0,"ic":0},"geometry":{"type":"Polygon","coordinates":[[[0.32115,50.78927],[0.32437,50.78731],[0.32395,50.7872],[0.32425,50.78647],[0.32374,50.78556],[0.31922,50.78806],[0.31835,50.78742],[0.31865,50.78718],[0.31837,50.78682],[0.31921,50.78653],[0.31899,50.78634],[0.31949,50.78594],[0.31629,50.78521],[0.31581,50.78487],[0.31443,50.78507],[0.31427,50.78446],[0.31358,50.78443],[0.3137,50.7829],[0.31318,50.78261],[0.31261,50.78271],[0.31203,50.78343],[0.30678,50.78599],[0.30874,50.78791],[0.30934,50.78771],[0.30991,50.78806],[0.31048,50.7877],[0.30996,50.78709],[0.31097,50.7869],[0.31301,50.78764],[0.31302,50.787],[0.31352,50.78696],[0.31389,50.78904],[0.31505,50.78819],[0.31508,50.78765],[0.3156,50.78795],[0.31567,50.78864],[0.31601,50.78921],[0.31656,50.78932],[0.31833,50.78853],[0.31854,50.78912],[0.31908,50.78915],[0.31961,50.78968],[0.32115,50.78927]]]}},{"type":"Feature","properties":{"id":"E01020962","name":"E01020962","parent":"E07000061","type":"LSOA","pop":2016,"r":230,"ff":83,"ffd":4117.1,"ffs":0.4586,"g":48,"co":0,"mo":0,"sa":0,"ic":0},"geometry":{"type":"Polygon","coordinates":[[[0.33037,50.78765],[0.33299,50.78791],[0.33135,50.78749],[0.32947,50.78603],[0.32883,50.78517],[0.32902,50.78488],[0.32821,50.78484],[0.32662,50.78404],[0.31581,50.78095],[0.31426,50.78254],[0.31318,50.78261],[0.3137,50.7829],[0.31358,50.78443],[0.31427,50.78446],[0.31443,50.78507],[0.31581,50.78487],[0.31629,50.78521],[0.31949,50.78594],[0.31899,50.78634],[0.31921,50.78653],[0.31837,50.78682],[0.31865,50.78718],[0.31835,50.78742],[0.31922,50.78806],[0.32374,50.78556],[0.32425,50.78647],[0.32395,50.7872],[0.32437,50.78731],[0.3259,50.78655],[0.32689,50.78674],[0.32506,50.78794],[0.32557,50.78813],[0.32854,50.78822],[0.32792,50.78849],[0.32749,50.78884],[0.32723,50.78946],[0.32745,50.78893],[0.32804,50.78847],[0.33037,50.78765]]]}},{"type":"Feature","properties":{"id":"E01020963","name":"E01020963","parent":"E07000061","type":"LSOA","pop":1996,"r":233,"ff":83,"ffd":4158.3,"ffs":0.4511,"g":48,"co":0,"mo":0,"sa":0,"ic":0},"geometry":{"type":"Polygon","coordinates":[[[0.28363,50.7861],[0.28646,50.77906],[0.28333,50.779],[0.28149,50.77937],[0.28012,50.78014],[0.27839,50.77853],[0.27979,50.7779],[0.27957,50.7777],[0.27205,50.77702],[0.27037,50.7779],[0.26991,50.77758],[0.26866,50.77795],[0.26783,50.77714],[0.26707,50.77729],[0.26634,50.77657],[0.26668,50.77672],[0.26714,50.77635],[0.26661,50.77592],[0.265,50.77832],[0.26395,50.78055],[0.26461,50.78094],[0.26546,50.78067],[0.26653,50.77853],[0.27277,50.78079],[0.27107,50.78125],[0.26966,50.78301],[0.26946,50.78395],[0.27174,50.78328],[0.27259,50.78399],[0.27407,50.7895],[0.2748,50.79023],[0.27705,50.79114],[0.28159,50.7912],[0.28363,50.7861]]]}},{"type":"Feature","properties":{"id":"E01020964","name":"E01020964","parent":"E07000061","type":"LSOA","pop":1636,"r":226,"ff":80,"ffd":4890.0,"ffs":0.452,"g":48,"co":0,"mo":0,"sa":0,"ic":0},"geometry":{"type":"Polygon","coordinates":[[[0.26685,50.7757],[0.26714,50.77544],[0.26815,50.77559],[0.27028,50.77534],[0.27201,50.77472],[0.27165,50.77421],[0.2707,50.77372],[0.27074,50.77316],[0.27005,50.77317],[0.26945,50.77231],[0.26896,50.77236],[0.26865,50.77139],[0.27097,50.77019],[0.27265,50.77043],[0.27296,50.76982],[0.27167,50.76905],[0.27178,50.76848],[0.26636,50.76751],[0.26509,50.76973],[0.26389,50.77084],[0.2631,50.77189],[0.26293,50.77221],[0.26671,50.77264],[0.26702,50.77348],[0.26676,50.77427],[0.26613,50.77481],[0.26661,50.77592],[0.26714,50.77635],[0.26742,50.77618],[0.26692,50.77601],[0.2675,50.77585],[0.26685,50.7757]]]}},{"type":"Feature","properties":{"id":"E01020965","name":"E01020965","parent":"E07000061","type":"LSOA","pop":1891,"r":226,"ff":79,"ffd":4177.7,"ffs":0.4463,"g":48,"co":0,"mo":0,"sa":0,"ic":0},"geometry":{"type":"Polygon","coordinates":[[[0.27898,50.77608],[0.28047,50.7753],[0.28323,50.77525],[0.28211,50.77441],[0.28252,50.77355],[0.28201,50.7736],[0.28183,50.77332],[0.28232,50.77305],[0.28067,50.77178],[0.28032,50.77197],[0.28014,50.77151],[0.27899,50.7705],[0.27755,50.77125],[0.27805,50.77152],[0.27632,50.77245],[0.27639,50.77187],[0.27583,50.77215],[0.27533,50.7717],[0.27508,50.77232],[0.27433,50.77249],[0.27416,50.77292],[0.27375,50.77268],[0.2731,50.77303],[0.2736,50.7735],[0.27281,50.77391],[0.27354,50.77424],[0.27475,50.77394],[0.2755,50.77452],[0.27638,50.77405],[0.27777,50.77513],[0.27736,50.77562],[0.2781,50.77555],[0.2783,50.77574],[0.27784,50.77595],[0.27845,50.77636],[0.27898,50.77608]]]}},{"type":"Feature","properties":{"id":"E01020966","name":"E01020966","parent":"E07000061","type":"LSOA","pop":1803,"r":229,"ff":81,"ffd":4492.5,"ffs":0.45,"g":48,"co":0,"mo":0,"sa":0,"ic":0},"geometry":{"type":"Polygon","coordinates":[[[0.28149,50.77937],[0.28333,50.779],[0.28646,50.77906],[0.28737,50.77671],[0.28736,50.77458],[0.28676,50.77304],[0.2857,50.7732],[0.28411,50.7721],[0.2835,50.77238],[0.28433,50.77323],[0.28232,50.77305],[0.28183,50.77332],[0.28201,50.7736],[0.28252,50.77355],[0.28211,50.77441],[0.28323,50.77525],[0.28047,50.7753],[0.27845,50.77636],[0.27784,50.77595],[0.2783,50.77574],[0.2781,50.77555],[0.27736,50.77562],[0.27777,50.77513],[0.27638,50.77405],[0.2755,50.77452],[0.27543,50.77536],[0.27701,50.77578],[0.27685,50.7762],[0.27522,50.77636],[0.27473,50.77721],[0.27957,50.7777],[0.27979,50.7779],[0.27839,50.77853],[0.28012,50.78014],[0.28149,50.77937]]]}},{"type":"Feature","properties":{"id":"E01020967","name":"E01020967","parent":"E07000061","type":"LSOA","pop":1897,"r":227,"ff":80,"ffd":4217.2,"ffs":0.4494,"g":48,"co":0,"mo":0,"sa":0,"ic":0},"geometry":{"type":"Polygon","coordinates":[[[0.26866,50.77795],[0.26991,50.77758],[0.27037,50.7779],[0.27205,50.77702],[0.27473,50.77721],[0.27522,50.77636],[0.27685,50.7762],[0.27701,50.77578],[0.27543,50.77536],[0.2755,50.77452],[0.27475,50.77394],[0.27354,50.77424],[0.27281,50.77391],[0.2736,50.7735],[0.2731,50.77303],[0.27375,50.77268],[0.27416,50.77292],[0.27433,50.77249],[0.27508,50.77232],[0.27533,50.7717],[0.27583,50.77215],[0.27639,50.77187],[0.2759,50.77117],[0.27728,50.77076],[0.27708,50.76993],[0.27472,50.77079],[0.2739,50.77036],[0.27465,50.77002],[0.27452,50.76938],[0.27319,50.76923],[0.27241,50.76949],[0.27296,50.76982],[0.27265,50.77043],[0.27097,50.77019],[0.26865,50.77139],[0.26896,50.77236],[0.26945,50.77231],[0.27005,50.77317],[0.27074,50.77316],[0.2707,50.77372],[0.27165,50.77421],[0.27201,50.77472],[0.27028,50.77534],[0.26815,50.77559],[0.26714,50.77544],[0.26685,50.7757],[0.2675,50.77585],[0.26692,50.77601],[0.26742,50.77618],[0.26668,50.77672],[0.26634,50.77657],[0.26707,50.77729],[0.26783,50.77714],[0.26866,50.77795]]]}},{"type":"Feature","properties":{"id":"E01020968","name":"E01020968","parent":"E07000061","type":"LSOA","pop":2210,"r":230,"ff":82,"ffd":3710.4,"ffs":0.453,"g":48,"co":0,"mo":0,"sa":0,"ic":0},"geometry":{"type":"Polygon","coordinates":[[[0.2835,50.77238],[0.28411,50.7721],[0.2857,50.7732],[0.28676,50.77304],[0.28496,50.77122],[0.28149,50.76953],[0.28115,50.76908],[0.27982,50.76919],[0.27964,50.769],[0.27961,50.76829],[0.2783,50.76675],[0.27478,50.76472],[0.27209,50.76817],[0.27148,50.76847],[0.27178,50.76848],[0.27167,50.76905],[0.27241,50.76949],[0.27319,50.76923],[0.27452,50.76938],[0.27465,50.77002],[0.2739,50.77036],[0.27472,50.77079],[0.27708,50.76993],[0.27728,50.77076],[0.2759,50.77117],[0.27639,50.77187],[0.27632,50.77245],[0.27805,50.77152],[0.27755,50.77125],[0.27899,50.7705],[0.28014,50.77151],[0.28032,50.77197],[0.28067,50.77178],[0.28232,50.77305],[0.28433,50.77323],[0.2835,50.77238]]]}},{"type":"Feature","properties":{"id":"E01032831","name":"E01032831","parent":"E07000061","type":"LSOA","pop":1583,"r":213,"ff":76,"ffd":4801.0,"ffs":0.4634,"g":48,"co":2,"mo":0,"sa":0,"ic":0},"geometry":{"type":"Polygon","coordinates":[[[0.33718,50.79917],[0.33693,50.79793],[0.33526,50.79801],[0.33462,50.79863],[0.33362,50.79785],[0.33379,50.79727],[0.33447,50.7969],[0.33239,50.79477],[0.3315,50.79522],[0.33101,50.79467],[0.329,50.79527],[0.32919,50.79546],[0.32846,50.79617],[0.32809,50.79602],[0.32818,50.79636],[0.32723,50.79669],[0.32835,50.79821],[0.32703,50.79929],[0.33061,50.80075],[0.33293,50.80216],[0.334,50.80216],[0.33792,50.79993],[0.33718,50.79917]]]}},{"type":"Feature","properties":{"id":"E01032832","name":"E01032832","parent":"E07000061","type":"LSOA","pop":1403,"r":230,"ff":84,"ffd":5987.2,"ffs":0.4641,"g":48,"co":0,"mo":0,"sa":0,"ic":0},"geometry":{"type":"Polygon","coordinates":[[[0.32818,50.79636],[0.32809,50.79602],[0.32846,50.79617],[0.32919,50.79546],[0.329,50.79527],[0.33101,50.79467],[0.3315,50.79522],[0.33239,50.79477],[0.33263,50.795],[0.3334,50.7947],[0.3316,50.79337],[0.33104,50.79379],[0.32981,50.7931],[0.32924,50.79318],[0.32872,50.79257],[0.32898,50.79238],[0.3281,50.79196],[0.32774,50.79208],[0.32854,50.79309],[0.32708,50.79374],[0.32562,50.79362],[0.32478,50.79385],[0.32285,50.79368],[0.32159,50.79224],[0.32054,50.79224],[0.32032,50.79185],[0.31938,50.79231],[0.31973,50.79261],[0.31942,50.7929],[0.31759,50.79107],[0.31673,50.79093],[0.31655,50.79058],[0.31604,50.79031],[0.31597,50.79103],[0.31712,50.79292],[0.31693,50.79312],[0.31809,50.79386],[0.31763,50.79408],[0.32021,50.79639],[0.32537,50.79889],[0.32703,50.79929],[0.32835,50.79821],[0.32723,50.79669],[0.32818,50.79636]]]}},{"type":"Feature","properties":{"id":"E01032833","name":"E01032833","parent":"E07000061","type":"LSOA","pop":1248,"r":214,"ff":76,"ffd":6089.7,"ffs":0.4606,"g":48,"co":2,"mo":0,"sa":0,"ic":0},"geometry":{"type":"MultiPolygon","coordinates":[[[[0.33379,50.78811],[0.33299,50.78791],[0.33285,50.78799],[0.33395,50.78816],[0.33379,50.78811]]],[[[0.33931,50.79914],[0.33314,50.79266],[0.3318,50.79079],[0.3317,50.79034],[0.33256,50.78981],[0.33282,50.78908],[0.33155,50.7902],[0.33102,50.79003],[0.33059,50.78918],[0.32963,50.78947],[0.33171,50.79205],[0.32957,50.79274],[0.32767,50.79067],[0.32701,50.79116],[0.32774,50.79208],[0.3281,50.79196],[0.32898,50.79238],[0.32872,50.79257],[0.32924,50.79318],[0.32981,50.7931],[0.33104,50.79379],[0.3316,50.79337],[0.3334,50.7947],[0.33263,50.795],[0.33447,50.7969],[0.33379,50.79727],[0.33362,50.79785],[0.33462,50.79863],[0.33526,50.79801],[0.33693,50.79793],[0.33718,50.79917],[0.33792,50.79993],[0.33931,50.79914]]]]}},{"type":"Feature","properties":{"id":"E01034298","name":"E01034298","parent":"E07000061","type":"LSOA","pop":2240,"r":203,"ff":72,"ffd":3214.3,"ffs":0.45,"g":42,"co":0,"mo":2,"sa":0,"ic":0},"geometry":{"type":"Polygon","coordinates":[[[0.25698,50.76063],[0.26045,50.76],[0.26193,50.76019],[0.26281,50.76062],[0.26427,50.75995],[0.26418,50.75926],[0.26475,50.75931],[0.26554,50.75887],[0.26662,50.75906],[0.26736,50.7575],[0.2692,50.75863],[0.27009,50.75865],[0.27097,50.75669],[0.27227,50.75699],[0.27427,50.75541],[0.28134,50.75871],[0.28374,50.76012],[0.28539,50.76149],[0.2868,50.76071],[0.28643,50.76024],[0.27779,50.75632],[0.27797,50.75617],[0.27362,50.75375],[0.27372,50.75354],[0.27049,50.7513],[0.26562,50.74659],[0.26216,50.74041],[0.26046,50.73864],[0.2581,50.73759],[0.25266,50.73734],[0.25012,50.73668],[0.24844,50.73661],[0.24338,50.73518],[0.2416,50.73503],[0.241,50.73443],[0.23989,50.73443],[0.23509,50.7356],[0.22657,50.73622],[0.2233,50.73696],[0.21809,50.73707],[0.21467,50.73797],[0.20995,50.73849],[0.2112,50.74298],[0.21247,50.74229],[0.21361,50.74062],[0.21549,50.73972],[0.21467,50.74454],[0.21356,50.74561],[0.21147,50.74933],[0.20938,50.75133],[0.21211,50.75278],[0.21335,50.75417],[0.21748,50.75714],[0.21361,50.76012],[0.22982,50.76043],[0.23429,50.7611],[0.24659,50.76519],[0.24906,50.76268],[0.25122,50.76181],[0.25698,50.76063]]]}}]}