{"type":"FeatureCollection","features":[{"type":"Feature","properties":{"id":"E01026791","name":"E01026791","parent":"E07000148","type":"LSOA","pop":1614,"r":155,"ff":63,"ffd":3903.3,"ffs":0.5385,"g":37,"co":2,"mo":2,"sa":0,"ic":0},"geometry":{"type":"Polygon","coordinates":[[[1.23531,52.64097],[1.23508,52.64034],[1.23393,52.63951],[1.23341,52.63994],[1.23195,52.64001],[1.23223,52.64016],[1.23143,52.64074],[1.23031,52.64056],[1.22996,52.64003],[1.23019,52.63955],[1.23195,52.63914],[1.23256,52.63877],[1.23202,52.6385],[1.23263,52.63835],[1.2319,52.6379],[1.23097,52.63818],[1.22624,52.63767],[1.22594,52.63957],[1.22446,52.63958],[1.22505,52.64023],[1.22554,52.64026],[1.22453,52.64127],[1.22525,52.64168],[1.22482,52.64195],[1.22611,52.64226],[1.2266,52.64142],[1.2261,52.64025],[1.22811,52.64043],[1.22795,52.64108],[1.22898,52.64203],[1.22895,52.6425],[1.23531,52.64097]]]}},{"type":"Feature","properties":{"id":"E01026792","name":"E01026792","parent":"E07000148","type":"LSOA","pop":1364,"r":191,"ff":79,"ffd":5791.8,"ffs":0.5411,"g":43,"co":2,"mo":2,"sa":0,"ic":0},"geometry":{"type":"Polygon","coordinates":[[[1.22895,52.6425],[1.22898,52.64203],[1.22795,52.64108],[1.22811,52.64043],[1.2261,52.64025],[1.2266,52.64142],[1.22611,52.64226],[1.22482,52.64195],[1.22525,52.64168],[1.22453,52.64127],[1.22497,52.64083],[1.22483,52.64038],[1.22415,52.64071],[1.22309,52.64048],[1.22283,52.64074],[1.22253,52.64035],[1.22291,52.63992],[1.22239,52.6397],[1.22182,52.64009],[1.22081,52.63945],[1.22163,52.63892],[1.22075,52.63864],[1.22101,52.63845],[1.22196,52.63856],[1.22292,52.63915],[1.22329,52.6387],[1.22273,52.63828],[1.22326,52.63833],[1.22319,52.63763],[1.22391,52.63774],[1.22321,52.63722],[1.22264,52.63748],[1.22217,52.63711],[1.22074,52.63702],[1.22086,52.63653],[1.2176,52.6362],[1.21773,52.6373],[1.216,52.63875],[1.21652,52.6391],[1.21727,52.63897],[1.21692,52.64022],[1.21792,52.64062],[1.21816,52.64139],[1.21965,52.64133],[1.21947,52.64314],[1.21707,52.64444],[1.22126,52.64396],[1.22895,52.6425]]]}},{"type":"Feature","properties":{"id":"E01026793","name":"E01026793","parent":"E07000148","type":"LSOA","pop":1955,"r":241,"ff":97,"ffd":4961.6,"ffs":0.5243,"g":54,"co":2,"mo":2,"sa":0,"ic":0},"geometry":{"type":"Polygon","coordinates":[[[1.24105,52.63935],[1.23965,52.63703],[1.23878,52.63714],[1.23849,52.63667],[1.23795,52.63666],[1.23653,52.63716],[1.23604,52.63792],[1.23514,52.63771],[1.23538,52.63682],[1.23464,52.63568],[1.23556,52.63523],[1.23521,52.6348],[1.23439,52.63463],[1.23442,52.635],[1.23392,52.63515],[1.23274,52.63449],[1.2323,52.63497],[1.2314,52.63503],[1.23139,52.63529],[1.23065,52.63506],[1.22883,52.63551],[1.23263,52.63835],[1.23202,52.6385],[1.23256,52.63877],[1.23195,52.63914],[1.23019,52.63955],[1.22996,52.64003],[1.23031,52.64056],[1.23143,52.64074],[1.23223,52.64016],[1.23195,52.64001],[1.23341,52.63994],[1.23393,52.63951],[1.23508,52.64034],[1.23531,52.64097],[1.23832,52.63999],[1.24105,52.63935]]]}},{"type":"Feature","properties":{"id":"E01026794","name":"E01026794","parent":"E07000148","type":"LSOA","pop":2174,"r":147,"ff":61,"ffd":2805.9,"ffs":0.5596,"g":38,"co":2,"mo":2,"sa":0,"ic":0},"geometry":{"type":"Polygon","coordinates":[[[1.21485,52.64475],[1.21707,52.64444],[1.21947,52.64314],[1.21965,52.64133],[1.21816,52.64139],[1.21792,52.64062],[1.21692,52.64022],[1.21727,52.63897],[1.21652,52.6391],[1.216,52.63875],[1.21773,52.6373],[1.2176,52.6362],[1.21384,52.6362],[1.21138,52.63741],[1.21001,52.63774],[1.20805,52.63896],[1.20634,52.63832],[1.20615,52.63951],[1.20508,52.63948],[1.20389,52.6447],[1.20494,52.64509],[1.20953,52.64524],[1.21117,52.6448],[1.21149,52.64536],[1.21485,52.64475]]]}},{"type":"Feature","properties":{"id":"E01026796","name":"E01026796","parent":"E07000148","type":"LSOA","pop":2076,"r":243,"ff":98,"ffd":4720.6,"ffs":0.5241,"g":54,"co":2,"mo":2,"sa":0,"ic":0},"geometry":{"type":"Polygon","coordinates":[[[1.23653,52.63716],[1.23795,52.63666],[1.23849,52.63667],[1.23878,52.63714],[1.23965,52.63703],[1.23898,52.63594],[1.24461,52.63341],[1.24197,52.63217],[1.24173,52.63126],[1.24066,52.63129],[1.2392,52.63093],[1.23436,52.63031],[1.23484,52.63072],[1.23322,52.63231],[1.23394,52.6326],[1.23279,52.63335],[1.23322,52.63395],[1.23264,52.63407],[1.23065,52.63506],[1.23139,52.63529],[1.2314,52.63503],[1.2323,52.63497],[1.23274,52.63449],[1.23392,52.63515],[1.23442,52.635],[1.23439,52.63463],[1.23521,52.6348],[1.23556,52.63523],[1.23464,52.63568],[1.23538,52.63682],[1.23514,52.63771],[1.23604,52.63792],[1.23653,52.63716]]]}},{"type":"Feature","properties":{"id":"E01026797","name":"E01026797","parent":"E07000148","type":"LSOA","pop":2660,"r":242,"ff":91,"ffd":3421.1,"ffs":0.4866,"g":53,"co":2,"mo":0,"sa":0,"ic":0},"geometry":{"type":"Polygon","coordinates":[[[1.30018,52.67686],[1.29966,52.67426],[1.29669,52.67437],[1.29482,52.67362],[1.29442,52.67305],[1.29524,52.67291],[1.29207,52.67167],[1.29303,52.67148],[1.29211,52.66865],[1.2938,52.6685],[1.29366,52.666],[1.29287,52.66462],[1.29139,52.6645],[1.29114,52.66366],[1.29157,52.66352],[1.29077,52.66314],[1.29079,52.66282],[1.29039,52.66267],[1.28953,52.66298],[1.2891,52.66247],[1.28724,52.66223],[1.28705,52.6607],[1.28832,52.6605],[1.28843,52.65988],[1.28907,52.65975],[1.29023,52.66024],[1.29109,52.66007],[1.29014,52.65905],[1.29041,52.65808],[1.29095,52.65799],[1.29085,52.65769],[1.29016,52.65764],[1.29072,52.6575],[1.29035,52.65696],[1.28945,52.65706],[1.28931,52.65626],[1.28894,52.65624],[1.28676,52.65696],[1.28593,52.65621],[1.28495,52.65616],[1.28504,52.65592],[1.28418,52.65604],[1.2834,52.65293],[1.28376,52.65291],[1.28129,52.65084],[1.28239,52.64987],[1.2826,52.64905],[1.28138,52.64877],[1.27855,52.65462],[1.27719,52.65652],[1.28076,52.65738],[1.28426,52.65764],[1.28484,52.65917],[1.28499,52.66022],[1.28239,52.66029],[1.28041,52.66066],[1.28085,52.66196],[1.27866,52.66212],[1.27816,52.66276],[1.27707,52.66598],[1.27306,52.66678],[1.27229,52.66668],[1.27102,52.66877],[1.26931,52.67099],[1.26603,52.67334],[1.26464,52.67492],[1.26286,52.67741],[1.28295,52.67734],[1.29233,52.68494],[1.29533,52.68245],[1.29543,52.68159],[1.29607,52.68136],[1.2954,52.67873],[1.29628,52.67749],[1.29708,52.67746],[1.29727,52.6771],[1.30018,52.67686]]]}},{"type":"Feature","properties":{"id":"E01026798","name":"E01026798","parent":"E07000148","type":"LSOA","pop":1514,"r":270,"ff":104,"ffd":6869.2,"ffs":0.4976,"g":59,"co":0,"mo":0,"sa":0,"ic":0},"geometry":{"type":"Polygon","coordinates":[[[1.28855,52.65636],[1.28909,52.6557],[1.2884,52.6554],[1.28931,52.65469],[1.29138,52.65432],[1.29137,52.65392],[1.29227,52.65363],[1.29199,52.65307],[1.29272,52.65284],[1.29168,52.65233],[1.29204,52.6516],[1.29138,52.65145],[1.29013,52.65195],[1.28924,52.65182],[1.2884,52.6512],[1.28665,52.65143],[1.28609,52.65203],[1.28793,52.65186],[1.28883,52.65224],[1.28398,52.65268],[1.28373,52.65296],[1.2834,52.65293],[1.28418,52.65604],[1.28504,52.65592],[1.28495,52.65616],[1.28593,52.65621],[1.28676,52.65696],[1.28855,52.65636]]]}},{"type":"Feature","properties":{"id":"E01026799","name":"E01026799","parent":"E07000148","type":"LSOA","pop":1479,"r":256,"ff":97,"ffd":6558.5,"ffs":0.4874,"g":55,"co":2,"mo":0,"sa":0,"ic":0},"geometry":{"type":"Polygon","coordinates":[[[1.29287,52.66462],[1.29193,52.66256],[1.29171,52.66134],[1.29255,52.66129],[1.29304,52.66077],[1.2924,52.66019],[1.2926,52.65501],[1.29404,52.65459],[1.29281,52.65401],[1.29307,52.65281],[1.29199,52.65307],[1.29227,52.65363],[1.29137,52.65392],[1.29138,52.65432],[1.28931,52.65469],[1.2884,52.6554],[1.28909,52.6557],[1.28855,52.65636],[1.28931,52.65626],[1.28945,52.65706],[1.29035,52.65696],[1.29072,52.6575],[1.29016,52.65764],[1.29085,52.65769],[1.29095,52.65799],[1.29041,52.65808],[1.29014,52.65905],[1.29109,52.66007],[1.29023,52.66024],[1.28907,52.65975],[1.28843,52.65988],[1.28832,52.6605],[1.28705,52.6607],[1.28724,52.66223],[1.2891,52.66247],[1.28953,52.66298],[1.29039,52.66267],[1.29079,52.66282],[1.29077,52.66314],[1.29157,52.66352],[1.29114,52.66366],[1.29139,52.6645],[1.29287,52.66462]]]}},{"type":"Feature","properties":{"id":"E01026800","name":"E01026800","parent":"E07000148","type":"LSOA","pop":2131,"r":267,"ff":103,"ffd":4833.4,"ffs":0.4952,"g":57,"co":0,"mo":0,"sa":0,"ic":0},"geometry":{"type":"Polygon","coordinates":[[[1.28883,52.65224],[1.28793,52.65186],[1.28609,52.65203],[1.28665,52.65143],[1.2884,52.6512],[1.28924,52.65182],[1.29013,52.65195],[1.29138,52.65145],[1.29222,52.65155],[1.29261,52.65142],[1.29289,52.65049],[1.29413,52.65033],[1.29417,52.65006],[1.29493,52.64996],[1.29505,52.64922],[1.29301,52.64927],[1.29262,52.64909],[1.29279,52.6488],[1.29109,52.64854],[1.29099,52.64811],[1.2895,52.64786],[1.28889,52.6495],[1.28791,52.6486],[1.28738,52.64861],[1.2857,52.64682],[1.28479,52.64701],[1.28355,52.64608],[1.28138,52.64877],[1.2826,52.64905],[1.28239,52.64987],[1.28129,52.65084],[1.28376,52.65291],[1.28398,52.65268],[1.28883,52.65224]]]}},{"type":"Feature","properties":{"id":"E01026801","name":"E01026801","parent":"E07000148","type":"LSOA","pop":1579,"r":272,"ff":105,"ffd":6649.8,"ffs":0.4953,"g":58,"co":0,"mo":0,"sa":0,"ic":0},"geometry":{"type":"Polygon","coordinates":[[[1.29917,52.65283],[1.29976,52.65273],[1.29998,52.65329],[1.30235,52.65307],[1.30224,52.65282],[1.3071,52.65228],[1.30721,52.65263],[1.30907,52.65229],[1.30802,52.65139],[1.3077,52.6516],[1.30559,52.65131],[1.305,52.65075],[1.30422,52.65092],[1.30372,52.64974],[1.30302,52.64951],[1.30067,52.65012],[1.29861,52.65031],[1.29797,52.64904],[1.29099,52.64811],[1.29109,52.64854],[1.29279,52.6488],[1.29262,52.64909],[1.29301,52.64927],[1.29505,52.64922],[1.29493,52.64996],[1.29417,52.65006],[1.29413,52.65033],[1.29289,52.65049],[1.29261,52.65142],[1.29204,52.6516],[1.29168,52.65233],[1.29272,52.65284],[1.29307,52.65281],[1.29281,52.65401],[1.29404,52.65459],[1.29448,52.65445],[1.29403,52.65396],[1.29513,52.65346],[1.29917,52.65283]]]}},{"type":"Feature","properties":{"id":"E01026802","name":"E01026802","parent":"E07000148","type":"LSOA","pop":1729,"r":271,"ff":106,"ffd":6130.7,"ffs":0.5048,"g":59,"co":0,"mo":0,"sa":0,"ic":0},"geometry":{"type":"Polygon","coordinates":[[[1.311,52.65146],[1.31485,52.64902],[1.32298,52.64502],[1.3175,52.64333],[1.31618,52.64192],[1.31335,52.64109],[1.31064,52.64248],[1.3103,52.64335],[1.30916,52.64358],[1.30701,52.64464],[1.30475,52.64517],[1.30594,52.64572],[1.30471,52.64625],[1.30392,52.64571],[1.30281,52.64589],[1.30586,52.64825],[1.30302,52.64951],[1.30372,52.64974],[1.30422,52.65092],[1.305,52.65075],[1.30559,52.65131],[1.3077,52.6516],[1.30802,52.65139],[1.30907,52.65229],[1.30721,52.65263],[1.30915,52.653],[1.311,52.65146]]]}},{"type":"Feature","properties":{"id":"E01026803","name":"E01026803","parent":"E07000148","type":"LSOA","pop":1521,"r":250,"ff":92,"ffd":6048.7,"ffs":0.4792,"g":56,"co":2,"mo":0,"sa":0,"ic":0},"geometry":{"type":"Polygon","coordinates":[[[1.33676,52.64486],[1.33617,52.64386],[1.33656,52.64376],[1.33695,52.64431],[1.33752,52.64416],[1.33673,52.6433],[1.33778,52.64306],[1.33823,52.64349],[1.33772,52.64381],[1.3379,52.64406],[1.33876,52.6438],[1.3391,52.64401],[1.33944,52.64322],[1.34069,52.64326],[1.3397,52.6421],[1.34108,52.64096],[1.33459,52.63897],[1.33437,52.63923],[1.33261,52.63999],[1.33127,52.6401],[1.33182,52.64073],[1.33316,52.64079],[1.33354,52.64107],[1.33267,52.6414],[1.33317,52.64181],[1.3328,52.64207],[1.33311,52.64252],[1.33377,52.64259],[1.33345,52.6433],[1.33395,52.64358],[1.33388,52.64411],[1.33452,52.64395],[1.33565,52.64452],[1.33591,52.64437],[1.33621,52.6448],[1.33583,52.64508],[1.33676,52.6452],[1.33676,52.64486]]]}},{"type":"Feature","properties":{"id":"E01026804","name":"E01026804","parent":"E07000148","type":"LSOA","pop":1499,"r":260,"ff":97,"ffd":6471.0,"ffs":0.4874,"g":59,"co":2,"mo":0,"sa":0,"ic":0},"geometry":{"type":"Polygon","coordinates":[[[1.3248,52.64409],[1.32691,52.64265],[1.32856,52.64227],[1.33153,52.64288],[1.33176,52.64241],[1.33278,52.6434],[1.33345,52.6433],[1.33377,52.64259],[1.33311,52.64252],[1.3328,52.64207],[1.33317,52.64181],[1.33267,52.6414],[1.33354,52.64107],[1.33316,52.64079],[1.33182,52.64073],[1.33127,52.6401],[1.33261,52.63999],[1.33437,52.63923],[1.33459,52.63897],[1.32986,52.63758],[1.32914,52.63364],[1.32883,52.6333],[1.32825,52.63357],[1.32793,52.63307],[1.32705,52.63383],[1.32622,52.6335],[1.32663,52.63437],[1.32616,52.63498],[1.32684,52.6356],[1.32775,52.63543],[1.32787,52.63566],[1.32758,52.63636],[1.32656,52.6361],[1.32643,52.63654],[1.32528,52.6362],[1.32429,52.63723],[1.32528,52.63766],[1.32387,52.63843],[1.32485,52.63863],[1.32504,52.63992],[1.32636,52.6398],[1.32713,52.64008],[1.32683,52.64104],[1.3248,52.64059],[1.32108,52.64091],[1.31733,52.64207],[1.31618,52.64192],[1.3175,52.64333],[1.32297,52.64502],[1.3248,52.64409]]]}},{"type":"Feature","properties":{"id":"E01026805","name":"E01026805","parent":"E07000148","type":"LSOA","pop":1523,"r":247,"ff":92,"ffd":6040.7,"ffs":0.4792,"g":53,"co":2,"mo":0,"sa":0,"ic":0},"geometry":{"type":"Polygon","coordinates":[[[1.33621,52.6448],[1.33591,52.64437],[1.33565,52.64452],[1.33452,52.64395],[1.33388,52.64411],[1.33395,52.64358],[1.33345,52.6433],[1.33278,52.6434],[1.33176,52.64241],[1.33153,52.64288],[1.32856,52.64227],[1.32691,52.64265],[1.3248,52.64409],[1.32297,52.64502],[1.33469,52.64815],[1.33591,52.64634],[1.3346,52.64542],[1.33583,52.64508],[1.33621,52.6448]]]}},{"type":"Feature","properties":{"id":"E01026806","name":"E01026806","parent":"E07000148","type":"LSOA","pop":1343,"r":262,"ff":101,"ffd":7520.5,"ffs":0.5,"g":58,"co":0,"mo":0,"sa":0,"ic":0},"geometry":{"type":"Polygon","coordinates":[[[1.32108,52.64091],[1.3248,52.64059],[1.32683,52.64104],[1.32713,52.64008],[1.32636,52.6398],[1.32504,52.63992],[1.32485,52.63863],[1.32387,52.63843],[1.32528,52.63766],[1.32304,52.6369],[1.32273,52.63635],[1.32178,52.63608],[1.32216,52.63528],[1.32154,52.6351],[1.32102,52.6355],[1.31988,52.63512],[1.31931,52.6356],[1.31787,52.63555],[1.31745,52.63618],[1.31542,52.63759],[1.31366,52.63711],[1.31207,52.63877],[1.31249,52.64016],[1.31335,52.64109],[1.31618,52.64192],[1.31733,52.64207],[1.32108,52.64091]]]}},{"type":"Feature","properties":{"id":"E01026807","name":"E01026807","parent":"E07000148","type":"LSOA","pop":1333,"r":267,"ff":101,"ffd":7576.9,"ffs":0.4951,"g":61,"co":0,"mo":0,"sa":0,"ic":0},"geometry":{"type":"Polygon","coordinates":[[[1.31745,52.63618],[1.31787,52.63555],[1.31931,52.6356],[1.31988,52.63512],[1.32102,52.6355],[1.32154,52.6351],[1.32216,52.63528],[1.32178,52.63608],[1.32273,52.63635],[1.32304,52.6369],[1.32429,52.63723],[1.32528,52.6362],[1.32643,52.63654],[1.32656,52.6361],[1.32297,52.63499],[1.32355,52.63463],[1.32319,52.63381],[1.32407,52.63332],[1.32317,52.63279],[1.32076,52.63279],[1.32052,52.63254],[1.32008,52.63262],[1.32047,52.63198],[1.32011,52.63175],[1.31959,52.63268],[1.31956,52.63308],[1.3176,52.63281],[1.31717,52.63384],[1.31637,52.63372],[1.3161,52.63407],[1.31556,52.63388],[1.31508,52.6345],[1.31557,52.6347],[1.31366,52.63711],[1.31542,52.63759],[1.31745,52.63618]]]}},{"type":"Feature","properties":{"id":"E01026808","name":"E01026808","parent":"E07000148","type":"LSOA","pop":1229,"r":265,"ff":103,"ffd":8380.8,"ffs":0.5024,"g":58,"co":0,"mo":0,"sa":0,"ic":0},"geometry":{"type":"Polygon","coordinates":[[[1.32787,52.63566],[1.32775,52.63543],[1.32684,52.6356],[1.32616,52.63498],[1.32663,52.63437],[1.32622,52.6335],[1.32705,52.63383],[1.32793,52.63307],[1.32825,52.63357],[1.32883,52.6333],[1.32914,52.63364],[1.32877,52.63064],[1.32834,52.62973],[1.32703,52.63022],[1.32493,52.63027],[1.32424,52.63073],[1.32434,52.63113],[1.32404,52.63132],[1.32271,52.63031],[1.32201,52.63033],[1.32138,52.63247],[1.32052,52.63254],[1.32076,52.63279],[1.32317,52.63279],[1.32407,52.63332],[1.32319,52.63381],[1.32355,52.63463],[1.32297,52.63499],[1.32758,52.63636],[1.32787,52.63566]]]}},{"type":"Feature","properties":{"id":"E01026809","name":"E01026809","parent":"E07000148","type":"LSOA","pop":1465,"r":244,"ff":91,"ffd":6211.6,"ffs":0.4789,"g":52,"co":2,"mo":0,"sa":0,"ic":0},"geometry":{"type":"Polygon","coordinates":[[[1.34132,52.64615],[1.34224,52.64132],[1.34108,52.64096],[1.3397,52.6421],[1.34069,52.64326],[1.33944,52.64322],[1.3391,52.64401],[1.33876,52.6438],[1.3379,52.64406],[1.33772,52.64381],[1.33823,52.64349],[1.33778,52.64306],[1.33673,52.6433],[1.33752,52.64416],[1.33695,52.64431],[1.33656,52.64376],[1.33617,52.64386],[1.33676,52.64486],[1.33676,52.6452],[1.33583,52.64508],[1.3346,52.64542],[1.33591,52.64634],[1.33469,52.64815],[1.34057,52.6497],[1.34132,52.64615]]]}},{"type":"Feature","properties":{"id":"E01026810","name":"E01026810","parent":"E07000148","type":"LSOA","pop":1732,"r":240,"ff":96,"ffd":5542.7,"ffs":0.5079,"g":49,"co":2,"mo":2,"sa":0,"ic":0},"geometry":{"type":"Polygon","coordinates":[[[1.25678,52.62008],[1.25641,52.61813],[1.25296,52.61809],[1.24804,52.61691],[1.24785,52.61572],[1.25026,52.61516],[1.25056,52.61544],[1.25056,52.61606],[1.25154,52.61703],[1.25225,52.61517],[1.25327,52.61543],[1.25489,52.61532],[1.25548,52.61572],[1.25537,52.61616],[1.25964,52.61646],[1.26104,52.61615],[1.26183,52.61553],[1.26108,52.61481],[1.26157,52.61405],[1.26242,52.61385],[1.2624,52.61318],[1.26288,52.6132],[1.25483,52.61078],[1.25387,52.61195],[1.25275,52.61164],[1.25228,52.61199],[1.25181,52.61146],[1.25086,52.61158],[1.2504,52.61129],[1.25104,52.61085],[1.2511,52.61027],[1.25021,52.60972],[1.2504,52.60945],[1.25258,52.60959],[1.25303,52.60847],[1.25226,52.60803],[1.25374,52.60735],[1.25422,52.60695],[1.25314,52.60636],[1.25205,52.6045],[1.25099,52.60532],[1.25085,52.60611],[1.24866,52.60671],[1.2475,52.60665],[1.24603,52.6072],[1.24552,52.60804],[1.24363,52.6085],[1.24158,52.61016],[1.24242,52.61076],[1.24213,52.61128],[1.24311,52.61239],[1.24322,52.61315],[1.24395,52.61337],[1.24453,52.61445],[1.24354,52.61489],[1.24373,52.61532],[1.24322,52.61578],[1.24355,52.61714],[1.24667,52.61987],[1.24722,52.61962],[1.24914,52.61982],[1.25143,52.62106],[1.25485,52.62191],[1.25623,52.62111],[1.25678,52.62008]]]}},{"type":"Feature","properties":{"id":"E01026811","name":"E01026811","parent":"E07000148","type":"LSOA","pop":1596,"r":256,"ff":104,"ffd":6516.3,"ffs":0.5253,"g":56,"co":2,"mo":0,"sa":0,"ic":0},"geometry":{"type":"Polygon","coordinates":[[[1.27504,52.61696],[1.2737,52.61652],[1.27498,52.61567],[1.28222,52.61258],[1.28073,52.6106],[1.2803,52.6097],[1.27944,52.60704],[1.27835,52.60206],[1.27689,52.59812],[1.27672,52.59849],[1.27445,52.59895],[1.27483,52.59984],[1.27449,52.60023],[1.27282,52.60035],[1.27276,52.60077],[1.27025,52.60154],[1.27101,52.60315],[1.27407,52.60398],[1.27646,52.60401],[1.27662,52.60436],[1.27618,52.60452],[1.27573,52.60578],[1.27326,52.60585],[1.27221,52.60655],[1.27323,52.60887],[1.27144,52.60969],[1.27341,52.61101],[1.27176,52.61158],[1.27096,52.61142],[1.27031,52.61178],[1.27075,52.61209],[1.27004,52.61196],[1.26949,52.61235],[1.26995,52.61266],[1.26896,52.61281],[1.26941,52.61308],[1.26804,52.6141],[1.26783,52.61466],[1.2686,52.61488],[1.2689,52.61445],[1.2699,52.61469],[1.26854,52.61542],[1.26922,52.61596],[1.27006,52.61591],[1.26971,52.61759],[1.27073,52.61774],[1.27138,52.61698],[1.27239,52.61665],[1.27315,52.6169],[1.27283,52.61707],[1.274,52.61782],[1.27335,52.61845],[1.27356,52.61905],[1.27625,52.61735],[1.27504,52.61696]]]}},{"type":"Feature","properties":{"id":"E01026812","name":"E01026812","parent":"E07000148","type":"LSOA","pop":1616,"r":221,"ff":91,"ffd":5631.2,"ffs":0.5112,"g":41,"co":2,"mo":0,"sa":0,"ic":0},"geometry":{"type":"Polygon","coordinates":[[[1.26646,52.61296],[1.26807,52.61245],[1.26896,52.61281],[1.26995,52.61266],[1.26949,52.61235],[1.27004,52.61196],[1.27075,52.61209],[1.27031,52.61178],[1.27096,52.61142],[1.27176,52.61158],[1.27341,52.61101],[1.27144,52.60969],[1.27323,52.60887],[1.27221,52.60655],[1.27326,52.60585],[1.27573,52.60578],[1.27618,52.60452],[1.27662,52.60436],[1.27646,52.60401],[1.27407,52.60398],[1.27101,52.60315],[1.27025,52.60154],[1.26848,52.60174],[1.26843,52.60144],[1.26697,52.60142],[1.26503,52.60061],[1.26208,52.6018],[1.26128,52.604],[1.26371,52.60402],[1.26394,52.60442],[1.26341,52.60448],[1.26291,52.60525],[1.26243,52.60512],[1.26178,52.60559],[1.25901,52.60545],[1.25863,52.60591],[1.25946,52.60615],[1.25957,52.60656],[1.25925,52.60711],[1.25874,52.60704],[1.25842,52.60735],[1.26067,52.60806],[1.26037,52.60862],[1.26163,52.60859],[1.26215,52.60891],[1.26307,52.60876],[1.26322,52.60896],[1.26148,52.60987],[1.26264,52.61086],[1.26394,52.61081],[1.26479,52.61019],[1.26752,52.61189],[1.26691,52.61234],[1.26647,52.61213],[1.26595,52.61259],[1.26483,52.61241],[1.26429,52.61274],[1.2616,52.61191],[1.26119,52.61093],[1.26068,52.61077],[1.25973,52.61211],[1.25917,52.61209],[1.26544,52.61394],[1.26646,52.61296]]]}},{"type":"Feature","properties":{"id":"E01026813","name":"E01026813","parent":"E07000148","type":"LSOA","pop":1469,"r":229,"ff":93,"ffd":6330.8,"ffs":0.5138,"g":46,"co":2,"mo":0,"sa":0,"ic":0},"geometry":{"type":"Polygon","coordinates":[[[1.26429,52.61274],[1.26483,52.61241],[1.26595,52.61259],[1.26647,52.61213],[1.26691,52.61234],[1.26752,52.61189],[1.26479,52.61019],[1.26394,52.61081],[1.26264,52.61086],[1.26148,52.60987],[1.26322,52.60896],[1.26307,52.60876],[1.26215,52.60891],[1.26163,52.60859],[1.26037,52.60862],[1.26067,52.60806],[1.25842,52.60735],[1.25874,52.60704],[1.25925,52.60711],[1.25957,52.60656],[1.25946,52.60615],[1.25863,52.60591],[1.25901,52.60545],[1.26178,52.60559],[1.26243,52.60512],[1.26291,52.60525],[1.26341,52.60448],[1.26394,52.60442],[1.26371,52.60402],[1.26128,52.604],[1.26208,52.6018],[1.26503,52.60061],[1.26358,52.60008],[1.26247,52.59783],[1.26146,52.59757],[1.25779,52.59815],[1.2557,52.59987],[1.25584,52.60043],[1.25501,52.60071],[1.2549,52.60186],[1.25205,52.6045],[1.25314,52.60636],[1.25422,52.60695],[1.25374,52.60735],[1.25226,52.60803],[1.25303,52.60847],[1.25258,52.60959],[1.2504,52.60945],[1.25021,52.60972],[1.2511,52.61027],[1.25104,52.61085],[1.2504,52.61129],[1.25086,52.61158],[1.25181,52.61146],[1.25228,52.61199],[1.25275,52.61164],[1.25387,52.61195],[1.25483,52.61078],[1.25917,52.61209],[1.25973,52.61211],[1.26068,52.61077],[1.26119,52.61093],[1.2616,52.61191],[1.26429,52.61274]]]}},{"type":"Feature","properties":{"id":"E01026814","name":"E01026814","parent":"E07000148","type":"LSOA","pop":1676,"r":257,"ff":102,"ffd":6085.9,"ffs":0.5075,"g":54,"co":0,"mo":2,"sa":0,"ic":0},"geometry":{"type":"Polygon","coordinates":[[[1.26222,52.62244],[1.26415,52.62125],[1.26292,52.62076],[1.26283,52.62023],[1.26404,52.61996],[1.2644,52.61954],[1.2636,52.61832],[1.26108,52.61675],[1.26104,52.61615],[1.25964,52.61646],[1.25537,52.61616],[1.25548,52.61572],[1.25489,52.61532],[1.25327,52.61543],[1.25225,52.61517],[1.25154,52.61703],[1.25056,52.61606],[1.25056,52.61544],[1.25026,52.61516],[1.24785,52.61572],[1.24804,52.61691],[1.25296,52.61809],[1.25641,52.61813],[1.25678,52.62008],[1.25623,52.62111],[1.25485,52.62191],[1.25725,52.62206],[1.26073,52.62192],[1.26222,52.62244]]]}},{"type":"Feature","properties":{"id":"E01026815","name":"E01026815","parent":"E07000148","type":"LSOA","pop":1471,"r":266,"ff":103,"ffd":7002.0,"ffs":0.5049,"g":60,"co":0,"mo":2,"sa":0,"ic":0},"geometry":{"type":"Polygon","coordinates":[[[1.26696,52.6201],[1.26832,52.61955],[1.27088,52.62072],[1.27356,52.61905],[1.27335,52.61845],[1.274,52.61782],[1.27283,52.61707],[1.27315,52.6169],[1.27239,52.61665],[1.27138,52.61698],[1.27073,52.61774],[1.26971,52.61759],[1.27006,52.61591],[1.26922,52.61596],[1.26854,52.61542],[1.2699,52.61469],[1.2689,52.61445],[1.2686,52.61488],[1.26783,52.61466],[1.26804,52.6141],[1.26941,52.61308],[1.26896,52.61281],[1.26807,52.61245],[1.26646,52.61296],[1.26544,52.61394],[1.2624,52.61318],[1.26242,52.61385],[1.26157,52.61405],[1.26108,52.61481],[1.26183,52.61553],[1.26104,52.61615],[1.26108,52.61675],[1.2636,52.61832],[1.2644,52.61954],[1.26404,52.61996],[1.26283,52.62023],[1.26292,52.62076],[1.26415,52.62125],[1.26696,52.6201]]]}},{"type":"Feature","properties":{"id":"E01026816","name":"E01026816","parent":"E07000148","type":"LSOA","pop":1874,"r":267,"ff":103,"ffd":5496.3,"ffs":0.5074,"g":62,"co":2,"mo":0,"sa":0,"ic":0},"geometry":{"type":"Polygon","coordinates":[[[1.30252,52.62039],[1.30438,52.62007],[1.30608,52.62063],[1.30736,52.61947],[1.30763,52.61839],[1.30681,52.61847],[1.30591,52.61952],[1.30562,52.61878],[1.30514,52.61881],[1.30453,52.61943],[1.30402,52.61905],[1.3035,52.61941],[1.30304,52.61896],[1.30344,52.61863],[1.3023,52.61852],[1.30222,52.61824],[1.30431,52.61779],[1.30471,52.61727],[1.30329,52.61657],[1.30363,52.61651],[1.30321,52.61567],[1.30244,52.61608],[1.29924,52.61622],[1.29924,52.61482],[1.2979,52.6141],[1.29569,52.6151],[1.2972,52.6175],[1.29846,52.62042],[1.29956,52.62102],[1.30113,52.6209],[1.30252,52.62039]]]}},{"type":"Feature","properties":{"id":"E01026817","name":"E01026817","parent":"E07000148","type":"LSOA","pop":1518,"r":265,"ff":101,"ffd":6653.5,"ffs":0.5025,"g":62,"co":2,"mo":0,"sa":0,"ic":0},"geometry":{"type":"Polygon","coordinates":[[[1.30591,52.61952],[1.30681,52.61847],[1.30763,52.61839],[1.30763,52.61765],[1.30997,52.61658],[1.31022,52.61606],[1.30917,52.61435],[1.30653,52.612],[1.30922,52.61073],[1.30889,52.61008],[1.30679,52.60892],[1.30529,52.60893],[1.30274,52.60813],[1.30218,52.60695],[1.29979,52.60555],[1.29969,52.6049],[1.29834,52.6056],[1.29789,52.60535],[1.29704,52.60357],[1.29526,52.60425],[1.29817,52.60662],[1.29849,52.60716],[1.29819,52.60788],[1.29913,52.60812],[1.29957,52.60768],[1.30134,52.60821],[1.30141,52.60961],[1.30117,52.61012],[1.30294,52.61102],[1.30289,52.61202],[1.30134,52.61261],[1.30222,52.61306],[1.30153,52.61325],[1.3017,52.61349],[1.30117,52.61376],[1.30046,52.61359],[1.29974,52.61393],[1.29819,52.61394],[1.2979,52.6141],[1.29924,52.61482],[1.29924,52.61622],[1.30244,52.61608],[1.30321,52.61567],[1.30363,52.61651],[1.30329,52.61657],[1.30471,52.61727],[1.30431,52.61779],[1.30222,52.61824],[1.3023,52.61852],[1.30344,52.61863],[1.30304,52.61896],[1.3035,52.61941],[1.30402,52.61905],[1.30453,52.61943],[1.30514,52.61881],[1.30562,52.61878],[1.30591,52.61952]]]}},{"type":"Feature","properties":{"id":"E01026818","name":"E01026818","parent":"E07000148","type":"LSOA","pop":1578,"r":269,"ff":105,"ffd":6654.0,"ffs":0.5147,"g":63,"co":2,"mo":0,"sa":0,"ic":0},"geometry":{"type":"Polygon","coordinates":[[[1.29819,52.61394],[1.29818,52.61283],[1.29693,52.61249],[1.2963,52.61302],[1.29557,52.6127],[1.29485,52.61357],[1.29402,52.61307],[1.29416,52.61246],[1.29502,52.61218],[1.2942,52.60965],[1.29728,52.60924],[1.29769,52.60992],[1.29886,52.60962],[1.29898,52.61017],[1.30117,52.61012],[1.30141,52.60961],[1.30134,52.60821],[1.29957,52.60768],[1.29913,52.60812],[1.29819,52.60788],[1.29849,52.60716],[1.29817,52.60662],[1.29526,52.60425],[1.29704,52.60357],[1.29524,52.60253],[1.29375,52.60345],[1.29344,52.60324],[1.29226,52.60353],[1.29222,52.60404],[1.29289,52.60421],[1.29421,52.60539],[1.29579,52.6052],[1.29495,52.60594],[1.29572,52.6062],[1.29539,52.60662],[1.2933,52.60665],[1.29265,52.60702],[1.2922,52.60656],[1.28845,52.60798],[1.29026,52.61024],[1.28582,52.61101],[1.28342,52.61183],[1.28348,52.61208],[1.28402,52.61187],[1.28609,52.61511],[1.29347,52.6133],[1.29569,52.6151],[1.29819,52.61394]]]}},{"type":"Feature","properties":{"id":"E01026819","name":"E01026819","parent":"E07000148","type":"LSOA","pop":1525,"r":266,"ff":102,"ffd":6688.5,"ffs":0.5075,"g":63,"co":2,"mo":0,"sa":0,"ic":0},"geometry":{"type":"Polygon","coordinates":[[[1.29974,52.61393],[1.30046,52.61359],[1.30117,52.61376],[1.3017,52.61349],[1.30153,52.61325],[1.30222,52.61306],[1.30134,52.61261],[1.30289,52.61202],[1.30294,52.61102],[1.30117,52.61012],[1.29898,52.61017],[1.29886,52.60962],[1.29769,52.60992],[1.29728,52.60924],[1.2942,52.60965],[1.29502,52.61218],[1.29416,52.61246],[1.29402,52.61307],[1.29485,52.61357],[1.29557,52.6127],[1.2963,52.61302],[1.29693,52.61249],[1.29818,52.61283],[1.29819,52.61394],[1.29974,52.61393]]]}},{"type":"Feature","properties":{"id":"E01026820","name":"E01026820","parent":"E07000148","type":"LSOA","pop":1888,"r":264,"ff":105,"ffd":5561.4,"ffs":0.5224,"g":61,"co":2,"mo":0,"sa":0,"ic":0},"geometry":{"type":"Polygon","coordinates":[[[1.28994,52.60631],[1.2882,52.60439],[1.28665,52.60402],[1.28533,52.60443],[1.28662,52.60622],[1.28396,52.60532],[1.28254,52.60553],[1.28008,52.60465],[1.27964,52.60661],[1.27934,52.60664],[1.28073,52.6106],[1.28222,52.61258],[1.28348,52.61208],[1.28342,52.61183],[1.28582,52.61101],[1.29026,52.61024],[1.28845,52.60798],[1.29066,52.60714],[1.28994,52.60631]]]}},{"type":"Feature","properties":{"id":"E01026821","name":"E01026821","parent":"E07000148","type":"LSOA","pop":1699,"r":262,"ff":104,"ffd":6121.2,"ffs":0.5174,"g":59,"co":2,"mo":0,"sa":0,"ic":0},"geometry":{"type":"Polygon","coordinates":[[[1.29066,52.60714],[1.2922,52.60656],[1.29265,52.60702],[1.2933,52.60665],[1.29539,52.60662],[1.29572,52.6062],[1.29495,52.60594],[1.29579,52.6052],[1.29421,52.60539],[1.29289,52.60421],[1.29222,52.60404],[1.29226,52.60353],[1.29344,52.60324],[1.29375,52.60345],[1.29524,52.60253],[1.29269,52.60131],[1.29172,52.59986],[1.2894,52.59886],[1.28836,52.59795],[1.28721,52.59656],[1.28318,52.59519],[1.2814,52.5953],[1.28044,52.59574],[1.28061,52.59634],[1.27969,52.59667],[1.27953,52.59709],[1.27815,52.59714],[1.27689,52.59812],[1.27835,52.60206],[1.27934,52.60664],[1.27964,52.60661],[1.28008,52.60465],[1.28254,52.60553],[1.28396,52.60532],[1.28662,52.60622],[1.28533,52.60443],[1.28665,52.60402],[1.2882,52.60439],[1.29066,52.60714]]]}},{"type":"Feature","properties":{"id":"E01026823","name":"E01026823","parent":"E07000148","type":"LSOA","pop":2396,"r":278,"ff":108,"ffd":4507.5,"ffs":0.5023,"g":61,"co":0,"mo":0,"sa":0,"ic":0},"geometry":{"type":"Polygon","coordinates":[[[1.30197,52.63636],[1.30247,52.63542],[1.29522,52.63195],[1.29372,52.63215],[1.2922,52.63173],[1.29085,52.6318],[1.2894,52.63254],[1.28857,52.63346],[1.28803,52.63329],[1.29051,52.63174],[1.29183,52.63155],[1.29354,52.6319],[1.29498,52.63178],[1.29587,52.63062],[1.29724,52.63006],[1.29499,52.62977],[1.29452,52.62767],[1.2933,52.6279],[1.29342,52.62907],[1.29203,52.62916],[1.29179,52.6296],[1.29081,52.62941],[1.28998,52.63025],[1.29017,52.63074],[1.28968,52.63094],[1.28914,52.63067],[1.28738,52.63115],[1.28746,52.63139],[1.28945,52.6313],[1.28992,52.63182],[1.2886,52.63219],[1.28676,52.63384],[1.28755,52.63485],[1.2869,52.6354],[1.28741,52.63568],[1.28822,52.63546],[1.28764,52.63657],[1.29029,52.63631],[1.29047,52.63539],[1.29346,52.63532],[1.29404,52.63436],[1.29479,52.63424],[1.29455,52.63383],[1.29519,52.63349],[1.29596,52.63386],[1.29573,52.63472],[1.2965,52.63514],[1.29662,52.63671],[1.29738,52.63712],[1.29842,52.63695],[1.29842,52.63664],[1.29894,52.63714],[1.29992,52.63615],[1.30197,52.63636]]]}},{"type":"Feature","properties":{"id":"E01026824","name":"E01026824","parent":"E07000148","type":"LSOA","pop":1834,"r":287,"ff":113,"ffd":6161.4,"ffs":0.5113,"g":64,"co":0,"mo":0,"sa":0,"ic":0},"geometry":{"type":"Polygon","coordinates":[[[1.28335,52.63509],[1.28363,52.63459],[1.2829,52.63345],[1.2832,52.63337],[1.28401,52.63454],[1.28554,52.63477],[1.28668,52.63377],[1.28583,52.63275],[1.28461,52.63253],[1.28401,52.63271],[1.28367,52.63202],[1.28454,52.63212],[1.28493,52.62978],[1.2842,52.62965],[1.28404,52.6302],[1.28326,52.63033],[1.28299,52.62986],[1.27946,52.63073],[1.27825,52.63077],[1.27824,52.63189],[1.27881,52.63358],[1.27858,52.63406],[1.27964,52.63408],[1.27985,52.63449],[1.28021,52.63443],[1.28021,52.63517],[1.28112,52.63537],[1.28164,52.63512],[1.2823,52.63531],[1.28295,52.6351],[1.28306,52.63601],[1.28385,52.63616],[1.28435,52.6357],[1.28335,52.63509]]]}},{"type":"Feature","properties":{"id":"E01026825","name":"E01026825","parent":"E07000148","type":"LSOA","pop":1526,"r":280,"ff":110,"ffd":7208.4,"ffs":0.5093,"g":62,"co":0,"mo":0,"sa":0,"ic":0},"geometry":{"type":"Polygon","coordinates":[[[1.28349,52.64156],[1.28487,52.64045],[1.27917,52.64022],[1.27897,52.63995],[1.27925,52.63964],[1.27751,52.63945],[1.27722,52.6384],[1.27821,52.63824],[1.27825,52.63765],[1.27798,52.63737],[1.27794,52.63594],[1.27718,52.636],[1.27796,52.63371],[1.27518,52.63418],[1.27585,52.63787],[1.27325,52.6381],[1.27375,52.64053],[1.27336,52.64067],[1.27356,52.64121],[1.27752,52.64161],[1.28029,52.64129],[1.28349,52.64156]]]}},{"type":"Feature","properties":{"id":"E01026826","name":"E01026826","parent":"E07000148","type":"LSOA","pop":1692,"r":278,"ff":107,"ffd":6323.9,"ffs":0.5,"g":62,"co":0,"mo":0,"sa":0,"ic":0},"geometry":{"type":"Polygon","coordinates":[[[1.28615,52.63992],[1.28734,52.63781],[1.29165,52.63887],[1.29668,52.63885],[1.30004,52.63734],[1.30231,52.63675],[1.3023,52.63651],[1.29992,52.63615],[1.29894,52.63714],[1.29842,52.63664],[1.29842,52.63695],[1.29738,52.63712],[1.29662,52.63671],[1.2965,52.63514],[1.29573,52.63472],[1.29596,52.63386],[1.29519,52.63349],[1.29455,52.63383],[1.29479,52.63424],[1.29404,52.63436],[1.29346,52.63532],[1.29047,52.63539],[1.29029,52.63631],[1.28764,52.63657],[1.28822,52.63546],[1.28741,52.63568],[1.2869,52.6354],[1.28361,52.63889],[1.28497,52.64038],[1.28615,52.63992]]]}},{"type":"Feature","properties":{"id":"E01026827","name":"E01026827","parent":"E07000148","type":"LSOA","pop":1601,"r":286,"ff":113,"ffd":7058.1,"ffs":0.5136,"g":64,"co":0,"mo":0,"sa":0,"ic":0},"geometry":{"type":"Polygon","coordinates":[[[1.28361,52.63889],[1.28755,52.63485],[1.28676,52.63384],[1.28554,52.63477],[1.28401,52.63454],[1.2832,52.63337],[1.2829,52.63345],[1.28363,52.63459],[1.28335,52.63509],[1.28435,52.6357],[1.28385,52.63616],[1.28306,52.63601],[1.28295,52.6351],[1.2823,52.63531],[1.28164,52.63512],[1.28112,52.63537],[1.28021,52.63517],[1.28021,52.63443],[1.27985,52.63449],[1.27964,52.63408],[1.27858,52.63406],[1.27881,52.63358],[1.27796,52.63371],[1.27718,52.636],[1.27794,52.63594],[1.27798,52.63737],[1.27825,52.63765],[1.27821,52.63824],[1.27722,52.6384],[1.27751,52.63945],[1.27925,52.63964],[1.27897,52.63995],[1.27917,52.64022],[1.28497,52.64038],[1.28361,52.63889]]]}},{"type":"Feature","properties":{"id":"E01026828","name":"E01026828","parent":"E07000148","type":"LSOA","pop":1665,"r":274,"ff":104,"ffd":6246.2,"ffs":0.4929,"g":61,"co":2,"mo":0,"sa":0,"ic":0},"geometry":{"type":"Polygon","coordinates":[[[1.26678,52.65237],[1.26701,52.64993],[1.26905,52.65013],[1.26944,52.64813],[1.2717,52.64762],[1.27238,52.64789],[1.27248,52.6486],[1.27412,52.64885],[1.27448,52.64818],[1.27558,52.64816],[1.27599,52.64844],[1.27661,52.64826],[1.27569,52.64804],[1.27473,52.64633],[1.2754,52.64597],[1.27733,52.64576],[1.27779,52.64548],[1.27809,52.64523],[1.2776,52.64457],[1.27787,52.64426],[1.27718,52.64404],[1.27726,52.64378],[1.27456,52.644],[1.27314,52.64377],[1.27374,52.64272],[1.27551,52.64219],[1.2759,52.64143],[1.27356,52.64121],[1.27107,52.64161],[1.26662,52.64036],[1.26555,52.64065],[1.26501,52.64033],[1.26511,52.63943],[1.26132,52.63863],[1.25931,52.63854],[1.2597,52.64769],[1.26159,52.65209],[1.26601,52.65336],[1.26678,52.65237]]]}},{"type":"Feature","properties":{"id":"E01026829","name":"E01026829","parent":"E07000148","type":"LSOA","pop":2313,"r":277,"ff":106,"ffd":4582.8,"ffs":0.493,"g":60,"co":0,"mo":0,"sa":0,"ic":0},"geometry":{"type":"Polygon","coordinates":[[[1.27889,52.64785],[1.28159,52.64702],[1.28277,52.64703],[1.28355,52.64608],[1.28479,52.64701],[1.2857,52.64682],[1.28618,52.64734],[1.2875,52.64679],[1.28731,52.64648],[1.28816,52.64592],[1.28685,52.64488],[1.2853,52.64399],[1.28495,52.64442],[1.28734,52.646],[1.28627,52.64579],[1.28596,52.6461],[1.28516,52.64611],[1.28507,52.6454],[1.28414,52.6454],[1.28368,52.64465],[1.2828,52.64487],[1.2821,52.64472],[1.28184,52.64512],[1.28054,52.64548],[1.27995,52.64535],[1.28026,52.6449],[1.28131,52.64454],[1.28119,52.64365],[1.28225,52.64403],[1.283,52.64372],[1.28398,52.64299],[1.28374,52.64275],[1.28776,52.64085],[1.28615,52.63992],[1.28497,52.64038],[1.28349,52.64156],[1.28029,52.64129],[1.27752,52.64161],[1.2759,52.64143],[1.27551,52.64219],[1.27374,52.64272],[1.27314,52.64377],[1.27456,52.644],[1.27726,52.64378],[1.27718,52.64404],[1.27787,52.64426],[1.2776,52.64457],[1.27809,52.64523],[1.27733,52.64576],[1.2771,52.6463],[1.27806,52.64648],[1.27768,52.64722],[1.27831,52.64734],[1.2783,52.64774],[1.27905,52.64812],[1.27889,52.64785]]]}},{"type":"Feature","properties":{"id":"E01026830","name":"E01026830","parent":"E07000148","type":"LSOA","pop":1374,"r":280,"ff":107,"ffd":7787.5,"ffs":0.4954,"g":62,"co":0,"mo":0,"sa":0,"ic":0},"geometry":{"type":"Polygon","coordinates":[[[1.29108,52.644],[1.29194,52.64299],[1.28991,52.64283],[1.28914,52.64234],[1.28874,52.64152],[1.28793,52.64148],[1.28782,52.64082],[1.28374,52.64275],[1.28398,52.64299],[1.283,52.64372],[1.28225,52.64403],[1.28119,52.64365],[1.28131,52.64454],[1.28026,52.6449],[1.27995,52.64535],[1.28054,52.64548],[1.28184,52.64512],[1.2821,52.64472],[1.2828,52.64487],[1.28368,52.64465],[1.28414,52.6454],[1.28507,52.6454],[1.28516,52.64611],[1.28596,52.6461],[1.28627,52.64579],[1.28734,52.646],[1.28495,52.64442],[1.2853,52.64399],[1.28685,52.64488],[1.28816,52.64592],[1.28731,52.64648],[1.2875,52.64679],[1.28618,52.64734],[1.28738,52.64861],[1.28791,52.6486],[1.28889,52.6495],[1.2895,52.64787],[1.29086,52.64627],[1.29031,52.64612],[1.29108,52.644]]]}},{"type":"Feature","properties":{"id":"E01026831","name":"E01026831","parent":"E07000148","type":"LSOA","pop":1310,"r":280,"ff":107,"ffd":8167.9,"ffs":0.4954,"g":62,"co":0,"mo":0,"sa":0,"ic":0},"geometry":{"type":"Polygon","coordinates":[[[1.29298,52.64089],[1.29245,52.63986],[1.29165,52.63887],[1.28734,52.63781],[1.28615,52.63992],[1.28782,52.64082],[1.28793,52.64148],[1.28874,52.64152],[1.28914,52.64234],[1.28991,52.64283],[1.29194,52.64299],[1.29238,52.64107],[1.29298,52.64089]]]}},{"type":"Feature","properties":{"id":"E01026832","name":"E01026832","parent":"E07000148","type":"LSOA","pop":1532,"r":276,"ff":105,"ffd":6853.8,"ffs":0.493,"g":61,"co":2,"mo":0,"sa":0,"ic":0},"geometry":{"type":"Polygon","coordinates":[[[1.27855,52.65462],[1.27996,52.65149],[1.27969,52.65119],[1.27647,52.6517],[1.27597,52.65088],[1.27543,52.65091],[1.27527,52.65157],[1.27421,52.65173],[1.27403,52.65212],[1.27336,52.6518],[1.27266,52.65209],[1.27182,52.65202],[1.27136,52.65236],[1.27086,52.6532],[1.27162,52.65385],[1.27153,52.65411],[1.27308,52.65443],[1.27368,52.65556],[1.27719,52.65652],[1.27855,52.65462]]]}},{"type":"Feature","properties":{"id":"E01026833","name":"E01026833","parent":"E07000148","type":"LSOA","pop":1519,"r":266,"ff":104,"ffd":6846.6,"ffs":0.5049,"g":58,"co":2,"mo":0,"sa":0,"ic":0},"geometry":{"type":"Polygon","coordinates":[[[1.27136,52.65236],[1.27182,52.65202],[1.27266,52.65209],[1.27336,52.6518],[1.27382,52.65066],[1.2735,52.65027],[1.27211,52.65008],[1.272,52.64962],[1.27251,52.64928],[1.27193,52.64898],[1.27248,52.6486],[1.27238,52.64789],[1.2717,52.64762],[1.26944,52.64813],[1.26905,52.65013],[1.26701,52.64993],[1.26678,52.65237],[1.26601,52.65336],[1.27368,52.65556],[1.27308,52.65443],[1.27153,52.65411],[1.27162,52.65385],[1.27086,52.6532],[1.27136,52.65236]]]}},{"type":"Feature","properties":{"id":"E01026834","name":"E01026834","parent":"E07000148","type":"LSOA","pop":1615,"r":276,"ff":106,"ffd":6563.5,"ffs":0.4977,"g":61,"co":2,"mo":0,"sa":0,"ic":0},"geometry":{"type":"Polygon","coordinates":[[[1.27543,52.65091],[1.27597,52.65088],[1.27647,52.6517],[1.27969,52.65119],[1.27996,52.65149],[1.28099,52.64937],[1.28277,52.64703],[1.28159,52.64702],[1.27889,52.64785],[1.27905,52.64812],[1.2783,52.64774],[1.27831,52.64734],[1.27768,52.64722],[1.27806,52.64648],[1.2771,52.6463],[1.27733,52.64576],[1.2754,52.64597],[1.27473,52.64633],[1.27569,52.64804],[1.27661,52.64826],[1.27599,52.64844],[1.27558,52.64816],[1.27448,52.64818],[1.27412,52.64885],[1.27248,52.6486],[1.27193,52.64898],[1.27251,52.64928],[1.272,52.64962],[1.27211,52.65008],[1.2735,52.65027],[1.27382,52.65066],[1.27336,52.6518],[1.27403,52.65212],[1.27421,52.65173],[1.27527,52.65157],[1.27543,52.65091]]]}},{"type":"Feature","properties":{"id":"E01026835","name":"E01026835","parent":"E07000148","type":"LSOA","pop":1477,"r":276,"ff":109,"ffd":7379.8,"ffs":0.5093,"g":60,"co":0,"mo":0,"sa":0,"ic":0},"geometry":{"type":"Polygon","coordinates":[[[1.28299,52.62986],[1.28496,52.62925],[1.28093,52.62712],[1.27871,52.62547],[1.27819,52.6256],[1.27739,52.62523],[1.27649,52.62407],[1.27594,52.62527],[1.2753,52.62528],[1.27556,52.62573],[1.27167,52.62579],[1.27168,52.62614],[1.27359,52.6261],[1.27332,52.62662],[1.27375,52.62663],[1.27387,52.62793],[1.27427,52.62816],[1.27415,52.62657],[1.27466,52.6266],[1.27485,52.62796],[1.27534,52.62834],[1.27549,52.62835],[1.27533,52.62747],[1.27557,52.62765],[1.27631,52.62733],[1.27684,52.62748],[1.27708,52.62807],[1.27827,52.62811],[1.27854,52.6286],[1.27924,52.62873],[1.28048,52.62846],[1.28129,52.63004],[1.28175,52.62985],[1.28221,52.63013],[1.28299,52.62986]]]}},{"type":"Feature","properties":{"id":"E01026836","name":"E01026836","parent":"E07000148","type":"LSOA","pop":1543,"r":274,"ff":108,"ffd":6999.4,"ffs":0.5094,"g":60,"co":0,"mo":0,"sa":0,"ic":0},"geometry":{"type":"Polygon","coordinates":[[[1.27534,52.62834],[1.27485,52.62796],[1.27466,52.6266],[1.27415,52.62657],[1.27427,52.62816],[1.27387,52.62793],[1.27375,52.62663],[1.27332,52.62662],[1.27359,52.6261],[1.27098,52.62629],[1.27099,52.62602],[1.27049,52.62595],[1.26942,52.62633],[1.26766,52.6257],[1.26706,52.62448],[1.26667,52.62441],[1.2657,52.62568],[1.26543,52.6295],[1.26601,52.62947],[1.26602,52.63028],[1.26789,52.63024],[1.26801,52.6295],[1.26716,52.62838],[1.268,52.62769],[1.26927,52.62794],[1.26964,52.62854],[1.26947,52.62964],[1.27395,52.63028],[1.27472,52.62993],[1.27534,52.62834]]]}},{"type":"Feature","properties":{"id":"E01026837","name":"E01026837","parent":"E07000148","type":"LSOA","pop":1456,"r":276,"ff":108,"ffd":7417.6,"ffs":0.507,"g":61,"co":0,"mo":0,"sa":0,"ic":0},"geometry":{"type":"Polygon","coordinates":[[[1.27881,52.63358],[1.27824,52.63189],[1.27825,52.63077],[1.27946,52.63073],[1.28221,52.63013],[1.28175,52.62985],[1.28129,52.63004],[1.28048,52.62846],[1.27924,52.62873],[1.27854,52.6286],[1.27827,52.62811],[1.27708,52.62807],[1.27684,52.62748],[1.27631,52.62733],[1.27557,52.62765],[1.27533,52.62747],[1.27549,52.62835],[1.27534,52.62834],[1.27472,52.62993],[1.27395,52.63028],[1.26947,52.62964],[1.26964,52.62854],[1.26927,52.62794],[1.268,52.62769],[1.26716,52.62838],[1.26801,52.6295],[1.26789,52.63024],[1.27079,52.63058],[1.27056,52.63138],[1.27163,52.63107],[1.27269,52.63147],[1.27345,52.63069],[1.27606,52.6309],[1.27641,52.63233],[1.27698,52.63253],[1.27742,52.63225],[1.27847,52.63363],[1.27881,52.63358]]]}},{"type":"Feature","properties":{"id":"E01026838","name":"E01026838","parent":"E07000148","type":"LSOA","pop":1566,"r":280,"ff":109,"ffd":6960.4,"ffs":0.5046,"g":62,"co":0,"mo":0,"sa":0,"ic":0},"geometry":{"type":"Polygon","coordinates":[[[1.27168,52.62614],[1.27155,52.62529],[1.27311,52.62373],[1.27188,52.62298],[1.2717,52.62314],[1.27126,52.62298],[1.27198,52.62191],[1.27281,52.62209],[1.27316,52.62178],[1.26832,52.61955],[1.26516,52.62084],[1.26875,52.62242],[1.26667,52.62441],[1.26706,52.62448],[1.26766,52.6257],[1.26942,52.62633],[1.27049,52.62595],[1.27099,52.62602],[1.27098,52.62629],[1.27168,52.62614]]]}},{"type":"Feature","properties":{"id":"E01026839","name":"E01026839","parent":"E07000148","type":"LSOA","pop":1636,"r":281,"ff":111,"ffd":6784.8,"ffs":0.5115,"g":62,"co":0,"mo":0,"sa":0,"ic":0},"geometry":{"type":"Polygon","coordinates":[[[1.27556,52.62573],[1.2753,52.62528],[1.27594,52.62527],[1.27649,52.62407],[1.27739,52.62523],[1.27819,52.6256],[1.27871,52.62547],[1.2762,52.62317],[1.27316,52.62178],[1.27281,52.62209],[1.27198,52.62191],[1.27126,52.62298],[1.2717,52.62314],[1.27188,52.62298],[1.27311,52.62373],[1.27155,52.62529],[1.27167,52.62579],[1.27556,52.62573]]]}},{"type":"Feature","properties":{"id":"E01026840","name":"E01026840","parent":"E07000148","type":"LSOA","pop":1618,"r":277,"ff":109,"ffd":6736.7,"ffs":0.5093,"g":61,"co":0,"mo":0,"sa":0,"ic":0},"geometry":{"type":"Polygon","coordinates":[[[1.27847,52.63363],[1.27742,52.63225],[1.27698,52.63253],[1.27641,52.63233],[1.27606,52.6309],[1.27345,52.63069],[1.27269,52.63147],[1.27163,52.63107],[1.27056,52.63138],[1.27025,52.63297],[1.27121,52.63298],[1.27142,52.63484],[1.27847,52.63363]]]}},{"type":"Feature","properties":{"id":"E01026841","name":"E01026841","parent":"E07000148","type":"LSOA","pop":1446,"r":275,"ff":106,"ffd":7330.6,"ffs":0.5,"g":61,"co":0,"mo":0,"sa":0,"ic":0},"geometry":{"type":"Polygon","coordinates":[[[1.30377,52.64073],[1.30399,52.63953],[1.30298,52.63956],[1.30231,52.63675],[1.29887,52.63782],[1.29855,52.6381],[1.29645,52.63886],[1.29606,52.6394],[1.29615,52.6398],[1.29918,52.63975],[1.29943,52.64004],[1.29929,52.64033],[1.29698,52.64032],[1.29676,52.6406],[1.2995,52.6406],[1.30263,52.63994],[1.30267,52.64088],[1.30377,52.64073]]]}},{"type":"Feature","properties":{"id":"E01026842","name":"E01026842","parent":"E07000148","type":"LSOA","pop":1765,"r":276,"ff":105,"ffd":5949.0,"ffs":0.493,"g":61,"co":0,"mo":0,"sa":0,"ic":0},"geometry":{"type":"Polygon","coordinates":[[[1.30325,52.6458],[1.30392,52.64571],[1.30471,52.64625],[1.30594,52.64572],[1.30475,52.64517],[1.30701,52.64464],[1.30654,52.64402],[1.30393,52.64465],[1.30369,52.64442],[1.30276,52.64453],[1.30294,52.64382],[1.30251,52.64368],[1.30305,52.64339],[1.30267,52.64317],[1.30176,52.64361],[1.30084,52.64325],[1.2999,52.64354],[1.29766,52.64328],[1.29759,52.64414],[1.29938,52.64791],[1.30067,52.65012],[1.30278,52.64961],[1.30586,52.64825],[1.30281,52.64589],[1.30325,52.6458]]]}},{"type":"Feature","properties":{"id":"E01026843","name":"E01026843","parent":"E07000148","type":"LSOA","pop":1933,"r":276,"ff":105,"ffd":5432.0,"ffs":0.493,"g":61,"co":0,"mo":0,"sa":0,"ic":0},"geometry":{"type":"Polygon","coordinates":[[[1.29759,52.64414],[1.29766,52.64328],[1.29713,52.64321],[1.29718,52.6435],[1.29668,52.64309],[1.29638,52.64326],[1.29267,52.64229],[1.29276,52.64193],[1.29224,52.64192],[1.29194,52.64299],[1.29108,52.644],[1.29031,52.64612],[1.29086,52.64627],[1.2895,52.64786],[1.29797,52.64904],[1.29861,52.65031],[1.30067,52.65012],[1.29938,52.64791],[1.29759,52.64414]]]}},{"type":"Feature","properties":{"id":"E01026844","name":"E01026844","parent":"E07000148","type":"LSOA","pop":1800,"r":272,"ff":104,"ffd":5777.8,"ffs":0.4976,"g":61,"co":0,"mo":0,"sa":0,"ic":0},"geometry":{"type":"Polygon","coordinates":[[[1.30701,52.64464],[1.30916,52.64358],[1.3103,52.64335],[1.31064,52.64248],[1.31335,52.64109],[1.31249,52.64016],[1.31207,52.63877],[1.31169,52.63916],[1.31127,52.63884],[1.31085,52.63907],[1.30933,52.63836],[1.30821,52.63903],[1.30729,52.64005],[1.30399,52.63953],[1.30377,52.64073],[1.30477,52.64083],[1.30412,52.64155],[1.30452,52.64231],[1.30365,52.64251],[1.30267,52.64317],[1.30305,52.64339],[1.30251,52.64368],[1.30294,52.64382],[1.30276,52.64453],[1.30369,52.64442],[1.30393,52.64465],[1.30654,52.64402],[1.30701,52.64464]]]}},{"type":"Feature","properties":{"id":"E01026845","name":"E01026845","parent":"E07000148","type":"LSOA","pop":1582,"r":274,"ff":106,"ffd":6700.4,"ffs":0.5,"g":60,"co":0,"mo":0,"sa":0,"ic":0},"geometry":{"type":"Polygon","coordinates":[[[1.30176,52.64361],[1.30365,52.64251],[1.30452,52.64231],[1.30412,52.64155],[1.30477,52.64083],[1.30377,52.64073],[1.30267,52.64088],[1.30263,52.63994],[1.2995,52.6406],[1.29945,52.64095],[1.29706,52.64089],[1.29711,52.64215],[1.29804,52.64278],[1.29766,52.64328],[1.2999,52.64354],[1.30084,52.64325],[1.30176,52.64361]]]}},{"type":"Feature","properties":{"id":"E01026846","name":"E01026846","parent":"E07000148","type":"LSOA","pop":1867,"r":279,"ff":108,"ffd":5784.7,"ffs":0.5023,"g":62,"co":0,"mo":0,"sa":0,"ic":0},"geometry":{"type":"Polygon","coordinates":[[[1.29718,52.6435],[1.29713,52.64321],[1.29766,52.64328],[1.29804,52.64278],[1.29711,52.64215],[1.29706,52.64089],[1.29945,52.64095],[1.2995,52.6406],[1.29676,52.6406],[1.29698,52.64032],[1.29929,52.64033],[1.29943,52.64004],[1.29918,52.63975],[1.29615,52.6398],[1.29606,52.6394],[1.29645,52.63886],[1.29165,52.63887],[1.29245,52.63986],[1.29298,52.64089],[1.29238,52.64107],[1.29224,52.64192],[1.29276,52.64193],[1.29267,52.64229],[1.29638,52.64326],[1.29668,52.64309],[1.29718,52.6435]]]}},{"type":"Feature","properties":{"id":"E01026848","name":"E01026848","parent":"E07000148","type":"LSOA","pop":2062,"r":276,"ff":107,"ffd":5189.1,"ffs":0.5023,"g":61,"co":0,"mo":0,"sa":0,"ic":0},"geometry":{"type":"MultiPolygon","coordinates":[[[[1.30884,52.63304],[1.3082,52.63247],[1.3061,52.63269],[1.30593,52.63355],[1.30646,52.63412],[1.30843,52.63424],[1.30884,52.63304]]],[[[1.30831,52.63898],[1.30933,52.63836],[1.31085,52.63907],[1.31127,52.63884],[1.31169,52.63916],[1.31399,52.63671],[1.31267,52.63643],[1.31233,52.63563],[1.31158,52.63563],[1.31045,52.6347],[1.30967,52.63449],[1.30965,52.63356],[1.309,52.63318],[1.30914,52.63352],[1.30843,52.63445],[1.30484,52.6344],[1.30247,52.63542],[1.30197,52.63636],[1.3023,52.63651],[1.30298,52.63956],[1.30441,52.63954],[1.30729,52.64005],[1.30831,52.63898]]]]}},{"type":"Feature","properties":{"id":"E01026849","name":"E01026849","parent":"E07000148","type":"LSOA","pop":1804,"r":262,"ff":97,"ffd":5376.9,"ffs":0.4874,"g":61,"co":2,"mo":0,"sa":0,"ic":0},"geometry":{"type":"Polygon","coordinates":[[[1.32424,52.63073],[1.32493,52.63027],[1.32703,52.63022],[1.32834,52.62973],[1.32723,52.62889],[1.32662,52.62707],[1.32253,52.62592],[1.32453,52.62385],[1.32051,52.62345],[1.3161,52.6234],[1.31552,52.62418],[1.31684,52.62452],[1.31641,52.62484],[1.31609,52.62458],[1.31517,52.62482],[1.31514,52.6241],[1.31484,52.62486],[1.31546,52.62553],[1.31476,52.62568],[1.31561,52.62646],[1.31513,52.62749],[1.31383,52.62872],[1.31367,52.62911],[1.31616,52.62972],[1.31547,52.63012],[1.31679,52.63056],[1.31851,52.63032],[1.31969,52.63089],[1.32175,52.63115],[1.32201,52.63033],[1.32271,52.63031],[1.32404,52.63132],[1.32434,52.63113],[1.32424,52.63073]]]}},{"type":"Feature","properties":{"id":"E01026850","name":"E01026850","parent":"E07000148","type":"LSOA","pop":1994,"r":269,"ff":104,"ffd":5215.6,"ffs":0.5049,"g":61,"co":0,"mo":0,"sa":0,"ic":0},"geometry":{"type":"Polygon","coordinates":[[[1.31508,52.6345],[1.31556,52.63388],[1.3161,52.63407],[1.31637,52.63372],[1.31717,52.63384],[1.3176,52.63281],[1.31956,52.63308],[1.31959,52.63268],[1.32011,52.63175],[1.32047,52.63198],[1.32008,52.63262],[1.32138,52.63247],[1.32175,52.63115],[1.31969,52.63089],[1.31851,52.63032],[1.31679,52.63056],[1.31547,52.63012],[1.31616,52.62972],[1.31367,52.62911],[1.31383,52.62872],[1.31513,52.62749],[1.31354,52.627],[1.31152,52.627],[1.31149,52.62734],[1.31254,52.62773],[1.31098,52.62858],[1.31134,52.62886],[1.31049,52.62908],[1.31022,52.62981],[1.3104,52.63025],[1.3102,52.63161],[1.31102,52.63318],[1.30965,52.63356],[1.30967,52.63449],[1.31045,52.6347],[1.31158,52.63563],[1.31233,52.63563],[1.31267,52.63643],[1.31399,52.63671],[1.31557,52.6347],[1.31508,52.6345]]]}},{"type":"Feature","properties":{"id":"E01026852","name":"E01026852","parent":"E07000148","type":"LSOA","pop":1324,"r":271,"ff":106,"ffd":8006.0,"ffs":0.5146,"g":63,"co":2,"mo":0,"sa":0,"ic":0},"geometry":{"type":"Polygon","coordinates":[[[1.28984,52.61877],[1.28986,52.61844],[1.29149,52.61771],[1.29123,52.61812],[1.29188,52.61829],[1.29366,52.61757],[1.29426,52.61772],[1.29504,52.61476],[1.29448,52.61483],[1.29331,52.61402],[1.29298,52.6141],[1.29256,52.61352],[1.28609,52.61511],[1.28402,52.61187],[1.28057,52.61325],[1.2814,52.61414],[1.28287,52.61419],[1.2832,52.61472],[1.28241,52.61484],[1.28079,52.61608],[1.28117,52.61661],[1.28073,52.61701],[1.2821,52.61745],[1.28174,52.61683],[1.28418,52.61639],[1.28566,52.61883],[1.2869,52.61871],[1.28866,52.61908],[1.28984,52.61877]]]}},{"type":"Feature","properties":{"id":"E01026853","name":"E01026853","parent":"E07000148","type":"LSOA","pop":1984,"r":277,"ff":108,"ffd":5443.5,"ffs":0.5094,"g":63,"co":2,"mo":0,"sa":0,"ic":0},"geometry":{"type":"Polygon","coordinates":[[[1.29879,52.62131],[1.29956,52.62102],[1.29846,52.62042],[1.2972,52.6175],[1.29621,52.61575],[1.29569,52.6151],[1.29347,52.6133],[1.29256,52.61352],[1.29298,52.6141],[1.29331,52.61402],[1.29448,52.61483],[1.29504,52.61476],[1.29426,52.61772],[1.29366,52.61757],[1.29188,52.61829],[1.2923,52.61878],[1.29145,52.61919],[1.29256,52.61975],[1.29383,52.61948],[1.29312,52.62094],[1.29164,52.62138],[1.2911,52.62103],[1.29045,52.6213],[1.28969,52.62117],[1.28942,52.62148],[1.28991,52.62196],[1.29104,52.62206],[1.29141,52.62257],[1.28976,52.62353],[1.2904,52.62432],[1.29879,52.62131]]]}},{"type":"Feature","properties":{"id":"E01026855","name":"E01026855","parent":"E07000148","type":"LSOA","pop":1684,"r":284,"ff":109,"ffd":6472.7,"ffs":0.5023,"g":65,"co":2,"mo":0,"sa":0,"ic":0},"geometry":{"type":"Polygon","coordinates":[[[1.28942,52.62148],[1.28969,52.62117],[1.29045,52.6213],[1.2911,52.62103],[1.29164,52.62138],[1.29312,52.62094],[1.29383,52.61948],[1.29256,52.61975],[1.29145,52.61919],[1.2923,52.61878],[1.29188,52.61829],[1.29123,52.61812],[1.29149,52.61771],[1.28986,52.61844],[1.28984,52.61877],[1.28866,52.61908],[1.2869,52.61871],[1.28279,52.61885],[1.28272,52.61829],[1.28125,52.61838],[1.2812,52.61813],[1.28064,52.61876],[1.28224,52.61934],[1.2821,52.61988],[1.28163,52.62023],[1.28061,52.61966],[1.28031,52.62024],[1.28156,52.62089],[1.28067,52.62142],[1.28071,52.62168],[1.28258,52.62263],[1.28275,52.62184],[1.28413,52.62231],[1.28368,52.62289],[1.284,52.62298],[1.28608,52.62108],[1.28755,52.62192],[1.28919,52.62327],[1.28868,52.62351],[1.2896,52.62432],[1.28955,52.62481],[1.2904,52.62432],[1.28976,52.62353],[1.29141,52.62257],[1.29104,52.62206],[1.28991,52.62196],[1.28942,52.62148]]]}},{"type":"Feature","properties":{"id":"E01026856","name":"E01026856","parent":"E07000148","type":"LSOA","pop":1881,"r":278,"ff":110,"ffd":5848.0,"ffs":0.5116,"g":61,"co":0,"mo":0,"sa":0,"ic":0},"geometry":{"type":"Polygon","coordinates":[[[1.27994,52.62571],[1.28232,52.62497],[1.28298,52.62552],[1.28321,52.62508],[1.28271,52.62452],[1.28199,52.62439],[1.28214,52.62397],[1.28181,52.62408],[1.28175,52.62349],[1.2823,52.6236],[1.28226,52.62393],[1.28416,52.62318],[1.28368,52.62289],[1.28413,52.62231],[1.28275,52.62184],[1.28258,52.62263],[1.28071,52.62168],[1.28067,52.62142],[1.28031,52.62152],[1.27923,52.62118],[1.27879,52.62143],[1.27909,52.62156],[1.27875,52.62189],[1.27625,52.62321],[1.2795,52.62619],[1.28006,52.62599],[1.27994,52.62571]]]}},{"type":"Feature","properties":{"id":"E01026857","name":"E01026857","parent":"E07000148","type":"LSOA","pop":1541,"r":283,"ff":111,"ffd":7203.1,"ffs":0.5092,"g":63,"co":0,"mo":0,"sa":0,"ic":0},"geometry":{"type":"Polygon","coordinates":[[[1.27879,52.62143],[1.27923,52.62118],[1.28031,52.62152],[1.28156,52.62089],[1.28031,52.62024],[1.28061,52.61966],[1.28163,52.62023],[1.2821,52.61988],[1.28224,52.61934],[1.28064,52.61876],[1.2812,52.61813],[1.28125,52.61838],[1.28272,52.61829],[1.28279,52.61885],[1.28566,52.61883],[1.28418,52.61639],[1.28174,52.61683],[1.2821,52.61745],[1.28073,52.61701],[1.28117,52.61661],[1.28079,52.61608],[1.28241,52.61484],[1.2832,52.61472],[1.28287,52.61419],[1.2814,52.61414],[1.28057,52.61325],[1.27498,52.61567],[1.2737,52.61652],[1.27625,52.61735],[1.27088,52.62072],[1.27625,52.62321],[1.27875,52.62189],[1.27909,52.62156],[1.27879,52.62143]]]}},{"type":"Feature","properties":{"id":"E01026858","name":"E01026858","parent":"E07000148","type":"LSOA","pop":1775,"r":260,"ff":102,"ffd":5746.5,"ffs":0.5025,"g":55,"co":0,"mo":2,"sa":0,"ic":0},"geometry":{"type":"Polygon","coordinates":[[[1.25285,52.6281],[1.25435,52.62709],[1.25685,52.62713],[1.25679,52.62745],[1.25719,52.62748],[1.25781,52.6272],[1.25736,52.62592],[1.25857,52.6254],[1.258,52.62489],[1.2576,52.62533],[1.25664,52.6248],[1.2569,52.62344],[1.25775,52.62304],[1.26125,52.6225],[1.26154,52.62282],[1.26222,52.62244],[1.26073,52.62192],[1.25725,52.62206],[1.25485,52.62191],[1.25143,52.62106],[1.25122,52.62138],[1.25185,52.62172],[1.25138,52.62352],[1.25116,52.62292],[1.24923,52.62276],[1.24867,52.62302],[1.24858,52.62418],[1.24809,52.62467],[1.25111,52.62488],[1.25118,52.62525],[1.25079,52.62527],[1.25259,52.6254],[1.2525,52.62567],[1.2514,52.62575],[1.25084,52.62843],[1.25161,52.6285],[1.25285,52.6281]]]}},{"type":"Feature","properties":{"id":"E01026859","name":"E01026859","parent":"E07000148","type":"LSOA","pop":1598,"r":278,"ff":109,"ffd":6821.0,"ffs":0.5046,"g":60,"co":0,"mo":0,"sa":0,"ic":0},"geometry":{"type":"Polygon","coordinates":[[[1.26259,52.62548],[1.26455,52.62469],[1.26661,52.62447],[1.26875,52.62242],[1.26516,52.62084],[1.26415,52.62125],[1.26154,52.62282],[1.26125,52.6225],[1.25775,52.62304],[1.2569,52.62344],[1.25664,52.6248],[1.2576,52.62533],[1.258,52.62489],[1.25857,52.6254],[1.25925,52.62524],[1.26006,52.6255],[1.26,52.62578],[1.26071,52.62626],[1.26013,52.62654],[1.26051,52.62699],[1.26154,52.627],[1.26207,52.62777],[1.2629,52.62739],[1.26324,52.62632],[1.26259,52.62548]]]}},{"type":"Feature","properties":{"id":"E01026860","name":"E01026860","parent":"E07000148","type":"LSOA","pop":4376,"r":185,"ff":76,"ffd":1736.7,"ffs":0.5278,"g":39,"co":2,"mo":2,"sa":0,"ic":0},"geometry":{"type":"Polygon","coordinates":[[[1.25084,52.62843],[1.2514,52.62575],[1.2525,52.62567],[1.25259,52.6254],[1.25079,52.62527],[1.25118,52.62525],[1.25111,52.62488],[1.24809,52.62467],[1.24858,52.62418],[1.24867,52.62302],[1.24923,52.62276],[1.25116,52.62292],[1.25138,52.62352],[1.25185,52.62172],[1.25122,52.62138],[1.25143,52.62106],[1.24914,52.61982],[1.24722,52.61962],[1.24667,52.61987],[1.24355,52.61714],[1.24125,52.61778],[1.23503,52.61675],[1.2343,52.61708],[1.23338,52.61697],[1.23189,52.61768],[1.23079,52.61912],[1.23061,52.62022],[1.22847,52.62172],[1.22894,52.62329],[1.22868,52.62359],[1.2318,52.62758],[1.23719,52.62777],[1.23809,52.6287],[1.23864,52.62785],[1.24659,52.62867],[1.24603,52.62833],[1.24524,52.62669],[1.24794,52.62758],[1.24823,52.62851],[1.24867,52.62887],[1.25156,52.62891],[1.25161,52.6285],[1.25084,52.62843]]]}},{"type":"Feature","properties":{"id":"E01026861","name":"E01026861","parent":"E07000148","type":"LSOA","pop":1872,"r":253,"ff":99,"ffd":5288.5,"ffs":0.5077,"g":56,"co":2,"mo":2,"sa":0,"ic":0},"geometry":{"type":"Polygon","coordinates":[[[1.24461,52.63341],[1.24631,52.63102],[1.24867,52.62887],[1.24823,52.62851],[1.24794,52.62758],[1.24524,52.62669],[1.24603,52.62833],[1.24659,52.62867],[1.23864,52.62785],[1.23809,52.6287],[1.23719,52.62777],[1.23274,52.6277],[1.23276,52.62812],[1.23085,52.62994],[1.23109,52.63018],[1.23402,52.63069],[1.23436,52.63031],[1.2392,52.63093],[1.24066,52.63129],[1.24173,52.63126],[1.24197,52.63217],[1.24461,52.63341]]]}},{"type":"Feature","properties":{"id":"E01026862","name":"E01026862","parent":"E07000148","type":"LSOA","pop":1428,"r":279,"ff":109,"ffd":7633.1,"ffs":0.5046,"g":61,"co":0,"mo":0,"sa":0,"ic":0},"geometry":{"type":"Polygon","coordinates":[[[1.26543,52.6295],[1.2657,52.62568],[1.26661,52.62447],[1.26455,52.62469],[1.26259,52.62548],[1.26324,52.62632],[1.2629,52.62739],[1.26207,52.62777],[1.26154,52.627],[1.26051,52.62699],[1.26013,52.62654],[1.26071,52.62626],[1.26,52.62578],[1.26006,52.6255],[1.25925,52.62524],[1.25736,52.62592],[1.25781,52.6272],[1.25719,52.62748],[1.25679,52.62745],[1.25685,52.62713],[1.25435,52.62709],[1.25285,52.6281],[1.25161,52.6285],[1.25156,52.62891],[1.25998,52.62954],[1.26543,52.6295]]]}},{"type":"Feature","properties":{"id":"E01026863","name":"E01026863","parent":"E07000148","type":"LSOA","pop":1990,"r":279,"ff":109,"ffd":5477.4,"ffs":0.507,"g":62,"co":0,"mo":0,"sa":0,"ic":0},"geometry":{"type":"Polygon","coordinates":[[[1.26165,52.63668],[1.26321,52.63596],[1.26361,52.63666],[1.26407,52.63695],[1.26551,52.6366],[1.26641,52.63704],[1.26738,52.63659],[1.26779,52.63684],[1.26888,52.63681],[1.26938,52.63653],[1.26929,52.63559],[1.27025,52.63297],[1.27079,52.63058],[1.26789,52.63024],[1.26602,52.63028],[1.26601,52.62947],[1.25998,52.62954],[1.25644,52.62924],[1.25652,52.62983],[1.25372,52.63008],[1.25263,52.63057],[1.25235,52.6312],[1.25246,52.63162],[1.25316,52.6318],[1.25243,52.6319],[1.2523,52.63235],[1.25492,52.63386],[1.25564,52.63289],[1.25558,52.63198],[1.25769,52.63262],[1.25767,52.63373],[1.25879,52.6328],[1.26005,52.63295],[1.26014,52.63404],[1.25918,52.63432],[1.25917,52.6348],[1.25989,52.63509],[1.25995,52.63594],[1.25952,52.63622],[1.25794,52.63622],[1.25719,52.6366],[1.25697,52.63572],[1.25585,52.63582],[1.25577,52.63467],[1.25484,52.6348],[1.25253,52.63624],[1.25301,52.63715],[1.25477,52.63711],[1.25481,52.63746],[1.25667,52.63765],[1.26169,52.63687],[1.26165,52.63668]]]}},{"type":"Feature","properties":{"id":"E01026864","name":"E01026864","parent":"E07000148","type":"LSOA","pop":1547,"r":261,"ff":99,"ffd":6399.5,"ffs":0.5025,"g":62,"co":2,"mo":0,"sa":0,"ic":0},"geometry":{"type":"Polygon","coordinates":[[[1.2597,52.64769],[1.25927,52.6372],[1.25667,52.63765],[1.25481,52.63746],[1.25477,52.63711],[1.25301,52.63715],[1.25253,52.63624],[1.25227,52.63664],[1.2515,52.63679],[1.25158,52.63755],[1.25231,52.63778],[1.24908,52.638],[1.24652,52.63855],[1.24701,52.63932],[1.24638,52.63998],[1.24662,52.64021],[1.24611,52.64056],[1.24701,52.64058],[1.24716,52.64091],[1.24574,52.64214],[1.24472,52.64173],[1.24394,52.64168],[1.24411,52.64203],[1.2437,52.64215],[1.24303,52.64163],[1.24232,52.64197],[1.24181,52.64278],[1.24073,52.64219],[1.24043,52.6423],[1.24096,52.64271],[1.23919,52.64331],[1.23854,52.64381],[1.24214,52.64585],[1.24851,52.64774],[1.25125,52.64824],[1.25342,52.64916],[1.25334,52.64954],[1.25492,52.64982],[1.26159,52.65209],[1.2597,52.64769]]]}},{"type":"Feature","properties":{"id":"E01026865","name":"E01026865","parent":"E07000148","type":"LSOA","pop":2133,"r":259,"ff":101,"ffd":4735.1,"ffs":0.505,"g":57,"co":0,"mo":2,"sa":0,"ic":0},"geometry":{"type":"Polygon","coordinates":[[[1.25227,52.63664],[1.25253,52.63624],[1.25484,52.6348],[1.25577,52.63467],[1.25585,52.63582],[1.25697,52.63572],[1.25719,52.6366],[1.25794,52.63622],[1.25952,52.63622],[1.25995,52.63594],[1.25989,52.63509],[1.25917,52.6348],[1.25918,52.63432],[1.26014,52.63404],[1.26005,52.63295],[1.25879,52.6328],[1.25767,52.63373],[1.25769,52.63262],[1.25558,52.63198],[1.25564,52.63289],[1.25492,52.63386],[1.2523,52.63235],[1.25243,52.6319],[1.25316,52.6318],[1.25104,52.63162],[1.25104,52.63356],[1.25034,52.63385],[1.24979,52.63355],[1.24978,52.63244],[1.25038,52.63204],[1.2497,52.63167],[1.24796,52.63152],[1.24641,52.6324],[1.24718,52.6325],[1.24789,52.63305],[1.24735,52.63365],[1.24846,52.63393],[1.2489,52.63428],[1.24841,52.63448],[1.24828,52.63562],[1.24671,52.63652],[1.24735,52.63681],[1.24958,52.63656],[1.24977,52.637],[1.24908,52.638],[1.25231,52.63778],[1.25158,52.63755],[1.2515,52.63679],[1.25227,52.63664]]]}},{"type":"Feature","properties":{"id":"E01026866","name":"E01026866","parent":"E07000148","type":"LSOA","pop":1739,"r":281,"ff":110,"ffd":6325.5,"ffs":0.5093,"g":63,"co":0,"mo":0,"sa":0,"ic":0},"geometry":{"type":"Polygon","coordinates":[[[1.27375,52.64053],[1.27325,52.6381],[1.27585,52.63787],[1.27518,52.63418],[1.27142,52.63484],[1.27121,52.63298],[1.27025,52.63297],[1.26929,52.63559],[1.26938,52.63653],[1.26888,52.63681],[1.26779,52.63684],[1.26738,52.63659],[1.26641,52.63704],[1.26551,52.6366],[1.26407,52.63695],[1.26361,52.63666],[1.26321,52.63596],[1.26165,52.63668],[1.26169,52.63687],[1.25927,52.6372],[1.25931,52.63854],[1.26132,52.63863],[1.26511,52.63943],[1.26501,52.64033],[1.26555,52.64065],[1.26662,52.64036],[1.27107,52.64161],[1.27356,52.64121],[1.27336,52.64067],[1.27375,52.64053]]]}},{"type":"Feature","properties":{"id":"E01026867","name":"E01026867","parent":"E07000148","type":"LSOA","pop":1696,"r":260,"ff":100,"ffd":5896.2,"ffs":0.5025,"g":59,"co":2,"mo":2,"sa":0,"ic":0},"geometry":{"type":"Polygon","coordinates":[[[1.24318,52.64047],[1.24345,52.63998],[1.24475,52.64022],[1.24571,52.63985],[1.24638,52.63998],[1.24701,52.63932],[1.24652,52.63855],[1.24908,52.638],[1.24977,52.637],[1.24958,52.63656],[1.24735,52.63681],[1.24671,52.63652],[1.24551,52.63677],[1.2435,52.63674],[1.24312,52.63548],[1.24375,52.63523],[1.24461,52.6356],[1.24561,52.63471],[1.24638,52.63452],[1.24594,52.63398],[1.24487,52.63402],[1.24514,52.63366],[1.24455,52.63346],[1.23898,52.63594],[1.24105,52.63935],[1.23832,52.63999],[1.23855,52.64024],[1.24044,52.63982],[1.24089,52.64034],[1.24163,52.64009],[1.24189,52.64029],[1.24318,52.64047]]]}},{"type":"Feature","properties":{"id":"E01026868","name":"E01026868","parent":"E07000148","type":"LSOA","pop":1903,"r":266,"ff":103,"ffd":5412.5,"ffs":0.5024,"g":59,"co":0,"mo":2,"sa":0,"ic":0},"geometry":{"type":"Polygon","coordinates":[[[1.24551,52.63677],[1.24671,52.63652],[1.24828,52.63562],[1.24841,52.63448],[1.2489,52.63428],[1.24846,52.63393],[1.24735,52.63365],[1.24789,52.63305],[1.24718,52.6325],[1.24641,52.6324],[1.24796,52.63152],[1.2497,52.63167],[1.25038,52.63204],[1.24978,52.63244],[1.24979,52.63355],[1.25034,52.63385],[1.25104,52.63356],[1.25104,52.63162],[1.25246,52.63162],[1.25235,52.6312],[1.25263,52.63057],[1.25372,52.63008],[1.25652,52.62983],[1.25644,52.62924],[1.24867,52.62887],[1.24631,52.63102],[1.24455,52.63346],[1.24514,52.63366],[1.24487,52.63402],[1.24594,52.63398],[1.24638,52.63452],[1.24561,52.63471],[1.24461,52.6356],[1.24375,52.63523],[1.24312,52.63548],[1.2435,52.63674],[1.24551,52.63677]]]}},{"type":"Feature","properties":{"id":"E01026869","name":"E01026869","parent":"E07000148","type":"LSOA","pop":1494,"r":249,"ff":95,"ffd":6358.8,"ffs":0.5026,"g":58,"co":2,"mo":2,"sa":0,"ic":0},"geometry":{"type":"Polygon","coordinates":[[[1.24043,52.6423],[1.24073,52.64219],[1.24181,52.64278],[1.24232,52.64197],[1.24303,52.64163],[1.2437,52.64215],[1.24411,52.64203],[1.24394,52.64168],[1.24472,52.64173],[1.24574,52.64214],[1.24716,52.64091],[1.24701,52.64058],[1.24611,52.64056],[1.24662,52.64021],[1.24638,52.63998],[1.24571,52.63985],[1.24475,52.64022],[1.24345,52.63998],[1.24318,52.64047],[1.24189,52.64029],[1.24163,52.64009],[1.24089,52.64034],[1.24044,52.63982],[1.23855,52.64024],[1.23832,52.63999],[1.23545,52.64093],[1.23854,52.64381],[1.23919,52.64331],[1.24096,52.64271],[1.24043,52.6423]]]}},{"type":"Feature","properties":{"id":"E01033434","name":"E01033434","parent":"E07000148","type":"LSOA","pop":1181,"r":280,"ff":109,"ffd":9229.5,"ffs":0.507,"g":63,"co":2,"mo":0,"sa":0,"ic":0},"geometry":{"type":"Polygon","coordinates":[[[1.28653,52.62432],[1.28836,52.62412],[1.28946,52.62461],[1.2896,52.62432],[1.28868,52.62351],[1.28919,52.62327],[1.28755,52.62192],[1.28608,52.62108],[1.284,52.62298],[1.28416,52.62318],[1.28226,52.62393],[1.2823,52.6236],[1.28175,52.62349],[1.28181,52.62408],[1.28214,52.62397],[1.28199,52.62439],[1.28271,52.62452],[1.28321,52.62508],[1.28498,52.62528],[1.28532,52.62457],[1.28653,52.62432]]]}},{"type":"Feature","properties":{"id":"E01033435","name":"E01033435","parent":"E07000148","type":"LSOA","pop":2139,"r":183,"ff":77,"ffd":3599.8,"ffs":0.55,"g":41,"co":2,"mo":2,"sa":0,"ic":0},"geometry":{"type":"Polygon","coordinates":[[[1.21664,52.63421],[1.21832,52.63413],[1.21916,52.63454],[1.21927,52.63314],[1.22185,52.63157],[1.22291,52.63152],[1.22347,52.63196],[1.22525,52.63205],[1.22523,52.63129],[1.22338,52.63016],[1.22336,52.62805],[1.22064,52.6275],[1.21884,52.62672],[1.21855,52.62647],[1.21946,52.62604],[1.2182,52.62565],[1.21643,52.62556],[1.21525,52.62646],[1.21285,52.62727],[1.21311,52.62857],[1.21248,52.62917],[1.21341,52.62969],[1.21443,52.63156],[1.21408,52.63438],[1.21325,52.63489],[1.21572,52.63517],[1.21577,52.6345],[1.21664,52.63421]]]}},{"type":"Feature","properties":{"id":"E01033436","name":"E01033436","parent":"E07000148","type":"LSOA","pop":2351,"r":157,"ff":65,"ffd":2764.8,"ffs":0.5462,"g":36,"co":2,"mo":2,"sa":0,"ic":0},"geometry":{"type":"Polygon","coordinates":[[[1.22497,52.64083],[1.22554,52.64026],[1.22505,52.64023],[1.22446,52.63958],[1.22594,52.63957],[1.22624,52.63767],[1.23097,52.63818],[1.23201,52.63786],[1.22883,52.63551],[1.23065,52.63506],[1.23264,52.63407],[1.23322,52.63395],[1.23279,52.63335],[1.23394,52.6326],[1.23322,52.63231],[1.23484,52.63072],[1.23436,52.63031],[1.23402,52.63069],[1.23109,52.63018],[1.23032,52.63042],[1.23057,52.63093],[1.22937,52.63159],[1.22707,52.63219],[1.22445,52.63213],[1.22347,52.63196],[1.22291,52.63152],[1.22185,52.63157],[1.21927,52.63314],[1.21916,52.63454],[1.21832,52.63413],[1.21664,52.63421],[1.21577,52.6345],[1.21572,52.63517],[1.21325,52.63489],[1.21145,52.63639],[1.20984,52.63715],[1.21001,52.63774],[1.21138,52.63741],[1.21384,52.6362],[1.2176,52.6362],[1.22086,52.63653],[1.22074,52.63702],[1.22217,52.63711],[1.22264,52.63748],[1.22321,52.63722],[1.22391,52.63774],[1.22319,52.63763],[1.22326,52.63833],[1.22273,52.63828],[1.22329,52.6387],[1.22292,52.63915],[1.22196,52.63856],[1.22101,52.63845],[1.22075,52.63864],[1.22163,52.63892],[1.22081,52.63945],[1.22182,52.64009],[1.22239,52.6397],[1.22291,52.63992],[1.22253,52.64035],[1.22283,52.64074],[1.22309,52.64048],[1.22415,52.64071],[1.22483,52.64038],[1.22497,52.64083]]]}},{"type":"Feature","properties":{"id":"E01033437","name":"E01033437","parent":"E07000148","type":"LSOA","pop":1489,"r":280,"ff":111,"ffd":7454.7,"ffs":0.5115,"g":61,"co":0,"mo":0,"sa":0,"ic":0},"geometry":{"type":"Polygon","coordinates":[[[1.28626,52.62733],[1.28955,52.62481],[1.28946,52.62461],[1.28836,52.62412],[1.28653,52.62432],[1.28532,52.62457],[1.28498,52.62528],[1.28321,52.62508],[1.28298,52.62552],[1.28232,52.62497],[1.27994,52.62571],[1.28006,52.62599],[1.2795,52.62619],[1.28496,52.62925],[1.28519,52.62924],[1.28555,52.62816],[1.28626,52.62733]]]}},{"type":"Feature","properties":{"id":"E01033438","name":"E01033438","parent":"E07000148","type":"LSOA","pop":1962,"r":263,"ff":100,"ffd":5096.8,"ffs":0.495,"g":59,"co":2,"mo":0,"sa":0,"ic":0},"geometry":{"type":"MultiPolygon","coordinates":[[[[1.29715,52.63288],[1.29706,52.63283],[1.29726,52.63292],[1.29715,52.63288]]],[[[1.31022,52.62981],[1.30915,52.62912],[1.30717,52.62929],[1.30695,52.62837],[1.30646,52.62836],[1.30704,52.62757],[1.3059,52.6279],[1.30775,52.63028],[1.309,52.63318],[1.30965,52.63356],[1.31102,52.63318],[1.3102,52.63161],[1.3104,52.63025],[1.31022,52.62981]]],[[[1.3039,52.63442],[1.30533,52.63405],[1.30646,52.63412],[1.30593,52.63355],[1.3061,52.63269],[1.3082,52.63247],[1.30884,52.63304],[1.30765,52.63058],[1.3071,52.63036],[1.30713,52.62983],[1.3056,52.628],[1.30353,52.62872],[1.30333,52.62836],[1.30164,52.62859],[1.30086,52.62943],[1.29904,52.62935],[1.29946,52.6281],[1.29848,52.62802],[1.29774,52.62839],[1.29798,52.6294],[1.29706,52.63023],[1.29587,52.63062],[1.29498,52.63178],[1.29631,52.632],[1.29721,52.63279],[1.29854,52.63312],[1.30251,52.63525],[1.3039,52.63442]]]]}},{"type":"Feature","properties":{"id":"E01033440","name":"E01033440","parent":"E07000148","type":"LSOA","pop":1665,"r":267,"ff":101,"ffd":6066.1,"ffs":0.4951,"g":61,"co":2,"mo":0,"sa":0,"ic":0},"geometry":{"type":"Polygon","coordinates":[[[1.30086,52.62943],[1.30247,52.62769],[1.3038,52.62663],[1.30289,52.62616],[1.30334,52.62496],[1.30201,52.62457],[1.30195,52.62374],[1.30288,52.62339],[1.30258,52.62265],[1.30174,52.6221],[1.30081,52.62261],[1.3009,52.62326],[1.3014,52.62324],[1.29942,52.62547],[1.29756,52.62675],[1.29848,52.62802],[1.29946,52.6281],[1.29904,52.62935],[1.30086,52.62943]]]}},{"type":"Feature","properties":{"id":"E01033441","name":"E01033441","parent":"E07000148","type":"LSOA","pop":1481,"r":269,"ff":105,"ffd":7089.8,"ffs":0.5097,"g":61,"co":2,"mo":0,"sa":0,"ic":0},"geometry":{"type":"MultiPolygon","coordinates":[[[[1.31522,52.61513],[1.31668,52.61506],[1.3151,52.61513],[1.31522,52.61513]]],[[[1.32114,52.61731],[1.32101,52.61709],[1.32112,52.61736],[1.32114,52.61731]]],[[[1.32061,52.61899],[1.32084,52.61825],[1.32067,52.61849],[1.32061,52.61899]]],[[[1.31526,52.62008],[1.31425,52.61997],[1.31408,52.62022],[1.31593,52.62028],[1.31604,52.62109],[1.31716,52.62107],[1.3179,52.6214],[1.3185,52.62058],[1.31526,52.62008]]],[[[1.30636,52.62111],[1.30871,52.62035],[1.31247,52.61978],[1.31963,52.62033],[1.31994,52.61922],[1.32023,52.61922],[1.32098,52.61754],[1.3203,52.61624],[1.31842,52.61519],[1.31483,52.61526],[1.31215,52.6133],[1.31243,52.61296],[1.31342,52.61357],[1.31303,52.61321],[1.31116,52.61237],[1.30922,52.61073],[1.30653,52.612],[1.30917,52.61435],[1.31022,52.61606],[1.30997,52.61658],[1.30763,52.61765],[1.30736,52.61947],[1.30608,52.62063],[1.30548,52.62037],[1.30174,52.6221],[1.30258,52.62265],[1.30288,52.62339],[1.30195,52.62374],[1.30201,52.62457],[1.30334,52.62496],[1.30423,52.62263],[1.30636,52.62111]]],[[[1.30556,52.62554],[1.30633,52.62533],[1.3065,52.62577],[1.31002,52.62427],[1.31015,52.62387],[1.31068,52.62385],[1.31269,52.62308],[1.31152,52.62276],[1.31138,52.62227],[1.30884,52.62073],[1.30621,52.62148],[1.30453,52.62274],[1.30334,52.6257],[1.3042,52.62635],[1.30556,52.62554]]]]}},{"type":"Feature","properties":{"id":"E01035137","name":"E01035137","parent":"E07000148","type":"LSOA","pop":1036,"r":270,"ff":103,"ffd":9942.1,"ffs":0.5024,"g":63,"co":0,"mo":0,"sa":0,"ic":0},"geometry":{"type":"MultiPolygon","coordinates":[[[[1.30353,52.62872],[1.3056,52.628],[1.30495,52.62722],[1.3038,52.62663],[1.30247,52.62769],[1.30178,52.6286],[1.30333,52.62836],[1.30353,52.62872]]],[[[1.31022,52.62981],[1.31049,52.62908],[1.31134,52.62886],[1.31098,52.62858],[1.31254,52.62773],[1.31149,52.62734],[1.31152,52.627],[1.31199,52.62699],[1.31162,52.62685],[1.31179,52.62654],[1.31349,52.62551],[1.31308,52.62478],[1.30886,52.62629],[1.30757,52.62529],[1.3065,52.62577],[1.30633,52.62533],[1.30556,52.62554],[1.3042,52.62635],[1.30542,52.62727],[1.3059,52.6279],[1.30704,52.62757],[1.30646,52.62836],[1.30695,52.62837],[1.30717,52.62929],[1.30915,52.62912],[1.31022,52.62981]]]]}},{"type":"Feature","properties":{"id":"E01035138","name":"E01035138","parent":"E07000148","type":"LSOA","pop":1492,"r":267,"ff":100,"ffd":6702.4,"ffs":0.4926,"g":62,"co":2,"mo":0,"sa":0,"ic":0},"geometry":{"type":"MultiPolygon","coordinates":[[[[1.53985,52.55666],[1.5406,52.556],[1.54029,52.55611],[1.53985,52.55666]]],[[[1.54037,52.55544],[1.54034,52.55542],[1.53893,52.55673],[1.53911,52.55657],[1.54037,52.55544]]],[[[1.52906,52.55913],[1.52886,52.55907],[1.52876,52.55908],[1.52906,52.55913]]],[[[1.53803,52.5601],[1.53821,52.55928],[1.538,52.56024],[1.53803,52.5601]]],[[[1.53682,52.56149],[1.53794,52.5603],[1.53633,52.56166],[1.53682,52.56149]]],[[[1.53089,52.55967],[1.53068,52.5596],[1.53339,52.56192],[1.53089,52.55967]]],[[[1.535,52.56214],[1.53518,52.56208],[1.53491,52.56213],[1.535,52.56214]]],[[[1.53639,52.5622],[1.53745,52.56141],[1.53622,52.56224],[1.53639,52.5622]]],[[[1.52138,52.56294],[1.52209,52.5622],[1.5218,52.5624],[1.52138,52.56294]]],[[[1.53456,52.56261],[1.53501,52.56251],[1.53443,52.56259],[1.53456,52.56261]]],[[[1.52077,52.56522],[1.52085,52.56361],[1.52076,52.56373],[1.52077,52.56522]]],[[[1.52358,52.56802],[1.52095,52.56549],[1.52149,52.56627],[1.52358,52.56802]]],[[[1.49772,52.57091],[1.49851,52.57071],[1.49813,52.57072],[1.49772,52.57091]]],[[[1.52385,52.57019],[1.52373,52.56868],[1.52381,52.57024],[1.52385,52.57019]]],[[[1.50069,52.57127],[1.50031,52.57117],[1.5003,52.57117],[1.50069,52.57127]]],[[[1.49442,52.57299],[1.49646,52.57146],[1.49568,52.57181],[1.49442,52.57299]]],[[[1.50622,52.57207],[1.50084,52.57067],[1.50834,52.57281],[1.50622,52.57207]]],[[[1.52395,52.57171],[1.52451,52.57066],[1.52339,52.57238],[1.52395,52.57171]]],[[[1.49431,52.57319],[1.49227,52.57501],[1.49197,52.57547],[1.49431,52.57319]]],[[[1.51921,52.57546],[1.52094,52.57431],[1.51879,52.57563],[1.51921,52.57546]]],[[[1.51758,52.57612],[1.51803,52.57594],[1.51641,52.57632],[1.51758,52.57612]]],[[[1.49155,52.57724],[1.49176,52.57578],[1.4917,52.57587],[1.49155,52.57724]]],[[[1.48814,52.58005],[1.48761,52.57993],[1.48763,52.57994],[1.48814,52.58005]]],[[[1.48816,52.58087],[1.48987,52.57986],[1.48819,52.5808],[1.48816,52.58087]]],[[[1.48821,52.58318],[1.4881,52.58103],[1.48787,52.5816],[1.48821,52.58318]]],[[[1.4876,52.58383],[1.48711,52.58206],[1.48745,52.58417],[1.4876,52.58383]]],[[[1.48823,52.58493],[1.48821,52.58492],[1.48814,52.58502],[1.48823,52.58493]]],[[[1.47607,52.58584],[1.4751,52.58579],[1.47504,52.58579],[1.4751,52.58579],[1.47607,52.58584]]],[[[1.46876,52.58643],[1.46898,52.58641],[1.46876,52.58642],[1.46876,52.58643]]],[[[1.47635,52.58644],[1.47625,52.58644],[1.47638,52.58644],[1.47635,52.58644]]],[[[1.47401,52.58646],[1.47348,52.58647],[1.47243,52.5866],[1.47401,52.58646]]],[[[1.46807,52.58695],[1.46875,52.58643],[1.46731,52.58712],[1.46807,52.58695]]],[[[1.48703,52.58512],[1.48717,52.5848],[1.48515,52.5866],[1.48703,52.58512]]],[[[1.46903,52.58716],[1.46982,52.58694],[1.46929,52.58701],[1.46903,52.58716]]],[[[1.48121,52.58685],[1.47818,52.58602],[1.48035,52.58673],[1.48121,52.58685]]],[[[1.46739,52.58812],[1.46752,52.58801],[1.46739,52.58808],[1.46739,52.58812]]],[[[1.48348,52.58776],[1.48133,52.58755],[1.48361,52.58784],[1.48348,52.58776]]],[[[1.4864,52.58671],[1.4866,52.58651],[1.4841,52.58791],[1.48431,52.58793],[1.4864,52.58671]]],[[[1.46641,52.59013],[1.46625,52.58861],[1.46624,52.59041],[1.46641,52.59013]]],[[[1.46603,52.59077],[1.46614,52.59059],[1.46291,52.59311],[1.46603,52.59077]]],[[[1.45733,52.5934],[1.45711,52.59337],[1.45543,52.59348],[1.45733,52.5934]]],[[[1.46115,52.59377],[1.46186,52.59359],[1.46114,52.59377],[1.46115,52.59377]]],[[[1.45456,52.59462],[1.45463,52.59457],[1.45459,52.59458],[1.45456,52.59462]]],[[[1.46137,52.59447],[1.45688,52.59393],[1.45687,52.59393],[1.46114,52.59452],[1.46137,52.59447]]],[[[1.45361,52.59624],[1.45376,52.59571],[1.45353,52.59601],[1.45361,52.59624]]],[[[1.45351,52.60055],[1.45356,52.60029],[1.45331,52.60065],[1.45351,52.60055]]],[[[1.45112,52.60252],[1.45166,52.60228],[1.45102,52.60254],[1.45112,52.60252]]],[[[1.39225,52.60448],[1.39222,52.60447],[1.39234,52.60454],[1.39225,52.60448]]],[[[1.38677,52.60476],[1.38755,52.60463],[1.38754,52.60463],[1.38677,52.60476]]],[[[1.38976,52.6047],[1.38974,52.60456],[1.38782,52.60462],[1.38976,52.6047]]],[[[1.39132,52.60477],[1.38998,52.60455],[1.38989,52.60471],[1.39132,52.60477]]],[[[1.44415,52.60451],[1.44461,52.60435],[1.44425,52.60445],[1.44415,52.60451]]],[[[1.38147,52.60636],[1.38192,52.60614],[1.38147,52.60635],[1.38147,52.60636]]],[[[1.44255,52.60565],[1.44317,52.60517],[1.44254,52.6056],[1.44255,52.60565]]],[[[1.39798,52.60721],[1.39486,52.60599],[1.3979,52.60724],[1.39798,52.60721]]],[[[1.39855,52.6075],[1.3984,52.60742],[1.39841,52.60745],[1.39855,52.6075]]],[[[1.39974,52.60821],[1.39973,52.6082],[1.39971,52.60821],[1.39974,52.60821]]],[[[1.38043,52.60676],[1.38049,52.60655],[1.3803,52.60672],[1.37984,52.60894],[1.38043,52.60676]]],[[[1.40014,52.60844],[1.40011,52.60842],[1.40022,52.6086],[1.40014,52.60844]]],[[[1.43908,52.6092],[1.4399,52.60832],[1.43898,52.60927],[1.43908,52.6092]]],[[[1.4376,52.60929],[1.44151,52.60548],[1.43742,52.60946],[1.4376,52.60929]]],[[[1.40088,52.61156],[1.40076,52.60981],[1.40068,52.60988],[1.40088,52.61156]]],[[[1.43555,52.61131],[1.43597,52.61116],[1.43553,52.61129],[1.43555,52.61131]]],[[[1.43525,52.61141],[1.43523,52.61139],[1.43521,52.61142],[1.43525,52.61141]]],[[[1.43452,52.61171],[1.43452,52.61171],[1.43452,52.61171],[1.43452,52.61171]]],[[[1.43421,52.61193],[1.43418,52.61192],[1.43379,52.61223],[1.43421,52.61193]]],[[[1.4324,52.61293],[1.43293,52.61168],[1.43229,52.61278],[1.4324,52.61293]]],[[[1.40326,52.61403],[1.40216,52.61344],[1.4032,52.61402],[1.40326,52.61403]]],[[[1.40699,52.61394],[1.40613,52.61376],[1.40612,52.61377],[1.407,52.61395],[1.40699,52.61394]]],[[[1.404,52.61408],[1.40401,52.61408],[1.40396,52.61408],[1.404,52.61408]]],[[[1.40779,52.61355],[1.40773,52.61353],[1.40804,52.61405],[1.40779,52.61355]]],[[[1.40114,52.61349],[1.40245,52.61445],[1.40297,52.61459],[1.40114,52.61349]]],[[[1.40467,52.61456],[1.40474,52.61451],[1.40466,52.61456],[1.40467,52.61456]]],[[[1.37623,52.61722],[1.37602,52.61638],[1.37599,52.61655],[1.37623,52.61722]]],[[[1.4358,52.61601],[1.43298,52.61372],[1.43605,52.61627],[1.4358,52.61601]]],[[[1.31428,52.61992],[1.31433,52.61985],[1.31391,52.61989],[1.31428,52.61992]]],[[[1.43751,52.61698],[1.43741,52.61687],[1.43754,52.61748],[1.43751,52.61698]]],[[[1.43656,52.61755],[1.43646,52.6173],[1.43654,52.61758],[1.43656,52.61755]]],[[[1.40928,52.61841],[1.40926,52.61839],[1.40927,52.61841],[1.40928,52.61841]]],[[[1.429,52.61783],[1.42884,52.61783],[1.42832,52.61804],[1.42869,52.61792],[1.429,52.61783]]],[[[1.43031,52.61785],[1.42976,52.61784],[1.43051,52.61798],[1.43031,52.61785]]],[[[1.37636,52.61878],[1.37636,52.61878],[1.37613,52.61977],[1.37632,52.61945],[1.37636,52.61878]]],[[[1.42998,52.61846],[1.42942,52.61832],[1.429,52.61843],[1.42998,52.61846]]],[[[1.43065,52.61863],[1.43054,52.6186],[1.43082,52.61877],[1.43065,52.61863]]],[[[1.40942,52.61911],[1.40856,52.61854],[1.41023,52.61964],[1.40942,52.61911]]],[[[1.37571,52.62047],[1.37579,52.62033],[1.3732,52.62098],[1.37571,52.62047]]],[[[1.34957,52.62169],[1.34959,52.62167],[1.34957,52.62168],[1.34957,52.62169]]],[[[1.43317,52.6196],[1.43306,52.61958],[1.43308,52.6196],[1.43317,52.6196]]],[[[1.43601,52.61873],[1.43601,52.61873],[1.43409,52.61966],[1.43423,52.61967],[1.43601,52.61873]]],[[[1.4347,52.62006],[1.43472,52.62005],[1.43468,52.62006],[1.4347,52.62006]]],[[[1.42614,52.62031],[1.42882,52.61847],[1.42827,52.61861],[1.42614,52.62031]]],[[[1.34863,52.62268],[1.34871,52.6218],[1.34825,52.62303],[1.34863,52.62268]]],[[[1.41848,52.6212],[1.4184,52.62115],[1.41724,52.62127],[1.41848,52.6212]]],[[[1.41558,52.62137],[1.41402,52.6212],[1.41463,52.62143],[1.41558,52.62137]]],[[[1.35932,52.62302],[1.35419,52.62202],[1.35577,52.62237],[1.35932,52.62302]]],[[[1.32935,52.62393],[1.32495,52.62262],[1.32887,52.62387],[1.32935,52.62393]]],[[[1.34792,52.62333],[1.34797,52.62329],[1.3457,52.62357],[1.34788,52.62337],[1.34792,52.62333]]],[[[1.34426,52.6238],[1.3444,52.62373],[1.34434,52.62373],[1.34426,52.6238]]],[[[1.34515,52.62408],[1.34514,52.62403],[1.3446,52.62413],[1.34515,52.62408]]],[[[1.42195,52.62192],[1.42322,52.62138],[1.42195,52.62192],[1.42195,52.62192]]],[[[1.36452,52.62394],[1.36085,52.62289],[1.36444,52.62394],[1.36452,52.62394]]],[[[1.32953,52.62474],[1.32927,52.62464],[1.32976,52.62494],[1.32953,52.62474]]],[[[1.36737,52.62392],[1.36653,52.62395],[1.36724,52.62395],[1.36737,52.62392]]],[[[1.42141,52.62231],[1.4206,52.62227],[1.42089,52.62244],[1.42141,52.62231]]],[[[1.37013,52.62382],[1.37032,52.62368],[1.36979,52.62391],[1.37013,52.62382]]],[[[1.36413,52.62423],[1.36066,52.62332],[1.36358,52.6242],[1.36413,52.62423]]],[[[1.36782,52.62441],[1.36813,52.62433],[1.36781,52.62439],[1.36782,52.62441]]],[[[1.34356,52.62513],[1.3441,52.62456],[1.34333,52.62523],[1.34356,52.62513]]],[[[1.34186,52.62585],[1.34247,52.62559],[1.34161,52.62587],[1.34186,52.62585]]],[[[1.33728,52.62619],[1.33913,52.62605],[1.33278,52.62624],[1.33728,52.62619]]],[[[1.31484,52.62486],[1.31514,52.6241],[1.31517,52.62482],[1.31609,52.62458],[1.31641,52.62484],[1.31684,52.62452],[1.31552,52.62418],[1.3161,52.6234],[1.32051,52.62345],[1.32453,52.62385],[1.32528,52.62319],[1.32256,52.62152],[1.32088,52.62269],[1.32239,52.6215],[1.32191,52.62112],[1.3185,52.62058],[1.3179,52.6214],[1.31716,52.62107],[1.31604,52.62109],[1.31593,52.62028],[1.31408,52.62022],[1.31425,52.61997],[1.3106,52.62022],[1.30884,52.62073],[1.31138,52.62227],[1.31152,52.62276],[1.31269,52.62308],[1.31068,52.62385],[1.31015,52.62387],[1.31002,52.62427],[1.30757,52.62529],[1.30886,52.62629],[1.31308,52.62478],[1.31349,52.62551],[1.31179,52.62654],[1.31162,52.62685],[1.31354,52.627],[1.31513,52.62749],[1.31561,52.62646],[1.31476,52.62568],[1.31546,52.62553],[1.31484,52.62486]]]]}},{"type":"Feature","properties":{"id":"E01035139","name":"E01035139","parent":"E07000148","type":"LSOA","pop":3558,"r":277,"ff":109,"ffd":3063.5,"ffs":0.507,"g":60,"co":0,"mo":0,"sa":0,"ic":0},"geometry":{"type":"Polygon","coordinates":[[[1.28762,52.63314],[1.2886,52.63219],[1.28992,52.63182],[1.28945,52.6313],[1.28746,52.63139],[1.28738,52.63115],[1.28914,52.63067],[1.28968,52.63094],[1.29017,52.63074],[1.28998,52.63025],[1.29081,52.62941],[1.29179,52.6296],[1.29203,52.62916],[1.29342,52.62907],[1.2933,52.6279],[1.29452,52.62767],[1.29499,52.62977],[1.29724,52.63006],[1.29798,52.6294],[1.29774,52.62839],[1.29848,52.62802],[1.29756,52.62675],[1.29698,52.62652],[1.29659,52.62678],[1.29534,52.62598],[1.29582,52.62568],[1.29466,52.62401],[1.2936,52.62307],[1.2904,52.62432],[1.28626,52.62733],[1.28555,52.62816],[1.28519,52.62924],[1.28299,52.62986],[1.28326,52.63033],[1.28404,52.6302],[1.2842,52.62965],[1.28493,52.62978],[1.28454,52.63212],[1.28367,52.63202],[1.28401,52.63271],[1.28461,52.63253],[1.28583,52.63275],[1.28676,52.63384],[1.28762,52.63314]]]}},{"type":"Feature","properties":{"id":"E01035140","name":"E01035140","parent":"E07000148","type":"LSOA","pop":1107,"r":275,"ff":105,"ffd":9485.1,"ffs":0.5,"g":63,"co":2,"mo":0,"sa":0,"ic":0},"geometry":{"type":"Polygon","coordinates":[[[1.29756,52.62675],[1.29942,52.62547],[1.3014,52.62324],[1.3009,52.62326],[1.30081,52.62261],[1.30548,52.62037],[1.30438,52.62007],[1.30252,52.62039],[1.30113,52.6209],[1.29956,52.62102],[1.2936,52.62307],[1.29466,52.62401],[1.29582,52.62568],[1.29534,52.62598],[1.29659,52.62678],[1.29698,52.62652],[1.29756,52.62675]]]}}]}