{"type":"FeatureCollection","features":[{"type":"Feature","properties":{"id":"E01025610","name":"E01025610","parent":"E07000129","type":"LSOA","pop":1640,"r":265,"ff":102,"ffd":6219.5,"ffs":0.5484,"g":78,"co":0,"mo":2,"sa":0,"ic":0},"geometry":{"type":"Polygon","coordinates":[[[-1.16183,52.57342],[-1.16172,52.57239],[-1.15964,52.57242],[-1.1598,52.57078],[-1.16057,52.57008],[-1.16034,52.56952],[-1.1607,52.56945],[-1.1609,52.56907],[-1.16582,52.56923],[-1.16616,52.56968],[-1.16565,52.56963],[-1.16467,52.57069],[-1.16559,52.57086],[-1.1683,52.57013],[-1.17202,52.56857],[-1.17433,52.56877],[-1.17391,52.5719],[-1.17309,52.57356],[-1.17052,52.57363],[-1.17069,52.57296],[-1.16918,52.57317],[-1.169,52.57345],[-1.16474,52.57342],[-1.16324,52.57444],[-1.16306,52.57408],[-1.16183,52.57342]]]}},{"type":"Feature","properties":{"id":"E01025611","name":"E01025611","parent":"E07000129","type":"LSOA","pop":1678,"r":103,"ff":34,"ffd":2026.2,"ffs":0.5231,"g":38,"co":0,"mo":2,"sa":0,"ic":0},"geometry":{"type":"Polygon","coordinates":[[[-1.16467,52.57069],[-1.16565,52.56963],[-1.16616,52.56968],[-1.16582,52.56923],[-1.16662,52.56897],[-1.16637,52.56864],[-1.16423,52.56851],[-1.16426,52.56816],[-1.16487,52.56801],[-1.16449,52.56781],[-1.16508,52.56744],[-1.16484,52.5671],[-1.16519,52.56699],[-1.16458,52.5666],[-1.16024,52.56632],[-1.15979,52.56532],[-1.1605,52.56582],[-1.16101,52.56558],[-1.1612,52.56594],[-1.16176,52.56599],[-1.16208,52.5657],[-1.16218,52.56501],[-1.16329,52.56508],[-1.16358,52.56278],[-1.16558,52.5625],[-1.16907,52.56403],[-1.17015,52.56215],[-1.17077,52.56207],[-1.17182,52.5643],[-1.17402,52.56674],[-1.17433,52.56877],[-1.17202,52.56857],[-1.1683,52.57013],[-1.16559,52.57086],[-1.16467,52.57069]]]}},{"type":"Feature","properties":{"id":"E01025612","name":"E01025612","parent":"E07000129","type":"LSOA","pop":2115,"r":242,"ff":93,"ffd":4397.2,"ffs":0.5503,"g":73,"co":0,"mo":2,"sa":0,"ic":0},"geometry":{"type":"Polygon","coordinates":[[[-1.15939,52.57017],[-1.15526,52.56882],[-1.15129,52.56792],[-1.14492,52.56704],[-1.14311,52.5666],[-1.14187,52.56575],[-1.13917,52.5649],[-1.13981,52.56298],[-1.143,52.56348],[-1.14368,52.5624],[-1.14723,52.56275],[-1.14837,52.56317],[-1.15061,52.56296],[-1.15107,52.56033],[-1.15805,52.55999],[-1.15833,52.55725],[-1.16205,52.55712],[-1.16209,52.55692],[-1.16713,52.5571],[-1.16801,52.55396],[-1.17025,52.55391],[-1.17178,52.5547],[-1.17097,52.55943],[-1.17077,52.56207],[-1.17015,52.56215],[-1.16907,52.56403],[-1.16558,52.5625],[-1.16358,52.56278],[-1.16329,52.56508],[-1.16218,52.56501],[-1.16208,52.5657],[-1.16176,52.56599],[-1.1612,52.56594],[-1.16101,52.56558],[-1.1605,52.56582],[-1.15979,52.56532],[-1.16024,52.56632],[-1.16458,52.5666],[-1.16519,52.56699],[-1.16484,52.5671],[-1.16508,52.56744],[-1.16449,52.56781],[-1.16487,52.56801],[-1.16426,52.56816],[-1.16423,52.56851],[-1.16637,52.56864],[-1.16662,52.56897],[-1.16582,52.56923],[-1.1609,52.56907],[-1.1607,52.56945],[-1.16034,52.56952],[-1.16057,52.57008],[-1.1598,52.57078],[-1.15939,52.57017]]]}},{"type":"Feature","properties":{"id":"E01025613","name":"E01025613","parent":"E07000129","type":"LSOA","pop":1528,"r":198,"ff":65,"ffd":4253.9,"ffs":0.5804,"g":85,"co":0,"mo":2,"sa":2,"ic":0},"geometry":{"type":"Polygon","coordinates":[[[-1.21246,52.56714],[-1.21208,52.56615],[-1.21262,52.5654],[-1.21027,52.56227],[-1.20977,52.56224],[-1.20713,52.56396],[-1.20517,52.56224],[-1.20418,52.5608],[-1.20193,52.55988],[-1.20064,52.56079],[-1.19941,52.56085],[-1.19791,52.5599],[-1.19594,52.55801],[-1.19715,52.55544],[-1.196,52.55412],[-1.19478,52.55324],[-1.19388,52.55215],[-1.19409,52.5519],[-1.19332,52.55199],[-1.19369,52.55126],[-1.19253,52.55104],[-1.19256,52.55024],[-1.19236,52.54972],[-1.19116,52.5493],[-1.19141,52.54868],[-1.19275,52.54856],[-1.19271,52.54744],[-1.19088,52.54638],[-1.18947,52.54642],[-1.19001,52.5488],[-1.18928,52.54882],[-1.18791,52.55007],[-1.18742,52.54908],[-1.18636,52.54921],[-1.18612,52.54665],[-1.1848,52.54353],[-1.17787,52.53186],[-1.1765,52.52791],[-1.18173,52.52969],[-1.18428,52.5275],[-1.1902,52.52786],[-1.19408,52.52767],[-1.1962,52.52811],[-1.19707,52.52763],[-1.19855,52.5282],[-1.20213,52.52744],[-1.20325,52.53037],[-1.20442,52.5316],[-1.20546,52.53519],[-1.2066,52.53516],[-1.20901,52.5392],[-1.21075,52.54103],[-1.21177,52.54288],[-1.21379,52.54368],[-1.21298,52.54427],[-1.21773,52.54769],[-1.21782,52.54827],[-1.22114,52.55017],[-1.22436,52.55146],[-1.22413,52.55168],[-1.22666,52.55342],[-1.22889,52.55431],[-1.22784,52.55512],[-1.23084,52.55615],[-1.22667,52.55941],[-1.22505,52.56112],[-1.21781,52.56724],[-1.21684,52.56724],[-1.21642,52.5668],[-1.21399,52.56687],[-1.21327,52.56728],[-1.21246,52.56714]]]}},{"type":"Feature","properties":{"id":"E01025614","name":"E01025614","parent":"E07000129","type":"LSOA","pop":1594,"r":195,"ff":66,"ffd":4140.5,"ffs":0.5641,"g":77,"co":0,"mo":2,"sa":2,"ic":0},"geometry":{"type":"Polygon","coordinates":[[[-1.18853,52.56345],[-1.18669,52.55949],[-1.18621,52.55802],[-1.18993,52.5552],[-1.19103,52.55399],[-1.19056,52.55401],[-1.19043,52.55373],[-1.19088,52.55317],[-1.19024,52.55281],[-1.19035,52.55226],[-1.18983,52.5521],[-1.18885,52.55247],[-1.18849,52.55159],[-1.19046,52.55146],[-1.19049,52.55122],[-1.18914,52.55117],[-1.18903,52.55009],[-1.18962,52.54951],[-1.19059,52.54945],[-1.19256,52.55024],[-1.19253,52.55104],[-1.19369,52.55126],[-1.19332,52.55199],[-1.19409,52.5519],[-1.19388,52.55215],[-1.19478,52.55324],[-1.196,52.55412],[-1.19715,52.55544],[-1.19594,52.55801],[-1.19791,52.5599],[-1.19606,52.56231],[-1.19236,52.56098],[-1.18893,52.56371],[-1.18853,52.56345]]]}},{"type":"Feature","properties":{"id":"E01025615","name":"E01025615","parent":"E07000129","type":"LSOA","pop":2557,"r":103,"ff":34,"ffd":1329.7,"ffs":0.5231,"g":38,"co":0,"mo":2,"sa":0,"ic":0},"geometry":{"type":"Polygon","coordinates":[[[-1.17025,52.55391],[-1.16911,52.55363],[-1.16486,52.55054],[-1.1565,52.54636],[-1.15391,52.54459],[-1.15097,52.54454],[-1.15019,52.54414],[-1.14867,52.54411],[-1.14875,52.54447],[-1.14725,52.54418],[-1.14679,52.54376],[-1.14536,52.54344],[-1.14538,52.54287],[-1.13945,52.54317],[-1.13927,52.53987],[-1.14031,52.53792],[-1.14388,52.53755],[-1.14306,52.53652],[-1.14285,52.53497],[-1.172,52.5344],[-1.17211,52.5332],[-1.17301,52.53288],[-1.17506,52.52759],[-1.1765,52.52791],[-1.17787,52.53186],[-1.1848,52.54353],[-1.18612,52.54665],[-1.18636,52.54921],[-1.18742,52.54908],[-1.18791,52.55007],[-1.18928,52.54882],[-1.19001,52.5488],[-1.18947,52.54642],[-1.19088,52.54638],[-1.19271,52.54744],[-1.19275,52.54856],[-1.19141,52.54868],[-1.19116,52.5493],[-1.19236,52.54972],[-1.19256,52.55024],[-1.19059,52.54945],[-1.18962,52.54951],[-1.18903,52.55009],[-1.18914,52.55117],[-1.19049,52.55122],[-1.19046,52.55146],[-1.18849,52.55159],[-1.18885,52.55247],[-1.18983,52.5521],[-1.19035,52.55226],[-1.19024,52.55281],[-1.19088,52.55317],[-1.19043,52.55373],[-1.19056,52.55401],[-1.19103,52.55399],[-1.18993,52.5552],[-1.18621,52.55802],[-1.18669,52.55949],[-1.18853,52.56345],[-1.18548,52.56797],[-1.18379,52.56796],[-1.17948,52.5672],[-1.17784,52.56672],[-1.18018,52.56331],[-1.17988,52.56298],[-1.17504,52.56111],[-1.17414,52.55955],[-1.17097,52.55943],[-1.17178,52.5547],[-1.17025,52.55391]]]}},{"type":"Feature","properties":{"id":"E01025616","name":"E01025616","parent":"E07000129","type":"LSOA","pop":2014,"r":103,"ff":34,"ffd":1688.2,"ffs":0.5231,"g":38,"co":0,"mo":2,"sa":0,"ic":0},"geometry":{"type":"Polygon","coordinates":[[[-1.15505,52.55826],[-1.15531,52.5578],[-1.15577,52.55784],[-1.15568,52.55727],[-1.15496,52.557],[-1.15426,52.55718],[-1.15408,52.55693],[-1.15296,52.55668],[-1.15223,52.55691],[-1.15122,52.55618],[-1.15291,52.55566],[-1.15288,52.55508],[-1.15352,52.55499],[-1.1538,52.55435],[-1.15285,52.55392],[-1.15185,52.55407],[-1.14961,52.55378],[-1.14847,52.55425],[-1.14729,52.55426],[-1.1471,52.55311],[-1.14819,52.55295],[-1.14874,52.55359],[-1.14995,52.5535],[-1.1509,52.55202],[-1.15329,52.55211],[-1.15399,52.55172],[-1.15373,52.55132],[-1.15015,52.54986],[-1.14593,52.54711],[-1.14575,52.54818],[-1.14319,52.55312],[-1.14233,52.55315],[-1.14207,52.55349],[-1.14126,52.55328],[-1.14064,52.55233],[-1.13999,52.55228],[-1.14024,52.55187],[-1.13725,52.55206],[-1.13677,52.55179],[-1.13644,52.55078],[-1.13825,52.54865],[-1.14028,52.54308],[-1.14538,52.54287],[-1.14536,52.54344],[-1.14679,52.54376],[-1.14725,52.54418],[-1.14875,52.54447],[-1.14867,52.54411],[-1.15019,52.54414],[-1.15097,52.54454],[-1.15391,52.54459],[-1.1565,52.54636],[-1.16486,52.55054],[-1.16911,52.55363],[-1.17025,52.55391],[-1.16801,52.55396],[-1.16713,52.5571],[-1.16209,52.55692],[-1.16205,52.55712],[-1.15833,52.55725],[-1.15805,52.55999],[-1.15534,52.56006],[-1.15601,52.55939],[-1.15505,52.55826]]]}},{"type":"Feature","properties":{"id":"E01025617","name":"E01025617","parent":"E07000129","type":"LSOA","pop":2074,"r":198,"ff":76,"ffd":3664.4,"ffs":0.5468,"g":59,"co":0,"mo":2,"sa":0,"ic":0},"geometry":{"type":"Polygon","coordinates":[[[-1.12351,52.5684],[-1.123,52.56784],[-1.12243,52.56802],[-1.12161,52.56763],[-1.12116,52.56718],[-1.12145,52.56685],[-1.12062,52.56678],[-1.1204,52.56647],[-1.11682,52.56705],[-1.1164,52.56697],[-1.11658,52.56614],[-1.11572,52.5659],[-1.11566,52.56629],[-1.11509,52.56636],[-1.11517,52.56597],[-1.11447,52.56595],[-1.11401,52.56541],[-1.11318,52.566],[-1.1097,52.5657],[-1.10698,52.56429],[-1.1062,52.56461],[-1.1064,52.56524],[-1.10599,52.56561],[-1.10539,52.56559],[-1.10522,52.56496],[-1.10415,52.56512],[-1.10359,52.5656],[-1.10296,52.56499],[-1.10077,52.56553],[-1.0971,52.56545],[-1.09654,52.56498],[-1.09567,52.56545],[-1.09493,52.56448],[-1.09538,52.56474],[-1.09563,52.5645],[-1.09382,52.56309],[-1.09399,52.56269],[-1.09452,52.56313],[-1.09469,52.56295],[-1.09475,52.56187],[-1.09407,52.56177],[-1.09427,52.56127],[-1.09227,52.5615],[-1.09265,52.56105],[-1.09195,52.56058],[-1.09155,52.56092],[-1.0911,52.56086],[-1.08981,52.55987],[-1.08862,52.55958],[-1.0888,52.55926],[-1.08755,52.55925],[-1.08693,52.55894],[-1.08619,52.55919],[-1.08591,52.55794],[-1.08573,52.55825],[-1.08505,52.55798],[-1.08558,52.55735],[-1.08506,52.55685],[-1.08593,52.55666],[-1.0855,52.55626],[-1.08507,52.55618],[-1.08411,52.55667],[-1.08385,52.5564],[-1.08289,52.55658],[-1.08027,52.55559],[-1.0772,52.55582],[-1.07657,52.55684],[-1.07455,52.55673],[-1.0738,52.5561],[-1.07335,52.55648],[-1.07411,52.55689],[-1.07323,52.55799],[-1.07363,52.55904],[-1.0728,52.56108],[-1.07172,52.5618],[-1.06424,52.5621],[-1.0639,52.55905],[-1.05939,52.55893],[-1.06044,52.55551],[-1.06072,52.55528],[-1.06148,52.55542],[-1.06473,52.55235],[-1.06623,52.54918],[-1.06983,52.54415],[-1.06986,52.54288],[-1.07258,52.5425],[-1.0757,52.53974],[-1.07589,52.53887],[-1.08366,52.53991],[-1.08722,52.5407],[-1.08768,52.54054],[-1.09036,52.54123],[-1.09031,52.54155],[-1.09349,52.54144],[-1.09422,52.54192],[-1.09744,52.54241],[-1.10227,52.53836],[-1.10451,52.53981],[-1.10606,52.54184],[-1.10936,52.54207],[-1.1136,52.54183],[-1.1175,52.54321],[-1.12126,52.54519],[-1.12303,52.5449],[-1.12347,52.54459],[-1.14028,52.54308],[-1.13825,52.54865],[-1.13644,52.55078],[-1.13677,52.55179],[-1.13725,52.55206],[-1.13838,52.552],[-1.13726,52.55257],[-1.13617,52.55218],[-1.13617,52.55269],[-1.13725,52.5529],[-1.13714,52.55354],[-1.1361,52.55399],[-1.13554,52.55384],[-1.13513,52.55417],[-1.13534,52.55351],[-1.1339,52.55352],[-1.13384,52.55396],[-1.13198,52.55398],[-1.13182,52.55461],[-1.13237,52.55463],[-1.13233,52.55494],[-1.13277,52.55591],[-1.13217,52.55601],[-1.13225,52.55776],[-1.12691,52.55795],[-1.12814,52.55813],[-1.13542,52.55788],[-1.13368,52.55635],[-1.13381,52.55584],[-1.13493,52.55564],[-1.13533,52.55587],[-1.13783,52.55532],[-1.13869,52.55567],[-1.139,52.55513],[-1.14024,52.55535],[-1.1403,52.55559],[-1.13985,52.55624],[-1.141,52.55683],[-1.1421,52.55674],[-1.14261,52.55726],[-1.14203,52.55721],[-1.14243,52.55815],[-1.14189,52.5587],[-1.14023,52.55766],[-1.13951,52.55779],[-1.13968,52.55829],[-1.1392,52.56142],[-1.14089,52.56214],[-1.14005,52.56312],[-1.13981,52.56298],[-1.13917,52.5649],[-1.13775,52.56464],[-1.13472,52.56468],[-1.13439,52.56578],[-1.13352,52.56588],[-1.13367,52.56414],[-1.12949,52.56389],[-1.13018,52.56225],[-1.12658,52.56205],[-1.12662,52.56323],[-1.12609,52.56324],[-1.1248,52.56499],[-1.12481,52.56538],[-1.12537,52.56551],[-1.12506,52.56628],[-1.12461,52.56628],[-1.12514,52.56692],[-1.12433,52.56741],[-1.12437,52.56874],[-1.12302,52.56881],[-1.12245,52.56843],[-1.12351,52.5684]]]}},{"type":"Feature","properties":{"id":"E01025618","name":"E01025618","parent":"E07000129","type":"LSOA","pop":1642,"r":189,"ff":74,"ffd":4506.7,"ffs":0.5564,"g":56,"co":0,"mo":2,"sa":0,"ic":0},"geometry":{"type":"Polygon","coordinates":[[[-1.13277,52.55591],[-1.13233,52.55494],[-1.13237,52.55463],[-1.13182,52.55461],[-1.13198,52.55398],[-1.13384,52.55396],[-1.1339,52.55352],[-1.13534,52.55351],[-1.13513,52.55417],[-1.13554,52.55384],[-1.1361,52.55399],[-1.13714,52.55354],[-1.13725,52.5529],[-1.13617,52.55269],[-1.13617,52.55218],[-1.13726,52.55257],[-1.13838,52.552],[-1.14024,52.55187],[-1.13999,52.55228],[-1.14064,52.55233],[-1.14126,52.55328],[-1.14207,52.55349],[-1.14233,52.55315],[-1.14319,52.55312],[-1.14575,52.54818],[-1.14593,52.54711],[-1.15015,52.54986],[-1.15373,52.55132],[-1.15399,52.55172],[-1.15329,52.55211],[-1.1509,52.55202],[-1.14995,52.5535],[-1.14874,52.55359],[-1.14819,52.55295],[-1.1471,52.55311],[-1.14729,52.55426],[-1.14847,52.55425],[-1.1487,52.55507],[-1.14799,52.55481],[-1.14635,52.5549],[-1.1469,52.555],[-1.14701,52.55555],[-1.14626,52.55566],[-1.14577,52.55504],[-1.1455,52.55588],[-1.14291,52.55556],[-1.14322,52.55442],[-1.14226,52.55426],[-1.14164,52.55454],[-1.14079,52.55409],[-1.14058,52.55437],[-1.1415,52.55559],[-1.1403,52.55559],[-1.14024,52.55535],[-1.139,52.55513],[-1.13869,52.55567],[-1.13783,52.55532],[-1.13533,52.55587],[-1.13493,52.55564],[-1.13381,52.55584],[-1.13368,52.55635],[-1.13542,52.55788],[-1.12814,52.55813],[-1.12691,52.55795],[-1.13225,52.55776],[-1.13217,52.55601],[-1.13277,52.55591]]]}},{"type":"Feature","properties":{"id":"E01025619","name":"E01025619","parent":"E07000129","type":"LSOA","pop":2186,"r":184,"ff":70,"ffd":3202.2,"ffs":0.56,"g":59,"co":0,"mo":2,"sa":0,"ic":0},"geometry":{"type":"Polygon","coordinates":[[[-1.14005,52.56312],[-1.14089,52.56214],[-1.1392,52.56142],[-1.13968,52.55829],[-1.13951,52.55779],[-1.14023,52.55766],[-1.14189,52.5587],[-1.14243,52.55815],[-1.14203,52.55721],[-1.14261,52.55726],[-1.1421,52.55674],[-1.141,52.55683],[-1.13985,52.55624],[-1.1403,52.55559],[-1.1415,52.55559],[-1.14058,52.55437],[-1.14079,52.55409],[-1.14164,52.55454],[-1.14226,52.55426],[-1.14322,52.55442],[-1.14291,52.55556],[-1.1455,52.55588],[-1.14577,52.55504],[-1.14626,52.55566],[-1.14701,52.55555],[-1.1469,52.555],[-1.14635,52.5549],[-1.14799,52.55481],[-1.1487,52.55507],[-1.14847,52.55425],[-1.14961,52.55378],[-1.15185,52.55407],[-1.15285,52.55392],[-1.1538,52.55435],[-1.15352,52.55499],[-1.15288,52.55508],[-1.15291,52.55566],[-1.15122,52.55618],[-1.15223,52.55691],[-1.15296,52.55668],[-1.15408,52.55693],[-1.15426,52.55718],[-1.15496,52.557],[-1.15568,52.55727],[-1.15577,52.55784],[-1.15531,52.5578],[-1.15505,52.55826],[-1.15601,52.55939],[-1.15534,52.56006],[-1.15107,52.56033],[-1.15061,52.56296],[-1.14837,52.56317],[-1.14723,52.56275],[-1.14368,52.5624],[-1.143,52.56348],[-1.14005,52.56312]]]}},{"type":"Feature","properties":{"id":"E01025620","name":"E01025620","parent":"E07000129","type":"LSOA","pop":1192,"r":145,"ff":44,"ffd":3691.3,"ffs":0.5641,"g":66,"co":0,"mo":2,"sa":2,"ic":0},"geometry":{"type":"Polygon","coordinates":[[[-1.2386,52.55835],[-1.23968,52.55704],[-1.23934,52.5568],[-1.23868,52.55689],[-1.23888,52.55653],[-1.238,52.55598],[-1.23857,52.55553],[-1.23826,52.555],[-1.23872,52.55509],[-1.23921,52.55483],[-1.24005,52.55507],[-1.24067,52.55487],[-1.24141,52.55399],[-1.24311,52.55475],[-1.24358,52.55455],[-1.24273,52.55383],[-1.24299,52.55372],[-1.24469,52.55437],[-1.2458,52.55415],[-1.24354,52.5519],[-1.24138,52.55247],[-1.23925,52.55253],[-1.23617,52.55168],[-1.24596,52.54329],[-1.24797,52.54203],[-1.2478,52.54272],[-1.24826,52.54302],[-1.24672,52.54356],[-1.24701,52.5444],[-1.24661,52.54461],[-1.24704,52.5453],[-1.25045,52.54598],[-1.25103,52.54583],[-1.25111,52.54615],[-1.25281,52.54617],[-1.25359,52.5467],[-1.2571,52.5474],[-1.25799,52.54838],[-1.25645,52.55008],[-1.25663,52.55057],[-1.25478,52.55226],[-1.25541,52.55264],[-1.25479,52.55304],[-1.25522,52.55324],[-1.2551,52.55378],[-1.25456,52.55369],[-1.25533,52.55426],[-1.25475,52.55484],[-1.25506,52.55524],[-1.25342,52.55606],[-1.25321,52.55577],[-1.25206,52.55613],[-1.25224,52.55564],[-1.2518,52.55563],[-1.25107,52.55642],[-1.25115,52.55742],[-1.24995,52.55764],[-1.24753,52.55696],[-1.24658,52.55715],[-1.24616,52.55683],[-1.24456,52.55702],[-1.2426,52.55662],[-1.2421,52.55681],[-1.24225,52.55715],[-1.24343,52.55709],[-1.2433,52.55746],[-1.2386,52.55835]]]}},{"type":"Feature","properties":{"id":"E01025621","name":"E01025621","parent":"E07000129","type":"LSOA","pop":1338,"r":160,"ff":48,"ffd":3587.4,"ffs":0.5455,"g":71,"co":0,"mo":0,"sa":2,"ic":0},"geometry":{"type":"Polygon","coordinates":[[[-1.24869,52.57223],[-1.24834,52.57061],[-1.2495,52.57046],[-1.24986,52.56966],[-1.24864,52.56944],[-1.24953,52.56866],[-1.24846,52.56824],[-1.24914,52.56728],[-1.24603,52.5664],[-1.24278,52.56636],[-1.2401,52.5666],[-1.23835,52.56707],[-1.23759,52.56674],[-1.23589,52.56488],[-1.2334,52.56444],[-1.23138,52.56244],[-1.23051,52.56219],[-1.22957,52.5623],[-1.22885,52.56183],[-1.22505,52.56112],[-1.22667,52.55941],[-1.23084,52.55615],[-1.22784,52.55512],[-1.22889,52.55431],[-1.23184,52.55538],[-1.23617,52.55168],[-1.23925,52.55253],[-1.24138,52.55247],[-1.24354,52.5519],[-1.2458,52.55415],[-1.24469,52.55437],[-1.24299,52.55372],[-1.24273,52.55383],[-1.24358,52.55455],[-1.24311,52.55475],[-1.24141,52.55399],[-1.24067,52.55487],[-1.24005,52.55507],[-1.23921,52.55483],[-1.23872,52.55509],[-1.23826,52.555],[-1.23857,52.55553],[-1.238,52.55598],[-1.23888,52.55653],[-1.23868,52.55689],[-1.23934,52.5568],[-1.23968,52.55704],[-1.2386,52.55835],[-1.2433,52.55746],[-1.24343,52.55709],[-1.24225,52.55715],[-1.2421,52.55681],[-1.2426,52.55662],[-1.24456,52.55702],[-1.24616,52.55683],[-1.24658,52.55715],[-1.24753,52.55696],[-1.24995,52.55764],[-1.25115,52.55742],[-1.25111,52.55766],[-1.25199,52.55752],[-1.25413,52.55787],[-1.25468,52.55743],[-1.25497,52.55612],[-1.25651,52.5546],[-1.25814,52.55175],[-1.26664,52.55418],[-1.26746,52.55665],[-1.26878,52.55833],[-1.27145,52.55776],[-1.27269,52.55783],[-1.27334,52.55943],[-1.27672,52.55889],[-1.2762,52.55808],[-1.27653,52.55797],[-1.27917,52.55789],[-1.279,52.55957],[-1.27979,52.56074],[-1.28219,52.56028],[-1.28144,52.55872],[-1.28249,52.55834],[-1.28402,52.55839],[-1.28514,52.56047],[-1.28708,52.56012],[-1.28606,52.55737],[-1.28655,52.5571],[-1.29537,52.55509],[-1.29828,52.55308],[-1.30039,52.55303],[-1.30155,52.55262],[-1.30464,52.5536],[-1.30598,52.55344],[-1.30754,52.5523],[-1.3076,52.5515],[-1.30707,52.55084],[-1.30937,52.54907],[-1.31272,52.54791],[-1.31738,52.54716],[-1.3185,52.54623],[-1.32338,52.54424],[-1.32635,52.54618],[-1.32969,52.54481],[-1.33317,52.54275],[-1.33455,52.54379],[-1.33625,52.5471],[-1.33657,52.54861],[-1.33805,52.55173],[-1.33911,52.5529],[-1.33899,52.55459],[-1.33791,52.55551],[-1.33729,52.55632],[-1.33246,52.55843],[-1.33252,52.55937],[-1.33489,52.56019],[-1.32927,52.56599],[-1.32582,52.56493],[-1.32503,52.56574],[-1.32371,52.56779],[-1.31914,52.56707],[-1.31975,52.5659],[-1.31875,52.5657],[-1.31752,52.56495],[-1.31279,52.56348],[-1.31293,52.56319],[-1.31215,52.56284],[-1.31244,52.56233],[-1.31183,52.56209],[-1.31032,52.56265],[-1.30934,52.56256],[-1.30905,52.56292],[-1.30858,52.5627],[-1.30675,52.56291],[-1.30564,52.56183],[-1.30365,52.56191],[-1.30317,52.56146],[-1.30202,52.56139],[-1.29823,52.56281],[-1.29856,52.56336],[-1.29809,52.56372],[-1.29547,52.56341],[-1.28933,52.56462],[-1.28891,52.56365],[-1.28557,52.56328],[-1.28495,52.56298],[-1.28451,52.56339],[-1.28227,52.56323],[-1.28162,52.56368],[-1.28072,52.56371],[-1.28021,52.56435],[-1.27942,52.56447],[-1.2797,52.56469],[-1.27816,52.5649],[-1.27808,52.5652],[-1.27683,52.56505],[-1.27703,52.56479],[-1.27607,52.56449],[-1.27559,52.56483],[-1.27519,52.56447],[-1.2736,52.56594],[-1.27292,52.56597],[-1.27279,52.56659],[-1.27212,52.56703],[-1.27181,52.56782],[-1.27256,52.56796],[-1.27245,52.56848],[-1.27143,52.56845],[-1.27025,52.56888],[-1.26987,52.56972],[-1.26938,52.56964],[-1.26972,52.56987],[-1.26968,52.57034],[-1.26921,52.57025],[-1.26936,52.57079],[-1.26811,52.57095],[-1.26821,52.57135],[-1.26751,52.5718],[-1.26883,52.57208],[-1.26903,52.57242],[-1.26742,52.57268],[-1.26712,52.57335],[-1.26074,52.57198],[-1.25984,52.57044],[-1.25888,52.57075],[-1.25895,52.57127],[-1.25745,52.57119],[-1.25646,52.57172],[-1.25463,52.57162],[-1.25433,52.57195],[-1.25385,52.5718],[-1.25295,52.57204],[-1.25151,52.57181],[-1.2512,52.57252],[-1.25026,52.57309],[-1.24838,52.57339],[-1.24869,52.57223]]]}},{"type":"Feature","properties":{"id":"E01025622","name":"E01025622","parent":"E07000129","type":"LSOA","pop":1692,"r":542,"ff":213,"ffd":12588.7,"ffs":0.4885,"g":104,"co":0,"mo":0,"sa":0,"ic":0},"geometry":{"type":"Polygon","coordinates":[[[-1.20236,52.6568],[-1.20189,52.65632],[-1.20119,52.65628],[-1.19947,52.65514],[-1.19953,52.65379],[-1.1988,52.65381],[-1.19869,52.65275],[-1.19966,52.65286],[-1.20165,52.65171],[-1.19871,52.65068],[-1.19797,52.65136],[-1.19726,52.65122],[-1.1973,52.65083],[-1.19654,52.65074],[-1.19768,52.6493],[-1.19781,52.64886],[-1.19906,52.64883],[-1.19964,52.64834],[-1.19931,52.64815],[-1.20168,52.6464],[-1.20224,52.64653],[-1.20374,52.64562],[-1.20563,52.64678],[-1.20791,52.64573],[-1.20835,52.64592],[-1.20874,52.64574],[-1.20913,52.64642],[-1.20852,52.64648],[-1.20881,52.64699],[-1.20961,52.64706],[-1.20993,52.64767],[-1.21028,52.64743],[-1.21094,52.64762],[-1.21082,52.64793],[-1.21164,52.64852],[-1.2101,52.64918],[-1.20794,52.64909],[-1.2107,52.65163],[-1.21019,52.65171],[-1.21273,52.65429],[-1.21054,52.65521],[-1.21001,52.65699],[-1.20509,52.65678],[-1.20472,52.65724],[-1.20236,52.6568]]]}},{"type":"Feature","properties":{"id":"E01025623","name":"E01025623","parent":"E07000129","type":"LSOA","pop":1770,"r":580,"ff":222,"ffd":12542.4,"ffs":0.4764,"g":111,"co":0,"mo":0,"sa":0,"ic":0},"geometry":{"type":"Polygon","coordinates":[[[-1.19744,52.66337],[-1.19707,52.66282],[-1.19645,52.66289],[-1.19615,52.66229],[-1.19552,52.66224],[-1.19665,52.66169],[-1.19355,52.66054],[-1.19288,52.66052],[-1.19201,52.66139],[-1.18956,52.66068],[-1.1904,52.65973],[-1.18953,52.6598],[-1.1891,52.65892],[-1.19074,52.65885],[-1.19161,52.65819],[-1.19024,52.65777],[-1.19252,52.65639],[-1.19126,52.65584],[-1.19302,52.65434],[-1.1959,52.65371],[-1.19644,52.65296],[-1.19619,52.65171],[-1.19654,52.65074],[-1.1973,52.65083],[-1.19726,52.65122],[-1.19797,52.65136],[-1.19871,52.65068],[-1.20165,52.65171],[-1.19966,52.65286],[-1.19869,52.65275],[-1.1988,52.65381],[-1.19953,52.65379],[-1.19947,52.65514],[-1.20119,52.65628],[-1.20189,52.65632],[-1.20236,52.6568],[-1.20472,52.65724],[-1.20509,52.65678],[-1.21001,52.65699],[-1.20922,52.65902],[-1.20804,52.65997],[-1.20435,52.66138],[-1.20294,52.66212],[-1.20259,52.66395],[-1.19999,52.66415],[-1.19968,52.6644],[-1.19807,52.66349],[-1.19744,52.66337]]]}},{"type":"Feature","properties":{"id":"E01025624","name":"E01025624","parent":"E07000129","type":"LSOA","pop":2584,"r":524,"ff":208,"ffd":8049.5,"ffs":0.4976,"g":104,"co":0,"mo":0,"sa":0,"ic":0},"geometry":{"type":"Polygon","coordinates":[[[-1.2107,52.65163],[-1.20794,52.64909],[-1.2101,52.64918],[-1.21164,52.64852],[-1.21082,52.64793],[-1.21094,52.64762],[-1.21028,52.64743],[-1.20993,52.64767],[-1.20961,52.64706],[-1.20881,52.64699],[-1.20852,52.64648],[-1.20913,52.64642],[-1.20874,52.64574],[-1.20835,52.64592],[-1.20791,52.64573],[-1.20563,52.64678],[-1.20352,52.64549],[-1.20274,52.64537],[-1.20214,52.64555],[-1.20149,52.64485],[-1.20022,52.6444],[-1.20083,52.64276],[-1.1987,52.64203],[-1.19908,52.64164],[-1.1988,52.64147],[-1.19886,52.64029],[-1.20079,52.63986],[-1.20109,52.64087],[-1.20353,52.64165],[-1.20589,52.64267],[-1.20901,52.64209],[-1.20981,52.64154],[-1.21102,52.63943],[-1.21435,52.63694],[-1.21308,52.63615],[-1.21567,52.63469],[-1.21761,52.63582],[-1.2153,52.63804],[-1.21899,52.63985],[-1.21733,52.64091],[-1.22015,52.64214],[-1.22004,52.64298],[-1.21955,52.64333],[-1.22348,52.64487],[-1.22281,52.64505],[-1.22314,52.64626],[-1.22343,52.64645],[-1.22427,52.64625],[-1.22705,52.64857],[-1.22863,52.64907],[-1.22565,52.65052],[-1.22524,52.65024],[-1.21799,52.65126],[-1.2153,52.65241],[-1.21411,52.65334],[-1.21424,52.65387],[-1.21273,52.65429],[-1.21019,52.65171],[-1.2107,52.65163]]]}},{"type":"Feature","properties":{"id":"E01025625","name":"E01025625","parent":"E07000129","type":"LSOA","pop":1208,"r":301,"ff":110,"ffd":9106.0,"ffs":0.5189,"g":87,"co":0,"mo":2,"sa":0,"ic":0},"geometry":{"type":"Polygon","coordinates":[[[-1.21212,52.59066],[-1.21132,52.58975],[-1.21265,52.58954],[-1.21173,52.58925],[-1.21198,52.58889],[-1.21198,52.58817],[-1.21121,52.58826],[-1.21072,52.58791],[-1.21185,52.58758],[-1.21158,52.58706],[-1.21102,52.58704],[-1.21023,52.58617],[-1.2105,52.58592],[-1.20977,52.58547],[-1.20922,52.58611],[-1.20745,52.58674],[-1.20643,52.58623],[-1.20609,52.58636],[-1.20481,52.58537],[-1.20143,52.58382],[-1.20407,52.58206],[-1.20608,52.58253],[-1.20818,52.58363],[-1.20908,52.58481],[-1.21196,52.58363],[-1.21475,52.58638],[-1.2163,52.58945],[-1.21702,52.58941],[-1.21696,52.58974],[-1.21485,52.5903],[-1.21411,52.59016],[-1.21396,52.59046],[-1.21212,52.59066]]]}},{"type":"Feature","properties":{"id":"E01025626","name":"E01025626","parent":"E07000129","type":"LSOA","pop":3838,"r":267,"ff":105,"ffd":2735.8,"ffs":0.5469,"g":74,"co":0,"mo":2,"sa":0,"ic":0},"geometry":{"type":"Polygon","coordinates":[[[-1.20551,52.61762],[-1.20499,52.61707],[-1.20424,52.61709],[-1.19803,52.60844],[-1.19643,52.60537],[-1.19484,52.6005],[-1.18661,52.60022],[-1.18597,52.59676],[-1.18916,52.59602],[-1.18935,52.59293],[-1.19295,52.59291],[-1.19901,52.59161],[-1.20149,52.58869],[-1.20241,52.5869],[-1.20322,52.58686],[-1.20586,52.58836],[-1.2073,52.58717],[-1.20609,52.58636],[-1.20643,52.58623],[-1.20745,52.58674],[-1.20922,52.58611],[-1.20977,52.58547],[-1.2105,52.58592],[-1.21023,52.58617],[-1.21102,52.58704],[-1.21158,52.58706],[-1.21185,52.58758],[-1.21072,52.58791],[-1.21121,52.58826],[-1.21198,52.58817],[-1.21198,52.58889],[-1.21173,52.58925],[-1.21265,52.58954],[-1.21132,52.58975],[-1.21212,52.59066],[-1.21396,52.59046],[-1.21411,52.59016],[-1.21485,52.5903],[-1.21696,52.58974],[-1.21675,52.59082],[-1.21779,52.59086],[-1.21933,52.59127],[-1.22212,52.59292],[-1.22168,52.59312],[-1.22339,52.59629],[-1.2276,52.59595],[-1.23382,52.59492],[-1.23598,52.59303],[-1.23545,52.59442],[-1.23687,52.59576],[-1.23778,52.59818],[-1.2388,52.5991],[-1.23899,52.60026],[-1.24445,52.60688],[-1.24433,52.60769],[-1.24602,52.60864],[-1.24351,52.61095],[-1.24346,52.61191],[-1.24397,52.61255],[-1.24244,52.6138],[-1.2319,52.61461],[-1.22776,52.61624],[-1.22505,52.6156],[-1.22274,52.61651],[-1.22192,52.61766],[-1.22062,52.61825],[-1.21946,52.61826],[-1.21744,52.61716],[-1.21439,52.61728],[-1.20969,52.61822],[-1.20551,52.61762]]]}},{"type":"Feature","properties":{"id":"E01025627","name":"E01025627","parent":"E07000129","type":"LSOA","pop":2550,"r":357,"ff":129,"ffd":5058.8,"ffs":0.516,"g":104,"co":0,"mo":2,"sa":0,"ic":0},"geometry":{"type":"Polygon","coordinates":[[[-1.17763,52.60181],[-1.16973,52.60095],[-1.16798,52.60143],[-1.16886,52.59977],[-1.17009,52.59835],[-1.17161,52.59867],[-1.17264,52.59731],[-1.17155,52.59666],[-1.17037,52.59656],[-1.1701,52.59599],[-1.17086,52.59484],[-1.1704,52.59391],[-1.17145,52.59343],[-1.17404,52.59371],[-1.17416,52.59285],[-1.17246,52.59285],[-1.17213,52.59183],[-1.17209,52.59076],[-1.17271,52.59058],[-1.17292,52.58994],[-1.17423,52.58965],[-1.17413,52.58897],[-1.17499,52.58872],[-1.17543,52.58799],[-1.17631,52.58807],[-1.17678,52.58869],[-1.1778,52.58833],[-1.18091,52.58836],[-1.18128,52.58714],[-1.18258,52.58715],[-1.18294,52.58666],[-1.18381,52.5867],[-1.18469,52.58628],[-1.18418,52.58539],[-1.18515,52.58431],[-1.18476,52.58422],[-1.18481,52.58361],[-1.18533,52.58347],[-1.18528,52.58296],[-1.18715,52.58183],[-1.18873,52.58141],[-1.18966,52.58065],[-1.19159,52.5783],[-1.19598,52.57913],[-1.19688,52.57803],[-1.20218,52.5805],[-1.20407,52.58206],[-1.20143,52.58382],[-1.20481,52.58537],[-1.2073,52.58717],[-1.20586,52.58836],[-1.20322,52.58686],[-1.20241,52.5869],[-1.20149,52.58869],[-1.19901,52.59161],[-1.19295,52.59291],[-1.18935,52.59293],[-1.18916,52.59602],[-1.18597,52.59676],[-1.18661,52.60022],[-1.18265,52.59971],[-1.18163,52.59906],[-1.18029,52.60008],[-1.18055,52.60061],[-1.17966,52.60076],[-1.17866,52.60143],[-1.17815,52.60134],[-1.17763,52.60181]]]}},{"type":"Feature","properties":{"id":"E01025629","name":"E01025629","parent":"E07000129","type":"LSOA","pop":1589,"r":564,"ff":222,"ffd":13971.1,"ffs":0.4837,"g":103,"co":0,"mo":0,"sa":0,"ic":0},"geometry":{"type":"Polygon","coordinates":[[[-1.19506,52.65122],[-1.19421,52.6498],[-1.19349,52.6499],[-1.1932,52.64935],[-1.19355,52.64931],[-1.19251,52.64927],[-1.19239,52.64884],[-1.19291,52.64811],[-1.18978,52.64746],[-1.19028,52.647],[-1.1916,52.64692],[-1.19243,52.64722],[-1.1927,52.64679],[-1.1937,52.64693],[-1.19476,52.64658],[-1.19481,52.64619],[-1.19404,52.64575],[-1.19277,52.64599],[-1.1952,52.64481],[-1.19556,52.64517],[-1.19732,52.64539],[-1.19745,52.64472],[-1.19842,52.64458],[-1.19887,52.64394],[-1.20015,52.64424],[-1.20149,52.64485],[-1.20214,52.64555],[-1.20274,52.64537],[-1.20374,52.64562],[-1.20224,52.64653],[-1.20168,52.6464],[-1.19931,52.64815],[-1.19964,52.64834],[-1.19906,52.64883],[-1.19781,52.64886],[-1.19768,52.6493],[-1.19654,52.65074],[-1.19619,52.65171],[-1.19644,52.65296],[-1.19608,52.65347],[-1.19558,52.65206],[-1.19496,52.65192],[-1.19506,52.65122]]]}},{"type":"Feature","properties":{"id":"E01025630","name":"E01025630","parent":"E07000129","type":"LSOA","pop":1888,"r":575,"ff":229,"ffd":12129.2,"ffs":0.4862,"g":102,"co":0,"mo":0,"sa":0,"ic":0},"geometry":{"type":"Polygon","coordinates":[[[-1.18521,52.66064],[-1.18436,52.6591],[-1.18412,52.65716],[-1.18451,52.65334],[-1.18292,52.65302],[-1.18406,52.64958],[-1.18685,52.64727],[-1.18978,52.64746],[-1.19291,52.64811],[-1.19239,52.64884],[-1.19251,52.64927],[-1.19355,52.64931],[-1.1932,52.64935],[-1.19349,52.6499],[-1.19421,52.6498],[-1.19506,52.65122],[-1.19496,52.65192],[-1.19558,52.65206],[-1.19608,52.65347],[-1.1959,52.65371],[-1.19302,52.65434],[-1.19126,52.65584],[-1.19252,52.65639],[-1.19024,52.65777],[-1.19161,52.65819],[-1.19074,52.65885],[-1.1891,52.65892],[-1.18953,52.6598],[-1.1904,52.65973],[-1.18956,52.66068],[-1.18851,52.66038],[-1.18731,52.66105],[-1.18521,52.66064]]]}},{"type":"Feature","properties":{"id":"E01025631","name":"E01025631","parent":"E07000129","type":"LSOA","pop":1591,"r":412,"ff":162,"ffd":10182.3,"ffs":0.5243,"g":101,"co":2,"mo":0,"sa":0,"ic":0},"geometry":{"type":"Polygon","coordinates":[[[-1.2115,52.62284],[-1.20916,52.62256],[-1.20971,52.62324],[-1.20836,52.62376],[-1.20792,52.62365],[-1.20589,52.62088],[-1.20579,52.62047],[-1.2063,52.62063],[-1.20942,52.61937],[-1.20969,52.61822],[-1.21081,52.61798],[-1.21249,52.61873],[-1.21386,52.61895],[-1.21539,52.61884],[-1.21633,52.61949],[-1.21879,52.61953],[-1.21987,52.62026],[-1.21975,52.6207],[-1.22095,52.62128],[-1.21966,52.62211],[-1.22207,52.6229],[-1.21999,52.6237],[-1.21985,52.62324],[-1.22042,52.62307],[-1.22012,52.62267],[-1.21869,52.62265],[-1.21799,52.6221],[-1.21752,52.62236],[-1.21716,52.62184],[-1.21655,52.62215],[-1.21698,52.62216],[-1.21676,52.62259],[-1.2162,52.62254],[-1.21543,52.62306],[-1.21436,52.62307],[-1.21346,52.62266],[-1.21224,52.62266],[-1.21306,52.62353],[-1.21253,52.62449],[-1.21165,52.62449],[-1.21173,52.62376],[-1.21123,52.62329],[-1.2115,52.62284]]]}},{"type":"Feature","properties":{"id":"E01025632","name":"E01025632","parent":"E07000129","type":"LSOA","pop":1382,"r":328,"ff":126,"ffd":9117.2,"ffs":0.5316,"g":88,"co":2,"mo":0,"sa":0,"ic":0},"geometry":{"type":"Polygon","coordinates":[[[-1.22295,52.62024],[-1.22184,52.61982],[-1.22144,52.62003],[-1.22138,52.61977],[-1.2205,52.61997],[-1.21966,52.61946],[-1.2185,52.61918],[-1.21872,52.61962],[-1.21633,52.61949],[-1.21539,52.61884],[-1.21386,52.61895],[-1.21249,52.61873],[-1.21081,52.61798],[-1.21439,52.61728],[-1.21744,52.61716],[-1.21946,52.61826],[-1.22062,52.61825],[-1.22192,52.61766],[-1.22274,52.61651],[-1.22505,52.6156],[-1.22776,52.61624],[-1.22838,52.61587],[-1.22843,52.61696],[-1.22713,52.61699],[-1.22717,52.6165],[-1.22676,52.61642],[-1.22648,52.61672],[-1.22724,52.61741],[-1.22662,52.61751],[-1.22669,52.61783],[-1.22732,52.61783],[-1.22731,52.61823],[-1.2281,52.61828],[-1.22811,52.61873],[-1.2277,52.61894],[-1.22767,52.61862],[-1.22677,52.61843],[-1.22649,52.61888],[-1.22713,52.61899],[-1.22683,52.61958],[-1.22562,52.6198],[-1.22432,52.61949],[-1.22418,52.62],[-1.22311,52.61998],[-1.22295,52.62024]]]}},{"type":"Feature","properties":{"id":"E01025633","name":"E01025633","parent":"E07000129","type":"LSOA","pop":1955,"r":503,"ff":196,"ffd":10025.6,"ffs":0.5078,"g":115,"co":2,"mo":0,"sa":0,"ic":0},"geometry":{"type":"Polygon","coordinates":[[[-1.20149,52.62408],[-1.20362,52.6173],[-1.20499,52.61707],[-1.20551,52.61762],[-1.20969,52.61822],[-1.20942,52.61937],[-1.2063,52.62063],[-1.20579,52.62047],[-1.20589,52.62088],[-1.20792,52.62365],[-1.2088,52.62365],[-1.21211,52.62821],[-1.20953,52.62857],[-1.2054,52.62882],[-1.20124,52.62733],[-1.20127,52.62696],[-1.2007,52.62596],[-1.20149,52.62408]]]}},{"type":"Feature","properties":{"id":"E01025634","name":"E01025634","parent":"E07000129","type":"LSOA","pop":2059,"r":374,"ff":143,"ffd":6945.1,"ffs":0.5277,"g":100,"co":2,"mo":0,"sa":0,"ic":0},"geometry":{"type":"Polygon","coordinates":[[[-1.21989,52.62453],[-1.21999,52.6237],[-1.22207,52.6229],[-1.21966,52.62211],[-1.22095,52.62128],[-1.21975,52.6207],[-1.21987,52.62026],[-1.2185,52.61918],[-1.21966,52.61946],[-1.2205,52.61997],[-1.22138,52.61977],[-1.22144,52.62003],[-1.22184,52.61982],[-1.22295,52.62024],[-1.22311,52.61998],[-1.22418,52.62],[-1.22432,52.61949],[-1.22562,52.6198],[-1.22683,52.61958],[-1.22713,52.61899],[-1.22649,52.61888],[-1.22677,52.61843],[-1.22767,52.61862],[-1.2277,52.61894],[-1.22811,52.61873],[-1.2281,52.61828],[-1.22731,52.61823],[-1.22732,52.61783],[-1.22669,52.61783],[-1.22662,52.61751],[-1.22724,52.61741],[-1.22648,52.61672],[-1.22676,52.61642],[-1.22717,52.6165],[-1.22713,52.61699],[-1.22843,52.61696],[-1.22838,52.61587],[-1.2319,52.61461],[-1.24244,52.6138],[-1.24397,52.61255],[-1.24346,52.61191],[-1.24351,52.61095],[-1.24602,52.60864],[-1.24846,52.61081],[-1.25438,52.61343],[-1.25191,52.61439],[-1.24172,52.61683],[-1.23727,52.61749],[-1.23257,52.61851],[-1.23311,52.61908],[-1.2321,52.61912],[-1.22847,52.62145],[-1.22911,52.62184],[-1.2287,52.62226],[-1.22803,52.62186],[-1.2276,52.62194],[-1.22651,52.62255],[-1.22684,52.62281],[-1.22567,52.62327],[-1.22521,52.62317],[-1.2258,52.6237],[-1.22367,52.62466],[-1.22349,52.62448],[-1.22321,52.62466],[-1.22274,52.62407],[-1.22076,52.62482],[-1.22451,52.62662],[-1.21965,52.62676],[-1.21865,52.62594],[-1.21899,52.62527],[-1.21851,52.62507],[-1.21989,52.62453]]]}},{"type":"Feature","properties":{"id":"E01025635","name":"E01025635","parent":"E07000129","type":"LSOA","pop":1228,"r":433,"ff":168,"ffd":13680.8,"ffs":0.5153,"g":105,"co":2,"mo":0,"sa":0,"ic":0},"geometry":{"type":"Polygon","coordinates":[[[-1.21014,52.62551],[-1.2088,52.62365],[-1.20971,52.62324],[-1.20916,52.62256],[-1.2115,52.62284],[-1.21123,52.62329],[-1.21173,52.62376],[-1.21165,52.62449],[-1.21253,52.62449],[-1.21306,52.62353],[-1.21224,52.62266],[-1.21346,52.62266],[-1.21436,52.62307],[-1.21543,52.62306],[-1.2162,52.62254],[-1.21676,52.62259],[-1.21698,52.62216],[-1.21655,52.62215],[-1.21716,52.62184],[-1.21752,52.62236],[-1.21799,52.6221],[-1.21869,52.62265],[-1.22012,52.62267],[-1.22042,52.62307],[-1.21985,52.62324],[-1.21999,52.6237],[-1.21989,52.62453],[-1.21851,52.62507],[-1.21899,52.62527],[-1.21865,52.62594],[-1.21965,52.62676],[-1.21211,52.62821],[-1.21014,52.62551]]]}},{"type":"Feature","properties":{"id":"E01025636","name":"E01025636","parent":"E07000129","type":"LSOA","pop":1407,"r":517,"ff":211,"ffd":14996.4,"ffs":0.5249,"g":112,"co":2,"mo":0,"sa":0,"ic":0},"geometry":{"type":"Polygon","coordinates":[[[-1.18713,52.60985],[-1.18634,52.6097],[-1.18625,52.61006],[-1.18143,52.60861],[-1.18147,52.60949],[-1.18033,52.60969],[-1.17971,52.60842],[-1.17836,52.60646],[-1.17848,52.60604],[-1.17772,52.60537],[-1.17834,52.60435],[-1.17741,52.60349],[-1.17868,52.60329],[-1.17995,52.60395],[-1.18029,52.60366],[-1.18476,52.60605],[-1.18831,52.6057],[-1.18896,52.60728],[-1.1895,52.61076],[-1.18713,52.60985]]]}},{"type":"Feature","properties":{"id":"E01025637","name":"E01025637","parent":"E07000129","type":"LSOA","pop":1411,"r":508,"ff":207,"ffd":14670.4,"ffs":0.5267,"g":112,"co":2,"mo":0,"sa":0,"ic":0},"geometry":{"type":"Polygon","coordinates":[[[-1.1753,52.60439],[-1.17866,52.60143],[-1.17966,52.60076],[-1.18055,52.60061],[-1.18029,52.60008],[-1.18163,52.59906],[-1.18265,52.59971],[-1.1868,52.60025],[-1.18831,52.6057],[-1.18476,52.60605],[-1.18029,52.60366],[-1.17995,52.60395],[-1.17868,52.60329],[-1.17741,52.60349],[-1.17834,52.60435],[-1.17772,52.60537],[-1.17848,52.60604],[-1.17836,52.60646],[-1.17524,52.6053],[-1.17599,52.60455],[-1.1753,52.60439]]]}},{"type":"Feature","properties":{"id":"E01025638","name":"E01025638","parent":"E07000129","type":"LSOA","pop":1610,"r":573,"ff":234,"ffd":14534.2,"ffs":0.5054,"g":108,"co":2,"mo":0,"sa":0,"ic":0},"geometry":{"type":"Polygon","coordinates":[[[-1.2206,52.63605],[-1.21882,52.63569],[-1.21761,52.63582],[-1.21567,52.63469],[-1.21598,52.63453],[-1.2139,52.63268],[-1.21105,52.63106],[-1.2084,52.63041],[-1.2054,52.62882],[-1.20953,52.62857],[-1.21211,52.62821],[-1.21965,52.62676],[-1.22451,52.62662],[-1.22076,52.62482],[-1.22274,52.62407],[-1.22321,52.62466],[-1.22349,52.62448],[-1.22367,52.62466],[-1.2258,52.6237],[-1.22521,52.62317],[-1.22567,52.62327],[-1.22684,52.62281],[-1.22651,52.62255],[-1.2276,52.62194],[-1.22803,52.62186],[-1.2287,52.62226],[-1.22911,52.62184],[-1.22847,52.62145],[-1.2321,52.61912],[-1.23311,52.61908],[-1.23257,52.61851],[-1.23727,52.61749],[-1.23892,52.61949],[-1.24082,52.62066],[-1.24975,52.6198],[-1.25466,52.62499],[-1.24477,52.62727],[-1.24074,52.62709],[-1.24057,52.63047],[-1.24028,52.63125],[-1.23942,52.63178],[-1.23372,52.62887],[-1.23217,52.62937],[-1.23167,52.62983],[-1.23293,52.6305],[-1.23142,52.63117],[-1.23059,52.6304],[-1.22921,52.63005],[-1.22907,52.63046],[-1.2272,52.63041],[-1.22676,52.63125],[-1.22528,52.63111],[-1.22422,52.63182],[-1.22268,52.63221],[-1.22478,52.63367],[-1.22635,52.63414],[-1.22351,52.63587],[-1.2206,52.63605]]]}},{"type":"Feature","properties":{"id":"E01025639","name":"E01025639","parent":"E07000129","type":"LSOA","pop":1327,"r":362,"ff":120,"ffd":9043.0,"ffs":0.4651,"g":102,"co":2,"mo":0,"sa":0,"ic":0},"geometry":{"type":"Polygon","coordinates":[[[-1.21733,52.64091],[-1.21899,52.63985],[-1.2153,52.63804],[-1.21761,52.63582],[-1.21882,52.63569],[-1.2206,52.63605],[-1.22351,52.63587],[-1.22635,52.63414],[-1.22478,52.63367],[-1.22268,52.63221],[-1.22422,52.63182],[-1.22528,52.63111],[-1.22676,52.63125],[-1.2272,52.63041],[-1.22907,52.63046],[-1.22921,52.63005],[-1.23059,52.6304],[-1.23142,52.63117],[-1.23163,52.63192],[-1.23266,52.63229],[-1.23284,52.63363],[-1.23391,52.6341],[-1.23435,52.63476],[-1.2337,52.6352],[-1.23293,52.63502],[-1.23116,52.63622],[-1.23118,52.63667],[-1.23321,52.63701],[-1.23276,52.63645],[-1.23447,52.63582],[-1.23615,52.63609],[-1.23759,52.6357],[-1.23793,52.6362],[-1.23839,52.63617],[-1.23767,52.63527],[-1.23698,52.63528],[-1.23637,52.63474],[-1.23749,52.63439],[-1.24007,52.63622],[-1.24131,52.63543],[-1.2426,52.63592],[-1.2433,52.63547],[-1.24531,52.63618],[-1.24715,52.63611],[-1.24871,52.63654],[-1.25067,52.63613],[-1.25162,52.63651],[-1.25356,52.63622],[-1.25373,52.6351],[-1.25504,52.63447],[-1.25611,52.63435],[-1.25597,52.63554],[-1.25727,52.63583],[-1.2592,52.63688],[-1.26137,52.63627],[-1.2618,52.63707],[-1.26059,52.637],[-1.26056,52.63744],[-1.25931,52.63719],[-1.25749,52.63819],[-1.25689,52.63789],[-1.25667,52.63831],[-1.25606,52.63815],[-1.25547,52.63846],[-1.25503,52.63824],[-1.25463,52.6386],[-1.25123,52.63896],[-1.24861,52.64022],[-1.24693,52.63984],[-1.24396,52.64068],[-1.24386,52.6411],[-1.24306,52.64149],[-1.24221,52.64148],[-1.24189,52.64105],[-1.24162,52.64184],[-1.24094,52.64129],[-1.23974,52.64152],[-1.23958,52.64109],[-1.23934,52.64146],[-1.23869,52.64129],[-1.23731,52.6418],[-1.23716,52.64136],[-1.23667,52.64136],[-1.23683,52.64164],[-1.23645,52.64174],[-1.23564,52.6413],[-1.23583,52.64098],[-1.23495,52.64107],[-1.23466,52.64041],[-1.23424,52.64072],[-1.23405,52.6402],[-1.23373,52.64074],[-1.23343,52.64045],[-1.23284,52.64091],[-1.2322,52.64075],[-1.23239,52.64143],[-1.22508,52.64408],[-1.22314,52.64626],[-1.22281,52.64505],[-1.22348,52.64487],[-1.21955,52.64333],[-1.22004,52.64298],[-1.22015,52.64214],[-1.21733,52.64091]]]}},{"type":"Feature","properties":{"id":"E01025640","name":"E01025640","parent":"E07000129","type":"LSOA","pop":1638,"r":328,"ff":103,"ffd":6288.2,"ffs":0.4558,"g":100,"co":2,"mo":0,"sa":0,"ic":0},"geometry":{"type":"Polygon","coordinates":[[[-1.23116,52.63622],[-1.23293,52.63502],[-1.2337,52.6352],[-1.23435,52.63476],[-1.23391,52.6341],[-1.23284,52.63363],[-1.23266,52.63229],[-1.23163,52.63192],[-1.23142,52.63117],[-1.23293,52.6305],[-1.23167,52.62983],[-1.23217,52.62937],[-1.23372,52.62887],[-1.23942,52.63178],[-1.24028,52.63125],[-1.24057,52.63047],[-1.24074,52.62709],[-1.24477,52.62727],[-1.25466,52.62499],[-1.24975,52.6198],[-1.24082,52.62066],[-1.23892,52.61949],[-1.23727,52.61749],[-1.24172,52.61683],[-1.25191,52.61439],[-1.25438,52.61343],[-1.25844,52.6112],[-1.26177,52.61333],[-1.26343,52.61282],[-1.26504,52.61497],[-1.25741,52.61625],[-1.25779,52.62079],[-1.26,52.62383],[-1.26051,52.62539],[-1.26281,52.62697],[-1.26169,52.62836],[-1.26047,52.62888],[-1.25433,52.63023],[-1.25247,52.63024],[-1.25245,52.63078],[-1.25139,52.63167],[-1.24939,52.63156],[-1.24835,52.63251],[-1.24681,52.63235],[-1.24094,52.63348],[-1.24091,52.63379],[-1.2433,52.63547],[-1.2426,52.63592],[-1.24131,52.63543],[-1.24007,52.63622],[-1.23749,52.63439],[-1.23637,52.63474],[-1.23698,52.63528],[-1.23767,52.63527],[-1.23839,52.63617],[-1.23793,52.6362],[-1.23759,52.6357],[-1.23615,52.63609],[-1.23447,52.63582],[-1.23276,52.63645],[-1.23321,52.63701],[-1.23118,52.63667],[-1.23116,52.63622]]]}},{"type":"Feature","properties":{"id":"E01025641","name":"E01025641","parent":"E07000129","type":"LSOA","pop":1980,"r":255,"ff":97,"ffd":4899.0,"ffs":0.5449,"g":76,"co":0,"mo":2,"sa":0,"ic":0},"geometry":{"type":"Polygon","coordinates":[[[-1.20213,52.57159],[-1.20127,52.57053],[-1.19828,52.57106],[-1.19365,52.5712],[-1.19374,52.57079],[-1.19129,52.5669],[-1.18893,52.56371],[-1.19236,52.56098],[-1.19606,52.56231],[-1.19791,52.5599],[-1.19941,52.56085],[-1.20064,52.56079],[-1.20193,52.55988],[-1.20418,52.5608],[-1.20517,52.56224],[-1.20713,52.56396],[-1.20977,52.56224],[-1.21027,52.56227],[-1.21262,52.5654],[-1.21208,52.56615],[-1.21246,52.56714],[-1.21327,52.56728],[-1.20836,52.56925],[-1.20779,52.56841],[-1.20328,52.57032],[-1.20354,52.57108],[-1.20213,52.57159]]]}},{"type":"Feature","properties":{"id":"E01025642","name":"E01025642","parent":"E07000129","type":"LSOA","pop":1891,"r":295,"ff":104,"ffd":5499.7,"ffs":0.5253,"g":95,"co":0,"mo":2,"sa":0,"ic":0},"geometry":{"type":"Polygon","coordinates":[[[-1.19184,52.57165],[-1.19365,52.5712],[-1.19828,52.57106],[-1.20127,52.57053],[-1.20213,52.57159],[-1.20354,52.57108],[-1.20328,52.57032],[-1.20779,52.56841],[-1.20836,52.56925],[-1.21399,52.56687],[-1.21642,52.5668],[-1.21684,52.56724],[-1.21781,52.56724],[-1.21294,52.57135],[-1.21082,52.57217],[-1.20602,52.57446],[-1.19846,52.57713],[-1.19688,52.57803],[-1.19598,52.57913],[-1.19159,52.5783],[-1.19072,52.57761],[-1.19059,52.57702],[-1.18861,52.57604],[-1.18839,52.57546],[-1.18862,52.57431],[-1.18947,52.57321],[-1.1911,52.57281],[-1.19184,52.57165]]]}},{"type":"Feature","properties":{"id":"E01025643","name":"E01025643","parent":"E07000129","type":"LSOA","pop":1685,"r":266,"ff":99,"ffd":5875.4,"ffs":0.544,"g":82,"co":0,"mo":2,"sa":0,"ic":0},"geometry":{"type":"Polygon","coordinates":[[[-1.21505,52.57581],[-1.21475,52.57548],[-1.2127,52.57554],[-1.21244,52.57453],[-1.20792,52.57367],[-1.21359,52.57095],[-1.22505,52.56112],[-1.22885,52.56183],[-1.22957,52.5623],[-1.2257,52.56389],[-1.22517,52.56466],[-1.22503,52.56709],[-1.22328,52.56871],[-1.22491,52.57092],[-1.22359,52.57114],[-1.22092,52.57094],[-1.22186,52.57233],[-1.2209,52.57257],[-1.22017,52.57218],[-1.22037,52.573],[-1.21982,52.57308],[-1.21994,52.57378],[-1.21897,52.57365],[-1.21576,52.57479],[-1.21602,52.57552],[-1.21505,52.57581]]]}},{"type":"Feature","properties":{"id":"E01025644","name":"E01025644","parent":"E07000129","type":"LSOA","pop":1768,"r":236,"ff":80,"ffd":4524.9,"ffs":0.5405,"g":86,"co":0,"mo":2,"sa":0,"ic":0},"geometry":{"type":"Polygon","coordinates":[[[-1.22529,52.57493],[-1.22491,52.57092],[-1.22328,52.56871],[-1.22503,52.56709],[-1.22517,52.56466],[-1.2257,52.56389],[-1.22957,52.5623],[-1.23051,52.56219],[-1.23138,52.56244],[-1.2334,52.56444],[-1.23589,52.56488],[-1.23759,52.56674],[-1.23835,52.56707],[-1.2401,52.5666],[-1.24278,52.56636],[-1.24204,52.56809],[-1.24042,52.57],[-1.23814,52.5714],[-1.23835,52.57231],[-1.23969,52.57203],[-1.23915,52.5722],[-1.23934,52.57297],[-1.23857,52.57365],[-1.23921,52.57472],[-1.23981,52.57438],[-1.24078,52.57521],[-1.23842,52.57569],[-1.2384,52.57706],[-1.23702,52.57694],[-1.23551,52.5762],[-1.23439,52.57617],[-1.23462,52.57504],[-1.23317,52.57474],[-1.23265,52.57664],[-1.22899,52.57882],[-1.22541,52.57865],[-1.22339,52.57805],[-1.22386,52.57662],[-1.22496,52.57593],[-1.22529,52.57493]]]}},{"type":"Feature","properties":{"id":"E01025645","name":"E01025645","parent":"E07000129","type":"LSOA","pop":1142,"r":187,"ff":60,"ffd":5253.9,"ffs":0.5405,"g":74,"co":0,"mo":0,"sa":0,"ic":0},"geometry":{"type":"Polygon","coordinates":[[[-1.26373,52.6132],[-1.26343,52.61282],[-1.26177,52.61333],[-1.25844,52.6112],[-1.25438,52.61343],[-1.24846,52.61081],[-1.24602,52.60864],[-1.24433,52.60769],[-1.24445,52.60688],[-1.23899,52.60026],[-1.2388,52.5991],[-1.23778,52.59818],[-1.23687,52.59576],[-1.23545,52.59442],[-1.23598,52.59303],[-1.23382,52.59492],[-1.23012,52.59545],[-1.23031,52.59507],[-1.22886,52.59295],[-1.22986,52.58982],[-1.23012,52.58646],[-1.22793,52.58262],[-1.22461,52.58042],[-1.22339,52.57805],[-1.22541,52.57865],[-1.22899,52.57882],[-1.23265,52.57664],[-1.23317,52.57474],[-1.23462,52.57504],[-1.23439,52.57617],[-1.23551,52.5762],[-1.23702,52.57694],[-1.2384,52.57706],[-1.23842,52.57569],[-1.24078,52.57521],[-1.23981,52.57438],[-1.23921,52.57472],[-1.23857,52.57365],[-1.23934,52.57297],[-1.23915,52.5722],[-1.23969,52.57203],[-1.23835,52.57231],[-1.23814,52.5714],[-1.24042,52.57],[-1.24204,52.56809],[-1.24278,52.56636],[-1.24603,52.5664],[-1.24914,52.56728],[-1.24846,52.56824],[-1.24953,52.56866],[-1.24864,52.56944],[-1.24986,52.56966],[-1.2495,52.57046],[-1.24834,52.57061],[-1.24869,52.57223],[-1.24838,52.57339],[-1.25026,52.57309],[-1.2512,52.57252],[-1.25151,52.57181],[-1.25295,52.57204],[-1.25385,52.5718],[-1.25433,52.57195],[-1.25463,52.57162],[-1.25646,52.57172],[-1.25745,52.57119],[-1.25895,52.57127],[-1.25888,52.57075],[-1.25984,52.57044],[-1.26074,52.57198],[-1.26559,52.57312],[-1.26712,52.57335],[-1.26742,52.57268],[-1.26903,52.57242],[-1.26911,52.57302],[-1.26976,52.573],[-1.26928,52.57329],[-1.26947,52.57379],[-1.27009,52.57382],[-1.27017,52.57489],[-1.27062,52.57464],[-1.27353,52.57487],[-1.27839,52.57572],[-1.28333,52.57675],[-1.28642,52.57809],[-1.28936,52.57831],[-1.29709,52.58001],[-1.29563,52.58248],[-1.29531,52.58384],[-1.29604,52.58414],[-1.29557,52.58471],[-1.29631,52.58551],[-1.29834,52.58599],[-1.2959,52.5884],[-1.29412,52.58931],[-1.29205,52.5913],[-1.29242,52.59153],[-1.29125,52.5926],[-1.2849,52.59527],[-1.28154,52.59747],[-1.27697,52.59939],[-1.27458,52.60098],[-1.2747,52.60275],[-1.27803,52.60466],[-1.27984,52.60727],[-1.27589,52.60903],[-1.28033,52.60899],[-1.27426,52.60979],[-1.27729,52.6115],[-1.27413,52.61285],[-1.274,52.61155],[-1.27336,52.6113],[-1.27178,52.61456],[-1.27438,52.61502],[-1.27448,52.61617],[-1.26462,52.61442],[-1.26373,52.6132]]]}},{"type":"Feature","properties":{"id":"E01025646","name":"E01025646","parent":"E07000129","type":"LSOA","pop":1623,"r":103,"ff":34,"ffd":2094.9,"ffs":0.5231,"g":38,"co":0,"mo":2,"sa":0,"ic":0},"geometry":{"type":"Polygon","coordinates":[[[-1.18531,52.58033],[-1.18245,52.58003],[-1.18062,52.58041],[-1.17839,52.57956],[-1.17809,52.58016],[-1.17738,52.58025],[-1.17729,52.58086],[-1.17669,52.581],[-1.17229,52.58166],[-1.1699,52.58124],[-1.16889,52.58159],[-1.16883,52.57939],[-1.1698,52.57721],[-1.17157,52.57579],[-1.17361,52.57262],[-1.17553,52.57278],[-1.17556,52.57306],[-1.17803,52.57283],[-1.17881,52.57301],[-1.17909,52.57345],[-1.17979,52.57376],[-1.18027,52.57346],[-1.18119,52.57373],[-1.18151,52.57291],[-1.18291,52.57167],[-1.18314,52.57059],[-1.18223,52.57026],[-1.18221,52.5696],[-1.18295,52.56974],[-1.18376,52.56949],[-1.18623,52.56995],[-1.19066,52.56981],[-1.1919,52.57059],[-1.19184,52.57165],[-1.1911,52.57281],[-1.18947,52.57321],[-1.18862,52.57431],[-1.18839,52.57546],[-1.18861,52.57604],[-1.19059,52.57702],[-1.19072,52.57761],[-1.19159,52.5783],[-1.18966,52.58065],[-1.18873,52.58141],[-1.18715,52.58183],[-1.18709,52.58135],[-1.18581,52.58093],[-1.18531,52.58033]]]}},{"type":"Feature","properties":{"id":"E01025647","name":"E01025647","parent":"E07000129","type":"LSOA","pop":1604,"r":103,"ff":34,"ffd":2119.7,"ffs":0.5231,"g":38,"co":0,"mo":2,"sa":0,"ic":0},"geometry":{"type":"Polygon","coordinates":[[[-1.17979,52.57376],[-1.17909,52.57345],[-1.17881,52.57301],[-1.17803,52.57283],[-1.17556,52.57306],[-1.17553,52.57278],[-1.17361,52.57262],[-1.17391,52.5719],[-1.17433,52.56877],[-1.17546,52.56832],[-1.17602,52.56853],[-1.17646,52.56804],[-1.17768,52.56771],[-1.17809,52.56784],[-1.17805,52.56727],[-1.17948,52.5672],[-1.18379,52.56796],[-1.18548,52.56797],[-1.18853,52.56345],[-1.18893,52.56371],[-1.19129,52.5669],[-1.19374,52.57079],[-1.19365,52.5712],[-1.1933,52.5714],[-1.19184,52.57165],[-1.1919,52.57059],[-1.19066,52.56981],[-1.18623,52.56995],[-1.18376,52.56949],[-1.18295,52.56974],[-1.18221,52.5696],[-1.18223,52.57026],[-1.18314,52.57059],[-1.18291,52.57167],[-1.18151,52.57291],[-1.18119,52.57373],[-1.18027,52.57346],[-1.17979,52.57376]]]}},{"type":"Feature","properties":{"id":"E01025648","name":"E01025648","parent":"E07000129","type":"LSOA","pop":2217,"r":103,"ff":34,"ffd":1533.6,"ffs":0.5231,"g":38,"co":0,"mo":2,"sa":0,"ic":0},"geometry":{"type":"Polygon","coordinates":[[[-1.17433,52.56877],[-1.17402,52.56674],[-1.17182,52.5643],[-1.17077,52.56207],[-1.17097,52.55943],[-1.17414,52.55955],[-1.17504,52.56111],[-1.17988,52.56298],[-1.18018,52.56331],[-1.17784,52.56672],[-1.17948,52.5672],[-1.17805,52.56727],[-1.17809,52.56784],[-1.17768,52.56771],[-1.17646,52.56804],[-1.17602,52.56853],[-1.17546,52.56832],[-1.17433,52.56877]]]}},{"type":"Feature","properties":{"id":"E01025649","name":"E01025649","parent":"E07000129","type":"LSOA","pop":1821,"r":271,"ff":102,"ffd":5601.3,"ffs":0.5397,"g":80,"co":0,"mo":2,"sa":0,"ic":0},"geometry":{"type":"Polygon","coordinates":[[[-1.20818,52.58363],[-1.20608,52.58253],[-1.20407,52.58206],[-1.20218,52.5805],[-1.19688,52.57803],[-1.19846,52.57713],[-1.20792,52.57367],[-1.21244,52.57453],[-1.2127,52.57554],[-1.21475,52.57548],[-1.21505,52.57581],[-1.21602,52.57552],[-1.21576,52.57479],[-1.21638,52.57457],[-1.21939,52.57516],[-1.21878,52.57573],[-1.21909,52.57593],[-1.21754,52.57682],[-1.21855,52.57706],[-1.21836,52.57754],[-1.21913,52.57746],[-1.21973,52.57832],[-1.22154,52.57835],[-1.22145,52.57897],[-1.2205,52.57915],[-1.22029,52.5786],[-1.21908,52.57886],[-1.21934,52.57948],[-1.21893,52.57955],[-1.22012,52.57994],[-1.22004,52.58045],[-1.21899,52.58057],[-1.21857,52.58032],[-1.21776,52.58091],[-1.21725,52.58073],[-1.21649,52.58109],[-1.21677,52.5814],[-1.21605,52.5817],[-1.21537,52.58154],[-1.21495,52.58173],[-1.21397,52.58099],[-1.21238,52.58401],[-1.21196,52.58363],[-1.20908,52.58481],[-1.20818,52.58363]]]}},{"type":"Feature","properties":{"id":"E01025650","name":"E01025650","parent":"E07000129","type":"LSOA","pop":1349,"r":259,"ff":98,"ffd":7264.6,"ffs":0.5475,"g":78,"co":0,"mo":2,"sa":0,"ic":0},"geometry":{"type":"Polygon","coordinates":[[[-1.21474,52.58192],[-1.21463,52.58149],[-1.21495,52.58173],[-1.21537,52.58154],[-1.21605,52.5817],[-1.21677,52.5814],[-1.21649,52.58109],[-1.21725,52.58073],[-1.21776,52.58091],[-1.21857,52.58032],[-1.21899,52.58057],[-1.22004,52.58045],[-1.22012,52.57994],[-1.21893,52.57955],[-1.21934,52.57948],[-1.21908,52.57886],[-1.21943,52.57869],[-1.22029,52.5786],[-1.2205,52.57915],[-1.22145,52.57897],[-1.22154,52.57835],[-1.21973,52.57832],[-1.21913,52.57746],[-1.21836,52.57754],[-1.21855,52.57706],[-1.21754,52.57682],[-1.21909,52.57593],[-1.21878,52.57573],[-1.21939,52.57516],[-1.21638,52.57457],[-1.21897,52.57365],[-1.21994,52.57378],[-1.21982,52.57308],[-1.22037,52.573],[-1.22017,52.57218],[-1.2209,52.57257],[-1.22186,52.57233],[-1.22092,52.57094],[-1.22359,52.57114],[-1.22491,52.57092],[-1.22529,52.57493],[-1.22496,52.57593],[-1.22386,52.57662],[-1.22339,52.57805],[-1.22461,52.58042],[-1.22793,52.58262],[-1.23012,52.58646],[-1.22986,52.58982],[-1.22886,52.59295],[-1.23031,52.59507],[-1.23012,52.59545],[-1.2276,52.59595],[-1.22339,52.59629],[-1.22168,52.59312],[-1.22212,52.59292],[-1.21933,52.59127],[-1.21779,52.59086],[-1.21982,52.58744],[-1.22019,52.58572],[-1.21816,52.58426],[-1.21741,52.58342],[-1.21474,52.58192]]]}},{"type":"Feature","properties":{"id":"E01025651","name":"E01025651","parent":"E07000129","type":"LSOA","pop":1498,"r":284,"ff":107,"ffd":7142.9,"ffs":0.5323,"g":81,"co":0,"mo":2,"sa":0,"ic":0},"geometry":{"type":"Polygon","coordinates":[[[-1.21696,52.58974],[-1.21702,52.58941],[-1.2163,52.58945],[-1.21475,52.58638],[-1.21238,52.58401],[-1.21397,52.58099],[-1.21463,52.58149],[-1.21474,52.58192],[-1.21741,52.58342],[-1.21816,52.58426],[-1.22019,52.58572],[-1.21982,52.58744],[-1.21779,52.59086],[-1.21675,52.59082],[-1.21696,52.58974]]]}},{"type":"Feature","properties":{"id":"E01025652","name":"E01025652","parent":"E07000129","type":"LSOA","pop":1403,"r":571,"ff":231,"ffd":16464.7,"ffs":0.5077,"g":113,"co":2,"mo":0,"sa":0,"ic":0},"geometry":{"type":"Polygon","coordinates":[[[-1.16782,52.60796],[-1.17105,52.60582],[-1.16537,52.60304],[-1.1661,52.60219],[-1.16973,52.60095],[-1.17763,52.60181],[-1.17815,52.60134],[-1.17866,52.60143],[-1.1753,52.60439],[-1.17599,52.60455],[-1.17524,52.6053],[-1.17856,52.60664],[-1.17794,52.60688],[-1.17771,52.60738],[-1.17871,52.60793],[-1.1783,52.60831],[-1.1763,52.60769],[-1.17559,52.60791],[-1.17538,52.60824],[-1.17214,52.60752],[-1.17227,52.60725],[-1.17163,52.60697],[-1.16933,52.60868],[-1.16782,52.60796]]]}},{"type":"Feature","properties":{"id":"E01025653","name":"E01025653","parent":"E07000129","type":"LSOA","pop":1633,"r":559,"ff":232,"ffd":14207.0,"ffs":0.5121,"g":104,"co":2,"mo":0,"sa":0,"ic":0},"geometry":{"type":"Polygon","coordinates":[[[-1.17416,52.61774],[-1.17264,52.61615],[-1.17296,52.61508],[-1.171,52.61474],[-1.17152,52.61391],[-1.172,52.61412],[-1.17256,52.61336],[-1.1731,52.61334],[-1.17781,52.61457],[-1.17815,52.61371],[-1.1789,52.61371],[-1.1789,52.61351],[-1.17952,52.61407],[-1.18103,52.61393],[-1.18121,52.6137],[-1.18064,52.61351],[-1.18121,52.61296],[-1.18039,52.61265],[-1.18021,52.61207],[-1.18053,52.61165],[-1.18092,52.6116],[-1.18073,52.61114],[-1.18174,52.61132],[-1.18173,52.61251],[-1.18307,52.61285],[-1.18636,52.61298],[-1.18488,52.61334],[-1.18437,52.61414],[-1.18487,52.61405],[-1.18366,52.61499],[-1.18357,52.61559],[-1.18319,52.61557],[-1.18292,52.61632],[-1.18224,52.61631],[-1.18015,52.61708],[-1.17941,52.61639],[-1.17599,52.61689],[-1.17612,52.61806],[-1.17416,52.61774]]]}},{"type":"Feature","properties":{"id":"E01025654","name":"E01025654","parent":"E07000129","type":"LSOA","pop":1368,"r":532,"ff":220,"ffd":16081.9,"ffs":0.5176,"g":105,"co":2,"mo":0,"sa":0,"ic":0},"geometry":{"type":"Polygon","coordinates":[[[-1.18366,52.61499],[-1.18487,52.61405],[-1.18437,52.61414],[-1.18488,52.61334],[-1.18636,52.61298],[-1.18307,52.61285],[-1.18173,52.61251],[-1.18174,52.61132],[-1.18073,52.61114],[-1.18092,52.6116],[-1.18053,52.61165],[-1.18021,52.61207],[-1.18039,52.61265],[-1.18121,52.61296],[-1.18064,52.61351],[-1.18121,52.6137],[-1.18103,52.61393],[-1.17952,52.61407],[-1.1789,52.61351],[-1.1789,52.61371],[-1.17815,52.61371],[-1.17781,52.61457],[-1.1763,52.61419],[-1.1757,52.61305],[-1.17574,52.6127],[-1.17674,52.61245],[-1.17655,52.6118],[-1.17711,52.61158],[-1.17576,52.6116],[-1.17492,52.61055],[-1.17683,52.61012],[-1.17741,52.6104],[-1.17807,52.6104],[-1.17874,52.60996],[-1.17925,52.61021],[-1.18033,52.60969],[-1.18147,52.60949],[-1.18143,52.60861],[-1.18625,52.61006],[-1.18634,52.6097],[-1.18713,52.60985],[-1.1895,52.61076],[-1.18972,52.61375],[-1.18915,52.61552],[-1.18434,52.61553],[-1.18417,52.6158],[-1.18357,52.61559],[-1.18366,52.61499]]]}},{"type":"Feature","properties":{"id":"E01025655","name":"E01025655","parent":"E07000129","type":"LSOA","pop":1758,"r":564,"ff":236,"ffd":13424.3,"ffs":0.5119,"g":101,"co":2,"mo":0,"sa":0,"ic":0},"geometry":{"type":"Polygon","coordinates":[[[-1.16809,52.61435],[-1.16668,52.61329],[-1.16584,52.61324],[-1.16589,52.6117],[-1.16405,52.60945],[-1.16782,52.60796],[-1.16854,52.60824],[-1.16829,52.60876],[-1.16761,52.60852],[-1.16709,52.60885],[-1.16707,52.60935],[-1.16793,52.60933],[-1.16791,52.60994],[-1.16918,52.60987],[-1.1692,52.61012],[-1.16965,52.6097],[-1.1741,52.61192],[-1.17324,52.61275],[-1.1757,52.61305],[-1.1763,52.61419],[-1.1731,52.61334],[-1.17256,52.61336],[-1.172,52.61412],[-1.17152,52.61391],[-1.171,52.61474],[-1.17296,52.61508],[-1.17264,52.61615],[-1.16809,52.61435]]]}},{"type":"Feature","properties":{"id":"E01025656","name":"E01025656","parent":"E07000129","type":"LSOA","pop":1452,"r":546,"ff":219,"ffd":15082.6,"ffs":0.5069,"g":111,"co":2,"mo":0,"sa":0,"ic":0},"geometry":{"type":"Polygon","coordinates":[[[-1.1741,52.61192],[-1.16965,52.6097],[-1.1692,52.61012],[-1.16918,52.60987],[-1.16791,52.60994],[-1.16793,52.60933],[-1.16707,52.60935],[-1.16709,52.60885],[-1.16761,52.60852],[-1.16829,52.60876],[-1.16854,52.60824],[-1.16933,52.60868],[-1.17163,52.60697],[-1.17227,52.60725],[-1.17214,52.60752],[-1.17538,52.60824],[-1.17559,52.60791],[-1.1763,52.60769],[-1.1783,52.60831],[-1.17871,52.60793],[-1.17771,52.60738],[-1.17794,52.60688],[-1.17856,52.60664],[-1.18033,52.60969],[-1.17925,52.61021],[-1.17874,52.60996],[-1.17807,52.6104],[-1.17741,52.6104],[-1.17683,52.61012],[-1.17492,52.61055],[-1.17576,52.6116],[-1.17711,52.61158],[-1.17655,52.6118],[-1.17674,52.61245],[-1.17574,52.6127],[-1.1757,52.61305],[-1.17324,52.61275],[-1.1741,52.61192]]]}},{"type":"Feature","properties":{"id":"E01025657","name":"E01025657","parent":"E07000129","type":"LSOA","pop":1976,"r":390,"ff":166,"ffd":8400.8,"ffs":0.5355,"g":78,"co":0,"mo":0,"sa":0,"ic":0},"geometry":{"type":"Polygon","coordinates":[[[-1.17174,52.58828],[-1.17005,52.5877],[-1.16981,52.58793],[-1.17015,52.58803],[-1.16963,52.58814],[-1.16997,52.58835],[-1.16894,52.58896],[-1.16575,52.58876],[-1.16629,52.58786],[-1.16665,52.58551],[-1.1675,52.58543],[-1.16766,52.58504],[-1.16705,52.58493],[-1.16679,52.58432],[-1.16197,52.5848],[-1.16191,52.58501],[-1.16268,52.58505],[-1.16307,52.58567],[-1.16257,52.58702],[-1.16198,52.58746],[-1.16116,52.58734],[-1.16079,52.58832],[-1.16005,52.58826],[-1.15835,52.58963],[-1.15887,52.58905],[-1.15715,52.58863],[-1.15673,52.5872],[-1.15561,52.58715],[-1.15587,52.58604],[-1.15802,52.58568],[-1.15823,52.58418],[-1.16066,52.58432],[-1.16101,52.58325],[-1.16227,52.58348],[-1.16277,52.58297],[-1.16292,52.58244],[-1.16177,52.58212],[-1.16209,52.58154],[-1.16315,52.58168],[-1.16349,52.58059],[-1.16512,52.58048],[-1.16825,52.58164],[-1.1699,52.58124],[-1.17229,52.58166],[-1.17729,52.58086],[-1.17738,52.58025],[-1.17809,52.58016],[-1.17839,52.57956],[-1.18062,52.58041],[-1.18245,52.58003],[-1.18531,52.58033],[-1.18581,52.58093],[-1.18709,52.58135],[-1.18715,52.58183],[-1.18528,52.58296],[-1.18533,52.58347],[-1.18481,52.58361],[-1.18476,52.58422],[-1.18515,52.58431],[-1.18418,52.58539],[-1.18469,52.58628],[-1.18381,52.5867],[-1.18294,52.58666],[-1.18258,52.58715],[-1.18128,52.58714],[-1.18091,52.58836],[-1.1778,52.58833],[-1.17678,52.58869],[-1.17631,52.58807],[-1.17543,52.58799],[-1.17499,52.58872],[-1.17413,52.58897],[-1.17423,52.58965],[-1.17292,52.58994],[-1.17271,52.59058],[-1.17209,52.59076],[-1.17213,52.59183],[-1.16944,52.59162],[-1.17174,52.58828]]]}},{"type":"Feature","properties":{"id":"E01025658","name":"E01025658","parent":"E07000129","type":"LSOA","pop":3500,"r":323,"ff":141,"ffd":4028.6,"ffs":0.5685,"g":74,"co":0,"mo":0,"sa":0,"ic":0},"geometry":{"type":"Polygon","coordinates":[[[-1.14311,52.58316],[-1.14359,52.58128],[-1.14102,52.58154],[-1.14075,52.58019],[-1.14032,52.5797],[-1.13981,52.57825],[-1.1407,52.57636],[-1.13661,52.57507],[-1.13698,52.57402],[-1.13775,52.57391],[-1.13787,52.57364],[-1.13838,52.57413],[-1.14008,52.57381],[-1.14064,52.57357],[-1.14041,52.57284],[-1.14125,52.57236],[-1.14319,52.57253],[-1.14392,52.57311],[-1.14323,52.57308],[-1.1433,52.57351],[-1.14556,52.5742],[-1.1474,52.57606],[-1.14885,52.57586],[-1.14902,52.5765],[-1.1537,52.57749],[-1.15497,52.57837],[-1.15389,52.57885],[-1.15327,52.57972],[-1.15255,52.57992],[-1.15273,52.5807],[-1.1495,52.58102],[-1.14821,52.58355],[-1.14625,52.58668],[-1.14599,52.58814],[-1.14362,52.58803],[-1.14391,52.5862],[-1.14451,52.58555],[-1.14375,52.58532],[-1.14329,52.58464],[-1.14311,52.58316]]]}},{"type":"Feature","properties":{"id":"E01025659","name":"E01025659","parent":"E07000129","type":"LSOA","pop":2002,"r":103,"ff":34,"ffd":1698.3,"ffs":0.5231,"g":38,"co":0,"mo":2,"sa":0,"ic":0},"geometry":{"type":"Polygon","coordinates":[[[-1.16101,52.58325],[-1.16063,52.58236],[-1.15972,52.58298],[-1.1589,52.58266],[-1.15933,52.58167],[-1.15273,52.5807],[-1.15255,52.57992],[-1.15327,52.57972],[-1.15389,52.57885],[-1.15497,52.57837],[-1.1537,52.57749],[-1.14902,52.5765],[-1.14885,52.57586],[-1.1474,52.57606],[-1.14556,52.5742],[-1.1433,52.57351],[-1.14323,52.57308],[-1.14392,52.57311],[-1.14319,52.57253],[-1.14125,52.57236],[-1.14041,52.57284],[-1.14064,52.57357],[-1.13838,52.57413],[-1.13787,52.57364],[-1.13775,52.57391],[-1.13499,52.57418],[-1.1346,52.5736],[-1.13298,52.57363],[-1.13236,52.56978],[-1.13439,52.56578],[-1.13472,52.56468],[-1.13775,52.56464],[-1.13917,52.5649],[-1.14187,52.56575],[-1.14311,52.5666],[-1.14492,52.56704],[-1.15129,52.56792],[-1.15526,52.56882],[-1.15939,52.57017],[-1.1598,52.57078],[-1.15964,52.57242],[-1.16172,52.57239],[-1.16183,52.57342],[-1.16306,52.57408],[-1.16324,52.57444],[-1.16474,52.57342],[-1.169,52.57345],[-1.16918,52.57317],[-1.17069,52.57296],[-1.17052,52.57363],[-1.17309,52.57356],[-1.17157,52.57579],[-1.1698,52.57721],[-1.16883,52.57939],[-1.16889,52.58159],[-1.16825,52.58164],[-1.16512,52.58048],[-1.16349,52.58059],[-1.16315,52.58168],[-1.16209,52.58154],[-1.16177,52.58212],[-1.16292,52.58244],[-1.16277,52.58297],[-1.16227,52.58348],[-1.16101,52.58325]]]}},{"type":"Feature","properties":{"id":"E01025660","name":"E01025660","parent":"E07000129","type":"LSOA","pop":1638,"r":423,"ff":181,"ffd":11050.1,"ffs":0.5292,"g":79,"co":0,"mo":0,"sa":0,"ic":0},"geometry":{"type":"Polygon","coordinates":[[[-1.15966,52.59172],[-1.15934,52.59123],[-1.1589,52.59111],[-1.15903,52.5908],[-1.15799,52.59067],[-1.15835,52.58963],[-1.16005,52.58826],[-1.16079,52.58832],[-1.16116,52.58734],[-1.16198,52.58746],[-1.16257,52.58702],[-1.16307,52.58567],[-1.16268,52.58505],[-1.16191,52.58501],[-1.16197,52.5848],[-1.16679,52.58432],[-1.16705,52.58493],[-1.16766,52.58504],[-1.1675,52.58543],[-1.16665,52.58551],[-1.16629,52.58786],[-1.16575,52.58876],[-1.16894,52.58896],[-1.16997,52.58835],[-1.16963,52.58814],[-1.17015,52.58803],[-1.16981,52.58793],[-1.17005,52.5877],[-1.17174,52.58828],[-1.16842,52.59283],[-1.16084,52.59236],[-1.1609,52.5918],[-1.15966,52.59172]]]}},{"type":"Feature","properties":{"id":"E01025661","name":"E01025661","parent":"E07000129","type":"LSOA","pop":2448,"r":174,"ff":57,"ffd":2328.4,"ffs":0.57,"g":73,"co":0,"mo":0,"sa":2,"ic":0},"geometry":{"type":"Polygon","coordinates":[[[-1.279,52.55957],[-1.27917,52.55789],[-1.27653,52.55797],[-1.2762,52.55808],[-1.27672,52.55889],[-1.27334,52.55943],[-1.27269,52.55783],[-1.27145,52.55776],[-1.26878,52.55833],[-1.26746,52.55665],[-1.26695,52.55481],[-1.2702,52.55448],[-1.2705,52.5541],[-1.27143,52.55157],[-1.27323,52.55189],[-1.27489,52.55121],[-1.27533,52.5514],[-1.27643,52.5534],[-1.27617,52.55403],[-1.27665,52.55391],[-1.27721,52.55486],[-1.27804,52.55523],[-1.27849,52.55465],[-1.2774,52.5527],[-1.27819,52.55244],[-1.27944,52.55058],[-1.27869,52.55018],[-1.27975,52.54864],[-1.28165,52.54921],[-1.28203,52.54866],[-1.2809,52.54823],[-1.28142,52.5477],[-1.28203,52.54797],[-1.2863,52.54602],[-1.28653,52.54733],[-1.28767,52.54736],[-1.2914,52.54865],[-1.2955,52.54715],[-1.29664,52.54483],[-1.29784,52.54558],[-1.29829,52.54533],[-1.30046,52.54687],[-1.30289,52.54533],[-1.30341,52.54532],[-1.30524,52.54612],[-1.30668,52.54754],[-1.30937,52.54907],[-1.30707,52.55084],[-1.3076,52.5515],[-1.30754,52.5523],[-1.30598,52.55344],[-1.30464,52.5536],[-1.30155,52.55262],[-1.30039,52.55303],[-1.29828,52.55308],[-1.29537,52.55509],[-1.28655,52.5571],[-1.28606,52.55737],[-1.28708,52.56012],[-1.28514,52.56047],[-1.28402,52.55839],[-1.28249,52.55834],[-1.28144,52.55872],[-1.28219,52.56028],[-1.27979,52.56074],[-1.279,52.55957]]]}},{"type":"Feature","properties":{"id":"E01025662","name":"E01025662","parent":"E07000129","type":"LSOA","pop":2121,"r":205,"ff":65,"ffd":3064.6,"ffs":0.5603,"g":87,"co":0,"mo":0,"sa":2,"ic":0},"geometry":{"type":"Polygon","coordinates":[[[-1.27776,52.54971],[-1.27829,52.5486],[-1.27772,52.54871],[-1.27771,52.54803],[-1.2785,52.54764],[-1.27964,52.54778],[-1.27985,52.54756],[-1.27985,52.54703],[-1.27848,52.54676],[-1.2789,52.54629],[-1.27867,52.54569],[-1.27985,52.54468],[-1.2802,52.54565],[-1.28099,52.54663],[-1.28052,52.54678],[-1.28064,52.54711],[-1.28273,52.54649],[-1.28712,52.54451],[-1.28796,52.54473],[-1.28965,52.54384],[-1.28799,52.54295],[-1.28633,52.54349],[-1.28867,52.54077],[-1.28681,52.53923],[-1.28445,52.53926],[-1.28298,52.53844],[-1.28359,52.53764],[-1.28318,52.5373],[-1.28091,52.53716],[-1.28069,52.53659],[-1.28177,52.53691],[-1.28186,52.53666],[-1.2824,52.53669],[-1.28294,52.53595],[-1.28231,52.53569],[-1.28247,52.5351],[-1.28189,52.53422],[-1.28132,52.53415],[-1.27963,52.53482],[-1.28152,52.53473],[-1.27996,52.53623],[-1.27951,52.5362],[-1.27933,52.53579],[-1.27842,52.53608],[-1.27785,52.53584],[-1.27857,52.53533],[-1.27751,52.53508],[-1.27753,52.53469],[-1.27674,52.53468],[-1.27637,52.53401],[-1.2749,52.53343],[-1.27253,52.53305],[-1.27047,52.53318],[-1.27054,52.53465],[-1.2703,52.53565],[-1.26854,52.53583],[-1.26059,52.53326],[-1.25879,52.53337],[-1.25808,52.53374],[-1.25741,52.53349],[-1.27549,52.51792],[-1.28005,52.52249],[-1.28076,52.52444],[-1.28796,52.52862],[-1.28928,52.52762],[-1.29108,52.52689],[-1.29183,52.52701],[-1.29822,52.5315],[-1.30123,52.53148],[-1.30197,52.53201],[-1.30511,52.53297],[-1.30453,52.53377],[-1.30703,52.5345],[-1.30936,52.53577],[-1.31194,52.53791],[-1.31802,52.54007],[-1.31861,52.53995],[-1.32183,52.54099],[-1.32402,52.54264],[-1.32263,52.54445],[-1.3185,52.54623],[-1.31738,52.54716],[-1.31272,52.54791],[-1.30937,52.54907],[-1.30668,52.54754],[-1.30524,52.54612],[-1.30341,52.54532],[-1.30289,52.54533],[-1.30046,52.54687],[-1.29829,52.54533],[-1.29784,52.54558],[-1.29664,52.54483],[-1.2955,52.54715],[-1.2914,52.54865],[-1.28767,52.54736],[-1.28653,52.54733],[-1.2863,52.54602],[-1.28203,52.54797],[-1.28142,52.5477],[-1.2809,52.54823],[-1.28203,52.54866],[-1.28165,52.54921],[-1.27975,52.54864],[-1.27869,52.55018],[-1.27776,52.54971]]]}},{"type":"Feature","properties":{"id":"E01025663","name":"E01025663","parent":"E07000129","type":"LSOA","pop":1618,"r":145,"ff":44,"ffd":2719.4,"ffs":0.5641,"g":66,"co":0,"mo":0,"sa":2,"ic":0},"geometry":{"type":"Polygon","coordinates":[[[-1.25413,52.55787],[-1.25199,52.55752],[-1.25111,52.55766],[-1.25107,52.55642],[-1.2518,52.55563],[-1.25224,52.55564],[-1.25206,52.55613],[-1.25321,52.55577],[-1.25342,52.55606],[-1.25506,52.55524],[-1.25475,52.55484],[-1.25533,52.55426],[-1.25456,52.55369],[-1.2551,52.55378],[-1.25522,52.55324],[-1.25479,52.55304],[-1.25541,52.55264],[-1.25478,52.55226],[-1.25663,52.55057],[-1.25645,52.55008],[-1.25799,52.54838],[-1.2571,52.5474],[-1.25359,52.5467],[-1.25281,52.54617],[-1.25111,52.54615],[-1.25103,52.54583],[-1.25045,52.54598],[-1.24704,52.5453],[-1.24661,52.54461],[-1.24701,52.5444],[-1.24672,52.54356],[-1.24826,52.54302],[-1.2478,52.54272],[-1.24797,52.54203],[-1.24912,52.54064],[-1.25135,52.5391],[-1.25127,52.53874],[-1.25741,52.53349],[-1.25808,52.53374],[-1.25879,52.53337],[-1.26059,52.53326],[-1.26375,52.53428],[-1.26341,52.53482],[-1.26481,52.53516],[-1.26427,52.53604],[-1.26587,52.53678],[-1.26572,52.53701],[-1.27265,52.5394],[-1.2738,52.54012],[-1.27462,52.54138],[-1.27549,52.54093],[-1.27727,52.54196],[-1.27883,52.54134],[-1.27926,52.54007],[-1.28633,52.54349],[-1.28799,52.54295],[-1.28965,52.54384],[-1.28796,52.54473],[-1.28712,52.54451],[-1.28273,52.54649],[-1.28064,52.54711],[-1.28052,52.54678],[-1.28099,52.54663],[-1.2802,52.54565],[-1.27985,52.54468],[-1.27867,52.54569],[-1.2789,52.54629],[-1.27848,52.54676],[-1.27985,52.54703],[-1.27985,52.54756],[-1.27964,52.54778],[-1.2785,52.54764],[-1.27771,52.54803],[-1.27772,52.54871],[-1.27829,52.5486],[-1.27776,52.54971],[-1.27944,52.55058],[-1.27819,52.55244],[-1.2774,52.5527],[-1.27849,52.55465],[-1.27804,52.55523],[-1.27721,52.55486],[-1.27665,52.55391],[-1.27617,52.55403],[-1.27643,52.5534],[-1.27533,52.5514],[-1.27489,52.55121],[-1.27323,52.55189],[-1.27143,52.55157],[-1.2705,52.5541],[-1.2702,52.55448],[-1.26695,52.55481],[-1.26664,52.55418],[-1.25814,52.55175],[-1.25651,52.5546],[-1.25497,52.55612],[-1.25468,52.55743],[-1.25413,52.55787]]]}},{"type":"Feature","properties":{"id":"E01025664","name":"E01025664","parent":"E07000129","type":"LSOA","pop":1310,"r":24,"ff":14,"ffd":1068.7,"ffs":0.5833,"g":0,"co":3,"mo":1,"sa":3,"ic":1},"geometry":{"type":"Polygon","coordinates":[[[-1.32635,52.54618],[-1.32338,52.54424],[-1.32263,52.54445],[-1.32402,52.54264],[-1.32183,52.54099],[-1.31861,52.53995],[-1.31802,52.54007],[-1.31194,52.53791],[-1.30936,52.53577],[-1.30703,52.5345],[-1.30453,52.53377],[-1.30511,52.53297],[-1.30197,52.53201],[-1.30123,52.53148],[-1.29822,52.5315],[-1.29183,52.52701],[-1.29108,52.52689],[-1.28928,52.52762],[-1.28796,52.52862],[-1.28076,52.52444],[-1.28005,52.52249],[-1.27549,52.51792],[-1.27957,52.51431],[-1.29285,52.50344],[-1.297,52.49959],[-1.3021,52.49583],[-1.30437,52.49321],[-1.30548,52.49366],[-1.30595,52.4934],[-1.30714,52.49424],[-1.32509,52.50104],[-1.32189,52.50558],[-1.32133,52.50786],[-1.31906,52.5111],[-1.31913,52.51351],[-1.31877,52.51455],[-1.31797,52.51512],[-1.32079,52.51558],[-1.32115,52.51604],[-1.3219,52.51571],[-1.32212,52.51619],[-1.32356,52.51699],[-1.32243,52.51898],[-1.32379,52.52053],[-1.32522,52.52096],[-1.3251,52.5212],[-1.3257,52.52142],[-1.32724,52.52159],[-1.32713,52.52254],[-1.32763,52.52322],[-1.32927,52.52405],[-1.32925,52.52446],[-1.3304,52.52462],[-1.33033,52.52714],[-1.33122,52.52734],[-1.32959,52.52934],[-1.33166,52.52984],[-1.3307,52.53113],[-1.33485,52.53302],[-1.3326,52.5387],[-1.33438,52.54104],[-1.33495,52.54292],[-1.33455,52.54379],[-1.33317,52.54275],[-1.32969,52.54481],[-1.32635,52.54618]]]}},{"type":"Feature","properties":{"id":"E01025665","name":"E01025665","parent":"E07000129","type":"LSOA","pop":1855,"r":186,"ff":59,"ffd":3180.6,"ffs":0.5673,"g":81,"co":0,"mo":0,"sa":2,"ic":0},"geometry":{"type":"Polygon","coordinates":[[[-1.28183,52.54121],[-1.27926,52.54007],[-1.27883,52.54134],[-1.27727,52.54196],[-1.27549,52.54093],[-1.27462,52.54138],[-1.2738,52.54012],[-1.27265,52.5394],[-1.26572,52.53701],[-1.26587,52.53678],[-1.26427,52.53604],[-1.26481,52.53516],[-1.26341,52.53482],[-1.26375,52.53428],[-1.26854,52.53583],[-1.2703,52.53565],[-1.27054,52.53465],[-1.27047,52.53318],[-1.27253,52.53305],[-1.2749,52.53343],[-1.27637,52.53401],[-1.27674,52.53468],[-1.27753,52.53469],[-1.27751,52.53508],[-1.27857,52.53533],[-1.27785,52.53584],[-1.27842,52.53608],[-1.27933,52.53579],[-1.27951,52.5362],[-1.27996,52.53623],[-1.28152,52.53473],[-1.27963,52.53482],[-1.28132,52.53415],[-1.28189,52.53422],[-1.28247,52.5351],[-1.28231,52.53569],[-1.28294,52.53595],[-1.2824,52.53669],[-1.28186,52.53666],[-1.28177,52.53691],[-1.28069,52.53659],[-1.28091,52.53716],[-1.28318,52.5373],[-1.28359,52.53764],[-1.28298,52.53844],[-1.28445,52.53926],[-1.28681,52.53923],[-1.28867,52.54077],[-1.28633,52.54349],[-1.28183,52.54121]]]}},{"type":"Feature","properties":{"id":"E01025666","name":"E01025666","parent":"E07000129","type":"LSOA","pop":1637,"r":517,"ff":208,"ffd":12706.2,"ffs":0.5073,"g":105,"co":2,"mo":0,"sa":0,"ic":0},"geometry":{"type":"Polygon","coordinates":[[[-1.19413,52.62501],[-1.18875,52.62296],[-1.18907,52.62241],[-1.18942,52.62228],[-1.19021,52.62304],[-1.19091,52.62313],[-1.19156,52.62231],[-1.19223,52.62207],[-1.19232,52.621],[-1.19395,52.62109],[-1.19439,52.62066],[-1.19819,52.6214],[-1.19775,52.62209],[-1.19652,52.62188],[-1.19617,52.6225],[-1.19802,52.62266],[-1.19802,52.62333],[-1.19938,52.62377],[-1.19972,52.62278],[-1.20184,52.62301],[-1.2007,52.62596],[-1.20127,52.62696],[-1.20124,52.62733],[-1.20041,52.62723],[-1.20014,52.62668],[-1.19615,52.6257],[-1.19413,52.62501]]]}},{"type":"Feature","properties":{"id":"E01025667","name":"E01025667","parent":"E07000129","type":"LSOA","pop":1300,"r":563,"ff":231,"ffd":17769.2,"ffs":0.5066,"g":105,"co":2,"mo":0,"sa":0,"ic":0},"geometry":{"type":"Polygon","coordinates":[[[-1.18801,52.62257],[-1.18702,52.62158],[-1.186,52.62175],[-1.1846,52.62071],[-1.18239,52.61978],[-1.1774,52.61809],[-1.17612,52.61806],[-1.17599,52.61689],[-1.17941,52.61639],[-1.18015,52.61708],[-1.18224,52.61631],[-1.18292,52.61632],[-1.18319,52.61557],[-1.18417,52.6158],[-1.18434,52.61553],[-1.18915,52.61552],[-1.18944,52.61689],[-1.18853,52.61752],[-1.1881,52.61807],[-1.18991,52.61877],[-1.18952,52.6195],[-1.19018,52.62011],[-1.18958,52.62057],[-1.1891,52.6204],[-1.18823,52.62066],[-1.18859,52.62105],[-1.18804,52.62153],[-1.1883,52.62214],[-1.18907,52.62241],[-1.18875,52.62296],[-1.18801,52.62257]]]}},{"type":"Feature","properties":{"id":"E01025668","name":"E01025668","parent":"E07000129","type":"LSOA","pop":2444,"r":460,"ff":184,"ffd":7528.6,"ffs":0.5212,"g":105,"co":2,"mo":0,"sa":0,"ic":0},"geometry":{"type":"Polygon","coordinates":[[[-1.19802,52.62333],[-1.19802,52.62266],[-1.19617,52.6225],[-1.19652,52.62188],[-1.19775,52.62209],[-1.19819,52.6214],[-1.19439,52.62066],[-1.19395,52.62109],[-1.19232,52.621],[-1.19223,52.62207],[-1.19156,52.62231],[-1.19091,52.62313],[-1.19021,52.62304],[-1.18942,52.62228],[-1.18907,52.62241],[-1.1883,52.62214],[-1.18804,52.62153],[-1.18859,52.62105],[-1.18823,52.62066],[-1.1891,52.6204],[-1.18958,52.62057],[-1.19114,52.61912],[-1.19172,52.61941],[-1.19438,52.61899],[-1.19413,52.61851],[-1.1928,52.61875],[-1.19417,52.61771],[-1.19509,52.61729],[-1.19715,52.61741],[-1.19656,52.61785],[-1.19683,52.61793],[-1.19797,52.61744],[-1.19786,52.61849],[-1.20319,52.61881],[-1.20184,52.62301],[-1.19972,52.62278],[-1.19938,52.62377],[-1.19802,52.62333]]]}},{"type":"Feature","properties":{"id":"E01025669","name":"E01025669","parent":"E07000129","type":"LSOA","pop":2329,"r":470,"ff":188,"ffd":8072.1,"ffs":0.5179,"g":105,"co":2,"mo":0,"sa":0,"ic":0},"geometry":{"type":"Polygon","coordinates":[[[-1.18952,52.6195],[-1.18991,52.61877],[-1.1881,52.61807],[-1.18853,52.61752],[-1.18944,52.61689],[-1.18915,52.61552],[-1.18972,52.61375],[-1.1895,52.61076],[-1.18896,52.60728],[-1.18804,52.60506],[-1.1868,52.60025],[-1.19484,52.6005],[-1.19643,52.60537],[-1.19803,52.60844],[-1.20424,52.61709],[-1.20362,52.6173],[-1.20319,52.61881],[-1.19786,52.61849],[-1.19797,52.61744],[-1.19683,52.61793],[-1.19656,52.61785],[-1.19715,52.61741],[-1.19509,52.61729],[-1.19417,52.61771],[-1.1928,52.61875],[-1.19413,52.61851],[-1.19438,52.61899],[-1.19172,52.61941],[-1.19114,52.61912],[-1.1901,52.61998],[-1.18952,52.6195]]]}},{"type":"Feature","properties":{"id":"E01032603","name":"E01032603","parent":"E07000129","type":"LSOA","pop":1510,"r":571,"ff":229,"ffd":15165.6,"ffs":0.4935,"g":105,"co":0,"mo":0,"sa":0,"ic":0},"geometry":{"type":"Polygon","coordinates":[[[-1.18732,52.64725],[-1.18721,52.64597],[-1.18699,52.64559],[-1.1881,52.64457],[-1.18923,52.64316],[-1.19066,52.64039],[-1.19538,52.641],[-1.19807,52.64173],[-1.1988,52.64147],[-1.19908,52.64164],[-1.1987,52.64203],[-1.20083,52.64276],[-1.20022,52.6444],[-1.20015,52.64424],[-1.19887,52.64394],[-1.19842,52.64458],[-1.19745,52.64472],[-1.19732,52.64539],[-1.19556,52.64517],[-1.1952,52.64481],[-1.19277,52.64599],[-1.19404,52.64575],[-1.19481,52.64619],[-1.19476,52.64658],[-1.1937,52.64693],[-1.1927,52.64679],[-1.19243,52.64722],[-1.1916,52.64692],[-1.19028,52.647],[-1.18978,52.64746],[-1.18732,52.64725]]]}}]}