{"type":"FeatureCollection","features":[{"type":"Feature","properties":{"id":"E01021476","name":"E01021476","parent":"E07000069","type":"LSOA","pop":2030,"r":337,"ff":161,"ffd":7931.0,"ffs":0.6053,"g":69,"co":0,"mo":0,"sa":0,"ic":0},"geometry":{"type":"Polygon","coordinates":[[[0.55368,51.56256],[0.55317,51.56196],[0.55424,51.5615],[0.55423,51.56119],[0.55331,51.56066],[0.55295,51.5612],[0.55203,51.56124],[0.55164,51.56062],[0.55128,51.56124],[0.55063,51.56119],[0.55064,51.56194],[0.55007,51.56208],[0.54958,51.56153],[0.54912,51.56153],[0.54879,51.56205],[0.54816,51.56217],[0.54778,51.56172],[0.54752,51.56241],[0.54714,51.56242],[0.54709,51.56215],[0.5447,51.56159],[0.54261,51.56154],[0.54107,51.56118],[0.54058,51.56005],[0.53969,51.56008],[0.54145,51.56399],[0.54145,51.56594],[0.54306,51.56616],[0.54395,51.56729],[0.5505,51.56739],[0.55398,51.5672],[0.5539,51.56686],[0.5531,51.56672],[0.55294,51.56472],[0.55172,51.56465],[0.55137,51.56352],[0.55253,51.56337],[0.55395,51.56272],[0.55368,51.56256]]]}},{"type":"Feature","properties":{"id":"E01021477","name":"E01021477","parent":"E07000069","type":"LSOA","pop":1532,"r":318,"ff":154,"ffd":10052.2,"ffs":0.6063,"g":62,"co":0,"mo":0,"sa":0,"ic":0},"geometry":{"type":"Polygon","coordinates":[[[0.55716,51.56095],[0.55677,51.56035],[0.55772,51.56003],[0.55712,51.56001],[0.55739,51.55932],[0.55819,51.55925],[0.55797,51.55876],[0.55605,51.55875],[0.55675,51.55807],[0.5565,51.5576],[0.55552,51.55767],[0.55536,51.55813],[0.55409,51.55816],[0.55409,51.55835],[0.55164,51.5582],[0.55131,51.55784],[0.55076,51.55785],[0.55076,51.55981],[0.55003,51.5606],[0.54654,51.56062],[0.54644,51.55975],[0.5439,51.56007],[0.54058,51.56005],[0.54107,51.56118],[0.54261,51.56154],[0.5447,51.56159],[0.54709,51.56215],[0.54714,51.56242],[0.54752,51.56241],[0.54778,51.56172],[0.54816,51.56217],[0.54879,51.56205],[0.54912,51.56153],[0.54958,51.56153],[0.55007,51.56208],[0.55064,51.56194],[0.55063,51.56119],[0.55128,51.56124],[0.55164,51.56062],[0.55203,51.56124],[0.55295,51.5612],[0.55331,51.56066],[0.55423,51.56119],[0.55424,51.5615],[0.55317,51.56196],[0.55395,51.56272],[0.55253,51.56337],[0.55137,51.56352],[0.55172,51.56465],[0.55294,51.56472],[0.5531,51.56672],[0.5539,51.56686],[0.55398,51.5672],[0.55724,51.56691],[0.55603,51.56363],[0.55686,51.56347],[0.55696,51.56296],[0.55615,51.56242],[0.55762,51.56158],[0.55716,51.56095]]]}},{"type":"Feature","properties":{"id":"E01021478","name":"E01021478","parent":"E07000069","type":"LSOA","pop":1748,"r":327,"ff":159,"ffd":9096.1,"ffs":0.6023,"g":61,"co":0,"mo":0,"sa":0,"ic":0},"geometry":{"type":"Polygon","coordinates":[[[0.56615,51.56299],[0.56556,51.5625],[0.56507,51.56262],[0.56438,51.5614],[0.5634,51.56124],[0.56301,51.56071],[0.56222,51.56053],[0.56214,51.56007],[0.5626,51.55993],[0.56168,51.55959],[0.56184,51.56034],[0.56093,51.56068],[0.56069,51.56],[0.55982,51.55963],[0.55844,51.56062],[0.55716,51.56095],[0.55762,51.56158],[0.55615,51.56242],[0.55696,51.56296],[0.55686,51.56347],[0.55603,51.56363],[0.55724,51.56691],[0.56352,51.56615],[0.56729,51.56469],[0.56615,51.56299]]]}},{"type":"Feature","properties":{"id":"E01021479","name":"E01021479","parent":"E07000069","type":"LSOA","pop":1579,"r":295,"ff":145,"ffd":9183.0,"ffs":0.5967,"g":50,"co":0,"mo":0,"sa":0,"ic":0},"geometry":{"type":"Polygon","coordinates":[[[0.56399,51.56048],[0.56743,51.56002],[0.56821,51.56062],[0.56893,51.56038],[0.56682,51.55611],[0.56425,51.55495],[0.56476,51.5571],[0.56348,51.55763],[0.56042,51.55767],[0.56035,51.55735],[0.55993,51.55737],[0.55922,51.5579],[0.55675,51.55807],[0.55605,51.55875],[0.55797,51.55876],[0.55819,51.55925],[0.55739,51.55932],[0.55712,51.56001],[0.55772,51.56003],[0.55677,51.56035],[0.55716,51.56095],[0.55844,51.56062],[0.55982,51.55963],[0.56069,51.56],[0.56093,51.56068],[0.56184,51.56034],[0.56168,51.55959],[0.5626,51.55993],[0.56214,51.56007],[0.56222,51.56053],[0.56301,51.56071],[0.5634,51.56124],[0.56438,51.5614],[0.56399,51.56048]]]}},{"type":"Feature","properties":{"id":"E01021480","name":"E01021480","parent":"E07000069","type":"LSOA","pop":1742,"r":271,"ff":132,"ffd":7577.5,"ffs":0.5841,"g":43,"co":0,"mo":0,"sa":0,"ic":0},"geometry":{"type":"MultiPolygon","coordinates":[[[[0.56761,51.54061],[0.56763,51.54061],[0.56762,51.54061],[0.56761,51.54061]]],[[[0.56856,51.55069],[0.56749,51.54942],[0.56699,51.54934],[0.56713,51.54895],[0.56756,51.54892],[0.56754,51.54836],[0.56876,51.54791],[0.56957,51.54859],[0.57104,51.5488],[0.57114,51.54585],[0.57153,51.54588],[0.57248,51.54484],[0.57574,51.5451],[0.58096,51.54323],[0.58444,51.53921],[0.581,51.53966],[0.58062,51.53949],[0.58046,51.5397],[0.58056,51.53947],[0.57867,51.53929],[0.57827,51.53956],[0.57959,51.5395],[0.57802,51.53961],[0.57802,51.53994],[0.57758,51.53966],[0.57814,51.53934],[0.57705,51.53965],[0.57708,51.54017],[0.57702,51.53961],[0.57721,51.53952],[0.57663,51.53963],[0.57651,51.54032],[0.57639,51.53969],[0.5745,51.54021],[0.57466,51.5404],[0.57591,51.54018],[0.57501,51.54061],[0.57519,51.54032],[0.57462,51.54043],[0.57436,51.54018],[0.5703,51.54116],[0.56759,51.54158],[0.56676,51.54143],[0.56114,51.54411],[0.56217,51.54549],[0.56369,51.54571],[0.56371,51.54779],[0.56352,51.54831],[0.56394,51.5488],[0.56359,51.54971],[0.56493,51.55012],[0.56472,51.55045],[0.56507,51.55062],[0.56545,51.55036],[0.56581,51.54969],[0.56646,51.54992],[0.56608,51.55058],[0.56668,51.55102],[0.56744,51.55288],[0.56926,51.5529],[0.56856,51.55069]]]]}},{"type":"Feature","properties":{"id":"E01021481","name":"E01021481","parent":"E07000069","type":"LSOA","pop":1712,"r":276,"ff":140,"ffd":8177.6,"ffs":0.6009,"g":41,"co":0,"mo":0,"sa":0,"ic":0},"geometry":{"type":"Polygon","coordinates":[[[0.57713,51.56241],[0.58728,51.56082],[0.58647,51.55917],[0.58325,51.55802],[0.58211,51.55688],[0.57922,51.5565],[0.57746,51.55699],[0.57594,51.55687],[0.57591,51.55756],[0.57416,51.55703],[0.57303,51.557],[0.57267,51.55735],[0.57137,51.5575],[0.57026,51.5572],[0.56961,51.55823],[0.56861,51.55796],[0.56837,51.5571],[0.56934,51.5564],[0.56931,51.55469],[0.56792,51.55534],[0.56685,51.55526],[0.56602,51.55481],[0.56402,51.55445],[0.56098,51.55306],[0.56063,51.55328],[0.56682,51.55611],[0.56893,51.56038],[0.56821,51.56062],[0.56743,51.56002],[0.56399,51.56048],[0.56507,51.56262],[0.56556,51.5625],[0.56615,51.56299],[0.56729,51.56469],[0.56948,51.56407],[0.57295,51.56362],[0.57505,51.56283],[0.57713,51.56241]]]}},{"type":"Feature","properties":{"id":"E01021482","name":"E01021482","parent":"E07000069","type":"LSOA","pop":1514,"r":310,"ff":144,"ffd":9511.2,"ffs":0.5647,"g":53,"co":0,"mo":0,"sa":0,"ic":0},"geometry":{"type":"Polygon","coordinates":[[[0.59559,51.55993],[0.59949,51.55778],[0.59979,51.55729],[0.59921,51.55613],[0.59745,51.55561],[0.59465,51.5535],[0.59439,51.55283],[0.59363,51.55287],[0.59314,51.55376],[0.59234,51.55415],[0.59153,51.55406],[0.58818,51.55259],[0.58768,51.55263],[0.59055,51.55448],[0.59154,51.5557],[0.59074,51.5558],[0.59069,51.55645],[0.58865,51.55644],[0.58945,51.55708],[0.58991,51.55823],[0.59012,51.55954],[0.58828,51.55991],[0.58832,51.56013],[0.59005,51.56028],[0.59086,51.56003],[0.59127,51.5604],[0.59559,51.55993]]]}},{"type":"Feature","properties":{"id":"E01021483","name":"E01021483","parent":"E07000069","type":"LSOA","pop":1853,"r":276,"ff":140,"ffd":7555.3,"ffs":0.6009,"g":41,"co":0,"mo":0,"sa":0,"ic":0},"geometry":{"type":"Polygon","coordinates":[[[0.59127,51.5604],[0.59086,51.56003],[0.59005,51.56028],[0.58832,51.56013],[0.58828,51.55991],[0.59012,51.55954],[0.58991,51.55823],[0.58945,51.55708],[0.58865,51.55644],[0.59069,51.55645],[0.59074,51.5558],[0.59154,51.5557],[0.59055,51.55448],[0.58768,51.55263],[0.58818,51.55259],[0.59153,51.55406],[0.59234,51.55415],[0.59314,51.55376],[0.59363,51.55287],[0.59439,51.55283],[0.5938,51.55163],[0.58973,51.54795],[0.58992,51.54664],[0.58792,51.54487],[0.58771,51.53888],[0.58708,51.539],[0.58771,51.53878],[0.58444,51.53921],[0.58096,51.54323],[0.57574,51.5451],[0.57248,51.54484],[0.57153,51.54588],[0.57114,51.54585],[0.57104,51.5488],[0.56957,51.54859],[0.56876,51.54791],[0.56754,51.54836],[0.56756,51.54892],[0.56713,51.54895],[0.56699,51.54934],[0.56749,51.54942],[0.56856,51.55069],[0.56926,51.5529],[0.56744,51.55288],[0.56668,51.55102],[0.56608,51.55058],[0.56646,51.54992],[0.56581,51.54969],[0.56545,51.55036],[0.56507,51.55062],[0.56472,51.55045],[0.56493,51.55012],[0.56359,51.54971],[0.56394,51.5488],[0.56352,51.54831],[0.56283,51.55009],[0.56142,51.5526],[0.56098,51.55306],[0.56402,51.55445],[0.56602,51.55481],[0.56685,51.55526],[0.56792,51.55534],[0.56931,51.55469],[0.56934,51.5564],[0.56837,51.5571],[0.56861,51.55796],[0.56961,51.55823],[0.57026,51.5572],[0.57137,51.5575],[0.57267,51.55735],[0.57303,51.557],[0.57416,51.55703],[0.57591,51.55756],[0.57594,51.55687],[0.57746,51.55699],[0.57922,51.5565],[0.58211,51.55688],[0.58325,51.55802],[0.58647,51.55917],[0.58728,51.56082],[0.59127,51.5604]]]}},{"type":"Feature","properties":{"id":"E01021484","name":"E01021484","parent":"E07000069","type":"LSOA","pop":1360,"r":123,"ff":60,"ffd":4411.8,"ffs":0.566,"g":16,"co":2,"mo":0,"sa":0,"ic":0},"geometry":{"type":"Polygon","coordinates":[[[0.59053,51.52318],[0.59176,51.52297],[0.59141,51.52239],[0.59204,51.52166],[0.59174,51.5204],[0.58187,51.52015],[0.58131,51.52099],[0.58207,51.52141],[0.58197,51.52172],[0.58098,51.52164],[0.58121,51.52212],[0.58232,51.52196],[0.58324,51.52218],[0.58309,51.52391],[0.58518,51.52375],[0.5853,51.52313],[0.58551,51.52314],[0.58545,51.52379],[0.58895,51.52399],[0.58961,51.52355],[0.59051,51.52347],[0.59053,51.52318]]]}},{"type":"Feature","properties":{"id":"E01021485","name":"E01021485","parent":"E07000069","type":"LSOA","pop":1288,"r":130,"ff":64,"ffd":4968.9,"ffs":0.5766,"g":18,"co":2,"mo":0,"sa":0,"ic":0},"geometry":{"type":"Polygon","coordinates":[[[0.57417,51.52476],[0.57427,51.52406],[0.57514,51.52441],[0.57632,51.52394],[0.57596,51.52286],[0.57623,51.52252],[0.5755,51.52226],[0.57557,51.52162],[0.57755,51.5217],[0.57867,51.52239],[0.57942,51.52241],[0.5798,51.5206],[0.58035,51.52043],[0.58034,51.52012],[0.56917,51.51987],[0.56915,51.52025],[0.56825,51.52037],[0.56802,51.52153],[0.56849,51.52146],[0.56939,51.52239],[0.57088,51.52222],[0.57068,51.52311],[0.57021,51.5233],[0.57417,51.52476]]]}},{"type":"Feature","properties":{"id":"E01021486","name":"E01021486","parent":"E07000069","type":"LSOA","pop":1245,"r":137,"ff":69,"ffd":5542.2,"ffs":0.5897,"g":19,"co":2,"mo":0,"sa":0,"ic":0},"geometry":{"type":"Polygon","coordinates":[[[0.56431,51.52467],[0.56725,51.52383],[0.56814,51.52401],[0.56929,51.52382],[0.56995,51.52303],[0.57021,51.5233],[0.57068,51.52311],[0.57088,51.52222],[0.56939,51.52239],[0.56849,51.52146],[0.56802,51.52153],[0.56825,51.52037],[0.56915,51.52025],[0.56917,51.51987],[0.56443,51.51977],[0.56287,51.52044],[0.56431,51.52467]]]}},{"type":"Feature","properties":{"id":"E01021487","name":"E01021487","parent":"E07000069","type":"LSOA","pop":1327,"r":125,"ff":61,"ffd":4596.8,"ffs":0.5648,"g":16,"co":2,"mo":0,"sa":0,"ic":0},"geometry":{"type":"Polygon","coordinates":[[[0.58582,51.52724],[0.58969,51.52557],[0.59182,51.52429],[0.5915,51.52376],[0.59199,51.52356],[0.59194,51.52321],[0.59176,51.52297],[0.59053,51.52318],[0.59051,51.52347],[0.58961,51.52355],[0.58895,51.52399],[0.58545,51.52379],[0.58551,51.52314],[0.5853,51.52313],[0.58518,51.52375],[0.58541,51.52425],[0.58266,51.52408],[0.58239,51.52428],[0.58165,51.5241],[0.58137,51.52634],[0.58027,51.52629],[0.57983,51.52584],[0.57964,51.52743],[0.58136,51.5277],[0.58582,51.52724]]]}},{"type":"Feature","properties":{"id":"E01021488","name":"E01021488","parent":"E07000069","type":"LSOA","pop":1458,"r":125,"ff":61,"ffd":4183.8,"ffs":0.5648,"g":16,"co":2,"mo":0,"sa":0,"ic":0},"geometry":{"type":"Polygon","coordinates":[[[0.57964,51.52743],[0.57983,51.52584],[0.58027,51.52629],[0.58137,51.52634],[0.58165,51.5241],[0.58239,51.52428],[0.58266,51.52408],[0.58541,51.52425],[0.58518,51.52375],[0.58309,51.52391],[0.58324,51.52218],[0.58232,51.52196],[0.58121,51.52212],[0.58098,51.52164],[0.58197,51.52172],[0.58207,51.52141],[0.58131,51.52099],[0.58187,51.52015],[0.58034,51.52012],[0.58035,51.52043],[0.5798,51.5206],[0.57942,51.52241],[0.57867,51.52239],[0.57755,51.5217],[0.57557,51.52162],[0.5755,51.52226],[0.57623,51.52252],[0.57596,51.52286],[0.57632,51.52394],[0.57514,51.52441],[0.57427,51.52406],[0.57417,51.52476],[0.57964,51.52743]]]}},{"type":"Feature","properties":{"id":"E01021489","name":"E01021489","parent":"E07000069","type":"LSOA","pop":1401,"r":113,"ff":56,"ffd":3997.1,"ffs":0.5714,"g":14,"co":2,"mo":2,"sa":0,"ic":1},"geometry":{"type":"Polygon","coordinates":[[[0.60461,51.52013],[0.60427,51.51737],[0.60527,51.51735],[0.60551,51.51838],[0.60514,51.51848],[0.60556,51.51862],[0.60598,51.51986],[0.60784,51.51937],[0.60783,51.51896],[0.60821,51.51926],[0.60882,51.51885],[0.60876,51.51622],[0.60935,51.51597],[0.60848,51.51579],[0.60879,51.51482],[0.60796,51.51431],[0.60826,51.51391],[0.60914,51.51405],[0.60961,51.51531],[0.61061,51.51519],[0.61116,51.51427],[0.61251,51.51439],[0.61267,51.51403],[0.60957,51.51382],[0.60332,51.51284],[0.60363,51.51709],[0.60385,51.51727],[0.60461,51.52013]]]}},{"type":"Feature","properties":{"id":"E01021490","name":"E01021490","parent":"E07000069","type":"LSOA","pop":1476,"r":114,"ff":56,"ffd":3794.0,"ffs":0.5657,"g":14,"co":2,"mo":2,"sa":0,"ic":1},"geometry":{"type":"Polygon","coordinates":[[[0.60942,51.52373],[0.60933,51.5228],[0.60763,51.52308],[0.60698,51.52229],[0.60888,51.52176],[0.60877,51.5207],[0.61009,51.52023],[0.61067,51.51957],[0.61165,51.51965],[0.61153,51.51908],[0.61275,51.51918],[0.61291,51.51885],[0.61338,51.51894],[0.61353,51.51836],[0.61454,51.5185],[0.61477,51.51819],[0.61277,51.51801],[0.61056,51.5186],[0.6098,51.51833],[0.6101,51.51755],[0.61094,51.51761],[0.6115,51.51558],[0.61193,51.51567],[0.61204,51.51659],[0.61262,51.51577],[0.61152,51.51547],[0.61158,51.51516],[0.61231,51.51524],[0.61251,51.51439],[0.61116,51.51427],[0.61061,51.51519],[0.60961,51.51531],[0.60914,51.51405],[0.60826,51.51391],[0.60796,51.51431],[0.60879,51.51482],[0.60848,51.51579],[0.60935,51.51597],[0.60876,51.51622],[0.60882,51.51885],[0.60821,51.51926],[0.60783,51.51896],[0.60784,51.51937],[0.60598,51.51986],[0.60556,51.51862],[0.60514,51.51848],[0.60551,51.51838],[0.60527,51.51735],[0.60427,51.51737],[0.60469,51.5204],[0.60533,51.5201],[0.60663,51.52158],[0.60495,51.52275],[0.60447,51.52268],[0.60435,51.52356],[0.60183,51.52367],[0.60103,51.52479],[0.60341,51.52529],[0.60538,51.52446],[0.60942,51.52373]]]}},{"type":"Feature","properties":{"id":"E01021491","name":"E01021491","parent":"E07000069","type":"LSOA","pop":1718,"r":104,"ff":53,"ffd":3085.0,"ffs":0.5824,"g":12,"co":2,"mo":2,"sa":0,"ic":1},"geometry":{"type":"MultiPolygon","coordinates":[[[[0.63135,51.52088],[0.63183,51.51988],[0.63111,51.52086],[0.63156,51.51985],[0.63095,51.52077],[0.63131,51.52002],[0.63052,51.52068],[0.63072,51.52012],[0.63143,51.51987],[0.63095,51.51956],[0.63041,51.52044],[0.63047,51.51987],[0.62923,51.51994],[0.62912,51.5205],[0.62843,51.52037],[0.62915,51.52058],[0.62932,51.52032],[0.62962,51.52066],[0.62981,51.52039],[0.62972,51.52069],[0.62996,51.52045],[0.62996,51.52076],[0.63116,51.521],[0.63135,51.52088]]],[[[0.63482,51.52228],[0.63538,51.52203],[0.63623,51.52219],[0.63484,51.5223],[0.63481,51.523],[0.63552,51.52302],[0.63593,51.52262],[0.63663,51.52277],[0.63686,51.52194],[0.63541,51.52152],[0.63537,51.52124],[0.63493,51.5214],[0.63516,51.52121],[0.63464,51.52099],[0.63268,51.52085],[0.63249,51.51938],[0.63147,51.51961],[0.63192,51.51993],[0.6318,51.52024],[0.63239,51.52049],[0.63164,51.52046],[0.63251,51.52066],[0.63158,51.52058],[0.63264,51.52084],[0.63158,51.52064],[0.63247,51.52094],[0.63159,51.52079],[0.63184,51.52096],[0.63124,51.52115],[0.63181,51.52121],[0.63198,51.52099],[0.63191,51.52118],[0.63282,51.52129],[0.63301,51.52101],[0.63287,51.5213],[0.63126,51.52124],[0.6312,51.52118],[0.63124,51.5211],[0.62985,51.52077],[0.62788,51.52048],[0.62798,51.52007],[0.62724,51.51977],[0.62662,51.51969],[0.62635,51.52032],[0.6257,51.52024],[0.62633,51.52024],[0.62674,51.51855],[0.6248,51.51856],[0.62479,51.51898],[0.62448,51.51867],[0.62504,51.5164],[0.62077,51.5158],[0.61701,51.51433],[0.61267,51.51403],[0.61231,51.51524],[0.61158,51.51516],[0.61152,51.51547],[0.61262,51.51577],[0.61204,51.51659],[0.61193,51.51567],[0.6115,51.51558],[0.61094,51.51761],[0.6101,51.51755],[0.6098,51.51833],[0.61056,51.5186],[0.61277,51.51801],[0.61522,51.51826],[0.61544,51.51792],[0.61349,51.51755],[0.61465,51.51728],[0.61704,51.51743],[0.61693,51.51811],[0.61733,51.51836],[0.61981,51.51854],[0.61964,51.51895],[0.61792,51.51864],[0.61785,51.5189],[0.61948,51.52059],[0.62211,51.52041],[0.62439,51.52087],[0.62485,51.52072],[0.62717,51.52216],[0.62747,51.52134],[0.62718,51.52065],[0.6275,51.52064],[0.62746,51.52189],[0.62778,51.52173],[0.62735,51.52221],[0.62779,51.52249],[0.62837,51.52165],[0.62787,51.5212],[0.62839,51.52158],[0.62806,51.521],[0.62866,51.52149],[0.62848,51.52117],[0.62881,51.52137],[0.62926,51.52081],[0.62849,51.52062],[0.62943,51.52079],[0.62916,51.52112],[0.62949,51.52112],[0.62886,51.52143],[0.62919,51.5216],[0.62947,51.52119],[0.62946,51.5215],[0.62897,51.52205],[0.62844,51.52203],[0.62827,51.52268],[0.6288,51.52265],[0.62874,51.52291],[0.62905,51.52249],[0.62938,51.52267],[0.6296,51.52177],[0.62944,51.52267],[0.62978,51.52247],[0.62978,51.52273],[0.62932,51.52313],[0.62962,51.52322],[0.63027,51.52191],[0.63055,51.52205],[0.63003,51.52159],[0.62974,51.52085],[0.63069,51.52107],[0.62981,51.52096],[0.63002,51.52143],[0.63052,51.52187],[0.63053,51.52147],[0.63083,51.5219],[0.63109,51.52139],[0.63074,51.52125],[0.63085,51.52111],[0.63143,51.52137],[0.63094,51.52186],[0.63165,51.5224],[0.63199,51.52214],[0.63288,51.5223],[0.63146,51.52177],[0.6316,51.52138],[0.63278,51.52148],[0.63159,51.52141],[0.63197,51.52189],[0.63225,51.52156],[0.63328,51.52167],[0.63366,51.52236],[0.63434,51.52219],[0.63389,51.52132],[0.6332,51.52114],[0.63393,51.5213],[0.63545,51.52176],[0.63504,51.52186],[0.634,51.52135],[0.63425,51.52184],[0.63513,51.52204],[0.63424,51.5219],[0.63468,51.52224],[0.63412,51.52232],[0.63443,51.52321],[0.63482,51.52228]]],[[[0.63218,51.52364],[0.63295,51.52333],[0.634,51.52351],[0.63431,51.52322],[0.63394,51.52239],[0.63344,51.52256],[0.6329,51.52232],[0.63296,51.52254],[0.63208,51.52218],[0.63189,51.52274],[0.63149,51.52273],[0.63065,51.52181],[0.63071,51.52229],[0.63039,51.52242],[0.63083,51.52238],[0.63017,51.52268],[0.62996,51.52332],[0.63218,51.52364]]]]}},{"type":"Feature","properties":{"id":"E01021492","name":"E01021492","parent":"E07000069","type":"LSOA","pop":1650,"r":114,"ff":56,"ffd":3393.9,"ffs":0.5657,"g":14,"co":2,"mo":2,"sa":0,"ic":1},"geometry":{"type":"Polygon","coordinates":[[[0.60942,51.52373],[0.61498,51.52353],[0.61701,51.52267],[0.61644,51.52226],[0.61676,51.52204],[0.61692,51.52141],[0.61752,51.52123],[0.61722,51.52098],[0.6179,51.52062],[0.61768,51.521],[0.61815,51.52078],[0.61845,51.52027],[0.61861,51.52065],[0.61948,51.52059],[0.61785,51.5189],[0.61792,51.51864],[0.61964,51.51895],[0.61981,51.51854],[0.61733,51.51836],[0.61693,51.51811],[0.61704,51.51743],[0.61465,51.51728],[0.61349,51.51755],[0.61544,51.51792],[0.61522,51.51826],[0.61477,51.51819],[0.61454,51.5185],[0.61353,51.51836],[0.61338,51.51894],[0.61291,51.51885],[0.61275,51.51918],[0.61153,51.51908],[0.61165,51.51965],[0.61067,51.51957],[0.61009,51.52023],[0.60877,51.5207],[0.60888,51.52176],[0.60698,51.52229],[0.60763,51.52308],[0.60933,51.5228],[0.60942,51.52373]]]}},{"type":"Feature","properties":{"id":"E01021493","name":"E01021493","parent":"E07000069","type":"LSOA","pop":1538,"r":138,"ff":69,"ffd":4486.3,"ffs":0.5847,"g":19,"co":2,"mo":2,"sa":0,"ic":0},"geometry":{"type":"Polygon","coordinates":[[[0.59739,51.53086],[0.59864,51.53026],[0.59848,51.52987],[0.59819,51.53004],[0.59733,51.52979],[0.59724,51.5302],[0.59793,51.53028],[0.59726,51.53023],[0.59706,51.53013],[0.59737,51.52969],[0.59751,51.52956],[0.59852,51.52975],[0.59867,51.5301],[0.60022,51.52975],[0.60016,51.52941],[0.60414,51.52924],[0.60316,51.52896],[0.60313,51.52813],[0.6035,51.52791],[0.60058,51.52779],[0.60018,51.52725],[0.60042,51.52661],[0.60317,51.5266],[0.60341,51.52529],[0.60103,51.52479],[0.60075,51.52544],[0.59966,51.52606],[0.59979,51.52651],[0.59918,51.52664],[0.59895,51.52713],[0.5981,51.52741],[0.59785,51.52723],[0.59837,51.52691],[0.59799,51.52665],[0.59777,51.52716],[0.59719,51.52707],[0.59635,51.52624],[0.59658,51.52573],[0.59609,51.52577],[0.59618,51.5248],[0.59566,51.52469],[0.59583,51.52426],[0.59464,51.52376],[0.59467,51.52294],[0.59194,51.52321],[0.59199,51.52356],[0.5915,51.52376],[0.59182,51.52429],[0.59299,51.52477],[0.5938,51.52466],[0.59254,51.52656],[0.59302,51.52693],[0.59342,51.52662],[0.59497,51.52648],[0.59597,51.52744],[0.59405,51.52806],[0.59452,51.52852],[0.59508,51.52831],[0.59607,51.52907],[0.5974,51.52925],[0.59666,51.53018],[0.59599,51.53035],[0.59739,51.53086]]]}},{"type":"Feature","properties":{"id":"E01021494","name":"E01021494","parent":"E07000069","type":"LSOA","pop":1464,"r":144,"ff":72,"ffd":4918.0,"ffs":0.5902,"g":21,"co":2,"mo":0,"sa":0,"ic":0},"geometry":{"type":"Polygon","coordinates":[[[0.59597,51.52744],[0.59497,51.52648],[0.59342,51.52662],[0.59302,51.52693],[0.59254,51.52656],[0.5938,51.52466],[0.59299,51.52477],[0.59182,51.52429],[0.58969,51.52557],[0.58582,51.52724],[0.58782,51.52976],[0.59452,51.52852],[0.59405,51.52806],[0.59597,51.52744]]]}},{"type":"Feature","properties":{"id":"E01021495","name":"E01021495","parent":"E07000069","type":"LSOA","pop":1999,"r":118,"ff":57,"ffd":2851.4,"ffs":0.5534,"g":14,"co":2,"mo":2,"sa":0,"ic":1},"geometry":{"type":"MultiPolygon","coordinates":[[[[0.62803,51.52341],[0.62607,51.52247],[0.62593,51.52273],[0.62517,51.52337],[0.62599,51.52374],[0.62803,51.52341]]],[[[0.62383,51.52456],[0.62397,51.52441],[0.62556,51.52459],[0.62444,51.5244],[0.62554,51.52453],[0.62527,51.52392],[0.62563,51.52384],[0.62499,51.52349],[0.62484,51.52305],[0.62406,51.52347],[0.62457,51.52369],[0.62395,51.52349],[0.62368,51.52372],[0.62424,51.52381],[0.62431,51.52387],[0.62437,51.52421],[0.62426,51.52435],[0.62391,51.52434],[0.62434,51.52421],[0.62425,51.52383],[0.62363,51.52374],[0.62374,51.52432],[0.62344,51.52393],[0.62279,51.52457],[0.6232,51.52476],[0.62339,51.52435],[0.62373,51.52441],[0.6232,51.52482],[0.62359,51.52487],[0.62383,51.52456]]],[[[0.62818,51.52456],[0.62936,51.52391],[0.62835,51.52361],[0.62692,51.524],[0.62573,51.52394],[0.62566,51.52424],[0.62798,51.52479],[0.62818,51.52456]]],[[[0.6235,51.52494],[0.62277,51.52476],[0.62247,51.52544],[0.62331,51.52541],[0.6235,51.52494]]],[[[0.62921,51.5259],[0.63197,51.52459],[0.63113,51.52445],[0.63095,51.52489],[0.63108,51.52442],[0.63044,51.52432],[0.63086,51.52462],[0.63065,51.52487],[0.63082,51.52461],[0.6304,51.52447],[0.63044,51.525],[0.63027,51.52449],[0.63039,51.52429],[0.63006,51.52425],[0.6297,51.52466],[0.62998,51.52478],[0.62992,51.52527],[0.62974,51.52476],[0.62936,51.52526],[0.62958,51.52481],[0.62939,51.52469],[0.6296,51.52468],[0.62996,51.52423],[0.62889,51.52428],[0.62923,51.52462],[0.62872,51.52442],[0.62831,51.52465],[0.62888,51.52495],[0.62818,51.52468],[0.62792,51.52527],[0.62824,51.52569],[0.62921,51.5259]]],[[[0.62591,51.52662],[0.62556,51.52564],[0.62548,51.52487],[0.62443,51.52477],[0.62549,51.52482],[0.62551,51.52466],[0.6241,51.52445],[0.62383,51.52478],[0.62422,51.52498],[0.62435,51.52474],[0.62421,51.52511],[0.62445,51.5254],[0.62375,51.52495],[0.62347,51.52518],[0.62468,51.52579],[0.62459,51.52614],[0.625,51.52574],[0.62488,51.52611],[0.62507,51.52614],[0.62508,51.52655],[0.62524,51.52619],[0.62517,51.52663],[0.62591,51.52662]]],[[[0.62171,51.52656],[0.6192,51.52619],[0.61829,51.52665],[0.62057,51.52654],[0.62184,51.52685],[0.62171,51.52656]]],[[[0.62493,51.52644],[0.62504,51.52615],[0.62417,51.52631],[0.62398,51.52605],[0.62446,51.52613],[0.62397,51.52591],[0.62407,51.52548],[0.62343,51.52519],[0.62335,51.52562],[0.62238,51.52545],[0.62217,51.5266],[0.62267,51.52686],[0.62508,51.52664],[0.62493,51.52644]]],[[[0.62107,51.527],[0.62099,51.52668],[0.6204,51.52677],[0.62107,51.527]]],[[[0.62825,51.52655],[0.62896,51.52607],[0.62753,51.52542],[0.62787,51.52492],[0.62585,51.52431],[0.62569,51.52512],[0.62603,51.52466],[0.62641,51.52469],[0.6256,51.52517],[0.62567,51.52564],[0.62633,51.5256],[0.62576,51.52573],[0.62606,51.52689],[0.62651,51.52678],[0.62621,51.52641],[0.6265,51.52627],[0.62659,51.52663],[0.62675,51.52596],[0.62672,51.52661],[0.62719,51.52617],[0.62739,51.52659],[0.62561,51.52702],[0.62609,51.52743],[0.62795,51.52739],[0.62777,51.52713],[0.62828,51.52711],[0.62825,51.52655]]],[[[0.62548,51.5276],[0.62542,51.52725],[0.62478,51.52686],[0.62231,51.52696],[0.62106,51.52682],[0.62234,51.52745],[0.62329,51.5273],[0.62548,51.5276]]],[[[0.61835,51.52738],[0.61743,51.52733],[0.61762,51.52782],[0.61835,51.52738]]],[[[0.61304,51.52825],[0.61288,51.52797],[0.61344,51.5283],[0.61358,51.52772],[0.61381,51.52828],[0.61458,51.528],[0.61443,51.52771],[0.61501,51.52789],[0.61679,51.52726],[0.61881,51.52735],[0.62039,51.52697],[0.61973,51.52675],[0.61889,51.52708],[0.61812,51.52681],[0.61692,51.52701],[0.61682,51.52676],[0.61405,51.52704],[0.612,51.52787],[0.6117,51.52854],[0.61304,51.52825]]],[[[0.60896,51.52869],[0.6107,51.52819],[0.60925,51.52825],[0.6094,51.52849],[0.60916,51.52834],[0.60885,51.52868],[0.60832,51.52847],[0.60844,51.52875],[0.60896,51.52869]]],[[[0.61138,51.52826],[0.61142,51.52818],[0.61067,51.52846],[0.6111,51.5288],[0.61138,51.52826]]],[[[0.61888,51.52807],[0.6188,51.52764],[0.61845,51.5279],[0.61887,51.52752],[0.61851,51.52743],[0.61755,51.52806],[0.61821,51.52873],[0.61926,51.52841],[0.61888,51.52807]]],[[[0.62206,51.52874],[0.62345,51.52773],[0.62191,51.52758],[0.62193,51.52796],[0.62182,51.52754],[0.62129,51.5274],[0.62117,51.5277],[0.62123,51.52728],[0.62063,51.52708],[0.62057,51.52789],[0.62055,51.52706],[0.61999,51.52714],[0.62028,51.52756],[0.61995,51.52715],[0.61982,51.52744],[0.61942,51.52732],[0.61944,51.52764],[0.61911,51.5274],[0.61918,51.52776],[0.6189,51.52747],[0.6193,51.52839],[0.62206,51.52874]]],[[[0.62393,51.52856],[0.62405,51.52833],[0.6253,51.52842],[0.62557,51.52811],[0.62426,51.52763],[0.62354,51.52786],[0.62245,51.52886],[0.62296,51.52863],[0.62393,51.52856]]],[[[0.60542,51.5294],[0.60561,51.52906],[0.60564,51.52932],[0.60809,51.52857],[0.60649,51.5286],[0.60652,51.52882],[0.60523,51.52913],[0.60536,51.52934],[0.60483,51.52922],[0.60507,51.52949],[0.60429,51.52958],[0.60502,51.52958],[0.60542,51.5294]]],[[[0.61751,51.52949],[0.61708,51.52901],[0.61761,51.52937],[0.61822,51.52881],[0.61745,51.52817],[0.61751,51.52771],[0.61708,51.5273],[0.61704,51.52786],[0.61673,51.52736],[0.61603,51.52756],[0.61637,51.52799],[0.61598,51.52762],[0.61412,51.5282],[0.61495,51.52859],[0.61581,51.52821],[0.61547,51.52845],[0.61617,51.52842],[0.61519,51.52854],[0.61531,51.52893],[0.61588,51.5292],[0.6165,51.52862],[0.616,51.52922],[0.61751,51.52949]]],[[[0.62106,51.5295],[0.62246,51.52893],[0.62061,51.52869],[0.62004,51.52886],[0.62052,51.52865],[0.61915,51.52855],[0.61782,51.52937],[0.61822,51.52955],[0.61971,51.52934],[0.62106,51.5295]]],[[[0.61548,51.52907],[0.61432,51.5284],[0.61226,51.52847],[0.61193,51.52879],[0.61638,51.52967],[0.61773,51.52969],[0.61636,51.52948],[0.61548,51.52907]]],[[[0.60487,51.53014],[0.60669,51.52976],[0.60786,51.52922],[0.61076,51.52884],[0.61017,51.52859],[0.60782,51.52898],[0.60588,51.52984],[0.60534,51.52968],[0.60607,51.52931],[0.60515,51.52966],[0.60487,51.53014]]],[[[0.6047,51.52994],[0.60402,51.52965],[0.60344,51.52984],[0.60173,51.52963],[0.60352,51.52962],[0.60826,51.52794],[0.60871,51.52825],[0.6104,51.5281],[0.60998,51.52748],[0.61002,51.52778],[0.60905,51.52803],[0.60846,51.52785],[0.61018,51.52724],[0.61087,51.52836],[0.61169,51.52795],[0.61124,51.52776],[0.61182,51.52786],[0.6121,51.52763],[0.61183,51.52721],[0.61062,51.52764],[0.61042,51.52726],[0.61203,51.527],[0.61219,51.52762],[0.61216,51.52699],[0.61273,51.52689],[0.61303,51.52726],[0.61286,51.52688],[0.61714,51.52632],[0.61696,51.5267],[0.61741,51.52669],[0.61739,51.52637],[0.61801,51.52624],[0.61748,51.52667],[0.61823,51.52666],[0.61863,51.52615],[0.61982,51.52587],[0.61916,51.52607],[0.62142,51.52634],[0.62175,51.52651],[0.6221,51.52685],[0.6222,51.52577],[0.6208,51.52574],[0.62216,51.52566],[0.6218,51.52526],[0.62223,51.52554],[0.62265,51.52445],[0.62438,51.52271],[0.62419,51.52311],[0.62531,51.52293],[0.62445,51.52258],[0.62454,51.52223],[0.6252,51.52277],[0.62552,51.52262],[0.62532,51.52278],[0.62581,51.52274],[0.62594,51.52226],[0.62504,51.5217],[0.62511,51.52194],[0.62456,51.52198],[0.62423,51.52179],[0.62458,51.5215],[0.6241,51.52165],[0.62418,51.52183],[0.62331,51.52156],[0.62327,51.52127],[0.62401,51.52161],[0.62415,51.52138],[0.6232,51.52121],[0.6232,51.52144],[0.62285,51.52117],[0.62247,51.52158],[0.62265,51.52113],[0.62144,51.52129],[0.62162,51.5211],[0.62083,51.52103],[0.62061,51.52144],[0.62047,51.52098],[0.61995,51.52135],[0.61895,51.52102],[0.61892,51.52144],[0.61775,51.52195],[0.61752,51.52167],[0.61693,51.52218],[0.61676,51.52204],[0.61644,51.52226],[0.61701,51.52267],[0.61506,51.5235],[0.60942,51.52373],[0.60538,51.52446],[0.60341,51.52529],[0.60317,51.5266],[0.60042,51.52661],[0.60018,51.52725],[0.60058,51.52779],[0.6035,51.52791],[0.60313,51.52813],[0.60316,51.52896],[0.60414,51.52924],[0.60016,51.52941],[0.60022,51.52975],[0.60099,51.52958],[0.6011,51.5298],[0.6044,51.53023],[0.6047,51.52994]]]]}},{"type":"Feature","properties":{"id":"E01021496","name":"E01021496","parent":"E07000069","type":"LSOA","pop":1552,"r":125,"ff":61,"ffd":3930.4,"ffs":0.5648,"g":16,"co":2,"mo":0,"sa":0,"ic":0},"geometry":{"type":"Polygon","coordinates":[[[0.59918,51.52664],[0.59979,51.52651],[0.59966,51.52606],[0.60075,51.52544],[0.60089,51.52486],[0.60143,51.52437],[0.60183,51.52367],[0.60435,51.52356],[0.60447,51.52268],[0.60495,51.52275],[0.60663,51.52158],[0.60533,51.5201],[0.60469,51.5204],[0.60309,51.52255],[0.59467,51.52294],[0.59464,51.52376],[0.59583,51.52426],[0.59566,51.52469],[0.59618,51.5248],[0.59609,51.52577],[0.59658,51.52573],[0.59635,51.52624],[0.59719,51.52707],[0.59777,51.52716],[0.59799,51.52665],[0.59837,51.52691],[0.59785,51.52723],[0.5981,51.52741],[0.59895,51.52713],[0.59918,51.52664]]]}},{"type":"Feature","properties":{"id":"E01021497","name":"E01021497","parent":"E07000069","type":"LSOA","pop":1469,"r":116,"ff":56,"ffd":3812.1,"ffs":0.5545,"g":14,"co":2,"mo":2,"sa":0,"ic":1},"geometry":{"type":"Polygon","coordinates":[[[0.60309,51.52255],[0.60469,51.5204],[0.60385,51.51727],[0.60255,51.51682],[0.60261,51.51721],[0.60189,51.51745],[0.6017,51.51415],[0.60099,51.51417],[0.60101,51.51635],[0.60041,51.51777],[0.59944,51.51787],[0.59928,51.51763],[0.59857,51.52148],[0.59762,51.52176],[0.5979,51.52238],[0.59904,51.52265],[0.60309,51.52255]]]}},{"type":"Feature","properties":{"id":"E01021498","name":"E01021498","parent":"E07000069","type":"LSOA","pop":1662,"r":121,"ff":59,"ffd":3549.9,"ffs":0.5673,"g":16,"co":2,"mo":2,"sa":0,"ic":0},"geometry":{"type":"Polygon","coordinates":[[[0.59908,51.51899],[0.59909,51.51808],[0.59839,51.51823],[0.59768,51.51789],[0.59427,51.51755],[0.59353,51.51619],[0.59487,51.51579],[0.59962,51.51594],[0.5998,51.51568],[0.59977,51.51497],[0.5933,51.51472],[0.59325,51.51499],[0.59173,51.51508],[0.59143,51.51565],[0.58934,51.51543],[0.58829,51.5157],[0.58799,51.51651],[0.586,51.51634],[0.58587,51.51689],[0.58854,51.51812],[0.59058,51.51982],[0.59063,51.52037],[0.59174,51.5204],[0.59204,51.52166],[0.59141,51.52239],[0.59194,51.52321],[0.59904,51.52265],[0.5979,51.52238],[0.59762,51.52176],[0.59857,51.52148],[0.59908,51.51899]]]}},{"type":"Feature","properties":{"id":"E01021499","name":"E01021499","parent":"E07000069","type":"LSOA","pop":1633,"r":125,"ff":61,"ffd":3735.5,"ffs":0.5648,"g":16,"co":2,"mo":0,"sa":0,"ic":0},"geometry":{"type":"Polygon","coordinates":[[[0.58587,51.51689],[0.586,51.51634],[0.58799,51.51651],[0.58829,51.5157],[0.58934,51.51543],[0.59143,51.51565],[0.59173,51.51508],[0.59325,51.51499],[0.5933,51.51472],[0.5938,51.51472],[0.59379,51.51385],[0.59256,51.51345],[0.59276,51.51225],[0.58949,51.51195],[0.58858,51.51312],[0.58812,51.51312],[0.58845,51.5141],[0.58744,51.51435],[0.58704,51.51413],[0.58575,51.51461],[0.58404,51.51581],[0.58384,51.51645],[0.5827,51.51727],[0.58334,51.51752],[0.58275,51.51795],[0.58343,51.51866],[0.58327,51.52019],[0.59063,51.52037],[0.59058,51.51982],[0.58854,51.51812],[0.58587,51.51689]]]}},{"type":"Feature","properties":{"id":"E01021500","name":"E01021500","parent":"E07000069","type":"LSOA","pop":2122,"r":117,"ff":57,"ffd":2686.1,"ffs":0.57,"g":16,"co":2,"mo":2,"sa":0,"ic":0},"geometry":{"type":"Polygon","coordinates":[[[0.59909,51.51808],[0.59928,51.51763],[0.59944,51.51787],[0.60041,51.51777],[0.60101,51.51635],[0.60099,51.51417],[0.6017,51.51415],[0.60189,51.51745],[0.60261,51.51721],[0.60255,51.51682],[0.60363,51.51709],[0.60332,51.51284],[0.60001,51.51226],[0.59998,51.51191],[0.59881,51.51201],[0.59999,51.51196],[0.59999,51.51217],[0.59779,51.51212],[0.58944,51.51088],[0.58794,51.5117],[0.5874,51.5131],[0.58633,51.51321],[0.58446,51.5128],[0.58415,51.51117],[0.58149,51.50972],[0.58045,51.51498],[0.58052,51.51546],[0.58285,51.51609],[0.58404,51.51581],[0.58575,51.51461],[0.58704,51.51413],[0.58744,51.51435],[0.58845,51.5141],[0.58812,51.51312],[0.58858,51.51312],[0.58949,51.51195],[0.59276,51.51225],[0.59256,51.51345],[0.59379,51.51385],[0.5938,51.51472],[0.59977,51.51497],[0.5998,51.51568],[0.59962,51.51594],[0.59487,51.51579],[0.59353,51.51619],[0.59427,51.51755],[0.59768,51.51789],[0.59839,51.51823],[0.59909,51.51808]]]}},{"type":"Feature","properties":{"id":"E01021501","name":"E01021501","parent":"E07000069","type":"LSOA","pop":1394,"r":136,"ff":70,"ffd":5021.5,"ffs":0.6034,"g":19,"co":2,"mo":0,"sa":0,"ic":0},"geometry":{"type":"Polygon","coordinates":[[[0.5609,51.52075],[0.56198,51.52002],[0.56287,51.52044],[0.56443,51.51977],[0.57378,51.51995],[0.57411,51.51854],[0.57562,51.51726],[0.57435,51.51762],[0.57448,51.51802],[0.57376,51.518],[0.57414,51.51611],[0.57381,51.51596],[0.57444,51.51569],[0.57452,51.5094],[0.57286,51.50883],[0.56624,51.50965],[0.56586,51.5088],[0.55327,51.51054],[0.55365,51.50988],[0.55218,51.5114],[0.54904,51.51601],[0.54636,51.51838],[0.54499,51.51884],[0.55154,51.51989],[0.5525,51.51948],[0.55609,51.51925],[0.55685,51.52055],[0.55803,51.52072],[0.55936,51.52023],[0.56017,51.52159],[0.56147,51.52109],[0.5609,51.52075]]]}},{"type":"Feature","properties":{"id":"E01021502","name":"E01021502","parent":"E07000069","type":"LSOA","pop":2181,"r":122,"ff":60,"ffd":2751.0,"ffs":0.5714,"g":16,"co":2,"mo":0,"sa":0,"ic":0},"geometry":{"type":"Polygon","coordinates":[[[0.5827,51.51727],[0.58384,51.51645],[0.58404,51.51581],[0.58285,51.51609],[0.58052,51.51546],[0.58045,51.51498],[0.58149,51.50972],[0.58054,51.50921],[0.57683,51.50883],[0.573,51.5078],[0.56586,51.5088],[0.56624,51.50965],[0.57286,51.50883],[0.57452,51.5094],[0.57444,51.51569],[0.57381,51.51596],[0.57414,51.51611],[0.57376,51.518],[0.57448,51.51802],[0.57435,51.51762],[0.57562,51.51726],[0.57411,51.51854],[0.57378,51.51995],[0.58327,51.52019],[0.58343,51.51866],[0.58275,51.51795],[0.58334,51.51752],[0.5827,51.51727]]]}},{"type":"Feature","properties":{"id":"E01021503","name":"E01021503","parent":"E07000069","type":"LSOA","pop":1462,"r":161,"ff":83,"ffd":5677.2,"ffs":0.6148,"g":25,"co":2,"mo":0,"sa":0,"ic":0},"geometry":{"type":"MultiPolygon","coordinates":[[[[0.52527,51.51707],[0.52454,51.51696],[0.5229,51.51757],[0.52173,51.51872],[0.52136,51.52139],[0.52466,51.51796],[0.52437,51.51736],[0.52527,51.51707]]],[[[0.5436,51.54016],[0.54357,51.54006],[0.54357,51.54009],[0.5436,51.54016]]],[[[0.56458,51.54088],[0.56412,51.5394],[0.56358,51.53935],[0.56333,51.53911],[0.5617,51.53954],[0.56181,51.5398],[0.56092,51.54018],[0.56245,51.5404],[0.56344,51.54116],[0.56385,51.54086],[0.56383,51.54132],[0.56459,51.54129],[0.56439,51.54097],[0.56458,51.54088]]],[[[0.5587,51.54396],[0.55843,51.54371],[0.55905,51.54352],[0.55898,51.5439],[0.5603,51.54356],[0.56026,51.54319],[0.55944,51.54335],[0.5605,51.54307],[0.56056,51.54334],[0.56107,51.54326],[0.56289,51.54225],[0.55985,51.54297],[0.55772,51.54383],[0.55751,51.54375],[0.55728,51.54334],[0.55761,51.54377],[0.55808,51.54359],[0.55788,51.54333],[0.55845,51.5435],[0.55955,51.54285],[0.55845,51.54294],[0.55808,51.54328],[0.55823,51.54307],[0.55762,51.54327],[0.55826,51.54296],[0.55772,51.54286],[0.55735,51.54318],[0.55711,51.54321],[0.55752,51.54301],[0.55684,51.54309],[0.55762,51.54287],[0.55674,51.54298],[0.557,51.54284],[0.55645,51.54255],[0.55782,51.54278],[0.55793,51.54244],[0.55641,51.5425],[0.55649,51.54224],[0.55685,51.54238],[0.55734,51.54196],[0.55772,51.54214],[0.55856,51.54178],[0.55895,51.54194],[0.55922,51.54158],[0.55935,51.54174],[0.55879,51.54223],[0.55873,51.54191],[0.55788,51.54217],[0.55858,51.5427],[0.55961,51.54269],[0.5593,51.54235],[0.55969,51.54253],[0.55982,51.54193],[0.55996,51.5427],[0.56051,51.54263],[0.56016,51.54233],[0.56046,51.54224],[0.56014,51.54204],[0.56081,51.54224],[0.56033,51.54234],[0.56072,51.54259],[0.56182,51.54232],[0.56154,51.54216],[0.56232,51.54217],[0.56221,51.54189],[0.56247,51.54212],[0.56361,51.54165],[0.5615,51.5417],[0.5613,51.54192],[0.56126,51.54165],[0.56046,51.54157],[0.55986,51.54174],[0.55958,51.54155],[0.56036,51.54112],[0.55993,51.54167],[0.5603,51.54153],[0.56132,51.54154],[0.56134,51.54138],[0.56057,51.5413],[0.56101,51.54107],[0.56181,51.5414],[0.56143,51.54144],[0.56162,51.54165],[0.56355,51.54155],[0.56297,51.54116],[0.56246,51.54134],[0.56286,51.54105],[0.5619,51.54132],[0.56279,51.54101],[0.5622,51.54055],[0.56207,51.54083],[0.56143,51.54092],[0.56211,51.54075],[0.56201,51.54049],[0.56104,51.54039],[0.56069,51.54078],[0.56105,51.54093],[0.55985,51.54113],[0.56097,51.54043],[0.56001,51.54045],[0.55922,51.54088],[0.55939,51.54127],[0.55916,51.5409],[0.55782,51.54164],[0.55683,51.54163],[0.55635,51.54196],[0.55662,51.54165],[0.5558,51.54176],[0.55581,51.54197],[0.55556,51.5417],[0.55614,51.54169],[0.55554,51.5416],[0.55727,51.54158],[0.55733,51.54138],[0.55487,51.54104],[0.55147,51.54231],[0.55288,51.54288],[0.5527,51.5424],[0.55295,51.54268],[0.55311,51.54223],[0.55273,51.54205],[0.55319,51.5422],[0.55332,51.54185],[0.55369,51.54226],[0.55313,51.54238],[0.55313,51.54283],[0.55375,51.54311],[0.55479,51.54254],[0.55392,51.54242],[0.55471,51.54234],[0.55383,51.54203],[0.5535,51.54174],[0.55398,51.54198],[0.55439,51.54185],[0.55474,51.54221],[0.55532,51.54196],[0.55479,51.54167],[0.55521,51.54148],[0.55544,51.542],[0.55503,51.54232],[0.5556,51.54217],[0.55613,51.54254],[0.55572,51.54235],[0.5552,51.54262],[0.55581,51.54284],[0.55515,51.54267],[0.5544,51.54301],[0.55442,51.54323],[0.55528,51.54306],[0.55443,51.54326],[0.5548,51.54369],[0.55593,51.54337],[0.55508,51.54384],[0.55571,51.5439],[0.55539,51.54377],[0.55615,51.54347],[0.55579,51.54361],[0.55694,51.54395],[0.55714,51.54379],[0.55669,51.54368],[0.55728,51.5438],[0.55715,51.54354],[0.5575,51.54386],[0.55722,51.54397],[0.5587,51.54396]]],[[[0.54804,51.54737],[0.54826,51.54724],[0.54797,51.54738],[0.54804,51.54737]]],[[[0.54621,51.54742],[0.54825,51.54709],[0.54881,51.54667],[0.54853,51.54664],[0.54816,51.54699],[0.54702,51.54714],[0.54902,51.54617],[0.54863,51.54662],[0.54909,51.54652],[0.55085,51.54561],[0.5492,51.54607],[0.551,51.54514],[0.55225,51.54535],[0.55215,51.54506],[0.55163,51.54504],[0.55222,51.54481],[0.55275,51.54527],[0.55661,51.54447],[0.55586,51.54423],[0.55534,51.54451],[0.55575,51.54425],[0.55498,51.5442],[0.55451,51.54453],[0.55417,51.54417],[0.55278,51.54499],[0.5534,51.54453],[0.55257,51.54471],[0.55429,51.54406],[0.55205,51.54466],[0.552,51.5444],[0.55304,51.54424],[0.55181,51.5441],[0.55425,51.54383],[0.55288,51.54379],[0.55374,51.54357],[0.55235,51.54357],[0.55319,51.54342],[0.55255,51.54318],[0.55186,51.54349],[0.55221,51.54376],[0.55183,51.54352],[0.55153,51.54387],[0.5513,51.5435],[0.55184,51.54326],[0.55113,51.54322],[0.55253,51.54304],[0.55082,51.54269],[0.55087,51.54292],[0.55052,51.54246],[0.55152,51.54263],[0.5514,51.5423],[0.5504,51.54229],[0.55154,51.5422],[0.5528,51.54181],[0.55482,51.54092],[0.5564,51.54099],[0.55578,51.54084],[0.5567,51.54076],[0.55654,51.541],[0.55718,51.54116],[0.55725,51.54093],[0.55762,51.54158],[0.55864,51.54096],[0.55754,51.54112],[0.55778,51.5407],[0.55673,51.54076],[0.55813,51.54062],[0.55813,51.54091],[0.55889,51.5406],[0.55825,51.54058],[0.55904,51.54037],[0.55918,51.54068],[0.55953,51.54048],[0.55908,51.54035],[0.56374,51.53883],[0.56337,51.5391],[0.56405,51.53935],[0.56399,51.53912],[0.56482,51.54083],[0.56449,51.54103],[0.56505,51.54129],[0.56448,51.53987],[0.56413,51.53859],[0.56482,51.53961],[0.56499,51.53925],[0.56508,51.53963],[0.56456,51.53987],[0.5653,51.5413],[0.56874,51.54028],[0.56757,51.54048],[0.56874,51.53994],[0.56776,51.5398],[0.56782,51.53957],[0.56932,51.53965],[0.56918,51.54015],[0.57323,51.53909],[0.57364,51.53865],[0.57303,51.53854],[0.57152,51.5387],[0.57306,51.53841],[0.57179,51.53507],[0.57275,51.53343],[0.57276,51.53303],[0.57407,51.53257],[0.57217,51.53125],[0.57148,51.53037],[0.5713,51.52898],[0.56954,51.52771],[0.56557,51.52621],[0.56394,51.52499],[0.56431,51.52467],[0.56287,51.52044],[0.56198,51.52002],[0.5609,51.52075],[0.56147,51.52109],[0.56017,51.52159],[0.55936,51.52023],[0.55803,51.52072],[0.55685,51.52055],[0.55609,51.51925],[0.5525,51.51948],[0.55154,51.51989],[0.54499,51.51884],[0.53952,51.52067],[0.53938,51.52033],[0.53704,51.52025],[0.53922,51.52067],[0.53242,51.51941],[0.53323,51.51937],[0.53219,51.51882],[0.53168,51.51919],[0.53107,51.51906],[0.53167,51.51915],[0.53202,51.51887],[0.53145,51.51889],[0.53196,51.51876],[0.53154,51.51859],[0.53056,51.51894],[0.52866,51.51877],[0.53046,51.51891],[0.5313,51.51863],[0.53,51.51844],[0.52969,51.51863],[0.52972,51.5184],[0.52907,51.51853],[0.52921,51.51835],[0.52885,51.51857],[0.52848,51.51834],[0.52573,51.5199],[0.52464,51.5217],[0.52421,51.52169],[0.52491,51.52079],[0.52435,51.52117],[0.52502,51.52041],[0.52407,51.52142],[0.52373,51.52204],[0.52449,51.52186],[0.52292,51.52434],[0.52072,51.52727],[0.51825,51.52968],[0.51927,51.52969],[0.51824,51.52993],[0.51813,51.52975],[0.51808,51.53003],[0.52079,51.53103],[0.51923,51.53035],[0.52001,51.53029],[0.52089,51.5308],[0.52103,51.53052],[0.52046,51.53018],[0.5211,51.53053],[0.52125,51.53101],[0.52082,51.531],[0.52206,51.53191],[0.52215,51.53116],[0.52122,51.53063],[0.52229,51.53117],[0.5225,51.53183],[0.52214,51.53199],[0.52251,51.53224],[0.52292,51.53237],[0.52262,51.5319],[0.52386,51.5322],[0.52297,51.53208],[0.52302,51.53239],[0.52411,51.53246],[0.52397,51.53219],[0.52445,51.53217],[0.5242,51.53242],[0.52513,51.53242],[0.52457,51.53216],[0.52503,51.53211],[0.5255,51.53239],[0.52515,51.53208],[0.52687,51.53163],[0.52521,51.53209],[0.52559,51.53239],[0.52607,51.5323],[0.52606,51.532],[0.52639,51.53218],[0.52764,51.53145],[0.52734,51.53169],[0.53044,51.53103],[0.53063,51.5312],[0.53138,51.53109],[0.53085,51.53106],[0.53119,51.53088],[0.53062,51.53099],[0.53207,51.53053],[0.5312,51.53084],[0.53159,51.53102],[0.53246,51.53063],[0.53234,51.53043],[0.53245,51.53022],[0.53257,51.5302],[0.53246,51.53059],[0.53355,51.53028],[0.53522,51.53056],[0.53742,51.53209],[0.53781,51.53203],[0.53768,51.53247],[0.53865,51.53345],[0.53906,51.53369],[0.53902,51.53283],[0.53924,51.5332],[0.53909,51.53369],[0.53997,51.53395],[0.53952,51.53373],[0.53911,51.53247],[0.53869,51.5327],[0.53908,51.5324],[0.53919,51.53203],[0.53876,51.53211],[0.53923,51.53187],[0.53874,51.53179],[0.53923,51.53175],[0.53906,51.53155],[0.53923,51.53165],[0.53923,51.5318],[0.53938,51.53146],[0.53905,51.53134],[0.53807,51.53202],[0.53897,51.5313],[0.53976,51.53157],[0.54076,51.5327],[0.53983,51.53172],[0.5394,51.53172],[0.53921,51.53257],[0.53947,51.53188],[0.53973,51.53214],[0.53933,51.53255],[0.53971,51.53264],[0.53923,51.53266],[0.53967,51.53284],[0.53982,51.53383],[0.54059,51.53396],[0.54025,51.53376],[0.54025,51.53348],[0.54001,51.53332],[0.54021,51.53293],[0.54069,51.53311],[0.54067,51.53336],[0.54006,51.5333],[0.54039,51.53352],[0.54031,51.53378],[0.54046,51.53354],[0.54047,51.53386],[0.54149,51.53395],[0.54171,51.53355],[0.54136,51.53328],[0.5432,51.53446],[0.54344,51.53518],[0.54353,51.53475],[0.54319,51.53692],[0.54333,51.53736],[0.54372,51.53732],[0.54357,51.5372],[0.5437,51.53708],[0.54391,51.53762],[0.54373,51.53738],[0.54345,51.53754],[0.54418,51.53879],[0.54397,51.53977],[0.54442,51.5395],[0.54434,51.53977],[0.54398,51.53989],[0.54439,51.54136],[0.54453,51.54131],[0.54484,51.54146],[0.54493,51.54124],[0.54462,51.54066],[0.54502,51.54125],[0.5449,51.54152],[0.5445,51.54136],[0.54432,51.54159],[0.54401,51.54274],[0.54464,51.54298],[0.54446,51.54201],[0.5448,51.5431],[0.54396,51.54292],[0.5439,51.54386],[0.5445,51.54318],[0.54434,51.54424],[0.54416,51.54368],[0.54386,51.54427],[0.54392,51.54445],[0.5442,51.5442],[0.54427,51.54501],[0.54434,51.54437],[0.54501,51.54674],[0.54659,51.54729],[0.54621,51.54742]]]]}},{"type":"Feature","properties":{"id":"E01021504","name":"E01021504","parent":"E07000069","type":"LSOA","pop":1587,"r":159,"ff":81,"ffd":5104.0,"ffs":0.609,"g":25,"co":2,"mo":0,"sa":0,"ic":0},"geometry":{"type":"MultiPolygon","coordinates":[[[[0.60096,51.5304],[0.6,51.53025],[0.59885,51.53086],[0.60096,51.5304]]],[[[0.60317,51.53112],[0.60429,51.53079],[0.60336,51.53093],[0.60276,51.5307],[0.60295,51.53094],[0.60253,51.53117],[0.60317,51.53112]]],[[[0.60434,51.53228],[0.60454,51.53179],[0.60454,51.53213],[0.60572,51.53108],[0.60572,51.53076],[0.60505,51.53084],[0.6055,51.53102],[0.60309,51.53254],[0.60351,51.53269],[0.60428,51.53234],[0.60371,51.53234],[0.60434,51.53228]]],[[[0.60214,51.53488],[0.60448,51.53337],[0.60396,51.53341],[0.60214,51.53488]]],[[[0.60279,51.53403],[0.60372,51.53325],[0.60334,51.53334],[0.60365,51.53323],[0.60328,51.5331],[0.60372,51.53317],[0.60385,51.53293],[0.60383,51.53313],[0.60502,51.53238],[0.60578,51.53141],[0.60457,51.53253],[0.60215,51.53332],[0.60307,51.53284],[0.6018,51.53303],[0.60205,51.53334],[0.60173,51.53347],[0.60116,51.53328],[0.59917,51.53384],[0.59769,51.5338],[0.60124,51.53494],[0.60279,51.53403]]],[[[0.58586,51.53728],[0.58772,51.53706],[0.59073,51.53701],[0.5961,51.53643],[0.599,51.53584],[0.59767,51.5355],[0.59975,51.53572],[0.60061,51.53547],[0.59984,51.53509],[0.60012,51.53531],[0.59957,51.53509],[0.5998,51.53559],[0.59903,51.53506],[0.5985,51.53516],[0.59886,51.53498],[0.59936,51.53516],[0.59926,51.53495],[0.59837,51.5346],[0.59838,51.53498],[0.59808,51.53441],[0.5967,51.5341],[0.59332,51.53518],[0.59449,51.53512],[0.59111,51.53587],[0.59169,51.53564],[0.58898,51.53579],[0.58606,51.53658],[0.58586,51.53728]]],[[[0.5859,51.53815],[0.58753,51.53762],[0.58744,51.53792],[0.59056,51.53741],[0.58809,51.5374],[0.58315,51.53796],[0.58244,51.53821],[0.5859,51.53815]]],[[[0.5741,51.53881],[0.57716,51.53819],[0.582,51.5381],[0.58363,51.53771],[0.58147,51.53783],[0.58305,51.53767],[0.58285,51.53749],[0.58117,51.5374],[0.58152,51.53755],[0.58083,51.53773],[0.58124,51.53784],[0.58037,51.53791],[0.58075,51.53765],[0.5803,51.53741],[0.58015,51.53752],[0.5803,51.53764],[0.58007,51.5379],[0.57971,51.53794],[0.57956,51.53775],[0.57987,51.53782],[0.58021,51.53762],[0.57985,51.53742],[0.57965,51.53753],[0.57912,51.53765],[0.57911,51.53745],[0.57957,51.53752],[0.58028,51.53727],[0.58086,51.53758],[0.58076,51.53736],[0.58247,51.53746],[0.58226,51.53734],[0.58294,51.53745],[0.58329,51.53762],[0.58271,51.53718],[0.58364,51.53758],[0.58342,51.53717],[0.58393,51.53753],[0.58392,51.53709],[0.58455,51.53743],[0.5843,51.5373],[0.58392,51.53762],[0.5843,51.53759],[0.58513,51.53743],[0.58528,51.5372],[0.58462,51.53728],[0.58471,51.53747],[0.58437,51.53715],[0.585,51.53701],[0.58059,51.53718],[0.58087,51.53668],[0.58331,51.53663],[0.58325,51.53683],[0.58402,51.53686],[0.58418,51.53665],[0.58456,51.53687],[0.58411,51.53641],[0.58466,51.53663],[0.58488,51.53638],[0.5845,51.53626],[0.58499,51.5364],[0.58505,51.53648],[0.58466,51.53673],[0.58551,51.53653],[0.58473,51.53676],[0.58549,51.53706],[0.58589,51.53649],[0.58475,51.53615],[0.58359,51.53611],[0.58401,51.53631],[0.58355,51.53639],[0.58374,51.53655],[0.58354,51.53649],[0.58341,51.53606],[0.58317,51.53649],[0.58323,51.53625],[0.58278,51.53627],[0.58323,51.53602],[0.5828,51.53595],[0.58181,51.53648],[0.57977,51.53644],[0.57963,51.53662],[0.5806,51.53666],[0.58027,51.53721],[0.57978,51.53701],[0.57911,51.53717],[0.57947,51.5374],[0.57896,51.5372],[0.57846,51.5375],[0.57858,51.53721],[0.57817,51.5376],[0.57834,51.53717],[0.5778,51.53745],[0.57761,51.53719],[0.57947,51.53683],[0.57946,51.53653],[0.5791,51.53661],[0.57983,51.53575],[0.58,51.53602],[0.58071,51.53591],[0.58017,51.53572],[0.58098,51.53569],[0.58077,51.5359],[0.58142,51.53565],[0.5811,51.53619],[0.58155,51.53575],[0.58364,51.53584],[0.58374,51.53565],[0.58387,51.53588],[0.5852,51.53594],[0.58546,51.53559],[0.58544,51.53599],[0.58666,51.53626],[0.58725,51.53607],[0.58666,51.53582],[0.58744,51.53603],[0.58737,51.5356],[0.58745,51.53599],[0.58848,51.53562],[0.58836,51.5354],[0.58882,51.53554],[0.5898,51.53513],[0.58931,51.53503],[0.58986,51.53511],[0.58908,51.53543],[0.59029,51.53543],[0.58993,51.53505],[0.58988,51.53489],[0.58995,51.53482],[0.59189,51.53428],[0.58992,51.53489],[0.59034,51.53543],[0.5908,51.53507],[0.59052,51.53499],[0.59085,51.53504],[0.59061,51.53538],[0.59147,51.53533],[0.59263,51.53504],[0.59247,51.53482],[0.59285,51.53497],[0.59436,51.53444],[0.59186,51.53479],[0.59157,51.53509],[0.59174,51.53479],[0.59111,51.53504],[0.59091,51.53485],[0.59314,51.5345],[0.59222,51.53444],[0.59452,51.53432],[0.5944,51.53405],[0.59388,51.53413],[0.59441,51.53401],[0.59466,51.53432],[0.5956,51.53382],[0.59489,51.53391],[0.59651,51.53358],[0.59558,51.53399],[0.59927,51.53353],[0.59876,51.53301],[0.59743,51.53331],[0.59874,51.5329],[0.59946,51.53301],[0.59906,51.53319],[0.59958,51.53355],[0.60017,51.533],[0.60153,51.53295],[0.60206,51.5325],[0.60237,51.5327],[0.60246,51.53228],[0.60283,51.53256],[0.60254,51.53267],[0.603,51.53265],[0.60286,51.53221],[0.60337,51.53224],[0.60322,51.53182],[0.60361,51.53187],[0.60324,51.5317],[0.60375,51.5316],[0.60343,51.53134],[0.6041,51.5312],[0.60442,51.53161],[0.60442,51.53119],[0.60462,51.53143],[0.60493,51.53126],[0.60494,51.53093],[0.60445,51.53084],[0.60253,51.53134],[0.60194,51.53168],[0.6029,51.5314],[0.60306,51.53162],[0.60211,51.53189],[0.60218,51.53213],[0.60181,51.53191],[0.60146,51.53232],[0.60159,51.53193],[0.60127,51.53231],[0.60071,51.53232],[0.60091,51.5325],[0.6003,51.53238],[0.60051,51.53259],[0.59929,51.53282],[0.60019,51.53231],[0.59931,51.53232],[0.59933,51.53247],[0.59892,51.5326],[0.59929,51.53243],[0.59874,51.53236],[0.59823,51.53288],[0.59795,51.53261],[0.59737,51.533],[0.59683,51.53296],[0.59655,51.53348],[0.59664,51.5325],[0.59788,51.53217],[0.59716,51.53261],[0.59859,51.53219],[0.59803,51.53214],[0.59843,51.53188],[0.59891,51.53187],[0.59847,51.53204],[0.59901,51.53217],[0.60036,51.53208],[0.59903,51.53192],[0.60015,51.53195],[0.59949,51.53147],[0.60016,51.5316],[0.6,51.53178],[0.60018,51.53192],[0.60039,51.53197],[0.60019,51.53188],[0.60033,51.53158],[0.60064,51.53206],[0.60086,51.53204],[0.60107,51.53179],[0.60051,51.53164],[0.6012,51.53177],[0.60142,51.53159],[0.60097,51.53152],[0.60158,51.53152],[0.60229,51.53117],[0.60189,51.53098],[0.60173,51.53121],[0.60174,51.53097],[0.60145,51.53139],[0.60163,51.53098],[0.6009,51.53071],[0.60075,51.53116],[0.60129,51.53126],[0.60064,51.53141],[0.60063,51.531],[0.60015,51.53099],[0.60022,51.5313],[0.59987,51.53099],[0.59693,51.53193],[0.59658,51.53242],[0.59659,51.53127],[0.59581,51.53062],[0.59619,51.53052],[0.59599,51.53035],[0.59666,51.53018],[0.5974,51.52925],[0.59607,51.52907],[0.59508,51.52831],[0.59314,51.52885],[0.58782,51.52976],[0.58685,51.53037],[0.58482,51.53077],[0.58441,51.53019],[0.5839,51.53034],[0.58352,51.53102],[0.58277,51.53116],[0.58208,51.52998],[0.58128,51.53052],[0.58007,51.53088],[0.58068,51.53131],[0.57923,51.53184],[0.57275,51.53343],[0.57179,51.53507],[0.57306,51.53841],[0.57476,51.53749],[0.57641,51.53719],[0.57749,51.53722],[0.57763,51.5376],[0.57744,51.53729],[0.57673,51.53724],[0.57661,51.53766],[0.57703,51.53776],[0.57669,51.53773],[0.57635,51.53752],[0.57656,51.53725],[0.57516,51.53748],[0.5753,51.53767],[0.57474,51.53756],[0.57452,51.53784],[0.57516,51.53795],[0.57443,51.53784],[0.57468,51.53809],[0.57432,51.53792],[0.57446,51.53816],[0.57375,51.53836],[0.5741,51.53881]]],[[[0.5739,51.5387],[0.57364,51.53865],[0.57341,51.53898],[0.5739,51.5387]]]]}},{"type":"Feature","properties":{"id":"E01021505","name":"E01021505","parent":"E07000069","type":"LSOA","pop":1456,"r":150,"ff":76,"ffd":5219.8,"ffs":0.6032,"g":23,"co":2,"mo":0,"sa":0,"ic":0},"geometry":{"type":"Polygon","coordinates":[[[0.58031,51.53069],[0.58016,51.53044],[0.57958,51.53056],[0.57921,51.52983],[0.57858,51.52994],[0.57829,51.52958],[0.57702,51.52979],[0.57633,51.5294],[0.57528,51.52932],[0.57526,51.52894],[0.57544,51.52878],[0.5766,51.52918],[0.576,51.52841],[0.5764,51.52774],[0.57584,51.52721],[0.57527,51.52722],[0.57461,51.52776],[0.57421,51.52717],[0.57368,51.52739],[0.57403,51.52785],[0.57166,51.52824],[0.57326,51.53058],[0.57224,51.53078],[0.57217,51.53125],[0.57407,51.53257],[0.57276,51.53303],[0.57275,51.53343],[0.57923,51.53184],[0.58068,51.53131],[0.58007,51.53088],[0.58031,51.53069]]]}},{"type":"Feature","properties":{"id":"E01021506","name":"E01021506","parent":"E07000069","type":"LSOA","pop":1298,"r":149,"ff":75,"ffd":5778.1,"ffs":0.6,"g":23,"co":2,"mo":0,"sa":0,"ic":0},"geometry":{"type":"Polygon","coordinates":[[[0.5839,51.53034],[0.58441,51.53019],[0.58482,51.53077],[0.58685,51.53037],[0.58782,51.52976],[0.58582,51.52724],[0.58136,51.5277],[0.57964,51.52743],[0.57792,51.52649],[0.57686,51.52724],[0.5775,51.52761],[0.57778,51.52738],[0.57815,51.52752],[0.57831,51.528],[0.57899,51.52779],[0.57918,51.52834],[0.57767,51.52818],[0.57792,51.52898],[0.57751,51.52898],[0.57749,51.52928],[0.57544,51.52878],[0.57526,51.52894],[0.57528,51.52932],[0.57633,51.5294],[0.57702,51.52979],[0.57829,51.52958],[0.57858,51.52994],[0.57921,51.52983],[0.57958,51.53056],[0.58016,51.53044],[0.58031,51.53069],[0.58128,51.53052],[0.58208,51.52998],[0.58277,51.53116],[0.58352,51.53102],[0.5839,51.53034]]]}},{"type":"Feature","properties":{"id":"E01021507","name":"E01021507","parent":"E07000069","type":"LSOA","pop":1524,"r":143,"ff":71,"ffd":4658.8,"ffs":0.5868,"g":21,"co":2,"mo":0,"sa":0,"ic":0},"geometry":{"type":"Polygon","coordinates":[[[0.57166,51.52824],[0.57403,51.52785],[0.57368,51.52739],[0.57421,51.52717],[0.57265,51.52634],[0.57289,51.52603],[0.57149,51.52563],[0.57121,51.52586],[0.57082,51.52572],[0.57102,51.52545],[0.57018,51.52455],[0.56947,51.52509],[0.56908,51.52494],[0.56814,51.52401],[0.56725,51.52383],[0.56431,51.52467],[0.56394,51.52499],[0.56557,51.52621],[0.56954,51.52771],[0.5713,51.52898],[0.57148,51.53037],[0.57217,51.53125],[0.57224,51.53078],[0.57326,51.53058],[0.57166,51.52824]]]}},{"type":"Feature","properties":{"id":"E01021508","name":"E01021508","parent":"E07000069","type":"LSOA","pop":1305,"r":147,"ff":74,"ffd":5670.5,"ffs":0.5968,"g":22,"co":2,"mo":0,"sa":0,"ic":0},"geometry":{"type":"Polygon","coordinates":[[[0.57749,51.52928],[0.57751,51.52898],[0.57792,51.52898],[0.57767,51.52818],[0.57918,51.52834],[0.57899,51.52779],[0.57831,51.528],[0.57815,51.52752],[0.57778,51.52738],[0.5775,51.52761],[0.57686,51.52724],[0.57792,51.52649],[0.57417,51.52476],[0.57021,51.5233],[0.56995,51.52303],[0.56929,51.52382],[0.56814,51.52401],[0.56908,51.52494],[0.56947,51.52509],[0.57018,51.52455],[0.57102,51.52545],[0.57082,51.52572],[0.57121,51.52586],[0.57149,51.52563],[0.57289,51.52603],[0.57265,51.52634],[0.57421,51.52717],[0.57461,51.52776],[0.57527,51.52722],[0.57584,51.52721],[0.5764,51.52774],[0.576,51.52841],[0.5766,51.52918],[0.57749,51.52928]]]}},{"type":"Feature","properties":{"id":"E01021509","name":"E01021509","parent":"E07000069","type":"LSOA","pop":1386,"r":329,"ff":155,"ffd":11183.3,"ffs":0.5827,"g":61,"co":0,"mo":0,"sa":0,"ic":0},"geometry":{"type":"Polygon","coordinates":[[[0.59538,51.57266],[0.59463,51.57079],[0.59479,51.57002],[0.59378,51.56976],[0.59341,51.57016],[0.59134,51.57088],[0.59159,51.57151],[0.58986,51.57192],[0.58945,51.57139],[0.58744,51.57153],[0.58735,51.57077],[0.58705,51.57016],[0.58623,51.57021],[0.58631,51.57162],[0.58542,51.57183],[0.58544,51.57211],[0.58483,51.57213],[0.58774,51.57376],[0.59214,51.57659],[0.59066,51.57746],[0.59305,51.57748],[0.59332,51.57773],[0.59897,51.5772],[0.59538,51.57266]]]}},{"type":"Feature","properties":{"id":"E01021510","name":"E01021510","parent":"E07000069","type":"LSOA","pop":1476,"r":302,"ff":141,"ffd":9552.8,"ffs":0.5802,"g":57,"co":0,"mo":0,"sa":0,"ic":0},"geometry":{"type":"Polygon","coordinates":[[[0.58623,51.57021],[0.58705,51.57016],[0.58735,51.57077],[0.58744,51.57153],[0.58945,51.57139],[0.58986,51.57192],[0.59159,51.57151],[0.59134,51.57088],[0.59341,51.57016],[0.59378,51.56976],[0.59479,51.57002],[0.59624,51.5679],[0.59665,51.56627],[0.59544,51.56643],[0.59449,51.56716],[0.59113,51.56687],[0.59063,51.56701],[0.59159,51.56823],[0.59302,51.56879],[0.59286,51.56912],[0.58923,51.56924],[0.58863,51.56901],[0.58835,51.56864],[0.58647,51.56906],[0.5864,51.56814],[0.58458,51.56811],[0.58322,51.56743],[0.58221,51.56821],[0.58259,51.56971],[0.58446,51.57196],[0.58544,51.57211],[0.58542,51.57183],[0.58631,51.57162],[0.58623,51.57021]]]}},{"type":"Feature","properties":{"id":"E01021511","name":"E01021511","parent":"E07000069","type":"LSOA","pop":2085,"r":308,"ff":146,"ffd":7002.4,"ffs":0.5771,"g":53,"co":0,"mo":0,"sa":0,"ic":0},"geometry":{"type":"Polygon","coordinates":[[[0.59302,51.56879],[0.59159,51.56823],[0.59063,51.56701],[0.59113,51.56687],[0.59449,51.56716],[0.59544,51.56643],[0.59665,51.56627],[0.59665,51.56572],[0.59712,51.56439],[0.59438,51.5638],[0.59432,51.56226],[0.59442,51.56087],[0.59664,51.5607],[0.59647,51.55995],[0.59688,51.55978],[0.59648,51.5595],[0.59559,51.55993],[0.58728,51.56082],[0.58393,51.56143],[0.58485,51.56444],[0.58443,51.56659],[0.58458,51.56811],[0.5864,51.56814],[0.58647,51.56906],[0.58835,51.56864],[0.58863,51.56901],[0.58923,51.56924],[0.59286,51.56912],[0.59302,51.56879]]]}},{"type":"Feature","properties":{"id":"E01021512","name":"E01021512","parent":"E07000069","type":"LSOA","pop":1493,"r":298,"ff":147,"ffd":9845.9,"ffs":0.5927,"g":48,"co":0,"mo":0,"sa":0,"ic":0},"geometry":{"type":"Polygon","coordinates":[[[0.58263,51.56784],[0.58322,51.56743],[0.58458,51.56811],[0.58443,51.56659],[0.58485,51.56444],[0.58393,51.56143],[0.57713,51.56241],[0.57722,51.5639],[0.57669,51.56833],[0.57701,51.56851],[0.58147,51.56883],[0.58259,51.56971],[0.58221,51.56821],[0.58263,51.56784]]]}},{"type":"Feature","properties":{"id":"E01021513","name":"E01021513","parent":"E07000069","type":"LSOA","pop":1656,"r":322,"ff":158,"ffd":9541.1,"ffs":0.61,"g":61,"co":0,"mo":0,"sa":0,"ic":0},"geometry":{"type":"Polygon","coordinates":[[[0.55614,51.57375],[0.55663,51.5737],[0.55669,51.57396],[0.55757,51.57412],[0.559,51.57379],[0.55838,51.57121],[0.55562,51.56997],[0.55476,51.5694],[0.55071,51.56939],[0.55,51.57007],[0.54968,51.56962],[0.54926,51.56971],[0.54917,51.5729],[0.55383,51.57257],[0.55325,51.57402],[0.55403,51.57395],[0.55399,51.57362],[0.55444,51.57356],[0.55531,51.57486],[0.55637,51.57469],[0.55614,51.57375]]]}},{"type":"Feature","properties":{"id":"E01021514","name":"E01021514","parent":"E07000069","type":"LSOA","pop":1565,"r":301,"ff":148,"ffd":9456.9,"ffs":0.6141,"g":58,"co":0,"mo":0,"sa":0,"ic":0},"geometry":{"type":"Polygon","coordinates":[[[0.55531,51.57486],[0.55444,51.57356],[0.55399,51.57362],[0.55403,51.57395],[0.55276,51.57409],[0.55274,51.57377],[0.55224,51.57296],[0.55111,51.573],[0.55051,51.57357],[0.54955,51.57372],[0.5495,51.57322],[0.54902,51.57302],[0.54821,51.57477],[0.54814,51.57587],[0.54998,51.57694],[0.55037,51.57734],[0.55486,51.57693],[0.55477,51.57663],[0.55566,51.57623],[0.55505,51.57604],[0.55485,51.57518],[0.55531,51.57486]]]}},{"type":"Feature","properties":{"id":"E01021515","name":"E01021515","parent":"E07000069","type":"LSOA","pop":1351,"r":299,"ff":148,"ffd":10954.8,"ffs":0.6167,"g":57,"co":0,"mo":0,"sa":0,"ic":0},"geometry":{"type":"Polygon","coordinates":[[[0.55875,51.57874],[0.55881,51.57685],[0.56244,51.57657],[0.56227,51.57554],[0.56176,51.57559],[0.56188,51.57601],[0.56089,51.5761],[0.56057,51.57573],[0.55951,51.57591],[0.559,51.57379],[0.55757,51.57412],[0.55669,51.57396],[0.55663,51.5737],[0.55614,51.57375],[0.55637,51.57469],[0.55531,51.57486],[0.55485,51.57518],[0.55505,51.57604],[0.55566,51.57623],[0.55477,51.57663],[0.55486,51.57693],[0.55037,51.57734],[0.54998,51.57694],[0.5497,51.57746],[0.55761,51.58062],[0.55828,51.58046],[0.55806,51.57884],[0.55875,51.57874]]]}},{"type":"Feature","properties":{"id":"E01021516","name":"E01021516","parent":"E07000069","type":"LSOA","pop":1326,"r":324,"ff":160,"ffd":12066.4,"ffs":0.6226,"g":65,"co":0,"mo":0,"sa":0,"ic":0},"geometry":{"type":"Polygon","coordinates":[[[0.54832,51.5745],[0.54902,51.57302],[0.5495,51.57322],[0.54955,51.57372],[0.55051,51.57357],[0.55111,51.573],[0.55224,51.57296],[0.55274,51.57377],[0.55276,51.57409],[0.55325,51.57402],[0.55383,51.57257],[0.54917,51.5729],[0.54926,51.56971],[0.54968,51.56962],[0.55,51.57007],[0.55071,51.56939],[0.5505,51.56739],[0.54395,51.56729],[0.54265,51.56748],[0.54218,51.5684],[0.54282,51.57157],[0.54353,51.57282],[0.54606,51.57554],[0.5497,51.57746],[0.54998,51.57694],[0.54814,51.57587],[0.54832,51.5745]]]}},{"type":"Feature","properties":{"id":"E01021517","name":"E01021517","parent":"E07000069","type":"LSOA","pop":1717,"r":348,"ff":153,"ffd":8910.9,"ffs":0.5312,"g":58,"co":0,"mo":0,"sa":0,"ic":0},"geometry":{"type":"Polygon","coordinates":[[[0.62433,51.56016],[0.62597,51.55977],[0.62919,51.55972],[0.63169,51.55765],[0.62936,51.55639],[0.62849,51.55541],[0.62702,51.5554],[0.62558,51.55362],[0.62606,51.55315],[0.62718,51.55115],[0.62514,51.54921],[0.62215,51.54993],[0.62245,51.55042],[0.62186,51.55054],[0.62228,51.55085],[0.62181,51.55096],[0.62224,51.55155],[0.6196,51.55186],[0.61976,51.5527],[0.61823,51.55383],[0.61836,51.55419],[0.61914,51.55418],[0.61926,51.55385],[0.62019,51.55408],[0.62042,51.55481],[0.62043,51.55519],[0.61845,51.55496],[0.61842,51.5556],[0.62122,51.55551],[0.62164,51.55963],[0.61778,51.55785],[0.61643,51.55956],[0.61878,51.56059],[0.62215,51.56087],[0.62329,51.5614],[0.62433,51.56016]]]}},{"type":"Feature","properties":{"id":"E01021518","name":"E01021518","parent":"E07000069","type":"LSOA","pop":2267,"r":332,"ff":151,"ffd":6660.8,"ffs":0.5412,"g":51,"co":0,"mo":0,"sa":0,"ic":0},"geometry":{"type":"MultiPolygon","coordinates":[[[[0.61559,51.53246],[0.61402,51.53244],[0.61251,51.53295],[0.61559,51.53246]]],[[[0.60842,51.5321],[0.60876,51.53182],[0.60882,51.53216],[0.61392,51.53087],[0.61263,51.53024],[0.61059,51.53025],[0.61035,51.53045],[0.6111,51.53085],[0.60936,51.53063],[0.60763,51.53173],[0.60785,51.53192],[0.60735,51.53185],[0.60669,51.53287],[0.60492,51.53422],[0.60753,51.5334],[0.60878,51.5323],[0.60842,51.5321]]],[[[0.61214,51.53332],[0.61296,51.53306],[0.61159,51.53316],[0.60893,51.5343],[0.61214,51.53332]]],[[[0.62428,51.53643],[0.62743,51.53458],[0.62792,51.53385],[0.6267,51.53213],[0.62428,51.53222],[0.62465,51.53263],[0.61928,51.5327],[0.61719,51.53338],[0.6155,51.53315],[0.61171,51.53388],[0.60903,51.53483],[0.61414,51.5349],[0.6172,51.53562],[0.62122,51.53578],[0.62428,51.53643]]],[[[0.62436,51.53674],[0.62339,51.53656],[0.62267,51.53699],[0.6235,51.53683],[0.62436,51.53674]]],[[[0.62676,51.5383],[0.62696,51.53817],[0.62591,51.53815],[0.62676,51.5383]]],[[[0.60617,51.55432],[0.61039,51.55384],[0.6107,51.5536],[0.61132,51.55402],[0.61193,51.55365],[0.61213,51.55386],[0.61372,51.55373],[0.61586,51.5532],[0.61525,51.55283],[0.61516,51.55228],[0.61595,51.55186],[0.6158,51.55144],[0.61841,51.551],[0.61893,51.55169],[0.61816,51.55208],[0.61909,51.55306],[0.61976,51.5527],[0.6196,51.55186],[0.62224,51.55155],[0.62181,51.55096],[0.62228,51.55085],[0.62186,51.55054],[0.62245,51.55042],[0.62215,51.54993],[0.62514,51.54921],[0.62415,51.54759],[0.62479,51.54379],[0.62391,51.54208],[0.62321,51.54212],[0.6232,51.54133],[0.62376,51.54126],[0.62298,51.54092],[0.62296,51.54047],[0.62426,51.54061],[0.62474,51.54041],[0.624,51.53903],[0.62433,51.53856],[0.62543,51.53807],[0.62702,51.53812],[0.62645,51.53763],[0.62429,51.53732],[0.62629,51.53754],[0.62529,51.53706],[0.62336,51.53721],[0.62525,51.53699],[0.62442,51.53678],[0.62264,51.53702],[0.62188,51.5374],[0.62193,51.53754],[0.6217,51.5379],[0.62137,51.53786],[0.62179,51.53754],[0.62158,51.53766],[0.62049,51.53773],[0.62158,51.53763],[0.62188,51.5373],[0.62148,51.53745],[0.6212,51.53749],[0.62035,51.53728],[0.62037,51.53695],[0.62112,51.53744],[0.62174,51.53726],[0.62121,51.53737],[0.62084,51.53718],[0.62123,51.53734],[0.62173,51.53712],[0.62057,51.53641],[0.62112,51.53651],[0.62176,51.5371],[0.62178,51.53724],[0.62235,51.53712],[0.6222,51.53667],[0.62248,51.537],[0.62328,51.53645],[0.62235,51.53617],[0.62182,51.53644],[0.62227,51.53615],[0.62154,51.53597],[0.62035,51.53587],[0.62017,51.5364],[0.61924,51.53651],[0.61797,51.53636],[0.62008,51.53638],[0.62025,51.53583],[0.61793,51.53577],[0.61757,51.536],[0.61727,51.53595],[0.61772,51.53575],[0.61432,51.53539],[0.61329,51.53498],[0.61288,51.53514],[0.61376,51.53529],[0.61075,51.53517],[0.61281,51.53515],[0.61308,51.53494],[0.60844,51.53494],[0.60768,51.53513],[0.60869,51.53516],[0.60582,51.53584],[0.60542,51.5355],[0.60484,51.53556],[0.60511,51.53606],[0.6042,51.53605],[0.60435,51.53669],[0.60402,51.53612],[0.60387,51.5365],[0.60381,51.53617],[0.60244,51.53657],[0.60334,51.53653],[0.60263,51.53668],[0.60416,51.53699],[0.6023,51.53672],[0.60229,51.53659],[0.60033,51.53725],[0.60074,51.53695],[0.59987,51.53715],[0.60023,51.53733],[0.59974,51.53765],[0.59973,51.53723],[0.59908,51.53729],[0.59942,51.53715],[0.5917,51.53829],[0.60495,51.54721],[0.60631,51.54757],[0.60597,51.54812],[0.60549,51.54803],[0.60511,51.54839],[0.60264,51.54898],[0.60153,51.55002],[0.60475,51.55135],[0.6089,51.5508],[0.60952,51.55112],[0.60895,51.55164],[0.60928,51.55232],[0.60904,51.55261],[0.60716,51.55286],[0.60667,51.55285],[0.60662,51.55255],[0.60592,51.5527],[0.60608,51.55319],[0.60466,51.55409],[0.60412,51.55346],[0.60361,51.5534],[0.60144,51.55383],[0.60154,51.55418],[0.60312,51.55473],[0.60617,51.55432]]]]}},{"type":"Feature","properties":{"id":"E01021519","name":"E01021519","parent":"E07000069","type":"LSOA","pop":1534,"r":342,"ff":154,"ffd":10039.1,"ffs":0.5385,"g":54,"co":0,"mo":0,"sa":0,"ic":0},"geometry":{"type":"Polygon","coordinates":[[[0.62164,51.55963],[0.62122,51.55551],[0.61842,51.5556],[0.61845,51.55496],[0.62043,51.55519],[0.62019,51.55408],[0.61926,51.55385],[0.61914,51.55418],[0.61836,51.55419],[0.61823,51.55383],[0.61909,51.55306],[0.61816,51.55208],[0.61893,51.55169],[0.61841,51.551],[0.6158,51.55144],[0.61595,51.55186],[0.61516,51.55228],[0.61525,51.55283],[0.61586,51.5532],[0.61372,51.55373],[0.61213,51.55386],[0.61193,51.55365],[0.61132,51.55402],[0.6107,51.5536],[0.61039,51.55384],[0.61143,51.55737],[0.61226,51.55783],[0.61643,51.55956],[0.61778,51.55785],[0.62164,51.55963]]]}},{"type":"Feature","properties":{"id":"E01021520","name":"E01021520","parent":"E07000069","type":"LSOA","pop":1566,"r":319,"ff":146,"ffd":9323.1,"ffs":0.5509,"g":52,"co":0,"mo":0,"sa":0,"ic":0},"geometry":{"type":"MultiPolygon","coordinates":[[[[0.58771,51.53884],[0.58833,51.53867],[0.58771,51.53878],[0.58771,51.53884]]],[[[0.60075,51.5568],[0.60402,51.55517],[0.61102,51.5561],[0.61039,51.55384],[0.60312,51.55473],[0.60154,51.55418],[0.60144,51.55383],[0.60361,51.5534],[0.60412,51.55346],[0.60466,51.55409],[0.60608,51.55319],[0.60592,51.5527],[0.60662,51.55255],[0.60667,51.55285],[0.60716,51.55286],[0.60904,51.55261],[0.60928,51.55232],[0.60895,51.55164],[0.60952,51.55112],[0.6089,51.5508],[0.60475,51.55135],[0.60153,51.55002],[0.60264,51.54898],[0.60511,51.54839],[0.60549,51.54803],[0.60597,51.54812],[0.60631,51.54757],[0.60495,51.54721],[0.5917,51.53829],[0.58771,51.53888],[0.58792,51.54487],[0.58992,51.54664],[0.58973,51.54795],[0.5938,51.55163],[0.59465,51.5535],[0.59745,51.55561],[0.59921,51.55613],[0.59979,51.55729],[0.60026,51.5573],[0.60075,51.5568]]]]}},{"type":"Feature","properties":{"id":"E01021521","name":"E01021521","parent":"E07000069","type":"LSOA","pop":1409,"r":268,"ff":132,"ffd":9368.3,"ffs":0.5973,"g":45,"co":0,"mo":0,"sa":0,"ic":0},"geometry":{"type":"Polygon","coordinates":[[[0.54965,51.55486],[0.54956,51.55276],[0.54974,51.55237],[0.55058,51.55233],[0.55074,51.55267],[0.55131,51.55254],[0.5513,51.5528],[0.55506,51.5528],[0.55553,51.55145],[0.55687,51.55132],[0.55619,51.54948],[0.5543,51.54995],[0.5543,51.55024],[0.55348,51.55032],[0.55342,51.55069],[0.5531,51.55036],[0.55255,51.55047],[0.55228,51.55023],[0.55265,51.55012],[0.55231,51.54852],[0.55131,51.54897],[0.55058,51.54614],[0.54734,51.54768],[0.54511,51.54769],[0.54432,51.54714],[0.54433,51.54629],[0.54225,51.54847],[0.54172,51.54849],[0.53886,51.55239],[0.54274,51.55397],[0.54556,51.55437],[0.54625,51.55484],[0.54706,51.55479],[0.5472,51.55515],[0.54965,51.55486]]]}},{"type":"Feature","properties":{"id":"E01021522","name":"E01021522","parent":"E07000069","type":"LSOA","pop":1886,"r":273,"ff":133,"ffd":7052.0,"ffs":0.5833,"g":43,"co":0,"mo":0,"sa":0,"ic":0},"geometry":{"type":"MultiPolygon","coordinates":[[[[0.55276,51.54527],[0.55303,51.54521],[0.55275,51.54527],[0.55276,51.54527]]],[[[0.55983,51.55643],[0.55972,51.5539],[0.56142,51.5526],[0.56283,51.55009],[0.56371,51.54779],[0.56369,51.54571],[0.56217,51.54549],[0.56114,51.54411],[0.56529,51.54224],[0.56534,51.54205],[0.5639,51.54242],[0.55959,51.54466],[0.55533,51.54503],[0.55058,51.54614],[0.55131,51.54897],[0.55231,51.54852],[0.55265,51.55012],[0.55228,51.55023],[0.55255,51.55047],[0.5531,51.55036],[0.55342,51.55069],[0.55348,51.55032],[0.5543,51.55024],[0.5543,51.54995],[0.55619,51.54948],[0.55687,51.55132],[0.55553,51.55145],[0.55506,51.5528],[0.55191,51.5528],[0.55227,51.55421],[0.55725,51.5533],[0.55794,51.55416],[0.5572,51.55434],[0.5568,51.55387],[0.55498,51.55444],[0.55531,51.55484],[0.55603,51.55501],[0.55545,51.55544],[0.55627,51.55602],[0.55905,51.55609],[0.55932,51.55649],[0.55983,51.55643]]]]}},{"type":"Feature","properties":{"id":"E01021523","name":"E01021523","parent":"E07000069","type":"LSOA","pop":1408,"r":300,"ff":146,"ffd":10369.3,"ffs":0.6058,"g":57,"co":0,"mo":0,"sa":0,"ic":0},"geometry":{"type":"Polygon","coordinates":[[[0.55076,51.55981],[0.55076,51.55785],[0.55131,51.55784],[0.55164,51.5582],[0.55409,51.55835],[0.55409,51.55816],[0.55536,51.55813],[0.55552,51.55767],[0.55522,51.55723],[0.55584,51.55703],[0.55578,51.55673],[0.55531,51.55676],[0.555,51.55636],[0.55155,51.55642],[0.55111,51.55537],[0.55064,51.55495],[0.55006,51.55504],[0.55018,51.55236],[0.54974,51.55237],[0.54956,51.55276],[0.54965,51.55486],[0.5472,51.55515],[0.54706,51.55479],[0.54625,51.55484],[0.54556,51.55437],[0.54274,51.55397],[0.53886,51.55239],[0.53806,51.55433],[0.5386,51.55414],[0.53857,51.55446],[0.53799,51.55466],[0.53866,51.55543],[0.53815,51.55539],[0.53826,51.55604],[0.53974,51.55888],[0.53969,51.56008],[0.5439,51.56007],[0.54644,51.55975],[0.54654,51.56062],[0.55003,51.5606],[0.55076,51.55981]]]}},{"type":"Feature","properties":{"id":"E01021524","name":"E01021524","parent":"E07000069","type":"LSOA","pop":1614,"r":287,"ff":139,"ffd":8612.1,"ffs":0.594,"g":51,"co":0,"mo":0,"sa":0,"ic":0},"geometry":{"type":"Polygon","coordinates":[[[0.55922,51.5579],[0.55993,51.55737],[0.56035,51.55735],[0.56042,51.55767],[0.56348,51.55763],[0.56476,51.5571],[0.56425,51.55495],[0.56063,51.55328],[0.55972,51.5539],[0.55983,51.55643],[0.55932,51.55649],[0.55905,51.55609],[0.55627,51.55602],[0.55545,51.55544],[0.55603,51.55501],[0.55531,51.55484],[0.55498,51.55444],[0.5568,51.55387],[0.5572,51.55434],[0.55794,51.55416],[0.55725,51.5533],[0.55227,51.55421],[0.55191,51.5528],[0.5513,51.5528],[0.55131,51.55254],[0.55074,51.55267],[0.55058,51.55233],[0.55018,51.55236],[0.55006,51.55504],[0.55064,51.55495],[0.55111,51.55537],[0.55155,51.55642],[0.555,51.55636],[0.55531,51.55676],[0.55578,51.55673],[0.55584,51.55703],[0.55522,51.55723],[0.55552,51.55767],[0.5565,51.5576],[0.55675,51.55807],[0.55922,51.5579]]]}},{"type":"Feature","properties":{"id":"E01021525","name":"E01021525","parent":"E07000069","type":"LSOA","pop":1753,"r":298,"ff":147,"ffd":8385.6,"ffs":0.5927,"g":48,"co":0,"mo":0,"sa":0,"ic":0},"geometry":{"type":"Polygon","coordinates":[[[0.55982,51.57004],[0.56054,51.56947],[0.56134,51.56955],[0.56045,51.56663],[0.5505,51.56739],[0.55071,51.56939],[0.55476,51.5694],[0.55562,51.56997],[0.55838,51.57121],[0.55887,51.57347],[0.55941,51.57342],[0.55966,51.57282],[0.55956,51.57232],[0.56041,51.57226],[0.56034,51.57154],[0.56107,51.57137],[0.56048,51.57052],[0.55982,51.57004]]]}},{"type":"Feature","properties":{"id":"E01021526","name":"E01021526","parent":"E07000069","type":"LSOA","pop":1567,"r":301,"ff":147,"ffd":9381.0,"ffs":0.6,"g":54,"co":0,"mo":0,"sa":0,"ic":0},"geometry":{"type":"Polygon","coordinates":[[[0.57168,51.57266],[0.57261,51.57164],[0.57511,51.57181],[0.57726,51.57003],[0.57668,51.56876],[0.57725,51.56851],[0.57669,51.56833],[0.57722,51.5639],[0.57713,51.56241],[0.57505,51.56283],[0.57295,51.56362],[0.56948,51.56407],[0.56729,51.56469],[0.56352,51.56615],[0.56361,51.56647],[0.56505,51.56671],[0.56585,51.56903],[0.56714,51.56884],[0.56787,51.56939],[0.56913,51.56951],[0.56996,51.56876],[0.57029,51.56944],[0.56984,51.57041],[0.56895,51.57022],[0.56773,51.57076],[0.56856,51.572],[0.56931,51.572],[0.57009,51.57248],[0.5705,51.57359],[0.57187,51.57328],[0.57168,51.57266]]]}},{"type":"Feature","properties":{"id":"E01021527","name":"E01021527","parent":"E07000069","type":"LSOA","pop":1691,"r":320,"ff":155,"ffd":9166.2,"ffs":0.6008,"g":60,"co":0,"mo":0,"sa":0,"ic":0},"geometry":{"type":"Polygon","coordinates":[[[0.56188,51.57601],[0.56176,51.57559],[0.56227,51.57554],[0.5615,51.57179],[0.56788,51.5711],[0.56773,51.57076],[0.56895,51.57022],[0.56984,51.57041],[0.57029,51.56944],[0.56996,51.56876],[0.56913,51.56951],[0.56787,51.56939],[0.56714,51.56884],[0.56585,51.56903],[0.56505,51.56671],[0.56361,51.56647],[0.56352,51.56615],[0.56045,51.56663],[0.56134,51.56955],[0.56054,51.56947],[0.55982,51.57004],[0.56048,51.57052],[0.56107,51.57137],[0.56034,51.57154],[0.56041,51.57226],[0.55956,51.57232],[0.55966,51.57282],[0.55941,51.57342],[0.55887,51.57347],[0.55951,51.57591],[0.56057,51.57573],[0.56089,51.5761],[0.56188,51.57601]]]}},{"type":"Feature","properties":{"id":"E01021528","name":"E01021528","parent":"E07000069","type":"LSOA","pop":1601,"r":282,"ff":133,"ffd":8307.3,"ffs":0.5783,"g":50,"co":0,"mo":0,"sa":0,"ic":0},"geometry":{"type":"Polygon","coordinates":[[[0.5701,51.58768],[0.58269,51.58295],[0.58689,51.58],[0.58838,51.5795],[0.58899,51.57878],[0.59009,51.5783],[0.59168,51.57785],[0.59332,51.57773],[0.59305,51.57748],[0.59066,51.57746],[0.59214,51.57659],[0.58774,51.57376],[0.58446,51.57196],[0.58259,51.56971],[0.58147,51.56883],[0.57725,51.56851],[0.57668,51.56876],[0.57726,51.57003],[0.57511,51.57181],[0.57261,51.57164],[0.57168,51.57266],[0.57187,51.57328],[0.5705,51.57359],[0.57009,51.57248],[0.56931,51.572],[0.56856,51.572],[0.56788,51.5711],[0.5615,51.57179],[0.56244,51.57657],[0.55881,51.57685],[0.55875,51.57874],[0.55806,51.57884],[0.55828,51.58046],[0.55761,51.58062],[0.56466,51.58387],[0.56704,51.58551],[0.56802,51.58667],[0.56843,51.58658],[0.56879,51.58732],[0.5678,51.58725],[0.56625,51.58778],[0.56592,51.58825],[0.56775,51.58819],[0.5701,51.58768]]]}},{"type":"Feature","properties":{"id":"E01021529","name":"E01021529","parent":"E07000069","type":"LSOA","pop":1508,"r":321,"ff":145,"ffd":9615.4,"ffs":0.5513,"g":56,"co":0,"mo":0,"sa":0,"ic":0},"geometry":{"type":"Polygon","coordinates":[[[0.59667,51.56247],[0.59703,51.56167],[0.59966,51.56183],[0.60002,51.56197],[0.59981,51.56226],[0.60088,51.56238],[0.6002,51.55997],[0.60341,51.55885],[0.60413,51.55933],[0.60514,51.55895],[0.60481,51.55709],[0.60229,51.55731],[0.60075,51.5568],[0.60026,51.5573],[0.59979,51.55729],[0.59949,51.55778],[0.59648,51.5595],[0.59688,51.55978],[0.59647,51.55995],[0.59664,51.5607],[0.59442,51.56087],[0.59438,51.5638],[0.59712,51.56439],[0.59691,51.56406],[0.5976,51.56329],[0.59607,51.56258],[0.59667,51.56247]]]}},{"type":"Feature","properties":{"id":"E01021530","name":"E01021530","parent":"E07000069","type":"LSOA","pop":1520,"r":315,"ff":147,"ffd":9671.1,"ffs":0.5632,"g":53,"co":0,"mo":0,"sa":0,"ic":0},"geometry":{"type":"Polygon","coordinates":[[[0.61203,51.56287],[0.61172,51.56202],[0.61184,51.55972],[0.61303,51.55955],[0.613,51.55893],[0.61361,51.55887],[0.61308,51.55837],[0.61227,51.55839],[0.61226,51.55783],[0.61143,51.55737],[0.61102,51.5561],[0.60402,51.55517],[0.60075,51.5568],[0.60229,51.55731],[0.60481,51.55709],[0.60514,51.55895],[0.60413,51.55933],[0.60341,51.55885],[0.6002,51.55997],[0.60088,51.56238],[0.59981,51.56226],[0.59939,51.56275],[0.59981,51.56314],[0.59895,51.56388],[0.59887,51.56569],[0.6037,51.56613],[0.61211,51.56327],[0.61203,51.56287]]]}},{"type":"Feature","properties":{"id":"E01021531","name":"E01021531","parent":"E07000069","type":"LSOA","pop":1580,"r":332,"ff":151,"ffd":9557.0,"ffs":0.5531,"g":57,"co":0,"mo":0,"sa":0,"ic":0},"geometry":{"type":"Polygon","coordinates":[[[0.61397,51.57298],[0.61267,51.57022],[0.61157,51.57047],[0.61136,51.56956],[0.61017,51.56973],[0.61005,51.56941],[0.61084,51.56909],[0.61069,51.56781],[0.61151,51.56771],[0.61213,51.56881],[0.61266,51.56893],[0.61332,51.56739],[0.61151,51.56646],[0.61211,51.56563],[0.613,51.56615],[0.61397,51.5652],[0.61688,51.56422],[0.61728,51.564],[0.61718,51.56376],[0.61356,51.56447],[0.61332,51.56346],[0.61425,51.56341],[0.61419,51.56307],[0.61203,51.56287],[0.61211,51.56327],[0.6037,51.56613],[0.59887,51.56569],[0.59895,51.56388],[0.59981,51.56314],[0.59939,51.56275],[0.60002,51.56197],[0.59703,51.56167],[0.59667,51.56247],[0.59607,51.56258],[0.5976,51.56329],[0.59691,51.56406],[0.59712,51.56439],[0.59665,51.56572],[0.59624,51.5679],[0.59479,51.57002],[0.59463,51.57079],[0.59538,51.57266],[0.59883,51.57691],[0.60918,51.57599],[0.61401,51.57521],[0.6134,51.57446],[0.61332,51.57314],[0.61397,51.57298]]]}},{"type":"Feature","properties":{"id":"E01021532","name":"E01021532","parent":"E07000069","type":"LSOA","pop":1343,"r":325,"ff":144,"ffd":10722.3,"ffs":0.5496,"g":62,"co":0,"mo":0,"sa":0,"ic":0},"geometry":{"type":"Polygon","coordinates":[[[0.63159,51.56993],[0.63412,51.56948],[0.63518,51.56803],[0.63311,51.56548],[0.63439,51.56526],[0.63428,51.56476],[0.63478,51.56338],[0.63465,51.56196],[0.6355,51.5606],[0.63314,51.55909],[0.63169,51.55765],[0.62919,51.55972],[0.62597,51.55977],[0.62433,51.56016],[0.62329,51.5614],[0.62215,51.56087],[0.61878,51.56059],[0.61226,51.55783],[0.61227,51.55839],[0.61308,51.55837],[0.61361,51.55887],[0.613,51.55893],[0.61303,51.55955],[0.61184,51.55972],[0.61172,51.56202],[0.61203,51.56287],[0.61419,51.56307],[0.61425,51.56341],[0.61332,51.56346],[0.61356,51.56447],[0.61718,51.56376],[0.61728,51.564],[0.61397,51.5652],[0.613,51.56615],[0.61211,51.56563],[0.61151,51.56646],[0.61332,51.56739],[0.61266,51.56893],[0.61213,51.56881],[0.61151,51.56771],[0.61069,51.56781],[0.61084,51.56909],[0.61005,51.56941],[0.61017,51.56973],[0.61136,51.56956],[0.61157,51.57047],[0.61267,51.57022],[0.61397,51.57298],[0.61332,51.57314],[0.6134,51.57446],[0.61401,51.57521],[0.63208,51.57053],[0.63159,51.56993]]]}}]}