{"type":"FeatureCollection","features":[{"type":"Feature","properties":{"id":"E01025399","name":"E01025399","parent":"E07000126","type":"LSOA","pop":1455,"r":393,"ff":119,"ffd":8178.7,"ffs":0.4146,"g":104,"co":0,"mo":0,"sa":0,"ic":0},"geometry":{"type":"Polygon","coordinates":[[[-2.65966,53.73516],[-2.65888,53.73441],[-2.6562,53.73501],[-2.65488,53.73394],[-2.65437,53.73408],[-2.6538,53.73359],[-2.65777,53.73197],[-2.65692,53.732],[-2.65667,53.73125],[-2.65603,53.73163],[-2.65509,53.73069],[-2.65584,53.73042],[-2.65618,53.73065],[-2.65729,53.73023],[-2.65759,53.72903],[-2.65807,53.72888],[-2.65783,53.72851],[-2.65851,53.72864],[-2.6593,53.72809],[-2.65836,53.7276],[-2.65963,53.72742],[-2.66006,53.72809],[-2.66057,53.72806],[-2.66286,53.73384],[-2.66125,53.73399],[-2.66149,53.73468],[-2.65966,53.73516]]]}},{"type":"Feature","properties":{"id":"E01025400","name":"E01025400","parent":"E07000126","type":"LSOA","pop":2628,"r":385,"ff":121,"ffd":4604.3,"ffs":0.4306,"g":102,"co":0,"mo":0,"sa":0,"ic":0},"geometry":{"type":"Polygon","coordinates":[[[-2.6405,53.72994],[-2.63638,53.72772],[-2.63362,53.72573],[-2.62415,53.72661],[-2.6237,53.72483],[-2.6229,53.72388],[-2.6255,53.7227],[-2.62788,53.72066],[-2.6281,53.71995],[-2.62892,53.71953],[-2.62969,53.71841],[-2.62975,53.71729],[-2.63076,53.71737],[-2.63253,53.71805],[-2.63545,53.71813],[-2.63972,53.7178],[-2.64721,53.7161],[-2.64885,53.71557],[-2.65009,53.71628],[-2.64866,53.71692],[-2.64571,53.71943],[-2.64385,53.7205],[-2.64487,53.72201],[-2.64651,53.72302],[-2.64728,53.72276],[-2.64845,53.72487],[-2.64981,53.72621],[-2.65722,53.72666],[-2.65714,53.72744],[-2.65618,53.72759],[-2.65562,53.72856],[-2.65649,53.73017],[-2.65509,53.73069],[-2.65603,53.73163],[-2.65667,53.73125],[-2.65692,53.732],[-2.65777,53.73197],[-2.6538,53.73359],[-2.65036,53.73103],[-2.65022,53.72999],[-2.64964,53.72937],[-2.64829,53.73147],[-2.64803,53.73387],[-2.6405,53.72994]]]}},{"type":"Feature","properties":{"id":"E01025401","name":"E01025401","parent":"E07000126","type":"LSOA","pop":1853,"r":388,"ff":119,"ffd":6422.0,"ffs":0.4205,"g":103,"co":0,"mo":0,"sa":0,"ic":0},"geometry":{"type":"Polygon","coordinates":[[[-2.65562,53.72856],[-2.65618,53.72759],[-2.65714,53.72744],[-2.65722,53.72666],[-2.64981,53.72621],[-2.64845,53.72487],[-2.64728,53.72276],[-2.64651,53.72302],[-2.64487,53.72201],[-2.64385,53.7205],[-2.64571,53.71943],[-2.64866,53.71692],[-2.65009,53.71628],[-2.64885,53.71557],[-2.64835,53.71568],[-2.64835,53.71531],[-2.64694,53.71442],[-2.64772,53.7143],[-2.65139,53.71207],[-2.65287,53.71202],[-2.65362,53.71231],[-2.65445,53.71214],[-2.65708,53.71303],[-2.65674,53.71331],[-2.65593,53.71327],[-2.65553,53.71376],[-2.65639,53.71393],[-2.65556,53.71458],[-2.65628,53.71486],[-2.65596,53.71567],[-2.65677,53.71625],[-2.65672,53.71701],[-2.65726,53.71736],[-2.65817,53.71698],[-2.65847,53.71722],[-2.65805,53.71759],[-2.65843,53.71772],[-2.65868,53.71811],[-2.65925,53.71805],[-2.65916,53.71833],[-2.66058,53.71874],[-2.66476,53.72061],[-2.66376,53.72128],[-2.66288,53.72162],[-2.66167,53.7232],[-2.66101,53.72466],[-2.66047,53.72685],[-2.66057,53.72806],[-2.66006,53.72809],[-2.65963,53.72742],[-2.65836,53.7276],[-2.6593,53.72809],[-2.65851,53.72864],[-2.65783,53.72851],[-2.65807,53.72888],[-2.65759,53.72903],[-2.65729,53.73023],[-2.65618,53.73065],[-2.65584,53.73042],[-2.65649,53.73017],[-2.65562,53.72856]]]}},{"type":"Feature","properties":{"id":"E01025402","name":"E01025402","parent":"E07000126","type":"LSOA","pop":1972,"r":396,"ff":121,"ffd":6135.9,"ffs":0.4201,"g":106,"co":0,"mo":0,"sa":0,"ic":0},"geometry":{"type":"Polygon","coordinates":[[[-2.65068,53.74302],[-2.65094,53.74173],[-2.65079,53.7397],[-2.64986,53.73763],[-2.64865,53.73581],[-2.64803,53.73387],[-2.64829,53.73147],[-2.64964,53.72937],[-2.65022,53.72999],[-2.65036,53.73103],[-2.65437,53.73408],[-2.65488,53.73394],[-2.6562,53.73501],[-2.65888,53.73441],[-2.65966,53.73516],[-2.66149,53.73468],[-2.66125,53.73399],[-2.66402,53.73383],[-2.66361,53.73542],[-2.66255,53.73577],[-2.66255,53.73761],[-2.66274,53.73825],[-2.65854,53.739],[-2.65881,53.73963],[-2.65915,53.74172],[-2.65835,53.74186],[-2.65842,53.74299],[-2.65724,53.74211],[-2.65633,53.74228],[-2.65554,53.742],[-2.65332,53.7421],[-2.65135,53.74309],[-2.65068,53.74302]]]}},{"type":"Feature","properties":{"id":"E01025403","name":"E01025403","parent":"E07000126","type":"LSOA","pop":2251,"r":395,"ff":122,"ffd":5419.8,"ffs":0.4251,"g":106,"co":0,"mo":0,"sa":0,"ic":0},"geometry":{"type":"Polygon","coordinates":[[[-2.65842,53.74299],[-2.65835,53.74186],[-2.65915,53.74172],[-2.65881,53.73963],[-2.65854,53.739],[-2.66274,53.73825],[-2.66255,53.73761],[-2.66255,53.73577],[-2.66361,53.73542],[-2.66377,53.73443],[-2.6648,53.73442],[-2.66527,53.73543],[-2.6666,53.73525],[-2.66747,53.73588],[-2.66789,53.73643],[-2.66604,53.73675],[-2.66802,53.73726],[-2.66788,53.73765],[-2.6702,53.73946],[-2.67077,53.74033],[-2.67087,53.7419],[-2.67173,53.74359],[-2.67055,53.74406],[-2.66995,53.74373],[-2.6674,53.74363],[-2.66498,53.74268],[-2.66373,53.74336],[-2.66322,53.74451],[-2.662,53.74452],[-2.65984,53.74388],[-2.65842,53.74299]]]}},{"type":"Feature","properties":{"id":"E01025404","name":"E01025404","parent":"E07000126","type":"LSOA","pop":1229,"r":418,"ff":130,"ffd":10577.7,"ffs":0.4194,"g":106,"co":0,"mo":0,"sa":0,"ic":0},"geometry":{"type":"Polygon","coordinates":[[[-2.67452,53.7369],[-2.67351,53.73685],[-2.67216,53.73727],[-2.67089,53.73691],[-2.67008,53.73718],[-2.66929,53.73674],[-2.66826,53.73663],[-2.66802,53.73726],[-2.66604,53.73675],[-2.66789,53.73643],[-2.66747,53.73588],[-2.6666,53.73525],[-2.66527,53.73543],[-2.6648,53.73442],[-2.66377,53.73443],[-2.66402,53.73383],[-2.66672,53.73376],[-2.66674,53.73415],[-2.66753,53.73417],[-2.66766,53.73365],[-2.66983,53.73397],[-2.67109,53.73368],[-2.67134,53.73294],[-2.67573,53.73269],[-2.67596,53.73315],[-2.67657,53.73323],[-2.67774,53.73678],[-2.67518,53.73727],[-2.67452,53.7369]]]}},{"type":"Feature","properties":{"id":"E01025405","name":"E01025405","parent":"E07000126","type":"LSOA","pop":1309,"r":397,"ff":122,"ffd":9320.1,"ffs":0.4192,"g":104,"co":0,"mo":0,"sa":0,"ic":0},"geometry":{"type":"Polygon","coordinates":[[[-2.66669,53.72726],[-2.66432,53.72708],[-2.66429,53.72735],[-2.66102,53.72689],[-2.66049,53.72713],[-2.66101,53.72466],[-2.66167,53.7232],[-2.66288,53.72162],[-2.66376,53.72128],[-2.66476,53.72061],[-2.67338,53.72141],[-2.67347,53.72545],[-2.67135,53.72563],[-2.66986,53.72666],[-2.66938,53.72734],[-2.66669,53.72726]]]}},{"type":"Feature","properties":{"id":"E01025406","name":"E01025406","parent":"E07000126","type":"LSOA","pop":1080,"r":416,"ff":131,"ffd":12129.6,"ffs":0.4239,"g":105,"co":0,"mo":0,"sa":0,"ic":0},"geometry":{"type":"Polygon","coordinates":[[[-2.66674,53.73415],[-2.66672,53.73376],[-2.66427,53.73382],[-2.66401,53.73295],[-2.66472,53.73287],[-2.66473,53.73257],[-2.66457,53.73235],[-2.66366,53.73241],[-2.66333,53.73174],[-2.66548,53.73133],[-2.66862,53.73158],[-2.66987,53.73103],[-2.66913,53.73088],[-2.6697,53.73058],[-2.66929,53.72993],[-2.6693,53.72937],[-2.67158,53.72873],[-2.6696,53.72781],[-2.66938,53.72734],[-2.66986,53.72666],[-2.67135,53.72563],[-2.67347,53.72545],[-2.67366,53.72719],[-2.6743,53.72924],[-2.67529,53.73069],[-2.67657,53.73323],[-2.67596,53.73315],[-2.67573,53.73269],[-2.67134,53.73294],[-2.67109,53.73368],[-2.66983,53.73397],[-2.66766,53.73365],[-2.66753,53.73417],[-2.66674,53.73415]]]}},{"type":"Feature","properties":{"id":"E01025407","name":"E01025407","parent":"E07000126","type":"LSOA","pop":1991,"r":412,"ff":128,"ffd":6428.9,"ffs":0.4197,"g":105,"co":0,"mo":0,"sa":0,"ic":0},"geometry":{"type":"Polygon","coordinates":[[[-2.66286,53.73384],[-2.66215,53.73174],[-2.66059,53.72831],[-2.66049,53.72713],[-2.66102,53.72689],[-2.66429,53.72735],[-2.66432,53.72708],[-2.66938,53.72734],[-2.6696,53.72781],[-2.67158,53.72873],[-2.6693,53.72937],[-2.66929,53.72993],[-2.6697,53.73058],[-2.66913,53.73088],[-2.66987,53.73103],[-2.66862,53.73158],[-2.66548,53.73133],[-2.66333,53.73174],[-2.66366,53.73241],[-2.66457,53.73235],[-2.66472,53.73287],[-2.66401,53.73295],[-2.66427,53.73382],[-2.66286,53.73384]]]}},{"type":"Feature","properties":{"id":"E01025408","name":"E01025408","parent":"E07000126","type":"LSOA","pop":1408,"r":373,"ff":125,"ffd":8877.8,"ffs":0.4529,"g":95,"co":0,"mo":0,"sa":0,"ic":0},"geometry":{"type":"Polygon","coordinates":[[[-2.71839,53.74487],[-2.71929,53.74428],[-2.71675,53.74498],[-2.71298,53.74493],[-2.71368,53.74391],[-2.71524,53.74334],[-2.71572,53.74356],[-2.71659,53.74269],[-2.7187,53.7426],[-2.71951,53.74166],[-2.71969,53.74102],[-2.72042,53.74061],[-2.72295,53.74045],[-2.7238,53.73997],[-2.7239,53.73889],[-2.72513,53.73729],[-2.72596,53.7369],[-2.72664,53.73723],[-2.72647,53.73807],[-2.72783,53.73866],[-2.72606,53.73975],[-2.72725,53.74099],[-2.72781,53.7409],[-2.72839,53.74169],[-2.72906,53.74189],[-2.72844,53.74246],[-2.72864,53.74272],[-2.72926,53.74253],[-2.72968,53.74411],[-2.73175,53.74373],[-2.73147,53.74544],[-2.72926,53.74567],[-2.72952,53.74999],[-2.72757,53.75031],[-2.72568,53.75114],[-2.71854,53.75352],[-2.71823,53.7533],[-2.717,53.75008],[-2.71781,53.74987],[-2.71876,53.74894],[-2.71688,53.74818],[-2.71539,53.74682],[-2.71839,53.74487]]]}},{"type":"Feature","properties":{"id":"E01025409","name":"E01025409","parent":"E07000126","type":"LSOA","pop":1278,"r":376,"ff":123,"ffd":9624.4,"ffs":0.4409,"g":95,"co":0,"mo":0,"sa":0,"ic":0},"geometry":{"type":"Polygon","coordinates":[[[-2.72968,53.74411],[-2.72926,53.74253],[-2.72864,53.74272],[-2.72844,53.74246],[-2.72906,53.74189],[-2.72839,53.74169],[-2.72781,53.7409],[-2.72725,53.74099],[-2.72606,53.73975],[-2.72783,53.73866],[-2.72647,53.73807],[-2.72664,53.73723],[-2.72596,53.7369],[-2.72513,53.73729],[-2.72591,53.7355],[-2.72736,53.73565],[-2.72773,53.73478],[-2.72852,53.7349],[-2.72858,53.73443],[-2.72679,53.73395],[-2.72752,53.73299],[-2.7286,53.73343],[-2.73101,53.73365],[-2.7344,53.7345],[-2.73235,53.73614],[-2.731,53.73661],[-2.73143,53.73657],[-2.73176,53.737],[-2.7312,53.73716],[-2.73097,53.73891],[-2.73274,53.73887],[-2.73145,53.73956],[-2.73187,53.74023],[-2.73305,53.74009],[-2.73309,53.7406],[-2.73361,53.74083],[-2.73311,53.74089],[-2.73313,53.7412],[-2.73226,53.74122],[-2.73224,53.74158],[-2.73174,53.74159],[-2.73175,53.74373],[-2.72968,53.74411]]]}},{"type":"Feature","properties":{"id":"E01025410","name":"E01025410","parent":"E07000126","type":"LSOA","pop":1375,"r":369,"ff":120,"ffd":8727.3,"ffs":0.4444,"g":97,"co":0,"mo":0,"sa":0,"ic":0},"geometry":{"type":"Polygon","coordinates":[[[-2.73309,53.7406],[-2.73305,53.74009],[-2.73187,53.74023],[-2.73145,53.73956],[-2.73274,53.73887],[-2.73097,53.73891],[-2.7312,53.73716],[-2.73176,53.737],[-2.73143,53.73657],[-2.731,53.73661],[-2.73235,53.73614],[-2.7344,53.7345],[-2.7396,53.73492],[-2.74118,53.7356],[-2.74213,53.73661],[-2.74288,53.73672],[-2.74307,53.73752],[-2.7461,53.73827],[-2.74372,53.73985],[-2.7429,53.73942],[-2.73762,53.74119],[-2.73484,53.74153],[-2.73224,53.74158],[-2.73226,53.74122],[-2.73313,53.7412],[-2.73311,53.74089],[-2.73361,53.74083],[-2.73309,53.7406]]]}},{"type":"Feature","properties":{"id":"E01025411","name":"E01025411","parent":"E07000126","type":"LSOA","pop":2296,"r":429,"ff":137,"ffd":5966.9,"ffs":0.4295,"g":108,"co":0,"mo":0,"sa":0,"ic":0},"geometry":{"type":"Polygon","coordinates":[[[-2.70477,53.73729],[-2.70308,53.73608],[-2.70303,53.73635],[-2.69974,53.73681],[-2.69899,53.73575],[-2.69894,53.73469],[-2.69486,53.73276],[-2.69559,53.73105],[-2.69552,53.73035],[-2.69372,53.72876],[-2.69306,53.7267],[-2.69383,53.72688],[-2.69512,53.72652],[-2.69763,53.72856],[-2.69728,53.72872],[-2.69669,53.72832],[-2.69631,53.72845],[-2.69663,53.7287],[-2.69583,53.72922],[-2.69757,53.73046],[-2.69768,53.73004],[-2.698,53.73023],[-2.69845,53.73007],[-2.69929,53.73023],[-2.70092,53.73122],[-2.70262,53.73103],[-2.70198,53.73259],[-2.70426,53.73219],[-2.70447,53.73258],[-2.70538,53.7326],[-2.7055,53.73291],[-2.70634,53.73306],[-2.7062,53.73347],[-2.70816,53.73366],[-2.70806,53.73398],[-2.70882,53.73437],[-2.70914,53.73482],[-2.70829,53.73522],[-2.70858,53.73528],[-2.70804,53.73554],[-2.70913,53.73596],[-2.70891,53.73668],[-2.70868,53.73675],[-2.7084,53.73647],[-2.70669,53.73667],[-2.70477,53.73729]]]}},{"type":"Feature","properties":{"id":"E01025412","name":"E01025412","parent":"E07000126","type":"LSOA","pop":1373,"r":423,"ff":136,"ffd":9905.3,"ffs":0.4345,"g":108,"co":0,"mo":0,"sa":0,"ic":0},"geometry":{"type":"Polygon","coordinates":[[[-2.70858,53.73528],[-2.70829,53.73522],[-2.70914,53.73482],[-2.70882,53.73437],[-2.70806,53.73398],[-2.70816,53.73366],[-2.7062,53.73347],[-2.70634,53.73306],[-2.7055,53.73291],[-2.70538,53.7326],[-2.70447,53.73258],[-2.70426,53.73219],[-2.70198,53.73259],[-2.70262,53.73103],[-2.70092,53.73122],[-2.69929,53.73023],[-2.69845,53.73007],[-2.698,53.73023],[-2.69768,53.73004],[-2.69757,53.73046],[-2.69583,53.72922],[-2.69663,53.7287],[-2.69631,53.72845],[-2.69669,53.72832],[-2.69728,53.72872],[-2.69763,53.72856],[-2.69512,53.72652],[-2.69701,53.72526],[-2.69848,53.7253],[-2.699,53.72639],[-2.70209,53.72643],[-2.70552,53.72638],[-2.71046,53.72561],[-2.71695,53.72546],[-2.71782,53.72726],[-2.72048,53.7291],[-2.71859,53.73065],[-2.71957,53.73107],[-2.71882,53.73258],[-2.71697,53.73258],[-2.71697,53.73347],[-2.71558,53.73394],[-2.71302,53.73389],[-2.7129,53.73459],[-2.71188,53.73451],[-2.71027,53.73528],[-2.70931,53.73526],[-2.70913,53.73596],[-2.70804,53.73554],[-2.70858,53.73528]]]}},{"type":"Feature","properties":{"id":"E01025413","name":"E01025413","parent":"E07000126","type":"LSOA","pop":1743,"r":314,"ff":94,"ffd":5393.0,"ffs":0.4234,"g":90,"co":2,"mo":0,"sa":0,"ic":0},"geometry":{"type":"Polygon","coordinates":[[[-2.62138,53.74032],[-2.61811,53.73952],[-2.61526,53.73972],[-2.6142,53.73836],[-2.61448,53.73778],[-2.61315,53.73734],[-2.61282,53.73762],[-2.61093,53.73683],[-2.61706,53.73244],[-2.61852,53.73235],[-2.6243,53.72905],[-2.62394,53.7273],[-2.62424,53.72677],[-2.62415,53.72661],[-2.63362,53.72573],[-2.63638,53.72772],[-2.6459,53.7327],[-2.64269,53.7337],[-2.64085,53.73476],[-2.63874,53.73384],[-2.63752,53.73401],[-2.6383,53.73116],[-2.63685,53.73105],[-2.63618,53.732],[-2.63541,53.73238],[-2.63191,53.73283],[-2.62905,53.73358],[-2.62595,53.73376],[-2.62448,53.73474],[-2.62299,53.73449],[-2.6229,53.73504],[-2.62147,53.73563],[-2.62032,53.73706],[-2.61931,53.73755],[-2.62072,53.73732],[-2.62081,53.73956],[-2.62138,53.74032]]]}},{"type":"Feature","properties":{"id":"E01025414","name":"E01025414","parent":"E07000126","type":"LSOA","pop":1580,"r":322,"ff":93,"ffd":5886.1,"ffs":0.4097,"g":93,"co":2,"mo":0,"sa":0,"ic":0},"geometry":{"type":"Polygon","coordinates":[[[-2.61763,53.74663],[-2.61606,53.74576],[-2.61388,53.74513],[-2.61332,53.74432],[-2.61249,53.74434],[-2.61215,53.74398],[-2.61054,53.74374],[-2.60993,53.7433],[-2.60926,53.74343],[-2.60887,53.74298],[-2.60628,53.74271],[-2.60626,53.74232],[-2.60572,53.74247],[-2.60425,53.74128],[-2.60102,53.74088],[-2.60097,53.74058],[-2.60248,53.74055],[-2.60248,53.73981],[-2.60468,53.73894],[-2.60459,53.73839],[-2.60565,53.73871],[-2.6059,53.73853],[-2.60708,53.73924],[-2.60823,53.73834],[-2.61186,53.73857],[-2.61015,53.73703],[-2.61093,53.73683],[-2.61282,53.73762],[-2.61315,53.73734],[-2.61448,53.73778],[-2.6142,53.73836],[-2.61526,53.73972],[-2.61811,53.73952],[-2.62138,53.74032],[-2.62081,53.73956],[-2.62072,53.73732],[-2.61931,53.73755],[-2.62032,53.73706],[-2.62147,53.73563],[-2.6229,53.73504],[-2.62299,53.73449],[-2.62448,53.73474],[-2.62595,53.73376],[-2.62905,53.73358],[-2.63191,53.73283],[-2.63541,53.73238],[-2.63321,53.73363],[-2.63599,53.73447],[-2.63592,53.73501],[-2.63505,53.73479],[-2.6345,53.73497],[-2.63591,53.73538],[-2.63632,53.73583],[-2.63568,53.73612],[-2.63575,53.73657],[-2.63673,53.73661],[-2.63677,53.73703],[-2.63624,53.73783],[-2.63463,53.73752],[-2.63395,53.73871],[-2.63419,53.73897],[-2.63376,53.73893],[-2.63276,53.73958],[-2.63122,53.73958],[-2.63171,53.74014],[-2.62531,53.7409],[-2.6259,53.74178],[-2.62474,53.74166],[-2.62555,53.7424],[-2.62375,53.74415],[-2.62458,53.74493],[-2.62452,53.74538],[-2.62544,53.74535],[-2.62605,53.74596],[-2.62443,53.7458],[-2.62082,53.74633],[-2.61878,53.74617],[-2.61763,53.74663]]]}},{"type":"Feature","properties":{"id":"E01025415","name":"E01025415","parent":"E07000126","type":"LSOA","pop":1946,"r":327,"ff":101,"ffd":5190.1,"ffs":0.4316,"g":91,"co":0,"mo":0,"sa":0,"ic":0},"geometry":{"type":"Polygon","coordinates":[[[-2.71299,53.70138],[-2.71267,53.69996],[-2.71361,53.69807],[-2.71191,53.69757],[-2.71331,53.69663],[-2.71241,53.69586],[-2.7101,53.69631],[-2.70848,53.69471],[-2.70652,53.6933],[-2.70697,53.69307],[-2.70829,53.694],[-2.71197,53.69368],[-2.71204,53.694],[-2.71411,53.69389],[-2.71427,53.69362],[-2.71556,53.6937],[-2.71581,53.69396],[-2.71711,53.69409],[-2.7174,53.69447],[-2.71934,53.69426],[-2.71991,53.69325],[-2.72201,53.69275],[-2.72199,53.69484],[-2.72149,53.6967],[-2.71923,53.69628],[-2.71899,53.69661],[-2.71772,53.69622],[-2.71755,53.69668],[-2.71591,53.69646],[-2.71503,53.69726],[-2.71508,53.69766],[-2.71647,53.69816],[-2.7163,53.69847],[-2.71702,53.69874],[-2.7194,53.69811],[-2.72009,53.69869],[-2.71848,53.70045],[-2.7188,53.70087],[-2.71834,53.70113],[-2.71896,53.70134],[-2.71826,53.7023],[-2.71822,53.70115],[-2.71678,53.70065],[-2.71577,53.70152],[-2.71528,53.70283],[-2.71446,53.70242],[-2.71458,53.70205],[-2.71299,53.70138]]]}},{"type":"Feature","properties":{"id":"E01025416","name":"E01025416","parent":"E07000126","type":"LSOA","pop":1599,"r":327,"ff":101,"ffd":6316.4,"ffs":0.4316,"g":91,"co":0,"mo":0,"sa":0,"ic":0},"geometry":{"type":"Polygon","coordinates":[[[-2.71694,53.70412],[-2.71291,53.7024],[-2.71299,53.70138],[-2.71458,53.70205],[-2.71446,53.70242],[-2.71528,53.70283],[-2.71577,53.70152],[-2.71678,53.70065],[-2.71822,53.70115],[-2.71826,53.7023],[-2.71896,53.70134],[-2.71834,53.70113],[-2.7188,53.70087],[-2.71848,53.70045],[-2.72009,53.69869],[-2.7194,53.69811],[-2.71702,53.69874],[-2.7163,53.69847],[-2.71647,53.69816],[-2.71508,53.69766],[-2.71503,53.69726],[-2.71591,53.69646],[-2.71755,53.69668],[-2.71772,53.69622],[-2.71899,53.69661],[-2.71923,53.69628],[-2.72149,53.6967],[-2.72199,53.69484],[-2.72201,53.69275],[-2.7226,53.69138],[-2.7259,53.69152],[-2.72984,53.6925],[-2.72973,53.69721],[-2.72897,53.69812],[-2.72687,53.6992],[-2.72644,53.70062],[-2.72707,53.70275],[-2.72894,53.70332],[-2.72906,53.70389],[-2.72865,53.70439],[-2.72793,53.70447],[-2.72655,53.7084],[-2.71694,53.70412]]]}},{"type":"Feature","properties":{"id":"E01025417","name":"E01025417","parent":"E07000126","type":"LSOA","pop":1552,"r":327,"ff":101,"ffd":6507.7,"ffs":0.4316,"g":91,"co":0,"mo":0,"sa":0,"ic":0},"geometry":{"type":"Polygon","coordinates":[[[-2.66476,53.72061],[-2.66058,53.71874],[-2.65916,53.71833],[-2.65925,53.71805],[-2.65868,53.71811],[-2.65843,53.71772],[-2.66195,53.71545],[-2.67093,53.71117],[-2.67418,53.70862],[-2.6759,53.7065],[-2.67681,53.70473],[-2.67912,53.70513],[-2.67923,53.70348],[-2.68137,53.70325],[-2.68137,53.70421],[-2.6827,53.70439],[-2.68325,53.7036],[-2.68372,53.70372],[-2.68341,53.70472],[-2.68423,53.70432],[-2.6867,53.70634],[-2.6881,53.70677],[-2.6854,53.70386],[-2.68548,53.70296],[-2.68411,53.7029],[-2.68417,53.70254],[-2.68874,53.703],[-2.69516,53.71713],[-2.68625,53.71974],[-2.68654,53.72012],[-2.68594,53.72068],[-2.68406,53.72087],[-2.68247,53.72027],[-2.67642,53.72137],[-2.67338,53.72141],[-2.66476,53.72061]]]}},{"type":"Feature","properties":{"id":"E01025418","name":"E01025418","parent":"E07000126","type":"LSOA","pop":1423,"r":327,"ff":101,"ffd":7097.7,"ffs":0.4316,"g":91,"co":0,"mo":0,"sa":0,"ic":0},"geometry":{"type":"Polygon","coordinates":[[[-2.6867,53.70634],[-2.68423,53.70432],[-2.68341,53.70472],[-2.68372,53.70372],[-2.68325,53.7036],[-2.6827,53.70439],[-2.68137,53.70421],[-2.68137,53.70325],[-2.67923,53.70348],[-2.67925,53.7026],[-2.68051,53.69991],[-2.68083,53.6996],[-2.68185,53.69986],[-2.68255,53.69964],[-2.68275,53.7001],[-2.6878,53.70098],[-2.68874,53.703],[-2.68417,53.70254],[-2.68411,53.7029],[-2.68548,53.70296],[-2.6854,53.70386],[-2.6881,53.70677],[-2.6867,53.70634]]]}},{"type":"Feature","properties":{"id":"E01025419","name":"E01025419","parent":"E07000126","type":"LSOA","pop":1601,"r":404,"ff":126,"ffd":7870.1,"ffs":0.4242,"g":105,"co":0,"mo":0,"sa":0,"ic":0},"geometry":{"type":"Polygon","coordinates":[[[-2.69292,53.72649],[-2.69108,53.72337],[-2.69311,53.72365],[-2.69785,53.72287],[-2.69688,53.72212],[-2.6963,53.72208],[-2.6972,53.72135],[-2.69846,53.72084],[-2.6988,53.72127],[-2.70121,53.72011],[-2.70237,53.72018],[-2.70237,53.72038],[-2.70261,53.72014],[-2.70058,53.71922],[-2.70303,53.7189],[-2.70312,53.71984],[-2.70411,53.72041],[-2.70556,53.71931],[-2.7058,53.72027],[-2.70638,53.72064],[-2.70606,53.7209],[-2.70809,53.72189],[-2.71125,53.72129],[-2.71146,53.72083],[-2.71463,53.71997],[-2.71502,53.7194],[-2.71562,53.71949],[-2.71554,53.72064],[-2.71654,53.72138],[-2.71837,53.72148],[-2.72016,53.72216],[-2.72317,53.72148],[-2.72386,53.72053],[-2.72398,53.71909],[-2.72565,53.71763],[-2.73123,53.71456],[-2.72841,53.72658],[-2.71695,53.72546],[-2.71046,53.72561],[-2.70552,53.72638],[-2.699,53.72639],[-2.69848,53.7253],[-2.69701,53.72526],[-2.69512,53.72652],[-2.69383,53.72688],[-2.69306,53.7267],[-2.69292,53.72649]]]}},{"type":"Feature","properties":{"id":"E01025421","name":"E01025421","parent":"E07000126","type":"LSOA","pop":2479,"r":327,"ff":101,"ffd":4074.2,"ffs":0.4316,"g":91,"co":0,"mo":0,"sa":0,"ic":0},"geometry":{"type":"Polygon","coordinates":[[[-2.69872,53.70238],[-2.69596,53.70172],[-2.69518,53.7017],[-2.69633,53.69911],[-2.69632,53.6982],[-2.69935,53.69822],[-2.69932,53.69791],[-2.69989,53.69786],[-2.69968,53.69751],[-2.70015,53.69789],[-2.70069,53.69786],[-2.7013,53.6965],[-2.70233,53.69637],[-2.70256,53.69583],[-2.70347,53.69681],[-2.70303,53.69828],[-2.70245,53.69832],[-2.71099,53.6986],[-2.71045,53.69822],[-2.71079,53.69791],[-2.70991,53.69795],[-2.70921,53.69667],[-2.7101,53.69631],[-2.71241,53.69586],[-2.71331,53.69663],[-2.71191,53.69757],[-2.71361,53.69807],[-2.71267,53.69996],[-2.71299,53.70138],[-2.71291,53.7024],[-2.71102,53.70117],[-2.71066,53.70134],[-2.7102,53.7011],[-2.70969,53.70156],[-2.70896,53.70127],[-2.70821,53.70197],[-2.70811,53.70164],[-2.70673,53.70181],[-2.70691,53.70145],[-2.70583,53.7014],[-2.70579,53.70174],[-2.70522,53.7017],[-2.70574,53.70193],[-2.70532,53.70248],[-2.70465,53.70254],[-2.70513,53.70275],[-2.70492,53.70296],[-2.70199,53.70384],[-2.70065,53.70309],[-2.69977,53.70306],[-2.69872,53.70238]]]}},{"type":"Feature","properties":{"id":"E01025422","name":"E01025422","parent":"E07000126","type":"LSOA","pop":1466,"r":327,"ff":101,"ffd":6889.5,"ffs":0.4316,"g":91,"co":0,"mo":0,"sa":0,"ic":0},"geometry":{"type":"Polygon","coordinates":[[[-2.69213,53.69824],[-2.69189,53.69758],[-2.69098,53.69639],[-2.69124,53.69605],[-2.69617,53.69459],[-2.69604,53.69371],[-2.69618,53.69347],[-2.69791,53.69344],[-2.69916,53.6932],[-2.69937,53.6927],[-2.70037,53.69264],[-2.70017,53.69221],[-2.70143,53.69218],[-2.70196,53.69263],[-2.70294,53.69263],[-2.70358,53.69198],[-2.70544,53.6927],[-2.70425,53.6931],[-2.70334,53.69282],[-2.70336,53.69326],[-2.70272,53.6935],[-2.70286,53.69383],[-2.70402,53.69399],[-2.7031,53.69448],[-2.70375,53.69492],[-2.70256,53.69583],[-2.70233,53.69637],[-2.7013,53.6965],[-2.70069,53.69786],[-2.70015,53.69789],[-2.69968,53.69751],[-2.69989,53.69786],[-2.69932,53.69791],[-2.69935,53.69822],[-2.69632,53.6982],[-2.69633,53.69911],[-2.69518,53.7017],[-2.69315,53.70159],[-2.69335,53.69832],[-2.69213,53.69824]]]}},{"type":"Feature","properties":{"id":"E01025423","name":"E01025423","parent":"E07000126","type":"LSOA","pop":1282,"r":335,"ff":95,"ffd":7410.3,"ffs":0.406,"g":99,"co":0,"mo":0,"sa":0,"ic":0},"geometry":{"type":"Polygon","coordinates":[[[-2.70303,53.69828],[-2.70347,53.69681],[-2.70256,53.69583],[-2.70375,53.69492],[-2.7031,53.69448],[-2.70402,53.69399],[-2.70286,53.69383],[-2.70272,53.6935],[-2.70336,53.69326],[-2.70334,53.69282],[-2.70425,53.6931],[-2.70544,53.6927],[-2.70848,53.69471],[-2.7101,53.69631],[-2.70921,53.69667],[-2.70991,53.69795],[-2.71079,53.69791],[-2.71045,53.69822],[-2.71099,53.6986],[-2.70245,53.69832],[-2.70303,53.69828]]]}},{"type":"Feature","properties":{"id":"E01025424","name":"E01025424","parent":"E07000126","type":"LSOA","pop":1283,"r":352,"ff":117,"ffd":9119.3,"ffs":0.45,"g":90,"co":0,"mo":0,"sa":0,"ic":0},"geometry":{"type":"Polygon","coordinates":[[[-2.74528,53.7571],[-2.74317,53.75608],[-2.74249,53.75621],[-2.74151,53.75492],[-2.7409,53.75471],[-2.74144,53.75453],[-2.74103,53.75384],[-2.73941,53.75329],[-2.73926,53.75298],[-2.73982,53.75285],[-2.73858,53.75063],[-2.74266,53.75071],[-2.74262,53.74902],[-2.73796,53.74891],[-2.73753,53.74863],[-2.73844,53.74779],[-2.73789,53.74761],[-2.74178,53.74463],[-2.74399,53.7438],[-2.74722,53.74199],[-2.75012,53.73992],[-2.74916,53.73943],[-2.74962,53.73876],[-2.75086,53.73834],[-2.75188,53.73881],[-2.75301,53.73964],[-2.75567,53.74067],[-2.75825,53.74084],[-2.76331,53.74219],[-2.76625,53.74214],[-2.76784,53.74239],[-2.76975,53.74324],[-2.77128,53.74348],[-2.77365,53.74464],[-2.77387,53.74603],[-2.77344,53.74647],[-2.77438,53.75336],[-2.76413,53.75491],[-2.75731,53.75636],[-2.75704,53.75569],[-2.75288,53.75681],[-2.74521,53.75731],[-2.74528,53.7571]]]}},{"type":"Feature","properties":{"id":"E01025425","name":"E01025425","parent":"E07000126","type":"LSOA","pop":1267,"r":359,"ff":118,"ffd":9313.3,"ffs":0.4453,"g":92,"co":0,"mo":0,"sa":0,"ic":0},"geometry":{"type":"Polygon","coordinates":[[[-2.73199,53.75662],[-2.73072,53.75594],[-2.73089,53.75512],[-2.72915,53.75534],[-2.72872,53.75487],[-2.72759,53.75475],[-2.72757,53.75502],[-2.72699,53.75503],[-2.72675,53.75453],[-2.7249,53.75438],[-2.72639,53.75361],[-2.72802,53.75404],[-2.72867,53.75271],[-2.72962,53.75291],[-2.7289,53.75355],[-2.73101,53.75371],[-2.73117,53.75335],[-2.73171,53.75334],[-2.73151,53.75405],[-2.73218,53.75402],[-2.73222,53.75336],[-2.7318,53.75324],[-2.73247,53.75295],[-2.73461,53.75283],[-2.73464,53.75353],[-2.73574,53.75358],[-2.73635,53.75311],[-2.73555,53.7526],[-2.73585,53.75221],[-2.73534,53.75214],[-2.73502,53.75182],[-2.73535,53.7514],[-2.7344,53.75084],[-2.73615,53.74981],[-2.73521,53.74934],[-2.73549,53.74906],[-2.73513,53.74893],[-2.73689,53.74844],[-2.73789,53.74761],[-2.73844,53.74779],[-2.73753,53.74863],[-2.73796,53.74891],[-2.74262,53.74902],[-2.74266,53.75071],[-2.73858,53.75063],[-2.73982,53.75285],[-2.73926,53.75298],[-2.73941,53.75329],[-2.74103,53.75384],[-2.74144,53.75453],[-2.7409,53.75471],[-2.74151,53.75492],[-2.74249,53.75621],[-2.74317,53.75608],[-2.74528,53.7571],[-2.74521,53.75731],[-2.73342,53.75763],[-2.73328,53.75664],[-2.73199,53.75662]]]}},{"type":"Feature","properties":{"id":"E01025426","name":"E01025426","parent":"E07000126","type":"LSOA","pop":1257,"r":364,"ff":119,"ffd":9467.0,"ffs":0.4457,"g":95,"co":0,"mo":0,"sa":0,"ic":0},"geometry":{"type":"Polygon","coordinates":[[[-2.72273,53.75636],[-2.72149,53.75559],[-2.72092,53.756],[-2.71924,53.75486],[-2.71854,53.75352],[-2.72568,53.75114],[-2.72757,53.75031],[-2.73513,53.74893],[-2.73549,53.74906],[-2.73521,53.74934],[-2.73615,53.74981],[-2.7344,53.75084],[-2.73535,53.7514],[-2.73502,53.75182],[-2.73534,53.75214],[-2.73585,53.75221],[-2.73555,53.7526],[-2.73635,53.75311],[-2.73574,53.75358],[-2.73464,53.75353],[-2.73461,53.75283],[-2.73247,53.75295],[-2.7318,53.75324],[-2.73222,53.75336],[-2.73218,53.75402],[-2.73151,53.75405],[-2.73171,53.75334],[-2.73117,53.75335],[-2.73101,53.75371],[-2.7289,53.75355],[-2.72962,53.75291],[-2.72867,53.75271],[-2.72802,53.75404],[-2.72639,53.75361],[-2.7249,53.75438],[-2.72675,53.75453],[-2.72699,53.75503],[-2.72757,53.75502],[-2.72759,53.75475],[-2.72872,53.75487],[-2.72915,53.75534],[-2.73089,53.75512],[-2.73072,53.75594],[-2.73199,53.75662],[-2.73328,53.75664],[-2.73342,53.75763],[-2.7284,53.75741],[-2.72518,53.75694],[-2.72273,53.75636]]]}},{"type":"Feature","properties":{"id":"E01025427","name":"E01025427","parent":"E07000126","type":"LSOA","pop":1429,"r":389,"ff":129,"ffd":9027.3,"ffs":0.4479,"g":99,"co":0,"mo":0,"sa":0,"ic":0},"geometry":{"type":"Polygon","coordinates":[[[-2.71652,53.74026],[-2.71724,53.73945],[-2.71789,53.73945],[-2.718,53.7382],[-2.71933,53.73811],[-2.71924,53.73761],[-2.71794,53.7375],[-2.71795,53.7371],[-2.71995,53.73717],[-2.72008,53.7368],[-2.72055,53.73695],[-2.7208,53.73653],[-2.72123,53.73662],[-2.72208,53.73538],[-2.72258,53.73554],[-2.72566,53.73299],[-2.72709,53.73344],[-2.72679,53.73395],[-2.72858,53.73443],[-2.72852,53.7349],[-2.72773,53.73478],[-2.72736,53.73565],[-2.72591,53.7355],[-2.72513,53.73729],[-2.7239,53.73889],[-2.7238,53.73997],[-2.72295,53.74045],[-2.72042,53.74061],[-2.71969,53.74102],[-2.71951,53.74166],[-2.7187,53.7426],[-2.71626,53.74259],[-2.71652,53.74026]]]}},{"type":"Feature","properties":{"id":"E01025428","name":"E01025428","parent":"E07000126","type":"LSOA","pop":1555,"r":397,"ff":133,"ffd":8553.1,"ffs":0.4493,"g":99,"co":0,"mo":0,"sa":0,"ic":0},"geometry":{"type":"Polygon","coordinates":[[[-2.71662,53.73865],[-2.71611,53.73754],[-2.71394,53.73847],[-2.71309,53.73842],[-2.71172,53.73707],[-2.70902,53.73717],[-2.70868,53.73675],[-2.70891,53.73668],[-2.70931,53.73526],[-2.71027,53.73528],[-2.71188,53.73451],[-2.7129,53.73459],[-2.71302,53.73389],[-2.71558,53.73394],[-2.71697,53.73347],[-2.71697,53.73258],[-2.71882,53.73258],[-2.71862,53.73349],[-2.71801,53.73349],[-2.71799,53.7338],[-2.71737,53.73416],[-2.71792,53.73442],[-2.71717,53.73454],[-2.71695,53.73428],[-2.71481,53.73475],[-2.71378,53.73506],[-2.71391,53.7355],[-2.71651,53.73491],[-2.71621,53.73569],[-2.71746,53.73611],[-2.71788,53.73596],[-2.71753,53.73568],[-2.71803,53.73555],[-2.71856,53.73577],[-2.71941,53.73534],[-2.71927,53.73495],[-2.71979,53.73463],[-2.72066,53.73537],[-2.72204,53.73504],[-2.72291,53.73522],[-2.72258,53.73554],[-2.72208,53.73538],[-2.72123,53.73662],[-2.7208,53.73653],[-2.72055,53.73695],[-2.72008,53.7368],[-2.71995,53.73717],[-2.71795,53.7371],[-2.71794,53.7375],[-2.71924,53.73761],[-2.71933,53.73811],[-2.718,53.7382],[-2.71789,53.73945],[-2.71724,53.73945],[-2.71721,53.73875],[-2.71662,53.73865]]]}},{"type":"Feature","properties":{"id":"E01025429","name":"E01025429","parent":"E07000126","type":"LSOA","pop":1399,"r":391,"ff":129,"ffd":9220.9,"ffs":0.4448,"g":99,"co":0,"mo":0,"sa":0,"ic":0},"geometry":{"type":"Polygon","coordinates":[[[-2.71621,53.73569],[-2.71651,53.73491],[-2.71391,53.7355],[-2.71378,53.73506],[-2.71695,53.73428],[-2.71717,53.73454],[-2.71792,53.73442],[-2.71737,53.73416],[-2.71799,53.7338],[-2.71801,53.73349],[-2.71862,53.73349],[-2.71882,53.73258],[-2.71957,53.73107],[-2.71859,53.73065],[-2.72048,53.7291],[-2.72311,53.73035],[-2.7237,53.73102],[-2.72752,53.73299],[-2.72709,53.73344],[-2.72566,53.73299],[-2.72291,53.73522],[-2.72204,53.73504],[-2.72066,53.73537],[-2.71979,53.73463],[-2.71927,53.73495],[-2.71941,53.73534],[-2.71856,53.73577],[-2.71803,53.73555],[-2.71753,53.73568],[-2.71788,53.73596],[-2.71746,53.73611],[-2.71621,53.73569]]]}},{"type":"Feature","properties":{"id":"E01025431","name":"E01025431","parent":"E07000126","type":"LSOA","pop":2118,"r":327,"ff":101,"ffd":4768.6,"ffs":0.4316,"g":91,"co":0,"mo":0,"sa":0,"ic":0},"geometry":{"type":"Polygon","coordinates":[[[-2.68675,53.69543],[-2.68697,53.6948],[-2.68883,53.69448],[-2.68926,53.69447],[-2.68966,53.69526],[-2.69014,53.69521],[-2.69075,53.69484],[-2.68975,53.69458],[-2.68985,53.69418],[-2.69073,53.69436],[-2.69058,53.69374],[-2.6917,53.69393],[-2.69207,53.69441],[-2.69428,53.69396],[-2.69405,53.69327],[-2.69515,53.69259],[-2.69587,53.69338],[-2.69571,53.69374],[-2.69604,53.69371],[-2.69617,53.69459],[-2.69124,53.69605],[-2.69098,53.69639],[-2.69189,53.69758],[-2.69213,53.69824],[-2.69335,53.69832],[-2.69328,53.70071],[-2.69315,53.70159],[-2.69295,53.70161],[-2.69036,53.70145],[-2.68776,53.70096],[-2.68533,53.69558],[-2.68675,53.69543]]]}},{"type":"Feature","properties":{"id":"E01025433","name":"E01025433","parent":"E07000126","type":"LSOA","pop":1523,"r":327,"ff":101,"ffd":6631.6,"ffs":0.4316,"g":91,"co":0,"mo":0,"sa":0,"ic":0},"geometry":{"type":"Polygon","coordinates":[[[-2.67753,53.69969],[-2.67758,53.69598],[-2.68059,53.69563],[-2.68333,53.6947],[-2.68482,53.69446],[-2.68776,53.70096],[-2.68275,53.7001],[-2.68255,53.69964],[-2.68185,53.69986],[-2.68083,53.6996],[-2.68051,53.69991],[-2.67925,53.7026],[-2.67912,53.70513],[-2.67681,53.70473],[-2.67748,53.70181],[-2.67753,53.69969]]]}},{"type":"Feature","properties":{"id":"E01025434","name":"E01025434","parent":"E07000126","type":"LSOA","pop":1806,"r":327,"ff":101,"ffd":5592.5,"ffs":0.4316,"g":91,"co":0,"mo":0,"sa":0,"ic":0},"geometry":{"type":"Polygon","coordinates":[[[-2.6826,53.68944],[-2.67806,53.67927],[-2.67926,53.67956],[-2.68013,53.67911],[-2.68143,53.67958],[-2.68253,53.67908],[-2.68333,53.67916],[-2.68327,53.67944],[-2.68368,53.67909],[-2.68504,53.67943],[-2.68824,53.67909],[-2.68734,53.68157],[-2.69275,53.68132],[-2.69464,53.68453],[-2.6971,53.68617],[-2.69453,53.68603],[-2.69478,53.68708],[-2.69274,53.68689],[-2.69202,53.6878],[-2.6911,53.68794],[-2.69005,53.68769],[-2.68972,53.68817],[-2.69004,53.68897],[-2.68924,53.68896],[-2.68867,53.68805],[-2.68678,53.68818],[-2.68776,53.68851],[-2.6877,53.68911],[-2.68463,53.68852],[-2.68482,53.68902],[-2.68424,53.68938],[-2.68377,53.68915],[-2.6826,53.68944]]]}},{"type":"Feature","properties":{"id":"E01025435","name":"E01025435","parent":"E07000126","type":"LSOA","pop":1516,"r":312,"ff":91,"ffd":6002.6,"ffs":0.4155,"g":91,"co":0,"mo":0,"sa":0,"ic":0},"geometry":{"type":"Polygon","coordinates":[[[-2.69515,53.69259],[-2.69511,53.69154],[-2.69437,53.69154],[-2.69432,53.69033],[-2.69517,53.69031],[-2.69511,53.69007],[-2.69438,53.69007],[-2.69536,53.68904],[-2.69465,53.68897],[-2.69403,53.68953],[-2.69332,53.68956],[-2.69262,53.69036],[-2.68752,53.69023],[-2.68777,53.68976],[-2.68812,53.68981],[-2.68822,53.68919],[-2.6877,53.68911],[-2.68776,53.68851],[-2.68678,53.68818],[-2.68867,53.68805],[-2.68924,53.68896],[-2.69004,53.68897],[-2.68972,53.68817],[-2.69005,53.68769],[-2.6911,53.68794],[-2.69202,53.6878],[-2.69274,53.68689],[-2.69478,53.68708],[-2.69453,53.68603],[-2.6971,53.68617],[-2.69464,53.68453],[-2.69275,53.68132],[-2.68734,53.68157],[-2.68824,53.67909],[-2.68892,53.67914],[-2.68924,53.67952],[-2.68988,53.67914],[-2.69026,53.67955],[-2.69132,53.67917],[-2.69228,53.67971],[-2.69399,53.67954],[-2.69486,53.67986],[-2.69552,53.67961],[-2.69688,53.68031],[-2.69825,53.68031],[-2.69909,53.67996],[-2.70061,53.68004],[-2.70078,53.68027],[-2.70306,53.68036],[-2.70332,53.68071],[-2.7041,53.68062],[-2.70507,53.68101],[-2.70583,53.68075],[-2.70714,53.6812],[-2.70716,53.68147],[-2.7081,53.68154],[-2.7079,53.68279],[-2.70688,53.6832],[-2.70751,53.68573],[-2.7071,53.68598],[-2.70637,53.68601],[-2.70638,53.68657],[-2.69991,53.6864],[-2.70019,53.68802],[-2.69855,53.6883],[-2.69869,53.68864],[-2.70123,53.6886],[-2.70146,53.6892],[-2.70232,53.68964],[-2.70215,53.69019],[-2.70224,53.69139],[-2.70358,53.69198],[-2.70294,53.69263],[-2.70196,53.69263],[-2.70143,53.69218],[-2.70017,53.69221],[-2.70037,53.69264],[-2.69937,53.6927],[-2.69916,53.6932],[-2.69791,53.69344],[-2.69618,53.69347],[-2.69604,53.69371],[-2.69571,53.69374],[-2.69587,53.69338],[-2.69515,53.69259]]]}},{"type":"Feature","properties":{"id":"E01025436","name":"E01025436","parent":"E07000126","type":"LSOA","pop":2384,"r":65,"ff":17,"ffd":713.1,"ffs":0.5,"g":31,"co":2,"mo":2,"sa":2,"ic":0},"geometry":{"type":"Polygon","coordinates":[[[-2.82029,53.7182],[-2.81921,53.71663],[-2.81859,53.71703],[-2.81742,53.71707],[-2.81698,53.71783],[-2.81616,53.71709],[-2.81554,53.71724],[-2.81493,53.71601],[-2.81416,53.71635],[-2.81318,53.71591],[-2.81167,53.71611],[-2.80946,53.71579],[-2.80681,53.71425],[-2.80312,53.71345],[-2.79858,53.71644],[-2.7964,53.71628],[-2.79548,53.71529],[-2.79653,53.71362],[-2.79627,53.71321],[-2.79552,53.71319],[-2.7957,53.71215],[-2.79412,53.7128],[-2.79222,53.71256],[-2.79237,53.7112],[-2.79149,53.71094],[-2.79201,53.70968],[-2.79323,53.7091],[-2.79451,53.70744],[-2.79548,53.70701],[-2.79436,53.70689],[-2.79431,53.7048],[-2.79165,53.70428],[-2.79119,53.70387],[-2.78811,53.70396],[-2.78471,53.70275],[-2.78153,53.70249],[-2.76916,53.70035],[-2.75542,53.70087],[-2.75762,53.69288],[-2.76565,53.69288],[-2.7661,53.69252],[-2.76721,53.69249],[-2.77026,53.69146],[-2.77655,53.69094],[-2.78746,53.69131],[-2.78991,53.6905],[-2.79241,53.68916],[-2.79391,53.68904],[-2.79368,53.68812],[-2.79587,53.68748],[-2.7995,53.68772],[-2.80054,53.68802],[-2.80217,53.68788],[-2.80417,53.68812],[-2.80583,53.68765],[-2.80674,53.68685],[-2.80732,53.68679],[-2.8091,53.68756],[-2.81262,53.68776],[-2.81463,53.68758],[-2.81593,53.68787],[-2.81876,53.68768],[-2.81987,53.68725],[-2.82216,53.68783],[-2.82433,53.68732],[-2.82566,53.68762],[-2.82783,53.68933],[-2.82883,53.69066],[-2.82972,53.69383],[-2.83253,53.69494],[-2.8333,53.69686],[-2.83298,53.69914],[-2.83146,53.70075],[-2.82951,53.70102],[-2.82792,53.70089],[-2.82595,53.7005],[-2.82615,53.70016],[-2.82438,53.70112],[-2.82372,53.70222],[-2.82382,53.70335],[-2.82346,53.70341],[-2.8244,53.70789],[-2.82361,53.70823],[-2.82224,53.70804],[-2.8245,53.70862],[-2.82461,53.70956],[-2.82357,53.71007],[-2.82295,53.70975],[-2.82357,53.71014],[-2.82463,53.70977],[-2.8249,53.71157],[-2.82397,53.71197],[-2.82317,53.71177],[-2.82387,53.71201],[-2.82486,53.71173],[-2.8253,53.71424],[-2.82668,53.71585],[-2.82515,53.71684],[-2.82452,53.71568],[-2.82341,53.71536],[-2.82374,53.71602],[-2.82334,53.71679],[-2.82364,53.71756],[-2.8215,53.71871],[-2.82029,53.7182]]]}},{"type":"Feature","properties":{"id":"E01025437","name":"E01025437","parent":"E07000126","type":"LSOA","pop":2011,"r":29,"ff":16,"ffd":795.6,"ffs":0.5714,"g":1,"co":3,"mo":3,"sa":1,"ic":1},"geometry":{"type":"Polygon","coordinates":[[[-2.78948,53.71689],[-2.78982,53.71493],[-2.78885,53.71483],[-2.78462,53.71525],[-2.78447,53.71479],[-2.78403,53.71485],[-2.78434,53.71519],[-2.78356,53.71519],[-2.77883,53.71471],[-2.77702,53.71422],[-2.7767,53.71371],[-2.78171,53.71091],[-2.78133,53.71057],[-2.77732,53.71047],[-2.77419,53.70903],[-2.77132,53.70932],[-2.76623,53.70927],[-2.76448,53.70987],[-2.75198,53.70994],[-2.75542,53.70087],[-2.76916,53.70035],[-2.78153,53.70249],[-2.78471,53.70275],[-2.78811,53.70396],[-2.79119,53.70387],[-2.79165,53.70428],[-2.79431,53.7048],[-2.79436,53.70689],[-2.79548,53.70701],[-2.79451,53.70744],[-2.79323,53.7091],[-2.79201,53.70968],[-2.79149,53.71094],[-2.79237,53.7112],[-2.79222,53.71256],[-2.79412,53.7128],[-2.7957,53.71215],[-2.79552,53.71319],[-2.79627,53.71321],[-2.79653,53.71362],[-2.79548,53.71529],[-2.7964,53.71628],[-2.79337,53.71612],[-2.7921,53.71525],[-2.79181,53.71717],[-2.78948,53.71689]]]}},{"type":"Feature","properties":{"id":"E01025438","name":"E01025438","parent":"E07000126","type":"LSOA","pop":1320,"r":223,"ff":55,"ffd":4166.7,"ffs":0.3741,"g":74,"co":2,"mo":2,"sa":0,"ic":0},"geometry":{"type":"MultiPolygon","coordinates":[[[[-2.84173,53.73509],[-2.81757,53.7296],[-2.81208,53.73029],[-2.81061,53.73116],[-2.80941,53.73088],[-2.8032,53.73336],[-2.8013,53.73337],[-2.80009,53.73169],[-2.79994,53.72961],[-2.79758,53.72735],[-2.79391,53.72777],[-2.79362,53.72814],[-2.79272,53.72806],[-2.79276,53.72777],[-2.79225,53.72787],[-2.79207,53.72757],[-2.79139,53.72774],[-2.79142,53.72683],[-2.79006,53.72731],[-2.78961,53.72649],[-2.79201,53.72593],[-2.79185,53.72554],[-2.79262,53.72525],[-2.79266,53.72487],[-2.79359,53.72455],[-2.79225,53.72433],[-2.79199,53.72329],[-2.79355,53.72171],[-2.79103,53.72136],[-2.79172,53.7196],[-2.7921,53.71525],[-2.79337,53.71612],[-2.79858,53.71644],[-2.80312,53.71345],[-2.80681,53.71425],[-2.80946,53.71579],[-2.81167,53.71611],[-2.81318,53.71591],[-2.81416,53.71635],[-2.81493,53.71601],[-2.81554,53.71724],[-2.81616,53.71709],[-2.81698,53.71783],[-2.81742,53.71707],[-2.81859,53.71703],[-2.81921,53.71663],[-2.82029,53.7182],[-2.8215,53.71871],[-2.82364,53.71756],[-2.82334,53.71679],[-2.82374,53.71602],[-2.82448,53.71594],[-2.82492,53.71715],[-2.82716,53.71629],[-2.8299,53.71947],[-2.82876,53.72073],[-2.82778,53.72072],[-2.82652,53.71987],[-2.82658,53.72039],[-2.82682,53.72014],[-2.82777,53.72077],[-2.82874,53.72082],[-2.82874,53.72124],[-2.82886,53.72073],[-2.83031,53.71996],[-2.83468,53.72377],[-2.83354,53.72429],[-2.83082,53.7227],[-2.83016,53.72264],[-2.8336,53.72439],[-2.83425,53.72412],[-2.83546,53.72434],[-2.83408,53.72505],[-2.8337,53.7249],[-2.83351,53.72541],[-2.83241,53.72542],[-2.83342,53.72551],[-2.83333,53.72591],[-2.83176,53.72657],[-2.83146,53.72705],[-2.83063,53.72668],[-2.82973,53.72682],[-2.82833,53.72824],[-2.82796,53.728],[-2.82819,53.72837],[-2.82987,53.72687],[-2.83071,53.72673],[-2.83112,53.72724],[-2.82411,53.73083],[-2.82119,53.73033],[-2.82404,53.73093],[-2.83144,53.72733],[-2.83138,53.72844],[-2.83176,53.72721],[-2.83373,53.7265],[-2.83426,53.7255],[-2.8361,53.72479],[-2.83777,53.72585],[-2.83717,53.72586],[-2.83807,53.72686],[-2.83816,53.72611],[-2.84302,53.72924],[-2.84135,53.72914],[-2.83955,53.72858],[-2.83887,53.72792],[-2.83933,53.7286],[-2.83808,53.72888],[-2.83641,53.72815],[-2.83789,53.72879],[-2.83779,53.72929],[-2.83702,53.72912],[-2.83773,53.72951],[-2.83722,53.72974],[-2.8364,53.72949],[-2.83726,53.72981],[-2.83362,53.7306],[-2.83564,53.73049],[-2.83738,53.72993],[-2.83851,53.72896],[-2.84012,53.72879],[-2.84046,53.72905],[-2.83961,53.72936],[-2.84057,53.72914],[-2.84131,53.72953],[-2.84076,53.7296],[-2.83998,53.73059],[-2.83915,53.73081],[-2.83993,53.73069],[-2.83986,53.73114],[-2.84089,53.73236],[-2.84055,53.73304],[-2.84097,53.73235],[-2.83996,53.7312],[-2.84003,53.73068],[-2.84125,53.72981],[-2.84081,53.73037],[-2.84066,53.73082],[-2.8408,53.73048],[-2.84201,53.72952],[-2.84313,53.72988],[-2.84199,53.73144],[-2.84235,53.73256],[-2.84175,53.73274],[-2.84227,53.73297],[-2.84235,53.73342],[-2.84155,53.73455],[-2.84221,53.73416],[-2.84257,53.73262],[-2.84498,53.73372],[-2.84468,53.73411],[-2.84229,53.73449],[-2.84173,53.73509]]],[[[-2.8504,53.73706],[-2.84197,53.73515],[-2.84335,53.73445],[-2.84493,53.73436],[-2.84445,53.73463],[-2.84467,53.735],[-2.8447,53.73455],[-2.84666,53.73489],[-2.84665,53.7359],[-2.84674,53.7349],[-2.84494,53.73451],[-2.8453,53.73418],[-2.84624,53.73417],[-2.84552,53.73416],[-2.84536,53.7334],[-2.84318,53.73256],[-2.84266,53.73185],[-2.84359,53.73038],[-2.84467,53.73011],[-2.84519,53.73019],[-2.84505,53.73021],[-2.84498,53.73027],[-2.84507,53.73108],[-2.84505,53.73024],[-2.8454,53.73018],[-2.84582,53.7303],[-2.84572,53.73065],[-2.84594,53.73032],[-2.84726,53.73102],[-2.84645,53.73094],[-2.84599,53.73157],[-2.84472,53.73192],[-2.84592,53.73165],[-2.84648,53.73099],[-2.84707,53.73119],[-2.84741,53.73102],[-2.84844,53.73153],[-2.84775,53.73229],[-2.84858,53.73162],[-2.8492,53.7319],[-2.84714,53.73291],[-2.84901,53.73228],[-2.84901,53.73289],[-2.84852,53.73291],[-2.84888,53.73297],[-2.84841,53.73326],[-2.8489,53.73303],[-2.84915,53.73277],[-2.8491,53.73225],[-2.84961,53.73201],[-2.85005,53.73216],[-2.84973,53.7333],[-2.85024,53.73237],[-2.8501,53.73219],[-2.85138,53.73259],[-2.85099,53.73265],[-2.85132,53.73367],[-2.85077,53.7335],[-2.84979,53.73374],[-2.85018,53.7339],[-2.8508,53.73353],[-2.85128,53.73408],[-2.84844,53.73471],[-2.85066,53.73442],[-2.85058,53.73468],[-2.85005,53.73467],[-2.84961,53.73494],[-2.84925,53.73486],[-2.84904,53.73511],[-2.84937,53.73489],[-2.84953,53.73521],[-2.85018,53.73469],[-2.85042,53.73488],[-2.85138,53.73411],[-2.85152,53.73287],[-2.85373,53.73379],[-2.85238,53.73488],[-2.85376,53.7339],[-2.85539,53.73513],[-2.8504,53.73706]]]]}},{"type":"Feature","properties":{"id":"E01025439","name":"E01025439","parent":"E07000126","type":"LSOA","pop":1468,"r":284,"ff":77,"ffd":5245.2,"ffs":0.3889,"g":84,"co":2,"mo":2,"sa":0,"ic":0},"geometry":{"type":"Polygon","coordinates":[[[-2.77676,53.73814],[-2.77541,53.73694],[-2.77482,53.73723],[-2.77173,53.7369],[-2.77007,53.73577],[-2.76803,53.73557],[-2.76823,53.73501],[-2.76915,53.73444],[-2.76709,53.73306],[-2.76685,53.73255],[-2.7677,53.73233],[-2.76783,53.73178],[-2.76882,53.73056],[-2.76837,53.72941],[-2.76034,53.72941],[-2.76439,53.72472],[-2.77133,53.71741],[-2.7767,53.71371],[-2.77702,53.71422],[-2.77883,53.71471],[-2.78356,53.71519],[-2.78434,53.71519],[-2.78403,53.71485],[-2.78447,53.71479],[-2.78462,53.71525],[-2.78885,53.71483],[-2.78982,53.71493],[-2.78948,53.71689],[-2.79181,53.71717],[-2.79172,53.7196],[-2.79021,53.71955],[-2.789,53.71907],[-2.78798,53.71998],[-2.77911,53.72064],[-2.77792,53.72114],[-2.78002,53.72168],[-2.78089,53.72271],[-2.78078,53.72446],[-2.77925,53.72511],[-2.77801,53.72526],[-2.77802,53.72629],[-2.77863,53.72634],[-2.77873,53.72605],[-2.77997,53.7263],[-2.78069,53.72601],[-2.78157,53.72673],[-2.7814,53.72696],[-2.78263,53.72695],[-2.78145,53.72776],[-2.78182,53.72854],[-2.78056,53.73026],[-2.78232,53.73062],[-2.78349,53.73382],[-2.78869,53.73251],[-2.79094,53.73212],[-2.79092,53.73169],[-2.7923,53.73187],[-2.78733,53.73415],[-2.78509,53.73492],[-2.78334,53.73513],[-2.77997,53.73638],[-2.77676,53.73814]]]}},{"type":"Feature","properties":{"id":"E01025440","name":"E01025440","parent":"E07000126","type":"LSOA","pop":1337,"r":242,"ff":61,"ffd":4562.5,"ffs":0.3765,"g":78,"co":2,"mo":2,"sa":0,"ic":0},"geometry":{"type":"MultiPolygon","coordinates":[[[[-2.83678,53.734],[-2.83676,53.73397],[-2.84173,53.73509],[-2.84115,53.73572],[-2.83878,53.73596],[-2.83755,53.73519],[-2.83658,53.735],[-2.83681,53.7343],[-2.83678,53.734]]],[[[-2.77493,53.75335],[-2.77395,53.74806],[-2.77438,53.75336],[-2.77344,53.74647],[-2.77387,53.74603],[-2.77365,53.74464],[-2.77128,53.74348],[-2.76975,53.74324],[-2.76784,53.74239],[-2.76625,53.74214],[-2.76331,53.74219],[-2.75825,53.74084],[-2.75567,53.74067],[-2.75301,53.73964],[-2.75188,53.73881],[-2.75753,53.73636],[-2.75806,53.73674],[-2.75883,53.73637],[-2.76022,53.73715],[-2.76058,53.73796],[-2.76221,53.7375],[-2.76608,53.73552],[-2.76823,53.73501],[-2.76803,53.73557],[-2.77007,53.73577],[-2.77173,53.7369],[-2.77482,53.73723],[-2.77541,53.73694],[-2.77676,53.73814],[-2.77997,53.73638],[-2.78334,53.73513],[-2.78509,53.73492],[-2.78733,53.73415],[-2.7923,53.73187],[-2.79092,53.73169],[-2.79094,53.73212],[-2.78869,53.73251],[-2.78349,53.73382],[-2.78232,53.73062],[-2.78056,53.73026],[-2.78182,53.72854],[-2.78145,53.72776],[-2.78281,53.72693],[-2.78283,53.72765],[-2.78333,53.72819],[-2.7839,53.72815],[-2.78406,53.72872],[-2.7861,53.72852],[-2.78654,53.72883],[-2.78715,53.72829],[-2.78858,53.72843],[-2.78879,53.72791],[-2.79021,53.72759],[-2.79006,53.72731],[-2.79142,53.72683],[-2.79139,53.72774],[-2.79207,53.72757],[-2.79225,53.72787],[-2.79276,53.72777],[-2.79272,53.72806],[-2.79362,53.72814],[-2.79391,53.72777],[-2.79758,53.72735],[-2.79994,53.72961],[-2.80009,53.73169],[-2.8013,53.73337],[-2.8032,53.73336],[-2.80941,53.73088],[-2.81061,53.73116],[-2.81208,53.73029],[-2.81757,53.7296],[-2.8367,53.73395],[-2.83649,53.73497],[-2.83666,53.73509],[-2.83757,53.73524],[-2.83842,53.73593],[-2.83708,53.73585],[-2.83627,53.73626],[-2.83499,53.73616],[-2.83631,53.73631],[-2.83596,53.73695],[-2.83712,53.73589],[-2.83795,53.73627],[-2.83956,53.73622],[-2.83902,53.73685],[-2.8375,53.73734],[-2.83903,53.73689],[-2.8397,53.73625],[-2.84081,53.73635],[-2.83956,53.73608],[-2.84232,53.73557],[-2.84175,53.73548],[-2.84197,53.73515],[-2.8504,53.73706],[-2.84907,53.73758],[-2.84072,53.7398],[-2.84068,53.73958],[-2.84128,53.73899],[-2.84177,53.73898],[-2.84111,53.73895],[-2.84026,53.73996],[-2.83941,53.74],[-2.83986,53.73925],[-2.83933,53.73994],[-2.8392,53.7393],[-2.83775,53.73883],[-2.83917,53.73931],[-2.83936,53.74012],[-2.83365,53.74147],[-2.83249,53.74121],[-2.83257,53.7406],[-2.8335,53.74024],[-2.83516,53.7392],[-2.83352,53.74018],[-2.83275,53.74023],[-2.83224,53.74097],[-2.83231,53.74128],[-2.83276,53.74168],[-2.8286,53.74267],[-2.82676,53.74286],[-2.82608,53.74217],[-2.82618,53.74143],[-2.83002,53.74072],[-2.831,53.74012],[-2.83112,53.7396],[-2.83164,53.73952],[-2.8311,53.73957],[-2.83008,53.74067],[-2.8292,53.74083],[-2.82925,53.74065],[-2.82916,53.74048],[-2.82885,53.74017],[-2.82814,53.73973],[-2.82793,53.73966],[-2.82768,53.73971],[-2.82651,53.74028],[-2.82793,53.73969],[-2.82908,53.74042],[-2.82919,53.74075],[-2.82615,53.74131],[-2.82581,53.74218],[-2.82622,53.74303],[-2.82356,53.74354],[-2.82335,53.74337],[-2.82349,53.74354],[-2.8227,53.74378],[-2.82184,53.74384],[-2.82146,53.74352],[-2.82176,53.74385],[-2.82074,53.74432],[-2.81785,53.74318],[-2.81836,53.7419],[-2.81921,53.74189],[-2.8199,53.74124],[-2.81895,53.74187],[-2.81823,53.74176],[-2.81809,53.73971],[-2.81863,53.73927],[-2.82083,53.73867],[-2.82361,53.73843],[-2.82056,53.73854],[-2.81864,53.7391],[-2.81785,53.73962],[-2.81709,53.73946],[-2.81775,53.73977],[-2.81781,53.7416],[-2.81735,53.74207],[-2.8174,53.74305],[-2.81673,53.74327],[-2.81778,53.74354],[-2.81714,53.74374],[-2.81805,53.74352],[-2.81952,53.74393],[-2.81999,53.74426],[-2.81983,53.74486],[-2.80195,53.74899],[-2.78258,53.75277],[-2.77609,53.75346],[-2.77493,53.75335]]]]}},{"type":"Feature","properties":{"id":"E01025441","name":"E01025441","parent":"E07000126","type":"LSOA","pop":1465,"r":242,"ff":60,"ffd":4095.6,"ffs":0.3704,"g":78,"co":2,"mo":2,"sa":0,"ic":0},"geometry":{"type":"Polygon","coordinates":[[[-2.78654,53.72883],[-2.7861,53.72852],[-2.78406,53.72872],[-2.7839,53.72815],[-2.78333,53.72819],[-2.78283,53.72765],[-2.78281,53.72693],[-2.7814,53.72696],[-2.78157,53.72673],[-2.78069,53.72601],[-2.77997,53.7263],[-2.77873,53.72605],[-2.77863,53.72634],[-2.77802,53.72629],[-2.77801,53.72526],[-2.77925,53.72511],[-2.78078,53.72446],[-2.78089,53.72271],[-2.78002,53.72168],[-2.77792,53.72114],[-2.77911,53.72064],[-2.78798,53.71998],[-2.789,53.71907],[-2.79021,53.71955],[-2.79172,53.7196],[-2.79103,53.72136],[-2.79355,53.72171],[-2.79199,53.72329],[-2.79225,53.72433],[-2.79359,53.72455],[-2.79266,53.72487],[-2.79262,53.72525],[-2.79185,53.72554],[-2.79201,53.72593],[-2.78961,53.72649],[-2.79021,53.72759],[-2.78879,53.72791],[-2.78858,53.72843],[-2.78715,53.72829],[-2.78654,53.72883]]]}},{"type":"Feature","properties":{"id":"E01025442","name":"E01025442","parent":"E07000126","type":"LSOA","pop":1025,"r":413,"ff":127,"ffd":12390.2,"ffs":0.4164,"g":106,"co":0,"mo":0,"sa":0,"ic":0},"geometry":{"type":"Polygon","coordinates":[[[-2.68866,53.72481],[-2.68753,53.72315],[-2.68659,53.72357],[-2.68485,53.7217],[-2.68359,53.7221],[-2.68343,53.72247],[-2.68262,53.72211],[-2.6823,53.72149],[-2.68283,53.72154],[-2.68261,53.7211],[-2.68342,53.72135],[-2.68406,53.72087],[-2.68594,53.72068],[-2.68654,53.72012],[-2.68625,53.71974],[-2.69482,53.71721],[-2.69511,53.71815],[-2.69441,53.71954],[-2.69018,53.72185],[-2.69292,53.72649],[-2.68866,53.72481]]]}},{"type":"Feature","properties":{"id":"E01025443","name":"E01025443","parent":"E07000126","type":"LSOA","pop":1276,"r":408,"ff":125,"ffd":9796.2,"ffs":0.4153,"g":105,"co":0,"mo":0,"sa":0,"ic":0},"geometry":{"type":"Polygon","coordinates":[[[-2.6743,53.72924],[-2.67366,53.72719],[-2.67349,53.72575],[-2.67338,53.72141],[-2.67642,53.72137],[-2.68247,53.72027],[-2.68406,53.72087],[-2.68342,53.72135],[-2.68261,53.7211],[-2.68283,53.72154],[-2.6823,53.72149],[-2.68262,53.72211],[-2.68224,53.72206],[-2.6827,53.72257],[-2.68226,53.72433],[-2.68479,53.72471],[-2.68205,53.72546],[-2.682,53.72585],[-2.683,53.72573],[-2.68325,53.72628],[-2.68253,53.72649],[-2.6826,53.72702],[-2.68205,53.72744],[-2.67985,53.72736],[-2.67559,53.72807],[-2.6743,53.72924]]]}},{"type":"Feature","properties":{"id":"E01025444","name":"E01025444","parent":"E07000126","type":"LSOA","pop":1213,"r":410,"ff":125,"ffd":10305.0,"ffs":0.4139,"g":106,"co":0,"mo":0,"sa":0,"ic":0},"geometry":{"type":"Polygon","coordinates":[[[-2.68325,53.72628],[-2.683,53.72573],[-2.682,53.72585],[-2.68205,53.72546],[-2.68479,53.72471],[-2.68226,53.72433],[-2.6827,53.72257],[-2.68224,53.72206],[-2.68343,53.72247],[-2.68359,53.7221],[-2.68485,53.7217],[-2.68659,53.72357],[-2.68753,53.72315],[-2.68875,53.72488],[-2.69292,53.72649],[-2.69306,53.7267],[-2.69078,53.72716],[-2.68205,53.72744],[-2.6826,53.72702],[-2.68253,53.72649],[-2.68325,53.72628]]]}},{"type":"Feature","properties":{"id":"E01025445","name":"E01025445","parent":"E07000126","type":"LSOA","pop":2193,"r":294,"ff":86,"ffd":3921.6,"ffs":0.4195,"g":87,"co":0,"mo":0,"sa":0,"ic":0},"geometry":{"type":"Polygon","coordinates":[[[-2.71566,53.68787],[-2.715,53.68598],[-2.71281,53.6863],[-2.71264,53.68743],[-2.71069,53.68713],[-2.71025,53.68612],[-2.70898,53.6856],[-2.70751,53.68573],[-2.70688,53.6832],[-2.70797,53.68268],[-2.7081,53.68154],[-2.70848,53.681],[-2.70845,53.67852],[-2.70895,53.67847],[-2.70806,53.67601],[-2.71058,53.67609],[-2.71249,53.67133],[-2.7155,53.67182],[-2.71729,53.67266],[-2.72001,53.67315],[-2.71765,53.67884],[-2.7175,53.68278],[-2.71805,53.68322],[-2.71721,53.68378],[-2.71663,53.68498],[-2.71642,53.68889],[-2.71565,53.68892],[-2.71523,53.68846],[-2.71566,53.68787]]]}},{"type":"Feature","properties":{"id":"E01025446","name":"E01025446","parent":"E07000126","type":"LSOA","pop":1420,"r":303,"ff":89,"ffd":6267.6,"ffs":0.4218,"g":90,"co":0,"mo":0,"sa":0,"ic":0},"geometry":{"type":"Polygon","coordinates":[[[-2.70829,53.694],[-2.70697,53.69307],[-2.70652,53.6933],[-2.70224,53.69139],[-2.70215,53.69019],[-2.70232,53.68964],[-2.70146,53.6892],[-2.70123,53.6886],[-2.69869,53.68864],[-2.69855,53.6883],[-2.70019,53.68802],[-2.69991,53.6864],[-2.70593,53.68664],[-2.70638,53.68657],[-2.70637,53.68601],[-2.70898,53.6856],[-2.71025,53.68612],[-2.71069,53.68713],[-2.71146,53.6879],[-2.71102,53.68828],[-2.71152,53.68842],[-2.71183,53.68933],[-2.71152,53.68967],[-2.71219,53.69008],[-2.71137,53.69017],[-2.71107,53.69117],[-2.71153,53.69125],[-2.71137,53.69148],[-2.71132,53.69324],[-2.71197,53.69368],[-2.70829,53.694]]]}},{"type":"Feature","properties":{"id":"E01025447","name":"E01025447","parent":"E07000126","type":"LSOA","pop":1141,"r":327,"ff":101,"ffd":8851.9,"ffs":0.4316,"g":91,"co":0,"mo":0,"sa":0,"ic":0},"geometry":{"type":"Polygon","coordinates":[[[-2.71183,53.68933],[-2.71152,53.68842],[-2.71102,53.68828],[-2.71146,53.6879],[-2.71069,53.68713],[-2.71264,53.68743],[-2.71281,53.6863],[-2.715,53.68598],[-2.71566,53.68787],[-2.71523,53.68846],[-2.71565,53.68892],[-2.71642,53.68889],[-2.71662,53.68924],[-2.71664,53.69045],[-2.71401,53.6912],[-2.71357,53.69157],[-2.71107,53.69117],[-2.71137,53.69017],[-2.71219,53.69008],[-2.71152,53.68967],[-2.71183,53.68933]]]}},{"type":"Feature","properties":{"id":"E01025448","name":"E01025448","parent":"E07000126","type":"LSOA","pop":1614,"r":394,"ff":135,"ffd":8364.3,"ffs":0.4608,"g":99,"co":0,"mo":0,"sa":0,"ic":0},"geometry":{"type":"Polygon","coordinates":[[[-2.70394,53.7502],[-2.7031,53.74985],[-2.70018,53.74997],[-2.69975,53.74976],[-2.69943,53.74837],[-2.69969,53.74783],[-2.70128,53.74706],[-2.70137,53.74585],[-2.70004,53.74472],[-2.69952,53.74365],[-2.69959,53.74316],[-2.70245,53.74416],[-2.70513,53.74445],[-2.70491,53.74316],[-2.70795,53.7422],[-2.70825,53.74178],[-2.70942,53.74237],[-2.71075,53.74351],[-2.7113,53.74334],[-2.71218,53.74396],[-2.71188,53.74486],[-2.71675,53.74498],[-2.71929,53.74428],[-2.71539,53.74682],[-2.71688,53.74818],[-2.71876,53.74894],[-2.71781,53.74987],[-2.717,53.75008],[-2.71679,53.74952],[-2.71467,53.74858],[-2.71068,53.74763],[-2.70854,53.74791],[-2.70687,53.74889],[-2.70583,53.74909],[-2.70435,53.75022],[-2.70394,53.7502]]]}},{"type":"Feature","properties":{"id":"E01025451","name":"E01025451","parent":"E07000126","type":"LSOA","pop":1914,"r":256,"ff":74,"ffd":3866.2,"ffs":0.4253,"g":80,"co":0,"mo":0,"sa":2,"ic":0},"geometry":{"type":"Polygon","coordinates":[[[-2.7556,53.70026],[-2.75079,53.69903],[-2.75038,53.6996],[-2.74731,53.69872],[-2.74714,53.69833],[-2.74233,53.69733],[-2.74513,53.69658],[-2.74643,53.69695],[-2.74594,53.69497],[-2.74466,53.6944],[-2.74297,53.69462],[-2.74246,53.69362],[-2.74345,53.69356],[-2.74112,53.6932],[-2.74085,53.69284],[-2.73971,53.69311],[-2.73849,53.69311],[-2.73762,53.69224],[-2.73699,53.69234],[-2.73677,53.69189],[-2.7357,53.69189],[-2.73574,53.6914],[-2.7334,53.69073],[-2.73261,53.69144],[-2.7301,53.69113],[-2.73064,53.69033],[-2.73194,53.68912],[-2.73445,53.6873],[-2.73724,53.68745],[-2.73756,53.68778],[-2.74142,53.6881],[-2.74273,53.68783],[-2.74277,53.68749],[-2.74411,53.68775],[-2.74463,53.68955],[-2.74528,53.69089],[-2.74562,53.69158],[-2.7466,53.69271],[-2.74822,53.69241],[-2.75082,53.69289],[-2.75762,53.69288],[-2.7556,53.70026]]]}},{"type":"Feature","properties":{"id":"E01025452","name":"E01025452","parent":"E07000126","type":"LSOA","pop":1973,"r":313,"ff":89,"ffd":4510.9,"ffs":0.4083,"g":93,"co":0,"mo":0,"sa":2,"ic":0},"geometry":{"type":"Polygon","coordinates":[[[-2.72644,53.70062],[-2.72687,53.6992],[-2.72897,53.69812],[-2.72973,53.69721],[-2.72978,53.69279],[-2.7301,53.69113],[-2.73261,53.69144],[-2.7334,53.69073],[-2.73574,53.6914],[-2.7357,53.69189],[-2.73677,53.69189],[-2.73699,53.69234],[-2.73762,53.69224],[-2.73849,53.69311],[-2.73971,53.69311],[-2.74085,53.69284],[-2.74112,53.6932],[-2.74345,53.69356],[-2.74246,53.69362],[-2.74297,53.69462],[-2.74466,53.6944],[-2.74594,53.69497],[-2.74643,53.69695],[-2.74513,53.69658],[-2.74233,53.69733],[-2.74714,53.69833],[-2.74731,53.69872],[-2.75038,53.6996],[-2.75079,53.69903],[-2.7556,53.70026],[-2.75198,53.70994],[-2.74191,53.71219],[-2.73219,53.71093],[-2.72655,53.7084],[-2.72793,53.70447],[-2.72865,53.70439],[-2.72906,53.70389],[-2.72894,53.70332],[-2.72707,53.70275],[-2.72644,53.70062]]]}},{"type":"Feature","properties":{"id":"E01025453","name":"E01025453","parent":"E07000126","type":"LSOA","pop":1822,"r":319,"ff":87,"ffd":4775.0,"ffs":0.3884,"g":93,"co":2,"mo":2,"sa":0,"ic":0},"geometry":{"type":"Polygon","coordinates":[[[-2.75188,53.73881],[-2.75086,53.73834],[-2.74962,53.73876],[-2.7461,53.73827],[-2.74307,53.73752],[-2.74288,53.73672],[-2.74213,53.73661],[-2.74118,53.7356],[-2.7396,53.73492],[-2.7344,53.7345],[-2.73101,53.73365],[-2.7286,53.73343],[-2.7237,53.73102],[-2.72311,53.73035],[-2.72048,53.7291],[-2.71782,53.72726],[-2.71695,53.72546],[-2.72841,53.72658],[-2.72895,53.72416],[-2.72844,53.7266],[-2.73495,53.7272],[-2.7343,53.72873],[-2.73982,53.73022],[-2.7401,53.73091],[-2.74433,53.72813],[-2.74897,53.72853],[-2.75003,53.72765],[-2.74965,53.7266],[-2.75032,53.72619],[-2.75154,53.7263],[-2.75343,53.72525],[-2.75378,53.72356],[-2.75629,53.72168],[-2.7578,53.72255],[-2.75783,53.72361],[-2.75899,53.72409],[-2.76007,53.72391],[-2.7608,53.72325],[-2.76364,53.72382],[-2.7642,53.72411],[-2.76407,53.72492],[-2.76439,53.72472],[-2.76034,53.72941],[-2.76837,53.72941],[-2.76882,53.73056],[-2.76783,53.73178],[-2.7677,53.73233],[-2.76685,53.73255],[-2.76709,53.73306],[-2.76915,53.73444],[-2.76823,53.73501],[-2.76608,53.73552],[-2.76221,53.7375],[-2.76058,53.73796],[-2.76022,53.73715],[-2.75883,53.73637],[-2.75806,53.73674],[-2.75753,53.73636],[-2.75188,53.73881]]]}},{"type":"Feature","properties":{"id":"E01025454","name":"E01025454","parent":"E07000126","type":"LSOA","pop":1324,"r":315,"ff":86,"ffd":6495.5,"ffs":0.3874,"g":91,"co":2,"mo":2,"sa":0,"ic":0},"geometry":{"type":"Polygon","coordinates":[[[-2.7343,53.72873],[-2.73495,53.7272],[-2.72844,53.7266],[-2.7299,53.7201],[-2.73448,53.72125],[-2.73724,53.72091],[-2.73779,53.7206],[-2.73931,53.72083],[-2.74104,53.72148],[-2.74225,53.72141],[-2.7433,53.72195],[-2.74369,53.72146],[-2.74326,53.72142],[-2.74326,53.7207],[-2.74481,53.72073],[-2.74514,53.72184],[-2.74439,53.72212],[-2.74455,53.7228],[-2.74212,53.72321],[-2.74273,53.72425],[-2.74578,53.72408],[-2.74608,53.72495],[-2.7476,53.72483],[-2.74846,53.72619],[-2.75022,53.72562],[-2.75077,53.72466],[-2.75246,53.72339],[-2.75378,53.72356],[-2.75343,53.72525],[-2.75154,53.7263],[-2.75032,53.72619],[-2.74965,53.7266],[-2.75003,53.72765],[-2.74897,53.72853],[-2.74433,53.72813],[-2.7401,53.73091],[-2.73982,53.73022],[-2.7343,53.72873]]]}},{"type":"Feature","properties":{"id":"E01025455","name":"E01025455","parent":"E07000126","type":"LSOA","pop":1595,"r":312,"ff":83,"ffd":5203.8,"ffs":0.379,"g":91,"co":2,"mo":2,"sa":0,"ic":0},"geometry":{"type":"Polygon","coordinates":[[[-2.74846,53.72619],[-2.7476,53.72483],[-2.74608,53.72495],[-2.74578,53.72408],[-2.74273,53.72425],[-2.74212,53.72321],[-2.74455,53.7228],[-2.74439,53.72212],[-2.74514,53.72184],[-2.74481,53.72073],[-2.74326,53.7207],[-2.74326,53.72142],[-2.74369,53.72146],[-2.7433,53.72195],[-2.74225,53.72141],[-2.74104,53.72148],[-2.73931,53.72083],[-2.73779,53.7206],[-2.73724,53.72091],[-2.73448,53.72125],[-2.7299,53.7201],[-2.73219,53.71093],[-2.74191,53.71219],[-2.75198,53.70994],[-2.76448,53.70987],[-2.76623,53.70927],[-2.77132,53.70932],[-2.77419,53.70903],[-2.77732,53.71047],[-2.78133,53.71057],[-2.78171,53.71091],[-2.7767,53.71371],[-2.77133,53.71741],[-2.76407,53.72492],[-2.7642,53.72411],[-2.76364,53.72382],[-2.7608,53.72325],[-2.76007,53.72391],[-2.75899,53.72409],[-2.75783,53.72361],[-2.7578,53.72255],[-2.75629,53.72168],[-2.75378,53.72356],[-2.75246,53.72339],[-2.75077,53.72466],[-2.75022,53.72562],[-2.74846,53.72619]]]}},{"type":"Feature","properties":{"id":"E01025456","name":"E01025456","parent":"E07000126","type":"LSOA","pop":1173,"r":143,"ff":54,"ffd":4603.6,"ffs":0.5192,"g":38,"co":2,"mo":0,"sa":2,"ic":0},"geometry":{"type":"Polygon","coordinates":[[[-2.61187,53.77858],[-2.60872,53.77853],[-2.60597,53.77897],[-2.60112,53.78063],[-2.59949,53.78147],[-2.59897,53.78108],[-2.59661,53.78096],[-2.59595,53.78059],[-2.59509,53.78064],[-2.59407,53.78027],[-2.59295,53.77902],[-2.5923,53.77958],[-2.59179,53.77952],[-2.58914,53.78069],[-2.58914,53.78111],[-2.58811,53.78082],[-2.58803,53.78176],[-2.58709,53.78218],[-2.58565,53.78224],[-2.5853,53.78272],[-2.58414,53.78112],[-2.58262,53.77999],[-2.58086,53.77554],[-2.57744,53.77496],[-2.57471,53.77509],[-2.56684,53.77721],[-2.56313,53.77686],[-2.55561,53.7774],[-2.55315,53.77713],[-2.55129,53.77645],[-2.54753,53.77572],[-2.54759,53.77132],[-2.54604,53.76931],[-2.54555,53.7692],[-2.54821,53.76772],[-2.55205,53.76671],[-2.5618,53.76264],[-2.56427,53.76201],[-2.56392,53.76094],[-2.56446,53.7579],[-2.56217,53.75674],[-2.56138,53.75692],[-2.56137,53.75632],[-2.55993,53.7563],[-2.55738,53.75735],[-2.55436,53.75776],[-2.55239,53.75756],[-2.5513,53.75639],[-2.55216,53.75518],[-2.55164,53.7546],[-2.55208,53.75424],[-2.55201,53.75302],[-2.55283,53.75211],[-2.55265,53.75122],[-2.5538,53.75045],[-2.55399,53.74971],[-2.55454,53.74956],[-2.55512,53.74993],[-2.55625,53.74905],[-2.55814,53.74909],[-2.55917,53.74755],[-2.5616,53.7469],[-2.56392,53.74879],[-2.567,53.74963],[-2.56914,53.74972],[-2.57295,53.75107],[-2.57318,53.75141],[-2.57724,53.75115],[-2.57826,53.75027],[-2.57867,53.74887],[-2.57991,53.74755],[-2.58235,53.74671],[-2.58431,53.74498],[-2.58817,53.74292],[-2.59567,53.7434],[-2.59716,53.74284],[-2.59923,53.74253],[-2.59994,53.74215],[-2.60003,53.74141],[-2.60102,53.74088],[-2.60425,53.74128],[-2.60572,53.74247],[-2.60626,53.74232],[-2.60628,53.74271],[-2.60887,53.74298],[-2.60926,53.74343],[-2.60993,53.7433],[-2.61054,53.74374],[-2.61215,53.74398],[-2.61249,53.74434],[-2.61332,53.74432],[-2.61388,53.74513],[-2.61606,53.74576],[-2.6174,53.74659],[-2.62024,53.74782],[-2.62102,53.74887],[-2.62318,53.74837],[-2.62431,53.74844],[-2.62401,53.74894],[-2.62444,53.74933],[-2.62661,53.7501],[-2.6274,53.75131],[-2.62846,53.7512],[-2.62875,53.75208],[-2.62941,53.75205],[-2.62972,53.75253],[-2.63167,53.75278],[-2.63799,53.7527],[-2.63939,53.75295],[-2.64131,53.75281],[-2.64395,53.75158],[-2.64482,53.75191],[-2.65199,53.7519],[-2.65295,53.75223],[-2.65763,53.75037],[-2.65997,53.74916],[-2.66192,53.7502],[-2.66051,53.75145],[-2.65922,53.75361],[-2.65891,53.75779],[-2.65744,53.7599],[-2.65547,53.76091],[-2.65239,53.76107],[-2.64664,53.75997],[-2.64502,53.76022],[-2.64382,53.76134],[-2.64389,53.76497],[-2.64369,53.7654],[-2.64254,53.76581],[-2.63543,53.76572],[-2.62803,53.76731],[-2.62511,53.76858],[-2.62179,53.77122],[-2.62154,53.77306],[-2.62291,53.77465],[-2.62753,53.77735],[-2.63387,53.77951],[-2.635,53.78016],[-2.63523,53.78095],[-2.63465,53.78185],[-2.63346,53.78253],[-2.63192,53.78279],[-2.63031,53.78273],[-2.62518,53.78173],[-2.61882,53.77937],[-2.61187,53.77858]]]}},{"type":"Feature","properties":{"id":"E01025457","name":"E01025457","parent":"E07000126","type":"LSOA","pop":1380,"r":389,"ff":121,"ffd":8768.1,"ffs":0.4306,"g":106,"co":0,"mo":0,"sa":0,"ic":0},"geometry":{"type":"MultiPolygon","coordinates":[[[[-2.67922,53.7457],[-2.67924,53.74569],[-2.67927,53.7457],[-2.67922,53.7457]]],[[[-2.67574,53.74602],[-2.67759,53.74585],[-2.67674,53.74603],[-2.67574,53.74602]]],[[[-2.64131,53.75281],[-2.64842,53.74665],[-2.65015,53.74455],[-2.64688,53.74438],[-2.64486,53.74369],[-2.64428,53.74321],[-2.64517,53.74301],[-2.64565,53.74222],[-2.64799,53.74234],[-2.65094,53.74173],[-2.65068,53.74302],[-2.65135,53.74309],[-2.65332,53.7421],[-2.65554,53.742],[-2.65633,53.74228],[-2.65724,53.74211],[-2.65984,53.74388],[-2.662,53.74452],[-2.66322,53.74451],[-2.66373,53.74336],[-2.66498,53.74268],[-2.6674,53.74363],[-2.66995,53.74373],[-2.67055,53.74406],[-2.67137,53.74547],[-2.67257,53.74593],[-2.67667,53.74614],[-2.67946,53.74578],[-2.68099,53.74635],[-2.68467,53.74897],[-2.68073,53.75189],[-2.67944,53.75248],[-2.67816,53.75252],[-2.67494,53.75019],[-2.67321,53.74937],[-2.66828,53.74823],[-2.66494,53.74846],[-2.66294,53.74921],[-2.6617,53.75005],[-2.66192,53.7502],[-2.65997,53.74916],[-2.65763,53.75037],[-2.65295,53.75223],[-2.65199,53.7519],[-2.64482,53.75191],[-2.64395,53.75158],[-2.64131,53.75281]]]]}},{"type":"Feature","properties":{"id":"E01025458","name":"E01025458","parent":"E07000126","type":"LSOA","pop":1669,"r":362,"ff":115,"ffd":6890.4,"ffs":0.4373,"g":97,"co":0,"mo":0,"sa":0,"ic":0},"geometry":{"type":"Polygon","coordinates":[[[-2.63939,53.75295],[-2.63799,53.7527],[-2.63167,53.75278],[-2.62972,53.75253],[-2.62941,53.75205],[-2.62875,53.75208],[-2.62846,53.7512],[-2.6274,53.75131],[-2.62661,53.7501],[-2.62444,53.74933],[-2.62401,53.74894],[-2.62431,53.74844],[-2.62318,53.74837],[-2.62102,53.74887],[-2.62024,53.74782],[-2.6174,53.74659],[-2.61606,53.74576],[-2.61763,53.74663],[-2.61878,53.74617],[-2.62082,53.74633],[-2.62443,53.7458],[-2.62605,53.74596],[-2.62544,53.74535],[-2.62452,53.74538],[-2.62458,53.74493],[-2.62375,53.74415],[-2.62555,53.7424],[-2.62474,53.74166],[-2.6259,53.74178],[-2.62531,53.7409],[-2.63171,53.74014],[-2.63122,53.73958],[-2.63276,53.73958],[-2.63376,53.73893],[-2.63419,53.73897],[-2.63395,53.73871],[-2.63463,53.73752],[-2.63624,53.73783],[-2.63677,53.73703],[-2.63673,53.73661],[-2.63575,53.73657],[-2.63568,53.73612],[-2.63632,53.73583],[-2.63591,53.73538],[-2.6345,53.73497],[-2.63505,53.73479],[-2.63592,53.73501],[-2.63599,53.73447],[-2.63321,53.73363],[-2.63618,53.732],[-2.63685,53.73105],[-2.6383,53.73116],[-2.63752,53.73401],[-2.63874,53.73384],[-2.64085,53.73476],[-2.64269,53.7337],[-2.6459,53.7327],[-2.64803,53.73387],[-2.64865,53.73581],[-2.64986,53.73763],[-2.65079,53.7397],[-2.65094,53.74173],[-2.64799,53.74234],[-2.64565,53.74222],[-2.64517,53.74301],[-2.64428,53.74321],[-2.64486,53.74369],[-2.64688,53.74438],[-2.65015,53.74455],[-2.64842,53.74665],[-2.64131,53.75281],[-2.63939,53.75295]]]}},{"type":"Feature","properties":{"id":"E01025459","name":"E01025459","parent":"E07000126","type":"LSOA","pop":1832,"r":342,"ff":96,"ffd":5240.2,"ffs":0.4017,"g":101,"co":0,"mo":0,"sa":2,"ic":0},"geometry":{"type":"Polygon","coordinates":[[[-2.71556,53.6937],[-2.71427,53.69362],[-2.71411,53.69389],[-2.71204,53.694],[-2.71197,53.69368],[-2.71132,53.69324],[-2.71137,53.69148],[-2.71153,53.69125],[-2.71357,53.69157],[-2.71401,53.6912],[-2.71664,53.69045],[-2.71662,53.68924],[-2.71642,53.68889],[-2.71663,53.68498],[-2.7172,53.6851],[-2.71681,53.68564],[-2.71689,53.6874],[-2.7174,53.6872],[-2.71922,53.68769],[-2.71804,53.68948],[-2.71879,53.6894],[-2.71971,53.68899],[-2.72002,53.68817],[-2.72126,53.688],[-2.72175,53.68831],[-2.72299,53.6883],[-2.72371,53.68718],[-2.7247,53.68848],[-2.72685,53.68889],[-2.72644,53.68952],[-2.72697,53.6899],[-2.72724,53.69049],[-2.72827,53.69065],[-2.72864,53.69125],[-2.72825,53.69147],[-2.72675,53.69117],[-2.72559,53.69153],[-2.7226,53.69138],[-2.72201,53.69275],[-2.71991,53.69325],[-2.71934,53.69426],[-2.7174,53.69447],[-2.71711,53.69409],[-2.71581,53.69396],[-2.71556,53.6937]]]}},{"type":"Feature","properties":{"id":"E01025460","name":"E01025460","parent":"E07000126","type":"LSOA","pop":1939,"r":327,"ff":101,"ffd":5208.9,"ffs":0.4316,"g":91,"co":0,"mo":0,"sa":0,"ic":0},"geometry":{"type":"Polygon","coordinates":[[[-2.7259,53.69152],[-2.72675,53.69117],[-2.72825,53.69147],[-2.72864,53.69125],[-2.72827,53.69065],[-2.72724,53.69049],[-2.72697,53.6899],[-2.72644,53.68952],[-2.72685,53.68889],[-2.7247,53.68848],[-2.72371,53.68718],[-2.72299,53.6883],[-2.72175,53.68831],[-2.72126,53.688],[-2.72002,53.68817],[-2.71971,53.68899],[-2.71879,53.6894],[-2.71804,53.68948],[-2.71922,53.68769],[-2.7174,53.6872],[-2.71689,53.6874],[-2.71681,53.68564],[-2.7172,53.6851],[-2.71663,53.68498],[-2.71721,53.68378],[-2.71805,53.68322],[-2.7175,53.68278],[-2.71765,53.67884],[-2.72001,53.67315],[-2.73027,53.67394],[-2.73187,53.67456],[-2.73287,53.67419],[-2.73355,53.67428],[-2.73383,53.67477],[-2.73326,53.67719],[-2.73162,53.67982],[-2.73106,53.682],[-2.72911,53.68331],[-2.72946,53.68367],[-2.73229,53.68427],[-2.73061,53.68543],[-2.73004,53.68621],[-2.73273,53.68656],[-2.73445,53.6873],[-2.73194,53.68912],[-2.73064,53.69033],[-2.7301,53.69113],[-2.72984,53.6925],[-2.7259,53.69152]]]}},{"type":"Feature","properties":{"id":"E01025461","name":"E01025461","parent":"E07000126","type":"LSOA","pop":1984,"r":418,"ff":129,"ffd":6502.0,"ffs":0.4161,"g":106,"co":0,"mo":0,"sa":0,"ic":0},"geometry":{"type":"Polygon","coordinates":[[[-2.68164,53.73709],[-2.68083,53.73688],[-2.67819,53.73751],[-2.67774,53.73678],[-2.67657,53.73323],[-2.67529,53.73069],[-2.6743,53.72924],[-2.67559,53.72807],[-2.67985,53.72736],[-2.68485,53.72746],[-2.68484,53.72774],[-2.68433,53.72778],[-2.68497,53.72805],[-2.68485,53.72894],[-2.68407,53.72979],[-2.68236,53.72969],[-2.68122,53.73013],[-2.68111,53.7312],[-2.68161,53.73095],[-2.6826,53.73101],[-2.68321,53.73206],[-2.68483,53.73142],[-2.68493,53.73074],[-2.68651,53.73024],[-2.68739,53.73045],[-2.68655,53.73146],[-2.68729,53.73137],[-2.68815,53.73074],[-2.68781,53.73116],[-2.68835,53.73115],[-2.6887,53.73157],[-2.6896,53.73416],[-2.69031,53.73418],[-2.69021,53.73537],[-2.6885,53.73675],[-2.68726,53.73724],[-2.68679,53.73779],[-2.68164,53.73709]]]}},{"type":"Feature","properties":{"id":"E01025462","name":"E01025462","parent":"E07000126","type":"LSOA","pop":2365,"r":405,"ff":126,"ffd":5327.7,"ffs":0.4242,"g":106,"co":0,"mo":0,"sa":0,"ic":0},"geometry":{"type":"Polygon","coordinates":[[[-2.6887,53.73157],[-2.68835,53.73115],[-2.68781,53.73116],[-2.68815,53.73074],[-2.68729,53.73137],[-2.68655,53.73146],[-2.68739,53.73045],[-2.68651,53.73024],[-2.68493,53.73074],[-2.68483,53.73142],[-2.68321,53.73206],[-2.6826,53.73101],[-2.68161,53.73095],[-2.68111,53.7312],[-2.68122,53.73013],[-2.68236,53.72969],[-2.68407,53.72979],[-2.68485,53.72894],[-2.68497,53.72805],[-2.68433,53.72778],[-2.68484,53.72774],[-2.68485,53.72746],[-2.69078,53.72716],[-2.69306,53.7267],[-2.69372,53.72876],[-2.69552,53.73035],[-2.69559,53.73105],[-2.69486,53.73276],[-2.69894,53.73469],[-2.69899,53.73575],[-2.69974,53.73681],[-2.69968,53.7375],[-2.7005,53.73861],[-2.69535,53.73872],[-2.69021,53.73537],[-2.69031,53.73418],[-2.6896,53.73416],[-2.6887,53.73157]]]}},{"type":"Feature","properties":{"id":"E01025463","name":"E01025463","parent":"E07000126","type":"LSOA","pop":1368,"r":409,"ff":126,"ffd":9210.5,"ffs":0.42,"g":107,"co":0,"mo":0,"sa":0,"ic":0},"geometry":{"type":"Polygon","coordinates":[[[-2.6779,53.74314],[-2.67763,53.74274],[-2.677,53.74284],[-2.67579,53.7404],[-2.67536,53.7404],[-2.67538,53.73953],[-2.67302,53.73952],[-2.67362,53.74075],[-2.67481,53.74072],[-2.67493,53.74047],[-2.67538,53.74062],[-2.67567,53.74109],[-2.67513,53.741],[-2.67535,53.74151],[-2.67207,53.74201],[-2.67087,53.7419],[-2.67077,53.74033],[-2.6702,53.73946],[-2.66788,53.73765],[-2.66826,53.73663],[-2.66929,53.73674],[-2.67008,53.73718],[-2.67089,53.73691],[-2.67216,53.73727],[-2.67351,53.73685],[-2.67452,53.7369],[-2.67518,53.73727],[-2.67774,53.73678],[-2.67819,53.73751],[-2.68083,53.73688],[-2.68164,53.73709],[-2.68129,53.73762],[-2.68079,53.73765],[-2.68265,53.73988],[-2.68368,53.73938],[-2.68409,53.73946],[-2.6846,53.73901],[-2.68593,53.73973],[-2.6826,53.74284],[-2.68071,53.74321],[-2.6779,53.74314]]]}},{"type":"Feature","properties":{"id":"E01025464","name":"E01025464","parent":"E07000126","type":"LSOA","pop":1189,"r":428,"ff":136,"ffd":11438.2,"ffs":0.4263,"g":107,"co":0,"mo":0,"sa":0,"ic":0},"geometry":{"type":"Polygon","coordinates":[[[-2.69627,53.75158],[-2.69034,53.74892],[-2.68491,53.74882],[-2.68143,53.74645],[-2.68263,53.74562],[-2.68338,53.74449],[-2.68372,53.74309],[-2.68306,53.74319],[-2.6826,53.74284],[-2.68593,53.73973],[-2.6846,53.73901],[-2.68409,53.73946],[-2.68368,53.73938],[-2.68265,53.73988],[-2.68079,53.73765],[-2.68129,53.73762],[-2.68164,53.73709],[-2.68679,53.73779],[-2.68726,53.73724],[-2.6885,53.73675],[-2.69021,53.73537],[-2.69535,53.73872],[-2.69965,53.74288],[-2.69938,53.74329],[-2.70004,53.74472],[-2.70137,53.74585],[-2.70128,53.74706],[-2.69969,53.74783],[-2.69943,53.74837],[-2.69975,53.74976],[-2.70018,53.74997],[-2.7031,53.74985],[-2.70435,53.75022],[-2.70116,53.75116],[-2.69627,53.75158]]]}},{"type":"Feature","properties":{"id":"E01025465","name":"E01025465","parent":"E07000126","type":"LSOA","pop":998,"r":418,"ff":130,"ffd":13026.1,"ffs":0.4207,"g":107,"co":0,"mo":0,"sa":0,"ic":0},"geometry":{"type":"MultiPolygon","coordinates":[[[[-2.67472,53.74612],[-2.67359,53.74602],[-2.67514,53.74608],[-2.67472,53.74612]]],[[[-2.67946,53.74578],[-2.68088,53.74628],[-2.68099,53.74635],[-2.67946,53.74578]]],[[[-2.67927,53.7457],[-2.67862,53.74563],[-2.67574,53.74602],[-2.67347,53.74601],[-2.67257,53.74593],[-2.67137,53.74547],[-2.67055,53.74406],[-2.67173,53.74359],[-2.67087,53.7419],[-2.67207,53.74201],[-2.67535,53.74151],[-2.67513,53.741],[-2.67567,53.74109],[-2.67538,53.74062],[-2.67493,53.74047],[-2.67481,53.74072],[-2.67362,53.74075],[-2.67302,53.73952],[-2.67538,53.73953],[-2.67536,53.7404],[-2.67579,53.7404],[-2.677,53.74284],[-2.67763,53.74274],[-2.6779,53.74314],[-2.68071,53.74321],[-2.6826,53.74284],[-2.68306,53.74319],[-2.68372,53.74309],[-2.68338,53.74449],[-2.68263,53.74562],[-2.68143,53.74645],[-2.67987,53.74577],[-2.67927,53.7457]]]]}},{"type":"Feature","properties":{"id":"E01025466","name":"E01025466","parent":"E07000126","type":"LSOA","pop":1532,"r":359,"ff":118,"ffd":7702.3,"ffs":0.4453,"g":92,"co":0,"mo":0,"sa":0,"ic":0},"geometry":{"type":"Polygon","coordinates":[[[-2.72952,53.74999],[-2.72926,53.74567],[-2.73147,53.74544],[-2.73183,53.74346],[-2.73537,53.74329],[-2.73505,53.74389],[-2.73459,53.74395],[-2.73515,53.745],[-2.73275,53.74512],[-2.7328,53.74551],[-2.73363,53.74659],[-2.7345,53.74677],[-2.73492,53.74664],[-2.73479,53.74625],[-2.73763,53.74516],[-2.73773,53.74434],[-2.73941,53.74576],[-2.7391,53.74603],[-2.73953,53.74627],[-2.73689,53.74844],[-2.73409,53.74917],[-2.72952,53.74999]]]}},{"type":"Feature","properties":{"id":"E01025467","name":"E01025467","parent":"E07000126","type":"LSOA","pop":1947,"r":355,"ff":118,"ffd":6060.6,"ffs":0.4504,"g":91,"co":0,"mo":0,"sa":0,"ic":0},"geometry":{"type":"Polygon","coordinates":[[[-2.73275,53.74512],[-2.73515,53.745],[-2.73459,53.74395],[-2.73505,53.74389],[-2.73537,53.74329],[-2.73183,53.74346],[-2.73174,53.74159],[-2.73484,53.74153],[-2.73762,53.74119],[-2.7429,53.73942],[-2.74372,53.73985],[-2.7461,53.73827],[-2.74962,53.73876],[-2.74916,53.73943],[-2.75012,53.73992],[-2.74722,53.74199],[-2.74399,53.7438],[-2.74178,53.74463],[-2.73953,53.74627],[-2.7391,53.74603],[-2.73941,53.74576],[-2.73773,53.74434],[-2.73763,53.74516],[-2.73479,53.74625],[-2.73492,53.74664],[-2.7345,53.74677],[-2.73363,53.74659],[-2.7328,53.74551],[-2.73275,53.74512]]]}},{"type":"Feature","properties":{"id":"E01034348","name":"E01034348","parent":"E07000126","type":"LSOA","pop":1943,"r":399,"ff":132,"ffd":6793.6,"ffs":0.4475,"g":102,"co":0,"mo":0,"sa":0,"ic":0},"geometry":{"type":"Polygon","coordinates":[[[-2.71218,53.74396],[-2.7113,53.74334],[-2.71075,53.74351],[-2.70942,53.74237],[-2.70825,53.74178],[-2.70795,53.7422],[-2.70491,53.74316],[-2.70513,53.74445],[-2.70245,53.74416],[-2.69959,53.74316],[-2.69952,53.74365],[-2.69938,53.74329],[-2.69965,53.74288],[-2.69535,53.73872],[-2.7005,53.73861],[-2.69968,53.7375],[-2.69974,53.73681],[-2.70303,53.73635],[-2.70308,53.73608],[-2.70477,53.73729],[-2.70669,53.73667],[-2.7084,53.73647],[-2.70902,53.73717],[-2.71172,53.73707],[-2.71309,53.73842],[-2.71394,53.73847],[-2.71611,53.73754],[-2.71662,53.73865],[-2.71721,53.73875],[-2.71724,53.73945],[-2.71652,53.74026],[-2.71626,53.74259],[-2.71659,53.74269],[-2.71572,53.74356],[-2.71524,53.74334],[-2.71368,53.74391],[-2.71298,53.74493],[-2.71188,53.74486],[-2.71218,53.74396]]]}},{"type":"Feature","properties":{"id":"E01034349","name":"E01034349","parent":"E07000126","type":"LSOA","pop":2028,"r":389,"ff":117,"ffd":5769.2,"ffs":0.4164,"g":106,"co":0,"mo":0,"sa":0,"ic":0},"geometry":{"type":"Polygon","coordinates":[[[-2.69077,53.72157],[-2.69441,53.71954],[-2.69511,53.71815],[-2.69482,53.71721],[-2.69516,53.71713],[-2.69059,53.70706],[-2.69344,53.70716],[-2.69813,53.70657],[-2.69876,53.70603],[-2.70168,53.70554],[-2.70163,53.70675],[-2.70582,53.707],[-2.70896,53.70785],[-2.70943,53.70549],[-2.70993,53.70511],[-2.71044,53.70522],[-2.71113,53.70448],[-2.71186,53.70478],[-2.71203,53.70533],[-2.71323,53.70549],[-2.71391,53.70632],[-2.71502,53.7068],[-2.71669,53.70693],[-2.71694,53.70412],[-2.73219,53.71093],[-2.73123,53.71456],[-2.72565,53.71763],[-2.72398,53.71909],[-2.72386,53.72053],[-2.72317,53.72148],[-2.72016,53.72216],[-2.71837,53.72148],[-2.71654,53.72138],[-2.71554,53.72064],[-2.71562,53.71949],[-2.71502,53.7194],[-2.71463,53.71997],[-2.71146,53.72083],[-2.71125,53.72129],[-2.70809,53.72189],[-2.70606,53.7209],[-2.70638,53.72064],[-2.7058,53.72027],[-2.70556,53.71931],[-2.70411,53.72041],[-2.70312,53.71984],[-2.70303,53.7189],[-2.70058,53.71922],[-2.70261,53.72014],[-2.70237,53.72038],[-2.70237,53.72018],[-2.70121,53.72011],[-2.6988,53.72127],[-2.69846,53.72084],[-2.6972,53.72135],[-2.6963,53.72208],[-2.69688,53.72212],[-2.69785,53.72287],[-2.69311,53.72365],[-2.69108,53.72337],[-2.69018,53.72185],[-2.69077,53.72157]]]}},{"type":"Feature","properties":{"id":"E01034350","name":"E01034350","parent":"E07000126","type":"LSOA","pop":2897,"r":341,"ff":94,"ffd":3244.7,"ffs":0.4,"g":104,"co":0,"mo":0,"sa":0,"ic":0},"geometry":{"type":"Polygon","coordinates":[[[-2.70163,53.70675],[-2.70168,53.70554],[-2.69876,53.70603],[-2.69813,53.70657],[-2.69344,53.70716],[-2.69059,53.70706],[-2.6878,53.70098],[-2.69036,53.70145],[-2.69596,53.70172],[-2.69872,53.70238],[-2.69977,53.70306],[-2.70065,53.70309],[-2.70199,53.70384],[-2.70492,53.70296],[-2.70513,53.70275],[-2.70465,53.70254],[-2.70532,53.70248],[-2.70574,53.70193],[-2.70522,53.7017],[-2.70579,53.70174],[-2.70583,53.7014],[-2.70691,53.70145],[-2.70673,53.70181],[-2.70811,53.70164],[-2.70821,53.70197],[-2.70896,53.70127],[-2.70969,53.70156],[-2.7102,53.7011],[-2.71066,53.70134],[-2.71102,53.70117],[-2.71291,53.7024],[-2.71694,53.70412],[-2.71669,53.70693],[-2.71502,53.7068],[-2.71391,53.70632],[-2.71323,53.70549],[-2.71203,53.70533],[-2.71186,53.70478],[-2.71113,53.70448],[-2.71044,53.70522],[-2.70993,53.70511],[-2.70943,53.70549],[-2.70896,53.70785],[-2.70582,53.707],[-2.70163,53.70675]]]}},{"type":"Feature","properties":{"id":"E01034351","name":"E01034351","parent":"E07000126","type":"LSOA","pop":3173,"r":309,"ff":94,"ffd":2962.5,"ffs":0.4434,"g":95,"co":0,"mo":0,"sa":0,"ic":0},"geometry":{"type":"Polygon","coordinates":[[[-2.67758,53.69598],[-2.67759,53.69369],[-2.67776,53.69312],[-2.67808,53.69397],[-2.67882,53.69388],[-2.67947,53.6935],[-2.67914,53.69311],[-2.67952,53.69292],[-2.68053,53.69351],[-2.68158,53.69288],[-2.68007,53.69203],[-2.67913,53.69225],[-2.67921,53.69161],[-2.67747,53.6917],[-2.67757,53.69087],[-2.67655,53.6908],[-2.67492,53.69136],[-2.67546,53.6888],[-2.67688,53.68921],[-2.67694,53.68954],[-2.67808,53.68968],[-2.67849,53.68759],[-2.67983,53.68765],[-2.68209,53.68826],[-2.6826,53.68944],[-2.68377,53.68915],[-2.68424,53.68938],[-2.68482,53.68902],[-2.68463,53.68852],[-2.68822,53.68919],[-2.68812,53.68981],[-2.68777,53.68976],[-2.68752,53.69023],[-2.69262,53.69036],[-2.69332,53.68956],[-2.69403,53.68953],[-2.69465,53.68897],[-2.69536,53.68904],[-2.69438,53.69007],[-2.69511,53.69007],[-2.69517,53.69031],[-2.69432,53.69033],[-2.69437,53.69154],[-2.69511,53.69154],[-2.69515,53.69259],[-2.69405,53.69327],[-2.69428,53.69396],[-2.69207,53.69441],[-2.6917,53.69393],[-2.69058,53.69374],[-2.69073,53.69436],[-2.68985,53.69418],[-2.68975,53.69458],[-2.69075,53.69484],[-2.69014,53.69521],[-2.68966,53.69526],[-2.68926,53.69447],[-2.68883,53.69448],[-2.68697,53.6948],[-2.68675,53.69543],[-2.68533,53.69558],[-2.68482,53.69446],[-2.68333,53.6947],[-2.68059,53.69563],[-2.67758,53.69598]]]}},{"type":"Feature","properties":{"id":"E01034352","name":"E01034352","parent":"E07000126","type":"LSOA","pop":1458,"r":266,"ff":92,"ffd":6310.0,"ffs":0.5027,"g":81,"co":0,"mo":0,"sa":0,"ic":0},"geometry":{"type":"Polygon","coordinates":[[[-2.67808,53.69397],[-2.67776,53.69312],[-2.67759,53.69369],[-2.67585,53.69364],[-2.67359,53.69254],[-2.66291,53.6914],[-2.66477,53.68693],[-2.66432,53.68618],[-2.66404,53.68167],[-2.66495,53.68193],[-2.666,53.68173],[-2.66725,53.68116],[-2.66778,53.68019],[-2.66839,53.68007],[-2.67129,53.67964],[-2.67222,53.67992],[-2.67397,53.67984],[-2.67634,53.67925],[-2.67806,53.67927],[-2.68209,53.68826],[-2.67983,53.68765],[-2.67849,53.68759],[-2.67808,53.68968],[-2.67694,53.68954],[-2.67688,53.68921],[-2.67546,53.6888],[-2.67492,53.69136],[-2.67655,53.6908],[-2.67757,53.69087],[-2.67747,53.6917],[-2.67921,53.69161],[-2.67913,53.69225],[-2.68007,53.69203],[-2.68158,53.69288],[-2.68053,53.69351],[-2.67952,53.69292],[-2.67914,53.69311],[-2.67947,53.6935],[-2.67882,53.69388],[-2.67808,53.69397]]]}},{"type":"Feature","properties":{"id":"E01034353","name":"E01034353","parent":"E07000126","type":"LSOA","pop":1421,"r":256,"ff":88,"ffd":6192.8,"ffs":0.4972,"g":77,"co":0,"mo":0,"sa":0,"ic":0},"geometry":{"type":"Polygon","coordinates":[[[-2.65757,53.68917],[-2.65662,53.68851],[-2.65594,53.68851],[-2.65675,53.68761],[-2.65746,53.68772],[-2.6574,53.68717],[-2.65833,53.68607],[-2.65865,53.68361],[-2.65912,53.68254],[-2.65892,53.68062],[-2.66104,53.6808],[-2.66404,53.68167],[-2.66432,53.68618],[-2.66477,53.68693],[-2.66291,53.6914],[-2.66005,53.69125],[-2.65828,53.69079],[-2.65757,53.68917]]]}}]}