{"type":"FeatureCollection","features":[{"type":"Feature","properties":{"id":"E01018058","name":"E01018058","parent":"E07000010","type":"LSOA","pop":1557,"r":98,"ff":30,"ffd":1926.8,"ffs":0.5263,"g":39,"co":0,"mo":0,"sa":2,"ic":0},"geometry":{"type":"MultiPolygon","coordinates":[[[[-0.11732,52.5778],[-0.1197,52.57751],[-0.0864,52.58285],[-0.08915,52.5824],[-0.11732,52.5778]]],[[[-0.08339,52.58282],[-0.0835,52.58282],[-0.08169,52.5835],[-0.08339,52.58282]]],[[[-0.01705,52.59359],[-0.02194,52.59271],[-0.02034,52.59309],[-0.01705,52.59359]]],[[[-0.06801,52.57414],[-0.07685,52.57358],[-0.08427,52.57385],[-0.0983,52.57318],[-0.10233,52.57204],[-0.10286,52.57157],[-0.10203,52.57177],[-0.10077,52.57141],[-0.10188,52.57131],[-0.10131,52.57044],[-0.1024,52.56969],[-0.1016,52.56845],[-0.10434,52.56729],[-0.10794,52.56297],[-0.11599,52.56211],[-0.12007,52.56187],[-0.12018,52.56214],[-0.12119,52.56218],[-0.12128,52.56254],[-0.12184,52.56256],[-0.12223,52.56374],[-0.12439,52.56384],[-0.12504,52.56467],[-0.12476,52.5651],[-0.12516,52.5652],[-0.12341,52.56784],[-0.11998,52.57723],[-0.0875,52.58252],[-0.0835,52.58256],[-0.08137,52.58336],[-0.02707,52.5918],[-0.02393,52.59207],[-0.01265,52.59411],[-0.00771,52.58859],[-0.00742,52.58805],[-0.0112,52.58734],[-0.04092,52.57864],[-0.0552,52.5747],[-0.06801,52.57414]]]]}},{"type":"Feature","properties":{"id":"E01018059","name":"E01018059","parent":"E07000010","type":"LSOA","pop":1478,"r":20,"ff":11,"ffd":744.2,"ffs":0.55,"g":0,"co":1,"mo":3,"sa":3,"ic":3},"geometry":{"type":"Polygon","coordinates":[[[-0.07988,52.56169],[-0.07805,52.56164],[-0.07693,52.56197],[-0.07523,52.56167],[-0.07499,52.56138],[-0.07443,52.56165],[-0.07402,52.56126],[-0.07064,52.56029],[-0.0678,52.55898],[-0.06133,52.55932],[-0.06226,52.55777],[-0.06211,52.55682],[-0.06884,52.55662],[-0.07001,52.55856],[-0.07338,52.55721],[-0.07879,52.55615],[-0.08854,52.55122],[-0.08623,52.5473],[-0.07881,52.54719],[-0.07662,52.54503],[-0.07529,52.54266],[-0.07151,52.5422],[-0.08318,52.53685],[-0.08405,52.53694],[-0.09636,52.53138],[-0.08974,52.52587],[-0.08709,52.52583],[-0.08451,52.52248],[-0.09195,52.51849],[-0.0962,52.52154],[-0.10242,52.51743],[-0.09892,52.51475],[-0.10147,52.51325],[-0.09491,52.50832],[-0.08356,52.51256],[-0.07611,52.50699],[-0.078,52.50592],[-0.07528,52.50374],[-0.09043,52.49621],[-0.09765,52.50171],[-0.10456,52.49826],[-0.10213,52.49641],[-0.10545,52.49466],[-0.10476,52.49382],[-0.11444,52.48904],[-0.14345,52.51118],[-0.14773,52.51422],[-0.15127,52.5162],[-0.16027,52.52325],[-0.16706,52.52766],[-0.17066,52.53128],[-0.17365,52.53212],[-0.1763,52.53237],[-0.17902,52.53371],[-0.18225,52.53398],[-0.18598,52.53562],[-0.18665,52.53633],[-0.18829,52.53708],[-0.19007,52.53968],[-0.18785,52.54186],[-0.18663,52.54271],[-0.18563,52.54494],[-0.19062,52.54767],[-0.19103,52.55034],[-0.19787,52.55081],[-0.19506,52.55445],[-0.18851,52.55988],[-0.15033,52.55512],[-0.14461,52.55397],[-0.13084,52.54989],[-0.12743,52.54937],[-0.1242,52.54934],[-0.09695,52.55045],[-0.09587,52.55682],[-0.10074,52.55681],[-0.10043,52.55759],[-0.10098,52.55763],[-0.1,52.55995],[-0.09641,52.55861],[-0.09471,52.55736],[-0.09366,52.55753],[-0.09469,52.55656],[-0.09255,52.55665],[-0.09177,52.55522],[-0.09125,52.55554],[-0.09139,52.55632],[-0.0907,52.55741],[-0.08956,52.55749],[-0.0897,52.55791],[-0.08769,52.55804],[-0.08836,52.56045],[-0.08335,52.56293],[-0.07988,52.56169]]]}},{"type":"Feature","properties":{"id":"E01018060","name":"E01018060","parent":"E07000010","type":"LSOA","pop":1873,"r":16,"ff":9,"ffd":480.5,"ffs":0.5625,"g":0,"co":3,"mo":3,"sa":3,"ic":1},"geometry":{"type":"Polygon","coordinates":[[[-0.01031,52.5791],[-0.02078,52.54371],[-0.01919,52.54371],[-0.01697,52.54308],[-0.01681,52.54141],[-0.02042,52.5253],[-0.01426,52.52499],[-0.01177,52.52461],[-0.00798,52.52535],[-0.00405,52.52352],[-0.00651,52.52223],[-0.0032,52.52131],[-0.00075,52.52169],[-0.0012,52.51813],[-0.00013,52.50864],[-0.00213,52.50173],[-0.00336,52.50226],[-0.00972,52.50038],[-0.01329,52.50031],[-0.01534,52.49014],[-0.0102,52.48575],[-0.01101,52.48527],[-0.00694,52.48279],[-0.00551,52.48148],[-0.00545,52.48003],[-0.01859,52.46765],[-0.03168,52.47305],[-0.03886,52.47329],[-0.03902,52.47593],[-0.04169,52.47702],[-0.0376,52.47852],[-0.04064,52.48258],[-0.0403,52.48273],[-0.03905,52.49912],[-0.03935,52.50024],[-0.03851,52.50184],[-0.04019,52.5024],[-0.04519,52.5027],[-0.05132,52.50245],[-0.05272,52.50202],[-0.05286,52.50447],[-0.05166,52.50812],[-0.05061,52.50913],[-0.04807,52.51032],[-0.048,52.51068],[-0.05457,52.5134],[-0.05755,52.51216],[-0.06968,52.51686],[-0.07088,52.50589],[-0.07528,52.50374],[-0.078,52.50592],[-0.07611,52.50699],[-0.08356,52.51256],[-0.09491,52.50832],[-0.10147,52.51325],[-0.09892,52.51475],[-0.10242,52.51743],[-0.0962,52.52154],[-0.09195,52.51849],[-0.08451,52.52248],[-0.08709,52.52583],[-0.08974,52.52587],[-0.09636,52.53138],[-0.08405,52.53694],[-0.08318,52.53685],[-0.07151,52.5422],[-0.07529,52.54266],[-0.07662,52.54503],[-0.07881,52.54719],[-0.08623,52.5473],[-0.08854,52.55122],[-0.07879,52.55615],[-0.07338,52.55721],[-0.07001,52.55856],[-0.06884,52.55662],[-0.06211,52.55682],[-0.06226,52.55777],[-0.06133,52.55932],[-0.05855,52.55993],[-0.06138,52.56074],[-0.06483,52.56108],[-0.07023,52.56292],[-0.06545,52.56727],[-0.06564,52.56768],[-0.06933,52.56969],[-0.06887,52.57043],[-0.0658,52.57193],[-0.06801,52.57414],[-0.0552,52.5747],[-0.04092,52.57864],[-0.0112,52.58734],[-0.00775,52.58799],[-0.00714,52.58689],[-0.00813,52.58664],[-0.01031,52.5791]]]}},{"type":"Feature","properties":{"id":"E01018061","name":"E01018061","parent":"E07000010","type":"LSOA","pop":1241,"r":14,"ff":6,"ffd":483.5,"ffs":0.4286,"g":0,"co":1,"mo":3,"sa":3,"ic":3},"geometry":{"type":"Polygon","coordinates":[[[-0.06801,52.57414],[-0.0658,52.57193],[-0.06887,52.57043],[-0.06933,52.56969],[-0.06564,52.56768],[-0.06545,52.56727],[-0.07023,52.56292],[-0.06483,52.56108],[-0.06138,52.56074],[-0.05855,52.55993],[-0.06133,52.55932],[-0.0678,52.55898],[-0.07064,52.56029],[-0.07402,52.56126],[-0.07443,52.56165],[-0.07499,52.56138],[-0.07523,52.56167],[-0.07693,52.56197],[-0.07805,52.56164],[-0.07988,52.56169],[-0.08335,52.56293],[-0.08836,52.56045],[-0.08769,52.55804],[-0.0897,52.55791],[-0.08956,52.55749],[-0.0907,52.55741],[-0.09139,52.55632],[-0.09125,52.55554],[-0.09177,52.55522],[-0.09255,52.55665],[-0.09469,52.55656],[-0.09366,52.55753],[-0.09471,52.55736],[-0.09641,52.55861],[-0.1,52.55995],[-0.09779,52.56481],[-0.10565,52.56559],[-0.10434,52.56729],[-0.1016,52.56845],[-0.1024,52.56969],[-0.10131,52.57044],[-0.10188,52.57131],[-0.10077,52.57141],[-0.10203,52.57177],[-0.10286,52.57157],[-0.10233,52.57204],[-0.0983,52.57318],[-0.08427,52.57385],[-0.07685,52.57358],[-0.06801,52.57414]]]}},{"type":"Feature","properties":{"id":"E01018062","name":"E01018062","parent":"E07000010","type":"LSOA","pop":2661,"r":12,"ff":4,"ffd":150.3,"ffs":0.3333,"g":0,"co":3,"mo":3,"sa":3,"ic":1},"geometry":{"type":"Polygon","coordinates":[[[0.09062,52.49063],[0.1066,52.48371],[0.11037,52.4813],[0.11281,52.48022],[0.11321,52.47968],[0.11506,52.47955],[0.11701,52.47886],[0.11832,52.47922],[0.12176,52.47901],[0.12441,52.47699],[0.1282,52.47561],[0.13248,52.47524],[0.13778,52.47669],[0.14201,52.47736],[0.14368,52.47661],[0.14602,52.47656],[0.151,52.47503],[0.14493,52.46998],[0.14329,52.47074],[0.13217,52.46231],[0.1253,52.46516],[0.12332,52.46328],[0.1257,52.45983],[0.12519,52.45849],[0.1627,52.45051],[0.1664,52.44874],[0.15534,52.44017],[0.15104,52.44226],[0.14514,52.43763],[0.14539,52.43748],[0.1238,52.42098],[0.11869,52.42346],[0.12084,52.43112],[0.12984,52.43573],[0.12914,52.43665],[0.12647,52.43786],[0.12207,52.4353],[0.12084,52.43549],[0.12011,52.43413],[0.11698,52.43306],[0.11706,52.43158],[0.11603,52.42986],[0.11511,52.42989],[0.11391,52.42817],[0.11387,52.42736],[0.1118,52.42789],[0.11064,52.42768],[0.10664,52.42534],[0.08773,52.42977],[0.07459,52.4396],[0.06405,52.44452],[0.06184,52.44672],[0.06129,52.44788],[0.06173,52.45048],[0.06472,52.45345],[0.06317,52.45358],[0.05726,52.45281],[0.05553,52.45436],[0.05409,52.45417],[0.05377,52.45471],[0.05253,52.45516],[0.0519,52.45629],[0.05235,52.45646],[0.05209,52.45669],[0.05204,52.45713],[0.05146,52.45724],[0.05143,52.45768],[0.05185,52.4577],[0.05251,52.45977],[0.05242,52.46283],[0.04454,52.46478],[0.04354,52.4648],[0.04173,52.46429],[0.04088,52.46486],[0.04232,52.4657],[0.04173,52.46615],[0.04045,52.46561],[0.03992,52.4659],[0.0408,52.46685],[0.03895,52.46824],[0.03843,52.46791],[0.03751,52.46854],[0.03714,52.46826],[0.03552,52.4693],[0.03668,52.46997],[0.03457,52.4717],[0.03329,52.47339],[0.03264,52.4753],[0.03448,52.47709],[0.03696,52.48047],[0.03872,52.4837],[0.03877,52.48557],[0.04182,52.48469],[0.04313,52.48529],[0.04517,52.48691],[0.0466,52.4869],[0.05069,52.48771],[0.05347,52.4875],[0.05754,52.48809],[0.05877,52.48781],[0.06546,52.48444],[0.07129,52.48429],[0.07175,52.48342],[0.07433,52.48289],[0.07508,52.48333],[0.077,52.48368],[0.07785,52.48352],[0.07914,52.484],[0.0815,52.48433],[0.08408,52.48759],[0.08574,52.48743],[0.08994,52.49087],[0.09062,52.49063]]]}},{"type":"Feature","properties":{"id":"E01018063","name":"E01018063","parent":"E07000010","type":"LSOA","pop":2938,"r":37,"ff":14,"ffd":476.5,"ffs":0.4828,"g":8,"co":3,"mo":0,"sa":3,"ic":0},"geometry":{"type":"Polygon","coordinates":[[[0.16766,52.66939],[0.16808,52.66917],[0.16856,52.66951],[0.1692,52.66917],[0.16965,52.66954],[0.17089,52.66959],[0.17197,52.66888],[0.17234,52.66903],[0.17299,52.66874],[0.17578,52.66689],[0.17536,52.66626],[0.17222,52.66563],[0.17025,52.66502],[0.16669,52.6637],[0.16419,52.66249],[0.16348,52.66409],[0.16266,52.66666],[0.16148,52.66721],[0.1595,52.6674],[0.15779,52.67077],[0.1531,52.67557],[0.15289,52.67622],[0.15431,52.6761],[0.15803,52.67427],[0.16,52.67374],[0.16428,52.67206],[0.16738,52.67162],[0.16785,52.67136],[0.16766,52.66939]]]}},{"type":"Feature","properties":{"id":"E01018064","name":"E01018064","parent":"E07000010","type":"LSOA","pop":2733,"r":148,"ff":54,"ffd":1975.9,"ffs":0.5745,"g":52,"co":0,"mo":0,"sa":2,"ic":0},"geometry":{"type":"Polygon","coordinates":[[[-0.12439,52.57668],[-0.12395,52.57643],[-0.12005,52.57721],[-0.12341,52.56784],[-0.12516,52.5652],[-0.12476,52.5651],[-0.12504,52.56467],[-0.12439,52.56384],[-0.12223,52.56374],[-0.12184,52.56256],[-0.12128,52.56254],[-0.12119,52.56218],[-0.12018,52.56214],[-0.12007,52.56187],[-0.12048,52.56057],[-0.14858,52.56311],[-0.14822,52.56569],[-0.15263,52.56725],[-0.1545,52.56755],[-0.16153,52.56797],[-0.17499,52.56649],[-0.17585,52.56709],[-0.1817,52.5665],[-0.18698,52.56851],[-0.17697,52.56981],[-0.16601,52.56957],[-0.12118,52.57726],[-0.12439,52.57668]]]}},{"type":"Feature","properties":{"id":"E01018065","name":"E01018065","parent":"E07000010","type":"LSOA","pop":2587,"r":21,"ff":9,"ffd":347.9,"ffs":0.45,"g":1,"co":3,"mo":3,"sa":3,"ic":1},"geometry":{"type":"Polygon","coordinates":[[[0.06631,52.50374],[0.07173,52.50324],[0.07405,52.50354],[0.07625,52.50037],[0.07684,52.5006],[0.07687,52.50009],[0.08043,52.50006],[0.08047,52.50067],[0.08331,52.50075],[0.0834,52.49965],[0.0853,52.49969],[0.08563,52.50038],[0.08635,52.50063],[0.08757,52.49943],[0.0864,52.49829],[0.08629,52.4967],[0.08716,52.49654],[0.08709,52.49554],[0.08847,52.49516],[0.0889,52.49527],[0.08917,52.49596],[0.09214,52.49524],[0.09343,52.49336],[0.09062,52.49063],[0.08994,52.49087],[0.08574,52.48743],[0.08408,52.48759],[0.0815,52.48433],[0.07914,52.484],[0.07785,52.48352],[0.077,52.48368],[0.07508,52.48333],[0.07433,52.48289],[0.07175,52.48342],[0.07129,52.48429],[0.06546,52.48444],[0.05877,52.48781],[0.05754,52.48809],[0.05347,52.4875],[0.05069,52.48771],[0.0466,52.4869],[0.04517,52.48691],[0.04313,52.48529],[0.04182,52.48469],[0.03826,52.48558],[0.03733,52.4839],[0.03441,52.48181],[0.03244,52.48147],[0.03159,52.48097],[0.02961,52.48077],[0.02973,52.47981],[0.02874,52.47908],[0.02751,52.47889],[0.02689,52.47788],[0.02546,52.47678],[0.02651,52.47454],[0.02469,52.47191],[0.01851,52.47028],[0.01554,52.46913],[0.01416,52.46795],[0.01556,52.46481],[0.01508,52.46362],[0.01609,52.46238],[0.01437,52.45895],[0.01424,52.45724],[0.01322,52.45625],[0.0128,52.45502],[0.01315,52.45305],[0.0121,52.45204],[0.01195,52.44937],[0.01295,52.44825],[0.01443,52.44766],[0.01831,52.44503],[0.02198,52.44383],[0.02314,52.44246],[0.02265,52.44235],[0.02154,52.44359],[0.0175,52.4451],[0.01209,52.44837],[0.0113,52.44939],[0.01125,52.45177],[0.00881,52.45465],[0.0075,52.45484],[0.00191,52.45413],[-0.00121,52.45428],[-0.00257,52.45464],[-0.00698,52.45677],[-0.00843,52.45869],[-0.00857,52.46048],[-0.00932,52.46218],[-0.01859,52.46765],[-0.00545,52.48003],[-0.00551,52.48148],[-0.00694,52.48279],[-0.01101,52.48527],[-0.0102,52.48575],[-0.01534,52.49014],[-0.01329,52.50031],[-0.00972,52.50038],[-0.00336,52.50226],[-0.00213,52.50173],[-0.00013,52.50864],[-0.0012,52.51813],[-0.00075,52.52169],[0.05929,52.51507],[0.05905,52.51482],[0.07132,52.51223],[0.07152,52.50614],[0.06933,52.50589],[0.06651,52.50422],[0.06631,52.50374]]]}},{"type":"Feature","properties":{"id":"E01018066","name":"E01018066","parent":"E07000010","type":"LSOA","pop":1524,"r":40,"ff":15,"ffd":984.3,"ffs":0.4688,"g":8,"co":3,"mo":0,"sa":3,"ic":0},"geometry":{"type":"Polygon","coordinates":[[[0.16836,52.64192],[0.16993,52.64147],[0.17038,52.64173],[0.17207,52.64106],[0.17175,52.64082],[0.17113,52.64092],[0.17126,52.64042],[0.1707,52.64091],[0.16887,52.641],[0.16814,52.63972],[0.16476,52.63971],[0.16507,52.63857],[0.16418,52.63801],[0.16342,52.63675],[0.16622,52.63622],[0.16585,52.63443],[0.16898,52.63433],[0.16898,52.63383],[0.17114,52.63301],[0.17431,52.63093],[0.17406,52.63047],[0.17784,52.62992],[0.1775,52.62941],[0.17131,52.62706],[0.17179,52.62455],[0.1713,52.62429],[0.1695,52.62451],[0.16901,52.62388],[0.17294,52.62352],[0.17342,52.62237],[0.17157,52.6217],[0.17179,52.6195],[0.17118,52.6193],[0.17274,52.616],[0.17438,52.60979],[0.17063,52.61063],[0.16738,52.61],[0.16145,52.61237],[0.163,52.61803],[0.16186,52.61939],[0.15966,52.61824],[0.15894,52.61856],[0.15468,52.61859],[0.15133,52.62025],[0.14994,52.62013],[0.15132,52.62144],[0.1528,52.62142],[0.15163,52.6243],[0.1493,52.62818],[0.14897,52.63107],[0.15212,52.63185],[0.15192,52.6325],[0.15339,52.63283],[0.15268,52.6346],[0.15288,52.63518],[0.15072,52.63502],[0.14958,52.63619],[0.14939,52.63587],[0.14771,52.63726],[0.14586,52.63804],[0.14541,52.6393],[0.15377,52.64544],[0.16468,52.64658],[0.16585,52.64529],[0.16964,52.64434],[0.16836,52.64192]]]}},{"type":"Feature","properties":{"id":"E01018067","name":"E01018067","parent":"E07000010","type":"LSOA","pop":2007,"r":39,"ff":14,"ffd":697.6,"ffs":0.4516,"g":8,"co":3,"mo":0,"sa":3,"ic":0},"geometry":{"type":"Polygon","coordinates":[[[0.18265,52.64173],[0.18529,52.64076],[0.18744,52.63905],[0.18972,52.63572],[0.19203,52.63427],[0.19657,52.63219],[0.20318,52.63023],[0.21521,52.62447],[0.2193,52.62181],[0.21706,52.62158],[0.21308,52.61941],[0.21087,52.61793],[0.21254,52.6168],[0.21694,52.61498],[0.21739,52.61453],[0.20931,52.61354],[0.20562,52.6118],[0.20499,52.61097],[0.20488,52.60918],[0.20325,52.60712],[0.19118,52.61022],[0.18434,52.60756],[0.17438,52.60979],[0.17274,52.616],[0.17118,52.6193],[0.17179,52.6195],[0.17157,52.6217],[0.17342,52.62237],[0.17294,52.62352],[0.16901,52.62388],[0.1695,52.62451],[0.1713,52.62429],[0.17179,52.62455],[0.17131,52.62706],[0.1775,52.62941],[0.17784,52.62992],[0.17406,52.63047],[0.17431,52.63093],[0.17114,52.63301],[0.16898,52.63383],[0.16898,52.63433],[0.16585,52.63443],[0.16622,52.63622],[0.16342,52.63675],[0.16418,52.63801],[0.16507,52.63857],[0.16476,52.63971],[0.16814,52.63972],[0.16887,52.641],[0.1707,52.64091],[0.17126,52.64042],[0.17113,52.64092],[0.17175,52.64082],[0.17207,52.64106],[0.17038,52.64173],[0.16993,52.64147],[0.16836,52.64192],[0.16964,52.64434],[0.16585,52.64529],[0.16468,52.64658],[0.16506,52.6474],[0.17206,52.64869],[0.17397,52.6472],[0.1761,52.64447],[0.17972,52.64221],[0.18265,52.64173]]]}},{"type":"Feature","properties":{"id":"E01018068","name":"E01018068","parent":"E07000010","type":"LSOA","pop":1541,"r":11,"ff":5,"ffd":324.5,"ffs":0.4545,"g":0,"co":3,"mo":3,"sa":3,"ic":3},"geometry":{"type":"MultiPolygon","coordinates":[[[[0.06242,52.60739],[0.06226,52.60728],[0.06268,52.60792],[0.06242,52.60739]]],[[[0.14958,52.63619],[0.15072,52.63502],[0.15288,52.63518],[0.15268,52.6346],[0.15339,52.63283],[0.15192,52.6325],[0.15212,52.63185],[0.14897,52.63107],[0.1493,52.62818],[0.15163,52.6243],[0.1528,52.62142],[0.15132,52.62144],[0.14994,52.62013],[0.15133,52.62025],[0.15468,52.61859],[0.15894,52.61856],[0.15966,52.61824],[0.16186,52.61939],[0.163,52.61803],[0.16145,52.61237],[0.16738,52.61],[0.17063,52.61063],[0.18434,52.60756],[0.19118,52.61022],[0.20325,52.60712],[0.20264,52.60561],[0.20139,52.60461],[0.20152,52.60314],[0.19833,52.60277],[0.19707,52.60222],[0.19511,52.60227],[0.19463,52.60163],[0.1916,52.60152],[0.19256,52.59938],[0.19167,52.59916],[0.19163,52.59889],[0.19516,52.59517],[0.19393,52.5954],[0.19385,52.5921],[0.19915,52.59179],[0.1972,52.58908],[0.19815,52.58879],[0.19809,52.58609],[0.19992,52.58239],[0.20261,52.5801],[0.21578,52.57945],[0.21486,52.57863],[0.21455,52.57671],[0.21495,52.575],[0.21822,52.57319],[0.21849,52.57223],[0.21844,52.57114],[0.21773,52.57044],[0.21379,52.56857],[0.20682,52.56759],[0.20563,52.56557],[0.20674,52.56361],[0.20943,52.56287],[0.21231,52.56115],[0.21486,52.56083],[0.21642,52.56107],[0.21717,52.56077],[0.21697,52.55877],[0.21503,52.55676],[0.21288,52.55567],[0.2116,52.55542],[0.20623,52.55588],[0.20544,52.55564],[0.2047,52.55462],[0.20422,52.54932],[0.20481,52.54818],[0.20553,52.5477],[0.20883,52.54697],[0.21355,52.54893],[0.21463,52.54911],[0.21436,52.54697],[0.21236,52.54565],[0.20935,52.54469],[0.20649,52.54473],[0.20393,52.54543],[0.21314,52.53817],[0.20937,52.53611],[0.21008,52.53547],[0.20585,52.53385],[0.20769,52.53187],[0.20805,52.53015],[0.21106,52.53071],[0.21494,52.53205],[0.22029,52.52892],[0.2256,52.53257],[0.22882,52.53084],[0.23059,52.52791],[0.22628,52.52562],[0.22569,52.52594],[0.22239,52.52391],[0.22483,52.52242],[0.22317,52.52138],[0.21971,52.52315],[0.21665,52.52086],[0.21506,52.52245],[0.20612,52.51964],[0.20353,52.52007],[0.19777,52.52887],[0.19254,52.52871],[0.18789,52.52678],[0.18381,52.52623],[0.18119,52.52522],[0.17935,52.52637],[0.1786,52.52645],[0.17625,52.52803],[0.1739,52.52858],[0.17252,52.52848],[0.17153,52.52917],[0.16953,52.52931],[0.16862,52.53032],[0.16566,52.52984],[0.16375,52.53116],[0.16059,52.53152],[0.15916,52.5335],[0.16175,52.53532],[0.16106,52.53665],[0.16129,52.53768],[0.16449,52.54175],[0.15972,52.54526],[0.15552,52.54557],[0.15396,52.54705],[0.15206,52.54775],[0.15448,52.54905],[0.15487,52.54979],[0.15501,52.55194],[0.15356,52.5539],[0.15415,52.55754],[0.15381,52.55882],[0.15438,52.56128],[0.1537,52.56194],[0.15418,52.56278],[0.15281,52.56685],[0.15544,52.57046],[0.15013,52.5734],[0.14272,52.57105],[0.13693,52.56764],[0.13112,52.56613],[0.12605,52.57179],[0.11704,52.57481],[0.10253,52.57826],[0.0961,52.58011],[0.09536,52.58007],[0.09498,52.58044],[0.08971,52.58198],[0.08327,52.58435],[0.0622,52.58954],[0.05619,52.58985],[0.03554,52.59018],[0.00961,52.59002],[0.00467,52.58773],[0.00211,52.58697],[0.00033,52.58574],[-0.00103,52.58549],[-0.00243,52.58446],[-0.00627,52.5829],[-0.00728,52.5822],[-0.00779,52.58129],[-0.00868,52.58097],[-0.01031,52.5791],[-0.00813,52.58664],[-0.00714,52.58689],[-0.00775,52.58799],[-0.00742,52.58805],[-0.00771,52.58859],[-0.01265,52.59411],[0.03998,52.60221],[0.06189,52.60655],[0.06197,52.60563],[0.06493,52.61089],[0.0749,52.61658],[0.09609,52.62796],[0.10545,52.63216],[0.11526,52.63542],[0.12118,52.62863],[0.12302,52.62955],[0.13938,52.63323],[0.14028,52.6341],[0.14168,52.63414],[0.14222,52.63483],[0.1429,52.63443],[0.146,52.63551],[0.14889,52.63563],[0.14939,52.63587],[0.14958,52.63619]]]]}},{"type":"Feature","properties":{"id":"E01018069","name":"E01018069","parent":"E07000010","type":"LSOA","pop":1718,"r":37,"ff":14,"ffd":814.9,"ffs":0.4828,"g":8,"co":3,"mo":0,"sa":3,"ic":0},"geometry":{"type":"Polygon","coordinates":[[[0.17544,52.66077],[0.17488,52.65772],[0.17834,52.65264],[0.1696,52.65276],[0.16977,52.65076],[0.17206,52.64869],[0.16564,52.64751],[0.16887,52.65146],[0.16834,52.65178],[0.16885,52.65207],[0.16876,52.65253],[0.16714,52.65304],[0.16681,52.65347],[0.16713,52.65381],[0.16678,52.65405],[0.16819,52.65454],[0.16863,52.65426],[0.16957,52.65437],[0.16868,52.65521],[0.16734,52.65836],[0.1658,52.66033],[0.16674,52.66016],[0.17008,52.66013],[0.17142,52.65954],[0.1721,52.66043],[0.17462,52.66026],[0.17544,52.66077]]]}},{"type":"Feature","properties":{"id":"E01018070","name":"E01018070","parent":"E07000010","type":"LSOA","pop":2014,"r":37,"ff":14,"ffd":695.1,"ffs":0.4828,"g":8,"co":3,"mo":0,"sa":3,"ic":0},"geometry":{"type":"Polygon","coordinates":[[[0.164,52.66025],[0.16496,52.65995],[0.16577,52.66028],[0.16734,52.65836],[0.16868,52.65521],[0.16957,52.65437],[0.16863,52.65426],[0.16819,52.65454],[0.16678,52.65405],[0.16713,52.65381],[0.16681,52.65347],[0.16714,52.65304],[0.16876,52.65253],[0.16885,52.65207],[0.16834,52.65178],[0.16887,52.65146],[0.16852,52.65085],[0.16564,52.64751],[0.16506,52.6474],[0.16468,52.64658],[0.15377,52.64544],[0.15223,52.64622],[0.15769,52.64891],[0.15801,52.64948],[0.165,52.65273],[0.16491,52.65324],[0.16317,52.65323],[0.15781,52.65441],[0.16107,52.65741],[0.15949,52.65814],[0.15922,52.65881],[0.16375,52.66056],[0.164,52.66025]]]}},{"type":"Feature","properties":{"id":"E01018071","name":"E01018071","parent":"E07000010","type":"LSOA","pop":1959,"r":37,"ff":14,"ffd":714.7,"ffs":0.4828,"g":8,"co":3,"mo":0,"sa":3,"ic":0},"geometry":{"type":"Polygon","coordinates":[[[0.17544,52.66077],[0.17462,52.66026],[0.1721,52.66043],[0.17142,52.65954],[0.17008,52.66013],[0.16674,52.66016],[0.1658,52.66033],[0.16419,52.66249],[0.16735,52.66395],[0.17222,52.66563],[0.17572,52.66402],[0.17699,52.66314],[0.17746,52.66164],[0.17544,52.66077]]]}},{"type":"Feature","properties":{"id":"E01018072","name":"E01018072","parent":"E07000010","type":"LSOA","pop":2835,"r":93,"ff":29,"ffd":1022.9,"ffs":0.5472,"g":38,"co":0,"mo":0,"sa":2,"ic":0},"geometry":{"type":"Polygon","coordinates":[[[-0.09779,52.56481],[-0.10098,52.55763],[-0.10745,52.55683],[-0.11146,52.55732],[-0.11411,52.557],[-0.12087,52.55678],[-0.12374,52.55716],[-0.1234,52.55845],[-0.12562,52.55854],[-0.12562,52.55888],[-0.12517,52.55975],[-0.12303,52.55953],[-0.12284,52.56069],[-0.12048,52.56057],[-0.12007,52.56187],[-0.11599,52.56211],[-0.10794,52.56297],[-0.10565,52.56559],[-0.09779,52.56481]]]}},{"type":"Feature","properties":{"id":"E01018073","name":"E01018073","parent":"E07000010","type":"LSOA","pop":2699,"r":37,"ff":14,"ffd":518.7,"ffs":0.4828,"g":8,"co":3,"mo":0,"sa":3,"ic":0},"geometry":{"type":"Polygon","coordinates":[[[0.17967,52.66985],[0.17564,52.66761],[0.17578,52.66689],[0.17299,52.66874],[0.17234,52.66903],[0.17197,52.66888],[0.17089,52.66959],[0.16965,52.66954],[0.1692,52.66917],[0.16856,52.66951],[0.16808,52.66917],[0.16766,52.66939],[0.16785,52.67136],[0.17364,52.67302],[0.18042,52.67809],[0.18472,52.67789],[0.1845,52.67634],[0.18343,52.67438],[0.18249,52.67341],[0.18084,52.67326],[0.18108,52.6721],[0.18014,52.67186],[0.18088,52.6709],[0.17967,52.66985]]]}},{"type":"Feature","properties":{"id":"E01018074","name":"E01018074","parent":"E07000010","type":"LSOA","pop":1465,"r":102,"ff":34,"ffd":2320.8,"ffs":0.5763,"g":41,"co":0,"mo":0,"sa":2,"ic":0},"geometry":{"type":"Polygon","coordinates":[[[-0.10043,52.55759],[-0.10074,52.55681],[-0.09587,52.55682],[-0.09695,52.55045],[-0.11242,52.54982],[-0.11266,52.5512],[-0.11231,52.55231],[-0.11437,52.55277],[-0.11391,52.55285],[-0.11528,52.55343],[-0.11658,52.55323],[-0.11711,52.55369],[-0.11887,52.55371],[-0.11905,52.55408],[-0.11936,52.55369],[-0.11973,52.55376],[-0.12015,52.55488],[-0.11883,52.55471],[-0.1189,52.55491],[-0.1236,52.5559],[-0.12325,52.55614],[-0.12198,52.55588],[-0.12134,52.55627],[-0.12297,52.55654],[-0.12325,52.55703],[-0.12087,52.55678],[-0.11411,52.557],[-0.11146,52.55732],[-0.10745,52.55683],[-0.10043,52.55759]]]}},{"type":"Feature","properties":{"id":"E01018075","name":"E01018075","parent":"E07000010","type":"LSOA","pop":1155,"r":99,"ff":30,"ffd":2597.4,"ffs":0.5357,"g":41,"co":0,"mo":0,"sa":2,"ic":0},"geometry":{"type":"Polygon","coordinates":[[[-0.12134,52.55627],[-0.12198,52.55588],[-0.12325,52.55614],[-0.1236,52.5559],[-0.1189,52.55491],[-0.11883,52.55471],[-0.12015,52.55488],[-0.11973,52.55376],[-0.11936,52.55369],[-0.11905,52.55408],[-0.11887,52.55371],[-0.11711,52.55369],[-0.11658,52.55323],[-0.11528,52.55343],[-0.11391,52.55285],[-0.11437,52.55277],[-0.11231,52.55231],[-0.11266,52.5512],[-0.11242,52.54982],[-0.11266,52.54981],[-0.11267,52.55009],[-0.12245,52.55209],[-0.12229,52.55237],[-0.12309,52.55261],[-0.12265,52.5531],[-0.12553,52.55385],[-0.12487,52.55474],[-0.12374,52.55716],[-0.12325,52.55703],[-0.12297,52.55654],[-0.12134,52.55627]]]}},{"type":"Feature","properties":{"id":"E01018076","name":"E01018076","parent":"E07000010","type":"LSOA","pop":2755,"r":13,"ff":6,"ffd":217.8,"ffs":0.4615,"g":0,"co":3,"mo":3,"sa":3,"ic":1},"geometry":{"type":"Polygon","coordinates":[[[0.23632,52.50729],[0.20163,52.48048],[0.20073,52.48087],[0.17072,52.45756],[0.1716,52.45715],[0.17594,52.46052],[0.17709,52.46098],[0.17932,52.45876],[0.1664,52.44874],[0.1627,52.45051],[0.12519,52.45849],[0.1257,52.45983],[0.12332,52.46328],[0.1253,52.46516],[0.13217,52.46231],[0.14329,52.47074],[0.14493,52.46998],[0.151,52.47503],[0.15323,52.47562],[0.15546,52.47573],[0.15986,52.47756],[0.15973,52.47904],[0.1604,52.47991],[0.16781,52.4838],[0.16804,52.48483],[0.1667,52.48694],[0.16653,52.48925],[0.16553,52.48955],[0.16578,52.49059],[0.16492,52.49194],[0.16548,52.49232],[0.16475,52.49276],[0.16467,52.49325],[0.16219,52.4944],[0.16081,52.49638],[0.16074,52.49844],[0.15985,52.49899],[0.15963,52.5004],[0.16045,52.50191],[0.15991,52.50266],[0.15949,52.50505],[0.16107,52.50629],[0.16149,52.50765],[0.1628,52.5092],[0.16384,52.50927],[0.16484,52.50999],[0.16615,52.51021],[0.17011,52.51277],[0.17014,52.51431],[0.16949,52.51551],[0.17258,52.51741],[0.17039,52.51833],[0.17226,52.5201],[0.17322,52.52073],[0.17972,52.52326],[0.18119,52.52522],[0.18381,52.52623],[0.18789,52.52678],[0.19254,52.52871],[0.19777,52.52887],[0.20353,52.52007],[0.21364,52.51847],[0.23632,52.50729]]]}},{"type":"Feature","properties":{"id":"E01018077","name":"E01018077","parent":"E07000010","type":"LSOA","pop":2056,"r":21,"ff":10,"ffd":486.4,"ffs":0.5,"g":1,"co":3,"mo":3,"sa":1,"ic":1},"geometry":{"type":"Polygon","coordinates":[[[0.09359,52.55446],[0.09349,52.55393],[0.09561,52.55318],[0.09493,52.55263],[0.09516,52.5523],[0.09308,52.55035],[0.09067,52.54975],[0.09195,52.54989],[0.09223,52.54888],[0.09423,52.54935],[0.09452,52.54896],[0.09633,52.5494],[0.09723,52.54853],[0.09652,52.54808],[0.09798,52.54605],[0.09527,52.54617],[0.09445,52.54664],[0.09378,52.54662],[0.09368,52.54617],[0.09335,52.54658],[0.09186,52.54619],[0.09166,52.54517],[0.08887,52.54542],[0.0884,52.54531],[0.08835,52.54486],[0.0875,52.54487],[0.0875,52.5475],[0.08822,52.54894],[0.08822,52.5513],[0.08975,52.55121],[0.09127,52.55408],[0.092,52.55403],[0.09222,52.55523],[0.09381,52.55567],[0.09402,52.55456],[0.09359,52.55446]]]}},{"type":"Feature","properties":{"id":"E01018078","name":"E01018078","parent":"E07000010","type":"LSOA","pop":1755,"r":21,"ff":10,"ffd":569.8,"ffs":0.5,"g":1,"co":3,"mo":3,"sa":1,"ic":1},"geometry":{"type":"Polygon","coordinates":[[[0.15448,52.54905],[0.15206,52.54775],[0.15396,52.54705],[0.15552,52.54557],[0.15972,52.54526],[0.16449,52.54175],[0.16129,52.53768],[0.16106,52.53665],[0.16175,52.53532],[0.15916,52.5335],[0.16059,52.53152],[0.15666,52.53192],[0.14345,52.52765],[0.14063,52.52722],[0.13885,52.52753],[0.1339,52.52402],[0.13313,52.52423],[0.13272,52.523],[0.12904,52.52219],[0.13122,52.52681],[0.12242,52.52852],[0.12595,52.53531],[0.11997,52.53646],[0.11766,52.53192],[0.11362,52.53294],[0.11724,52.54133],[0.11342,52.54407],[0.11099,52.54419],[0.10937,52.54146],[0.10905,52.54003],[0.10311,52.54048],[0.1019,52.54249],[0.10044,52.54378],[0.10069,52.54425],[0.1027,52.54457],[0.10267,52.54527],[0.1009,52.54467],[0.09972,52.54471],[0.10054,52.54623],[0.10007,52.54597],[0.09798,52.54605],[0.09652,52.54808],[0.09723,52.54853],[0.09633,52.5494],[0.09797,52.55068],[0.09754,52.55121],[0.09757,52.5523],[0.0985,52.55266],[0.10241,52.55235],[0.10247,52.55195],[0.10393,52.55222],[0.10417,52.55135],[0.1037,52.55112],[0.10502,52.54979],[0.10581,52.55097],[0.10428,52.5542],[0.10336,52.55532],[0.10769,52.55563],[0.1124,52.55732],[0.11547,52.55928],[0.12249,52.56486],[0.13112,52.56613],[0.13693,52.56764],[0.14272,52.57105],[0.15013,52.5734],[0.15544,52.57046],[0.15281,52.56685],[0.15418,52.56278],[0.1537,52.56194],[0.15438,52.56128],[0.15381,52.55882],[0.15415,52.55754],[0.15356,52.5539],[0.15501,52.55194],[0.15487,52.54979],[0.15448,52.54905]]]}},{"type":"Feature","properties":{"id":"E01018079","name":"E01018079","parent":"E07000010","type":"LSOA","pop":1619,"r":22,"ff":10,"ffd":617.7,"ffs":0.4762,"g":1,"co":3,"mo":3,"sa":1,"ic":1},"geometry":{"type":"Polygon","coordinates":[[[0.09527,52.54617],[0.10007,52.54597],[0.10054,52.54623],[0.09972,52.54471],[0.1009,52.54467],[0.10267,52.54527],[0.1027,52.54457],[0.10069,52.54425],[0.10044,52.54378],[0.1019,52.54249],[0.10311,52.54048],[0.09924,52.54078],[0.0983,52.53899],[0.09725,52.53919],[0.09548,52.53829],[0.09519,52.53856],[0.09431,52.53836],[0.09294,52.53894],[0.09328,52.5403],[0.09171,52.54058],[0.09179,52.54288],[0.089,52.54301],[0.08837,52.54336],[0.08847,52.54389],[0.08893,52.54388],[0.0887,52.54452],[0.08904,52.54484],[0.08835,52.54486],[0.0884,52.54531],[0.08887,52.54542],[0.09166,52.54517],[0.09186,52.54619],[0.09335,52.54658],[0.09368,52.54617],[0.09378,52.54662],[0.09445,52.54664],[0.09527,52.54617]]]}},{"type":"Feature","properties":{"id":"E01018080","name":"E01018080","parent":"E07000010","type":"LSOA","pop":2354,"r":21,"ff":10,"ffd":424.8,"ffs":0.5,"g":1,"co":3,"mo":3,"sa":1,"ic":1},"geometry":{"type":"Polygon","coordinates":[[[0.10257,52.55603],[0.10428,52.5542],[0.10581,52.55097],[0.10502,52.54979],[0.1037,52.55112],[0.10417,52.55135],[0.10393,52.55222],[0.10247,52.55195],[0.10241,52.55235],[0.0985,52.55266],[0.09757,52.5523],[0.09754,52.55121],[0.09797,52.55068],[0.09633,52.5494],[0.09452,52.54896],[0.09423,52.54935],[0.09223,52.54888],[0.09195,52.54989],[0.09067,52.54975],[0.09308,52.55035],[0.09516,52.5523],[0.09493,52.55263],[0.09561,52.55318],[0.09349,52.55393],[0.09359,52.55446],[0.09402,52.55456],[0.09381,52.55567],[0.09222,52.55523],[0.092,52.55403],[0.09127,52.55408],[0.0929,52.55971],[0.09859,52.55826],[0.10047,52.55749],[0.10257,52.55603]]]}},{"type":"Feature","properties":{"id":"E01018081","name":"E01018081","parent":"E07000010","type":"LSOA","pop":1910,"r":21,"ff":10,"ffd":523.6,"ffs":0.5,"g":1,"co":3,"mo":3,"sa":1,"ic":1},"geometry":{"type":"Polygon","coordinates":[[[0.09498,52.58044],[0.09536,52.58007],[0.0961,52.58011],[0.10253,52.57826],[0.11704,52.57481],[0.11577,52.5737],[0.11426,52.56982],[0.11015,52.56482],[0.10932,52.56402],[0.10706,52.56342],[0.10692,52.56266],[0.10553,52.5621],[0.10458,52.56314],[0.1036,52.56316],[0.10206,52.56429],[0.10285,52.56716],[0.10531,52.56841],[0.10174,52.56896],[0.1001,52.57036],[0.09349,52.56809],[0.09301,52.57065],[0.08968,52.56726],[0.08541,52.56878],[0.08348,52.56873],[0.08244,52.5691],[0.07976,52.56926],[0.08033,52.56397],[0.08163,52.56401],[0.08181,52.56307],[0.08061,52.56299],[0.08098,52.56278],[0.08059,52.56176],[0.07673,52.56241],[0.07822,52.56128],[0.07999,52.56086],[0.08003,52.56001],[0.07995,52.55971],[0.07833,52.55952],[0.07832,52.55903],[0.07895,52.55883],[0.07862,52.55837],[0.0794,52.55764],[0.0769,52.55601],[0.07749,52.5556],[0.07665,52.5554],[0.06872,52.55792],[0.0676,52.55851],[0.06628,52.55989],[-0.01769,52.55428],[-0.01031,52.5791],[-0.00868,52.58097],[-0.00779,52.58129],[-0.00728,52.5822],[-0.00627,52.5829],[-0.00243,52.58446],[-0.00103,52.58549],[0.00033,52.58574],[0.00211,52.58697],[0.00467,52.58773],[0.00961,52.59002],[0.03554,52.59018],[0.05619,52.58985],[0.0622,52.58954],[0.08327,52.58435],[0.08971,52.58198],[0.09498,52.58044]]]}},{"type":"Feature","properties":{"id":"E01018082","name":"E01018082","parent":"E07000010","type":"LSOA","pop":2009,"r":21,"ff":10,"ffd":497.8,"ffs":0.5,"g":1,"co":3,"mo":3,"sa":1,"ic":1},"geometry":{"type":"Polygon","coordinates":[[[0.0832,52.55755],[0.08434,52.55726],[0.08475,52.55759],[0.08542,52.55745],[0.08529,52.55794],[0.08753,52.55917],[0.08825,52.55865],[0.08792,52.55753],[0.08947,52.55756],[0.08962,52.55719],[0.09055,52.55732],[0.09095,52.55703],[0.09082,52.5555],[0.08942,52.55555],[0.08924,52.55523],[0.08871,52.55539],[0.08776,52.55512],[0.08785,52.55393],[0.08835,52.55388],[0.08908,52.55291],[0.08885,52.55225],[0.08851,52.55232],[0.08819,52.55131],[0.08132,52.55254],[0.0805,52.55328],[0.07665,52.5554],[0.07749,52.5556],[0.0769,52.55601],[0.0794,52.55764],[0.07862,52.55837],[0.07895,52.55883],[0.07832,52.55903],[0.07833,52.55952],[0.07995,52.55971],[0.08003,52.56001],[0.08066,52.56],[0.08066,52.55966],[0.08193,52.55893],[0.08155,52.55807],[0.08332,52.55801],[0.0832,52.55755]]]}},{"type":"Feature","properties":{"id":"E01018083","name":"E01018083","parent":"E07000010","type":"LSOA","pop":1822,"r":21,"ff":10,"ffd":548.8,"ffs":0.5,"g":1,"co":3,"mo":3,"sa":1,"ic":1},"geometry":{"type":"Polygon","coordinates":[[[0.08244,52.5691],[0.08348,52.56873],[0.08541,52.56878],[0.08968,52.56726],[0.08828,52.56512],[0.08895,52.56454],[0.08867,52.56418],[0.08932,52.56374],[0.08792,52.56422],[0.08766,52.56355],[0.08872,52.56358],[0.08849,52.56297],[0.08946,52.56262],[0.08723,52.56226],[0.0873,52.56198],[0.08502,52.56202],[0.08499,52.56176],[0.08794,52.56031],[0.08871,52.56052],[0.08867,52.56013],[0.08954,52.55992],[0.09019,52.55913],[0.09104,52.55884],[0.09157,52.55977],[0.09173,52.55848],[0.0924,52.5581],[0.09122,52.55372],[0.08975,52.55121],[0.08819,52.55131],[0.08851,52.55232],[0.08885,52.55225],[0.08908,52.55291],[0.08835,52.55388],[0.08785,52.55393],[0.08776,52.55512],[0.08871,52.55539],[0.08924,52.55523],[0.08942,52.55555],[0.09082,52.5555],[0.09095,52.55703],[0.09055,52.55732],[0.08962,52.55719],[0.08947,52.55756],[0.08792,52.55753],[0.08825,52.55865],[0.08753,52.55917],[0.08529,52.55794],[0.08542,52.55745],[0.08475,52.55759],[0.08434,52.55726],[0.0832,52.55755],[0.08332,52.55801],[0.08155,52.55807],[0.08193,52.55893],[0.08066,52.55966],[0.08066,52.56],[0.08003,52.56001],[0.07999,52.56086],[0.07822,52.56128],[0.07673,52.56241],[0.08059,52.56176],[0.08098,52.56278],[0.08061,52.56299],[0.08181,52.56307],[0.08163,52.56401],[0.08033,52.56397],[0.07976,52.56926],[0.08244,52.5691]]]}},{"type":"Feature","properties":{"id":"E01018084","name":"E01018084","parent":"E07000010","type":"LSOA","pop":2026,"r":21,"ff":10,"ffd":493.6,"ffs":0.5,"g":1,"co":3,"mo":3,"sa":1,"ic":1},"geometry":{"type":"Polygon","coordinates":[[[0.12249,52.56486],[0.11547,52.55928],[0.1124,52.55732],[0.10769,52.55563],[0.10336,52.55532],[0.10047,52.55749],[0.09859,52.55826],[0.0929,52.55971],[0.0924,52.5581],[0.09173,52.55848],[0.09157,52.55977],[0.09104,52.55884],[0.09019,52.55913],[0.08954,52.55992],[0.08867,52.56013],[0.08871,52.56052],[0.08794,52.56031],[0.08499,52.56176],[0.08502,52.56202],[0.0873,52.56198],[0.08723,52.56226],[0.08946,52.56262],[0.08849,52.56297],[0.08872,52.56358],[0.08766,52.56355],[0.08792,52.56422],[0.08932,52.56374],[0.08867,52.56418],[0.08895,52.56454],[0.08828,52.56512],[0.08968,52.56726],[0.09301,52.57065],[0.09349,52.56809],[0.1001,52.57036],[0.10174,52.56896],[0.10531,52.56841],[0.10285,52.56716],[0.10206,52.56429],[0.1036,52.56316],[0.10458,52.56314],[0.10553,52.5621],[0.10692,52.56266],[0.10706,52.56342],[0.10932,52.56402],[0.11015,52.56482],[0.11426,52.56982],[0.11577,52.5737],[0.11704,52.57481],[0.12605,52.57179],[0.13112,52.56613],[0.12249,52.56486]]]}},{"type":"Feature","properties":{"id":"E01018085","name":"E01018085","parent":"E07000010","type":"LSOA","pop":1614,"r":22,"ff":10,"ffd":619.6,"ffs":0.4762,"g":1,"co":3,"mo":3,"sa":1,"ic":1},"geometry":{"type":"Polygon","coordinates":[[[0.07142,52.54736],[0.07716,52.54582],[0.07778,52.54621],[0.07681,52.54681],[0.07768,52.54724],[0.07939,52.54631],[0.0801,52.54657],[0.08157,52.54582],[0.08195,52.54547],[0.08144,52.54527],[0.0817,52.54498],[0.08328,52.5453],[0.08438,52.54519],[0.08333,52.54447],[0.08299,52.54401],[0.08327,52.54345],[0.08153,52.54234],[0.08117,52.54182],[0.08239,52.54174],[0.08234,52.54077],[0.08422,52.54131],[0.08487,52.54187],[0.08638,52.54158],[0.08583,52.54066],[0.08669,52.54035],[0.08582,52.54016],[0.08586,52.53956],[0.08744,52.53977],[0.0882,52.53889],[0.08786,52.53868],[0.08749,52.539],[0.08585,52.53889],[0.08719,52.5381],[0.08697,52.53767],[0.08603,52.5376],[0.08541,52.53677],[0.08611,52.53664],[0.08625,52.53571],[0.08534,52.5348],[0.08502,52.53351],[0.08464,52.53324],[0.08233,52.53311],[0.08242,52.53207],[0.08,52.53335],[0.07856,52.53363],[0.07865,52.53402],[0.07807,52.53399],[0.07608,52.53251],[0.07476,52.52915],[0.07403,52.52918],[0.07076,52.53217],[0.06956,52.53508],[0.07074,52.54266],[0.07024,52.54739],[0.07142,52.54736]]]}},{"type":"Feature","properties":{"id":"E01018086","name":"E01018086","parent":"E07000010","type":"LSOA","pop":2117,"r":21,"ff":10,"ffd":472.4,"ffs":0.5,"g":1,"co":3,"mo":3,"sa":1,"ic":1},"geometry":{"type":"Polygon","coordinates":[[[0.07681,52.55534],[0.0761,52.55485],[0.07573,52.55492],[0.07605,52.55395],[0.07522,52.55377],[0.07406,52.55397],[0.07399,52.55317],[0.07508,52.55321],[0.07498,52.55278],[0.07297,52.55267],[0.07157,52.55306],[0.07124,52.55251],[0.07511,52.55214],[0.07444,52.55078],[0.07388,52.55054],[0.07371,52.54982],[0.07556,52.54963],[0.07536,52.54929],[0.07818,52.54879],[0.08063,52.5479],[0.0807,52.54761],[0.07848,52.5472],[0.07839,52.54787],[0.07785,52.54774],[0.07768,52.54724],[0.07681,52.54681],[0.07778,52.54621],[0.07716,52.54582],[0.07142,52.54736],[0.07024,52.54739],[0.07074,52.54266],[0.06956,52.53508],[0.07076,52.53217],[0.07403,52.52918],[0.07856,52.52614],[0.07837,52.52828],[0.08015,52.52901],[0.08665,52.52874],[0.08717,52.53059],[0.09843,52.52995],[0.09917,52.5304],[0.09359,52.53373],[0.09206,52.53534],[0.09015,52.53871],[0.09211,52.53853],[0.09391,52.53775],[0.09374,52.53674],[0.09748,52.53716],[0.09924,52.54078],[0.10905,52.54003],[0.10937,52.54146],[0.11099,52.54419],[0.11342,52.54407],[0.11724,52.54133],[0.11362,52.53294],[0.11766,52.53192],[0.11659,52.52989],[0.11296,52.52982],[0.11191,52.53018],[0.10901,52.53037],[0.1069,52.53103],[0.10463,52.52094],[0.10346,52.52124],[0.09663,52.52152],[0.08516,52.52267],[0.08196,52.52206],[0.07725,52.52186],[0.07088,52.51863],[0.06435,52.51615],[0.05929,52.51507],[-0.00075,52.52169],[-0.0032,52.52131],[-0.00651,52.52223],[-0.00405,52.52352],[-0.00798,52.52535],[-0.01177,52.52461],[-0.01426,52.52499],[-0.02042,52.5253],[-0.01681,52.54141],[-0.01697,52.54308],[-0.01919,52.54371],[-0.02078,52.54371],[-0.01769,52.55428],[0.06628,52.55989],[0.0676,52.55851],[0.06872,52.55792],[0.07681,52.55534]]]}},{"type":"Feature","properties":{"id":"E01018087","name":"E01018087","parent":"E07000010","type":"LSOA","pop":2395,"r":21,"ff":10,"ffd":417.5,"ffs":0.5,"g":1,"co":3,"mo":3,"sa":1,"ic":1},"geometry":{"type":"Polygon","coordinates":[[[0.07681,52.55534],[0.0805,52.55328],[0.08132,52.55254],[0.08822,52.5513],[0.08822,52.54894],[0.0875,52.5475],[0.0875,52.54487],[0.08904,52.54484],[0.0887,52.54452],[0.08893,52.54388],[0.08847,52.54389],[0.08837,52.54336],[0.08412,52.54245],[0.08487,52.54187],[0.08422,52.54131],[0.08234,52.54077],[0.08239,52.54174],[0.08117,52.54182],[0.08153,52.54234],[0.08327,52.54345],[0.08299,52.54401],[0.08333,52.54447],[0.08438,52.54519],[0.08328,52.5453],[0.0817,52.54498],[0.08144,52.54527],[0.08195,52.54547],[0.08157,52.54582],[0.0801,52.54657],[0.07939,52.54631],[0.07768,52.54724],[0.07785,52.54774],[0.07839,52.54787],[0.07848,52.5472],[0.0807,52.54761],[0.08063,52.5479],[0.07818,52.54879],[0.07536,52.54929],[0.07556,52.54963],[0.07371,52.54982],[0.07388,52.55054],[0.07444,52.55078],[0.07511,52.55214],[0.07124,52.55251],[0.07157,52.55306],[0.07297,52.55267],[0.07498,52.55278],[0.07508,52.55321],[0.07399,52.55317],[0.07406,52.55397],[0.07522,52.55377],[0.07605,52.55395],[0.07573,52.55492],[0.0761,52.55485],[0.07681,52.55534]]]}},{"type":"Feature","properties":{"id":"E01018088","name":"E01018088","parent":"E07000010","type":"LSOA","pop":1511,"r":22,"ff":10,"ffd":661.8,"ffs":0.4762,"g":1,"co":3,"mo":3,"sa":1,"ic":1},"geometry":{"type":"Polygon","coordinates":[[[0.09328,52.5403],[0.09294,52.53894],[0.09431,52.53836],[0.09519,52.53856],[0.09548,52.53829],[0.09725,52.53919],[0.0983,52.53899],[0.09748,52.53716],[0.09374,52.53674],[0.09391,52.53775],[0.09211,52.53853],[0.09015,52.53871],[0.09206,52.53534],[0.09359,52.53373],[0.09917,52.5304],[0.09843,52.52995],[0.08717,52.53059],[0.08665,52.52874],[0.08015,52.52901],[0.07837,52.52828],[0.07856,52.52614],[0.07403,52.52918],[0.07476,52.52915],[0.07608,52.53251],[0.07807,52.53399],[0.07865,52.53402],[0.07856,52.53363],[0.08,52.53335],[0.08242,52.53207],[0.08233,52.53311],[0.08464,52.53324],[0.08502,52.53351],[0.08534,52.5348],[0.08625,52.53571],[0.08611,52.53664],[0.08541,52.53677],[0.08603,52.5376],[0.08697,52.53767],[0.08719,52.5381],[0.08585,52.53889],[0.08749,52.539],[0.08786,52.53868],[0.0882,52.53889],[0.08744,52.53977],[0.08586,52.53956],[0.08582,52.54016],[0.08669,52.54035],[0.08583,52.54066],[0.08638,52.54158],[0.08487,52.54187],[0.08412,52.54245],[0.08837,52.54336],[0.089,52.54301],[0.09179,52.54288],[0.09171,52.54058],[0.09328,52.5403]]]}},{"type":"Feature","properties":{"id":"E01018090","name":"E01018090","parent":"E07000010","type":"LSOA","pop":2052,"r":14,"ff":7,"ffd":341.1,"ffs":0.5,"g":0,"co":3,"mo":3,"sa":3,"ic":1},"geometry":{"type":"Polygon","coordinates":[[[0.05611,52.6811],[0.0559,52.67822],[0.0712,52.67924],[0.07076,52.67229],[0.07202,52.6559],[0.07254,52.65491],[0.07226,52.65457],[0.06941,52.65354],[0.0478,52.64839],[0.05008,52.64674],[0.05343,52.64682],[0.05699,52.64593],[0.05113,52.64452],[0.05833,52.64085],[0.05093,52.6375],[0.0443,52.63531],[0.03705,52.64099],[0.03544,52.64092],[0.03502,52.6412],[0.03425,52.6411],[0.03061,52.64176],[0.02843,52.64273],[0.02728,52.64275],[0.02701,52.64324],[0.02651,52.64313],[0.02784,52.64074],[0.0263,52.64037],[0.01772,52.63914],[0.00882,52.639],[0.00464,52.63826],[0.00115,52.63677],[-0.00925,52.63376],[-0.02448,52.63025],[-0.03127,52.66153],[0.02067,52.66473],[0.02188,52.66502],[0.04801,52.68105],[0.04953,52.68002],[0.04914,52.67869],[0.05611,52.6811]]]}},{"type":"Feature","properties":{"id":"E01018091","name":"E01018091","parent":"E07000010","type":"LSOA","pop":1574,"r":15,"ff":7,"ffd":444.7,"ffs":0.4667,"g":0,"co":3,"mo":3,"sa":3,"ic":1},"geometry":{"type":"Polygon","coordinates":[[[0.03061,52.64176],[0.03425,52.6411],[0.03502,52.6412],[0.03544,52.64092],[0.03705,52.64099],[0.0443,52.63531],[0.04114,52.63407],[0.04406,52.63179],[0.03879,52.62954],[0.03901,52.62929],[0.03823,52.62894],[0.04286,52.6252],[0.04677,52.62695],[0.05203,52.62466],[0.05342,52.62328],[0.06552,52.62907],[0.06773,52.6265],[0.07032,52.62673],[0.07798,52.62531],[0.08114,52.62383],[0.08395,52.62182],[0.06546,52.61161],[0.06396,52.61041],[0.06226,52.60728],[0.06144,52.6067],[0.03948,52.60239],[-0.01284,52.59435],[-0.01625,52.59839],[-0.02448,52.63025],[-0.00925,52.63376],[0.00115,52.63677],[0.00464,52.63826],[0.00882,52.639],[0.01772,52.63914],[0.0263,52.64037],[0.02784,52.64074],[0.02651,52.64313],[0.02701,52.64324],[0.02728,52.64275],[0.02843,52.64273],[0.03061,52.64176]]]}},{"type":"Feature","properties":{"id":"E01018092","name":"E01018092","parent":"E07000010","type":"LSOA","pop":2018,"r":35,"ff":14,"ffd":693.8,"ffs":0.5,"g":7,"co":3,"mo":2,"sa":3,"ic":0},"geometry":{"type":"Polygon","coordinates":[[[0.10713,52.66618],[0.11088,52.66438],[0.1132,52.66442],[0.11637,52.66204],[0.11571,52.66106],[0.11675,52.66059],[0.10478,52.65254],[0.10326,52.65244],[0.10838,52.64834],[0.12345,52.63855],[0.10468,52.63222],[0.09314,52.62689],[0.08395,52.62182],[0.08114,52.62383],[0.07798,52.62531],[0.07032,52.62673],[0.06773,52.6265],[0.06552,52.62907],[0.05342,52.62328],[0.05203,52.62466],[0.04677,52.62695],[0.04286,52.6252],[0.03823,52.62894],[0.03901,52.62929],[0.03879,52.62954],[0.04406,52.63179],[0.04114,52.63407],[0.0443,52.63531],[0.05093,52.6375],[0.05833,52.64085],[0.05113,52.64452],[0.05699,52.64593],[0.05343,52.64682],[0.05008,52.64674],[0.0478,52.64839],[0.06941,52.65354],[0.07226,52.65457],[0.07254,52.65491],[0.09471,52.66149],[0.10282,52.66675],[0.1049,52.66673],[0.10713,52.66618]]]}},{"type":"Feature","properties":{"id":"E01018093","name":"E01018093","parent":"E07000010","type":"LSOA","pop":2590,"r":37,"ff":14,"ffd":540.5,"ffs":0.4828,"g":8,"co":3,"mo":0,"sa":3,"ic":0},"geometry":{"type":"MultiPolygon","coordinates":[[[[0.15188,52.66322],[0.15179,52.66317],[0.15181,52.66319],[0.15188,52.66322]]],[[[0.14962,52.67254],[0.15176,52.67204],[0.15492,52.67327],[0.15737,52.67057],[0.15905,52.66743],[0.15917,52.66681],[0.15847,52.66567],[0.15813,52.66529],[0.15283,52.66397],[0.15098,52.66295],[0.15125,52.66117],[0.13987,52.65079],[0.1305,52.64252],[0.12347,52.63856],[0.10838,52.64834],[0.10326,52.65244],[0.10478,52.65254],[0.11675,52.66059],[0.11571,52.66106],[0.11637,52.66204],[0.1132,52.66442],[0.11088,52.66438],[0.10713,52.66618],[0.1049,52.66673],[0.10282,52.66675],[0.11145,52.67184],[0.11659,52.67286],[0.12815,52.67391],[0.12835,52.67358],[0.13567,52.67338],[0.1438,52.67236],[0.14344,52.67283],[0.14397,52.67389],[0.14962,52.67254]]]]}},{"type":"Feature","properties":{"id":"E01018094","name":"E01018094","parent":"E07000010","type":"LSOA","pop":1857,"r":36,"ff":14,"ffd":753.9,"ffs":0.4828,"g":7,"co":3,"mo":2,"sa":3,"ic":0},"geometry":{"type":"Polygon","coordinates":[[[0.13049,52.69419],[0.13598,52.68924],[0.13622,52.68572],[0.13639,52.68629],[0.13764,52.68711],[0.14112,52.68824],[0.14161,52.68735],[0.14047,52.68445],[0.14246,52.68224],[0.14235,52.6809],[0.1402,52.67854],[0.14057,52.67773],[0.14028,52.67727],[0.13749,52.67504],[0.13633,52.675],[0.13567,52.67338],[0.12944,52.67348],[0.12854,52.67474],[0.12988,52.67565],[0.12792,52.67711],[0.12797,52.67502],[0.12359,52.67492],[0.12315,52.67655],[0.1224,52.67653],[0.12571,52.67926],[0.12665,52.6792],[0.12609,52.6857],[0.12488,52.6859],[0.12613,52.68863],[0.12625,52.69069],[0.12923,52.69052],[0.12882,52.69344],[0.13049,52.69419]]]}},{"type":"Feature","properties":{"id":"E01018095","name":"E01018095","parent":"E07000010","type":"LSOA","pop":1700,"r":19,"ff":10,"ffd":588.2,"ffs":0.5263,"g":0,"co":3,"mo":3,"sa":3,"ic":1},"geometry":{"type":"Polygon","coordinates":[[[0.11672,52.70395],[0.12168,52.70065],[0.12479,52.70072],[0.12549,52.70158],[0.12499,52.70283],[0.12425,52.70307],[0.12443,52.70474],[0.12197,52.70496],[0.12008,52.7063],[0.12023,52.70845],[0.12101,52.71004],[0.12244,52.70993],[0.12185,52.71223],[0.12469,52.71033],[0.125,52.70962],[0.12554,52.71034],[0.12713,52.71032],[0.12883,52.70991],[0.13045,52.71002],[0.13122,52.71015],[0.13764,52.71375],[0.13881,52.71343],[0.13786,52.70917],[0.14381,52.70989],[0.14091,52.70255],[0.13353,52.70266],[0.13336,52.70136],[0.13271,52.70087],[0.13181,52.69864],[0.13191,52.69722],[0.1304,52.69644],[0.1305,52.69608],[0.12859,52.69617],[0.12439,52.69539],[0.11761,52.69566],[0.1155,52.69458],[0.11443,52.69297],[0.11461,52.69243],[0.11001,52.688],[0.10867,52.67992],[0.10932,52.67462],[0.10982,52.67258],[0.11145,52.67184],[0.10282,52.66675],[0.09471,52.66149],[0.07254,52.65491],[0.07202,52.6559],[0.07076,52.67229],[0.0712,52.67924],[0.0559,52.67822],[0.05611,52.6811],[0.04914,52.67869],[0.04953,52.68002],[0.04801,52.68105],[0.049,52.682],[0.04897,52.68401],[0.04962,52.68615],[0.04915,52.68693],[0.04924,52.68927],[0.04702,52.69087],[0.04962,52.69125],[0.05437,52.6908],[0.05614,52.69301],[0.0628,52.69379],[0.07646,52.70252],[0.07898,52.70037],[0.07994,52.70032],[0.107,52.7166],[0.10814,52.71707],[0.11125,52.71721],[0.11497,52.71883],[0.11518,52.71315],[0.11412,52.71072],[0.11442,52.71001],[0.11321,52.7092],[0.11492,52.70891],[0.117,52.70682],[0.11652,52.706],[0.11672,52.70395]]]}},{"type":"Feature","properties":{"id":"E01018096","name":"E01018096","parent":"E07000010","type":"LSOA","pop":1827,"r":37,"ff":14,"ffd":766.3,"ffs":0.4828,"g":8,"co":3,"mo":2,"sa":3,"ic":0},"geometry":{"type":"Polygon","coordinates":[[[0.14558,52.69598],[0.14664,52.69455],[0.14622,52.69358],[0.14966,52.69377],[0.1544,52.69305],[0.15381,52.68511],[0.15305,52.67973],[0.15204,52.67625],[0.15268,52.67516],[0.15492,52.67327],[0.15176,52.67204],[0.14397,52.67389],[0.14344,52.67283],[0.1438,52.67236],[0.13567,52.67338],[0.13633,52.675],[0.13749,52.67504],[0.14028,52.67727],[0.14057,52.67773],[0.1402,52.67854],[0.14235,52.6809],[0.14246,52.68224],[0.14047,52.68445],[0.14161,52.68735],[0.14112,52.68824],[0.13764,52.68711],[0.13639,52.68629],[0.13622,52.68572],[0.13598,52.68924],[0.13049,52.69419],[0.12882,52.69344],[0.12923,52.69052],[0.12625,52.69069],[0.12613,52.68863],[0.12488,52.6859],[0.12609,52.6857],[0.12665,52.6792],[0.12571,52.67926],[0.1224,52.67653],[0.12315,52.67655],[0.12359,52.67492],[0.12797,52.67502],[0.12792,52.67711],[0.12988,52.67565],[0.12854,52.67474],[0.12944,52.67348],[0.12835,52.67358],[0.12815,52.67391],[0.12325,52.67358],[0.11659,52.67286],[0.11145,52.67184],[0.10982,52.67258],[0.10932,52.67462],[0.10867,52.67992],[0.11001,52.688],[0.11461,52.69243],[0.11443,52.69297],[0.1155,52.69458],[0.11761,52.69566],[0.12439,52.69539],[0.12859,52.69617],[0.1305,52.69608],[0.13159,52.69641],[0.13355,52.6962],[0.14424,52.69621],[0.1444,52.69722],[0.14676,52.69741],[0.14746,52.6971],[0.14746,52.69649],[0.14558,52.69598]]]}},{"type":"Feature","properties":{"id":"E01018097","name":"E01018097","parent":"E07000010","type":"LSOA","pop":1568,"r":19,"ff":9,"ffd":574.0,"ffs":0.4737,"g":0,"co":3,"mo":3,"sa":3,"ic":1},"geometry":{"type":"Polygon","coordinates":[[[0.17126,52.73826],[0.16993,52.73614],[0.16698,52.72431],[0.1585,52.71227],[0.15576,52.70771],[0.15564,52.70224],[0.15463,52.69626],[0.1544,52.69305],[0.14966,52.69377],[0.14622,52.69358],[0.14664,52.69455],[0.14558,52.69598],[0.14746,52.69649],[0.14746,52.6971],[0.14676,52.69741],[0.1444,52.69722],[0.14424,52.69621],[0.13355,52.6962],[0.13159,52.69641],[0.1305,52.69608],[0.1304,52.69644],[0.13191,52.69722],[0.13181,52.69864],[0.13271,52.70087],[0.13336,52.70136],[0.13353,52.70266],[0.14091,52.70255],[0.14381,52.70989],[0.13786,52.70917],[0.13881,52.71343],[0.13764,52.71375],[0.13122,52.71015],[0.13045,52.71002],[0.12883,52.70991],[0.12713,52.71032],[0.12554,52.71034],[0.125,52.70962],[0.12469,52.71033],[0.12185,52.71223],[0.12244,52.70993],[0.12101,52.71004],[0.12023,52.70845],[0.12008,52.7063],[0.12197,52.70496],[0.12443,52.70474],[0.12425,52.70307],[0.12499,52.70283],[0.12549,52.70158],[0.12479,52.70072],[0.12168,52.70065],[0.11672,52.70395],[0.11652,52.706],[0.117,52.70682],[0.11492,52.70891],[0.11321,52.7092],[0.11442,52.71001],[0.11412,52.71072],[0.11518,52.71315],[0.11497,52.71883],[0.11125,52.71721],[0.10814,52.71707],[0.107,52.7166],[0.07994,52.70032],[0.07898,52.70037],[0.07646,52.70252],[0.0628,52.69379],[0.05614,52.69301],[0.05437,52.6908],[0.04962,52.69125],[0.04702,52.69087],[0.04498,52.69194],[0.04457,52.69248],[0.04523,52.69371],[0.04488,52.69579],[0.04526,52.69719],[0.04591,52.69779],[0.0444,52.70068],[0.04523,52.70143],[0.04505,52.70324],[0.04546,52.70501],[0.04484,52.71086],[0.04511,52.712],[0.04415,52.71438],[0.04626,52.71538],[0.04649,52.71642],[0.04807,52.71882],[0.05514,52.72183],[0.05924,52.72472],[0.06231,52.72539],[0.06306,52.72603],[0.06316,52.72709],[0.06363,52.72739],[0.07259,52.72555],[0.07604,52.72452],[0.08264,52.72456],[0.08755,52.72357],[0.08899,52.72368],[0.0901,52.72403],[0.09165,52.72522],[0.09459,52.72845],[0.09831,52.73004],[0.10015,52.73048],[0.1026,52.72986],[0.10525,52.7305],[0.11111,52.72978],[0.11337,52.72993],[0.11399,52.73027],[0.11402,52.73116],[0.11463,52.73193],[0.11647,52.73267],[0.11971,52.73288],[0.12924,52.73848],[0.13117,52.73844],[0.13297,52.7393],[0.13774,52.73892],[0.13944,52.73921],[0.14065,52.73975],[0.14368,52.74],[0.14413,52.73903],[0.14761,52.73945],[0.14829,52.73864],[0.15083,52.73875],[0.1525,52.73814],[0.16705,52.73939],[0.17018,52.73989],[0.17015,52.73896],[0.17126,52.73826]]]}},{"type":"Feature","properties":{"id":"E01018098","name":"E01018098","parent":"E07000010","type":"LSOA","pop":1286,"r":153,"ff":55,"ffd":4276.8,"ffs":0.5446,"g":50,"co":0,"mo":0,"sa":2,"ic":0},"geometry":{"type":"Polygon","coordinates":[[[-0.14053,52.56121],[-0.13969,52.56082],[-0.13723,52.56086],[-0.13629,52.56043],[-0.13574,52.55969],[-0.13431,52.55994],[-0.13421,52.56039],[-0.13371,52.56043],[-0.13314,52.55889],[-0.13213,52.5586],[-0.13279,52.55434],[-0.13729,52.55361],[-0.14062,52.55424],[-0.14461,52.55397],[-0.15033,52.55512],[-0.14949,52.55625],[-0.1435,52.55855],[-0.14219,52.55872],[-0.14215,52.5582],[-0.14006,52.55733],[-0.14025,52.55857],[-0.13975,52.55853],[-0.13947,52.55913],[-0.1388,52.55914],[-0.13878,52.55975],[-0.13932,52.56014],[-0.14105,52.56032],[-0.14089,52.56063],[-0.14132,52.56069],[-0.14094,52.56125],[-0.14053,52.56121]]]}},{"type":"Feature","properties":{"id":"E01018099","name":"E01018099","parent":"E07000010","type":"LSOA","pop":1279,"r":182,"ff":65,"ffd":5082.1,"ffs":0.52,"g":55,"co":0,"mo":0,"sa":2,"ic":0},"geometry":{"type":"Polygon","coordinates":[[[-0.15263,52.56725],[-0.14822,52.56569],[-0.14858,52.56311],[-0.13368,52.56168],[-0.13371,52.56043],[-0.13421,52.56039],[-0.13431,52.55994],[-0.13574,52.55969],[-0.13629,52.56043],[-0.13723,52.56086],[-0.13969,52.56082],[-0.14094,52.56125],[-0.14132,52.56069],[-0.14089,52.56063],[-0.14105,52.56032],[-0.13932,52.56014],[-0.13878,52.55975],[-0.1388,52.55914],[-0.13947,52.55913],[-0.13975,52.55853],[-0.14025,52.55857],[-0.14006,52.55733],[-0.14215,52.5582],[-0.14219,52.55872],[-0.1435,52.55855],[-0.14949,52.55625],[-0.15033,52.55512],[-0.18851,52.55988],[-0.18764,52.56045],[-0.18919,52.56294],[-0.18988,52.56544],[-0.17585,52.56709],[-0.17499,52.56649],[-0.16153,52.56797],[-0.1545,52.56755],[-0.15263,52.56725]]]}},{"type":"Feature","properties":{"id":"E01018100","name":"E01018100","parent":"E07000010","type":"LSOA","pop":1514,"r":151,"ff":51,"ffd":3368.6,"ffs":0.5368,"g":54,"co":0,"mo":0,"sa":2,"ic":0},"geometry":{"type":"Polygon","coordinates":[[[-0.12284,52.56069],[-0.12303,52.55953],[-0.12517,52.55975],[-0.12562,52.55888],[-0.12562,52.55854],[-0.1234,52.55845],[-0.1237,52.55726],[-0.12489,52.55472],[-0.12577,52.55463],[-0.12653,52.55489],[-0.12701,52.55577],[-0.12793,52.55548],[-0.12857,52.55599],[-0.12815,52.55645],[-0.12836,52.55681],[-0.12939,52.55737],[-0.12876,52.5584],[-0.12723,52.55862],[-0.12719,52.55939],[-0.12923,52.5593],[-0.12963,52.55843],[-0.13088,52.55886],[-0.13145,52.5584],[-0.13206,52.55904],[-0.13266,52.55875],[-0.13314,52.55889],[-0.13371,52.56043],[-0.13368,52.56168],[-0.12284,52.56069]]]}},{"type":"Feature","properties":{"id":"E01018101","name":"E01018101","parent":"E07000010","type":"LSOA","pop":1517,"r":124,"ff":40,"ffd":2636.8,"ffs":0.5405,"g":48,"co":0,"mo":0,"sa":2,"ic":0},"geometry":{"type":"Polygon","coordinates":[[[-0.12723,52.55862],[-0.12876,52.5584],[-0.12939,52.55737],[-0.12836,52.55681],[-0.12815,52.55645],[-0.12857,52.55599],[-0.12793,52.55548],[-0.12701,52.55577],[-0.12653,52.55489],[-0.12577,52.55463],[-0.12489,52.55472],[-0.12553,52.55385],[-0.12265,52.5531],[-0.12309,52.55261],[-0.12229,52.55237],[-0.12245,52.55209],[-0.11267,52.55009],[-0.11266,52.54981],[-0.1242,52.54934],[-0.12743,52.54937],[-0.13084,52.54989],[-0.14461,52.55397],[-0.14062,52.55424],[-0.13729,52.55361],[-0.13279,52.55434],[-0.13213,52.5586],[-0.13266,52.55875],[-0.13206,52.55904],[-0.13145,52.5584],[-0.13088,52.55886],[-0.12963,52.55843],[-0.12923,52.5593],[-0.12719,52.55939],[-0.12723,52.55862]]]}},{"type":"Feature","properties":{"id":"E01018103","name":"E01018103","parent":"E07000010","type":"LSOA","pop":1209,"r":37,"ff":14,"ffd":1158.0,"ffs":0.4828,"g":8,"co":3,"mo":0,"sa":3,"ic":0},"geometry":{"type":"Polygon","coordinates":[[[0.18456,52.66986],[0.1844,52.6672],[0.18049,52.66736],[0.18048,52.66758],[0.17927,52.66725],[0.17864,52.66753],[0.17824,52.66685],[0.17718,52.66712],[0.17543,52.66588],[0.17298,52.66533],[0.17222,52.66563],[0.17536,52.66626],[0.17578,52.66689],[0.17564,52.66761],[0.17967,52.66985],[0.18088,52.6709],[0.18014,52.67186],[0.18108,52.6721],[0.18443,52.67214],[0.18456,52.66986]]]}},{"type":"Feature","properties":{"id":"E01018104","name":"E01018104","parent":"E07000010","type":"LSOA","pop":1143,"r":37,"ff":14,"ffd":1224.8,"ffs":0.4828,"g":8,"co":3,"mo":0,"sa":3,"ic":0},"geometry":{"type":"Polygon","coordinates":[[[0.1844,52.6672],[0.18363,52.66386],[0.18399,52.66323],[0.18359,52.663],[0.18414,52.66009],[0.18306,52.65909],[0.18305,52.65821],[0.18384,52.65566],[0.17627,52.65569],[0.17488,52.65772],[0.17544,52.66077],[0.17746,52.66164],[0.17699,52.66314],[0.17572,52.66402],[0.17298,52.66533],[0.17543,52.66588],[0.17718,52.66712],[0.17824,52.66685],[0.17864,52.66753],[0.17927,52.66725],[0.18048,52.66758],[0.18049,52.66736],[0.1844,52.6672]]]}},{"type":"Feature","properties":{"id":"E01018105","name":"E01018105","parent":"E07000010","type":"LSOA","pop":1158,"r":11,"ff":4,"ffd":345.4,"ffs":0.3636,"g":0,"co":3,"mo":3,"sa":3,"ic":1},"geometry":{"type":"Polygon","coordinates":[[[0.04645,52.45415],[0.04738,52.45332],[0.04756,52.45143],[0.04696,52.45143],[0.04637,52.44997],[0.04502,52.44964],[0.04524,52.44883],[0.04336,52.44889],[0.04243,52.44944],[0.04184,52.44942],[0.04135,52.45008],[0.04052,52.4499],[0.04088,52.4504],[0.04058,52.45062],[0.03899,52.45051],[0.03686,52.44928],[0.0376,52.45146],[0.03917,52.45206],[0.03999,52.45375],[0.04236,52.45395],[0.04358,52.45373],[0.04645,52.45415]]]}},{"type":"Feature","properties":{"id":"E01018106","name":"E01018106","parent":"E07000010","type":"LSOA","pop":1558,"r":8,"ff":3,"ffd":192.6,"ffs":0.375,"g":0,"co":3,"mo":3,"sa":3,"ic":1},"geometry":{"type":"Polygon","coordinates":[[[0.04757,52.44897],[0.04718,52.44736],[0.04596,52.44586],[0.04559,52.445],[0.04587,52.44352],[0.04471,52.44165],[0.04403,52.43952],[0.04285,52.43831],[0.03298,52.43479],[0.03365,52.43049],[0.0331,52.42976],[0.03165,52.43056],[0.02539,52.43217],[0.02392,52.4328],[0.02228,52.43385],[0.02164,52.435],[0.02948,52.43698],[0.0304,52.43804],[0.03142,52.44103],[0.03304,52.44465],[0.03613,52.44788],[0.03686,52.44928],[0.03899,52.45051],[0.04058,52.45062],[0.04088,52.4504],[0.04052,52.4499],[0.04135,52.45008],[0.04184,52.44942],[0.04243,52.44944],[0.04336,52.44889],[0.04524,52.44883],[0.04502,52.44964],[0.04637,52.44997],[0.04696,52.45143],[0.04756,52.45143],[0.04757,52.44897]]]}},{"type":"Feature","properties":{"id":"E01018107","name":"E01018107","parent":"E07000010","type":"LSOA","pop":1820,"r":37,"ff":14,"ffd":769.2,"ffs":0.4828,"g":8,"co":3,"mo":0,"sa":3,"ic":0},"geometry":{"type":"Polygon","coordinates":[[[0.16804,52.67718],[0.16762,52.67649],[0.17068,52.67713],[0.17118,52.67664],[0.17122,52.67552],[0.17047,52.67507],[0.16853,52.67495],[0.16902,52.67224],[0.16792,52.67195],[0.16734,52.67233],[0.16655,52.67225],[0.16634,52.67185],[0.16428,52.67206],[0.16,52.67374],[0.16056,52.67424],[0.16104,52.67426],[0.16122,52.67395],[0.16163,52.67429],[0.16122,52.67445],[0.16107,52.67533],[0.16137,52.67596],[0.16027,52.67634],[0.16015,52.67712],[0.16203,52.67681],[0.16232,52.67645],[0.16245,52.67683],[0.16342,52.67688],[0.16329,52.67754],[0.16622,52.67793],[0.16638,52.67751],[0.16684,52.67722],[0.16804,52.67718]]]}},{"type":"Feature","properties":{"id":"E01018108","name":"E01018108","parent":"E07000010","type":"LSOA","pop":2032,"r":37,"ff":14,"ffd":689.0,"ffs":0.4828,"g":8,"co":3,"mo":0,"sa":3,"ic":0},"geometry":{"type":"Polygon","coordinates":[[[0.15706,52.68069],[0.15715,52.67969],[0.15964,52.68047],[0.15978,52.67964],[0.1624,52.67948],[0.16625,52.68056],[0.16699,52.68034],[0.16723,52.67823],[0.16792,52.67811],[0.16919,52.67844],[0.16925,52.67769],[0.16804,52.67718],[0.16684,52.67722],[0.16638,52.67751],[0.16622,52.67793],[0.16329,52.67754],[0.16342,52.67688],[0.16245,52.67683],[0.16232,52.67645],[0.16203,52.67681],[0.16015,52.67712],[0.16027,52.67634],[0.16137,52.67596],[0.16107,52.67533],[0.16122,52.67445],[0.16163,52.67429],[0.16122,52.67395],[0.16104,52.67426],[0.16056,52.67424],[0.16,52.67374],[0.15803,52.67427],[0.15431,52.6761],[0.15289,52.67622],[0.15316,52.67782],[0.15399,52.6782],[0.15362,52.67865],[0.15407,52.6797],[0.15406,52.68217],[0.15489,52.68214],[0.15486,52.68079],[0.15706,52.68069]]]}},{"type":"Feature","properties":{"id":"E01018109","name":"E01018109","parent":"E07000010","type":"LSOA","pop":1861,"r":37,"ff":14,"ffd":752.3,"ffs":0.4828,"g":8,"co":3,"mo":0,"sa":3,"ic":0},"geometry":{"type":"Polygon","coordinates":[[[0.16876,52.67904],[0.16998,52.67869],[0.17193,52.67891],[0.17437,52.67878],[0.17463,52.6784],[0.17838,52.6784],[0.17982,52.67763],[0.17364,52.67302],[0.16785,52.67136],[0.16634,52.67185],[0.16655,52.67225],[0.16734,52.67233],[0.16792,52.67195],[0.16902,52.67224],[0.16853,52.67495],[0.17047,52.67507],[0.17122,52.67552],[0.17118,52.67664],[0.17068,52.67713],[0.16762,52.67649],[0.16804,52.67718],[0.16925,52.67769],[0.16919,52.67844],[0.16792,52.67811],[0.16723,52.67823],[0.16699,52.68034],[0.16876,52.67904]]]}},{"type":"Feature","properties":{"id":"E01018110","name":"E01018110","parent":"E07000010","type":"LSOA","pop":2689,"r":11,"ff":4,"ffd":148.8,"ffs":0.3636,"g":0,"co":3,"mo":3,"sa":3,"ic":1},"geometry":{"type":"Polygon","coordinates":[[[0.04767,52.45726],[0.04888,52.45647],[0.05209,52.45669],[0.05235,52.45646],[0.0519,52.45629],[0.05253,52.45516],[0.05377,52.45471],[0.05409,52.45417],[0.05553,52.45436],[0.05726,52.45281],[0.06317,52.45358],[0.06472,52.45345],[0.06173,52.45048],[0.06129,52.44788],[0.06184,52.44672],[0.06405,52.44452],[0.07459,52.4396],[0.08773,52.42977],[0.08635,52.42919],[0.0849,52.4281],[0.08239,52.42723],[0.08167,52.42659],[0.08111,52.4248],[0.08289,52.42361],[0.08012,52.42141],[0.0776,52.42077],[0.07485,52.42145],[0.07331,52.42143],[0.07287,52.4211],[0.07021,52.42149],[0.07017,52.4206],[0.06268,52.418],[0.05877,52.41544],[0.05528,52.41443],[0.05253,52.41457],[0.05006,52.41512],[0.0491,52.41606],[0.04956,52.41675],[0.04654,52.41876],[0.04538,52.4191],[0.04365,52.41813],[0.04312,52.41743],[0.04335,52.41641],[0.04169,52.41336],[0.04515,52.41199],[0.04797,52.41127],[0.05259,52.40884],[0.05017,52.40736],[0.05021,52.40665],[0.05204,52.40505],[0.05297,52.40161],[0.05513,52.40015],[0.05518,52.39928],[0.0562,52.39783],[0.05445,52.39656],[0.05438,52.3954],[0.04647,52.39224],[0.03442,52.38575],[0.03037,52.38779],[0.02808,52.39005],[0.02671,52.39066],[0.02905,52.39426],[0.0289,52.39867],[0.02735,52.4008],[0.02673,52.40428],[0.0269,52.40566],[0.02371,52.40677],[0.02291,52.40936],[0.02345,52.41083],[0.0194,52.41361],[0.01904,52.41431],[0.02637,52.42086],[0.02976,52.42287],[0.03065,52.42474],[0.03406,52.42727],[0.03406,52.42857],[0.0331,52.42976],[0.03365,52.43049],[0.03298,52.43479],[0.04285,52.43831],[0.04403,52.43952],[0.04471,52.44165],[0.04587,52.44352],[0.04563,52.4451],[0.04596,52.44586],[0.04718,52.44736],[0.04757,52.44897],[0.04738,52.45332],[0.04645,52.45415],[0.04698,52.45426],[0.0466,52.45485],[0.04466,52.45448],[0.04407,52.45466],[0.04397,52.4557],[0.04511,52.45582],[0.04483,52.45673],[0.04767,52.45726]]]}},{"type":"Feature","properties":{"id":"E01018111","name":"E01018111","parent":"E07000010","type":"LSOA","pop":2428,"r":22,"ff":10,"ffd":411.9,"ffs":0.4762,"g":1,"co":3,"mo":3,"sa":1,"ic":1},"geometry":{"type":"Polygon","coordinates":[[[0.12595,52.53531],[0.12242,52.52852],[0.13122,52.52681],[0.12904,52.52219],[0.13272,52.523],[0.13313,52.52423],[0.1339,52.52402],[0.13885,52.52753],[0.14063,52.52722],[0.14345,52.52765],[0.15666,52.53192],[0.16375,52.53116],[0.16566,52.52984],[0.16862,52.53032],[0.16953,52.52931],[0.17153,52.52917],[0.17252,52.52848],[0.1739,52.52858],[0.17625,52.52803],[0.1786,52.52645],[0.17935,52.52637],[0.18119,52.52522],[0.17972,52.52326],[0.17322,52.52073],[0.17226,52.5201],[0.17039,52.51833],[0.17258,52.51741],[0.16949,52.51551],[0.17014,52.51431],[0.17011,52.51277],[0.16615,52.51021],[0.16484,52.50999],[0.16384,52.50927],[0.1628,52.5092],[0.16149,52.50765],[0.16107,52.50629],[0.15949,52.50505],[0.15991,52.50266],[0.16045,52.50191],[0.15963,52.5004],[0.15985,52.49899],[0.16074,52.49844],[0.16081,52.49638],[0.16219,52.4944],[0.16467,52.49325],[0.16475,52.49276],[0.16548,52.49232],[0.16492,52.49194],[0.16578,52.49059],[0.16553,52.48955],[0.16653,52.48925],[0.1667,52.48694],[0.16804,52.48483],[0.16781,52.4838],[0.1604,52.47991],[0.15973,52.47904],[0.15986,52.47756],[0.15546,52.47573],[0.15323,52.47562],[0.151,52.47503],[0.14602,52.47656],[0.14368,52.47661],[0.14201,52.47736],[0.13778,52.47669],[0.13248,52.47524],[0.1282,52.47561],[0.12441,52.47699],[0.12176,52.47901],[0.11832,52.47922],[0.11701,52.47886],[0.11506,52.47955],[0.11321,52.47968],[0.11281,52.48022],[0.11037,52.4813],[0.1066,52.48371],[0.09062,52.49063],[0.09343,52.49336],[0.09214,52.49524],[0.08917,52.49596],[0.0889,52.49527],[0.08847,52.49516],[0.08709,52.49554],[0.08716,52.49654],[0.08629,52.4967],[0.0864,52.49829],[0.08757,52.49943],[0.08635,52.50063],[0.08563,52.50038],[0.0853,52.49969],[0.0834,52.49965],[0.08331,52.50075],[0.08047,52.50067],[0.08043,52.50006],[0.07687,52.50009],[0.07684,52.5006],[0.07625,52.50037],[0.07405,52.50354],[0.07173,52.50324],[0.06631,52.50374],[0.06651,52.50422],[0.06933,52.50589],[0.07152,52.50614],[0.07132,52.51223],[0.05905,52.51482],[0.05929,52.51507],[0.06435,52.51615],[0.07088,52.51863],[0.07725,52.52186],[0.08196,52.52206],[0.08516,52.52267],[0.09663,52.52152],[0.10346,52.52124],[0.10463,52.52094],[0.1069,52.53103],[0.10901,52.53037],[0.11191,52.53018],[0.11296,52.52982],[0.11659,52.52989],[0.11997,52.53646],[0.12595,52.53531]]]}},{"type":"Feature","properties":{"id":"E01033111","name":"E01033111","parent":"E07000010","type":"LSOA","pop":1713,"r":37,"ff":14,"ffd":817.3,"ffs":0.4828,"g":8,"co":3,"mo":0,"sa":3,"ic":0},"geometry":{"type":"Polygon","coordinates":[[[0.15786,52.66126],[0.15844,52.66105],[0.15942,52.66152],[0.16001,52.661],[0.16109,52.66173],[0.1616,52.66145],[0.16306,52.66195],[0.16378,52.6614],[0.16356,52.661],[0.16329,52.66133],[0.16293,52.66126],[0.16291,52.66059],[0.1623,52.66041],[0.16212,52.66004],[0.16151,52.65994],[0.16178,52.65982],[0.15922,52.65881],[0.15949,52.65814],[0.16107,52.65741],[0.15781,52.65441],[0.16317,52.65323],[0.16491,52.65324],[0.165,52.65273],[0.15801,52.64948],[0.15769,52.64891],[0.15223,52.64622],[0.15377,52.64544],[0.14541,52.6393],[0.14586,52.63804],[0.14771,52.63726],[0.14939,52.63587],[0.14889,52.63563],[0.146,52.63551],[0.1429,52.63443],[0.14222,52.63483],[0.14168,52.63414],[0.14028,52.6341],[0.13938,52.63323],[0.12302,52.62955],[0.12118,52.62863],[0.11526,52.63542],[0.12282,52.63798],[0.13042,52.64206],[0.15141,52.66082],[0.15167,52.66126],[0.1522,52.66132],[0.15252,52.6606],[0.15293,52.66059],[0.15312,52.66134],[0.15278,52.66161],[0.15587,52.66278],[0.15677,52.66256],[0.15678,52.66199],[0.15786,52.66126]]]}},{"type":"Feature","properties":{"id":"E01033112","name":"E01033112","parent":"E07000010","type":"LSOA","pop":1476,"r":37,"ff":14,"ffd":948.5,"ffs":0.4828,"g":8,"co":3,"mo":0,"sa":3,"ic":0},"geometry":{"type":"MultiPolygon","coordinates":[[[[0.15524,52.66457],[0.15512,52.66454],[0.15616,52.6648],[0.15524,52.66457]]],[[[0.15826,52.66533],[0.15813,52.66529],[0.15847,52.66567],[0.15826,52.66533]]],[[[0.1637,52.66355],[0.16419,52.66249],[0.16577,52.66028],[0.16496,52.65995],[0.164,52.66025],[0.16375,52.66056],[0.16178,52.65982],[0.16151,52.65994],[0.16212,52.66004],[0.1623,52.66041],[0.16291,52.66059],[0.16293,52.66126],[0.16329,52.66133],[0.16356,52.661],[0.16378,52.6614],[0.16306,52.66195],[0.1616,52.66145],[0.16109,52.66173],[0.16001,52.661],[0.15942,52.66152],[0.15844,52.66105],[0.15678,52.66199],[0.15677,52.66256],[0.15587,52.66278],[0.15278,52.66161],[0.15312,52.66134],[0.15293,52.66059],[0.15252,52.6606],[0.1522,52.66132],[0.15167,52.66126],[0.1518,52.66147],[0.15142,52.66266],[0.15188,52.66322],[0.15558,52.66457],[0.15821,52.66496],[0.15949,52.66665],[0.1595,52.6674],[0.16148,52.66721],[0.16266,52.66666],[0.1637,52.66355]]]]}},{"type":"Feature","properties":{"id":"E01035536","name":"E01035536","parent":"E07000010","type":"LSOA","pop":1659,"r":12,"ff":4,"ffd":241.1,"ffs":0.3333,"g":0,"co":3,"mo":3,"sa":3,"ic":1},"geometry":{"type":"Polygon","coordinates":[[[0.05242,52.46283],[0.05251,52.45977],[0.05185,52.4577],[0.05143,52.45768],[0.05146,52.45724],[0.05204,52.45713],[0.05209,52.45669],[0.04888,52.45647],[0.04767,52.45726],[0.04507,52.46014],[0.04458,52.46023],[0.04457,52.46065],[0.0436,52.46127],[0.04265,52.46112],[0.04354,52.4648],[0.04454,52.46478],[0.05242,52.46283]]]}},{"type":"Feature","properties":{"id":"E01035537","name":"E01035537","parent":"E07000010","type":"LSOA","pop":1440,"r":12,"ff":4,"ffd":277.8,"ffs":0.3333,"g":0,"co":3,"mo":3,"sa":3,"ic":1},"geometry":{"type":"Polygon","coordinates":[[[0.03552,52.4693],[0.03714,52.46826],[0.03751,52.46854],[0.03843,52.46791],[0.03895,52.46824],[0.0408,52.46685],[0.03992,52.4659],[0.04045,52.46561],[0.04173,52.46615],[0.04232,52.4657],[0.04088,52.46486],[0.04173,52.46429],[0.04354,52.4648],[0.04265,52.46112],[0.0436,52.46127],[0.04457,52.46065],[0.04458,52.46023],[0.04507,52.46014],[0.04767,52.45726],[0.04483,52.45673],[0.04511,52.45582],[0.04397,52.4557],[0.04407,52.45466],[0.04466,52.45448],[0.0466,52.45485],[0.04698,52.45426],[0.04358,52.45373],[0.04236,52.45395],[0.03999,52.45375],[0.03917,52.45206],[0.0376,52.45146],[0.03686,52.44928],[0.03613,52.44788],[0.03304,52.44465],[0.03142,52.44103],[0.0304,52.43804],[0.02948,52.43698],[0.02196,52.43508],[0.02357,52.43656],[0.02417,52.43823],[0.02407,52.44052],[0.02314,52.44246],[0.02198,52.44383],[0.01831,52.44503],[0.01443,52.44766],[0.01295,52.44825],[0.01195,52.44937],[0.0121,52.45204],[0.01315,52.45305],[0.0128,52.45502],[0.01322,52.45625],[0.01424,52.45724],[0.01437,52.45895],[0.01609,52.46238],[0.01508,52.46362],[0.01556,52.46481],[0.01416,52.46795],[0.01554,52.46913],[0.01851,52.47028],[0.02469,52.47191],[0.02651,52.47454],[0.02546,52.47678],[0.02689,52.47788],[0.02751,52.47889],[0.02874,52.47908],[0.02973,52.47981],[0.02961,52.48077],[0.03159,52.48097],[0.03244,52.48147],[0.03441,52.48181],[0.03733,52.4839],[0.03826,52.48558],[0.03877,52.48557],[0.03872,52.4837],[0.03696,52.48047],[0.03448,52.47709],[0.03264,52.4753],[0.03329,52.47339],[0.03457,52.4717],[0.03668,52.46997],[0.03552,52.4693]]]}}]}