{"type":"FeatureCollection","features":[{"type":"Feature","properties":{"id":"E01029958","name":"E01029958","parent":"E07000202","type":"LSOA","pop":1404,"r":249,"ff":92,"ffd":6552.7,"ffs":0.4718,"g":53,"co":3,"mo":2,"sa":0,"ic":0},"geometry":{"type":"Polygon","coordinates":[[[1.18282,52.05909],[1.18281,52.05857],[1.18334,52.05857],[1.18351,52.05497],[1.18334,52.05388],[1.18199,52.0539],[1.18196,52.05324],[1.18112,52.05282],[1.18055,52.05377],[1.18195,52.05425],[1.18198,52.05482],[1.17976,52.05501],[1.17964,52.05555],[1.17889,52.05558],[1.17849,52.05623],[1.17878,52.05623],[1.17754,52.05741],[1.17556,52.05779],[1.17807,52.05822],[1.1809,52.05918],[1.18282,52.05909]]]}},{"type":"Feature","properties":{"id":"E01029960","name":"E01029960","parent":"E07000202","type":"LSOA","pop":1980,"r":251,"ff":94,"ffd":4747.5,"ffs":0.4772,"g":53,"co":3,"mo":0,"sa":0,"ic":0},"geometry":{"type":"Polygon","coordinates":[[[1.17248,52.06116],[1.17325,52.05973],[1.17487,52.05763],[1.17539,52.05776],[1.17602,52.05707],[1.17554,52.05698],[1.17617,52.05645],[1.17424,52.05583],[1.17461,52.0552],[1.17359,52.05526],[1.17346,52.05552],[1.17081,52.05499],[1.16969,52.05618],[1.16924,52.05616],[1.16898,52.05682],[1.16948,52.05732],[1.16918,52.05812],[1.16965,52.05837],[1.16965,52.05887],[1.1706,52.05931],[1.17086,52.05982],[1.16991,52.05945],[1.16936,52.05965],[1.16855,52.05896],[1.16711,52.05847],[1.16653,52.05842],[1.16613,52.05896],[1.16478,52.05841],[1.16447,52.0589],[1.16672,52.06028],[1.16717,52.06024],[1.16776,52.06077],[1.17166,52.06269],[1.17248,52.06116]]]}},{"type":"Feature","properties":{"id":"E01029961","name":"E01029961","parent":"E07000202","type":"LSOA","pop":1491,"r":249,"ff":92,"ffd":6170.4,"ffs":0.4718,"g":53,"co":3,"mo":0,"sa":0,"ic":0},"geometry":{"type":"Polygon","coordinates":[[[1.17754,52.05741],[1.17878,52.05623],[1.17849,52.05623],[1.17889,52.05558],[1.17964,52.05555],[1.17976,52.05501],[1.18198,52.05482],[1.18195,52.05425],[1.18055,52.05377],[1.18112,52.05282],[1.18196,52.05324],[1.18199,52.0539],[1.18334,52.05388],[1.18346,52.05265],[1.18285,52.05238],[1.17825,52.05266],[1.17449,52.05334],[1.17525,52.05393],[1.17493,52.05422],[1.17294,52.05501],[1.17228,52.0549],[1.17204,52.05521],[1.17346,52.05552],[1.17359,52.05526],[1.17461,52.0552],[1.17424,52.05583],[1.17617,52.05645],[1.17554,52.05698],[1.17602,52.05707],[1.17539,52.05776],[1.17754,52.05741]]]}},{"type":"Feature","properties":{"id":"E01029962","name":"E01029962","parent":"E07000202","type":"LSOA","pop":1717,"r":252,"ff":95,"ffd":5532.9,"ffs":0.4798,"g":53,"co":3,"mo":0,"sa":0,"ic":0},"geometry":{"type":"Polygon","coordinates":[[[1.17086,52.05982],[1.1706,52.05931],[1.16965,52.05887],[1.16965,52.05837],[1.16918,52.05812],[1.16948,52.05732],[1.16898,52.05682],[1.16924,52.05616],[1.16969,52.05618],[1.17081,52.05499],[1.17204,52.05521],[1.17228,52.0549],[1.17294,52.05501],[1.17493,52.05422],[1.17525,52.05393],[1.17449,52.05334],[1.17215,52.0538],[1.17142,52.05369],[1.17012,52.05442],[1.16772,52.05447],[1.16918,52.05559],[1.16698,52.05556],[1.16648,52.05638],[1.16568,52.05608],[1.16554,52.05658],[1.16493,52.05652],[1.16476,52.057],[1.16663,52.05671],[1.16602,52.05805],[1.16499,52.05751],[1.16352,52.05763],[1.16343,52.05733],[1.16265,52.05733],[1.16222,52.05756],[1.1624,52.05788],[1.16342,52.05783],[1.16396,52.05907],[1.16447,52.0589],[1.16478,52.05841],[1.16613,52.05896],[1.16653,52.05842],[1.16711,52.05847],[1.16855,52.05896],[1.16936,52.05965],[1.16991,52.05945],[1.17086,52.05982]]]}},{"type":"Feature","properties":{"id":"E01029963","name":"E01029963","parent":"E07000202","type":"LSOA","pop":1629,"r":236,"ff":85,"ffd":5217.9,"ffs":0.4645,"g":52,"co":3,"mo":2,"sa":0,"ic":0},"geometry":{"type":"Polygon","coordinates":[[[1.20102,52.06775],[1.20184,52.0675],[1.20229,52.06795],[1.20355,52.06739],[1.20551,52.06477],[1.20645,52.06402],[1.20554,52.06366],[1.20606,52.06302],[1.20544,52.06276],[1.20521,52.06215],[1.20499,52.05943],[1.20424,52.05944],[1.20417,52.06011],[1.20298,52.0605],[1.20246,52.06025],[1.20237,52.05923],[1.20038,52.05869],[1.20105,52.05747],[1.20023,52.05723],[1.19926,52.05834],[1.19881,52.05812],[1.19677,52.05864],[1.19721,52.05975],[1.19679,52.06234],[1.19648,52.06211],[1.19561,52.06225],[1.19285,52.06359],[1.19227,52.06344],[1.19133,52.06526],[1.19058,52.06623],[1.19139,52.06669],[1.19182,52.0664],[1.19568,52.06699],[1.20021,52.06854],[1.20102,52.06775]]]}},{"type":"Feature","properties":{"id":"E01029964","name":"E01029964","parent":"E07000202","type":"LSOA","pop":1357,"r":243,"ff":91,"ffd":6706.0,"ffs":0.4789,"g":52,"co":3,"mo":0,"sa":0,"ic":0},"geometry":{"type":"Polygon","coordinates":[[[1.192,52.06388],[1.19227,52.06344],[1.19285,52.06359],[1.19561,52.06225],[1.19648,52.06211],[1.19679,52.06234],[1.19721,52.05975],[1.19677,52.05864],[1.19562,52.05832],[1.19477,52.06047],[1.19296,52.06011],[1.18213,52.06182],[1.18729,52.06323],[1.18806,52.0632],[1.192,52.06388]]]}},{"type":"Feature","properties":{"id":"E01029965","name":"E01029965","parent":"E07000202","type":"LSOA","pop":1528,"r":237,"ff":86,"ffd":5628.3,"ffs":0.4674,"g":52,"co":3,"mo":2,"sa":0,"ic":0},"geometry":{"type":"Polygon","coordinates":[[[1.20417,52.06011],[1.20424,52.05944],[1.20499,52.05943],[1.20495,52.05812],[1.2062,52.05374],[1.20571,52.05223],[1.20386,52.04948],[1.20561,52.04901],[1.20552,52.04832],[1.2043,52.0482],[1.2034,52.04841],[1.20274,52.04902],[1.20261,52.04862],[1.20173,52.04859],[1.2016,52.04802],[1.20066,52.04807],[1.20092,52.04948],[1.20024,52.0496],[1.19976,52.04906],[1.19902,52.04936],[1.19883,52.04984],[1.19958,52.05115],[1.19976,52.05326],[1.19953,52.05533],[1.1963,52.05534],[1.19562,52.05832],[1.19677,52.05864],[1.19881,52.05812],[1.19926,52.05834],[1.20023,52.05723],[1.20105,52.05747],[1.20038,52.05869],[1.20237,52.05923],[1.20246,52.06025],[1.20298,52.0605],[1.20417,52.06011]]]}},{"type":"Feature","properties":{"id":"E01029966","name":"E01029966","parent":"E07000202","type":"LSOA","pop":1526,"r":236,"ff":86,"ffd":5635.6,"ffs":0.4699,"g":52,"co":3,"mo":2,"sa":0,"ic":0},"geometry":{"type":"Polygon","coordinates":[[[1.19538,52.05395],[1.19549,52.05354],[1.19976,52.05326],[1.19958,52.05115],[1.19883,52.04984],[1.19902,52.04936],[1.19976,52.04906],[1.20024,52.0496],[1.20092,52.04948],[1.20066,52.04807],[1.2016,52.04802],[1.20133,52.04675],[1.20081,52.04636],[1.20111,52.04564],[1.19957,52.04292],[1.20209,52.04181],[1.20169,52.04114],[1.20113,52.04129],[1.2007,52.04003],[1.20101,52.03967],[1.20144,52.03983],[1.20274,52.03915],[1.2021,52.03872],[1.20312,52.03796],[1.20194,52.03741],[1.19798,52.04034],[1.19566,52.04292],[1.19677,52.04253],[1.19736,52.04337],[1.19571,52.04859],[1.1964,52.04926],[1.19558,52.05116],[1.19504,52.05116],[1.19435,52.05179],[1.19365,52.05359],[1.19538,52.05395]]]}},{"type":"Feature","properties":{"id":"E01029967","name":"E01029967","parent":"E07000202","type":"LSOA","pop":1427,"r":232,"ff":84,"ffd":5886.5,"ffs":0.4693,"g":52,"co":3,"mo":2,"sa":0,"ic":0},"geometry":{"type":"Polygon","coordinates":[[[1.20561,52.04901],[1.20874,52.04843],[1.20915,52.0486],[1.20575,52.0407],[1.20443,52.04083],[1.20404,52.04029],[1.20346,52.04048],[1.20293,52.03992],[1.20343,52.03971],[1.20274,52.03915],[1.20144,52.03983],[1.20101,52.03967],[1.2007,52.04003],[1.20113,52.04129],[1.20169,52.04114],[1.20209,52.04181],[1.19957,52.04292],[1.20111,52.04564],[1.20081,52.04636],[1.20133,52.04675],[1.20173,52.04859],[1.20261,52.04862],[1.20274,52.04902],[1.2034,52.04841],[1.2043,52.0482],[1.20552,52.04832],[1.20561,52.04901]]]}},{"type":"Feature","properties":{"id":"E01029968","name":"E01029968","parent":"E07000202","type":"LSOA","pop":1574,"r":245,"ff":94,"ffd":5972.0,"ffs":0.4921,"g":53,"co":3,"mo":0,"sa":0,"ic":0},"geometry":{"type":"Polygon","coordinates":[[[1.15316,52.04814],[1.1546,52.04794],[1.15482,52.04857],[1.15587,52.04859],[1.15548,52.04728],[1.1559,52.04724],[1.15489,52.04656],[1.15338,52.04683],[1.15355,52.0473],[1.15164,52.04758],[1.15164,52.04736],[1.15319,52.04702],[1.15285,52.04667],[1.15172,52.04658],[1.15074,52.04574],[1.15028,52.04596],[1.14855,52.04532],[1.14855,52.04698],[1.14832,52.04639],[1.14694,52.04587],[1.14574,52.04631],[1.14466,52.04705],[1.14412,52.04678],[1.14335,52.04698],[1.14791,52.04907],[1.15131,52.04983],[1.15186,52.04895],[1.15234,52.04874],[1.15391,52.04869],[1.15372,52.04826],[1.15316,52.04814]]]}},{"type":"Feature","properties":{"id":"E01029969","name":"E01029969","parent":"E07000202","type":"LSOA","pop":1529,"r":249,"ff":96,"ffd":6278.6,"ffs":0.4923,"g":53,"co":3,"mo":0,"sa":0,"ic":0},"geometry":{"type":"Polygon","coordinates":[[[1.15309,52.04438],[1.15455,52.0442],[1.15375,52.04344],[1.15418,52.04272],[1.1574,52.04132],[1.15654,52.04036],[1.15707,52.04042],[1.15675,52.04013],[1.15728,52.03918],[1.15688,52.03861],[1.15614,52.03841],[1.15557,52.03662],[1.15474,52.03563],[1.15289,52.03484],[1.15102,52.03503],[1.15089,52.03461],[1.14907,52.03403],[1.14941,52.03398],[1.14671,52.03388],[1.14744,52.03468],[1.14605,52.03469],[1.14568,52.03601],[1.14477,52.03571],[1.14272,52.03674],[1.14354,52.03738],[1.1435,52.03781],[1.14455,52.03746],[1.14646,52.03907],[1.14588,52.0394],[1.14656,52.03943],[1.14587,52.04027],[1.14692,52.04129],[1.14643,52.04151],[1.1467,52.04183],[1.14618,52.04192],[1.14572,52.0414],[1.14544,52.04181],[1.14671,52.04257],[1.14706,52.04336],[1.14819,52.04409],[1.14956,52.04378],[1.15309,52.04438]]]}},{"type":"Feature","properties":{"id":"E01029970","name":"E01029970","parent":"E07000202","type":"LSOA","pop":1692,"r":238,"ff":91,"ffd":5378.3,"ffs":0.4946,"g":53,"co":3,"mo":0,"sa":0,"ic":0},"geometry":{"type":"Polygon","coordinates":[[[1.15398,52.04569],[1.15351,52.04536],[1.15195,52.04559],[1.15141,52.04543],[1.15171,52.04407],[1.14956,52.04378],[1.14819,52.04409],[1.14706,52.04336],[1.14448,52.04336],[1.14317,52.043],[1.14173,52.04411],[1.14079,52.04404],[1.14102,52.04328],[1.14062,52.04303],[1.14218,52.04179],[1.14308,52.04193],[1.14309,52.04106],[1.14209,52.04043],[1.14168,52.04123],[1.14083,52.0411],[1.14125,52.04065],[1.14079,52.04011],[1.14007,52.04124],[1.13852,52.04104],[1.13848,52.04127],[1.14014,52.0416],[1.13754,52.04397],[1.14335,52.04698],[1.14412,52.04678],[1.14466,52.04705],[1.14574,52.04631],[1.14694,52.04587],[1.14832,52.04639],[1.14855,52.04698],[1.14855,52.04532],[1.15028,52.04596],[1.15074,52.04574],[1.15172,52.04658],[1.15285,52.04667],[1.15319,52.04702],[1.15164,52.04736],[1.15164,52.04758],[1.15355,52.0473],[1.15338,52.04683],[1.15489,52.04656],[1.15426,52.04654],[1.15398,52.04569]]]}},{"type":"Feature","properties":{"id":"E01029971","name":"E01029971","parent":"E07000202","type":"LSOA","pop":1558,"r":237,"ff":92,"ffd":5905.0,"ffs":0.5027,"g":53,"co":3,"mo":0,"sa":0,"ic":0},"geometry":{"type":"Polygon","coordinates":[[[1.14173,52.04411],[1.14317,52.043],[1.14448,52.04336],[1.14706,52.04336],[1.14671,52.04257],[1.14544,52.04181],[1.14572,52.0414],[1.14618,52.04192],[1.1467,52.04183],[1.14643,52.04151],[1.14692,52.04129],[1.14587,52.04027],[1.14656,52.03943],[1.14588,52.0394],[1.14646,52.03907],[1.14455,52.03746],[1.1435,52.03781],[1.14354,52.03738],[1.14272,52.03674],[1.13997,52.03843],[1.13824,52.04034],[1.13852,52.04104],[1.14007,52.04124],[1.14079,52.04011],[1.14125,52.04065],[1.14083,52.0411],[1.14168,52.04123],[1.14209,52.04043],[1.14309,52.04106],[1.14308,52.04193],[1.14218,52.04179],[1.14062,52.04303],[1.14102,52.04328],[1.14079,52.04404],[1.14173,52.04411]]]}},{"type":"Feature","properties":{"id":"E01029973","name":"E01029973","parent":"E07000202","type":"LSOA","pop":1489,"r":230,"ff":87,"ffd":5842.8,"ffs":0.4943,"g":53,"co":3,"mo":0,"sa":0,"ic":0},"geometry":{"type":"Polygon","coordinates":[[[1.14413,52.07956],[1.14498,52.07892],[1.14654,52.07718],[1.15184,52.0786],[1.15266,52.07728],[1.15271,52.07569],[1.15456,52.07585],[1.1548,52.07644],[1.15632,52.07577],[1.15533,52.07497],[1.15488,52.07501],[1.15437,52.07206],[1.15266,52.07192],[1.1526,52.0715],[1.15107,52.07131],[1.15096,52.07154],[1.14938,52.07098],[1.14926,52.07115],[1.14613,52.07009],[1.14493,52.07054],[1.14534,52.07128],[1.14385,52.07187],[1.14385,52.07229],[1.1458,52.07286],[1.14438,52.07287],[1.14381,52.07359],[1.14308,52.0734],[1.14275,52.07382],[1.14416,52.07405],[1.14454,52.07383],[1.14511,52.07436],[1.14685,52.07472],[1.14659,52.07523],[1.14522,52.07612],[1.14555,52.07687],[1.14379,52.07628],[1.14327,52.07724],[1.14265,52.0771],[1.14282,52.07773],[1.14477,52.07855],[1.14409,52.079],[1.14182,52.07824],[1.1416,52.0787],[1.14413,52.07956]]]}},{"type":"Feature","properties":{"id":"E01029974","name":"E01029974","parent":"E07000202","type":"LSOA","pop":1489,"r":230,"ff":87,"ffd":5842.8,"ffs":0.4943,"g":53,"co":3,"mo":0,"sa":0,"ic":0},"geometry":{"type":"Polygon","coordinates":[[[1.14275,52.07382],[1.14308,52.0734],[1.14381,52.07359],[1.14438,52.07287],[1.1458,52.07286],[1.14385,52.07229],[1.14385,52.07187],[1.14534,52.07128],[1.14493,52.07054],[1.14613,52.07009],[1.14329,52.06965],[1.14163,52.06973],[1.14011,52.06864],[1.14056,52.06836],[1.13848,52.0673],[1.13807,52.06762],[1.13746,52.06732],[1.13313,52.07137],[1.13452,52.07217],[1.13482,52.0716],[1.13602,52.07203],[1.13716,52.07176],[1.13784,52.07087],[1.13855,52.07115],[1.1381,52.07211],[1.13848,52.07216],[1.13847,52.07284],[1.14056,52.07346],[1.14122,52.07447],[1.14192,52.07473],[1.14275,52.07382]]]}},{"type":"Feature","properties":{"id":"E01029975","name":"E01029975","parent":"E07000202","type":"LSOA","pop":1371,"r":222,"ff":84,"ffd":6126.9,"ffs":0.4941,"g":51,"co":3,"mo":0,"sa":0,"ic":0},"geometry":{"type":"Polygon","coordinates":[[[1.13915,52.08055],[1.13919,52.07869],[1.1416,52.0787],[1.14182,52.07824],[1.14409,52.079],[1.14477,52.07855],[1.14282,52.07773],[1.14265,52.0771],[1.14172,52.07672],[1.14127,52.07693],[1.14077,52.07655],[1.13971,52.07688],[1.13685,52.07529],[1.13582,52.07598],[1.13625,52.07905],[1.13557,52.07933],[1.13481,52.07878],[1.13377,52.07884],[1.13324,52.07855],[1.13181,52.07899],[1.13201,52.07928],[1.13597,52.07981],[1.13596,52.08009],[1.13819,52.08016],[1.13838,52.08055],[1.13915,52.08055]]]}},{"type":"Feature","properties":{"id":"E01029976","name":"E01029976","parent":"E07000202","type":"LSOA","pop":1501,"r":222,"ff":84,"ffd":5596.3,"ffs":0.4941,"g":51,"co":3,"mo":0,"sa":0,"ic":0},"geometry":{"type":"Polygon","coordinates":[[[1.1298,52.07958],[1.12987,52.07918],[1.13119,52.07927],[1.13125,52.07896],[1.13181,52.07899],[1.13324,52.07855],[1.13377,52.07884],[1.13481,52.07878],[1.13455,52.07637],[1.13307,52.07582],[1.13226,52.07583],[1.13031,52.07426],[1.12875,52.07472],[1.12774,52.07453],[1.1278,52.07394],[1.12493,52.07378],[1.12544,52.07586],[1.12563,52.07609],[1.12635,52.07606],[1.12553,52.07758],[1.12628,52.07814],[1.126,52.07867],[1.12796,52.07906],[1.12785,52.07939],[1.12841,52.07914],[1.12841,52.07949],[1.1298,52.07958]]]}},{"type":"Feature","properties":{"id":"E01029977","name":"E01029977","parent":"E07000202","type":"LSOA","pop":1517,"r":222,"ff":84,"ffd":5537.2,"ffs":0.4941,"g":51,"co":3,"mo":0,"sa":0,"ic":0},"geometry":{"type":"Polygon","coordinates":[[[1.13582,52.07598],[1.13685,52.07529],[1.13971,52.07688],[1.14077,52.07655],[1.14127,52.07693],[1.14172,52.07672],[1.14327,52.07724],[1.14379,52.07628],[1.14555,52.07687],[1.14522,52.07612],[1.14659,52.07523],[1.14685,52.07472],[1.14511,52.07436],[1.14454,52.07383],[1.14416,52.07405],[1.14275,52.07382],[1.14192,52.07473],[1.14122,52.07447],[1.14056,52.07346],[1.13847,52.07284],[1.13848,52.07216],[1.1381,52.07211],[1.13855,52.07115],[1.13784,52.07087],[1.13716,52.07176],[1.13602,52.07203],[1.13482,52.0716],[1.13452,52.07217],[1.13313,52.07137],[1.13053,52.07408],[1.1278,52.07394],[1.12774,52.07453],[1.12875,52.07472],[1.13031,52.07426],[1.13226,52.07583],[1.13307,52.07582],[1.13455,52.07637],[1.13481,52.07878],[1.13557,52.07933],[1.13625,52.07905],[1.13582,52.07598]]]}},{"type":"Feature","properties":{"id":"E01029978","name":"E01029978","parent":"E07000202","type":"LSOA","pop":1298,"r":239,"ff":88,"ffd":6779.7,"ffs":0.4757,"g":53,"co":3,"mo":2,"sa":0,"ic":0},"geometry":{"type":"Polygon","coordinates":[[[1.18992,52.03671],[1.19103,52.03597],[1.18922,52.03351],[1.18825,52.03346],[1.18757,52.03389],[1.18573,52.03284],[1.18428,52.03309],[1.18356,52.03358],[1.18263,52.0333],[1.18219,52.03358],[1.18253,52.03412],[1.18304,52.03398],[1.18309,52.03442],[1.18378,52.03469],[1.18513,52.03406],[1.18546,52.03523],[1.18476,52.03564],[1.18705,52.03651],[1.1856,52.0363],[1.1854,52.03664],[1.18526,52.0366],[1.18508,52.03693],[1.18552,52.03711],[1.18489,52.03738],[1.18542,52.03803],[1.1844,52.03889],[1.18493,52.03924],[1.18579,52.03927],[1.18782,52.03768],[1.18885,52.03756],[1.18992,52.03671]]]}},{"type":"Feature","properties":{"id":"E01029979","name":"E01029979","parent":"E07000202","type":"LSOA","pop":1591,"r":237,"ff":88,"ffd":5531.1,"ffs":0.4783,"g":52,"co":3,"mo":2,"sa":0,"ic":0},"geometry":{"type":"Polygon","coordinates":[[[1.1812,52.03614],[1.1813,52.03599],[1.1854,52.03664],[1.1856,52.0363],[1.18705,52.03651],[1.18476,52.03564],[1.18546,52.03523],[1.18513,52.03406],[1.18378,52.03469],[1.18309,52.03442],[1.18304,52.03398],[1.18253,52.03412],[1.18219,52.03358],[1.18263,52.0333],[1.18356,52.03358],[1.18428,52.03309],[1.1843,52.03256],[1.18274,52.03292],[1.18084,52.03224],[1.18038,52.03247],[1.18043,52.03317],[1.17976,52.03286],[1.18002,52.03433],[1.17884,52.03412],[1.17857,52.03331],[1.1776,52.03336],[1.17739,52.03373],[1.17703,52.0334],[1.17636,52.03344],[1.17599,52.03397],[1.17494,52.03378],[1.17438,52.03437],[1.17697,52.03633],[1.17646,52.03652],[1.17696,52.03674],[1.17673,52.03722],[1.17719,52.0374],[1.1767,52.03782],[1.17738,52.03813],[1.17786,52.03918],[1.17629,52.0404],[1.18031,52.04012],[1.18025,52.03963],[1.18072,52.03696],[1.1812,52.03614]]]}},{"type":"Feature","properties":{"id":"E01029980","name":"E01029980","parent":"E07000202","type":"LSOA","pop":1652,"r":238,"ff":88,"ffd":5326.9,"ffs":0.4783,"g":53,"co":3,"mo":2,"sa":0,"ic":0},"geometry":{"type":"Polygon","coordinates":[[[1.17629,52.0404],[1.17786,52.03918],[1.17738,52.03813],[1.1767,52.03782],[1.17719,52.0374],[1.17673,52.03722],[1.17696,52.03674],[1.17646,52.03652],[1.17697,52.03633],[1.17438,52.03437],[1.17485,52.03404],[1.17316,52.02996],[1.17439,52.0277],[1.17368,52.02698],[1.17902,52.02638],[1.18463,52.02434],[1.1831,52.02447],[1.18285,52.02271],[1.18099,52.02261],[1.17885,52.02155],[1.17374,52.02432],[1.16972,52.03037],[1.16623,52.02986],[1.16544,52.03061],[1.16422,52.0311],[1.16059,52.03168],[1.15972,52.03219],[1.158,52.03458],[1.15801,52.03681],[1.1585,52.03828],[1.16096,52.04185],[1.16417,52.04102],[1.16775,52.04058],[1.16858,52.04218],[1.16994,52.04198],[1.17212,52.04233],[1.1721,52.0406],[1.17629,52.0404]]]}},{"type":"Feature","properties":{"id":"E01029981","name":"E01029981","parent":"E07000202","type":"LSOA","pop":1254,"r":237,"ff":87,"ffd":6937.8,"ffs":0.4754,"g":53,"co":3,"mo":2,"sa":0,"ic":0},"geometry":{"type":"Polygon","coordinates":[[[1.18757,52.03389],[1.18825,52.03346],[1.18922,52.03351],[1.18705,52.03121],[1.18721,52.03097],[1.18518,52.02967],[1.18635,52.02824],[1.1869,52.02678],[1.18418,52.02589],[1.18515,52.02462],[1.18482,52.0243],[1.17902,52.02638],[1.17368,52.02698],[1.17439,52.0277],[1.17501,52.02729],[1.17609,52.02772],[1.17567,52.02818],[1.17866,52.03001],[1.18064,52.02995],[1.18086,52.03029],[1.18259,52.031],[1.18265,52.03121],[1.18204,52.03116],[1.18151,52.0316],[1.18234,52.03191],[1.18239,52.03236],[1.18366,52.03241],[1.18367,52.03282],[1.1843,52.03256],[1.18428,52.03309],[1.18573,52.03284],[1.18757,52.03389]]]}},{"type":"Feature","properties":{"id":"E01029982","name":"E01029982","parent":"E07000202","type":"LSOA","pop":1464,"r":233,"ff":86,"ffd":5874.3,"ffs":0.4778,"g":52,"co":3,"mo":2,"sa":0,"ic":0},"geometry":{"type":"Polygon","coordinates":[[[1.18002,52.03433],[1.17976,52.03286],[1.18043,52.03317],[1.18038,52.03247],[1.18084,52.03224],[1.18274,52.03292],[1.18367,52.03282],[1.18366,52.03241],[1.18239,52.03236],[1.18234,52.03191],[1.18151,52.0316],[1.18204,52.03116],[1.18265,52.03121],[1.18259,52.031],[1.18086,52.03029],[1.18064,52.02995],[1.17866,52.03001],[1.17567,52.02818],[1.17609,52.02772],[1.17501,52.02729],[1.17439,52.0277],[1.17316,52.02996],[1.17485,52.03404],[1.17494,52.03378],[1.17599,52.03397],[1.17636,52.03344],[1.17703,52.0334],[1.17739,52.03373],[1.1776,52.03336],[1.17857,52.03331],[1.17884,52.03412],[1.18002,52.03433]]]}},{"type":"Feature","properties":{"id":"E01029983","name":"E01029983","parent":"E07000202","type":"LSOA","pop":1605,"r":241,"ff":89,"ffd":5545.2,"ffs":0.4734,"g":52,"co":3,"mo":2,"sa":0,"ic":0},"geometry":{"type":"Polygon","coordinates":[[[1.18366,52.04208],[1.18575,52.04022],[1.18885,52.03756],[1.18782,52.03768],[1.18579,52.03927],[1.18493,52.03924],[1.1844,52.03889],[1.18542,52.03803],[1.18489,52.03738],[1.18552,52.03711],[1.18508,52.03693],[1.18526,52.0366],[1.1813,52.03599],[1.18072,52.03696],[1.18025,52.03963],[1.18087,52.03965],[1.18127,52.04162],[1.18051,52.04163],[1.18146,52.0424],[1.18087,52.0438],[1.17997,52.04432],[1.18053,52.04459],[1.18248,52.04326],[1.18366,52.04208]]]}},{"type":"Feature","properties":{"id":"E01029984","name":"E01029984","parent":"E07000202","type":"LSOA","pop":1662,"r":236,"ff":92,"ffd":5535.5,"ffs":0.5055,"g":53,"co":3,"mo":0,"sa":0,"ic":0},"geometry":{"type":"Polygon","coordinates":[[[1.12567,52.05865],[1.12581,52.05831],[1.12723,52.05853],[1.12887,52.05712],[1.12722,52.05662],[1.12593,52.05533],[1.12709,52.05501],[1.12721,52.05459],[1.12804,52.05416],[1.12835,52.05322],[1.12949,52.05299],[1.12787,52.05188],[1.12588,52.05231],[1.12667,52.0531],[1.12569,52.05307],[1.1252,52.05277],[1.12478,52.05306],[1.12428,52.05274],[1.12496,52.05226],[1.12425,52.05114],[1.12335,52.04855],[1.12064,52.04845],[1.12024,52.04874],[1.1202,52.05001],[1.11936,52.04991],[1.11916,52.05023],[1.11753,52.04977],[1.11481,52.0486],[1.11431,52.0486],[1.11372,52.04935],[1.1126,52.04961],[1.11136,52.05166],[1.11053,52.05166],[1.11025,52.0535],[1.11351,52.05423],[1.11682,52.05592],[1.122,52.05743],[1.12073,52.06009],[1.12202,52.06151],[1.12451,52.06339],[1.12612,52.06397],[1.12489,52.0626],[1.12606,52.05984],[1.12567,52.05865]]]}},{"type":"Feature","properties":{"id":"E01029985","name":"E01029985","parent":"E07000202","type":"LSOA","pop":2525,"r":241,"ff":94,"ffd":3722.8,"ffs":0.5027,"g":53,"co":3,"mo":0,"sa":0,"ic":0},"geometry":{"type":"MultiPolygon","coordinates":[[[[1.14027,52.05413],[1.14094,52.05362],[1.14232,52.05407],[1.14482,52.05324],[1.14632,52.05313],[1.14523,52.05145],[1.1434,52.05198],[1.14177,52.05185],[1.14104,52.05354],[1.1401,52.05423],[1.13844,52.05473],[1.13839,52.05489],[1.14053,52.05422],[1.14027,52.05413]]],[[[1.13506,52.05976],[1.13509,52.05785],[1.13755,52.0551],[1.13829,52.05491],[1.13823,52.05472],[1.13866,52.05436],[1.13834,52.05425],[1.13671,52.05466],[1.1353,52.05592],[1.13455,52.0592],[1.13428,52.05778],[1.13494,52.05661],[1.13483,52.0559],[1.13635,52.05442],[1.13777,52.05394],[1.13985,52.05401],[1.1415,52.05169],[1.14339,52.05168],[1.14505,52.05117],[1.14487,52.05089],[1.14881,52.05028],[1.15002,52.04961],[1.14791,52.04907],[1.143,52.04682],[1.1358,52.04646],[1.13498,52.04663],[1.13793,52.04963],[1.1374,52.04972],[1.13759,52.05009],[1.13679,52.05125],[1.13582,52.05135],[1.1351,52.05205],[1.13573,52.05258],[1.13282,52.05397],[1.13067,52.0553],[1.13163,52.0559],[1.13083,52.0564],[1.12721,52.05459],[1.12709,52.05501],[1.12593,52.05533],[1.12722,52.05662],[1.12887,52.05712],[1.12723,52.05853],[1.12581,52.05831],[1.12567,52.05865],[1.12606,52.05984],[1.12489,52.0626],[1.12612,52.06397],[1.12952,52.06399],[1.1332,52.06151],[1.13452,52.05989],[1.13506,52.05976]]]]}},{"type":"Feature","properties":{"id":"E01029986","name":"E01029986","parent":"E07000202","type":"LSOA","pop":1546,"r":233,"ff":90,"ffd":5821.5,"ffs":0.5,"g":52,"co":3,"mo":0,"sa":0,"ic":0},"geometry":{"type":"Polygon","coordinates":[[[1.1351,52.05205],[1.13582,52.05135],[1.13679,52.05125],[1.13759,52.05009],[1.1374,52.04972],[1.13793,52.04963],[1.13498,52.04663],[1.1318,52.04471],[1.12735,52.04235],[1.12654,52.04296],[1.12672,52.04395],[1.12786,52.04511],[1.12741,52.04536],[1.12818,52.04597],[1.12825,52.04672],[1.12897,52.04677],[1.12973,52.04735],[1.12954,52.04758],[1.13128,52.04814],[1.13375,52.04838],[1.13361,52.05077],[1.13177,52.05144],[1.13135,52.05084],[1.13061,52.05085],[1.13011,52.05136],[1.12926,52.05096],[1.12932,52.0499],[1.12856,52.04905],[1.12781,52.0501],[1.12852,52.05041],[1.12679,52.05054],[1.12574,52.05003],[1.12612,52.04968],[1.12544,52.04942],[1.12507,52.04989],[1.12381,52.04974],[1.12425,52.05114],[1.12496,52.05226],[1.12428,52.05274],[1.12478,52.05306],[1.1252,52.05277],[1.12569,52.05307],[1.12667,52.0531],[1.12588,52.05231],[1.12787,52.05188],[1.12949,52.05299],[1.12835,52.05322],[1.12804,52.05416],[1.12721,52.05459],[1.13083,52.0564],[1.13163,52.0559],[1.13067,52.0553],[1.13282,52.05397],[1.13573,52.05258],[1.1351,52.05205]]]}},{"type":"Feature","properties":{"id":"E01029987","name":"E01029987","parent":"E07000202","type":"LSOA","pop":1598,"r":235,"ff":91,"ffd":5694.6,"ffs":0.5,"g":52,"co":3,"mo":0,"sa":0,"ic":0},"geometry":{"type":"Polygon","coordinates":[[[1.13177,52.05144],[1.13361,52.05077],[1.13375,52.04838],[1.13128,52.04814],[1.12954,52.04758],[1.12973,52.04735],[1.12897,52.04677],[1.12825,52.04672],[1.12814,52.04696],[1.12584,52.04697],[1.12361,52.04677],[1.1226,52.04633],[1.12063,52.04779],[1.12064,52.04845],[1.12335,52.04855],[1.12381,52.04974],[1.12507,52.04989],[1.12544,52.04942],[1.12612,52.04968],[1.12574,52.05003],[1.12679,52.05054],[1.12852,52.05041],[1.12781,52.0501],[1.12856,52.04905],[1.12932,52.0499],[1.12926,52.05096],[1.13011,52.05136],[1.13061,52.05085],[1.13135,52.05084],[1.13177,52.05144]]]}},{"type":"Feature","properties":{"id":"E01029988","name":"E01029988","parent":"E07000202","type":"LSOA","pop":2135,"r":238,"ff":91,"ffd":4262.3,"ffs":0.4919,"g":52,"co":3,"mo":0,"sa":0,"ic":0},"geometry":{"type":"Polygon","coordinates":[[[1.1493,52.05531],[1.14748,52.05452],[1.14632,52.05313],[1.14482,52.05324],[1.14232,52.05407],[1.14094,52.05362],[1.14027,52.05413],[1.14053,52.05422],[1.13839,52.05489],[1.13833,52.05506],[1.13829,52.05491],[1.13755,52.0551],[1.13509,52.05785],[1.13701,52.05812],[1.13943,52.0595],[1.14114,52.05998],[1.14661,52.06014],[1.14799,52.05978],[1.14728,52.05818],[1.14852,52.05618],[1.14957,52.05545],[1.1493,52.05531]]]}},{"type":"Feature","properties":{"id":"E01029990","name":"E01029990","parent":"E07000202","type":"LSOA","pop":1491,"r":243,"ff":90,"ffd":6036.2,"ffs":0.4762,"g":53,"co":3,"mo":2,"sa":0,"ic":0},"geometry":{"type":"Polygon","coordinates":[[[1.18374,52.04964],[1.18299,52.04906],[1.1823,52.04924],[1.18255,52.04906],[1.18154,52.04744],[1.18078,52.0474],[1.1801,52.04796],[1.18,52.04851],[1.17782,52.04913],[1.17662,52.04884],[1.17461,52.0492],[1.17536,52.04948],[1.17557,52.05033],[1.17628,52.05048],[1.17646,52.05132],[1.17743,52.05175],[1.17731,52.05227],[1.17468,52.05251],[1.17367,52.05323],[1.17388,52.05351],[1.17717,52.05276],[1.18285,52.05238],[1.18238,52.05094],[1.18374,52.04964]]]}},{"type":"Feature","properties":{"id":"E01029991","name":"E01029991","parent":"E07000202","type":"LSOA","pop":1587,"r":236,"ff":88,"ffd":5545.1,"ffs":0.4809,"g":52,"co":3,"mo":2,"sa":0,"ic":0},"geometry":{"type":"Polygon","coordinates":[[[1.16895,52.04959],[1.16978,52.04954],[1.17025,52.04742],[1.1714,52.04437],[1.17309,52.04466],[1.17357,52.04451],[1.17366,52.04295],[1.17502,52.043],[1.17533,52.04345],[1.17659,52.0434],[1.17664,52.04394],[1.17755,52.04439],[1.17768,52.04519],[1.17836,52.04526],[1.1787,52.04487],[1.18053,52.04459],[1.17997,52.04432],[1.18087,52.0438],[1.18146,52.0424],[1.18051,52.04163],[1.18127,52.04162],[1.18087,52.03965],[1.18025,52.03963],[1.18031,52.04012],[1.1721,52.0406],[1.17212,52.04233],[1.16994,52.04198],[1.16858,52.04218],[1.16775,52.04058],[1.16417,52.04102],[1.16096,52.04185],[1.16361,52.04509],[1.16476,52.04513],[1.16555,52.04554],[1.16472,52.04574],[1.16615,52.04859],[1.16651,52.04886],[1.16865,52.04908],[1.16895,52.04959]]]}},{"type":"Feature","properties":{"id":"E01029992","name":"E01029992","parent":"E07000202","type":"LSOA","pop":1363,"r":239,"ff":89,"ffd":6529.7,"ffs":0.4811,"g":53,"co":3,"mo":2,"sa":0,"ic":0},"geometry":{"type":"Polygon","coordinates":[[[1.18078,52.0474],[1.18078,52.04536],[1.17949,52.04528],[1.18038,52.04468],[1.1787,52.04487],[1.17836,52.04526],[1.17768,52.04519],[1.17755,52.04439],[1.17664,52.04394],[1.17659,52.0434],[1.17533,52.04345],[1.17502,52.043],[1.17446,52.04293],[1.17366,52.04295],[1.17357,52.04451],[1.17309,52.04466],[1.1714,52.04437],[1.17025,52.04742],[1.1718,52.0477],[1.17644,52.04717],[1.17695,52.04747],[1.17622,52.04792],[1.17662,52.04884],[1.17782,52.04913],[1.18,52.04851],[1.1801,52.04796],[1.18078,52.0474]]]}},{"type":"Feature","properties":{"id":"E01029994","name":"E01029994","parent":"E07000202","type":"LSOA","pop":1678,"r":240,"ff":88,"ffd":5244.3,"ffs":0.4731,"g":53,"co":3,"mo":2,"sa":0,"ic":0},"geometry":{"type":"Polygon","coordinates":[[[1.19566,52.04291],[1.19798,52.04034],[1.19728,52.03998],[1.19607,52.0399],[1.19471,52.03873],[1.19353,52.03685],[1.1945,52.03646],[1.19467,52.03605],[1.19393,52.0359],[1.19413,52.0354],[1.19316,52.03525],[1.19103,52.03597],[1.18767,52.03861],[1.18825,52.03918],[1.18895,52.03926],[1.18835,52.03982],[1.1907,52.04067],[1.19124,52.0416],[1.19076,52.04203],[1.19109,52.04241],[1.19165,52.04258],[1.19238,52.04223],[1.19263,52.04282],[1.1933,52.04268],[1.195,52.04315],[1.19566,52.04291]]]}},{"type":"Feature","properties":{"id":"E01029995","name":"E01029995","parent":"E07000202","type":"LSOA","pop":1665,"r":239,"ff":89,"ffd":5345.3,"ffs":0.4785,"g":52,"co":3,"mo":2,"sa":0,"ic":0},"geometry":{"type":"Polygon","coordinates":[[[1.18466,52.04904],[1.18584,52.04844],[1.19092,52.04676],[1.19076,52.04634],[1.19144,52.04567],[1.19104,52.04537],[1.19144,52.04522],[1.19009,52.04459],[1.18977,52.04474],[1.18881,52.04389],[1.18783,52.04371],[1.1861,52.04239],[1.18571,52.04291],[1.18531,52.04275],[1.18419,52.04297],[1.18366,52.04208],[1.18248,52.04326],[1.17949,52.04528],[1.18078,52.04536],[1.18078,52.0474],[1.18154,52.04744],[1.18255,52.04906],[1.1823,52.04924],[1.18299,52.04906],[1.18374,52.04964],[1.18466,52.04904]]]}},{"type":"Feature","properties":{"id":"E01029996","name":"E01029996","parent":"E07000202","type":"LSOA","pop":1657,"r":241,"ff":89,"ffd":5371.2,"ffs":0.4734,"g":52,"co":3,"mo":2,"sa":0,"ic":0},"geometry":{"type":"Polygon","coordinates":[[[1.19384,52.04507],[1.19566,52.04291],[1.195,52.04315],[1.1933,52.04268],[1.19263,52.04282],[1.19238,52.04223],[1.19165,52.04258],[1.19109,52.04241],[1.19076,52.04203],[1.19124,52.0416],[1.1907,52.04067],[1.18835,52.03982],[1.18895,52.03926],[1.18825,52.03918],[1.18767,52.03861],[1.18366,52.04208],[1.18419,52.04297],[1.18531,52.04275],[1.18571,52.04291],[1.1861,52.04239],[1.18783,52.04371],[1.18881,52.04389],[1.18977,52.04474],[1.19009,52.04459],[1.19144,52.04522],[1.19104,52.04537],[1.19144,52.04567],[1.19076,52.04634],[1.19092,52.04676],[1.19384,52.04507]]]}},{"type":"Feature","properties":{"id":"E01029997","name":"E01029997","parent":"E07000202","type":"LSOA","pop":1531,"r":248,"ff":93,"ffd":6074.5,"ffs":0.4794,"g":53,"co":3,"mo":0,"sa":0,"ic":0},"geometry":{"type":"Polygon","coordinates":[[[1.18007,52.06905],[1.18126,52.0684],[1.18203,52.06885],[1.18215,52.06817],[1.181,52.06698],[1.18139,52.0667],[1.18257,52.06673],[1.18248,52.06472],[1.18303,52.06474],[1.18318,52.06414],[1.18195,52.06387],[1.18023,52.06386],[1.18001,52.06493],[1.17866,52.06453],[1.17901,52.06361],[1.17834,52.06341],[1.178,52.06408],[1.17638,52.0646],[1.17315,52.06409],[1.17315,52.06474],[1.17244,52.06537],[1.17291,52.06538],[1.17321,52.06608],[1.17439,52.06618],[1.17485,52.06721],[1.17357,52.06771],[1.1755,52.06946],[1.17629,52.07066],[1.17783,52.07062],[1.17749,52.06973],[1.18007,52.06905]]]}},{"type":"Feature","properties":{"id":"E01029998","name":"E01029998","parent":"E07000202","type":"LSOA","pop":1856,"r":242,"ff":90,"ffd":4849.1,"ffs":0.4762,"g":52,"co":3,"mo":2,"sa":0,"ic":0},"geometry":{"type":"Polygon","coordinates":[[[1.20021,52.06854],[1.19568,52.06699],[1.19182,52.0664],[1.19139,52.06669],[1.19179,52.06692],[1.1915,52.06732],[1.19015,52.06804],[1.1881,52.06806],[1.18649,52.06921],[1.18887,52.06998],[1.18933,52.07134],[1.19043,52.07154],[1.19047,52.07198],[1.19196,52.07238],[1.19269,52.07377],[1.19661,52.07317],[1.19665,52.07202],[1.19737,52.07115],[1.19918,52.07023],[1.20012,52.0695],[1.19952,52.06917],[1.20021,52.06854]]]}},{"type":"Feature","properties":{"id":"E01029999","name":"E01029999","parent":"E07000202","type":"LSOA","pop":1609,"r":245,"ff":92,"ffd":5717.8,"ffs":0.4817,"g":53,"co":3,"mo":0,"sa":0,"ic":0},"geometry":{"type":"Polygon","coordinates":[[[1.18649,52.06921],[1.1881,52.06806],[1.19015,52.06804],[1.1915,52.06732],[1.19179,52.06692],[1.19058,52.06623],[1.19133,52.06526],[1.192,52.06388],[1.18806,52.0632],[1.18729,52.06323],[1.18213,52.06182],[1.17767,52.06167],[1.17731,52.06199],[1.17906,52.06227],[1.17926,52.06328],[1.18007,52.06343],[1.1803,52.06304],[1.17977,52.06264],[1.18023,52.06265],[1.18048,52.06227],[1.18217,52.06244],[1.18195,52.06387],[1.18318,52.06414],[1.18303,52.06474],[1.18248,52.06472],[1.18251,52.06577],[1.1837,52.06572],[1.18413,52.06598],[1.18391,52.06768],[1.18431,52.06843],[1.18612,52.06849],[1.18579,52.06901],[1.18649,52.06921]]]}},{"type":"Feature","properties":{"id":"E01030000","name":"E01030000","parent":"E07000202","type":"LSOA","pop":1580,"r":249,"ff":93,"ffd":5886.1,"ffs":0.4769,"g":53,"co":3,"mo":0,"sa":0,"ic":0},"geometry":{"type":"Polygon","coordinates":[[[1.17315,52.06474],[1.17315,52.06409],[1.17638,52.0646],[1.178,52.06408],[1.17834,52.06341],[1.17901,52.06361],[1.17866,52.06453],[1.18001,52.06493],[1.18023,52.06386],[1.18195,52.06387],[1.18217,52.06244],[1.18048,52.06227],[1.18023,52.06265],[1.17977,52.06264],[1.1803,52.06304],[1.18007,52.06343],[1.17926,52.06328],[1.17906,52.06227],[1.17731,52.06199],[1.17767,52.06167],[1.17248,52.06117],[1.17166,52.06269],[1.17135,52.06423],[1.17206,52.06619],[1.17357,52.06771],[1.17485,52.06721],[1.17439,52.06618],[1.17321,52.06608],[1.17291,52.06538],[1.17244,52.06537],[1.17315,52.06474]]]}},{"type":"Feature","properties":{"id":"E01030001","name":"E01030001","parent":"E07000202","type":"LSOA","pop":1784,"r":248,"ff":93,"ffd":5213.0,"ffs":0.4794,"g":53,"co":3,"mo":2,"sa":0,"ic":0},"geometry":{"type":"Polygon","coordinates":[[[1.18933,52.07134],[1.18887,52.06998],[1.18579,52.06901],[1.18612,52.06849],[1.18431,52.06843],[1.18391,52.06768],[1.18413,52.06598],[1.1837,52.06572],[1.18251,52.06577],[1.18257,52.06673],[1.18139,52.0667],[1.181,52.06698],[1.18215,52.06817],[1.18203,52.06885],[1.18126,52.0684],[1.18007,52.06905],[1.17749,52.06973],[1.17783,52.07062],[1.17629,52.07066],[1.1768,52.0724],[1.17665,52.07415],[1.17605,52.07649],[1.17503,52.07811],[1.17316,52.07973],[1.17099,52.08082],[1.17136,52.08125],[1.18947,52.08047],[1.19,52.08027],[1.19,52.07932],[1.18824,52.07872],[1.18685,52.07733],[1.18833,52.07653],[1.19215,52.07513],[1.191,52.0741],[1.19269,52.07377],[1.19196,52.07238],[1.19047,52.07198],[1.19043,52.07154],[1.18933,52.07134]]]}},{"type":"Feature","properties":{"id":"E01030002","name":"E01030002","parent":"E07000202","type":"LSOA","pop":2091,"r":249,"ff":92,"ffd":4399.8,"ffs":0.4718,"g":53,"co":3,"mo":0,"sa":0,"ic":0},"geometry":{"type":"Polygon","coordinates":[[[1.1871,52.0604],[1.18713,52.05984],[1.18616,52.0592],[1.18566,52.05951],[1.18487,52.0595],[1.18478,52.06015],[1.18381,52.06009],[1.18335,52.05965],[1.18426,52.05938],[1.18431,52.05882],[1.18495,52.05874],[1.1853,52.05711],[1.18438,52.05698],[1.18334,52.05727],[1.18334,52.05857],[1.18281,52.05857],[1.18282,52.05909],[1.1809,52.05918],[1.17807,52.05822],[1.17487,52.05763],[1.17325,52.05973],[1.17248,52.06117],[1.17829,52.06175],[1.18213,52.06182],[1.18777,52.06091],[1.1871,52.0604]]]}},{"type":"Feature","properties":{"id":"E01030003","name":"E01030003","parent":"E07000202","type":"LSOA","pop":1714,"r":243,"ff":90,"ffd":5250.9,"ffs":0.4762,"g":53,"co":3,"mo":2,"sa":0,"ic":0},"geometry":{"type":"Polygon","coordinates":[[[1.19051,52.06045],[1.19308,52.06012],[1.19318,52.05969],[1.19387,52.05975],[1.19431,52.05824],[1.19313,52.05812],[1.1931,52.05771],[1.19109,52.05776],[1.19124,52.05917],[1.19055,52.05946],[1.18987,52.05901],[1.18869,52.05896],[1.18836,52.05758],[1.18872,52.05702],[1.18853,52.05664],[1.18805,52.05664],[1.18804,52.05602],[1.18751,52.05584],[1.18748,52.05556],[1.18497,52.05482],[1.18475,52.05396],[1.18379,52.05394],[1.18334,52.05422],[1.18351,52.05497],[1.18334,52.05727],[1.18438,52.05698],[1.1853,52.05711],[1.18495,52.05874],[1.18431,52.05882],[1.18426,52.05938],[1.18335,52.05965],[1.18381,52.06009],[1.18478,52.06015],[1.18487,52.0595],[1.18566,52.05951],[1.18616,52.0592],[1.18713,52.05984],[1.1871,52.0604],[1.18777,52.06091],[1.19051,52.06045]]]}},{"type":"Feature","properties":{"id":"E01030004","name":"E01030004","parent":"E07000202","type":"LSOA","pop":1343,"r":236,"ff":87,"ffd":6478.0,"ffs":0.4754,"g":52,"co":3,"mo":2,"sa":0,"ic":0},"geometry":{"type":"Polygon","coordinates":[[[1.19477,52.06047],[1.19562,52.05832],[1.1963,52.05534],[1.19953,52.05533],[1.19976,52.05326],[1.19549,52.05354],[1.19538,52.05395],[1.19365,52.05359],[1.1939,52.05314],[1.19127,52.05377],[1.19108,52.05496],[1.18995,52.055],[1.18981,52.05574],[1.19054,52.05571],[1.19177,52.05605],[1.19103,52.05677],[1.18872,52.05702],[1.18836,52.05758],[1.18869,52.05896],[1.18987,52.05901],[1.19055,52.05946],[1.19124,52.05917],[1.19109,52.05776],[1.1931,52.05771],[1.19313,52.05812],[1.19431,52.05824],[1.19387,52.05975],[1.19318,52.05969],[1.19308,52.06012],[1.19477,52.06047]]]}},{"type":"Feature","properties":{"id":"E01030005","name":"E01030005","parent":"E07000202","type":"LSOA","pop":3059,"r":236,"ff":88,"ffd":2876.8,"ffs":0.4809,"g":52,"co":3,"mo":2,"sa":0,"ic":0},"geometry":{"type":"Polygon","coordinates":[[[1.18334,52.05422],[1.18379,52.05394],[1.18475,52.05396],[1.18482,52.05315],[1.18575,52.05304],[1.18556,52.0525],[1.18635,52.0523],[1.18738,52.05249],[1.18777,52.05205],[1.18612,52.05205],[1.18589,52.0514],[1.18645,52.05081],[1.18857,52.05153],[1.18872,52.05187],[1.19054,52.05182],[1.19054,52.05211],[1.19111,52.05218],[1.19122,52.05318],[1.1924,52.05348],[1.1939,52.05314],[1.19435,52.05179],[1.19504,52.05116],[1.19558,52.05116],[1.1964,52.04926],[1.19571,52.04859],[1.19736,52.04337],[1.19677,52.04253],[1.19566,52.04292],[1.19384,52.04507],[1.19092,52.04676],[1.18584,52.04844],[1.18374,52.04964],[1.18238,52.05094],[1.18285,52.05238],[1.18346,52.05265],[1.18334,52.05422]]]}},{"type":"Feature","properties":{"id":"E01030006","name":"E01030006","parent":"E07000202","type":"LSOA","pop":1727,"r":241,"ff":90,"ffd":5211.3,"ffs":0.4787,"g":52,"co":3,"mo":2,"sa":0,"ic":0},"geometry":{"type":"Polygon","coordinates":[[[1.19177,52.05605],[1.19054,52.05571],[1.18981,52.05574],[1.18995,52.055],[1.19108,52.05496],[1.19127,52.05377],[1.1924,52.05348],[1.19122,52.05318],[1.19111,52.05218],[1.19054,52.05211],[1.19054,52.05182],[1.18872,52.05187],[1.18857,52.05153],[1.18645,52.05081],[1.18589,52.0514],[1.18612,52.05205],[1.18777,52.05205],[1.18738,52.05249],[1.18635,52.0523],[1.18556,52.0525],[1.18575,52.05304],[1.18482,52.05315],[1.18475,52.05396],[1.18497,52.05482],[1.18748,52.05556],[1.18751,52.05584],[1.18804,52.05602],[1.18805,52.05664],[1.18853,52.05664],[1.18872,52.05702],[1.19103,52.05677],[1.19177,52.05605]]]}},{"type":"Feature","properties":{"id":"E01030007","name":"E01030007","parent":"E07000202","type":"LSOA","pop":2075,"r":244,"ff":92,"ffd":4433.7,"ffs":0.4842,"g":53,"co":3,"mo":0,"sa":0,"ic":0},"geometry":{"type":"Polygon","coordinates":[[[1.17357,52.06771],[1.17206,52.06619],[1.17135,52.06423],[1.17166,52.06269],[1.16776,52.06077],[1.16717,52.06024],[1.16672,52.06028],[1.16517,52.05927],[1.16445,52.05965],[1.16617,52.06107],[1.16414,52.06184],[1.1643,52.06256],[1.16322,52.0634],[1.16222,52.06287],[1.16152,52.0628],[1.16141,52.06242],[1.16113,52.06261],[1.16,52.06245],[1.15982,52.06172],[1.15922,52.0614],[1.15852,52.06177],[1.15761,52.06393],[1.1601,52.06368],[1.15972,52.06593],[1.1606,52.06588],[1.16093,52.06541],[1.16187,52.06537],[1.16209,52.06617],[1.16283,52.06616],[1.16308,52.06727],[1.16237,52.06731],[1.16251,52.06795],[1.16174,52.06821],[1.16235,52.06891],[1.16296,52.06866],[1.16326,52.06786],[1.16502,52.06771],[1.16533,52.06685],[1.16565,52.06708],[1.1661,52.06656],[1.1673,52.0678],[1.16805,52.06651],[1.16859,52.06635],[1.16924,52.06688],[1.17036,52.06702],[1.17144,52.06805],[1.17399,52.06898],[1.175,52.06975],[1.1755,52.06946],[1.17357,52.06771]]]}},{"type":"Feature","properties":{"id":"E01030008","name":"E01030008","parent":"E07000202","type":"LSOA","pop":1321,"r":239,"ff":90,"ffd":6813.0,"ffs":0.4865,"g":53,"co":3,"mo":0,"sa":0,"ic":0},"geometry":{"type":"Polygon","coordinates":[[[1.16068,52.07682],[1.15949,52.07385],[1.16033,52.07371],[1.15965,52.07189],[1.16148,52.07184],[1.16164,52.07239],[1.16271,52.07226],[1.16259,52.07111],[1.16218,52.07079],[1.16127,52.07077],[1.16181,52.06967],[1.1623,52.06967],[1.16054,52.0685],[1.16026,52.06778],[1.16141,52.06692],[1.16197,52.06763],[1.16243,52.06757],[1.16237,52.06731],[1.16308,52.06727],[1.16283,52.06616],[1.16209,52.06617],[1.16187,52.06537],[1.16093,52.06541],[1.1606,52.06588],[1.15972,52.06593],[1.15974,52.06542],[1.15321,52.06597],[1.15324,52.06508],[1.15212,52.06486],[1.15232,52.06634],[1.15302,52.06715],[1.15173,52.0671],[1.1512,52.06782],[1.15187,52.06804],[1.15182,52.0686],[1.14637,52.06664],[1.14589,52.06696],[1.14703,52.06753],[1.1464,52.06837],[1.14516,52.06855],[1.14347,52.06966],[1.14613,52.07009],[1.15096,52.07154],[1.15107,52.07131],[1.1526,52.0715],[1.15266,52.07192],[1.15437,52.07206],[1.15488,52.07501],[1.15533,52.07497],[1.15632,52.07577],[1.1548,52.07644],[1.15456,52.07585],[1.15271,52.07569],[1.15266,52.07728],[1.15184,52.0786],[1.16302,52.08071],[1.16123,52.07933],[1.16261,52.0786],[1.16068,52.07682]]]}},{"type":"Feature","properties":{"id":"E01030009","name":"E01030009","parent":"E07000202","type":"LSOA","pop":1406,"r":235,"ff":89,"ffd":6330.0,"ffs":0.4917,"g":53,"co":3,"mo":0,"sa":0,"ic":0},"geometry":{"type":"Polygon","coordinates":[[[1.14163,52.06973],[1.14347,52.06966],[1.14516,52.06855],[1.1464,52.06837],[1.14703,52.06753],[1.14589,52.06696],[1.14637,52.06664],[1.15182,52.0686],[1.15187,52.06804],[1.1512,52.06782],[1.15173,52.0671],[1.15302,52.06715],[1.15232,52.06634],[1.15212,52.06486],[1.15324,52.06508],[1.15401,52.06198],[1.15154,52.06275],[1.15139,52.06252],[1.15,52.06279],[1.14564,52.06392],[1.14174,52.06466],[1.1408,52.06442],[1.1395,52.06574],[1.13746,52.06732],[1.13807,52.06762],[1.13848,52.0673],[1.14056,52.06836],[1.14011,52.06864],[1.14163,52.06973]]]}},{"type":"Feature","properties":{"id":"E01030010","name":"E01030010","parent":"E07000202","type":"LSOA","pop":2014,"r":249,"ff":95,"ffd":4717.0,"ffs":0.4872,"g":53,"co":3,"mo":0,"sa":0,"ic":0},"geometry":{"type":"Polygon","coordinates":[[[1.15974,52.06542],[1.1601,52.06368],[1.15761,52.06393],[1.15852,52.06177],[1.15922,52.0614],[1.15982,52.06172],[1.16,52.06245],[1.16113,52.06261],[1.16141,52.06242],[1.16152,52.0628],[1.16222,52.06287],[1.16322,52.0634],[1.1643,52.06256],[1.16414,52.06184],[1.16617,52.06107],[1.16445,52.05965],[1.16517,52.05927],[1.16447,52.0589],[1.16396,52.05907],[1.16342,52.05783],[1.159,52.0583],[1.15782,52.05896],[1.15622,52.05934],[1.15571,52.06028],[1.15452,52.06087],[1.15401,52.06198],[1.15324,52.06508],[1.15321,52.06597],[1.15974,52.06542]]]}},{"type":"Feature","properties":{"id":"E01030011","name":"E01030011","parent":"E07000202","type":"LSOA","pop":1517,"r":248,"ff":93,"ffd":6130.5,"ffs":0.4794,"g":53,"co":3,"mo":0,"sa":0,"ic":0},"geometry":{"type":"Polygon","coordinates":[[[1.16458,52.08042],[1.16426,52.0795],[1.16477,52.07956],[1.16583,52.08063],[1.17099,52.08082],[1.17316,52.07973],[1.17503,52.07811],[1.17605,52.07649],[1.17665,52.07415],[1.1768,52.0724],[1.17629,52.07066],[1.1755,52.06946],[1.175,52.06975],[1.17399,52.06898],[1.17144,52.06805],[1.17036,52.06702],[1.16924,52.06688],[1.16859,52.06635],[1.16805,52.06651],[1.1673,52.0678],[1.1661,52.06656],[1.16565,52.06708],[1.16533,52.06685],[1.16502,52.06771],[1.16326,52.06786],[1.16296,52.06866],[1.16235,52.06891],[1.16174,52.06821],[1.16251,52.06795],[1.16243,52.06757],[1.16197,52.06763],[1.16141,52.06692],[1.16026,52.06778],[1.16054,52.0685],[1.1623,52.06967],[1.16181,52.06967],[1.16127,52.07077],[1.16218,52.07079],[1.16259,52.07111],[1.16271,52.07226],[1.16164,52.07239],[1.16148,52.07184],[1.15965,52.07189],[1.16033,52.07371],[1.15949,52.07385],[1.16068,52.07682],[1.16261,52.0786],[1.16123,52.07933],[1.16302,52.08071],[1.16559,52.08101],[1.16458,52.08042]]]}},{"type":"Feature","properties":{"id":"E01030012","name":"E01030012","parent":"E07000202","type":"LSOA","pop":1203,"r":234,"ff":91,"ffd":7564.4,"ffs":0.5028,"g":52,"co":3,"mo":0,"sa":0,"ic":0},"geometry":{"type":"Polygon","coordinates":[[[1.12611,52.04395],[1.12599,52.04329],[1.12486,52.04318],[1.12344,52.04211],[1.12284,52.04199],[1.12218,52.04037],[1.12092,52.04017],[1.12029,52.04063],[1.1206,52.04198],[1.12177,52.04239],[1.12159,52.04284],[1.12093,52.04302],[1.12113,52.04379],[1.12043,52.04435],[1.12242,52.04446],[1.12283,52.0447],[1.12294,52.0443],[1.12397,52.04417],[1.12375,52.04386],[1.12448,52.04385],[1.12438,52.04458],[1.12375,52.04483],[1.12361,52.04677],[1.12814,52.04696],[1.12818,52.04597],[1.12741,52.04536],[1.12786,52.04511],[1.12672,52.04395],[1.12611,52.04395]]]}},{"type":"Feature","properties":{"id":"E01030013","name":"E01030013","parent":"E07000202","type":"LSOA","pop":1549,"r":234,"ff":91,"ffd":5874.8,"ffs":0.5028,"g":52,"co":3,"mo":0,"sa":0,"ic":0},"geometry":{"type":"Polygon","coordinates":[[[1.11916,52.05023],[1.11936,52.04991],[1.1202,52.05001],[1.12024,52.04874],[1.12064,52.04845],[1.12063,52.04779],[1.1226,52.04633],[1.12361,52.04677],[1.12375,52.04483],[1.12438,52.04458],[1.12448,52.04385],[1.12375,52.04386],[1.12397,52.04417],[1.12294,52.0443],[1.12283,52.0447],[1.12242,52.04446],[1.12082,52.04447],[1.11961,52.04404],[1.11747,52.04411],[1.11675,52.04447],[1.11712,52.04496],[1.11648,52.04517],[1.11711,52.04593],[1.11622,52.04696],[1.11655,52.0472],[1.11577,52.04723],[1.11566,52.04783],[1.11478,52.04753],[1.11428,52.0477],[1.11508,52.04829],[1.11481,52.0486],[1.11753,52.04977],[1.11916,52.05023]]]}},{"type":"Feature","properties":{"id":"E01030014","name":"E01030014","parent":"E07000202","type":"LSOA","pop":1540,"r":236,"ff":92,"ffd":5974.0,"ffs":0.5027,"g":52,"co":3,"mo":0,"sa":0,"ic":0},"geometry":{"type":"Polygon","coordinates":[[[1.11428,52.0477],[1.11478,52.04753],[1.11566,52.04783],[1.11577,52.04723],[1.11655,52.0472],[1.11622,52.04696],[1.11711,52.04593],[1.11648,52.04517],[1.11712,52.04496],[1.11675,52.04447],[1.11747,52.04411],[1.11384,52.04379],[1.10992,52.04256],[1.10864,52.04367],[1.1081,52.04505],[1.10741,52.04587],[1.10728,52.04652],[1.11431,52.0486],[1.11481,52.0486],[1.11508,52.04829],[1.11428,52.0477]]]}},{"type":"Feature","properties":{"id":"E01030015","name":"E01030015","parent":"E07000202","type":"LSOA","pop":1215,"r":234,"ff":92,"ffd":7572.0,"ffs":0.5083,"g":52,"co":3,"mo":0,"sa":0,"ic":0},"geometry":{"type":"Polygon","coordinates":[[[1.11381,52.0412],[1.11499,52.04046],[1.11558,52.04054],[1.11541,52.04168],[1.11605,52.04139],[1.11646,52.03962],[1.11593,52.03957],[1.11598,52.03922],[1.11647,52.03883],[1.11714,52.03912],[1.11801,52.03853],[1.11711,52.03834],[1.11738,52.037],[1.117,52.03686],[1.11764,52.03533],[1.11627,52.03543],[1.11294,52.03458],[1.11268,52.03579],[1.11249,52.03853],[1.11174,52.04071],[1.1108,52.0421],[1.10992,52.04256],[1.11384,52.04379],[1.11592,52.04397],[1.11529,52.04351],[1.11341,52.04326],[1.11357,52.04284],[1.11439,52.04273],[1.11454,52.04242],[1.11391,52.04174],[1.11441,52.04141],[1.11381,52.0412]]]}},{"type":"Feature","properties":{"id":"E01030016","name":"E01030016","parent":"E07000202","type":"LSOA","pop":1326,"r":234,"ff":91,"ffd":6862.7,"ffs":0.5028,"g":52,"co":3,"mo":0,"sa":0,"ic":0},"geometry":{"type":"Polygon","coordinates":[[[1.12043,52.04435],[1.12113,52.04379],[1.12093,52.04302],[1.12159,52.04284],[1.12177,52.04239],[1.1206,52.04198],[1.12029,52.04063],[1.12119,52.03996],[1.12074,52.03974],[1.1212,52.03942],[1.11952,52.03921],[1.11964,52.03836],[1.11769,52.03812],[1.11711,52.03834],[1.11801,52.03853],[1.11714,52.03912],[1.11647,52.03883],[1.11598,52.03922],[1.11593,52.03957],[1.11646,52.03962],[1.11605,52.04139],[1.11541,52.04168],[1.11558,52.04054],[1.11499,52.04046],[1.11381,52.0412],[1.11441,52.04141],[1.11391,52.04174],[1.11454,52.04242],[1.11439,52.04273],[1.11357,52.04284],[1.11341,52.04326],[1.11529,52.04351],[1.11608,52.044],[1.11961,52.04404],[1.12043,52.04435]]]}},{"type":"Feature","properties":{"id":"E01030017","name":"E01030017","parent":"E07000202","type":"LSOA","pop":1393,"r":235,"ff":91,"ffd":6532.7,"ffs":0.5,"g":52,"co":3,"mo":0,"sa":0,"ic":0},"geometry":{"type":"Polygon","coordinates":[[[1.12542,52.03921],[1.12518,52.03782],[1.12602,52.03713],[1.12818,52.03669],[1.12577,52.03578],[1.12525,52.03525],[1.12524,52.03447],[1.12419,52.03423],[1.1226,52.03551],[1.1198,52.03616],[1.11764,52.03533],[1.117,52.03686],[1.11738,52.037],[1.11711,52.03834],[1.11769,52.03812],[1.11964,52.03836],[1.11952,52.03921],[1.1212,52.03942],[1.12074,52.03974],[1.12119,52.03996],[1.12092,52.04017],[1.12218,52.04037],[1.12284,52.04199],[1.12344,52.04211],[1.12521,52.04114],[1.1246,52.04058],[1.12508,52.04015],[1.12618,52.04001],[1.12542,52.03921]]]}},{"type":"Feature","properties":{"id":"E01030018","name":"E01030018","parent":"E07000202","type":"LSOA","pop":1503,"r":234,"ff":90,"ffd":5988.0,"ffs":0.4972,"g":52,"co":3,"mo":0,"sa":0,"ic":0},"geometry":{"type":"Polygon","coordinates":[[[1.13363,52.04282],[1.13154,52.04055],[1.13109,52.04056],[1.13093,52.03996],[1.12975,52.03899],[1.12906,52.03895],[1.12781,52.03811],[1.12584,52.03801],[1.12626,52.03868],[1.12605,52.03933],[1.12755,52.03947],[1.12775,52.03986],[1.12508,52.04015],[1.1246,52.04058],[1.12521,52.04114],[1.12344,52.04211],[1.12486,52.04318],[1.12599,52.04329],[1.12611,52.04395],[1.12672,52.04395],[1.12654,52.04296],[1.12735,52.04235],[1.1318,52.04471],[1.13211,52.04386],[1.13081,52.04339],[1.13363,52.04282]]]}},{"type":"Feature","properties":{"id":"E01030019","name":"E01030019","parent":"E07000202","type":"LSOA","pop":1478,"r":237,"ff":91,"ffd":6157.0,"ffs":0.4973,"g":53,"co":3,"mo":0,"sa":0,"ic":0},"geometry":{"type":"Polygon","coordinates":[[[1.143,52.04682],[1.13754,52.04397],[1.14014,52.0416],[1.13848,52.04127],[1.13824,52.04034],[1.13997,52.03843],[1.14477,52.03571],[1.14568,52.03601],[1.14605,52.03469],[1.14744,52.03468],[1.14671,52.03388],[1.1462,52.03394],[1.14431,52.03323],[1.14163,52.03292],[1.14067,52.03328],[1.14017,52.03409],[1.13778,52.03398],[1.13637,52.03558],[1.1354,52.03488],[1.13414,52.03549],[1.13477,52.03662],[1.13594,52.03714],[1.13569,52.03873],[1.13434,52.03958],[1.13524,52.04025],[1.13464,52.04057],[1.13353,52.03987],[1.13154,52.04055],[1.13363,52.04282],[1.13081,52.04339],[1.13211,52.04386],[1.1318,52.04471],[1.13498,52.04663],[1.1358,52.04646],[1.143,52.04682]]]}},{"type":"Feature","properties":{"id":"E01030020","name":"E01030020","parent":"E07000202","type":"LSOA","pop":1367,"r":234,"ff":90,"ffd":6583.8,"ffs":0.4972,"g":52,"co":3,"mo":0,"sa":0,"ic":0},"geometry":{"type":"Polygon","coordinates":[[[1.13524,52.04025],[1.13434,52.03958],[1.13569,52.03873],[1.13594,52.03714],[1.13477,52.03662],[1.13414,52.03549],[1.13256,52.03464],[1.13187,52.03522],[1.13138,52.03498],[1.13103,52.03517],[1.13102,52.03473],[1.13042,52.03446],[1.1298,52.03475],[1.12917,52.03423],[1.12832,52.03465],[1.12883,52.03493],[1.12875,52.03578],[1.127,52.03508],[1.12597,52.03538],[1.12525,52.03525],[1.12577,52.03578],[1.12818,52.03669],[1.12602,52.03713],[1.12518,52.03782],[1.12542,52.03921],[1.12618,52.04001],[1.12775,52.03986],[1.12755,52.03947],[1.12605,52.03933],[1.12626,52.03868],[1.12584,52.03801],[1.12781,52.03811],[1.12906,52.03895],[1.12975,52.03899],[1.13093,52.03996],[1.13109,52.04056],[1.13353,52.03987],[1.13464,52.04057],[1.13524,52.04025]]]}},{"type":"Feature","properties":{"id":"E01030021","name":"E01030021","parent":"E07000202","type":"LSOA","pop":1336,"r":233,"ff":89,"ffd":6661.7,"ffs":0.4944,"g":52,"co":3,"mo":0,"sa":0,"ic":0},"geometry":{"type":"Polygon","coordinates":[[[1.13637,52.03558],[1.13778,52.03398],[1.14017,52.03409],[1.14067,52.03328],[1.14163,52.03292],[1.13938,52.03208],[1.13637,52.03207],[1.1363,52.03093],[1.13447,52.03008],[1.13403,52.03045],[1.13019,52.03045],[1.12987,52.02997],[1.12901,52.03007],[1.12936,52.03071],[1.12851,52.03089],[1.12809,52.03149],[1.12697,52.03223],[1.12692,52.03287],[1.12598,52.03272],[1.1262,52.03361],[1.12573,52.03415],[1.12501,52.03391],[1.12419,52.03423],[1.12524,52.03447],[1.12525,52.03525],[1.12597,52.03538],[1.127,52.03508],[1.12875,52.03578],[1.12883,52.03493],[1.12832,52.03465],[1.12917,52.03423],[1.1298,52.03475],[1.13042,52.03446],[1.13102,52.03473],[1.13103,52.03517],[1.13138,52.03498],[1.13187,52.03522],[1.13256,52.03464],[1.13414,52.03549],[1.1354,52.03488],[1.13637,52.03558]]]}},{"type":"Feature","properties":{"id":"E01030022","name":"E01030022","parent":"E07000202","type":"LSOA","pop":2084,"r":236,"ff":90,"ffd":4318.6,"ffs":0.4945,"g":53,"co":3,"mo":0,"sa":0,"ic":0},"geometry":{"type":"Polygon","coordinates":[[[1.13746,52.06732],[1.1395,52.06574],[1.14082,52.06429],[1.13948,52.06401],[1.13912,52.06483],[1.1374,52.06393],[1.13739,52.06446],[1.13685,52.06484],[1.13594,52.06488],[1.13599,52.06536],[1.13551,52.06561],[1.13517,52.06544],[1.13433,52.06604],[1.13308,52.06505],[1.13381,52.06466],[1.13479,52.06516],[1.13502,52.06434],[1.13456,52.06405],[1.13504,52.06391],[1.13483,52.06367],[1.13427,52.06376],[1.13368,52.063],[1.13453,52.06287],[1.13381,52.06138],[1.1332,52.06151],[1.12952,52.06399],[1.12981,52.06474],[1.12917,52.06475],[1.12995,52.06549],[1.13086,52.06568],[1.13059,52.06615],[1.13104,52.06728],[1.13272,52.06756],[1.13355,52.06741],[1.1335,52.06666],[1.13661,52.06804],[1.13746,52.06732]]]}},{"type":"Feature","properties":{"id":"E01030023","name":"E01030023","parent":"E07000202","type":"LSOA","pop":2023,"r":232,"ff":88,"ffd":4350.0,"ffs":0.4916,"g":52,"co":3,"mo":0,"sa":0,"ic":0},"geometry":{"type":"Polygon","coordinates":[[[1.13433,52.06604],[1.13517,52.06544],[1.13551,52.06561],[1.13599,52.06536],[1.13594,52.06488],[1.13685,52.06484],[1.13739,52.06446],[1.13737,52.06395],[1.13771,52.06378],[1.13769,52.06356],[1.1366,52.0635],[1.13825,52.06271],[1.13839,52.06291],[1.13883,52.06275],[1.13871,52.06226],[1.13993,52.06211],[1.13983,52.06159],[1.14068,52.06161],[1.14066,52.06098],[1.14196,52.06088],[1.1419,52.06034],[1.14105,52.0603],[1.14114,52.05998],[1.13943,52.0595],[1.13701,52.05812],[1.13511,52.05786],[1.13506,52.05976],[1.13452,52.05989],[1.1332,52.06151],[1.13381,52.06138],[1.13453,52.06287],[1.13368,52.063],[1.13427,52.06376],[1.13483,52.06367],[1.13504,52.06391],[1.13456,52.06405],[1.13502,52.06434],[1.13479,52.06516],[1.13381,52.06466],[1.13308,52.06505],[1.13433,52.06604]]]}},{"type":"Feature","properties":{"id":"E01030024","name":"E01030024","parent":"E07000202","type":"LSOA","pop":2023,"r":233,"ff":88,"ffd":4350.0,"ffs":0.4916,"g":53,"co":3,"mo":0,"sa":0,"ic":0},"geometry":{"type":"Polygon","coordinates":[[[1.13912,52.06483],[1.13948,52.06401],[1.14174,52.06466],[1.14564,52.06392],[1.14428,52.06326],[1.14279,52.06314],[1.14298,52.06228],[1.14259,52.06207],[1.14328,52.06165],[1.14371,52.06192],[1.14544,52.06164],[1.14539,52.06203],[1.14655,52.06232],[1.14718,52.06312],[1.14757,52.06303],[1.14594,52.06017],[1.14114,52.05998],[1.14105,52.0603],[1.1419,52.06034],[1.14196,52.06088],[1.14066,52.06098],[1.14068,52.06161],[1.13983,52.06159],[1.13993,52.06211],[1.13871,52.06226],[1.13883,52.06275],[1.13839,52.06291],[1.13825,52.06271],[1.1366,52.0635],[1.13769,52.06356],[1.13771,52.06378],[1.1374,52.06393],[1.13912,52.06483]]]}},{"type":"Feature","properties":{"id":"E01030025","name":"E01030025","parent":"E07000202","type":"LSOA","pop":1822,"r":241,"ff":90,"ffd":4939.6,"ffs":0.4839,"g":54,"co":3,"mo":0,"sa":0,"ic":0},"geometry":{"type":"Polygon","coordinates":[[[1.14683,52.06359],[1.15139,52.06252],[1.15154,52.06275],[1.15401,52.06198],[1.15452,52.06087],[1.15571,52.06028],[1.15622,52.05934],[1.15288,52.05948],[1.1496,52.05924],[1.14661,52.06014],[1.14594,52.06017],[1.14757,52.06303],[1.14718,52.06312],[1.14655,52.06232],[1.14539,52.06203],[1.14544,52.06164],[1.14371,52.06192],[1.14328,52.06165],[1.14259,52.06207],[1.14298,52.06228],[1.14279,52.06314],[1.14428,52.06326],[1.14564,52.06392],[1.14683,52.06359]]]}},{"type":"Feature","properties":{"id":"E01030026","name":"E01030026","parent":"E07000202","type":"LSOA","pop":2013,"r":236,"ff":89,"ffd":4421.3,"ffs":0.489,"g":53,"co":3,"mo":0,"sa":0,"ic":0},"geometry":{"type":"Polygon","coordinates":[[[1.13617,52.06785],[1.1335,52.06666],[1.13355,52.06741],[1.13272,52.06756],[1.13104,52.06728],[1.13059,52.06615],[1.13086,52.06568],[1.12995,52.06549],[1.12917,52.06475],[1.12981,52.06474],[1.12952,52.06399],[1.12613,52.06397],[1.12667,52.06546],[1.12777,52.06708],[1.12985,52.06905],[1.13313,52.07137],[1.13661,52.06804],[1.13617,52.06785]]]}},{"type":"Feature","properties":{"id":"E01030027","name":"E01030027","parent":"E07000202","type":"LSOA","pop":2020,"r":231,"ff":88,"ffd":4356.4,"ffs":0.4972,"g":53,"co":3,"mo":0,"sa":0,"ic":0},"geometry":{"type":"Polygon","coordinates":[[[1.12585,52.07243],[1.1275,52.07119],[1.12948,52.07144],[1.13047,52.07123],[1.13023,52.0705],[1.13121,52.07009],[1.12985,52.06905],[1.12751,52.06676],[1.12667,52.06546],[1.12613,52.06397],[1.12451,52.06339],[1.12202,52.06151],[1.11402,52.06696],[1.11645,52.06645],[1.11703,52.06617],[1.11925,52.06681],[1.11894,52.06741],[1.12052,52.06744],[1.12113,52.06823],[1.12238,52.06797],[1.12228,52.0684],[1.12319,52.06817],[1.12407,52.06829],[1.12498,52.07016],[1.12607,52.07014],[1.1256,52.07071],[1.12521,52.07078],[1.12507,52.07043],[1.12386,52.0708],[1.12401,52.07109],[1.12362,52.0712],[1.12287,52.07098],[1.12308,52.07138],[1.12585,52.07243]]]}},{"type":"Feature","properties":{"id":"E01030028","name":"E01030028","parent":"E07000202","type":"LSOA","pop":1765,"r":217,"ff":82,"ffd":4645.9,"ffs":0.5031,"g":53,"co":3,"mo":0,"sa":0,"ic":0},"geometry":{"type":"Polygon","coordinates":[[[1.11616,52.07709],[1.11545,52.07528],[1.11614,52.07559],[1.11642,52.07519],[1.11627,52.07479],[1.11486,52.07508],[1.11506,52.07304],[1.11846,52.07297],[1.1185,52.0732],[1.12178,52.07184],[1.12157,52.07152],[1.12194,52.07141],[1.12151,52.0709],[1.12058,52.07109],[1.12013,52.07071],[1.11885,52.07096],[1.11814,52.07194],[1.11707,52.07196],[1.11676,52.07005],[1.1162,52.07013],[1.11633,52.06979],[1.11576,52.06955],[1.11805,52.06926],[1.11751,52.06883],[1.11665,52.0689],[1.1165,52.06832],[1.11402,52.06696],[1.10873,52.0707],[1.10942,52.07126],[1.10919,52.07353],[1.11085,52.07333],[1.1109,52.07419],[1.11144,52.0747],[1.11047,52.07532],[1.111,52.07547],[1.11076,52.07573],[1.11181,52.07649],[1.11379,52.07592],[1.11371,52.07658],[1.11495,52.07621],[1.11536,52.07726],[1.11616,52.07709]]]}},{"type":"Feature","properties":{"id":"E01030029","name":"E01030029","parent":"E07000202","type":"LSOA","pop":1724,"r":216,"ff":82,"ffd":4756.4,"ffs":0.5062,"g":53,"co":3,"mo":0,"sa":0,"ic":0},"geometry":{"type":"Polygon","coordinates":[[[1.12092,52.07696],[1.12544,52.07586],[1.12493,52.07378],[1.13053,52.07408],[1.13313,52.07137],[1.13121,52.07009],[1.13023,52.0705],[1.13047,52.07123],[1.12948,52.07144],[1.1275,52.07119],[1.12585,52.07243],[1.12308,52.07138],[1.12225,52.07167],[1.12194,52.07141],[1.12157,52.07152],[1.12178,52.07184],[1.1185,52.0732],[1.11846,52.07297],[1.11506,52.07304],[1.11486,52.07508],[1.11627,52.07479],[1.11642,52.07519],[1.11614,52.07559],[1.1163,52.07621],[1.11734,52.07637],[1.11725,52.07676],[1.11936,52.0763],[1.12092,52.07696]]]}},{"type":"Feature","properties":{"id":"E01030030","name":"E01030030","parent":"E07000202","type":"LSOA","pop":2231,"r":228,"ff":88,"ffd":3944.4,"ffs":0.5057,"g":53,"co":3,"mo":0,"sa":0,"ic":0},"geometry":{"type":"Polygon","coordinates":[[[1.11885,52.07096],[1.12013,52.07071],[1.12058,52.07109],[1.12151,52.0709],[1.12225,52.07167],[1.12308,52.07138],[1.12287,52.07098],[1.12362,52.0712],[1.12401,52.07109],[1.12386,52.0708],[1.12507,52.07043],[1.12521,52.07078],[1.1256,52.07071],[1.12607,52.07014],[1.12498,52.07016],[1.12407,52.06829],[1.12319,52.06817],[1.12228,52.0684],[1.12238,52.06797],[1.12113,52.06823],[1.12052,52.06744],[1.11894,52.06741],[1.11925,52.06681],[1.11703,52.06617],[1.11409,52.067],[1.1165,52.06832],[1.11665,52.0689],[1.11751,52.06883],[1.11805,52.06926],[1.11576,52.06955],[1.11633,52.06979],[1.1162,52.07013],[1.11676,52.07005],[1.11707,52.07196],[1.11814,52.07194],[1.11885,52.07096]]]}},{"type":"Feature","properties":{"id":"E01030031","name":"E01030031","parent":"E07000202","type":"LSOA","pop":1559,"r":220,"ff":84,"ffd":5388.1,"ffs":0.506,"g":53,"co":3,"mo":0,"sa":0,"ic":0},"geometry":{"type":"Polygon","coordinates":[[[1.11573,52.08923],[1.11448,52.08605],[1.11542,52.08523],[1.11674,52.08301],[1.11869,52.08204],[1.12058,52.08161],[1.12408,52.0814],[1.12482,52.08106],[1.12628,52.07814],[1.12553,52.07758],[1.12635,52.07606],[1.12563,52.07609],[1.12541,52.07583],[1.12092,52.07696],[1.11936,52.0763],[1.11725,52.07676],[1.11734,52.07637],[1.1163,52.07621],[1.11614,52.07559],[1.11545,52.07528],[1.11616,52.07709],[1.11536,52.07726],[1.11495,52.07621],[1.11371,52.07658],[1.11379,52.07592],[1.11181,52.07649],[1.11153,52.07735],[1.11031,52.07852],[1.10932,52.07839],[1.11025,52.0794],[1.10865,52.08026],[1.10901,52.08121],[1.10871,52.08143],[1.10933,52.08204],[1.1099,52.0818],[1.11054,52.08212],[1.11034,52.08267],[1.11119,52.08311],[1.11178,52.08484],[1.11122,52.08488],[1.11131,52.08561],[1.10883,52.08563],[1.10914,52.08807],[1.10954,52.08839],[1.11048,52.08841],[1.11099,52.08922],[1.11269,52.0888],[1.11376,52.09007],[1.11573,52.08923]]]}},{"type":"Feature","properties":{"id":"E01030032","name":"E01030032","parent":"E07000202","type":"LSOA","pop":1492,"r":209,"ff":81,"ffd":5429.0,"ffs":0.5127,"g":50,"co":3,"mo":0,"sa":0,"ic":0},"geometry":{"type":"Polygon","coordinates":[[[1.12917,52.0832],[1.12871,52.08262],[1.1309,52.08263],[1.13114,52.08232],[1.13148,52.08247],[1.13197,52.08216],[1.13178,52.08148],[1.1332,52.08113],[1.13284,52.08062],[1.13419,52.08005],[1.13432,52.07959],[1.13201,52.07928],[1.13181,52.07899],[1.13125,52.07896],[1.13119,52.07927],[1.12987,52.07918],[1.1298,52.07958],[1.12841,52.07949],[1.12841,52.07914],[1.12785,52.07939],[1.12796,52.07906],[1.126,52.07867],[1.12482,52.08106],[1.12553,52.08123],[1.12616,52.08188],[1.12573,52.0833],[1.12782,52.08352],[1.1276,52.08453],[1.1277,52.08487],[1.1282,52.08492],[1.12872,52.08462],[1.12832,52.084],[1.1289,52.08394],[1.12837,52.08381],[1.1285,52.08336],[1.12917,52.0832]]]}},{"type":"Feature","properties":{"id":"E01030033","name":"E01030033","parent":"E07000202","type":"LSOA","pop":1682,"r":227,"ff":85,"ffd":5053.5,"ffs":0.4913,"g":53,"co":3,"mo":0,"sa":0,"ic":0},"geometry":{"type":"Polygon","coordinates":[[[1.15515,52.08243],[1.15711,52.08174],[1.15711,52.08079],[1.1563,52.08076],[1.15633,52.07954],[1.15184,52.0786],[1.14654,52.07718],[1.14498,52.07892],[1.14413,52.07956],[1.1416,52.0787],[1.13919,52.07869],[1.13915,52.08055],[1.14117,52.08049],[1.14291,52.08271],[1.14421,52.08306],[1.14448,52.08366],[1.14555,52.08375],[1.14665,52.08349],[1.14695,52.08223],[1.14896,52.08219],[1.14862,52.08344],[1.14925,52.08463],[1.15629,52.08411],[1.15515,52.08243]]]}},{"type":"Feature","properties":{"id":"E01030034","name":"E01030034","parent":"E07000202","type":"LSOA","pop":1418,"r":223,"ff":83,"ffd":5853.3,"ffs":0.4911,"g":53,"co":3,"mo":0,"sa":0,"ic":0},"geometry":{"type":"Polygon","coordinates":[[[1.1446,52.09434],[1.1449,52.09399],[1.14947,52.09373],[1.14934,52.09288],[1.15196,52.09242],[1.15163,52.09198],[1.15359,52.09098],[1.15373,52.09122],[1.15444,52.09094],[1.15784,52.08875],[1.15955,52.08798],[1.15878,52.08729],[1.15852,52.08739],[1.15836,52.08694],[1.15873,52.0868],[1.15909,52.08719],[1.15961,52.0871],[1.16413,52.08588],[1.1634,52.08507],[1.16359,52.08423],[1.16233,52.08277],[1.16569,52.08234],[1.1653,52.08188],[1.16571,52.08169],[1.165,52.08107],[1.16559,52.08101],[1.15633,52.07954],[1.1563,52.08076],[1.15711,52.08079],[1.15711,52.08174],[1.15515,52.08243],[1.15629,52.08411],[1.14925,52.08463],[1.14862,52.08344],[1.14896,52.08219],[1.14695,52.08223],[1.14665,52.08349],[1.14555,52.08375],[1.14448,52.08366],[1.14421,52.08306],[1.14291,52.08271],[1.14149,52.08352],[1.1408,52.08299],[1.14153,52.08255],[1.14091,52.0822],[1.13972,52.08266],[1.14024,52.08319],[1.13924,52.08428],[1.13754,52.08404],[1.13668,52.08425],[1.1367,52.08558],[1.13729,52.0855],[1.13754,52.08638],[1.13854,52.08652],[1.13893,52.0881],[1.13851,52.08866],[1.13847,52.08913],[1.1398,52.08927],[1.13942,52.0915],[1.14003,52.09179],[1.13955,52.09369],[1.14022,52.09371],[1.1403,52.09407],[1.1411,52.09428],[1.14222,52.0942],[1.14229,52.09447],[1.1446,52.09434]]]}},{"type":"Feature","properties":{"id":"E01030035","name":"E01030035","parent":"E07000202","type":"LSOA","pop":1944,"r":211,"ff":80,"ffd":4115.2,"ffs":0.5031,"g":51,"co":3,"mo":0,"sa":0,"ic":0},"geometry":{"type":"Polygon","coordinates":[[[1.13893,52.0881],[1.13854,52.08652],[1.13754,52.08638],[1.13729,52.0855],[1.1367,52.08558],[1.13664,52.08533],[1.13426,52.08536],[1.13425,52.08454],[1.13347,52.08454],[1.13342,52.08396],[1.13275,52.08379],[1.13286,52.08304],[1.13255,52.08215],[1.13197,52.08216],[1.13148,52.08247],[1.13114,52.08232],[1.1309,52.08263],[1.12871,52.08262],[1.12917,52.0832],[1.1285,52.08336],[1.12837,52.08381],[1.1289,52.08394],[1.12832,52.084],[1.12872,52.08462],[1.1282,52.08492],[1.1277,52.08487],[1.1276,52.08453],[1.12782,52.08352],[1.12573,52.0833],[1.12616,52.08188],[1.12553,52.08123],[1.12482,52.08106],[1.12408,52.0814],[1.12058,52.08161],[1.11869,52.08204],[1.11674,52.08301],[1.11542,52.08523],[1.11448,52.08605],[1.11573,52.08923],[1.12021,52.08745],[1.12962,52.08732],[1.12987,52.0876],[1.13245,52.08803],[1.13351,52.08787],[1.13853,52.08839],[1.13851,52.08866],[1.13893,52.0881]]]}},{"type":"Feature","properties":{"id":"E01030036","name":"E01030036","parent":"E07000202","type":"LSOA","pop":1946,"r":218,"ff":82,"ffd":4213.8,"ffs":0.494,"g":51,"co":3,"mo":0,"sa":0,"ic":0},"geometry":{"type":"Polygon","coordinates":[[[1.13668,52.08425],[1.13754,52.08404],[1.13924,52.08428],[1.14024,52.08319],[1.13972,52.08266],[1.14091,52.0822],[1.14153,52.08255],[1.1408,52.08299],[1.14149,52.08352],[1.14291,52.08271],[1.14117,52.08049],[1.13838,52.08055],[1.13819,52.08016],[1.13596,52.08009],[1.13597,52.07981],[1.13432,52.07959],[1.13419,52.08005],[1.13284,52.08062],[1.1332,52.08113],[1.13178,52.08148],[1.13197,52.08216],[1.13255,52.08215],[1.13286,52.08304],[1.13275,52.08379],[1.13342,52.08396],[1.13347,52.08454],[1.13425,52.08454],[1.13426,52.08536],[1.13664,52.08533],[1.13668,52.08425]]]}},{"type":"Feature","properties":{"id":"E01033122","name":"E01033122","parent":"E07000202","type":"LSOA","pop":2451,"r":249,"ff":95,"ffd":3876.0,"ffs":0.4872,"g":53,"co":3,"mo":0,"sa":0,"ic":0},"geometry":{"type":"Polygon","coordinates":[[[1.15634,52.05125],[1.15765,52.05066],[1.15891,52.04959],[1.16024,52.04685],[1.16012,52.04432],[1.1574,52.04132],[1.15418,52.04272],[1.15375,52.04344],[1.15455,52.0442],[1.15309,52.04438],[1.15169,52.04421],[1.15141,52.04543],[1.15195,52.04559],[1.15351,52.04536],[1.15398,52.04569],[1.15426,52.04654],[1.15489,52.04656],[1.1559,52.04724],[1.15548,52.04728],[1.15587,52.04859],[1.15455,52.05083],[1.15529,52.05083],[1.15507,52.05136],[1.15634,52.05125]]]}},{"type":"Feature","properties":{"id":"E01033123","name":"E01033123","parent":"E07000202","type":"LSOA","pop":1863,"r":243,"ff":90,"ffd":4830.9,"ffs":0.4762,"g":53,"co":3,"mo":2,"sa":0,"ic":0},"geometry":{"type":"Polygon","coordinates":[[[1.17536,52.04948],[1.17461,52.0492],[1.17662,52.04884],[1.17622,52.04792],[1.17695,52.04747],[1.17644,52.04717],[1.1718,52.0477],[1.17025,52.04742],[1.16978,52.04954],[1.16895,52.04959],[1.16865,52.04908],[1.16651,52.04886],[1.16631,52.04974],[1.1675,52.04961],[1.16797,52.04998],[1.16674,52.05082],[1.16803,52.05111],[1.1668,52.05133],[1.167,52.05166],[1.16642,52.05202],[1.16464,52.05262],[1.17215,52.0538],[1.17388,52.05351],[1.17367,52.05323],[1.17468,52.05251],[1.17731,52.05227],[1.17743,52.05175],[1.17646,52.05132],[1.17628,52.05048],[1.17557,52.05033],[1.17536,52.04948]]]}},{"type":"Feature","properties":{"id":"E01033124","name":"E01033124","parent":"E07000202","type":"LSOA","pop":1119,"r":254,"ff":98,"ffd":8757.8,"ffs":0.4925,"g":54,"co":3,"mo":0,"sa":0,"ic":0},"geometry":{"type":"Polygon","coordinates":[[[1.15375,52.05529],[1.15421,52.05509],[1.15485,52.05524],[1.15444,52.05418],[1.15479,52.05341],[1.15998,52.05298],[1.16075,52.05342],[1.16149,52.05324],[1.16187,52.05356],[1.16261,52.05346],[1.1625,52.05302],[1.16464,52.05262],[1.16466,52.05219],[1.16216,52.05169],[1.16175,52.05193],[1.15993,52.05211],[1.15797,52.05194],[1.15366,52.05223],[1.15369,52.05174],[1.14523,52.05145],[1.14632,52.05313],[1.14902,52.05306],[1.14872,52.05326],[1.15058,52.05453],[1.15093,52.05534],[1.15124,52.05511],[1.15253,52.0553],[1.15307,52.05448],[1.15387,52.05449],[1.15346,52.05509],[1.15375,52.05529]]]}},{"type":"Feature","properties":{"id":"E01033125","name":"E01033125","parent":"E07000202","type":"LSOA","pop":1486,"r":244,"ff":93,"ffd":6258.4,"ffs":0.4921,"g":54,"co":3,"mo":0,"sa":0,"ic":0},"geometry":{"type":"Polygon","coordinates":[[[1.14799,52.05978],[1.1496,52.05924],[1.15413,52.05945],[1.15477,52.05792],[1.15326,52.0581],[1.15283,52.05752],[1.15286,52.05708],[1.15545,52.05712],[1.15555,52.05773],[1.15632,52.05768],[1.15622,52.05634],[1.15741,52.05651],[1.15703,52.05595],[1.15827,52.0556],[1.15898,52.05626],[1.15923,52.05568],[1.16048,52.05541],[1.16034,52.05423],[1.1607,52.05421],[1.16039,52.05371],[1.16075,52.05342],[1.15998,52.05298],[1.15479,52.05341],[1.15444,52.05418],[1.15485,52.05524],[1.15421,52.05509],[1.15375,52.05529],[1.15346,52.05509],[1.15387,52.05449],[1.15307,52.05448],[1.15253,52.0553],[1.15124,52.05511],[1.15093,52.05534],[1.15058,52.05453],[1.14872,52.05326],[1.14902,52.05306],[1.14632,52.05313],[1.14748,52.05452],[1.14957,52.05545],[1.14852,52.05618],[1.14728,52.05818],[1.14799,52.05978]]]}},{"type":"Feature","properties":{"id":"E01033126","name":"E01033126","parent":"E07000202","type":"LSOA","pop":1906,"r":240,"ff":89,"ffd":4669.5,"ffs":0.4785,"g":53,"co":3,"mo":2,"sa":0,"ic":0},"geometry":{"type":"Polygon","coordinates":[[[1.167,52.05166],[1.1668,52.05133],[1.16803,52.05111],[1.16674,52.05082],[1.16797,52.04998],[1.1675,52.04961],[1.16631,52.04974],[1.16651,52.04886],[1.16615,52.04859],[1.16472,52.04574],[1.16555,52.04554],[1.16476,52.04513],[1.16361,52.04509],[1.16275,52.04542],[1.16312,52.04607],[1.1624,52.04624],[1.16213,52.04595],[1.16093,52.04642],[1.16051,52.04895],[1.15804,52.05086],[1.1551,52.05198],[1.15395,52.05214],[1.1537,52.05175],[1.15366,52.05223],[1.15797,52.05194],[1.15993,52.05211],[1.16175,52.05193],[1.16216,52.05169],[1.16466,52.05219],[1.16464,52.05262],[1.167,52.05166]]]}},{"type":"Feature","properties":{"id":"E01033127","name":"E01033127","parent":"E07000202","type":"LSOA","pop":1702,"r":232,"ff":83,"ffd":4876.6,"ffs":0.4663,"g":53,"co":3,"mo":2,"sa":0,"ic":0},"geometry":{"type":"Polygon","coordinates":[[[1.21525,52.03283],[1.22361,52.02943],[1.21937,52.02288],[1.21834,52.0238],[1.21503,52.02562],[1.21131,52.02316],[1.21216,52.02269],[1.20948,52.02077],[1.20423,52.02346],[1.20168,52.02433],[1.19543,52.02453],[1.19306,52.02351],[1.19152,52.02312],[1.19069,52.0225],[1.19009,52.02303],[1.18661,52.02199],[1.18482,52.0243],[1.18515,52.02462],[1.18418,52.02589],[1.1869,52.02678],[1.18617,52.02847],[1.19083,52.02775],[1.19207,52.02787],[1.19269,52.02762],[1.19299,52.02784],[1.1938,52.02742],[1.1951,52.0284],[1.19415,52.02868],[1.19457,52.02898],[1.1955,52.02935],[1.19622,52.0291],[1.19637,52.02939],[1.19777,52.02937],[1.19878,52.0311],[1.19962,52.03148],[1.20102,52.03045],[1.20244,52.03034],[1.20253,52.03137],[1.20395,52.03292],[1.2064,52.03412],[1.20739,52.0352],[1.21074,52.03455],[1.21525,52.03283]]]}},{"type":"Feature","properties":{"id":"E01033128","name":"E01033128","parent":"E07000202","type":"LSOA","pop":1196,"r":234,"ff":87,"ffd":7274.2,"ffs":0.4807,"g":52,"co":3,"mo":2,"sa":0,"ic":0},"geometry":{"type":"Polygon","coordinates":[[[1.20714,52.03489],[1.2064,52.03412],[1.20395,52.03292],[1.20253,52.03137],[1.20244,52.03034],[1.20102,52.03045],[1.19962,52.03148],[1.19878,52.0311],[1.19777,52.02937],[1.19637,52.02939],[1.19622,52.0291],[1.1955,52.02935],[1.19457,52.02898],[1.19415,52.02868],[1.1951,52.0284],[1.1938,52.02742],[1.19299,52.02784],[1.19269,52.02762],[1.19207,52.02787],[1.19083,52.02775],[1.18617,52.02847],[1.18518,52.02967],[1.18721,52.03097],[1.18705,52.03121],[1.18967,52.03399],[1.19027,52.03374],[1.19069,52.03285],[1.19131,52.03274],[1.19179,52.03298],[1.19147,52.03236],[1.19345,52.03244],[1.19378,52.03275],[1.19424,52.03275],[1.19433,52.0331],[1.19333,52.03297],[1.19284,52.03341],[1.19375,52.03389],[1.19228,52.03474],[1.19321,52.03521],[1.19564,52.03404],[1.19711,52.03503],[1.1989,52.03451],[1.19967,52.03499],[1.20039,52.03458],[1.20377,52.03439],[1.20714,52.03489]]]}},{"type":"Feature","properties":{"id":"E01033129","name":"E01033129","parent":"E07000202","type":"LSOA","pop":1754,"r":244,"ff":90,"ffd":5131.1,"ffs":0.4712,"g":52,"co":3,"mo":0,"sa":0,"ic":0},"geometry":{"type":"Polygon","coordinates":[[[1.1624,52.05788],[1.16222,52.05756],[1.16265,52.05733],[1.16343,52.05733],[1.16352,52.05763],[1.16499,52.05751],[1.16602,52.05805],[1.16663,52.05671],[1.16476,52.057],[1.16493,52.05652],[1.16554,52.05658],[1.16568,52.05608],[1.16648,52.05638],[1.16698,52.05556],[1.16918,52.05559],[1.16772,52.05447],[1.17012,52.05442],[1.17142,52.05369],[1.16464,52.05262],[1.1625,52.05302],[1.16261,52.05346],[1.16187,52.05356],[1.16149,52.05324],[1.16075,52.05342],[1.16039,52.05371],[1.1607,52.05421],[1.16034,52.05423],[1.16048,52.05541],[1.15923,52.05568],[1.15898,52.05626],[1.15827,52.0556],[1.15703,52.05595],[1.15741,52.05651],[1.15622,52.05634],[1.15632,52.05768],[1.15555,52.05773],[1.15545,52.05712],[1.15286,52.05708],[1.15283,52.05752],[1.15326,52.0581],[1.15477,52.05792],[1.15413,52.05945],[1.15622,52.05934],[1.15782,52.05896],[1.159,52.0583],[1.1624,52.05788]]]}},{"type":"Feature","properties":{"id":"E01033130","name":"E01033130","parent":"E07000202","type":"LSOA","pop":1174,"r":243,"ff":93,"ffd":7921.6,"ffs":0.4921,"g":53,"co":3,"mo":0,"sa":0,"ic":0},"geometry":{"type":"Polygon","coordinates":[[[1.15567,52.05163],[1.1569,52.05103],[1.15507,52.05136],[1.15529,52.05083],[1.15455,52.05083],[1.15587,52.04859],[1.15482,52.04857],[1.1546,52.04794],[1.15316,52.04814],[1.15372,52.04826],[1.15391,52.04869],[1.15234,52.04874],[1.15186,52.04895],[1.15131,52.04983],[1.15002,52.04961],[1.14881,52.05028],[1.14487,52.05089],[1.14505,52.05117],[1.15014,52.05112],[1.15567,52.05163]]]}},{"type":"Feature","properties":{"id":"E01033131","name":"E01033131","parent":"E07000202","type":"LSOA","pop":1790,"r":240,"ff":89,"ffd":4972.1,"ffs":0.4785,"g":53,"co":3,"mo":2,"sa":0,"ic":0},"geometry":{"type":"Polygon","coordinates":[[[1.20714,52.03489],[1.20377,52.03439],[1.20039,52.03458],[1.19967,52.03499],[1.1989,52.03451],[1.19711,52.03503],[1.19564,52.03404],[1.19321,52.03521],[1.19228,52.03474],[1.19375,52.03389],[1.19284,52.03341],[1.19333,52.03297],[1.19433,52.0331],[1.19424,52.03275],[1.19378,52.03275],[1.19345,52.03244],[1.19147,52.03236],[1.19179,52.03298],[1.19131,52.03274],[1.19069,52.03285],[1.19027,52.03374],[1.18967,52.03399],[1.19103,52.03597],[1.19316,52.03525],[1.19413,52.0354],[1.19393,52.0359],[1.19467,52.03605],[1.1945,52.03646],[1.19353,52.03685],[1.19471,52.03873],[1.19607,52.0399],[1.19728,52.03998],[1.19798,52.04034],[1.20194,52.03741],[1.20468,52.03584],[1.20739,52.0352],[1.20714,52.03489]]]}}]}