{"type":"FeatureCollection","features":[{"type":"Feature","properties":{"id":"E01021431","name":"E01021431","parent":"E07000068","type":"LSOA","pop":1617,"r":90,"ff":39,"ffd":2411.9,"ffs":0.5493,"g":19,"co":0,"mo":2,"sa":0,"ic":0},"geometry":{"type":"Polygon","coordinates":[[[0.30328,51.63404],[0.30393,51.63177],[0.30508,51.63192],[0.30551,51.63099],[0.30478,51.6309],[0.30617,51.6294],[0.30692,51.62892],[0.3083,51.62999],[0.30948,51.62887],[0.30729,51.62713],[0.30525,51.62708],[0.30403,51.62662],[0.30382,51.62699],[0.30307,51.62679],[0.30398,51.62555],[0.30148,51.62495],[0.30066,51.62544],[0.29948,51.62526],[0.29871,51.62579],[0.29959,51.62628],[0.29942,51.62671],[0.29895,51.62647],[0.29517,51.62806],[0.29172,51.62813],[0.29172,51.62872],[0.28989,51.6294],[0.29481,51.63133],[0.30328,51.63404]]]}},{"type":"Feature","properties":{"id":"E01021432","name":"E01021432","parent":"E07000068","type":"LSOA","pop":1927,"r":93,"ff":41,"ffd":2127.7,"ffs":0.5541,"g":19,"co":0,"mo":2,"sa":0,"ic":0},"geometry":{"type":"Polygon","coordinates":[[[0.29172,51.62813],[0.29332,51.6282],[0.29385,51.62721],[0.29436,51.62706],[0.29386,51.62613],[0.29439,51.626],[0.29404,51.62563],[0.29446,51.62503],[0.29596,51.62451],[0.29545,51.62413],[0.29596,51.62372],[0.29408,51.62326],[0.29384,51.62272],[0.29317,51.62292],[0.29256,51.62217],[0.29109,51.62247],[0.28719,51.62251],[0.28539,51.62286],[0.28759,51.62703],[0.28988,51.62939],[0.29172,51.62872],[0.29172,51.62813]]]}},{"type":"Feature","properties":{"id":"E01021433","name":"E01021433","parent":"E07000068","type":"LSOA","pop":2324,"r":95,"ff":42,"ffd":1807.2,"ffs":0.56,"g":20,"co":0,"mo":2,"sa":0,"ic":0},"geometry":{"type":"Polygon","coordinates":[[[0.31043,51.62747],[0.31234,51.62432],[0.30545,51.62123],[0.29784,51.61927],[0.29755,51.61965],[0.29824,51.61978],[0.29805,51.61996],[0.29884,51.62026],[0.29878,51.62057],[0.29967,51.62182],[0.30072,51.62173],[0.3005,51.62281],[0.29937,51.62277],[0.29838,51.62243],[0.29723,51.62263],[0.29815,51.62308],[0.29823,51.62378],[0.29876,51.6241],[0.29708,51.62482],[0.29713,51.62556],[0.29777,51.62547],[0.2981,51.62588],[0.29871,51.62579],[0.29948,51.62526],[0.30066,51.62544],[0.30148,51.62495],[0.30398,51.62555],[0.30307,51.62679],[0.30382,51.62699],[0.30403,51.62662],[0.30525,51.62708],[0.30729,51.62713],[0.30948,51.62887],[0.31038,51.62816],[0.31043,51.62747]]]}},{"type":"Feature","properties":{"id":"E01021434","name":"E01021434","parent":"E07000068","type":"LSOA","pop":1675,"r":93,"ff":42,"ffd":2507.5,"ffs":0.5676,"g":19,"co":0,"mo":2,"sa":0,"ic":0},"geometry":{"type":"Polygon","coordinates":[[[0.29517,51.62806],[0.29895,51.62647],[0.29942,51.62671],[0.29959,51.62628],[0.29871,51.62579],[0.2981,51.62588],[0.29777,51.62547],[0.29713,51.62556],[0.29708,51.62482],[0.29876,51.6241],[0.29823,51.62378],[0.29815,51.62308],[0.29723,51.62263],[0.29838,51.62243],[0.29937,51.62277],[0.3005,51.62281],[0.30072,51.62173],[0.29967,51.62182],[0.29878,51.62057],[0.29884,51.62026],[0.29805,51.61996],[0.29824,51.61978],[0.29755,51.61965],[0.29599,51.6203],[0.29459,51.62157],[0.29256,51.62217],[0.29317,51.62292],[0.29384,51.62272],[0.29408,51.62326],[0.29596,51.62372],[0.29545,51.62413],[0.29596,51.62451],[0.29446,51.62503],[0.29404,51.62563],[0.29439,51.626],[0.29386,51.62613],[0.29436,51.62706],[0.29385,51.62721],[0.29332,51.6282],[0.29517,51.62806]]]}},{"type":"Feature","properties":{"id":"E01021435","name":"E01021435","parent":"E07000068","type":"LSOA","pop":1870,"r":117,"ff":55,"ffd":2941.2,"ffs":0.5851,"g":23,"co":0,"mo":2,"sa":0,"ic":0},"geometry":{"type":"Polygon","coordinates":[[[0.31461,51.62325],[0.31663,51.62078],[0.31591,51.62058],[0.317,51.6195],[0.31755,51.61824],[0.31834,51.61794],[0.32058,51.61637],[0.32257,51.61772],[0.32277,51.61607],[0.32361,51.61495],[0.32391,51.61524],[0.32546,51.61535],[0.32682,51.61458],[0.32561,51.61402],[0.32496,51.61412],[0.32485,51.61372],[0.32327,51.61376],[0.32276,51.61332],[0.32197,51.6134],[0.3212,51.61377],[0.32049,51.61349],[0.31899,51.61366],[0.32191,51.61231],[0.32151,51.6119],[0.32267,51.61135],[0.3241,51.61147],[0.32514,51.61094],[0.32574,51.61127],[0.32508,51.61187],[0.32563,51.61257],[0.32586,51.61192],[0.32673,51.61143],[0.32712,51.61153],[0.32793,51.61086],[0.32559,51.61],[0.3245,51.61033],[0.32417,51.60833],[0.32446,51.60793],[0.32396,51.60771],[0.32389,51.60822],[0.31488,51.61401],[0.31088,51.61331],[0.31072,51.61411],[0.31026,51.61428],[0.31076,51.61456],[0.31077,51.61562],[0.30922,51.61699],[0.30927,51.61795],[0.30977,51.61822],[0.3109,51.61936],[0.31102,51.622],[0.31192,51.62231],[0.31298,51.62206],[0.31305,51.62263],[0.31377,51.62262],[0.3138,51.62308],[0.31461,51.62325]]]}},{"type":"Feature","properties":{"id":"E01021437","name":"E01021437","parent":"E07000068","type":"LSOA","pop":1824,"r":118,"ff":54,"ffd":2960.5,"ffs":0.5745,"g":24,"co":0,"mo":2,"sa":0,"ic":0},"geometry":{"type":"Polygon","coordinates":[[[0.33424,51.61397],[0.33449,51.6135],[0.33373,51.6136],[0.32971,51.61154],[0.32937,51.61185],[0.32793,51.61086],[0.32712,51.61153],[0.32673,51.61143],[0.32586,51.61192],[0.32563,51.61257],[0.32508,51.61187],[0.32574,51.61127],[0.32514,51.61094],[0.3241,51.61147],[0.32267,51.61135],[0.32151,51.6119],[0.32191,51.61231],[0.31899,51.61366],[0.32049,51.61349],[0.3212,51.61377],[0.32197,51.6134],[0.32276,51.61332],[0.32327,51.61376],[0.32485,51.61372],[0.32496,51.61412],[0.32561,51.61402],[0.32682,51.61458],[0.32604,51.615],[0.32672,51.61505],[0.32675,51.61548],[0.32984,51.61583],[0.32975,51.61472],[0.33424,51.61397]]]}},{"type":"Feature","properties":{"id":"E01021438","name":"E01021438","parent":"E07000068","type":"LSOA","pop":2373,"r":106,"ff":46,"ffd":1938.5,"ffs":0.5476,"g":22,"co":0,"mo":2,"sa":0,"ic":0},"geometry":{"type":"Polygon","coordinates":[[[0.28817,51.61308],[0.28452,51.6124],[0.284,51.61261],[0.28269,51.61236],[0.2792,51.61341],[0.27584,51.61404],[0.27533,51.61461],[0.2752,51.61527],[0.27603,51.61567],[0.27564,51.61597],[0.28239,51.61995],[0.28422,51.62129],[0.28539,51.62286],[0.28719,51.62251],[0.29012,51.62003],[0.2902,51.61956],[0.29077,51.61917],[0.29289,51.6187],[0.29307,51.61794],[0.29128,51.61723],[0.29168,51.61671],[0.29133,51.61604],[0.29179,51.61482],[0.29131,51.61376],[0.28817,51.61308]]]}},{"type":"Feature","properties":{"id":"E01021441","name":"E01021441","parent":"E07000068","type":"LSOA","pop":1516,"r":80,"ff":37,"ffd":2440.6,"ffs":0.5873,"g":17,"co":2,"mo":2,"sa":2,"ic":0},"geometry":{"type":"Polygon","coordinates":[[[0.29809,51.67072],[0.30079,51.66997],[0.3055,51.66814],[0.30414,51.66799],[0.30234,51.66843],[0.30036,51.66758],[0.3009,51.66703],[0.30096,51.66667],[0.30053,51.6666],[0.30212,51.6663],[0.30279,51.66535],[0.30253,51.66525],[0.3005,51.66517],[0.30006,51.66583],[0.29961,51.66568],[0.2989,51.66624],[0.29729,51.66583],[0.29671,51.66538],[0.29469,51.66626],[0.29305,51.66602],[0.29056,51.6642],[0.28889,51.66525],[0.29086,51.66783],[0.2913,51.66942],[0.28779,51.67061],[0.28587,51.66961],[0.28618,51.66787],[0.28426,51.66744],[0.28525,51.66665],[0.28182,51.66568],[0.27973,51.66396],[0.27828,51.66395],[0.27788,51.66417],[0.27735,51.66391],[0.27675,51.66436],[0.27829,51.66517],[0.27774,51.66543],[0.27899,51.66637],[0.27839,51.66658],[0.27925,51.66692],[0.27776,51.66754],[0.28982,51.67298],[0.291,51.67405],[0.29221,51.67317],[0.29721,51.67095],[0.29809,51.67072]]]}},{"type":"Feature","properties":{"id":"E01021442","name":"E01021442","parent":"E07000068","type":"LSOA","pop":1287,"r":84,"ff":37,"ffd":2874.9,"ffs":0.5606,"g":18,"co":2,"mo":2,"sa":0,"ic":0},"geometry":{"type":"Polygon","coordinates":[[[0.30234,51.66843],[0.30414,51.66799],[0.3055,51.66814],[0.3068,51.66679],[0.31246,51.66444],[0.31274,51.66325],[0.31097,51.66262],[0.31079,51.66034],[0.30934,51.66009],[0.31093,51.65721],[0.3093,51.65645],[0.30929,51.65603],[0.30558,51.65722],[0.30627,51.65946],[0.30494,51.66024],[0.30269,51.66067],[0.29991,51.66017],[0.30138,51.66202],[0.30021,51.66244],[0.29941,51.66396],[0.30187,51.66394],[0.30196,51.66524],[0.30279,51.66535],[0.30212,51.6663],[0.30053,51.6666],[0.30096,51.66667],[0.3009,51.66703],[0.30036,51.66758],[0.30234,51.66843]]]}},{"type":"Feature","properties":{"id":"E01021443","name":"E01021443","parent":"E07000068","type":"LSOA","pop":1653,"r":74,"ff":32,"ffd":1935.9,"ffs":0.5614,"g":17,"co":2,"mo":2,"sa":2,"ic":0},"geometry":{"type":"Polygon","coordinates":[[[0.26445,51.69048],[0.26639,51.68915],[0.26672,51.68829],[0.26773,51.68801],[0.26878,51.68707],[0.27382,51.68652],[0.27332,51.68606],[0.27413,51.68515],[0.27302,51.68423],[0.27287,51.68239],[0.27179,51.6824],[0.27165,51.68196],[0.26949,51.68199],[0.26723,51.68266],[0.27084,51.67969],[0.27131,51.67742],[0.27251,51.6761],[0.27355,51.67408],[0.27427,51.67195],[0.27389,51.67086],[0.27414,51.66969],[0.2754,51.66841],[0.27925,51.66692],[0.27839,51.66658],[0.27899,51.66637],[0.27774,51.66543],[0.27829,51.66517],[0.27596,51.66391],[0.27537,51.66421],[0.2749,51.66501],[0.27346,51.66457],[0.27327,51.66484],[0.27393,51.66554],[0.27329,51.66557],[0.27254,51.66463],[0.27205,51.66519],[0.27214,51.66591],[0.27342,51.66645],[0.27212,51.66686],[0.27009,51.66707],[0.27001,51.6665],[0.27156,51.66586],[0.27179,51.66536],[0.27143,51.6652],[0.27255,51.66259],[0.27235,51.66174],[0.27165,51.66105],[0.26986,51.66161],[0.26834,51.65921],[0.2663,51.66043],[0.26499,51.66063],[0.26372,51.66135],[0.26259,51.66036],[0.26067,51.65941],[0.26058,51.65713],[0.26148,51.65546],[0.26597,51.65202],[0.26466,51.64974],[0.26357,51.64878],[0.26251,51.64833],[0.25603,51.64719],[0.24907,51.64537],[0.24511,51.64455],[0.23994,51.64281],[0.22864,51.63528],[0.22208,51.63013],[0.21755,51.62909],[0.21211,51.62719],[0.21225,51.62698],[0.20846,51.62668],[0.20361,51.62517],[0.20031,51.62494],[0.19935,51.63127],[0.1975,51.6334],[0.19606,51.63665],[0.19592,51.63888],[0.19462,51.64098],[0.19324,51.64135],[0.19055,51.6428],[0.18896,51.64446],[0.18844,51.64583],[0.18473,51.64866],[0.17731,51.65213],[0.1757,51.65579],[0.17678,51.65619],[0.17901,51.65639],[0.1796,51.65559],[0.18065,51.65505],[0.1807,51.65373],[0.18224,51.65308],[0.18299,51.65316],[0.184,51.65404],[0.18456,51.65409],[0.18657,51.65274],[0.18929,51.65312],[0.19125,51.6527],[0.19299,51.6531],[0.1936,51.65491],[0.19235,51.6556],[0.19245,51.65723],[0.19087,51.65845],[0.19131,51.65892],[0.19083,51.65978],[0.19284,51.66093],[0.19542,51.66106],[0.19847,51.66038],[0.19917,51.66047],[0.20093,51.65969],[0.20147,51.65995],[0.20277,51.65991],[0.20405,51.66043],[0.20609,51.66075],[0.20661,51.66054],[0.20811,51.66094],[0.20845,51.66239],[0.20693,51.66368],[0.20679,51.66449],[0.2081,51.66524],[0.20883,51.66482],[0.21059,51.66482],[0.2133,51.66553],[0.2136,51.66659],[0.21282,51.66714],[0.21269,51.66791],[0.21352,51.669],[0.21311,51.67065],[0.21386,51.67323],[0.21493,51.67363],[0.21481,51.67465],[0.21605,51.67509],[0.21816,51.67462],[0.21972,51.67533],[0.2237,51.67541],[0.22444,51.67499],[0.22608,51.67501],[0.22755,51.67429],[0.22944,51.6747],[0.23164,51.6736],[0.23413,51.67352],[0.23515,51.67405],[0.23615,51.67354],[0.23734,51.67365],[0.239,51.67411],[0.24011,51.6756],[0.2391,51.67688],[0.23765,51.67732],[0.23709,51.6779],[0.236,51.67805],[0.23427,51.67933],[0.23373,51.67935],[0.23218,51.68336],[0.23349,51.6844],[0.23543,51.68466],[0.23673,51.68362],[0.23845,51.68287],[0.24023,51.68275],[0.24034,51.68355],[0.2432,51.685],[0.24274,51.6855],[0.2444,51.68773],[0.2458,51.68812],[0.24698,51.68873],[0.24879,51.68882],[0.24899,51.68921],[0.252,51.68901],[0.25289,51.68989],[0.25431,51.68984],[0.25515,51.69035],[0.25495,51.69231],[0.2556,51.69282],[0.26445,51.69048]]]}},{"type":"Feature","properties":{"id":"E01021444","name":"E01021444","parent":"E07000068","type":"LSOA","pop":1716,"r":76,"ff":33,"ffd":1923.1,"ffs":0.569,"g":18,"co":2,"mo":2,"sa":2,"ic":0},"geometry":{"type":"Polygon","coordinates":[[[0.28889,51.66525],[0.29056,51.6642],[0.29305,51.66602],[0.29469,51.66626],[0.29671,51.66538],[0.29729,51.66583],[0.2989,51.66624],[0.29961,51.66568],[0.30006,51.66583],[0.3005,51.66517],[0.30196,51.66524],[0.30187,51.66394],[0.29941,51.66396],[0.30021,51.66244],[0.30138,51.66202],[0.29991,51.66017],[0.30269,51.66067],[0.30494,51.66024],[0.30627,51.65946],[0.30558,51.65722],[0.30929,51.65603],[0.3093,51.65645],[0.31093,51.65721],[0.30934,51.66009],[0.31079,51.66034],[0.31097,51.66262],[0.31274,51.66325],[0.31246,51.66444],[0.31702,51.66356],[0.3195,51.6637],[0.32096,51.66342],[0.32251,51.6639],[0.32266,51.66423],[0.32437,51.66399],[0.32741,51.66427],[0.33018,51.66498],[0.33197,51.66383],[0.32973,51.66255],[0.32771,51.66018],[0.32798,51.65835],[0.32708,51.65676],[0.32351,51.65481],[0.31853,51.65343],[0.31217,51.65375],[0.31225,51.65179],[0.31337,51.64865],[0.31339,51.64675],[0.31084,51.64555],[0.30807,51.64593],[0.30648,51.6458],[0.30647,51.64623],[0.30374,51.64699],[0.30139,51.64713],[0.29991,51.64761],[0.29935,51.64759],[0.29925,51.6473],[0.29656,51.648],[0.29605,51.64707],[0.29637,51.64534],[0.29791,51.64509],[0.29584,51.6442],[0.29515,51.64328],[0.29349,51.64304],[0.2916,51.64476],[0.29091,51.6447],[0.29042,51.64575],[0.28858,51.64611],[0.28659,51.64773],[0.28562,51.64777],[0.28284,51.65039],[0.27853,51.65154],[0.27601,51.65269],[0.27617,51.6529],[0.27518,51.65371],[0.27663,51.65441],[0.27174,51.65543],[0.26766,51.65524],[0.26597,51.65202],[0.26148,51.65546],[0.26058,51.65713],[0.26067,51.65941],[0.26259,51.66036],[0.26372,51.66135],[0.26499,51.66063],[0.2663,51.66043],[0.26834,51.65921],[0.26986,51.66161],[0.27165,51.66105],[0.27235,51.66174],[0.27255,51.66259],[0.27143,51.6652],[0.27179,51.66536],[0.27156,51.66586],[0.27001,51.6665],[0.27009,51.66707],[0.27212,51.66686],[0.27342,51.66645],[0.27214,51.66591],[0.27205,51.66519],[0.27254,51.66463],[0.27329,51.66557],[0.27393,51.66554],[0.27327,51.66484],[0.27346,51.66457],[0.2749,51.66501],[0.27537,51.66421],[0.27596,51.66391],[0.27675,51.66436],[0.27735,51.66391],[0.27788,51.66417],[0.27828,51.66395],[0.27973,51.66396],[0.28182,51.66568],[0.28525,51.66665],[0.28426,51.66744],[0.28618,51.66787],[0.28587,51.66961],[0.28779,51.67061],[0.2913,51.66942],[0.29086,51.66783],[0.28889,51.66525]]]}},{"type":"Feature","properties":{"id":"E01021445","name":"E01021445","parent":"E07000068","type":"LSOA","pop":2228,"r":112,"ff":55,"ffd":2468.6,"ffs":0.5978,"g":20,"co":2,"mo":2,"sa":0,"ic":0},"geometry":{"type":"Polygon","coordinates":[[[0.37007,51.61662],[0.37308,51.61433],[0.37513,51.61517],[0.37577,51.61489],[0.3777,51.61211],[0.37936,51.60358],[0.38253,51.59955],[0.38361,51.59872],[0.3828,51.59809],[0.38189,51.59554],[0.38266,51.59427],[0.38391,51.59371],[0.38343,51.59346],[0.38482,51.5912],[0.38563,51.58811],[0.38185,51.58658],[0.37831,51.58584],[0.3784,51.58486],[0.37481,51.58428],[0.37414,51.58559],[0.37358,51.58581],[0.3733,51.58485],[0.37249,51.58479],[0.37252,51.58412],[0.36796,51.58453],[0.36571,51.58408],[0.36354,51.58405],[0.36006,51.58497],[0.35941,51.58555],[0.35776,51.58464],[0.35759,51.58483],[0.35387,51.58419],[0.3525,51.58471],[0.35182,51.58408],[0.34708,51.58371],[0.34841,51.58013],[0.34812,51.57979],[0.34223,51.57961],[0.34098,51.57932],[0.33965,51.5819],[0.33806,51.5836],[0.33779,51.58529],[0.33714,51.58526],[0.33705,51.58552],[0.33772,51.58563],[0.33625,51.58764],[0.33283,51.58997],[0.33254,51.59081],[0.33029,51.59238],[0.33029,51.59562],[0.32989,51.59631],[0.33056,51.59631],[0.33023,51.59827],[0.33049,51.59869],[0.33297,51.59972],[0.33282,51.60031],[0.33341,51.60092],[0.33199,51.60065],[0.33117,51.60239],[0.3324,51.60261],[0.33068,51.60304],[0.33068,51.60367],[0.32873,51.60388],[0.32763,51.60452],[0.32681,51.60576],[0.32417,51.60833],[0.3245,51.61033],[0.32559,51.61],[0.32793,51.61086],[0.32937,51.61185],[0.32971,51.61154],[0.33373,51.6136],[0.33449,51.6135],[0.33424,51.61397],[0.33529,51.61543],[0.33649,51.61667],[0.3419,51.61505],[0.34165,51.61448],[0.3428,51.61431],[0.34303,51.61393],[0.34435,51.61444],[0.34805,51.6147],[0.35041,51.61537],[0.35146,51.61494],[0.35633,51.61431],[0.35832,51.61495],[0.35823,51.6157],[0.361,51.61617],[0.36113,51.61651],[0.36716,51.61633],[0.37007,51.61662]]]}},{"type":"Feature","properties":{"id":"E01021446","name":"E01021446","parent":"E07000068","type":"LSOA","pop":1682,"r":128,"ff":61,"ffd":3626.6,"ffs":0.6162,"g":28,"co":2,"mo":2,"sa":2,"ic":0},"geometry":{"type":"Polygon","coordinates":[[[0.38129,51.585],[0.38324,51.57676],[0.38297,51.57369],[0.38366,51.5721],[0.38272,51.57195],[0.38367,51.56977],[0.38172,51.5683],[0.38261,51.56582],[0.37923,51.56574],[0.34382,51.56782],[0.31301,51.56594],[0.31192,51.57064],[0.31093,51.57181],[0.31041,51.57334],[0.31083,51.57484],[0.31762,51.57517],[0.3412,51.57782],[0.34098,51.57932],[0.34223,51.57961],[0.34812,51.57979],[0.34841,51.58013],[0.34708,51.58371],[0.35182,51.58408],[0.3525,51.58471],[0.35387,51.58419],[0.35759,51.58483],[0.35776,51.58464],[0.35941,51.58555],[0.36006,51.58497],[0.36354,51.58405],[0.36571,51.58408],[0.36796,51.58453],[0.37252,51.58412],[0.37249,51.58479],[0.3733,51.58485],[0.37358,51.58581],[0.37414,51.58559],[0.37481,51.58428],[0.3784,51.58486],[0.37831,51.58584],[0.38185,51.58658],[0.38563,51.58811],[0.38603,51.58592],[0.38129,51.585]]]}},{"type":"Feature","properties":{"id":"E01021447","name":"E01021447","parent":"E07000068","type":"LSOA","pop":2594,"r":127,"ff":56,"ffd":2158.8,"ffs":0.549,"g":25,"co":0,"mo":2,"sa":0,"ic":0},"geometry":{"type":"Polygon","coordinates":[[[0.3356,51.63355],[0.33799,51.6331],[0.3377,51.63266],[0.33806,51.6316],[0.34293,51.63143],[0.34543,51.63154],[0.3461,51.63131],[0.34567,51.63103],[0.34529,51.63045],[0.34591,51.63025],[0.34524,51.62908],[0.34547,51.62864],[0.34647,51.62845],[0.34618,51.6281],[0.34726,51.62802],[0.34764,51.62864],[0.34851,51.62851],[0.34867,51.62812],[0.34929,51.62809],[0.3495,51.62837],[0.35039,51.62744],[0.34988,51.6275],[0.34982,51.62706],[0.35127,51.6267],[0.3518,51.62617],[0.35295,51.62617],[0.35279,51.62568],[0.35841,51.62567],[0.3589,51.62409],[0.36017,51.62132],[0.35624,51.61986],[0.35569,51.61928],[0.35595,51.61769],[0.35736,51.61725],[0.35785,51.61615],[0.36113,51.61651],[0.361,51.61617],[0.35823,51.6157],[0.35832,51.61495],[0.35633,51.61431],[0.35146,51.61494],[0.35041,51.61537],[0.34805,51.6147],[0.34435,51.61444],[0.34303,51.61393],[0.3428,51.61431],[0.34165,51.61448],[0.34249,51.61679],[0.34071,51.61727],[0.34249,51.61951],[0.33905,51.61994],[0.33911,51.62032],[0.3393,51.62126],[0.34124,51.62126],[0.34129,51.62251],[0.34232,51.6227],[0.34244,51.62346],[0.34178,51.62346],[0.3424,51.62513],[0.34299,51.62567],[0.34355,51.62564],[0.3437,51.62615],[0.34276,51.62625],[0.34281,51.62693],[0.33837,51.6275],[0.33847,51.62782],[0.33584,51.62868],[0.33616,51.62935],[0.33499,51.62993],[0.3356,51.63061],[0.33486,51.63078],[0.33495,51.631],[0.33421,51.63095],[0.3342,51.63158],[0.33337,51.63168],[0.33178,51.63092],[0.33137,51.63132],[0.33078,51.63124],[0.33206,51.63243],[0.33269,51.63219],[0.33316,51.63258],[0.33487,51.63237],[0.33556,51.63305],[0.33514,51.63314],[0.33529,51.6334],[0.33591,51.63333],[0.3356,51.63355]]]}},{"type":"Feature","properties":{"id":"E01021448","name":"E01021448","parent":"E07000068","type":"LSOA","pop":1523,"r":121,"ff":55,"ffd":3611.3,"ffs":0.567,"g":24,"co":0,"mo":2,"sa":0,"ic":0},"geometry":{"type":"Polygon","coordinates":[[[0.3514,51.62967],[0.35117,51.62912],[0.3518,51.62916],[0.35167,51.62859],[0.35233,51.62847],[0.35242,51.62883],[0.35373,51.62863],[0.35295,51.62617],[0.3518,51.62617],[0.35127,51.6267],[0.34982,51.62706],[0.34988,51.6275],[0.35039,51.62744],[0.3495,51.62837],[0.34929,51.62809],[0.34867,51.62812],[0.34851,51.62851],[0.34764,51.62864],[0.34726,51.62802],[0.34618,51.6281],[0.34647,51.62845],[0.34547,51.62864],[0.34524,51.62908],[0.34591,51.63025],[0.34529,51.63045],[0.34567,51.63103],[0.3461,51.63131],[0.34543,51.63154],[0.35156,51.63323],[0.3518,51.63276],[0.35122,51.6326],[0.3514,51.62967]]]}},{"type":"Feature","properties":{"id":"E01021449","name":"E01021449","parent":"E07000068","type":"LSOA","pop":1708,"r":126,"ff":58,"ffd":3395.8,"ffs":0.5631,"g":23,"co":0,"mo":2,"sa":0,"ic":0},"geometry":{"type":"Polygon","coordinates":[[[0.38763,51.62834],[0.38682,51.62694],[0.38697,51.62609],[0.38502,51.62323],[0.38431,51.6207],[0.38421,51.61954],[0.3787,51.6166],[0.37666,51.61576],[0.37627,51.61587],[0.37513,51.61517],[0.37308,51.61433],[0.37007,51.61662],[0.36716,51.61633],[0.36113,51.61651],[0.35785,51.61615],[0.35736,51.61725],[0.35595,51.61769],[0.35569,51.61928],[0.35624,51.61986],[0.36017,51.62132],[0.3589,51.62409],[0.35841,51.62567],[0.35279,51.62568],[0.35373,51.62863],[0.35242,51.62883],[0.35233,51.62847],[0.35167,51.62859],[0.3518,51.62916],[0.35117,51.62912],[0.3514,51.62967],[0.3541,51.62945],[0.35444,51.62973],[0.35417,51.63121],[0.35642,51.63155],[0.35639,51.63194],[0.35736,51.63208],[0.3585,51.6304],[0.35928,51.63056],[0.35996,51.63014],[0.36012,51.6296],[0.35974,51.62945],[0.36,51.62913],[0.35949,51.6288],[0.36097,51.6287],[0.36125,51.628],[0.36288,51.62845],[0.36229,51.63022],[0.3637,51.63119],[0.36817,51.63247],[0.37279,51.6371],[0.38608,51.63434],[0.38521,51.6328],[0.38624,51.63147],[0.38586,51.63103],[0.38721,51.62976],[0.38763,51.62834]]]}},{"type":"Feature","properties":{"id":"E01021450","name":"E01021450","parent":"E07000068","type":"LSOA","pop":1919,"r":131,"ff":58,"ffd":3022.4,"ffs":0.5577,"g":27,"co":0,"mo":2,"sa":0,"ic":0},"geometry":{"type":"Polygon","coordinates":[[[0.36817,51.63247],[0.3637,51.63119],[0.36229,51.63022],[0.36288,51.62845],[0.36125,51.628],[0.36097,51.6287],[0.35949,51.6288],[0.36,51.62913],[0.35974,51.62945],[0.36012,51.6296],[0.35996,51.63014],[0.35928,51.63056],[0.3585,51.6304],[0.35736,51.63208],[0.35639,51.63194],[0.35642,51.63155],[0.35417,51.63121],[0.35444,51.62973],[0.3541,51.62945],[0.3514,51.62967],[0.35122,51.6326],[0.3518,51.63276],[0.35156,51.63323],[0.35291,51.63351],[0.35324,51.63399],[0.35579,51.63587],[0.35803,51.63828],[0.35837,51.63997],[0.37279,51.6371],[0.36817,51.63247]]]}},{"type":"Feature","properties":{"id":"E01021451","name":"E01021451","parent":"E07000068","type":"LSOA","pop":1596,"r":119,"ff":53,"ffd":3320.8,"ffs":0.5638,"g":25,"co":0,"mo":2,"sa":0,"ic":0},"geometry":{"type":"Polygon","coordinates":[[[0.35803,51.63828],[0.35579,51.63587],[0.35324,51.63399],[0.35291,51.63351],[0.34705,51.63211],[0.34667,51.63252],[0.34589,51.63232],[0.3452,51.6327],[0.3461,51.63343],[0.34544,51.63407],[0.34657,51.635],[0.34648,51.63587],[0.34561,51.63618],[0.34548,51.63655],[0.34584,51.63672],[0.34549,51.63687],[0.34715,51.63753],[0.3493,51.63687],[0.35013,51.6372],[0.34973,51.63734],[0.34993,51.63759],[0.35211,51.637],[0.35321,51.63702],[0.35449,51.63756],[0.35479,51.63844],[0.35803,51.63828]]]}},{"type":"Feature","properties":{"id":"E01021452","name":"E01021452","parent":"E07000068","type":"LSOA","pop":1475,"r":115,"ff":51,"ffd":3457.6,"ffs":0.5543,"g":23,"co":0,"mo":2,"sa":0,"ic":0},"geometry":{"type":"Polygon","coordinates":[[[0.35176,51.64485],[0.35208,51.64438],[0.35286,51.64443],[0.35421,51.64303],[0.35679,51.64247],[0.3584,51.64164],[0.35837,51.63997],[0.35803,51.63828],[0.35479,51.63844],[0.35449,51.63756],[0.35321,51.63702],[0.35211,51.637],[0.34993,51.63759],[0.34973,51.63734],[0.35013,51.6372],[0.3493,51.63687],[0.34715,51.63753],[0.34549,51.63687],[0.34584,51.63672],[0.34548,51.63655],[0.34467,51.63684],[0.34505,51.63709],[0.34477,51.63741],[0.34578,51.63743],[0.34562,51.63799],[0.34489,51.63816],[0.34411,51.63731],[0.34304,51.63764],[0.34297,51.63735],[0.34376,51.63696],[0.342,51.63651],[0.34221,51.6356],[0.34276,51.6355],[0.3425,51.63507],[0.34093,51.6358],[0.33971,51.63595],[0.34085,51.63687],[0.34057,51.63753],[0.34243,51.63852],[0.34172,51.63894],[0.34054,51.63851],[0.34014,51.63883],[0.34928,51.64542],[0.35176,51.64485]]]}},{"type":"Feature","properties":{"id":"E01021453","name":"E01021453","parent":"E07000068","type":"LSOA","pop":1298,"r":116,"ff":52,"ffd":4006.2,"ffs":0.5532,"g":22,"co":0,"mo":2,"sa":0,"ic":0},"geometry":{"type":"Polygon","coordinates":[[[0.34243,51.63852],[0.34057,51.63753],[0.34085,51.63687],[0.33971,51.63595],[0.34093,51.6358],[0.3425,51.63507],[0.34276,51.6355],[0.34221,51.6356],[0.342,51.63651],[0.34376,51.63696],[0.34297,51.63735],[0.34304,51.63764],[0.34411,51.63731],[0.34489,51.63816],[0.34562,51.63799],[0.34578,51.63743],[0.34477,51.63741],[0.34505,51.63709],[0.34467,51.63684],[0.34548,51.63655],[0.34561,51.63618],[0.34648,51.63587],[0.34657,51.635],[0.34544,51.63407],[0.3461,51.63343],[0.3452,51.6327],[0.34589,51.63232],[0.34667,51.63252],[0.34705,51.63211],[0.34543,51.63154],[0.34293,51.63143],[0.33806,51.6316],[0.3377,51.63266],[0.33799,51.6331],[0.3356,51.63355],[0.33591,51.63333],[0.33529,51.6334],[0.33514,51.63314],[0.33556,51.63305],[0.33487,51.63237],[0.33316,51.63258],[0.33269,51.63219],[0.33206,51.63243],[0.34014,51.63883],[0.34054,51.63851],[0.34172,51.63894],[0.34243,51.63852]]]}},{"type":"Feature","properties":{"id":"E01021454","name":"E01021454","parent":"E07000068","type":"LSOA","pop":1134,"r":124,"ff":56,"ffd":4938.3,"ffs":0.5657,"g":25,"co":0,"mo":2,"sa":0,"ic":0},"geometry":{"type":"Polygon","coordinates":[[[0.33905,51.61994],[0.34249,51.61951],[0.34071,51.61727],[0.34249,51.61679],[0.3419,51.61505],[0.33649,51.61667],[0.33529,51.61543],[0.33424,51.61397],[0.32975,51.61472],[0.32984,51.61583],[0.32675,51.61548],[0.32672,51.61505],[0.32604,51.615],[0.32546,51.61535],[0.32391,51.61524],[0.32361,51.61495],[0.32277,51.61607],[0.32522,51.6165],[0.3314,51.61599],[0.33203,51.61647],[0.33083,51.61706],[0.33162,51.61722],[0.33413,51.61698],[0.33444,51.61791],[0.33322,51.61818],[0.33482,51.61871],[0.33651,51.61875],[0.33717,51.61933],[0.33651,51.61992],[0.33883,51.61959],[0.33905,51.61994]]]}},{"type":"Feature","properties":{"id":"E01021455","name":"E01021455","parent":"E07000068","type":"LSOA","pop":1393,"r":113,"ff":51,"ffd":3661.2,"ffs":0.5604,"g":22,"co":0,"mo":2,"sa":0,"ic":0},"geometry":{"type":"Polygon","coordinates":[[[0.3342,51.63158],[0.33421,51.63095],[0.33495,51.631],[0.33486,51.63078],[0.3356,51.63061],[0.33499,51.62993],[0.33616,51.62935],[0.33584,51.62868],[0.33847,51.62782],[0.33837,51.6275],[0.34281,51.62693],[0.34276,51.62625],[0.3437,51.62615],[0.34355,51.62564],[0.34299,51.62567],[0.3424,51.62513],[0.34182,51.62389],[0.34041,51.62302],[0.34028,51.62354],[0.33948,51.62369],[0.34067,51.62431],[0.34021,51.62434],[0.34037,51.62483],[0.33938,51.62488],[0.33898,51.6256],[0.33764,51.62562],[0.33739,51.62523],[0.33777,51.62448],[0.33727,51.62423],[0.3364,51.6242],[0.33591,51.62545],[0.33471,51.62537],[0.33392,51.62307],[0.33325,51.62288],[0.33346,51.62234],[0.33238,51.6221],[0.3319,51.62143],[0.33123,51.62147],[0.3307,51.62073],[0.32669,51.62098],[0.32721,51.62169],[0.32765,51.62158],[0.32803,51.62238],[0.32617,51.62251],[0.32717,51.62601],[0.32892,51.62935],[0.33078,51.63124],[0.33137,51.63132],[0.33178,51.63092],[0.33337,51.63168],[0.3342,51.63158]]]}},{"type":"Feature","properties":{"id":"E01021456","name":"E01021456","parent":"E07000068","type":"LSOA","pop":1162,"r":122,"ff":56,"ffd":4819.3,"ffs":0.5714,"g":24,"co":0,"mo":2,"sa":0,"ic":0},"geometry":{"type":"Polygon","coordinates":[[[0.34067,51.62431],[0.33948,51.62369],[0.34028,51.62354],[0.34041,51.62302],[0.34182,51.62389],[0.34178,51.62346],[0.34244,51.62346],[0.34232,51.6227],[0.34129,51.62251],[0.34124,51.62126],[0.3393,51.62126],[0.33883,51.61959],[0.33651,51.61992],[0.33717,51.61933],[0.33651,51.61875],[0.33482,51.61871],[0.33322,51.61818],[0.33444,51.61791],[0.33413,51.61698],[0.33162,51.61722],[0.33083,51.61706],[0.33203,51.61647],[0.3314,51.61599],[0.32522,51.6165],[0.32277,51.61607],[0.32257,51.61772],[0.32438,51.61938],[0.32572,51.62138],[0.32617,51.62251],[0.32803,51.62238],[0.32765,51.62158],[0.32721,51.62169],[0.32669,51.62098],[0.3307,51.62073],[0.33123,51.62147],[0.3319,51.62143],[0.33238,51.6221],[0.33346,51.62234],[0.33325,51.62288],[0.33392,51.62307],[0.33471,51.62537],[0.33591,51.62545],[0.3364,51.6242],[0.33727,51.62423],[0.33777,51.62448],[0.33739,51.62523],[0.33764,51.62562],[0.33898,51.6256],[0.33938,51.62488],[0.34037,51.62483],[0.34021,51.62434],[0.34067,51.62431]]]}},{"type":"Feature","properties":{"id":"E01021457","name":"E01021457","parent":"E07000068","type":"LSOA","pop":1572,"r":93,"ff":46,"ffd":2926.2,"ffs":0.6301,"g":20,"co":2,"mo":2,"sa":2,"ic":0},"geometry":{"type":"Polygon","coordinates":[[[0.38813,51.6916],[0.38957,51.69098],[0.39117,51.69172],[0.39203,51.69146],[0.39288,51.69055],[0.39283,51.68783],[0.39434,51.68776],[0.39572,51.68617],[0.39689,51.68653],[0.3967,51.68441],[0.39897,51.68353],[0.39881,51.68322],[0.4015,51.68242],[0.3997,51.68133],[0.39783,51.67946],[0.4049,51.67869],[0.40599,51.67509],[0.40717,51.67338],[0.39905,51.67224],[0.3948,51.67311],[0.39375,51.67306],[0.3968,51.67398],[0.39448,51.67417],[0.39197,51.67599],[0.38898,51.67533],[0.38514,51.6754],[0.38597,51.67465],[0.38617,51.67346],[0.3848,51.67279],[0.38371,51.67269],[0.38385,51.67233],[0.38232,51.67221],[0.38159,51.67195],[0.38221,51.67112],[0.38064,51.67048],[0.3803,51.66996],[0.37953,51.6698],[0.37819,51.67042],[0.3775,51.6698],[0.37797,51.6696],[0.3775,51.66913],[0.37624,51.66928],[0.37545,51.67026],[0.37313,51.66736],[0.37286,51.66674],[0.37158,51.66676],[0.36913,51.66395],[0.36758,51.66395],[0.36627,51.66349],[0.36574,51.66184],[0.3609,51.6625],[0.35775,51.66501],[0.3569,51.66517],[0.35696,51.66587],[0.35635,51.66678],[0.35563,51.66737],[0.35563,51.66827],[0.35461,51.66979],[0.35236,51.67165],[0.35093,51.67207],[0.34695,51.67236],[0.34497,51.67294],[0.34364,51.67215],[0.33983,51.67049],[0.33817,51.67011],[0.33292,51.66995],[0.33331,51.67648],[0.33249,51.6788],[0.32793,51.68579],[0.32337,51.68784],[0.32614,51.69204],[0.32815,51.69324],[0.33401,51.69433],[0.33804,51.69444],[0.34118,51.69526],[0.34497,51.69552],[0.34663,51.69391],[0.35258,51.69225],[0.35738,51.69142],[0.36055,51.69038],[0.36289,51.69171],[0.36895,51.69284],[0.37177,51.69493],[0.3731,51.69543],[0.3767,51.6985],[0.37752,51.69872],[0.37797,51.69794],[0.38051,51.69738],[0.38009,51.69693],[0.38076,51.6962],[0.38049,51.69442],[0.38172,51.69411],[0.38183,51.69365],[0.38585,51.69199],[0.38813,51.6916]]]}},{"type":"Feature","properties":{"id":"E01021458","name":"E01021458","parent":"E07000068","type":"LSOA","pop":1759,"r":97,"ff":49,"ffd":2785.7,"ffs":0.6282,"g":19,"co":2,"mo":2,"sa":0,"ic":0},"geometry":{"type":"Polygon","coordinates":[[[0.3968,51.67398],[0.39375,51.67306],[0.3948,51.67311],[0.39905,51.67224],[0.40717,51.67338],[0.40743,51.67281],[0.41256,51.6709],[0.41157,51.67033],[0.41147,51.66977],[0.40898,51.66949],[0.40872,51.66894],[0.40743,51.66842],[0.40669,51.66726],[0.40576,51.66694],[0.406,51.6663],[0.40285,51.6634],[0.39661,51.66085],[0.39264,51.66019],[0.38946,51.66037],[0.38728,51.66091],[0.38672,51.66133],[0.38757,51.66235],[0.3888,51.66186],[0.39159,51.66513],[0.38949,51.66555],[0.38829,51.66615],[0.38816,51.66435],[0.38581,51.66444],[0.38427,51.66495],[0.38332,51.6643],[0.38289,51.6645],[0.38344,51.66511],[0.38304,51.66548],[0.38161,51.66419],[0.37947,51.66562],[0.38043,51.66665],[0.3792,51.66733],[0.38113,51.66847],[0.38079,51.6689],[0.38154,51.66873],[0.38245,51.66968],[0.38168,51.66998],[0.3803,51.66996],[0.38064,51.67048],[0.38221,51.67112],[0.38159,51.67195],[0.38232,51.67221],[0.38385,51.67233],[0.38371,51.67269],[0.3848,51.67279],[0.38617,51.67346],[0.38597,51.67465],[0.38514,51.6754],[0.38898,51.67533],[0.39197,51.67599],[0.39448,51.67417],[0.3968,51.67398]]]}},{"type":"Feature","properties":{"id":"E01021459","name":"E01021459","parent":"E07000068","type":"LSOA","pop":1295,"r":96,"ff":46,"ffd":3552.1,"ffs":0.6053,"g":20,"co":2,"mo":2,"sa":0,"ic":0},"geometry":{"type":"Polygon","coordinates":[[[0.37819,51.67042],[0.37953,51.6698],[0.38168,51.66998],[0.38245,51.66968],[0.38154,51.66873],[0.38079,51.6689],[0.38113,51.66847],[0.3792,51.66733],[0.38043,51.66665],[0.37947,51.66562],[0.38161,51.66419],[0.38304,51.66548],[0.38344,51.66511],[0.38289,51.6645],[0.38332,51.6643],[0.38427,51.66495],[0.38581,51.66444],[0.38816,51.66435],[0.38829,51.66615],[0.38949,51.66555],[0.39159,51.66513],[0.3888,51.66186],[0.38757,51.66235],[0.38672,51.66133],[0.38494,51.66173],[0.38265,51.6616],[0.37643,51.66072],[0.37534,51.66031],[0.37331,51.66231],[0.37271,51.66208],[0.37156,51.6625],[0.37034,51.66183],[0.36936,51.66214],[0.36759,51.6611],[0.36574,51.66184],[0.36627,51.66349],[0.36758,51.66395],[0.36913,51.66395],[0.37158,51.66676],[0.37286,51.66674],[0.37313,51.66736],[0.37545,51.67026],[0.37624,51.66928],[0.3775,51.66913],[0.37797,51.6696],[0.3775,51.6698],[0.37819,51.67042]]]}},{"type":"Feature","properties":{"id":"E01021460","name":"E01021460","parent":"E07000068","type":"LSOA","pop":2012,"r":100,"ff":43,"ffd":2137.2,"ffs":0.5513,"g":22,"co":2,"mo":2,"sa":0,"ic":0},"geometry":{"type":"Polygon","coordinates":[[[0.35563,51.66737],[0.35635,51.66678],[0.35696,51.66587],[0.3569,51.66517],[0.35775,51.66501],[0.3609,51.6625],[0.36574,51.66184],[0.36759,51.6611],[0.36936,51.66214],[0.37034,51.66183],[0.37156,51.6625],[0.37271,51.66208],[0.37331,51.66231],[0.37534,51.66031],[0.37643,51.66072],[0.38265,51.6616],[0.38494,51.66173],[0.38672,51.66133],[0.38728,51.66091],[0.38946,51.66037],[0.39264,51.66019],[0.39661,51.66085],[0.40025,51.66225],[0.40085,51.66176],[0.40183,51.6616],[0.40166,51.66064],[0.40277,51.66032],[0.40276,51.65966],[0.40165,51.6593],[0.40152,51.65818],[0.40056,51.65761],[0.40062,51.65716],[0.39927,51.65622],[0.39795,51.65435],[0.397,51.65375],[0.39755,51.65353],[0.39926,51.65381],[0.40076,51.65265],[0.40198,51.65256],[0.40243,51.65219],[0.40233,51.65099],[0.40192,51.64978],[0.40221,51.6496],[0.40284,51.64985],[0.40289,51.64917],[0.40263,51.64836],[0.40234,51.64856],[0.402,51.64799],[0.4024,51.64757],[0.40369,51.64748],[0.40294,51.64683],[0.40321,51.64605],[0.40286,51.64573],[0.40146,51.64599],[0.40124,51.64546],[0.39916,51.64514],[0.39887,51.64478],[0.39628,51.64486],[0.39566,51.64436],[0.39487,51.64441],[0.39454,51.64398],[0.39493,51.64318],[0.39418,51.64122],[0.39266,51.63958],[0.39221,51.63964],[0.392,51.63926],[0.39111,51.6394],[0.39054,51.63904],[0.38981,51.63911],[0.38748,51.63768],[0.3869,51.63694],[0.38708,51.636],[0.38608,51.63434],[0.35837,51.63997],[0.3584,51.64164],[0.35679,51.64247],[0.35421,51.64303],[0.35286,51.64443],[0.35208,51.64438],[0.35176,51.64485],[0.34928,51.64542],[0.34823,51.64616],[0.34448,51.64566],[0.34454,51.64623],[0.34404,51.64659],[0.34621,51.64818],[0.34383,51.64888],[0.34186,51.64907],[0.34,51.65032],[0.33907,51.65144],[0.3362,51.65187],[0.33588,51.65235],[0.33427,51.65313],[0.33259,51.65348],[0.33152,51.65428],[0.33211,51.65496],[0.33133,51.65549],[0.32861,51.65605],[0.32822,51.65703],[0.32708,51.65676],[0.32798,51.65835],[0.32771,51.66018],[0.32973,51.66255],[0.33197,51.66383],[0.33018,51.66498],[0.32958,51.6662],[0.32985,51.66681],[0.33274,51.66792],[0.33319,51.66895],[0.33521,51.66912],[0.33647,51.66891],[0.33572,51.66773],[0.33755,51.6677],[0.34586,51.66924],[0.34554,51.67035],[0.34364,51.67215],[0.34497,51.67294],[0.34695,51.67236],[0.35093,51.67207],[0.35236,51.67165],[0.35461,51.66979],[0.35563,51.66827],[0.35563,51.66737]]]}},{"type":"Feature","properties":{"id":"E01021461","name":"E01021461","parent":"E07000068","type":"LSOA","pop":1522,"r":86,"ff":36,"ffd":2365.3,"ffs":0.5373,"g":19,"co":0,"mo":2,"sa":0,"ic":0},"geometry":{"type":"Polygon","coordinates":[[[0.28973,51.63849],[0.28978,51.63828],[0.29081,51.6383],[0.29166,51.63766],[0.29274,51.63768],[0.29317,51.63824],[0.29375,51.63828],[0.29386,51.63787],[0.29349,51.63668],[0.29441,51.63677],[0.29442,51.63644],[0.29491,51.6361],[0.29607,51.6362],[0.29602,51.63647],[0.29644,51.63651],[0.29702,51.6347],[0.29519,51.63391],[0.29633,51.63182],[0.29565,51.6316],[0.295,51.63191],[0.29474,51.63318],[0.29406,51.63379],[0.29337,51.63382],[0.29331,51.63419],[0.29089,51.63382],[0.29068,51.6341],[0.2913,51.63399],[0.29112,51.63437],[0.29166,51.63447],[0.29039,51.63589],[0.28933,51.63581],[0.2879,51.6376],[0.28795,51.63821],[0.28973,51.63849]]]}},{"type":"Feature","properties":{"id":"E01021462","name":"E01021462","parent":"E07000068","type":"LSOA","pop":1499,"r":86,"ff":36,"ffd":2401.6,"ffs":0.5373,"g":19,"co":0,"mo":2,"sa":0,"ic":0},"geometry":{"type":"Polygon","coordinates":[[[0.29656,51.648],[0.29925,51.6473],[0.29935,51.64759],[0.29991,51.64761],[0.30139,51.64713],[0.30374,51.64699],[0.30647,51.64623],[0.30648,51.6458],[0.30807,51.64593],[0.31084,51.64555],[0.31074,51.64497],[0.31368,51.64394],[0.31451,51.64314],[0.31282,51.64272],[0.31284,51.64238],[0.31202,51.64193],[0.31296,51.64144],[0.31251,51.6407],[0.3107,51.64023],[0.30948,51.63835],[0.30678,51.63641],[0.30808,51.63558],[0.29633,51.63182],[0.29519,51.63391],[0.29702,51.6347],[0.29644,51.63651],[0.29602,51.63647],[0.29607,51.6362],[0.29491,51.6361],[0.29442,51.63644],[0.29441,51.63677],[0.29349,51.63668],[0.29386,51.63787],[0.29375,51.63828],[0.29317,51.63824],[0.29274,51.63768],[0.29166,51.63766],[0.29081,51.6383],[0.28978,51.63828],[0.28973,51.63849],[0.28795,51.63821],[0.2879,51.6376],[0.28716,51.63816],[0.28648,51.63805],[0.28635,51.63846],[0.28147,51.63798],[0.28145,51.63838],[0.28178,51.63808],[0.28258,51.63851],[0.2836,51.63856],[0.28326,51.63892],[0.28452,51.64009],[0.28477,51.64058],[0.28769,51.64154],[0.28868,51.64215],[0.2911,51.64201],[0.29173,51.6411],[0.29169,51.64175],[0.2945,51.6422],[0.29349,51.64304],[0.29515,51.64328],[0.29584,51.6442],[0.29791,51.64509],[0.29637,51.64534],[0.29605,51.64707],[0.29656,51.648]]]}},{"type":"Feature","properties":{"id":"E01021463","name":"E01021463","parent":"E07000068","type":"LSOA","pop":1673,"r":83,"ff":34,"ffd":2032.3,"ffs":0.5312,"g":19,"co":0,"mo":2,"sa":0,"ic":0},"geometry":{"type":"Polygon","coordinates":[[[0.28659,51.64773],[0.28858,51.64611],[0.29042,51.64575],[0.29091,51.6447],[0.2916,51.64476],[0.2945,51.6422],[0.29169,51.64175],[0.29173,51.6411],[0.2911,51.64201],[0.28868,51.64215],[0.28769,51.64154],[0.28477,51.64058],[0.28452,51.64009],[0.28326,51.63892],[0.2836,51.63856],[0.28258,51.63851],[0.28178,51.63808],[0.28145,51.63838],[0.28147,51.63798],[0.28635,51.63846],[0.28648,51.63805],[0.28716,51.63816],[0.28887,51.63654],[0.28845,51.63618],[0.2864,51.63594],[0.28556,51.63639],[0.28477,51.63635],[0.28471,51.63592],[0.2833,51.63536],[0.28334,51.63502],[0.2837,51.63508],[0.2854,51.6337],[0.28469,51.63348],[0.28433,51.63369],[0.28347,51.63355],[0.28188,51.6349],[0.28121,51.63457],[0.28125,51.63565],[0.27997,51.63662],[0.27939,51.63651],[0.27912,51.63697],[0.27602,51.63742],[0.2769,51.63836],[0.27822,51.63888],[0.27729,51.63945],[0.27485,51.63962],[0.27254,51.64036],[0.27126,51.64114],[0.27028,51.64185],[0.26941,51.64337],[0.27049,51.64454],[0.26594,51.648],[0.26467,51.64797],[0.26453,51.64847],[0.26357,51.64878],[0.26466,51.64974],[0.26766,51.65524],[0.27174,51.65543],[0.27663,51.65441],[0.27518,51.65371],[0.27617,51.6529],[0.27601,51.65269],[0.27853,51.65154],[0.28284,51.65039],[0.28562,51.64777],[0.28659,51.64773]]]}},{"type":"Feature","properties":{"id":"E01021464","name":"E01021464","parent":"E07000068","type":"LSOA","pop":1701,"r":85,"ff":35,"ffd":2057.6,"ffs":0.5303,"g":19,"co":0,"mo":2,"sa":0,"ic":0},"geometry":{"type":"Polygon","coordinates":[[[0.28887,51.63654],[0.28933,51.63581],[0.29039,51.63589],[0.29166,51.63447],[0.29112,51.63437],[0.2913,51.63399],[0.29068,51.6341],[0.29089,51.63382],[0.29331,51.63419],[0.29337,51.63382],[0.29406,51.63379],[0.29474,51.63318],[0.295,51.63191],[0.29565,51.6316],[0.28988,51.62939],[0.28746,51.63066],[0.2856,51.63121],[0.28638,51.6319],[0.2855,51.63232],[0.28605,51.63278],[0.28469,51.63348],[0.2854,51.6337],[0.2837,51.63508],[0.28334,51.63502],[0.2833,51.63536],[0.28471,51.63592],[0.28477,51.63635],[0.28556,51.63639],[0.2864,51.63594],[0.28845,51.63618],[0.28887,51.63654]]]}},{"type":"Feature","properties":{"id":"E01021465","name":"E01021465","parent":"E07000068","type":"LSOA","pop":1948,"r":100,"ff":43,"ffd":2207.4,"ffs":0.5513,"g":22,"co":0,"mo":2,"sa":0,"ic":0},"geometry":{"type":"Polygon","coordinates":[[[0.31682,51.64086],[0.31867,51.63905],[0.32448,51.64039],[0.32395,51.63961],[0.32024,51.63718],[0.32447,51.63673],[0.3228,51.63207],[0.32382,51.63159],[0.32425,51.63305],[0.32501,51.63262],[0.32499,51.63213],[0.32679,51.63118],[0.32742,51.63135],[0.32783,51.63178],[0.32745,51.63235],[0.32891,51.63359],[0.3302,51.6329],[0.32948,51.63224],[0.33,51.6318],[0.33135,51.63178],[0.32892,51.62935],[0.32717,51.62601],[0.32683,51.62482],[0.32541,51.62459],[0.32501,51.62386],[0.32364,51.62427],[0.32272,51.62358],[0.32181,51.62383],[0.32213,51.62474],[0.32276,51.6245],[0.32334,51.6258],[0.32217,51.62818],[0.32204,51.62961],[0.32136,51.62948],[0.32073,51.63025],[0.31969,51.6295],[0.31915,51.62965],[0.31768,51.62868],[0.31693,51.6293],[0.31639,51.62898],[0.31615,51.62952],[0.31552,51.62952],[0.31446,51.62914],[0.31459,51.62847],[0.31402,51.62845],[0.31353,51.62765],[0.31043,51.62747],[0.31038,51.62816],[0.3083,51.62999],[0.30692,51.62892],[0.30617,51.6294],[0.30478,51.6309],[0.30551,51.63099],[0.30508,51.63192],[0.30393,51.63177],[0.30328,51.63404],[0.30808,51.63558],[0.30678,51.63641],[0.30948,51.63835],[0.3107,51.64023],[0.31251,51.6407],[0.31682,51.64086]]]}},{"type":"Feature","properties":{"id":"E01021466","name":"E01021466","parent":"E07000068","type":"LSOA","pop":1758,"r":101,"ff":43,"ffd":2446.0,"ffs":0.5513,"g":23,"co":0,"mo":2,"sa":0,"ic":0},"geometry":{"type":"Polygon","coordinates":[[[0.32073,51.63025],[0.32136,51.62948],[0.32204,51.62961],[0.32217,51.62818],[0.32334,51.6258],[0.32276,51.6245],[0.32213,51.62474],[0.32181,51.62383],[0.32272,51.62358],[0.32364,51.62427],[0.32501,51.62386],[0.32541,51.62459],[0.32683,51.62482],[0.32572,51.62138],[0.32438,51.61938],[0.32257,51.61772],[0.32058,51.61637],[0.31834,51.61794],[0.31755,51.61824],[0.317,51.6195],[0.31591,51.62058],[0.31663,51.62078],[0.31461,51.62325],[0.3138,51.62308],[0.31377,51.62262],[0.31305,51.62263],[0.31298,51.62206],[0.31192,51.62231],[0.31102,51.622],[0.311,51.6231],[0.31026,51.62327],[0.31234,51.62432],[0.31043,51.62747],[0.31353,51.62765],[0.31402,51.62845],[0.31459,51.62847],[0.31446,51.62914],[0.31552,51.62952],[0.31615,51.62952],[0.31639,51.62898],[0.31693,51.6293],[0.31768,51.62868],[0.31915,51.62965],[0.31969,51.6295],[0.32073,51.63025]]]}},{"type":"Feature","properties":{"id":"E01021467","name":"E01021467","parent":"E07000068","type":"LSOA","pop":1863,"r":98,"ff":43,"ffd":2308.1,"ffs":0.5584,"g":21,"co":0,"mo":2,"sa":0,"ic":0},"geometry":{"type":"Polygon","coordinates":[[[0.33427,51.65313],[0.33588,51.65235],[0.3362,51.65187],[0.33907,51.65144],[0.34,51.65032],[0.34186,51.64907],[0.34383,51.64888],[0.34621,51.64818],[0.34404,51.64659],[0.34454,51.64623],[0.34448,51.64566],[0.34823,51.64616],[0.34928,51.64542],[0.34014,51.63883],[0.33334,51.63356],[0.33135,51.63178],[0.33,51.6318],[0.32948,51.63224],[0.3302,51.6329],[0.32891,51.63359],[0.32745,51.63235],[0.32783,51.63178],[0.32742,51.63135],[0.32679,51.63118],[0.32499,51.63213],[0.32501,51.63262],[0.32425,51.63305],[0.32382,51.63159],[0.3228,51.63207],[0.32447,51.63673],[0.32024,51.63718],[0.32395,51.63961],[0.32448,51.64039],[0.31867,51.63905],[0.31682,51.64086],[0.31251,51.6407],[0.31296,51.64144],[0.31202,51.64193],[0.31284,51.64238],[0.31282,51.64272],[0.31451,51.64314],[0.31368,51.64394],[0.31074,51.64497],[0.31084,51.64555],[0.31339,51.64675],[0.31337,51.64865],[0.31225,51.65179],[0.31217,51.65375],[0.31853,51.65343],[0.32351,51.65481],[0.32708,51.65676],[0.32822,51.65703],[0.32861,51.65605],[0.33133,51.65549],[0.33211,51.65496],[0.33152,51.65428],[0.33259,51.65348],[0.33427,51.65313]]]}},{"type":"Feature","properties":{"id":"E01021468","name":"E01021468","parent":"E07000068","type":"LSOA","pop":2089,"r":108,"ff":48,"ffd":2297.8,"ffs":0.5581,"g":22,"co":0,"mo":2,"sa":0,"ic":0},"geometry":{"type":"Polygon","coordinates":[[[0.26453,51.64847],[0.26467,51.64797],[0.26594,51.648],[0.27049,51.64454],[0.26941,51.64337],[0.27028,51.64185],[0.27126,51.64114],[0.27254,51.64036],[0.27485,51.63962],[0.27729,51.63945],[0.27822,51.63888],[0.2769,51.63836],[0.27602,51.63742],[0.27912,51.63697],[0.27939,51.63651],[0.27997,51.63662],[0.28125,51.63565],[0.28121,51.63457],[0.28188,51.6349],[0.28347,51.63355],[0.28433,51.63369],[0.28605,51.63278],[0.2855,51.63232],[0.28638,51.6319],[0.2856,51.63121],[0.28746,51.63066],[0.28988,51.62939],[0.28759,51.62703],[0.28539,51.62286],[0.28422,51.62129],[0.28239,51.61995],[0.27564,51.61597],[0.27603,51.61567],[0.2752,51.61527],[0.27533,51.61461],[0.27584,51.61404],[0.2792,51.61341],[0.28269,51.61236],[0.284,51.61261],[0.28452,51.6124],[0.28088,51.6113],[0.27008,51.60712],[0.26918,51.6061],[0.26952,51.60624],[0.26957,51.60559],[0.26876,51.60561],[0.26722,51.60319],[0.26407,51.60237],[0.26087,51.60039],[0.25825,51.60092],[0.25791,51.60127],[0.25489,51.60132],[0.25401,51.6016],[0.25393,51.60198],[0.2547,51.60273],[0.25516,51.60267],[0.25663,51.60361],[0.25716,51.60493],[0.258,51.60491],[0.25808,51.60651],[0.26162,51.60745],[0.26312,51.60732],[0.26433,51.60783],[0.26448,51.60842],[0.2627,51.60938],[0.2583,51.61298],[0.25769,51.61418],[0.25276,51.61745],[0.23803,51.62398],[0.23732,51.62406],[0.22409,51.63174],[0.22864,51.63528],[0.23994,51.64281],[0.24511,51.64455],[0.24907,51.64537],[0.25603,51.64719],[0.26251,51.64833],[0.26357,51.64878],[0.26453,51.64847]]]}},{"type":"Feature","properties":{"id":"E01021469","name":"E01021469","parent":"E07000068","type":"LSOA","pop":1169,"r":64,"ff":32,"ffd":2737.4,"ffs":0.64,"g":14,"co":2,"mo":2,"sa":3,"ic":0},"geometry":{"type":"Polygon","coordinates":[[[0.32793,51.68579],[0.33249,51.6788],[0.33331,51.67648],[0.33292,51.66995],[0.33817,51.67011],[0.33983,51.67049],[0.34364,51.67215],[0.34554,51.67035],[0.34586,51.66924],[0.33755,51.6677],[0.33572,51.66773],[0.33647,51.66891],[0.33521,51.66912],[0.33319,51.66895],[0.33274,51.66792],[0.32985,51.66681],[0.32958,51.6662],[0.33018,51.66498],[0.32741,51.66427],[0.32437,51.66399],[0.32266,51.66423],[0.32251,51.6639],[0.32096,51.66342],[0.3195,51.6637],[0.31702,51.66356],[0.31246,51.66444],[0.3112,51.66485],[0.31268,51.6669],[0.31814,51.66858],[0.32099,51.67025],[0.31646,51.67304],[0.31672,51.67499],[0.31622,51.67789],[0.31687,51.67819],[0.32072,51.67791],[0.32094,51.67944],[0.32038,51.68099],[0.32099,51.68144],[0.32055,51.68226],[0.32015,51.68257],[0.31837,51.68222],[0.31783,51.68235],[0.31731,51.68221],[0.31739,51.68186],[0.31633,51.68172],[0.31616,51.68211],[0.31369,51.68123],[0.31242,51.68407],[0.31074,51.68366],[0.30841,51.68364],[0.30669,51.68394],[0.30709,51.68452],[0.30387,51.685],[0.3039,51.68532],[0.3056,51.68805],[0.30572,51.68904],[0.30686,51.69012],[0.30725,51.69146],[0.30746,51.69429],[0.3105,51.69791],[0.31353,51.70221],[0.32126,51.70829],[0.32369,51.70961],[0.32381,51.7103],[0.3217,51.71136],[0.322,51.71216],[0.32337,51.71327],[0.32306,51.71417],[0.32459,51.71432],[0.33004,51.71643],[0.334,51.71701],[0.33596,51.71363],[0.33598,51.71208],[0.33698,51.70931],[0.3392,51.70678],[0.33969,51.70396],[0.33889,51.70151],[0.3401,51.70112],[0.3439,51.69841],[0.34469,51.69709],[0.34497,51.69552],[0.34118,51.69526],[0.33804,51.69444],[0.33401,51.69433],[0.32815,51.69324],[0.32614,51.69204],[0.32337,51.68784],[0.32793,51.68579]]]}},{"type":"Feature","properties":{"id":"E01021470","name":"E01021470","parent":"E07000068","type":"LSOA","pop":1047,"r":67,"ff":32,"ffd":3056.4,"ffs":0.6038,"g":14,"co":2,"mo":2,"sa":3,"ic":0},"geometry":{"type":"Polygon","coordinates":[[[0.26649,51.69595],[0.26687,51.69582],[0.26801,51.6961],[0.26804,51.69644],[0.26949,51.69638],[0.26991,51.69666],[0.2723,51.69643],[0.27382,51.6969],[0.27532,51.69623],[0.27589,51.69544],[0.27967,51.69364],[0.28348,51.69411],[0.28465,51.69335],[0.28391,51.69272],[0.28867,51.6905],[0.29263,51.68729],[0.29182,51.68629],[0.2939,51.68643],[0.29607,51.68524],[0.29814,51.68344],[0.29886,51.68259],[0.30212,51.68097],[0.3003,51.6799],[0.30414,51.67794],[0.30057,51.6753],[0.29915,51.6756],[0.29888,51.67493],[0.29776,51.6753],[0.29552,51.67522],[0.29482,51.67557],[0.29328,51.67499],[0.29282,51.67517],[0.291,51.67405],[0.28982,51.67298],[0.27776,51.66754],[0.2754,51.66841],[0.27414,51.66969],[0.27389,51.67086],[0.27427,51.67195],[0.27355,51.67408],[0.27251,51.6761],[0.27131,51.67742],[0.27084,51.67969],[0.26723,51.68266],[0.26949,51.68199],[0.27165,51.68196],[0.27179,51.6824],[0.27287,51.68239],[0.27302,51.68423],[0.27413,51.68515],[0.27332,51.68606],[0.27382,51.68652],[0.26878,51.68707],[0.26773,51.68801],[0.26672,51.68829],[0.26639,51.68915],[0.26445,51.69048],[0.2556,51.69282],[0.25571,51.69321],[0.25708,51.69403],[0.25771,51.69507],[0.25778,51.69581],[0.25701,51.6966],[0.26351,51.69923],[0.26574,51.69971],[0.26628,51.69875],[0.26568,51.69835],[0.26649,51.69595]]]}},{"type":"Feature","properties":{"id":"E01021471","name":"E01021471","parent":"E07000068","type":"LSOA","pop":1628,"r":83,"ff":38,"ffd":2334.2,"ffs":0.5846,"g":18,"co":2,"mo":2,"sa":2,"ic":0},"geometry":{"type":"Polygon","coordinates":[[[0.30669,51.68394],[0.30841,51.68364],[0.31074,51.68366],[0.31242,51.68407],[0.31369,51.68123],[0.31616,51.68211],[0.31633,51.68172],[0.31739,51.68186],[0.31731,51.68221],[0.31783,51.68235],[0.31837,51.68222],[0.32015,51.68257],[0.32055,51.68226],[0.32099,51.68144],[0.32038,51.68099],[0.32094,51.67944],[0.32072,51.67791],[0.31687,51.67819],[0.31622,51.67789],[0.31672,51.67499],[0.31646,51.67304],[0.32099,51.67025],[0.31814,51.66858],[0.31268,51.6669],[0.3112,51.66485],[0.3068,51.66679],[0.3055,51.66814],[0.30491,51.66843],[0.30079,51.66997],[0.29721,51.67095],[0.29221,51.67317],[0.291,51.67405],[0.29282,51.67517],[0.29328,51.67499],[0.29482,51.67557],[0.29552,51.67522],[0.29776,51.6753],[0.29888,51.67493],[0.29915,51.6756],[0.30057,51.6753],[0.30414,51.67794],[0.3003,51.6799],[0.30319,51.68179],[0.30343,51.68273],[0.30299,51.68352],[0.30391,51.68342],[0.30506,51.68481],[0.30709,51.68452],[0.30669,51.68394]]]}},{"type":"Feature","properties":{"id":"E01021472","name":"E01021472","parent":"E07000068","type":"LSOA","pop":1870,"r":117,"ff":55,"ffd":2941.2,"ffs":0.5789,"g":22,"co":2,"mo":2,"sa":0,"ic":0},"geometry":{"type":"Polygon","coordinates":[[[0.29391,51.60989],[0.2948,51.60946],[0.29553,51.60963],[0.29749,51.60932],[0.29696,51.60864],[0.29814,51.60835],[0.2977,51.60761],[0.29857,51.60772],[0.29886,51.60822],[0.30066,51.60827],[0.30077,51.60799],[0.29991,51.60771],[0.30117,51.60786],[0.30141,51.6072],[0.30177,51.60709],[0.30146,51.60616],[0.30088,51.60533],[0.30298,51.60506],[0.30295,51.604],[0.30364,51.60362],[0.30338,51.60282],[0.30015,51.60329],[0.29835,51.6027],[0.30007,51.6],[0.29848,51.6001],[0.29881,51.60064],[0.2985,51.60101],[0.29726,51.60163],[0.29745,51.60197],[0.29702,51.60228],[0.29673,51.60156],[0.29585,51.60228],[0.2953,51.60178],[0.29501,51.60216],[0.29565,51.60302],[0.29478,51.60298],[0.29427,51.6023],[0.29263,51.60292],[0.29307,51.60357],[0.29276,51.60403],[0.29203,51.60426],[0.29287,51.60613],[0.29202,51.6064],[0.29172,51.60719],[0.29177,51.60832],[0.29376,51.60858],[0.29225,51.61079],[0.29333,51.61115],[0.29322,51.61071],[0.29391,51.60989]]]}},{"type":"Feature","properties":{"id":"E01021473","name":"E01021473","parent":"E07000068","type":"LSOA","pop":1889,"r":119,"ff":56,"ffd":2964.5,"ffs":0.5773,"g":22,"co":2,"mo":2,"sa":0,"ic":0},"geometry":{"type":"Polygon","coordinates":[[[0.28783,51.6062],[0.28774,51.6053],[0.2889,51.60576],[0.29273,51.60594],[0.29203,51.60426],[0.29276,51.60403],[0.29307,51.60357],[0.29263,51.60292],[0.29427,51.6023],[0.29478,51.60298],[0.29565,51.60302],[0.29501,51.60216],[0.2953,51.60178],[0.29585,51.60228],[0.29673,51.60156],[0.29702,51.60228],[0.29745,51.60197],[0.29726,51.60163],[0.2985,51.60101],[0.29881,51.60064],[0.29848,51.6001],[0.30007,51.6],[0.29835,51.6027],[0.30015,51.60329],[0.30338,51.60282],[0.30364,51.60362],[0.30295,51.604],[0.30298,51.60506],[0.30088,51.60533],[0.30146,51.60616],[0.30206,51.60583],[0.30163,51.60537],[0.3023,51.60532],[0.30318,51.60655],[0.30512,51.60685],[0.30525,51.60658],[0.3104,51.60641],[0.31059,51.60561],[0.31239,51.60548],[0.31434,51.60599],[0.31589,51.6056],[0.31968,51.60768],[0.32148,51.60979],[0.32389,51.60822],[0.32396,51.60771],[0.32446,51.60793],[0.32681,51.60576],[0.32763,51.60452],[0.32873,51.60388],[0.33068,51.60367],[0.33068,51.60304],[0.3324,51.60261],[0.33117,51.60239],[0.33199,51.60065],[0.33341,51.60092],[0.33282,51.60031],[0.33297,51.59972],[0.33049,51.59869],[0.33023,51.59827],[0.33056,51.59631],[0.32989,51.59631],[0.33029,51.59562],[0.33029,51.59238],[0.33254,51.59081],[0.33283,51.58997],[0.33625,51.58764],[0.33772,51.58563],[0.33705,51.58552],[0.33714,51.58526],[0.33779,51.58529],[0.33806,51.5836],[0.33965,51.5819],[0.34098,51.57932],[0.3412,51.57782],[0.31762,51.57517],[0.31083,51.57484],[0.31041,51.57334],[0.31093,51.57181],[0.31192,51.57064],[0.31304,51.56582],[0.29029,51.5643],[0.28846,51.56843],[0.28669,51.57154],[0.28717,51.57258],[0.28666,51.57358],[0.28509,51.57413],[0.28203,51.57883],[0.27384,51.58686],[0.2721,51.58775],[0.27093,51.59029],[0.27013,51.59152],[0.26934,51.59527],[0.27034,51.59731],[0.26988,51.59957],[0.26455,51.59981],[0.26087,51.60039],[0.26407,51.60237],[0.26722,51.60319],[0.26876,51.60561],[0.26957,51.60559],[0.26952,51.60624],[0.26918,51.6061],[0.27008,51.60712],[0.28088,51.6113],[0.28441,51.61237],[0.2852,51.61156],[0.28483,51.61113],[0.28609,51.60991],[0.28608,51.60899],[0.28783,51.6062]]]}},{"type":"Feature","properties":{"id":"E01021474","name":"E01021474","parent":"E07000068","type":"LSOA","pop":1539,"r":106,"ff":48,"ffd":3118.9,"ffs":0.5714,"g":22,"co":0,"mo":2,"sa":0,"ic":0},"geometry":{"type":"Polygon","coordinates":[[[0.31488,51.61401],[0.32148,51.60979],[0.31968,51.60768],[0.31589,51.6056],[0.31434,51.60599],[0.31239,51.60548],[0.31059,51.60561],[0.3104,51.60641],[0.30525,51.60658],[0.30512,51.60685],[0.30318,51.60655],[0.30294,51.60621],[0.30232,51.60672],[0.30277,51.60688],[0.30254,51.60721],[0.30321,51.60792],[0.30685,51.60838],[0.30679,51.60874],[0.30525,51.60855],[0.30511,51.6089],[0.30462,51.60879],[0.30371,51.60915],[0.30319,51.609],[0.30233,51.60928],[0.30253,51.60969],[0.30196,51.6107],[0.30151,51.611],[0.30145,51.61177],[0.3019,51.6122],[0.30314,51.61211],[0.30277,51.61257],[0.30368,51.61324],[0.30621,51.61308],[0.31088,51.61331],[0.31488,51.61401]]]}},{"type":"Feature","properties":{"id":"E01021475","name":"E01021475","parent":"E07000068","type":"LSOA","pop":1562,"r":105,"ff":47,"ffd":3009.0,"ffs":0.5663,"g":22,"co":0,"mo":2,"sa":0,"ic":0},"geometry":{"type":"Polygon","coordinates":[[[0.30277,51.61257],[0.30314,51.61211],[0.3019,51.6122],[0.30145,51.61177],[0.30151,51.611],[0.30196,51.6107],[0.30253,51.60969],[0.30233,51.60928],[0.30319,51.609],[0.30371,51.60915],[0.30462,51.60879],[0.30511,51.6089],[0.30525,51.60855],[0.30679,51.60874],[0.30685,51.60838],[0.30321,51.60792],[0.30254,51.60721],[0.30277,51.60688],[0.30232,51.60672],[0.30294,51.60621],[0.3023,51.60532],[0.30163,51.60537],[0.30206,51.60583],[0.30146,51.60616],[0.30177,51.60709],[0.30141,51.6072],[0.30117,51.60786],[0.29991,51.60771],[0.30077,51.60799],[0.30066,51.60827],[0.29886,51.60822],[0.29857,51.60772],[0.2977,51.60761],[0.29814,51.60835],[0.29877,51.61079],[0.29923,51.61363],[0.30368,51.61324],[0.30277,51.61257]]]}},{"type":"Feature","properties":{"id":"E01033063","name":"E01033063","parent":"E07000068","type":"LSOA","pop":1351,"r":107,"ff":48,"ffd":3552.9,"ffs":0.5647,"g":22,"co":0,"mo":2,"sa":0,"ic":0},"geometry":{"type":"Polygon","coordinates":[[[0.29522,51.61297],[0.29475,51.61258],[0.29421,51.61264],[0.29404,51.61196],[0.29262,51.61202],[0.29257,51.61244],[0.29092,51.6123],[0.28821,51.6117],[0.28985,51.61064],[0.2915,51.61071],[0.29221,51.61102],[0.29376,51.60858],[0.29177,51.60832],[0.29172,51.60719],[0.29202,51.6064],[0.29287,51.60613],[0.29273,51.60594],[0.2889,51.60576],[0.28774,51.6053],[0.28783,51.6062],[0.28608,51.60899],[0.28609,51.60991],[0.28483,51.61113],[0.2852,51.61156],[0.28441,51.61237],[0.29131,51.61376],[0.29179,51.61482],[0.29293,51.61484],[0.29538,51.6141],[0.29549,51.61366],[0.29479,51.61364],[0.29522,51.61297]]]}},{"type":"Feature","properties":{"id":"E01033064","name":"E01033064","parent":"E07000068","type":"LSOA","pop":1411,"r":107,"ff":48,"ffd":3401.8,"ffs":0.5647,"g":22,"co":0,"mo":2,"sa":0,"ic":0},"geometry":{"type":"Polygon","coordinates":[[[0.29923,51.61363],[0.29877,51.61079],[0.29814,51.60835],[0.29696,51.60864],[0.29749,51.60932],[0.29553,51.60963],[0.2948,51.60946],[0.29391,51.60989],[0.29322,51.61071],[0.29333,51.61115],[0.29237,51.61084],[0.29221,51.61102],[0.2915,51.61071],[0.28985,51.61064],[0.28821,51.6117],[0.29092,51.6123],[0.29257,51.61244],[0.29262,51.61202],[0.29479,51.61194],[0.29498,51.61218],[0.29593,51.61187],[0.29576,51.6122],[0.29621,51.61227],[0.29596,51.61311],[0.29856,51.61325],[0.29869,51.61365],[0.29923,51.61363]]]}},{"type":"Feature","properties":{"id":"E01034358","name":"E01034358","parent":"E07000068","type":"LSOA","pop":1413,"r":105,"ff":47,"ffd":3326.3,"ffs":0.5663,"g":22,"co":0,"mo":2,"sa":0,"ic":0},"geometry":{"type":"Polygon","coordinates":[[[0.3109,51.61936],[0.30977,51.61822],[0.30843,51.61862],[0.30535,51.6181],[0.30576,51.61881],[0.30423,51.61867],[0.30318,51.61819],[0.30282,51.61833],[0.30152,51.61811],[0.30125,51.61842],[0.30084,51.61812],[0.30109,51.61782],[0.29911,51.61725],[0.29784,51.61927],[0.30545,51.62123],[0.31026,51.62327],[0.311,51.6231],[0.3109,51.61936]]]}},{"type":"Feature","properties":{"id":"E01034359","name":"E01034359","parent":"E07000068","type":"LSOA","pop":1575,"r":99,"ff":44,"ffd":2793.7,"ffs":0.557,"g":20,"co":0,"mo":2,"sa":0,"ic":0},"geometry":{"type":"Polygon","coordinates":[[[0.29911,51.61725],[0.2997,51.61557],[0.29949,51.61466],[0.29887,51.61465],[0.29881,51.61545],[0.2984,51.61534],[0.29739,51.61607],[0.29509,51.61581],[0.29516,51.61548],[0.29609,51.6151],[0.29179,51.61482],[0.29133,51.61604],[0.29168,51.61671],[0.29128,51.61723],[0.29307,51.61794],[0.29289,51.6187],[0.29077,51.61917],[0.2902,51.61956],[0.29012,51.62003],[0.28719,51.62251],[0.29109,51.62247],[0.29459,51.62157],[0.29599,51.6203],[0.29755,51.61965],[0.29911,51.61725]]]}},{"type":"Feature","properties":{"id":"E01034360","name":"E01034360","parent":"E07000068","type":"LSOA","pop":1466,"r":104,"ff":46,"ffd":3137.8,"ffs":0.561,"g":22,"co":0,"mo":2,"sa":0,"ic":0},"geometry":{"type":"Polygon","coordinates":[[[0.30576,51.61881],[0.30535,51.6181],[0.30843,51.61862],[0.30977,51.61822],[0.30927,51.61795],[0.30922,51.61699],[0.31077,51.61562],[0.31076,51.61456],[0.31026,51.61428],[0.31072,51.61411],[0.31088,51.61331],[0.30621,51.61308],[0.29923,51.61363],[0.2997,51.61557],[0.29911,51.61725],[0.30109,51.61782],[0.30084,51.61812],[0.30125,51.61842],[0.30152,51.61811],[0.30282,51.61833],[0.30318,51.61819],[0.30423,51.61867],[0.30576,51.61881]]]}},{"type":"Feature","properties":{"id":"E01034361","name":"E01034361","parent":"E07000068","type":"LSOA","pop":1221,"r":101,"ff":45,"ffd":3685.5,"ffs":0.5625,"g":21,"co":0,"mo":2,"sa":0,"ic":0},"geometry":{"type":"Polygon","coordinates":[[[0.29739,51.61607],[0.2984,51.61534],[0.29881,51.61545],[0.29887,51.61465],[0.29949,51.61466],[0.29924,51.61365],[0.29869,51.61365],[0.29856,51.61325],[0.29596,51.61311],[0.29621,51.61227],[0.29576,51.6122],[0.29593,51.61187],[0.29498,51.61218],[0.29479,51.61194],[0.29404,51.61196],[0.29421,51.61264],[0.29475,51.61258],[0.29522,51.61297],[0.29479,51.61364],[0.29549,51.61366],[0.29538,51.6141],[0.29293,51.61484],[0.29406,51.61508],[0.29609,51.6151],[0.29516,51.61548],[0.29509,51.61581],[0.29739,51.61607]]]}}]}