{"type":"FeatureCollection","features":[{"type":"Feature","properties":{"id":"E01024855","name":"E01024855","parent":"E07000117","type":"LSOA","pop":1450,"r":82,"ff":57,"ffd":3931.0,"ffs":0.7125,"g":2,"co":3,"mo":3,"sa":1,"ic":1},"geometry":{"type":"Polygon","coordinates":[[[-2.22822,53.78766],[-2.22691,53.78528],[-2.22486,53.78442],[-2.22626,53.78388],[-2.22881,53.78482],[-2.23205,53.78551],[-2.23244,53.78624],[-2.23455,53.78591],[-2.23561,53.78819],[-2.2334,53.78773],[-2.2334,53.78752],[-2.23258,53.78781],[-2.23365,53.78853],[-2.23321,53.7888],[-2.23379,53.78886],[-2.2333,53.79069],[-2.23202,53.79317],[-2.23272,53.79322],[-2.23318,53.79427],[-2.23211,53.79435],[-2.23195,53.79404],[-2.22914,53.79318],[-2.22899,53.79276],[-2.22939,53.79249],[-2.23136,53.79238],[-2.23206,53.79211],[-2.23226,53.79155],[-2.23134,53.79146],[-2.23169,53.79102],[-2.22992,53.79027],[-2.23012,53.78921],[-2.22817,53.78913],[-2.22924,53.78812],[-2.22844,53.78799],[-2.22822,53.78766]]]}},{"type":"Feature","properties":{"id":"E01024856","name":"E01024856","parent":"E07000117","type":"LSOA","pop":2348,"r":236,"ff":97,"ffd":4131.2,"ffs":0.5132,"g":46,"co":3,"mo":2,"sa":0,"ic":0},"geometry":{"type":"Polygon","coordinates":[[[-2.22899,53.80173],[-2.22834,53.80034],[-2.23129,53.8001],[-2.23237,53.80091],[-2.23301,53.80081],[-2.23403,53.79997],[-2.23506,53.79998],[-2.23501,53.80029],[-2.23606,53.80092],[-2.23516,53.80145],[-2.23411,53.8008],[-2.23364,53.80106],[-2.23471,53.80144],[-2.23393,53.8019],[-2.23423,53.80219],[-2.23251,53.80285],[-2.23017,53.8043],[-2.22899,53.80173]]]}},{"type":"Feature","properties":{"id":"E01024857","name":"E01024857","parent":"E07000117","type":"LSOA","pop":1579,"r":228,"ff":90,"ffd":5699.8,"ffs":0.5,"g":47,"co":3,"mo":2,"sa":0,"ic":0},"geometry":{"type":"Polygon","coordinates":[[[-2.23393,53.8019],[-2.23471,53.80144],[-2.23364,53.80106],[-2.23411,53.8008],[-2.23516,53.80145],[-2.23606,53.80092],[-2.23501,53.80029],[-2.23506,53.79998],[-2.23403,53.79997],[-2.23301,53.80081],[-2.23237,53.80091],[-2.23129,53.8001],[-2.22834,53.80034],[-2.22814,53.80002],[-2.22927,53.79883],[-2.22857,53.79836],[-2.22657,53.79862],[-2.22231,53.79789],[-2.2209,53.79658],[-2.22136,53.79606],[-2.22235,53.79649],[-2.22259,53.796],[-2.22184,53.79551],[-2.22376,53.79488],[-2.22415,53.7942],[-2.22231,53.79349],[-2.22316,53.7932],[-2.2228,53.79285],[-2.22528,53.79218],[-2.22646,53.79123],[-2.22793,53.79124],[-2.22817,53.78913],[-2.23012,53.78921],[-2.22992,53.79027],[-2.23169,53.79102],[-2.23134,53.79146],[-2.23226,53.79155],[-2.23206,53.79211],[-2.23136,53.79238],[-2.22939,53.79249],[-2.22899,53.79276],[-2.22914,53.79318],[-2.23195,53.79404],[-2.23211,53.79435],[-2.23318,53.79427],[-2.23286,53.79376],[-2.23377,53.79316],[-2.23435,53.79367],[-2.23511,53.79361],[-2.23618,53.79258],[-2.23815,53.7923],[-2.23855,53.79252],[-2.23897,53.79227],[-2.24083,53.79422],[-2.24048,53.79609],[-2.23616,53.7981],[-2.23816,53.7989],[-2.23542,53.80253],[-2.23423,53.80219],[-2.23393,53.8019]]]}},{"type":"Feature","properties":{"id":"E01024858","name":"E01024858","parent":"E07000117","type":"LSOA","pop":1973,"r":224,"ff":90,"ffd":4561.6,"ffs":0.5056,"g":45,"co":3,"mo":2,"sa":0,"ic":0},"geometry":{"type":"Polygon","coordinates":[[[-2.23272,53.79322],[-2.23202,53.79317],[-2.2333,53.79069],[-2.23379,53.78886],[-2.23321,53.7888],[-2.23365,53.78853],[-2.23258,53.78781],[-2.2334,53.78752],[-2.2334,53.78773],[-2.23561,53.78819],[-2.23455,53.78591],[-2.23244,53.78624],[-2.23205,53.78551],[-2.23384,53.78524],[-2.23434,53.78577],[-2.2371,53.78604],[-2.23936,53.78655],[-2.24083,53.78656],[-2.23922,53.78795],[-2.23854,53.78918],[-2.23868,53.79154],[-2.23897,53.79227],[-2.23855,53.79252],[-2.23815,53.7923],[-2.23618,53.79258],[-2.23511,53.79361],[-2.23435,53.79367],[-2.23377,53.79316],[-2.23286,53.79376],[-2.23272,53.79322]]]}},{"type":"Feature","properties":{"id":"E01024859","name":"E01024859","parent":"E07000117","type":"LSOA","pop":1529,"r":239,"ff":99,"ffd":6474.8,"ffs":0.5211,"g":48,"co":3,"mo":0,"sa":0,"ic":0},"geometry":{"type":"Polygon","coordinates":[[[-2.19527,53.81406],[-2.19607,53.81369],[-2.19586,53.81343],[-2.19646,53.81275],[-2.19739,53.81311],[-2.19836,53.81305],[-2.19839,53.81333],[-2.19956,53.81307],[-2.19961,53.81236],[-2.2001,53.81197],[-2.20061,53.81218],[-2.20158,53.81198],[-2.20067,53.8111],[-2.20387,53.81005],[-2.20446,53.81017],[-2.20379,53.80894],[-2.20451,53.80791],[-2.20419,53.80768],[-2.20554,53.80663],[-2.20887,53.80677],[-2.2078,53.80813],[-2.20499,53.80879],[-2.20668,53.81129],[-2.20771,53.81109],[-2.20644,53.81242],[-2.20105,53.81384],[-2.19949,53.8138],[-2.19906,53.81458],[-2.19767,53.81524],[-2.19548,53.81558],[-2.19508,53.81532],[-2.19527,53.81406]]]}},{"type":"Feature","properties":{"id":"E01024860","name":"E01024860","parent":"E07000117","type":"LSOA","pop":1300,"r":237,"ff":97,"ffd":7461.5,"ffs":0.516,"g":48,"co":3,"mo":2,"sa":0,"ic":0},"geometry":{"type":"Polygon","coordinates":[[[-2.19212,53.82324],[-2.18647,53.82231],[-2.18496,53.82238],[-2.18298,53.82217],[-2.18209,53.82261],[-2.18119,53.82225],[-2.17893,53.82287],[-2.1755,53.82274],[-2.17467,53.82305],[-2.17274,53.82299],[-2.17205,53.8233],[-2.17129,53.82277],[-2.17071,53.823],[-2.16787,53.82276],[-2.1672,53.82247],[-2.15909,53.82332],[-2.15409,53.8232],[-2.15213,53.82373],[-2.15047,53.82302],[-2.14995,53.82073],[-2.14869,53.81986],[-2.14411,53.82001],[-2.14211,53.82045],[-2.13535,53.81596],[-2.13347,53.81736],[-2.12862,53.8198],[-2.11228,53.80571],[-2.1263,53.79958],[-2.12836,53.79902],[-2.1278,53.79827],[-2.12835,53.79703],[-2.12791,53.79655],[-2.12786,53.79466],[-2.12901,53.79368],[-2.12952,53.79227],[-2.13721,53.79448],[-2.13997,53.79402],[-2.14197,53.79424],[-2.14495,53.79323],[-2.154,53.79398],[-2.15568,53.79387],[-2.15746,53.79322],[-2.1615,53.79325],[-2.17081,53.79658],[-2.1768,53.79749],[-2.18094,53.79962],[-2.18374,53.8],[-2.18762,53.79928],[-2.18803,53.79856],[-2.1897,53.79729],[-2.19026,53.79722],[-2.19127,53.79606],[-2.19347,53.79567],[-2.19425,53.79593],[-2.19443,53.79552],[-2.1968,53.79555],[-2.19902,53.7946],[-2.199,53.79482],[-2.20051,53.79516],[-2.20085,53.79493],[-2.20142,53.79569],[-2.20227,53.79545],[-2.20403,53.79607],[-2.20455,53.79586],[-2.20755,53.79621],[-2.20807,53.79679],[-2.20855,53.79616],[-2.20942,53.79598],[-2.20971,53.79665],[-2.2093,53.79706],[-2.21077,53.79706],[-2.21063,53.79738],[-2.21132,53.79759],[-2.21189,53.79718],[-2.21402,53.7975],[-2.21552,53.79715],[-2.2161,53.79649],[-2.21784,53.79661],[-2.2151,53.80391],[-2.2164,53.80659],[-2.21504,53.80598],[-2.21129,53.80706],[-2.21072,53.80708],[-2.2098,53.80644],[-2.20887,53.80677],[-2.20554,53.80663],[-2.20419,53.80768],[-2.20451,53.80791],[-2.20379,53.80894],[-2.20446,53.81017],[-2.20387,53.81005],[-2.20067,53.8111],[-2.20158,53.81198],[-2.20061,53.81218],[-2.2001,53.81197],[-2.19961,53.81236],[-2.19956,53.81307],[-2.19839,53.81333],[-2.19836,53.81305],[-2.19739,53.81311],[-2.19646,53.81275],[-2.19586,53.81343],[-2.19607,53.81369],[-2.19527,53.81406],[-2.19508,53.81532],[-2.19548,53.81558],[-2.19767,53.81524],[-2.19906,53.81458],[-2.19949,53.8138],[-2.20105,53.81384],[-2.20644,53.81242],[-2.20429,53.81469],[-2.19678,53.82007],[-2.19576,53.82153],[-2.19483,53.82197],[-2.19547,53.82354],[-2.19697,53.82525],[-2.19544,53.82517],[-2.19212,53.82324]]]}},{"type":"Feature","properties":{"id":"E01024861","name":"E01024861","parent":"E07000117","type":"LSOA","pop":1259,"r":238,"ff":99,"ffd":7863.4,"ffs":0.5211,"g":47,"co":3,"mo":0,"sa":0,"ic":0},"geometry":{"type":"Polygon","coordinates":[[[-2.21171,53.81382],[-2.21062,53.81367],[-2.21007,53.81422],[-2.20957,53.814],[-2.21031,53.81359],[-2.21092,53.81183],[-2.21197,53.81195],[-2.21215,53.81225],[-2.21253,53.81191],[-2.21289,53.81119],[-2.2113,53.81129],[-2.21135,53.81065],[-2.21283,53.81023],[-2.21268,53.80961],[-2.21357,53.8094],[-2.21348,53.80904],[-2.21241,53.80893],[-2.21207,53.80805],[-2.21336,53.80782],[-2.2149,53.80945],[-2.21665,53.80909],[-2.21811,53.80999],[-2.21505,53.81018],[-2.21535,53.8108],[-2.21737,53.8108],[-2.21658,53.81232],[-2.2178,53.81283],[-2.21893,53.81398],[-2.21946,53.81423],[-2.21768,53.81552],[-2.21171,53.81382]]]}},{"type":"Feature","properties":{"id":"E01024862","name":"E01024862","parent":"E07000117","type":"LSOA","pop":1527,"r":238,"ff":100,"ffd":6548.8,"ffs":0.5263,"g":47,"co":3,"mo":0,"sa":0,"ic":0},"geometry":{"type":"Polygon","coordinates":[[[-2.20697,53.8133],[-2.20743,53.81144],[-2.20771,53.81109],[-2.20668,53.81129],[-2.20499,53.80879],[-2.2078,53.80813],[-2.20887,53.80677],[-2.2098,53.80644],[-2.21072,53.80708],[-2.21129,53.80706],[-2.21504,53.80598],[-2.2164,53.80659],[-2.21666,53.8071],[-2.21514,53.80743],[-2.21804,53.80834],[-2.21811,53.80999],[-2.21665,53.80909],[-2.2149,53.80945],[-2.21336,53.80782],[-2.21207,53.80805],[-2.21241,53.80893],[-2.21348,53.80904],[-2.21357,53.8094],[-2.21268,53.80961],[-2.21283,53.81023],[-2.21135,53.81065],[-2.2113,53.81129],[-2.21289,53.81119],[-2.21253,53.81191],[-2.21215,53.81225],[-2.21197,53.81195],[-2.21092,53.81183],[-2.21031,53.81359],[-2.20957,53.814],[-2.20697,53.8133]]]}},{"type":"Feature","properties":{"id":"E01024863","name":"E01024863","parent":"E07000117","type":"LSOA","pop":1566,"r":220,"ff":91,"ffd":5811.0,"ffs":0.517,"g":43,"co":3,"mo":2,"sa":0,"ic":0},"geometry":{"type":"Polygon","coordinates":[[[-2.21754,53.79662],[-2.21758,53.79501],[-2.21802,53.79454],[-2.21766,53.79413],[-2.21698,53.79468],[-2.2164,53.79462],[-2.21569,53.79418],[-2.21573,53.7934],[-2.21432,53.79292],[-2.21333,53.79205],[-2.21171,53.79251],[-2.21026,53.79181],[-2.21084,53.79071],[-2.21033,53.78982],[-2.21173,53.7889],[-2.21222,53.7891],[-2.21304,53.78822],[-2.21364,53.78842],[-2.21476,53.788],[-2.2152,53.78821],[-2.2153,53.7878],[-2.21616,53.78785],[-2.21747,53.78731],[-2.21727,53.78675],[-2.2177,53.78647],[-2.21634,53.7851],[-2.21887,53.78426],[-2.2193,53.78461],[-2.21996,53.78444],[-2.22077,53.78476],[-2.22233,53.78419],[-2.22299,53.78498],[-2.22378,53.78468],[-2.22358,53.7857],[-2.22202,53.78533],[-2.22056,53.78587],[-2.22069,53.7863],[-2.21978,53.78643],[-2.21979,53.78693],[-2.22085,53.7869],[-2.22272,53.78808],[-2.22018,53.78901],[-2.21992,53.78942],[-2.21799,53.78963],[-2.21786,53.78993],[-2.21695,53.78988],[-2.21673,53.79016],[-2.21866,53.79166],[-2.21972,53.7915],[-2.22068,53.79263],[-2.22095,53.79252],[-2.22231,53.79349],[-2.22415,53.7942],[-2.22376,53.79488],[-2.22184,53.79551],[-2.22259,53.796],[-2.22235,53.79649],[-2.22136,53.79606],[-2.2209,53.79658],[-2.21953,53.79632],[-2.21754,53.79662]]]}},{"type":"Feature","properties":{"id":"E01024864","name":"E01024864","parent":"E07000117","type":"LSOA","pop":1641,"r":222,"ff":90,"ffd":5484.5,"ffs":0.5085,"g":44,"co":3,"mo":2,"sa":0,"ic":0},"geometry":{"type":"Polygon","coordinates":[[[-2.2236,53.78838],[-2.22272,53.78808],[-2.22085,53.7869],[-2.21979,53.78693],[-2.21978,53.78643],[-2.22069,53.7863],[-2.22056,53.78587],[-2.22202,53.78533],[-2.22358,53.7857],[-2.22378,53.78468],[-2.22486,53.78442],[-2.22691,53.78528],[-2.22844,53.78799],[-2.22924,53.78812],[-2.22902,53.78843],[-2.22782,53.78831],[-2.22403,53.78906],[-2.22365,53.78887],[-2.2236,53.78838]]]}},{"type":"Feature","properties":{"id":"E01024865","name":"E01024865","parent":"E07000117","type":"LSOA","pop":1393,"r":224,"ff":91,"ffd":6532.7,"ffs":0.5084,"g":44,"co":3,"mo":2,"sa":0,"ic":0},"geometry":{"type":"Polygon","coordinates":[[[-2.22231,53.79349],[-2.22095,53.79252],[-2.22068,53.79263],[-2.21972,53.7915],[-2.21866,53.79166],[-2.21673,53.79016],[-2.21695,53.78988],[-2.21786,53.78993],[-2.21799,53.78963],[-2.21992,53.78942],[-2.22018,53.78901],[-2.22272,53.78808],[-2.2236,53.78838],[-2.22365,53.78887],[-2.22403,53.78906],[-2.22782,53.78831],[-2.22902,53.78843],[-2.22817,53.78913],[-2.22793,53.79124],[-2.22646,53.79123],[-2.22528,53.79218],[-2.2228,53.79285],[-2.22316,53.7932],[-2.22231,53.79349]]]}},{"type":"Feature","properties":{"id":"E01024866","name":"E01024866","parent":"E07000117","type":"LSOA","pop":1725,"r":215,"ff":90,"ffd":5217.4,"ffs":0.5233,"g":42,"co":3,"mo":2,"sa":0,"ic":0},"geometry":{"type":"Polygon","coordinates":[[[-2.21304,53.78822],[-2.21307,53.78786],[-2.20729,53.78539],[-2.2048,53.78463],[-2.20715,53.78289],[-2.20601,53.78148],[-2.21176,53.77903],[-2.21546,53.77681],[-2.21751,53.77725],[-2.21946,53.77827],[-2.22263,53.77959],[-2.22626,53.78388],[-2.22299,53.78498],[-2.22233,53.78419],[-2.22077,53.78476],[-2.21996,53.78444],[-2.2193,53.78461],[-2.21887,53.78426],[-2.21634,53.7851],[-2.2177,53.78647],[-2.21727,53.78675],[-2.21747,53.78731],[-2.21616,53.78785],[-2.2153,53.7878],[-2.2152,53.78821],[-2.21476,53.788],[-2.21364,53.78842],[-2.21304,53.78822]]]}},{"type":"Feature","properties":{"id":"E01024867","name":"E01024867","parent":"E07000117","type":"LSOA","pop":1348,"r":214,"ff":92,"ffd":6824.9,"ffs":0.5349,"g":41,"co":3,"mo":2,"sa":0,"ic":0},"geometry":{"type":"Polygon","coordinates":[[[-2.21063,53.79738],[-2.21077,53.79706],[-2.2093,53.79706],[-2.20971,53.79665],[-2.20942,53.79598],[-2.20855,53.79616],[-2.20807,53.79679],[-2.20755,53.79621],[-2.20607,53.79606],[-2.20568,53.79303],[-2.20192,53.79274],[-2.2007,53.79305],[-2.19893,53.79257],[-2.19634,53.7926],[-2.19594,53.79239],[-2.19703,53.79098],[-2.19682,53.79026],[-2.19438,53.78991],[-2.19453,53.78853],[-2.19697,53.78548],[-2.19875,53.78592],[-2.19815,53.7864],[-2.1989,53.78673],[-2.19853,53.78691],[-2.19897,53.78752],[-2.20075,53.78719],[-2.20227,53.78769],[-2.20265,53.78652],[-2.20461,53.78674],[-2.20525,53.78799],[-2.20672,53.7886],[-2.20827,53.78999],[-2.20931,53.78744],[-2.20984,53.78725],[-2.20955,53.78712],[-2.20808,53.78754],[-2.20684,53.78745],[-2.2062,53.78668],[-2.20636,53.78596],[-2.2068,53.7859],[-2.20651,53.78572],[-2.20729,53.78539],[-2.21307,53.78786],[-2.21304,53.78822],[-2.21222,53.7891],[-2.21173,53.7889],[-2.21033,53.78982],[-2.21084,53.79071],[-2.21026,53.79181],[-2.21171,53.79251],[-2.21333,53.79205],[-2.21432,53.79292],[-2.21573,53.7934],[-2.21569,53.79418],[-2.2164,53.79462],[-2.21698,53.79468],[-2.21766,53.79413],[-2.21802,53.79454],[-2.21758,53.79501],[-2.21754,53.79662],[-2.2161,53.79649],[-2.21552,53.79715],[-2.21402,53.7975],[-2.21189,53.79718],[-2.21132,53.79759],[-2.21063,53.79738]]]}},{"type":"Feature","properties":{"id":"E01024868","name":"E01024868","parent":"E07000117","type":"LSOA","pop":1177,"r":201,"ff":85,"ffd":7221.8,"ffs":0.5312,"g":40,"co":3,"mo":2,"sa":0,"ic":0},"geometry":{"type":"Polygon","coordinates":[[[-2.17081,53.79658],[-2.1615,53.79325],[-2.15746,53.79322],[-2.15568,53.79387],[-2.154,53.79398],[-2.14495,53.79323],[-2.14197,53.79424],[-2.13997,53.79402],[-2.13721,53.79448],[-2.12952,53.79227],[-2.12972,53.79163],[-2.12922,53.79092],[-2.1257,53.78965],[-2.12482,53.78806],[-2.12732,53.78611],[-2.13048,53.78514],[-2.13217,53.78341],[-2.13546,53.78125],[-2.13636,53.7801],[-2.13503,53.77684],[-2.13134,53.77441],[-2.13046,53.77239],[-2.13007,53.76828],[-2.13076,53.76443],[-2.13007,53.76309],[-2.13159,53.75807],[-2.14434,53.76085],[-2.15883,53.76251],[-2.15961,53.76227],[-2.15979,53.76341],[-2.16066,53.76414],[-2.16151,53.76462],[-2.16268,53.76466],[-2.16494,53.76599],[-2.16581,53.76779],[-2.16707,53.76884],[-2.16676,53.7694],[-2.1671,53.77021],[-2.16788,53.77043],[-2.16835,53.77113],[-2.16872,53.7712],[-2.16847,53.77143],[-2.16958,53.77178],[-2.17083,53.77129],[-2.17112,53.7716],[-2.17165,53.77144],[-2.17179,53.7718],[-2.17252,53.77167],[-2.17328,53.77234],[-2.17323,53.77277],[-2.17461,53.77338],[-2.17578,53.77351],[-2.17722,53.77324],[-2.17896,53.77388],[-2.18101,53.77539],[-2.18146,53.77681],[-2.18245,53.77698],[-2.18425,53.77798],[-2.1852,53.77923],[-2.1883,53.78021],[-2.19391,53.78087],[-2.19456,53.78117],[-2.19673,53.78086],[-2.19661,53.78153],[-2.19802,53.78198],[-2.19836,53.78247],[-2.19767,53.78307],[-2.198,53.78387],[-2.1993,53.7856],[-2.19875,53.78592],[-2.19697,53.78548],[-2.19453,53.78853],[-2.19438,53.78991],[-2.19682,53.79026],[-2.19703,53.79098],[-2.19594,53.79239],[-2.19634,53.7926],[-2.19893,53.79257],[-2.2007,53.79305],[-2.20192,53.79274],[-2.20568,53.79303],[-2.20607,53.79606],[-2.20455,53.79586],[-2.20403,53.79607],[-2.20227,53.79545],[-2.20142,53.79569],[-2.20085,53.79493],[-2.20051,53.79516],[-2.199,53.79482],[-2.19902,53.7946],[-2.1968,53.79555],[-2.19443,53.79552],[-2.19425,53.79593],[-2.19347,53.79567],[-2.19127,53.79606],[-2.19026,53.79722],[-2.1897,53.79729],[-2.18803,53.79856],[-2.18762,53.79928],[-2.18374,53.8],[-2.18094,53.79962],[-2.1768,53.79749],[-2.17081,53.79658]]]}},{"type":"Feature","properties":{"id":"E01024869","name":"E01024869","parent":"E07000117","type":"LSOA","pop":1547,"r":208,"ff":87,"ffd":5623.8,"ffs":0.5241,"g":41,"co":3,"mo":2,"sa":0,"ic":0},"geometry":{"type":"Polygon","coordinates":[[[-2.20525,53.78799],[-2.20461,53.78674],[-2.20265,53.78652],[-2.20227,53.78769],[-2.20075,53.78719],[-2.19897,53.78752],[-2.19853,53.78691],[-2.1989,53.78673],[-2.19815,53.7864],[-2.1993,53.7856],[-2.198,53.78387],[-2.19767,53.78307],[-2.19836,53.78247],[-2.19802,53.78198],[-2.19661,53.78153],[-2.19673,53.78086],[-2.19456,53.78117],[-2.19391,53.78087],[-2.1883,53.78021],[-2.1852,53.77923],[-2.18425,53.77798],[-2.18245,53.77698],[-2.18146,53.77681],[-2.18101,53.77539],[-2.17896,53.77388],[-2.17722,53.77324],[-2.17578,53.77351],[-2.17461,53.77338],[-2.17323,53.77277],[-2.17328,53.77234],[-2.17252,53.77167],[-2.17179,53.7718],[-2.17165,53.77144],[-2.17112,53.7716],[-2.17083,53.77129],[-2.16958,53.77178],[-2.16847,53.77143],[-2.16872,53.7712],[-2.16835,53.77113],[-2.17023,53.7695],[-2.17077,53.76974],[-2.17077,53.76921],[-2.1714,53.76937],[-2.17073,53.7678],[-2.17245,53.76559],[-2.17218,53.76413],[-2.17251,53.76324],[-2.1721,53.76248],[-2.17431,53.76116],[-2.17688,53.76259],[-2.18352,53.76456],[-2.18641,53.76641],[-2.18932,53.76436],[-2.18851,53.76459],[-2.18917,53.76376],[-2.19027,53.76417],[-2.19109,53.76459],[-2.19121,53.76541],[-2.19252,53.76586],[-2.19423,53.76705],[-2.19447,53.76809],[-2.1939,53.76861],[-2.19308,53.76893],[-2.19224,53.76824],[-2.19234,53.76942],[-2.1917,53.77033],[-2.19256,53.77029],[-2.19261,53.77107],[-2.19544,53.77158],[-2.19764,53.77344],[-2.20234,53.77203],[-2.20312,53.77128],[-2.20433,53.77123],[-2.20639,53.77046],[-2.20789,53.77051],[-2.20901,53.76979],[-2.20924,53.76886],[-2.21009,53.76918],[-2.21072,53.76907],[-2.21089,53.76871],[-2.21007,53.7686],[-2.21011,53.76828],[-2.21132,53.76753],[-2.21278,53.76623],[-2.21057,53.76447],[-2.21026,53.76215],[-2.20929,53.76098],[-2.20728,53.76002],[-2.20362,53.76069],[-2.20001,53.75508],[-2.20208,53.75485],[-2.2087,53.75566],[-2.21463,53.75864],[-2.21643,53.76059],[-2.21841,53.76164],[-2.21695,53.75845],[-2.21266,53.75588],[-2.21419,53.75266],[-2.21471,53.75322],[-2.22419,53.7551],[-2.22997,53.75538],[-2.23138,53.75499],[-2.2319,53.75733],[-2.23124,53.76214],[-2.22894,53.76674],[-2.22714,53.76743],[-2.22758,53.76852],[-2.22556,53.7696],[-2.222,53.77025],[-2.21925,53.7716],[-2.2171,53.7735],[-2.21649,53.77611],[-2.2161,53.77701],[-2.21546,53.77681],[-2.21176,53.77903],[-2.20601,53.78148],[-2.20715,53.78289],[-2.2048,53.78463],[-2.20729,53.78539],[-2.20651,53.78572],[-2.2068,53.7859],[-2.20636,53.78596],[-2.2062,53.78668],[-2.20684,53.78745],[-2.20808,53.78754],[-2.20955,53.78712],[-2.20984,53.78725],[-2.20931,53.78744],[-2.20827,53.78999],[-2.20672,53.7886],[-2.20525,53.78799]]]}},{"type":"Feature","properties":{"id":"E01024870","name":"E01024870","parent":"E07000117","type":"LSOA","pop":1095,"r":55,"ff":39,"ffd":3561.6,"ffs":0.7358,"g":2,"co":3,"mo":3,"sa":1,"ic":1},"geometry":{"type":"Polygon","coordinates":[[[-2.19261,53.77107],[-2.19256,53.77029],[-2.1917,53.77033],[-2.19234,53.76942],[-2.19224,53.76824],[-2.19308,53.76893],[-2.1939,53.76861],[-2.19447,53.76809],[-2.19423,53.76705],[-2.19252,53.76586],[-2.19121,53.76541],[-2.19109,53.76459],[-2.18917,53.76376],[-2.18851,53.76459],[-2.18932,53.76436],[-2.18641,53.76641],[-2.18352,53.76456],[-2.17688,53.76259],[-2.17431,53.76116],[-2.1721,53.76248],[-2.17251,53.76324],[-2.17218,53.76413],[-2.17245,53.76559],[-2.17073,53.7678],[-2.1714,53.76937],[-2.17077,53.76921],[-2.17077,53.76974],[-2.17023,53.7695],[-2.16835,53.77113],[-2.16788,53.77043],[-2.1671,53.77021],[-2.16676,53.7694],[-2.16707,53.76884],[-2.16581,53.76779],[-2.16494,53.76599],[-2.16268,53.76466],[-2.16151,53.76462],[-2.16066,53.76414],[-2.15979,53.76341],[-2.15961,53.76227],[-2.15883,53.76251],[-2.14434,53.76085],[-2.13159,53.75807],[-2.12952,53.75459],[-2.1313,53.75138],[-2.13344,53.74967],[-2.13447,53.74894],[-2.13666,53.7484],[-2.13893,53.74742],[-2.14165,53.74574],[-2.14186,53.74391],[-2.14114,53.74325],[-2.14104,53.74161],[-2.14309,53.73912],[-2.14486,53.73892],[-2.14377,53.73734],[-2.14522,53.73687],[-2.145,53.73663],[-2.14561,53.73595],[-2.14759,53.73551],[-2.14909,53.7339],[-2.14962,53.73463],[-2.15215,53.73532],[-2.15307,53.73446],[-2.15572,53.73537],[-2.15671,53.73475],[-2.1562,53.73367],[-2.15698,53.73316],[-2.15964,53.73291],[-2.16025,53.73232],[-2.16392,53.73126],[-2.16502,53.72984],[-2.16613,53.7291],[-2.16669,53.72781],[-2.17012,53.72562],[-2.17139,53.72521],[-2.17329,53.72301],[-2.17703,53.72621],[-2.1809,53.72877],[-2.18544,53.73082],[-2.189,53.73173],[-2.192,53.73217],[-2.19217,53.73192],[-2.19728,53.73292],[-2.19847,53.73263],[-2.2033,53.73239],[-2.20468,53.73385],[-2.21426,53.73726],[-2.21784,53.73834],[-2.2202,53.73852],[-2.22552,53.73853],[-2.23265,53.73764],[-2.2334,53.73973],[-2.23502,53.74207],[-2.24034,53.74771],[-2.24242,53.74906],[-2.23865,53.75219],[-2.23798,53.75152],[-2.23239,53.74996],[-2.23105,53.753],[-2.23138,53.75499],[-2.22997,53.75538],[-2.22419,53.7551],[-2.21471,53.75322],[-2.21419,53.75266],[-2.21266,53.75588],[-2.21695,53.75845],[-2.21841,53.76164],[-2.21643,53.76059],[-2.21463,53.75864],[-2.2087,53.75566],[-2.20208,53.75485],[-2.20001,53.75508],[-2.20362,53.76069],[-2.20728,53.76002],[-2.20929,53.76098],[-2.21026,53.76215],[-2.21057,53.76447],[-2.21278,53.76623],[-2.21132,53.76753],[-2.21011,53.76828],[-2.21007,53.7686],[-2.21089,53.76871],[-2.21072,53.76907],[-2.21009,53.76918],[-2.20924,53.76886],[-2.20901,53.76979],[-2.20789,53.77051],[-2.20639,53.77046],[-2.20433,53.77123],[-2.20312,53.77128],[-2.20234,53.77203],[-2.19764,53.77344],[-2.19544,53.77158],[-2.19261,53.77107]]]}},{"type":"Feature","properties":{"id":"E01024871","name":"E01024871","parent":"E07000117","type":"LSOA","pop":1279,"r":223,"ff":92,"ffd":7193.1,"ffs":0.514,"g":43,"co":3,"mo":2,"sa":0,"ic":0},"geometry":{"type":"Polygon","coordinates":[[[-2.25819,53.78389],[-2.2554,53.7826],[-2.25368,53.78243],[-2.25397,53.7814],[-2.25527,53.78154],[-2.25549,53.78069],[-2.25545,53.77916],[-2.25434,53.77911],[-2.25413,53.77736],[-2.25665,53.77383],[-2.25203,53.77364],[-2.24805,53.77425],[-2.24618,53.77411],[-2.24722,53.77221],[-2.24824,53.77228],[-2.24943,53.77319],[-2.25053,53.77346],[-2.25357,53.77325],[-2.25385,53.77283],[-2.25469,53.77271],[-2.25498,53.77294],[-2.25539,53.77261],[-2.25602,53.77257],[-2.25633,53.77291],[-2.25722,53.77212],[-2.25884,53.7726],[-2.25905,53.77363],[-2.25983,53.77378],[-2.26014,53.77437],[-2.25698,53.77426],[-2.25689,53.77483],[-2.25786,53.77531],[-2.25722,53.77634],[-2.25609,53.77668],[-2.25621,53.77723],[-2.2573,53.77716],[-2.25769,53.77679],[-2.25879,53.77712],[-2.25864,53.77741],[-2.25824,53.77727],[-2.25714,53.77758],[-2.25717,53.77804],[-2.25788,53.77791],[-2.25832,53.77814],[-2.26093,53.77736],[-2.26166,53.77838],[-2.26097,53.77834],[-2.26083,53.77885],[-2.2617,53.77988],[-2.26055,53.78039],[-2.26103,53.78088],[-2.26055,53.78138],[-2.26115,53.78155],[-2.25967,53.78342],[-2.25927,53.78379],[-2.25831,53.78336],[-2.25819,53.78389]]]}},{"type":"Feature","properties":{"id":"E01024872","name":"E01024872","parent":"E07000117","type":"LSOA","pop":1697,"r":230,"ff":91,"ffd":5362.4,"ffs":0.5028,"g":48,"co":3,"mo":2,"sa":0,"ic":0},"geometry":{"type":"Polygon","coordinates":[[[-2.2617,53.77988],[-2.26083,53.77885],[-2.26097,53.77834],[-2.26338,53.77829],[-2.26402,53.77918],[-2.26485,53.77769],[-2.26402,53.7772],[-2.26421,53.77673],[-2.26553,53.77566],[-2.26683,53.77681],[-2.26759,53.77613],[-2.26841,53.77705],[-2.27115,53.7786],[-2.27104,53.77914],[-2.27169,53.7793],[-2.27093,53.77914],[-2.27114,53.77859],[-2.26956,53.77787],[-2.2687,53.77845],[-2.26622,53.77924],[-2.26382,53.77962],[-2.26698,53.78388],[-2.26114,53.78476],[-2.26027,53.78344],[-2.25967,53.78342],[-2.26115,53.78155],[-2.26055,53.78138],[-2.26103,53.78088],[-2.26055,53.78039],[-2.2617,53.77988]]]}},{"type":"Feature","properties":{"id":"E01024873","name":"E01024873","parent":"E07000117","type":"LSOA","pop":1402,"r":224,"ff":92,"ffd":6562.1,"ffs":0.5111,"g":43,"co":3,"mo":2,"sa":0,"ic":0},"geometry":{"type":"Polygon","coordinates":[[[-2.26402,53.77918],[-2.26338,53.77829],[-2.26269,53.77841],[-2.26227,53.77821],[-2.26166,53.77838],[-2.26093,53.77736],[-2.25832,53.77814],[-2.25788,53.77791],[-2.25717,53.77804],[-2.25714,53.77758],[-2.25824,53.77727],[-2.25864,53.77741],[-2.25879,53.77712],[-2.25769,53.77679],[-2.2573,53.77716],[-2.25621,53.77723],[-2.25609,53.77668],[-2.25722,53.77634],[-2.25786,53.77531],[-2.25689,53.77483],[-2.25698,53.77426],[-2.26014,53.77437],[-2.25983,53.77378],[-2.25905,53.77363],[-2.25884,53.7726],[-2.2578,53.77222],[-2.25851,53.77107],[-2.25882,53.77124],[-2.25937,53.77098],[-2.25955,53.77185],[-2.26059,53.77172],[-2.26125,53.77353],[-2.26175,53.77368],[-2.26124,53.77389],[-2.26286,53.77388],[-2.26264,53.77451],[-2.26693,53.77509],[-2.26759,53.77613],[-2.26683,53.77681],[-2.26553,53.77566],[-2.26421,53.77673],[-2.26402,53.7772],[-2.26485,53.77769],[-2.26402,53.77918]]]}},{"type":"Feature","properties":{"id":"E01024874","name":"E01024874","parent":"E07000117","type":"LSOA","pop":1079,"r":219,"ff":91,"ffd":8433.7,"ffs":0.517,"g":42,"co":3,"mo":2,"sa":0,"ic":0},"geometry":{"type":"Polygon","coordinates":[[[-2.27385,53.77943],[-2.27275,53.77918],[-2.27169,53.7793],[-2.27104,53.77914],[-2.27115,53.7786],[-2.26841,53.77705],[-2.26693,53.77509],[-2.26264,53.77451],[-2.26286,53.77388],[-2.26124,53.77389],[-2.26175,53.77368],[-2.26125,53.77353],[-2.26059,53.77172],[-2.25955,53.77185],[-2.25937,53.77098],[-2.25882,53.77124],[-2.25851,53.77107],[-2.2578,53.77222],[-2.25722,53.77212],[-2.25633,53.77291],[-2.25602,53.77257],[-2.25539,53.77261],[-2.25498,53.77294],[-2.25469,53.77271],[-2.25385,53.77283],[-2.25357,53.77325],[-2.25053,53.77346],[-2.24943,53.77319],[-2.24824,53.77228],[-2.24722,53.77221],[-2.24618,53.77411],[-2.24805,53.77425],[-2.24417,53.77499],[-2.24214,53.77489],[-2.24169,53.77593],[-2.24063,53.77574],[-2.23799,53.77604],[-2.23692,53.77696],[-2.23408,53.77616],[-2.23277,53.77635],[-2.22968,53.77342],[-2.22854,53.77267],[-2.22849,53.77176],[-2.22556,53.7696],[-2.22758,53.76852],[-2.22714,53.76743],[-2.22894,53.76674],[-2.23124,53.76214],[-2.2319,53.75733],[-2.23105,53.753],[-2.23239,53.74996],[-2.23798,53.75152],[-2.23865,53.75219],[-2.24242,53.74906],[-2.24527,53.751],[-2.24897,53.75284],[-2.25169,53.75504],[-2.25392,53.75357],[-2.25581,53.75288],[-2.25652,53.75188],[-2.2579,53.75066],[-2.2572,53.75011],[-2.25748,53.74987],[-2.2605,53.74923],[-2.26196,53.74847],[-2.26271,53.74894],[-2.2668,53.7481],[-2.26424,53.74743],[-2.26289,53.74625],[-2.26334,53.74532],[-2.26558,53.74413],[-2.26699,53.74265],[-2.2686,53.74228],[-2.27136,53.74228],[-2.27508,53.74376],[-2.27837,53.74349],[-2.28161,53.74508],[-2.28386,53.74463],[-2.28511,53.74375],[-2.28714,53.74484],[-2.28753,53.74677],[-2.28838,53.74693],[-2.29325,53.74983],[-2.29527,53.75199],[-2.28964,53.75306],[-2.28971,53.75456],[-2.28891,53.7551],[-2.28758,53.75532],[-2.28157,53.75483],[-2.27678,53.75657],[-2.27618,53.75712],[-2.27416,53.7567],[-2.27052,53.75665],[-2.26836,53.75976],[-2.26914,53.76134],[-2.26879,53.76216],[-2.26951,53.76349],[-2.27136,53.76532],[-2.27416,53.76694],[-2.27502,53.7683],[-2.27684,53.76909],[-2.27817,53.77011],[-2.27798,53.77104],[-2.27631,53.77305],[-2.27865,53.77518],[-2.28041,53.77602],[-2.28579,53.77651],[-2.28657,53.77725],[-2.28771,53.77795],[-2.27681,53.78207],[-2.27293,53.78051],[-2.27385,53.77943]]]}},{"type":"Feature","properties":{"id":"E01024875","name":"E01024875","parent":"E07000117","type":"LSOA","pop":2092,"r":82,"ff":57,"ffd":2724.7,"ffs":0.7125,"g":2,"co":3,"mo":1,"sa":1,"ic":1},"geometry":{"type":"Polygon","coordinates":[[[-2.24055,53.8033],[-2.24012,53.80313],[-2.23823,53.80333],[-2.23795,53.80227],[-2.23946,53.80212],[-2.23985,53.80288],[-2.24025,53.80221],[-2.23974,53.80146],[-2.23949,53.80056],[-2.24199,53.80019],[-2.24228,53.80133],[-2.2431,53.80126],[-2.24389,53.80325],[-2.24295,53.80334],[-2.24301,53.80363],[-2.24186,53.80381],[-2.24203,53.80524],[-2.2411,53.80499],[-2.24055,53.8033]]]}},{"type":"Feature","properties":{"id":"E01024876","name":"E01024876","parent":"E07000117","type":"LSOA","pop":2173,"r":246,"ff":98,"ffd":4509.9,"ffs":0.5026,"g":50,"co":3,"mo":0,"sa":0,"ic":0},"geometry":{"type":"Polygon","coordinates":[[[-2.23654,53.80096],[-2.23816,53.7989],[-2.23616,53.7981],[-2.24137,53.79558],[-2.24107,53.79675],[-2.23997,53.79679],[-2.2406,53.79728],[-2.24048,53.79754],[-2.2415,53.79814],[-2.24293,53.80049],[-2.24208,53.80057],[-2.24199,53.80019],[-2.23949,53.80056],[-2.23981,53.80157],[-2.23711,53.80201],[-2.23742,53.80247],[-2.23631,53.80258],[-2.23746,53.80265],[-2.23754,53.803],[-2.23623,53.80331],[-2.23556,53.80235],[-2.23654,53.80096]]]}},{"type":"Feature","properties":{"id":"E01024877","name":"E01024877","parent":"E07000117","type":"LSOA","pop":2235,"r":249,"ff":98,"ffd":4384.8,"ffs":0.5,"g":52,"co":3,"mo":2,"sa":0,"ic":0},"geometry":{"type":"Polygon","coordinates":[[[-2.24107,53.79675],[-2.24137,53.79558],[-2.24048,53.79609],[-2.24083,53.79422],[-2.23897,53.79227],[-2.23868,53.79154],[-2.23854,53.78918],[-2.23922,53.78795],[-2.24083,53.78656],[-2.24204,53.78605],[-2.24561,53.78561],[-2.24614,53.78626],[-2.24528,53.78691],[-2.24689,53.78816],[-2.24768,53.78841],[-2.24907,53.78946],[-2.24803,53.79048],[-2.24798,53.79137],[-2.24721,53.79194],[-2.2473,53.7927],[-2.24831,53.79258],[-2.24976,53.79384],[-2.24849,53.79476],[-2.25039,53.79656],[-2.24948,53.79649],[-2.24866,53.79685],[-2.24958,53.79755],[-2.24851,53.79791],[-2.24724,53.79644],[-2.24469,53.79717],[-2.24471,53.79745],[-2.24504,53.7976],[-2.24423,53.79786],[-2.24453,53.79925],[-2.24367,53.79959],[-2.24221,53.79918],[-2.2415,53.79814],[-2.24048,53.79754],[-2.2406,53.79728],[-2.23997,53.79679],[-2.24107,53.79675]]]}},{"type":"Feature","properties":{"id":"E01024878","name":"E01024878","parent":"E07000117","type":"LSOA","pop":2111,"r":250,"ff":98,"ffd":4642.3,"ffs":0.5,"g":53,"co":3,"mo":2,"sa":0,"ic":0},"geometry":{"type":"Polygon","coordinates":[[[-2.2454,53.80616],[-2.2445,53.806],[-2.24367,53.80758],[-2.24119,53.80792],[-2.23916,53.80657],[-2.23826,53.80633],[-2.23623,53.80331],[-2.23754,53.803],[-2.23746,53.80265],[-2.23631,53.80258],[-2.23742,53.80247],[-2.23711,53.80201],[-2.23981,53.80157],[-2.24025,53.80221],[-2.23985,53.80288],[-2.23946,53.80212],[-2.23795,53.80227],[-2.23823,53.80333],[-2.24012,53.80313],[-2.24055,53.8033],[-2.2411,53.80499],[-2.24203,53.80524],[-2.24186,53.80381],[-2.24301,53.80363],[-2.24295,53.80334],[-2.24389,53.80325],[-2.2431,53.80126],[-2.24228,53.80133],[-2.24208,53.80057],[-2.24293,53.80049],[-2.24221,53.79918],[-2.24367,53.79959],[-2.24453,53.79925],[-2.24423,53.79786],[-2.24504,53.7976],[-2.24471,53.79745],[-2.24469,53.79717],[-2.24724,53.79644],[-2.24851,53.79791],[-2.24958,53.79755],[-2.24866,53.79685],[-2.24948,53.79649],[-2.25039,53.79656],[-2.24849,53.79476],[-2.24976,53.79384],[-2.25319,53.79648],[-2.25453,53.79779],[-2.25655,53.79834],[-2.25771,53.79891],[-2.2572,53.80063],[-2.2578,53.80101],[-2.26181,53.80207],[-2.26278,53.80356],[-2.26224,53.80426],[-2.26094,53.80484],[-2.26208,53.8065],[-2.26107,53.80777],[-2.25208,53.81108],[-2.2489,53.81191],[-2.24904,53.81086],[-2.24995,53.81022],[-2.25159,53.80986],[-2.25146,53.80944],[-2.24749,53.8067],[-2.24651,53.80671],[-2.2454,53.80616]]]}},{"type":"Feature","properties":{"id":"E01024879","name":"E01024879","parent":"E07000117","type":"LSOA","pop":2045,"r":218,"ff":90,"ffd":4401.0,"ffs":0.5143,"g":42,"co":3,"mo":2,"sa":0,"ic":0},"geometry":{"type":"Polygon","coordinates":[[[-2.28293,53.79722],[-2.28015,53.7964],[-2.2804,53.79607],[-2.28118,53.79615],[-2.28181,53.79652],[-2.28346,53.79675],[-2.28474,53.79614],[-2.28421,53.79599],[-2.28412,53.79519],[-2.28496,53.79509],[-2.28434,53.79408],[-2.28444,53.79381],[-2.28561,53.79308],[-2.28661,53.79272],[-2.29464,53.79263],[-2.29602,53.79308],[-2.29597,53.79413],[-2.29673,53.79413],[-2.29707,53.79444],[-2.29658,53.7946],[-2.29687,53.7963],[-2.29752,53.79632],[-2.29002,53.79716],[-2.28479,53.79738],[-2.28293,53.79722]]]}},{"type":"Feature","properties":{"id":"E01024880","name":"E01024880","parent":"E07000117","type":"LSOA","pop":1399,"r":226,"ff":91,"ffd":6504.6,"ffs":0.5084,"g":46,"co":3,"mo":2,"sa":0,"ic":0},"geometry":{"type":"Polygon","coordinates":[[[-2.2709,53.79839],[-2.26989,53.79643],[-2.27049,53.796],[-2.27102,53.79628],[-2.27218,53.79481],[-2.27286,53.79515],[-2.27317,53.79496],[-2.27332,53.79443],[-2.27497,53.79331],[-2.2746,53.79291],[-2.27573,53.79267],[-2.27668,53.79194],[-2.27737,53.79232],[-2.27832,53.79182],[-2.28036,53.79215],[-2.28337,53.79343],[-2.28302,53.79366],[-2.28353,53.79409],[-2.28444,53.79381],[-2.28434,53.79408],[-2.28496,53.79509],[-2.28412,53.79519],[-2.28421,53.79599],[-2.28474,53.79614],[-2.28346,53.79675],[-2.28181,53.79652],[-2.28118,53.79615],[-2.2804,53.79607],[-2.28015,53.7964],[-2.27738,53.79649],[-2.27688,53.79706],[-2.27562,53.79668],[-2.27369,53.79806],[-2.27134,53.79878],[-2.2709,53.79839]]]}},{"type":"Feature","properties":{"id":"E01024881","name":"E01024881","parent":"E07000117","type":"LSOA","pop":1469,"r":233,"ff":91,"ffd":6194.7,"ffs":0.4946,"g":48,"co":3,"mo":2,"sa":0,"ic":0},"geometry":{"type":"Polygon","coordinates":[[[-2.26928,53.79711],[-2.26658,53.79498],[-2.26358,53.79265],[-2.26529,53.79129],[-2.2658,53.79176],[-2.26529,53.79204],[-2.26613,53.79237],[-2.26664,53.79213],[-2.26616,53.79139],[-2.26696,53.79142],[-2.26775,53.79105],[-2.268,53.79141],[-2.2689,53.791],[-2.26992,53.79177],[-2.27016,53.79161],[-2.26887,53.79278],[-2.27189,53.79433],[-2.27413,53.79278],[-2.2746,53.79291],[-2.27497,53.79331],[-2.27332,53.79443],[-2.27317,53.79496],[-2.27286,53.79515],[-2.27218,53.79481],[-2.27102,53.79628],[-2.27049,53.796],[-2.26989,53.79643],[-2.2709,53.79839],[-2.26928,53.79711]]]}},{"type":"Feature","properties":{"id":"E01024882","name":"E01024882","parent":"E07000117","type":"LSOA","pop":1608,"r":233,"ff":91,"ffd":5659.2,"ffs":0.4946,"g":48,"co":3,"mo":2,"sa":0,"ic":0},"geometry":{"type":"Polygon","coordinates":[[[-2.27047,53.79361],[-2.26887,53.79278],[-2.27016,53.79161],[-2.26992,53.79177],[-2.2689,53.791],[-2.268,53.79141],[-2.26775,53.79105],[-2.26696,53.79142],[-2.26616,53.79139],[-2.26664,53.79213],[-2.26613,53.79237],[-2.26529,53.79204],[-2.2658,53.79176],[-2.26557,53.79139],[-2.26643,53.79055],[-2.26525,53.78931],[-2.26767,53.7888],[-2.26773,53.78929],[-2.26827,53.78898],[-2.27136,53.78963],[-2.27339,53.78971],[-2.27516,53.79035],[-2.2782,53.79063],[-2.27573,53.79267],[-2.2746,53.79291],[-2.27413,53.79278],[-2.27189,53.79433],[-2.27047,53.79361]]]}},{"type":"Feature","properties":{"id":"E01024883","name":"E01024883","parent":"E07000117","type":"LSOA","pop":1573,"r":193,"ff":76,"ffd":4831.5,"ffs":0.5033,"g":41,"co":3,"mo":2,"sa":2,"ic":0},"geometry":{"type":"Polygon","coordinates":[[[-2.31131,53.81288],[-2.31041,53.81143],[-2.30932,53.81157],[-2.30422,53.80773],[-2.3009,53.80662],[-2.30483,53.80502],[-2.30713,53.80441],[-2.30762,53.80394],[-2.30794,53.80414],[-2.30938,53.80387],[-2.30961,53.8035],[-2.31005,53.80373],[-2.31057,53.80358],[-2.31071,53.80328],[-2.31093,53.80351],[-2.31192,53.80331],[-2.3122,53.8037],[-2.31199,53.80313],[-2.31258,53.80298],[-2.31326,53.80313],[-2.31345,53.80372],[-2.31576,53.8028],[-2.31607,53.80332],[-2.31663,53.80599],[-2.31739,53.80684],[-2.31699,53.8076],[-2.31732,53.80779],[-2.31694,53.81068],[-2.31748,53.81218],[-2.3156,53.81265],[-2.31504,53.81169],[-2.31318,53.81236],[-2.31289,53.81221],[-2.31131,53.81288]]]}},{"type":"Feature","properties":{"id":"E01024884","name":"E01024884","parent":"E07000117","type":"LSOA","pop":1701,"r":211,"ff":87,"ffd":5114.6,"ffs":0.5179,"g":42,"co":3,"mo":2,"sa":0,"ic":0},"geometry":{"type":"Polygon","coordinates":[[[-2.30483,53.80502],[-2.30474,53.80257],[-2.30351,53.80161],[-2.3058,53.801],[-2.3038,53.80058],[-2.30271,53.80087],[-2.30152,53.79986],[-2.30219,53.79941],[-2.30132,53.79964],[-2.29812,53.79745],[-2.29752,53.79632],[-2.29687,53.7963],[-2.29658,53.7946],[-2.29707,53.79444],[-2.29673,53.79413],[-2.29597,53.79413],[-2.29602,53.79308],[-2.29698,53.79288],[-2.29834,53.79328],[-2.30026,53.7932],[-2.3009,53.79343],[-2.30198,53.79323],[-2.30367,53.79343],[-2.30744,53.79592],[-2.30709,53.79606],[-2.30683,53.79592],[-2.3059,53.7965],[-2.30356,53.79606],[-2.30288,53.79672],[-2.30336,53.797],[-2.30312,53.79728],[-2.30843,53.79886],[-2.30797,53.79942],[-2.30838,53.7993],[-2.30875,53.80047],[-2.30772,53.80086],[-2.30897,53.80183],[-2.30817,53.80219],[-2.3091,53.80297],[-2.30942,53.80282],[-2.30961,53.80338],[-2.31071,53.80328],[-2.31057,53.80358],[-2.31005,53.80373],[-2.30961,53.8035],[-2.30938,53.80387],[-2.30794,53.80414],[-2.30762,53.80394],[-2.30713,53.80441],[-2.30483,53.80502]]]}},{"type":"Feature","properties":{"id":"E01024885","name":"E01024885","parent":"E07000117","type":"LSOA","pop":1690,"r":198,"ff":79,"ffd":4674.6,"ffs":0.5097,"g":42,"co":3,"mo":2,"sa":0,"ic":0},"geometry":{"type":"Polygon","coordinates":[[[-2.31326,53.80313],[-2.31258,53.80298],[-2.31199,53.80313],[-2.3122,53.8037],[-2.31192,53.80331],[-2.31093,53.80351],[-2.31071,53.80328],[-2.30961,53.80338],[-2.30942,53.80282],[-2.3091,53.80297],[-2.30817,53.80219],[-2.30897,53.80183],[-2.30772,53.80086],[-2.30875,53.80047],[-2.30838,53.7993],[-2.30797,53.79942],[-2.30843,53.79886],[-2.30876,53.7989],[-2.30864,53.79852],[-2.30921,53.79819],[-2.3085,53.79761],[-2.3094,53.7979],[-2.30961,53.79748],[-2.31128,53.79675],[-2.3108,53.7961],[-2.30941,53.79636],[-2.30934,53.7966],[-2.30895,53.79633],[-2.30988,53.79581],[-2.30874,53.79491],[-2.30866,53.7942],[-2.31081,53.79416],[-2.31258,53.79691],[-2.31432,53.79888],[-2.31893,53.79819],[-2.31838,53.79954],[-2.31678,53.8008],[-2.316,53.80095],[-2.31628,53.80117],[-2.3156,53.80225],[-2.31576,53.8028],[-2.31345,53.80372],[-2.31326,53.80313]]]}},{"type":"Feature","properties":{"id":"E01024886","name":"E01024886","parent":"E07000117","type":"LSOA","pop":1644,"r":206,"ff":83,"ffd":5048.7,"ffs":0.5092,"g":42,"co":3,"mo":2,"sa":0,"ic":0},"geometry":{"type":"Polygon","coordinates":[[[-2.30578,53.79811],[-2.30312,53.79728],[-2.30336,53.797],[-2.30288,53.79672],[-2.30356,53.79606],[-2.3059,53.7965],[-2.30683,53.79592],[-2.30709,53.79606],[-2.30744,53.79592],[-2.30367,53.79343],[-2.30683,53.79348],[-2.30694,53.79428],[-2.30866,53.7942],[-2.30874,53.79491],[-2.30988,53.79581],[-2.30895,53.79633],[-2.30934,53.7966],[-2.30941,53.79636],[-2.3108,53.7961],[-2.31128,53.79675],[-2.30961,53.79748],[-2.3094,53.7979],[-2.3085,53.79761],[-2.30921,53.79819],[-2.30864,53.79852],[-2.30876,53.7989],[-2.30578,53.79811]]]}},{"type":"Feature","properties":{"id":"E01024887","name":"E01024887","parent":"E07000117","type":"LSOA","pop":1526,"r":197,"ff":79,"ffd":5176.9,"ffs":0.5097,"g":41,"co":3,"mo":2,"sa":0,"ic":0},"geometry":{"type":"Polygon","coordinates":[[[-2.32818,53.79376],[-2.32613,53.79301],[-2.32304,53.79348],[-2.3228,53.79139],[-2.31835,53.7917],[-2.31672,53.79229],[-2.31433,53.7921],[-2.31286,53.79152],[-2.31126,53.79223],[-2.30331,53.7927],[-2.29935,53.78927],[-2.30033,53.78859],[-2.30168,53.78841],[-2.3016,53.7879],[-2.30349,53.78751],[-2.30395,53.78793],[-2.30495,53.78773],[-2.30696,53.78673],[-2.31359,53.78732],[-2.31396,53.78475],[-2.31303,53.78463],[-2.31362,53.78426],[-2.31454,53.78403],[-2.31566,53.78286],[-2.31483,53.78233],[-2.31632,53.78215],[-2.31603,53.78295],[-2.31714,53.78319],[-2.31657,53.78363],[-2.31857,53.78364],[-2.32185,53.78154],[-2.32605,53.78167],[-2.32634,53.78127],[-2.32812,53.7813],[-2.3283,53.78197],[-2.32903,53.78216],[-2.32972,53.78166],[-2.32933,53.78086],[-2.3316,53.78121],[-2.33329,53.78204],[-2.3358,53.7825],[-2.33613,53.7834],[-2.33558,53.78507],[-2.33713,53.786],[-2.33876,53.7891],[-2.33785,53.78955],[-2.33623,53.7917],[-2.33866,53.79217],[-2.33623,53.79343],[-2.33708,53.79464],[-2.33226,53.79548],[-2.32876,53.79434],[-2.32818,53.79376]]]}},{"type":"Feature","properties":{"id":"E01024888","name":"E01024888","parent":"E07000117","type":"LSOA","pop":1994,"r":204,"ff":82,"ffd":4112.3,"ffs":0.5093,"g":42,"co":3,"mo":2,"sa":2,"ic":0},"geometry":{"type":"Polygon","coordinates":[[[-2.29393,53.78857],[-2.29266,53.78737],[-2.29298,53.78664],[-2.29211,53.78647],[-2.2922,53.78569],[-2.29169,53.78538],[-2.29,53.78272],[-2.28973,53.77991],[-2.28771,53.77795],[-2.28657,53.77725],[-2.28579,53.77651],[-2.28041,53.77602],[-2.27865,53.77518],[-2.27631,53.77305],[-2.27798,53.77104],[-2.27817,53.77011],[-2.27684,53.76909],[-2.27502,53.7683],[-2.27416,53.76694],[-2.27136,53.76532],[-2.26951,53.76349],[-2.26879,53.76216],[-2.26914,53.76134],[-2.26836,53.75976],[-2.27052,53.75665],[-2.27416,53.7567],[-2.27618,53.75712],[-2.27678,53.75657],[-2.28157,53.75483],[-2.28758,53.75532],[-2.28891,53.7551],[-2.28971,53.75456],[-2.28964,53.75306],[-2.29527,53.75199],[-2.29934,53.75074],[-2.30135,53.74897],[-2.30274,53.74848],[-2.3031,53.74868],[-2.31411,53.74704],[-2.31372,53.75158],[-2.3164,53.75196],[-2.31992,53.75557],[-2.32214,53.7574],[-2.32601,53.75866],[-2.32667,53.75959],[-2.32785,53.75999],[-2.32854,53.76128],[-2.32804,53.7619],[-2.32836,53.76283],[-2.32786,53.76354],[-2.32908,53.76666],[-2.32876,53.76701],[-2.33012,53.76803],[-2.33037,53.76903],[-2.33117,53.7694],[-2.33124,53.76975],[-2.33066,53.77049],[-2.33117,53.77094],[-2.33037,53.77423],[-2.33168,53.77804],[-2.3312,53.77878],[-2.32925,53.77968],[-2.32926,53.78022],[-2.32998,53.78092],[-2.32933,53.78086],[-2.32972,53.78166],[-2.32903,53.78216],[-2.3283,53.78197],[-2.32812,53.7813],[-2.32634,53.78127],[-2.32605,53.78167],[-2.32185,53.78154],[-2.31857,53.78364],[-2.31657,53.78363],[-2.31714,53.78319],[-2.31603,53.78295],[-2.31632,53.78215],[-2.31483,53.78233],[-2.31566,53.78286],[-2.31454,53.78403],[-2.31362,53.78426],[-2.31303,53.78463],[-2.31396,53.78475],[-2.31359,53.78732],[-2.30696,53.78673],[-2.30495,53.78773],[-2.30395,53.78793],[-2.30349,53.78751],[-2.3016,53.7879],[-2.30168,53.78841],[-2.30033,53.78859],[-2.29754,53.79096],[-2.29552,53.78943],[-2.29368,53.78936],[-2.29393,53.78857]]]}},{"type":"Feature","properties":{"id":"E01024889","name":"E01024889","parent":"E07000117","type":"LSOA","pop":1278,"r":188,"ff":73,"ffd":5712.1,"ffs":0.5,"g":41,"co":3,"mo":2,"sa":2,"ic":0},"geometry":{"type":"Polygon","coordinates":[[[-2.31694,53.81068],[-2.31732,53.80779],[-2.31699,53.8076],[-2.31739,53.80684],[-2.31663,53.80599],[-2.31607,53.80332],[-2.3156,53.80225],[-2.31628,53.80117],[-2.316,53.80095],[-2.31678,53.8008],[-2.31838,53.79954],[-2.31893,53.79819],[-2.31814,53.79836],[-2.31841,53.79662],[-2.31764,53.79576],[-2.31759,53.79489],[-2.32054,53.79474],[-2.32206,53.79535],[-2.32398,53.79527],[-2.3257,53.79589],[-2.3263,53.79474],[-2.32595,53.79461],[-2.32818,53.79376],[-2.32876,53.79434],[-2.33226,53.79548],[-2.33708,53.79464],[-2.33623,53.79343],[-2.33866,53.79217],[-2.3411,53.79252],[-2.3408,53.79323],[-2.34127,53.79372],[-2.34085,53.79417],[-2.34231,53.79483],[-2.34063,53.79517],[-2.33859,53.79499],[-2.33622,53.79545],[-2.33615,53.79649],[-2.33524,53.79728],[-2.33548,53.79788],[-2.33466,53.79904],[-2.33495,53.79982],[-2.33469,53.80107],[-2.33215,53.80329],[-2.33216,53.80417],[-2.32982,53.80665],[-2.3291,53.80674],[-2.32885,53.80708],[-2.32639,53.80636],[-2.32582,53.80687],[-2.32531,53.80819],[-2.32311,53.81011],[-2.32179,53.81023],[-2.32092,53.81069],[-2.31969,53.81064],[-2.31892,53.81172],[-2.31763,53.81187],[-2.31748,53.81218],[-2.31694,53.81068]]]}},{"type":"Feature","properties":{"id":"E01024890","name":"E01024890","parent":"E07000117","type":"LSOA","pop":1680,"r":194,"ff":77,"ffd":4583.3,"ffs":0.5066,"g":41,"co":3,"mo":2,"sa":0,"ic":0},"geometry":{"type":"Polygon","coordinates":[[[-2.31151,53.79541],[-2.31081,53.79416],[-2.30694,53.79428],[-2.30683,53.79348],[-2.30475,53.79356],[-2.30331,53.7927],[-2.31126,53.79223],[-2.31286,53.79152],[-2.31433,53.7921],[-2.31672,53.79229],[-2.31835,53.7917],[-2.3228,53.79139],[-2.32304,53.79348],[-2.32613,53.79301],[-2.32818,53.79376],[-2.32595,53.79461],[-2.3263,53.79474],[-2.3257,53.79589],[-2.32398,53.79527],[-2.32206,53.79535],[-2.32054,53.79474],[-2.31759,53.79489],[-2.31764,53.79576],[-2.31841,53.79662],[-2.31814,53.79836],[-2.31501,53.79888],[-2.31432,53.79888],[-2.31151,53.79541]]]}},{"type":"Feature","properties":{"id":"E01024891","name":"E01024891","parent":"E07000117","type":"LSOA","pop":2072,"r":238,"ff":98,"ffd":4729.7,"ffs":0.5131,"g":46,"co":3,"mo":0,"sa":0,"ic":0},"geometry":{"type":"Polygon","coordinates":[[[-2.2223,53.81489],[-2.22269,53.8146],[-2.22384,53.81469],[-2.22469,53.81256],[-2.22402,53.81244],[-2.22206,53.81108],[-2.2223,53.81094],[-2.22149,53.8104],[-2.22389,53.80892],[-2.22968,53.81199],[-2.23164,53.81229],[-2.23493,53.81205],[-2.23541,53.81379],[-2.23325,53.81461],[-2.23122,53.81468],[-2.22882,53.81507],[-2.22795,53.81555],[-2.22419,53.81645],[-2.22397,53.81785],[-2.22173,53.81708],[-2.22175,53.8165],[-2.22213,53.81642],[-2.2223,53.81489]]]}},{"type":"Feature","properties":{"id":"E01024892","name":"E01024892","parent":"E07000117","type":"LSOA","pop":1666,"r":239,"ff":99,"ffd":5942.4,"ffs":0.5156,"g":46,"co":3,"mo":2,"sa":0,"ic":0},"geometry":{"type":"Polygon","coordinates":[[[-2.22036,53.81185],[-2.21999,53.81063],[-2.21975,53.81136],[-2.21857,53.81059],[-2.21734,53.81046],[-2.21735,53.81007],[-2.21811,53.80999],[-2.21804,53.80834],[-2.21514,53.80743],[-2.21666,53.8071],[-2.2151,53.80391],[-2.21668,53.79984],[-2.21904,53.79981],[-2.21945,53.80006],[-2.22027,53.79945],[-2.22262,53.80051],[-2.22283,53.80035],[-2.22434,53.80113],[-2.22371,53.80221],[-2.22404,53.80339],[-2.22551,53.80308],[-2.22623,53.80312],[-2.22637,53.8034],[-2.2264,53.80423],[-2.22601,53.80429],[-2.2266,53.80552],[-2.2263,53.80579],[-2.22693,53.80618],[-2.2258,53.80696],[-2.22611,53.80713],[-2.2238,53.80859],[-2.22364,53.80879],[-2.22389,53.80892],[-2.22149,53.8104],[-2.2223,53.81094],[-2.22206,53.81108],[-2.22157,53.81081],[-2.22036,53.81185]]]}},{"type":"Feature","properties":{"id":"E01024893","name":"E01024893","parent":"E07000117","type":"LSOA","pop":2085,"r":82,"ff":57,"ffd":2733.8,"ffs":0.7125,"g":2,"co":3,"mo":3,"sa":1,"ic":1},"geometry":{"type":"Polygon","coordinates":[[[-2.22623,53.80312],[-2.22551,53.80308],[-2.22404,53.80339],[-2.22371,53.80221],[-2.22434,53.80113],[-2.22283,53.80035],[-2.22262,53.80051],[-2.22027,53.79945],[-2.21945,53.80006],[-2.21904,53.79981],[-2.21668,53.79984],[-2.21784,53.79661],[-2.21953,53.79632],[-2.2209,53.79658],[-2.22231,53.79789],[-2.22657,53.79862],[-2.22857,53.79836],[-2.22927,53.79883],[-2.22814,53.80002],[-2.23017,53.8043],[-2.22611,53.80713],[-2.2258,53.80696],[-2.22693,53.80618],[-2.2263,53.80579],[-2.2266,53.80552],[-2.22601,53.80429],[-2.2264,53.80423],[-2.22623,53.80312]]]}},{"type":"Feature","properties":{"id":"E01024894","name":"E01024894","parent":"E07000117","type":"LSOA","pop":1399,"r":240,"ff":99,"ffd":7076.5,"ffs":0.5156,"g":47,"co":3,"mo":0,"sa":0,"ic":0},"geometry":{"type":"Polygon","coordinates":[[[-2.21768,53.81552],[-2.21946,53.81423],[-2.21893,53.81398],[-2.2178,53.81283],[-2.21658,53.81232],[-2.21737,53.8108],[-2.21535,53.8108],[-2.21505,53.81018],[-2.21735,53.81007],[-2.21734,53.81046],[-2.21857,53.81059],[-2.21975,53.81136],[-2.21999,53.81063],[-2.22036,53.81185],[-2.22157,53.81081],[-2.22402,53.81244],[-2.22469,53.81256],[-2.22384,53.81469],[-2.22269,53.8146],[-2.2223,53.81489],[-2.22213,53.81642],[-2.22175,53.8165],[-2.22173,53.81708],[-2.21768,53.81552]]]}},{"type":"Feature","properties":{"id":"E01024895","name":"E01024895","parent":"E07000117","type":"LSOA","pop":2136,"r":239,"ff":98,"ffd":4588.0,"ffs":0.5131,"g":47,"co":3,"mo":0,"sa":0,"ic":0},"geometry":{"type":"Polygon","coordinates":[[[-2.23482,53.80773],[-2.23474,53.80655],[-2.23639,53.8065],[-2.23604,53.80629],[-2.23643,53.80611],[-2.23605,53.80569],[-2.23625,53.80484],[-2.23591,53.8048],[-2.2357,53.80544],[-2.2347,53.80545],[-2.23464,53.80574],[-2.23305,53.80583],[-2.23161,53.80534],[-2.23047,53.80608],[-2.22887,53.8052],[-2.23251,53.80285],[-2.23423,53.80219],[-2.23542,53.80253],[-2.23556,53.80235],[-2.23826,53.80633],[-2.23916,53.80657],[-2.23855,53.80698],[-2.23901,53.80759],[-2.23737,53.80744],[-2.23728,53.80766],[-2.23482,53.80773]]]}},{"type":"Feature","properties":{"id":"E01024896","name":"E01024896","parent":"E07000117","type":"LSOA","pop":1564,"r":243,"ff":99,"ffd":6329.9,"ffs":0.513,"g":49,"co":3,"mo":0,"sa":0,"ic":0},"geometry":{"type":"Polygon","coordinates":[[[-2.24244,53.80991],[-2.24143,53.80882],[-2.24149,53.80919],[-2.24065,53.80962],[-2.23992,53.80962],[-2.23977,53.80992],[-2.23931,53.8096],[-2.23901,53.80993],[-2.23829,53.80993],[-2.23825,53.80938],[-2.23679,53.80942],[-2.23657,53.80768],[-2.23728,53.80766],[-2.23737,53.80744],[-2.23901,53.80759],[-2.23855,53.80698],[-2.23916,53.80657],[-2.24119,53.80792],[-2.24367,53.80758],[-2.2445,53.806],[-2.2454,53.80616],[-2.24651,53.80671],[-2.24749,53.8067],[-2.25146,53.80944],[-2.25159,53.80986],[-2.24995,53.81022],[-2.24904,53.81086],[-2.2489,53.81191],[-2.24163,53.81293],[-2.24174,53.81148],[-2.24116,53.81129],[-2.24244,53.80991]]]}},{"type":"Feature","properties":{"id":"E01024897","name":"E01024897","parent":"E07000117","type":"LSOA","pop":1625,"r":239,"ff":98,"ffd":6030.8,"ffs":0.5104,"g":46,"co":3,"mo":0,"sa":0,"ic":0},"geometry":{"type":"Polygon","coordinates":[[[-2.23541,53.81379],[-2.23493,53.81205],[-2.23164,53.81229],[-2.22968,53.81199],[-2.22364,53.80879],[-2.22584,53.8073],[-2.22773,53.80825],[-2.22738,53.80849],[-2.22793,53.80878],[-2.22857,53.80833],[-2.23074,53.8094],[-2.2323,53.80834],[-2.23233,53.80856],[-2.23407,53.8083],[-2.2343,53.80952],[-2.23825,53.80938],[-2.23829,53.80993],[-2.23901,53.80993],[-2.23931,53.8096],[-2.23977,53.80992],[-2.23992,53.80962],[-2.24065,53.80962],[-2.24149,53.80919],[-2.24143,53.80882],[-2.24244,53.80991],[-2.24116,53.81129],[-2.24174,53.81148],[-2.24163,53.81293],[-2.23541,53.81379]]]}},{"type":"Feature","properties":{"id":"E01024898","name":"E01024898","parent":"E07000117","type":"LSOA","pop":2148,"r":238,"ff":98,"ffd":4562.4,"ffs":0.5158,"g":47,"co":3,"mo":0,"sa":0,"ic":0},"geometry":{"type":"Polygon","coordinates":[[[-2.23427,53.80941],[-2.23407,53.8083],[-2.23233,53.80856],[-2.2323,53.80834],[-2.23074,53.8094],[-2.22857,53.80833],[-2.22793,53.80878],[-2.22738,53.80849],[-2.22773,53.80825],[-2.22584,53.8073],[-2.22887,53.8052],[-2.23047,53.80608],[-2.23161,53.80534],[-2.23305,53.80583],[-2.23464,53.80574],[-2.2347,53.80545],[-2.2357,53.80544],[-2.23591,53.8048],[-2.23625,53.80484],[-2.23605,53.80569],[-2.23643,53.80611],[-2.23604,53.80629],[-2.23639,53.8065],[-2.23474,53.80655],[-2.23482,53.80773],[-2.23657,53.80768],[-2.23679,53.80942],[-2.23427,53.80941]]]}},{"type":"Feature","properties":{"id":"E01024899","name":"E01024899","parent":"E07000117","type":"LSOA","pop":1667,"r":229,"ff":91,"ffd":5458.9,"ffs":0.5056,"g":48,"co":3,"mo":2,"sa":0,"ic":0},"geometry":{"type":"Polygon","coordinates":[[[-2.28428,53.7881],[-2.28399,53.78738],[-2.28282,53.78771],[-2.28241,53.78727],[-2.28229,53.78672],[-2.2798,53.78719],[-2.27928,53.7868],[-2.27802,53.7868],[-2.2769,53.78564],[-2.27571,53.7857],[-2.27577,53.78545],[-2.27514,53.7853],[-2.2749,53.78582],[-2.27255,53.78617],[-2.27244,53.78569],[-2.27074,53.78554],[-2.27097,53.78619],[-2.27037,53.78629],[-2.26998,53.78522],[-2.27018,53.78474],[-2.27122,53.78466],[-2.27114,53.7841],[-2.27079,53.78395],[-2.27172,53.78409],[-2.27269,53.78381],[-2.27265,53.78278],[-2.27587,53.78169],[-2.27681,53.78207],[-2.28771,53.77795],[-2.28973,53.77991],[-2.29,53.78272],[-2.29169,53.78538],[-2.2892,53.78562],[-2.28873,53.78635],[-2.28642,53.78642],[-2.28675,53.78728],[-2.2846,53.78801],[-2.28475,53.78817],[-2.28428,53.7881]]]}},{"type":"Feature","properties":{"id":"E01024900","name":"E01024900","parent":"E07000117","type":"LSOA","pop":1767,"r":228,"ff":91,"ffd":5150.0,"ffs":0.5056,"g":47,"co":3,"mo":2,"sa":0,"ic":0},"geometry":{"type":"Polygon","coordinates":[[[-2.26773,53.78929],[-2.26702,53.78703],[-2.26746,53.78695],[-2.26706,53.78401],[-2.26382,53.77962],[-2.26622,53.77924],[-2.2687,53.77845],[-2.26956,53.77787],[-2.27114,53.77859],[-2.27093,53.77914],[-2.27169,53.7793],[-2.27275,53.77918],[-2.27385,53.77943],[-2.27293,53.78051],[-2.27587,53.78169],[-2.27265,53.78278],[-2.27269,53.78381],[-2.27172,53.78409],[-2.27079,53.78395],[-2.27114,53.7841],[-2.27122,53.78466],[-2.27018,53.78474],[-2.26998,53.78522],[-2.27037,53.78629],[-2.27097,53.78619],[-2.27074,53.78554],[-2.27244,53.78569],[-2.27255,53.78617],[-2.2749,53.78582],[-2.27514,53.7853],[-2.27577,53.78545],[-2.27571,53.7857],[-2.2769,53.78564],[-2.27802,53.7868],[-2.27928,53.7868],[-2.2798,53.78719],[-2.26975,53.78924],[-2.26827,53.78898],[-2.26773,53.78929]]]}},{"type":"Feature","properties":{"id":"E01024901","name":"E01024901","parent":"E07000117","type":"LSOA","pop":1729,"r":215,"ff":90,"ffd":5205.3,"ffs":0.5233,"g":42,"co":3,"mo":2,"sa":0,"ic":0},"geometry":{"type":"Polygon","coordinates":[[[-2.30367,53.79343],[-2.30198,53.79323],[-2.3009,53.79343],[-2.30026,53.7932],[-2.29834,53.79328],[-2.29698,53.79288],[-2.29602,53.79308],[-2.29464,53.79263],[-2.28661,53.79272],[-2.28561,53.79308],[-2.28501,53.79265],[-2.28525,53.79193],[-2.28802,53.79137],[-2.28811,53.79103],[-2.28712,53.79015],[-2.28624,53.78993],[-2.2846,53.78801],[-2.28675,53.78728],[-2.28642,53.78642],[-2.28873,53.78635],[-2.2892,53.78562],[-2.29169,53.78538],[-2.2922,53.78569],[-2.29211,53.78647],[-2.29298,53.78664],[-2.29266,53.78737],[-2.29393,53.78857],[-2.29368,53.78936],[-2.29552,53.78943],[-2.29754,53.79096],[-2.29935,53.78927],[-2.30331,53.7927],[-2.30443,53.79336],[-2.30367,53.79343]]]}},{"type":"Feature","properties":{"id":"E01024902","name":"E01024902","parent":"E07000117","type":"LSOA","pop":2050,"r":224,"ff":90,"ffd":4390.2,"ffs":0.5085,"g":46,"co":3,"mo":2,"sa":0,"ic":0},"geometry":{"type":"Polygon","coordinates":[[[-2.28036,53.79215],[-2.27832,53.79182],[-2.27737,53.79232],[-2.27668,53.79194],[-2.2782,53.79063],[-2.27516,53.79035],[-2.27339,53.78971],[-2.27136,53.78963],[-2.26975,53.78924],[-2.28229,53.78672],[-2.28241,53.78727],[-2.28282,53.78771],[-2.28399,53.78738],[-2.28428,53.7881],[-2.28475,53.78817],[-2.28624,53.78993],[-2.28712,53.79015],[-2.28811,53.79103],[-2.28802,53.79137],[-2.28525,53.79193],[-2.28501,53.79265],[-2.28561,53.79308],[-2.28444,53.79381],[-2.28353,53.79409],[-2.28302,53.79366],[-2.28337,53.79343],[-2.28036,53.79215]]]}},{"type":"Feature","properties":{"id":"E01024903","name":"E01024903","parent":"E07000117","type":"LSOA","pop":1273,"r":221,"ff":91,"ffd":7148.5,"ffs":0.5112,"g":42,"co":3,"mo":2,"sa":0,"ic":0},"geometry":{"type":"Polygon","coordinates":[[[-2.24431,53.77776],[-2.24354,53.77726],[-2.24364,53.77616],[-2.24452,53.77559],[-2.24417,53.77499],[-2.25203,53.77364],[-2.25221,53.77404],[-2.25117,53.77411],[-2.2521,53.77458],[-2.25243,53.77568],[-2.25305,53.77586],[-2.25275,53.77631],[-2.25343,53.7765],[-2.25202,53.7771],[-2.2528,53.77732],[-2.25282,53.77817],[-2.25229,53.77825],[-2.25185,53.77789],[-2.24913,53.77807],[-2.24746,53.77789],[-2.24705,53.77755],[-2.24484,53.77937],[-2.24539,53.78011],[-2.24489,53.78036],[-2.24431,53.77776]]]}},{"type":"Feature","properties":{"id":"E01024904","name":"E01024904","parent":"E07000117","type":"LSOA","pop":1897,"r":221,"ff":88,"ffd":4638.9,"ffs":0.5,"g":44,"co":3,"mo":2,"sa":0,"ic":0},"geometry":{"type":"Polygon","coordinates":[[[-2.22626,53.78388],[-2.22263,53.77959],[-2.21946,53.77827],[-2.21751,53.77725],[-2.2161,53.77701],[-2.21649,53.77611],[-2.2171,53.7735],[-2.21925,53.7716],[-2.222,53.77025],[-2.22556,53.7696],[-2.22849,53.77176],[-2.22854,53.77267],[-2.22968,53.77342],[-2.23277,53.77635],[-2.23408,53.77616],[-2.23692,53.77696],[-2.23799,53.77604],[-2.24063,53.77574],[-2.24169,53.77593],[-2.24214,53.77489],[-2.24417,53.77499],[-2.24452,53.77559],[-2.24364,53.77616],[-2.24354,53.77726],[-2.24431,53.77776],[-2.24489,53.78036],[-2.24438,53.78059],[-2.24372,53.77988],[-2.24266,53.78029],[-2.24146,53.78138],[-2.24011,53.78082],[-2.23942,53.78131],[-2.23813,53.78051],[-2.23757,53.78085],[-2.2366,53.78042],[-2.23624,53.7806],[-2.23644,53.78105],[-2.23736,53.78179],[-2.23557,53.78208],[-2.23511,53.78054],[-2.23403,53.78074],[-2.23469,53.78143],[-2.23358,53.78152],[-2.23335,53.78107],[-2.23257,53.78132],[-2.23242,53.78104],[-2.23203,53.78111],[-2.23162,53.78149],[-2.23238,53.78168],[-2.23274,53.78325],[-2.23185,53.78332],[-2.23221,53.78411],[-2.23124,53.78428],[-2.23205,53.78551],[-2.22881,53.78482],[-2.22626,53.78388]]]}},{"type":"Feature","properties":{"id":"E01024905","name":"E01024905","parent":"E07000117","type":"LSOA","pop":1279,"r":224,"ff":91,"ffd":7114.9,"ffs":0.5112,"g":45,"co":3,"mo":2,"sa":0,"ic":0},"geometry":{"type":"Polygon","coordinates":[[[-2.2539,53.78161],[-2.25054,53.78044],[-2.24746,53.77789],[-2.24913,53.77807],[-2.25185,53.77789],[-2.25229,53.77825],[-2.25282,53.77817],[-2.2528,53.77732],[-2.25202,53.7771],[-2.25343,53.7765],[-2.25275,53.77631],[-2.25305,53.77586],[-2.25243,53.77568],[-2.2521,53.77458],[-2.25117,53.77411],[-2.25221,53.77404],[-2.25203,53.77364],[-2.25665,53.77383],[-2.25413,53.77736],[-2.25434,53.77911],[-2.25545,53.77916],[-2.25549,53.78069],[-2.25527,53.78154],[-2.25397,53.7814],[-2.2539,53.78161]]]}},{"type":"Feature","properties":{"id":"E01024906","name":"E01024906","parent":"E07000117","type":"LSOA","pop":2327,"r":87,"ff":59,"ffd":2535.5,"ffs":0.6941,"g":2,"co":3,"mo":3,"sa":1,"ic":1},"geometry":{"type":"Polygon","coordinates":[[[-2.23434,53.78577],[-2.23384,53.78524],[-2.23205,53.78551],[-2.23124,53.78428],[-2.23221,53.78411],[-2.23185,53.78332],[-2.23274,53.78325],[-2.23238,53.78168],[-2.23162,53.78149],[-2.23203,53.78111],[-2.23242,53.78104],[-2.23257,53.78132],[-2.23335,53.78107],[-2.23358,53.78152],[-2.23469,53.78143],[-2.23403,53.78074],[-2.23511,53.78054],[-2.23557,53.78208],[-2.2368,53.78199],[-2.23736,53.78179],[-2.23644,53.78105],[-2.23624,53.7806],[-2.2366,53.78042],[-2.23757,53.78085],[-2.23813,53.78051],[-2.23939,53.78133],[-2.24191,53.78237],[-2.24574,53.78338],[-2.2487,53.78472],[-2.24787,53.78488],[-2.24712,53.78557],[-2.24204,53.78605],[-2.24083,53.78656],[-2.23936,53.78655],[-2.2371,53.78604],[-2.23434,53.78577]]]}},{"type":"Feature","properties":{"id":"E01024907","name":"E01024907","parent":"E07000117","type":"LSOA","pop":1420,"r":233,"ff":94,"ffd":6619.7,"ffs":0.5137,"g":49,"co":3,"mo":2,"sa":0,"ic":0},"geometry":{"type":"Polygon","coordinates":[[[-2.258,53.78974],[-2.25674,53.78939],[-2.25617,53.79017],[-2.25437,53.78936],[-2.25654,53.78795],[-2.25714,53.78796],[-2.25695,53.787],[-2.25482,53.78637],[-2.25549,53.78579],[-2.25482,53.78552],[-2.25569,53.78503],[-2.25578,53.78442],[-2.25666,53.78365],[-2.25573,53.78324],[-2.25613,53.78332],[-2.25632,53.78302],[-2.25819,53.78389],[-2.25831,53.78336],[-2.25927,53.78379],[-2.25967,53.78342],[-2.26027,53.78344],[-2.26114,53.78476],[-2.26193,53.78465],[-2.26204,53.7849],[-2.26084,53.78515],[-2.26053,53.78487],[-2.25984,53.78488],[-2.25953,53.78441],[-2.25944,53.78481],[-2.25862,53.78494],[-2.25907,53.78707],[-2.25994,53.78695],[-2.26011,53.78741],[-2.25971,53.78747],[-2.26071,53.78806],[-2.26061,53.78835],[-2.2613,53.78814],[-2.26404,53.78856],[-2.26406,53.78894],[-2.26525,53.78931],[-2.26595,53.79003],[-2.26175,53.79098],[-2.25913,53.7918],[-2.25784,53.79071],[-2.25798,53.79042],[-2.25682,53.79027],[-2.258,53.78974]]]}},{"type":"Feature","properties":{"id":"E01024908","name":"E01024908","parent":"E07000117","type":"LSOA","pop":1802,"r":235,"ff":94,"ffd":5216.4,"ffs":0.5081,"g":49,"co":3,"mo":2,"sa":0,"ic":0},"geometry":{"type":"Polygon","coordinates":[[[-2.26404,53.78856],[-2.2613,53.78814],[-2.26061,53.78835],[-2.26071,53.78806],[-2.25971,53.78747],[-2.26011,53.78741],[-2.25994,53.78695],[-2.25907,53.78707],[-2.25862,53.78494],[-2.25944,53.78481],[-2.25953,53.78441],[-2.25984,53.78488],[-2.26053,53.78487],[-2.26084,53.78515],[-2.26204,53.7849],[-2.26193,53.78465],[-2.26698,53.78388],[-2.26718,53.78433],[-2.26746,53.78695],[-2.26702,53.78703],[-2.26767,53.7888],[-2.26525,53.78931],[-2.26406,53.78894],[-2.26404,53.78856]]]}},{"type":"Feature","properties":{"id":"E01024909","name":"E01024909","parent":"E07000117","type":"LSOA","pop":1835,"r":234,"ff":93,"ffd":5068.1,"ffs":0.5082,"g":50,"co":3,"mo":2,"sa":0,"ic":0},"geometry":{"type":"Polygon","coordinates":[[[-2.24976,53.79384],[-2.24831,53.79258],[-2.2473,53.7927],[-2.24721,53.79194],[-2.24798,53.79137],[-2.24803,53.79048],[-2.24907,53.78946],[-2.24768,53.78841],[-2.24689,53.78816],[-2.24528,53.78691],[-2.24614,53.78626],[-2.24561,53.78561],[-2.24712,53.78557],[-2.24787,53.78488],[-2.2487,53.78472],[-2.24574,53.78338],[-2.24596,53.78318],[-2.24761,53.7836],[-2.24984,53.78237],[-2.25119,53.78292],[-2.25145,53.78275],[-2.25426,53.78342],[-2.25386,53.78398],[-2.25419,53.78417],[-2.25328,53.78492],[-2.2536,53.78507],[-2.25301,53.78515],[-2.25335,53.78529],[-2.25363,53.78506],[-2.25549,53.78579],[-2.25482,53.78637],[-2.25695,53.787],[-2.25714,53.78796],[-2.25654,53.78795],[-2.25437,53.78936],[-2.25617,53.79017],[-2.25674,53.78939],[-2.258,53.78974],[-2.25682,53.79027],[-2.25798,53.79042],[-2.25784,53.79071],[-2.25913,53.7918],[-2.25704,53.7928],[-2.25383,53.79557],[-2.25319,53.79648],[-2.24976,53.79384]]]}},{"type":"Feature","properties":{"id":"E01024910","name":"E01024910","parent":"E07000117","type":"LSOA","pop":1511,"r":227,"ff":92,"ffd":6088.7,"ffs":0.514,"g":47,"co":3,"mo":2,"sa":0,"ic":0},"geometry":{"type":"Polygon","coordinates":[[[-2.25482,53.78552],[-2.25363,53.78506],[-2.25335,53.78529],[-2.25301,53.78515],[-2.2536,53.78507],[-2.25328,53.78492],[-2.25419,53.78417],[-2.25386,53.78398],[-2.25426,53.78342],[-2.25145,53.78275],[-2.25119,53.78292],[-2.24984,53.78237],[-2.24761,53.7836],[-2.24596,53.78318],[-2.24574,53.78338],[-2.24191,53.78237],[-2.23939,53.78133],[-2.24011,53.78082],[-2.24146,53.78138],[-2.24266,53.78029],[-2.24372,53.77988],[-2.24438,53.78059],[-2.24489,53.78036],[-2.24539,53.78011],[-2.24484,53.77937],[-2.24705,53.77755],[-2.25054,53.78044],[-2.2539,53.78161],[-2.25368,53.78243],[-2.2554,53.7826],[-2.25632,53.78302],[-2.25613,53.78332],[-2.25573,53.78324],[-2.25666,53.78365],[-2.25578,53.78442],[-2.25569,53.78503],[-2.25482,53.78552]]]}},{"type":"Feature","properties":{"id":"E01024911","name":"E01024911","parent":"E07000117","type":"LSOA","pop":1901,"r":232,"ff":94,"ffd":4944.8,"ffs":0.5081,"g":46,"co":3,"mo":2,"sa":0,"ic":0},"geometry":{"type":"Polygon","coordinates":[[[-2.25815,53.79658],[-2.25749,53.79544],[-2.25464,53.79594],[-2.25383,53.79557],[-2.25704,53.7928],[-2.25913,53.7918],[-2.26175,53.79098],[-2.26595,53.79003],[-2.26643,53.79055],[-2.26557,53.79139],[-2.26529,53.79129],[-2.26358,53.79265],[-2.26658,53.79498],[-2.26485,53.79598],[-2.26446,53.79578],[-2.26436,53.79539],[-2.26403,53.79544],[-2.26225,53.79642],[-2.26366,53.79787],[-2.26194,53.79864],[-2.26172,53.79927],[-2.26122,53.7994],[-2.25905,53.79774],[-2.25815,53.79658]]]}},{"type":"Feature","properties":{"id":"E01024912","name":"E01024912","parent":"E07000117","type":"LSOA","pop":1307,"r":222,"ff":91,"ffd":6962.5,"ffs":0.5141,"g":44,"co":3,"mo":2,"sa":0,"ic":0},"geometry":{"type":"Polygon","coordinates":[[[-2.30237,53.81376],[-2.30195,53.81355],[-2.29978,53.8139],[-2.29832,53.81506],[-2.29644,53.81386],[-2.29718,53.81317],[-2.29672,53.81293],[-2.29699,53.812],[-2.29773,53.81172],[-2.29556,53.80875],[-2.2946,53.80847],[-2.29285,53.80902],[-2.29056,53.80929],[-2.28823,53.80891],[-2.28829,53.8087],[-2.28464,53.80767],[-2.28432,53.80719],[-2.28494,53.80676],[-2.28255,53.80475],[-2.27914,53.80268],[-2.27899,53.8032],[-2.2782,53.8024],[-2.27612,53.80127],[-2.27543,53.80142],[-2.27391,53.80105],[-2.27443,53.80035],[-2.27363,53.79919],[-2.27508,53.79909],[-2.27718,53.79832],[-2.2737,53.79807],[-2.27156,53.79872],[-2.27369,53.79806],[-2.27562,53.79668],[-2.27688,53.79706],[-2.27738,53.79649],[-2.28015,53.7964],[-2.28293,53.79722],[-2.28479,53.79738],[-2.29002,53.79716],[-2.29752,53.79632],[-2.29812,53.79745],[-2.30132,53.79964],[-2.30219,53.79941],[-2.30152,53.79986],[-2.30271,53.80087],[-2.3038,53.80058],[-2.3058,53.801],[-2.30351,53.80161],[-2.30474,53.80257],[-2.30483,53.80502],[-2.3009,53.80662],[-2.30422,53.80773],[-2.30932,53.81157],[-2.31041,53.81143],[-2.31131,53.81288],[-2.31206,53.81258],[-2.31,53.81417],[-2.30925,53.81708],[-2.30846,53.81816],[-2.30195,53.82115],[-2.30169,53.82085],[-2.30209,53.82022],[-2.30318,53.82006],[-2.30388,53.81953],[-2.3038,53.81865],[-2.30283,53.81779],[-2.30297,53.8147],[-2.30237,53.81376]]]}},{"type":"Feature","properties":{"id":"E01024913","name":"E01024913","parent":"E07000117","type":"LSOA","pop":1282,"r":227,"ff":94,"ffd":7332.3,"ffs":0.5165,"g":44,"co":3,"mo":2,"sa":0,"ic":0},"geometry":{"type":"Polygon","coordinates":[[[-2.2572,53.80063],[-2.25771,53.79891],[-2.25655,53.79834],[-2.25453,53.79779],[-2.25319,53.79648],[-2.25383,53.79557],[-2.25464,53.79594],[-2.25749,53.79544],[-2.25905,53.79774],[-2.26122,53.7994],[-2.26172,53.79927],[-2.26194,53.79864],[-2.26366,53.79787],[-2.26225,53.79642],[-2.26436,53.79539],[-2.26446,53.79578],[-2.26364,53.79645],[-2.26452,53.79752],[-2.26408,53.7983],[-2.26422,53.79883],[-2.26522,53.79925],[-2.26666,53.80038],[-2.26147,53.80181],[-2.26181,53.80207],[-2.2578,53.80101],[-2.2572,53.80063]]]}},{"type":"Feature","properties":{"id":"E01024914","name":"E01024914","parent":"E07000117","type":"LSOA","pop":1359,"r":228,"ff":95,"ffd":6990.4,"ffs":0.5191,"g":44,"co":3,"mo":2,"sa":0,"ic":0},"geometry":{"type":"Polygon","coordinates":[[[-2.26107,53.80777],[-2.26208,53.8065],[-2.26094,53.80484],[-2.26224,53.80426],[-2.26278,53.80356],[-2.26147,53.80181],[-2.26666,53.80038],[-2.26522,53.79925],[-2.26422,53.79883],[-2.26408,53.7983],[-2.26452,53.79752],[-2.26364,53.79645],[-2.26446,53.79578],[-2.26485,53.79598],[-2.26658,53.79498],[-2.27134,53.79878],[-2.2737,53.79807],[-2.27718,53.79832],[-2.27508,53.79909],[-2.27363,53.79919],[-2.27443,53.80035],[-2.27391,53.80105],[-2.27543,53.80142],[-2.27612,53.80127],[-2.2782,53.8024],[-2.27899,53.8032],[-2.27914,53.80268],[-2.28255,53.80475],[-2.28494,53.80676],[-2.28432,53.80719],[-2.28464,53.80767],[-2.283,53.80725],[-2.2816,53.8079],[-2.28025,53.80805],[-2.2792,53.80915],[-2.27908,53.8104],[-2.27682,53.81259],[-2.27535,53.81276],[-2.27302,53.81413],[-2.26989,53.81505],[-2.26877,53.81475],[-2.2682,53.81406],[-2.26848,53.81319],[-2.26689,53.81188],[-2.26631,53.80993],[-2.26205,53.80961],[-2.26096,53.8085],[-2.26107,53.80777]]]}}]}