{"type":"FeatureCollection","features":[{"type":"Feature","properties":{"id":"E01021819","name":"E01021819","parent":"E07000073","type":"LSOA","pop":1692,"r":166,"ff":70,"ffd":4137.1,"ffs":0.5109,"g":28,"co":0,"mo":2,"sa":0,"ic":0},"geometry":{"type":"Polygon","coordinates":[[[0.12051,51.76449],[0.12054,51.76313],[0.12011,51.76289],[0.12087,51.76221],[0.12053,51.76182],[0.12082,51.76165],[0.11978,51.76095],[0.11982,51.76038],[0.12108,51.76086],[0.12109,51.76042],[0.12176,51.76032],[0.12188,51.75913],[0.1213,51.75831],[0.11909,51.75817],[0.11909,51.75845],[0.11773,51.75858],[0.11753,51.75923],[0.11532,51.75885],[0.11517,51.75906],[0.11711,51.75969],[0.11701,51.76044],[0.11783,51.76052],[0.11681,51.76155],[0.11668,51.76115],[0.11617,51.76109],[0.11616,51.76229],[0.11805,51.763],[0.11789,51.76357],[0.1154,51.76277],[0.11526,51.76328],[0.11403,51.76351],[0.11397,51.76315],[0.11333,51.76319],[0.11298,51.76393],[0.11133,51.76369],[0.1127,51.76461],[0.11243,51.76515],[0.12051,51.76449]]]}},{"type":"Feature","properties":{"id":"E01021820","name":"E01021820","parent":"E07000073","type":"LSOA","pop":1556,"r":174,"ff":72,"ffd":4627.2,"ffs":0.5106,"g":32,"co":0,"mo":2,"sa":0,"ic":0},"geometry":{"type":"Polygon","coordinates":[[[0.1127,51.76461],[0.11133,51.76369],[0.11298,51.76393],[0.11333,51.76319],[0.11397,51.76315],[0.11403,51.76351],[0.11526,51.76328],[0.1154,51.76277],[0.11789,51.76357],[0.11805,51.763],[0.11616,51.76229],[0.11623,51.76063],[0.11566,51.76052],[0.11513,51.76108],[0.11394,51.76105],[0.11431,51.7603],[0.11232,51.76054],[0.11169,51.76037],[0.11221,51.76009],[0.11115,51.75983],[0.10973,51.7605],[0.10932,51.75979],[0.10809,51.75919],[0.10796,51.75925],[0.10871,51.75987],[0.10804,51.76085],[0.10667,51.76102],[0.1077,51.76136],[0.10675,51.76254],[0.10602,51.76463],[0.10463,51.7648],[0.10551,51.76609],[0.11243,51.76515],[0.1127,51.76461]]]}},{"type":"Feature","properties":{"id":"E01021821","name":"E01021821","parent":"E07000073","type":"LSOA","pop":1413,"r":168,"ff":71,"ffd":5024.8,"ffs":0.5145,"g":29,"co":0,"mo":2,"sa":0,"ic":0},"geometry":{"type":"Polygon","coordinates":[[[0.12667,51.7611],[0.12763,51.75641],[0.12447,51.75629],[0.118,51.75668],[0.11741,51.7573],[0.11851,51.75748],[0.11807,51.75826],[0.1213,51.75831],[0.12188,51.75913],[0.12176,51.76032],[0.12109,51.76042],[0.12108,51.76086],[0.11982,51.76038],[0.11978,51.76095],[0.12082,51.76165],[0.12053,51.76182],[0.12087,51.76221],[0.12011,51.76289],[0.12054,51.76313],[0.12051,51.76449],[0.126,51.76377],[0.12667,51.7611]]]}},{"type":"Feature","properties":{"id":"E01021822","name":"E01021822","parent":"E07000073","type":"LSOA","pop":1792,"r":173,"ff":72,"ffd":4017.9,"ffs":0.507,"g":30,"co":0,"mo":2,"sa":0,"ic":0},"geometry":{"type":"Polygon","coordinates":[[[0.10796,51.75925],[0.10932,51.75979],[0.10973,51.7605],[0.11115,51.75983],[0.11062,51.7594],[0.1108,51.75778],[0.1112,51.75752],[0.11058,51.75704],[0.11079,51.75679],[0.11171,51.75702],[0.11274,51.75579],[0.11046,51.75545],[0.11022,51.75574],[0.10933,51.75566],[0.10974,51.75472],[0.10636,51.75405],[0.10636,51.75545],[0.10574,51.75574],[0.10433,51.75829],[0.10364,51.75903],[0.10409,51.75918],[0.10361,51.75965],[0.1063,51.76032],[0.10588,51.76078],[0.10667,51.76102],[0.10804,51.76085],[0.10871,51.75987],[0.10796,51.75925]]]}},{"type":"Feature","properties":{"id":"E01021823","name":"E01021823","parent":"E07000073","type":"LSOA","pop":1930,"r":174,"ff":74,"ffd":3834.2,"ffs":0.5103,"g":28,"co":0,"mo":2,"sa":0,"ic":0},"geometry":{"type":"Polygon","coordinates":[[[0.11783,51.76052],[0.11701,51.76044],[0.11711,51.75969],[0.11517,51.75906],[0.11532,51.75885],[0.11753,51.75923],[0.11773,51.75858],[0.11909,51.75845],[0.11909,51.75817],[0.11807,51.75826],[0.11851,51.75748],[0.11741,51.7573],[0.118,51.75668],[0.11808,51.75506],[0.11504,51.75482],[0.11125,51.75419],[0.11072,51.75496],[0.10974,51.75472],[0.10933,51.75566],[0.11022,51.75574],[0.11046,51.75545],[0.11274,51.75579],[0.11171,51.75702],[0.11079,51.75679],[0.11058,51.75704],[0.1112,51.75752],[0.1108,51.75778],[0.11062,51.7594],[0.11115,51.75983],[0.11221,51.76009],[0.11169,51.76037],[0.11232,51.76054],[0.11431,51.7603],[0.11394,51.76105],[0.11513,51.76108],[0.11566,51.76052],[0.11623,51.76063],[0.11617,51.76109],[0.11668,51.76115],[0.11681,51.76155],[0.11783,51.76052]]]}},{"type":"Feature","properties":{"id":"E01021824","name":"E01021824","parent":"E07000073","type":"LSOA","pop":1752,"r":155,"ff":64,"ffd":3653.0,"ffs":0.5079,"g":28,"co":0,"mo":2,"sa":0,"ic":0},"geometry":{"type":"Polygon","coordinates":[[[0.14654,51.76932],[0.147,51.76863],[0.15098,51.76909],[0.15181,51.76833],[0.15463,51.76705],[0.15121,51.76358],[0.14887,51.76418],[0.14477,51.7642],[0.14457,51.76493],[0.14562,51.76563],[0.14489,51.76755],[0.14563,51.76761],[0.14513,51.76932],[0.14654,51.76932]]]}},{"type":"Feature","properties":{"id":"E01021825","name":"E01021825","parent":"E07000073","type":"LSOA","pop":1620,"r":158,"ff":64,"ffd":3950.6,"ffs":0.4961,"g":28,"co":0,"mo":2,"sa":0,"ic":0},"geometry":{"type":"Polygon","coordinates":[[[0.13258,51.76531],[0.13587,51.76515],[0.13654,51.76289],[0.1376,51.76257],[0.13826,51.76323],[0.14049,51.76337],[0.14135,51.76375],[0.14205,51.76382],[0.14259,51.76311],[0.14223,51.76296],[0.14185,51.7632],[0.14188,51.76282],[0.14298,51.76263],[0.14304,51.76208],[0.14055,51.762],[0.14083,51.76107],[0.14156,51.76047],[0.14014,51.76025],[0.13991,51.76079],[0.1392,51.76065],[0.13873,51.76105],[0.13834,51.76069],[0.13872,51.76007],[0.13822,51.75997],[0.13721,51.76057],[0.13479,51.76049],[0.134,51.76209],[0.13355,51.7623],[0.13354,51.76284],[0.13322,51.7625],[0.13267,51.76263],[0.13262,51.76306],[0.13354,51.76321],[0.13303,51.76373],[0.13258,51.76531]]]}},{"type":"Feature","properties":{"id":"E01021826","name":"E01021826","parent":"E07000073","type":"LSOA","pop":1525,"r":160,"ff":65,"ffd":4262.3,"ffs":0.4962,"g":28,"co":0,"mo":2,"sa":0,"ic":0},"geometry":{"type":"Polygon","coordinates":[[[0.14081,51.77061],[0.14373,51.76958],[0.14513,51.76932],[0.14563,51.76761],[0.14489,51.76755],[0.14562,51.76563],[0.14457,51.76493],[0.1429,51.7653],[0.14305,51.76392],[0.14135,51.76375],[0.14049,51.76337],[0.13826,51.76323],[0.1376,51.76257],[0.13654,51.76289],[0.13587,51.76515],[0.13773,51.76521],[0.13778,51.76604],[0.13876,51.76679],[0.13783,51.76795],[0.1346,51.76854],[0.13315,51.7692],[0.13322,51.77022],[0.13759,51.77026],[0.13764,51.76964],[0.14023,51.77021],[0.14088,51.77019],[0.14081,51.77061]]]}},{"type":"Feature","properties":{"id":"E01021827","name":"E01021827","parent":"E07000073","type":"LSOA","pop":1629,"r":162,"ff":66,"ffd":4051.6,"ffs":0.4962,"g":28,"co":0,"mo":2,"sa":0,"ic":0},"geometry":{"type":"Polygon","coordinates":[[[0.13783,51.76795],[0.13876,51.76679],[0.13778,51.76604],[0.13773,51.76521],[0.13258,51.76531],[0.13303,51.76373],[0.13354,51.76321],[0.13262,51.76306],[0.13273,51.76236],[0.13067,51.76225],[0.13038,51.76356],[0.12841,51.76321],[0.126,51.76377],[0.1261,51.76529],[0.12681,51.76736],[0.12857,51.76708],[0.12949,51.76822],[0.13297,51.77022],[0.13322,51.77022],[0.13315,51.7692],[0.1346,51.76854],[0.13783,51.76795]]]}},{"type":"Feature","properties":{"id":"E01021828","name":"E01021828","parent":"E07000073","type":"LSOA","pop":2406,"r":155,"ff":63,"ffd":2618.5,"ffs":0.5,"g":28,"co":0,"mo":2,"sa":0,"ic":0},"geometry":{"type":"Polygon","coordinates":[[[0.14477,51.7642],[0.14887,51.76418],[0.15121,51.76358],[0.14922,51.76088],[0.14814,51.75907],[0.14709,51.75899],[0.14712,51.75923],[0.14626,51.75931],[0.14412,51.75927],[0.14386,51.75993],[0.14298,51.75987],[0.14236,51.76056],[0.14285,51.76163],[0.14083,51.76107],[0.14055,51.762],[0.14304,51.76208],[0.14298,51.76263],[0.14188,51.76282],[0.14185,51.7632],[0.14223,51.76296],[0.14259,51.76311],[0.14205,51.76382],[0.14305,51.76392],[0.1429,51.7653],[0.14457,51.76493],[0.14477,51.7642]]]}},{"type":"Feature","properties":{"id":"E01021829","name":"E01021829","parent":"E07000073","type":"LSOA","pop":1578,"r":209,"ff":84,"ffd":5323.2,"ffs":0.497,"g":38,"co":0,"mo":0,"sa":0,"ic":0},"geometry":{"type":"Polygon","coordinates":[[[0.07434,51.75796],[0.07321,51.75736],[0.07316,51.75657],[0.07475,51.75596],[0.07484,51.75628],[0.07529,51.75632],[0.07609,51.75604],[0.07597,51.75503],[0.07481,51.75511],[0.07375,51.75359],[0.07332,51.75379],[0.07285,51.75351],[0.07089,51.75359],[0.06801,51.75253],[0.06395,51.75146],[0.06423,51.75181],[0.06346,51.75222],[0.06531,51.7536],[0.06566,51.75509],[0.0657,51.7572],[0.06786,51.75689],[0.07089,51.75687],[0.07063,51.75735],[0.07141,51.75804],[0.07267,51.7579],[0.0729,51.75817],[0.07441,51.75852],[0.07434,51.75796]]]}},{"type":"Feature","properties":{"id":"E01021830","name":"E01021830","parent":"E07000073","type":"LSOA","pop":1301,"r":205,"ff":83,"ffd":6379.7,"ffs":0.497,"g":37,"co":0,"mo":2,"sa":0,"ic":0},"geometry":{"type":"Polygon","coordinates":[[[0.07801,51.75738],[0.07926,51.75629],[0.08026,51.75665],[0.08082,51.75595],[0.08156,51.7558],[0.08248,51.75464],[0.08332,51.75441],[0.08419,51.75323],[0.08409,51.75271],[0.08034,51.75239],[0.07613,51.75276],[0.07285,51.75351],[0.07332,51.75379],[0.07375,51.75359],[0.07481,51.75511],[0.07597,51.75503],[0.07609,51.75604],[0.07529,51.75632],[0.07484,51.75628],[0.07475,51.75596],[0.07316,51.75657],[0.07321,51.75736],[0.0751,51.75731],[0.07592,51.75926],[0.07669,51.75897],[0.07801,51.75738]]]}},{"type":"Feature","properties":{"id":"E01021831","name":"E01021831","parent":"E07000073","type":"LSOA","pop":1534,"r":197,"ff":81,"ffd":5280.3,"ffs":0.4969,"g":33,"co":0,"mo":2,"sa":0,"ic":0},"geometry":{"type":"Polygon","coordinates":[[[0.08943,51.75772],[0.09089,51.75563],[0.09137,51.75394],[0.08409,51.75271],[0.08419,51.75323],[0.08332,51.75441],[0.08248,51.75464],[0.08341,51.7556],[0.08219,51.75645],[0.08474,51.75736],[0.0845,51.7577],[0.08501,51.75793],[0.08594,51.75812],[0.08632,51.75767],[0.08746,51.75788],[0.08663,51.7611],[0.0869,51.76172],[0.08842,51.76009],[0.08943,51.75772]]]}},{"type":"Feature","properties":{"id":"E01021832","name":"E01021832","parent":"E07000073","type":"LSOA","pop":1183,"r":207,"ff":85,"ffd":7185.1,"ffs":0.503,"g":37,"co":0,"mo":0,"sa":0,"ic":0},"geometry":{"type":"Polygon","coordinates":[[[0.07592,51.75926],[0.0751,51.75731],[0.07321,51.75736],[0.07434,51.75796],[0.07441,51.75852],[0.0729,51.75817],[0.07267,51.7579],[0.07141,51.75804],[0.07063,51.75735],[0.07089,51.75687],[0.06786,51.75689],[0.0657,51.7572],[0.06566,51.7583],[0.06644,51.75941],[0.06746,51.76141],[0.06543,51.76157],[0.06573,51.76229],[0.06752,51.76252],[0.06804,51.76289],[0.07518,51.76274],[0.0771,51.76229],[0.07797,51.76131],[0.07592,51.75926]]]}},{"type":"Feature","properties":{"id":"E01021833","name":"E01021833","parent":"E07000073","type":"LSOA","pop":1247,"r":200,"ff":81,"ffd":6495.6,"ffs":0.4939,"g":35,"co":0,"mo":2,"sa":0,"ic":0},"geometry":{"type":"Polygon","coordinates":[[[0.08078,51.76165],[0.0831,51.76154],[0.08632,51.76226],[0.0869,51.76172],[0.08663,51.7611],[0.08746,51.75788],[0.08632,51.75767],[0.08594,51.75812],[0.08501,51.75793],[0.0845,51.7577],[0.08474,51.75736],[0.08219,51.75645],[0.08341,51.7556],[0.08248,51.75464],[0.08156,51.7558],[0.08082,51.75595],[0.08026,51.75665],[0.07926,51.75629],[0.07801,51.75738],[0.07669,51.75897],[0.07592,51.75926],[0.07797,51.76131],[0.0771,51.76229],[0.07765,51.76245],[0.08078,51.76165]]]}},{"type":"Feature","properties":{"id":"E01021834","name":"E01021834","parent":"E07000073","type":"LSOA","pop":1641,"r":159,"ff":66,"ffd":4021.9,"ffs":0.5077,"g":28,"co":0,"mo":2,"sa":0,"ic":0},"geometry":{"type":"Polygon","coordinates":[[[0.13354,51.76284],[0.13355,51.7623],[0.134,51.76209],[0.13479,51.76049],[0.13721,51.76057],[0.13822,51.75997],[0.13872,51.76007],[0.13834,51.76069],[0.13873,51.76105],[0.1392,51.76065],[0.13991,51.76079],[0.14014,51.76025],[0.14156,51.76047],[0.14083,51.76107],[0.14285,51.76163],[0.14236,51.76056],[0.14298,51.75987],[0.14386,51.75993],[0.14412,51.75927],[0.14626,51.75931],[0.14712,51.75923],[0.14709,51.75899],[0.14814,51.75907],[0.1474,51.75757],[0.13837,51.75515],[0.13656,51.7562],[0.13652,51.75654],[0.13832,51.75671],[0.13669,51.75801],[0.13597,51.75769],[0.13535,51.75782],[0.13407,51.75885],[0.13324,51.75874],[0.13239,51.75982],[0.13167,51.76006],[0.13188,51.76076],[0.13145,51.76158],[0.1312,51.76144],[0.13077,51.76178],[0.13026,51.76158],[0.1298,51.76211],[0.13062,51.7626],[0.13067,51.76225],[0.13273,51.76236],[0.13267,51.76263],[0.13322,51.7625],[0.13354,51.76284]]]}},{"type":"Feature","properties":{"id":"E01021835","name":"E01021835","parent":"E07000073","type":"LSOA","pop":1534,"r":164,"ff":68,"ffd":4432.9,"ffs":0.5037,"g":28,"co":0,"mo":2,"sa":0,"ic":0},"geometry":{"type":"Polygon","coordinates":[[[0.13535,51.75782],[0.13597,51.75769],[0.13669,51.75801],[0.13832,51.75671],[0.13652,51.75654],[0.13656,51.7562],[0.13837,51.75515],[0.13365,51.75394],[0.13368,51.75291],[0.1319,51.75307],[0.12668,51.75215],[0.12604,51.75426],[0.12406,51.75397],[0.12374,51.75463],[0.12281,51.75467],[0.12273,51.75499],[0.11947,51.75482],[0.11939,51.7556],[0.12068,51.75589],[0.12064,51.75661],[0.12447,51.75629],[0.12763,51.75641],[0.12738,51.75789],[0.12929,51.75797],[0.12987,51.75759],[0.13073,51.75768],[0.13101,51.75728],[0.13214,51.75759],[0.13295,51.75574],[0.13336,51.75539],[0.13386,51.75549],[0.13349,51.75643],[0.13392,51.75659],[0.13332,51.75682],[0.1325,51.7583],[0.13307,51.75839],[0.13324,51.75874],[0.13407,51.75885],[0.13535,51.75782]]]}},{"type":"Feature","properties":{"id":"E01021836","name":"E01021836","parent":"E07000073","type":"LSOA","pop":1481,"r":163,"ff":67,"ffd":4524.0,"ffs":0.5038,"g":29,"co":0,"mo":2,"sa":0,"ic":0},"geometry":{"type":"Polygon","coordinates":[[[0.126,51.76377],[0.12841,51.76321],[0.13038,51.76356],[0.13062,51.7626],[0.1298,51.76211],[0.13026,51.76158],[0.13077,51.76178],[0.1312,51.76144],[0.13145,51.76158],[0.13188,51.76076],[0.13167,51.76006],[0.13239,51.75982],[0.13324,51.75874],[0.13307,51.75839],[0.1325,51.7583],[0.13332,51.75682],[0.13392,51.75659],[0.13349,51.75643],[0.13386,51.75549],[0.13336,51.75539],[0.13295,51.75574],[0.13214,51.75759],[0.13101,51.75728],[0.13073,51.75768],[0.12987,51.75759],[0.12929,51.75797],[0.12738,51.75789],[0.126,51.76377]]]}},{"type":"Feature","properties":{"id":"E01021837","name":"E01021837","parent":"E07000073","type":"LSOA","pop":1553,"r":174,"ff":74,"ffd":4765.0,"ffs":0.5103,"g":28,"co":0,"mo":2,"sa":0,"ic":0},"geometry":{"type":"Polygon","coordinates":[[[0.11939,51.7556],[0.11947,51.75482],[0.12273,51.75499],[0.12281,51.75467],[0.12374,51.75463],[0.12406,51.75397],[0.12604,51.75426],[0.12668,51.75215],[0.12682,51.74913],[0.1235,51.74891],[0.12047,51.74792],[0.11838,51.74823],[0.11762,51.7491],[0.11702,51.74926],[0.11716,51.74968],[0.1188,51.74979],[0.11876,51.75081],[0.11806,51.75086],[0.11804,51.75124],[0.11936,51.75212],[0.11895,51.75259],[0.11826,51.75265],[0.11732,51.75221],[0.11752,51.75068],[0.116,51.75054],[0.11574,51.75118],[0.11458,51.75078],[0.11442,51.75139],[0.11573,51.75185],[0.11589,51.7549],[0.11808,51.75506],[0.118,51.75668],[0.12064,51.75661],[0.12068,51.75589],[0.11939,51.7556]]]}},{"type":"Feature","properties":{"id":"E01021838","name":"E01021838","parent":"E07000073","type":"LSOA","pop":1513,"r":174,"ff":73,"ffd":4824.9,"ffs":0.5069,"g":29,"co":0,"mo":2,"sa":0,"ic":0},"geometry":{"type":"Polygon","coordinates":[[[0.11442,51.75139],[0.11458,51.75078],[0.11574,51.75118],[0.116,51.75054],[0.11752,51.75068],[0.11732,51.75221],[0.11826,51.75265],[0.11895,51.75259],[0.11936,51.75212],[0.11804,51.75124],[0.11806,51.75086],[0.11876,51.75081],[0.1188,51.74979],[0.11716,51.74968],[0.11702,51.74926],[0.11762,51.7491],[0.11838,51.74823],[0.11447,51.74778],[0.11474,51.747],[0.1127,51.74653],[0.11,51.74961],[0.11321,51.7503],[0.11267,51.75167],[0.11125,51.75419],[0.11589,51.7549],[0.11573,51.75185],[0.11442,51.75139]]]}},{"type":"Feature","properties":{"id":"E01021839","name":"E01021839","parent":"E07000073","type":"LSOA","pop":2258,"r":205,"ff":86,"ffd":3808.7,"ffs":0.515,"g":37,"co":0,"mo":2,"sa":0,"ic":0},"geometry":{"type":"Polygon","coordinates":[[[0.08982,51.78401],[0.0905,51.78133],[0.09314,51.77911],[0.09057,51.77888],[0.09062,51.77912],[0.0875,51.77854],[0.08827,51.77742],[0.08747,51.77761],[0.08633,51.77739],[0.08689,51.77665],[0.08859,51.77666],[0.089,51.77584],[0.08874,51.77484],[0.08807,51.77378],[0.08718,51.77336],[0.08631,51.77368],[0.08573,51.77352],[0.08496,51.77271],[0.08445,51.77268],[0.08398,51.77344],[0.08249,51.77374],[0.07998,51.77316],[0.07835,51.77349],[0.0782,51.77392],[0.07877,51.77369],[0.08079,51.77435],[0.08021,51.77505],[0.07889,51.77548],[0.0784,51.77668],[0.08042,51.77723],[0.07867,51.77841],[0.07246,51.78084],[0.07132,51.78311],[0.07712,51.78247],[0.07969,51.78296],[0.07983,51.78337],[0.08069,51.78358],[0.08102,51.78323],[0.08177,51.7832],[0.0825,51.7835],[0.08462,51.78338],[0.08598,51.78382],[0.08623,51.78352],[0.08661,51.78377],[0.0872,51.78356],[0.08771,51.78406],[0.08901,51.78426],[0.08982,51.78401]]]}},{"type":"Feature","properties":{"id":"E01021840","name":"E01021840","parent":"E07000073","type":"LSOA","pop":1915,"r":206,"ff":87,"ffd":4543.1,"ffs":0.5179,"g":37,"co":0,"mo":2,"sa":0,"ic":0},"geometry":{"type":"Polygon","coordinates":[[[0.07246,51.78084],[0.07867,51.77841],[0.08042,51.77723],[0.0784,51.77668],[0.07889,51.77548],[0.08021,51.77505],[0.08079,51.77435],[0.07877,51.77369],[0.0782,51.77392],[0.07835,51.77349],[0.07998,51.77316],[0.0816,51.77349],[0.0816,51.7728],[0.08084,51.77246],[0.08134,51.77234],[0.0811,51.77193],[0.0816,51.77172],[0.08064,51.77112],[0.08017,51.77126],[0.07981,51.77068],[0.07927,51.77076],[0.07908,51.77019],[0.07828,51.77011],[0.07738,51.77099],[0.07601,51.77131],[0.07693,51.77053],[0.07468,51.77048],[0.07153,51.76749],[0.07015,51.76752],[0.07035,51.7659],[0.06943,51.76559],[0.06823,51.7645],[0.06774,51.7645],[0.06754,51.76337],[0.06678,51.76284],[0.06717,51.76251],[0.06573,51.76229],[0.06543,51.76157],[0.06459,51.7616],[0.06459,51.76219],[0.06326,51.76206],[0.06295,51.76018],[0.06165,51.76002],[0.06025,51.76186],[0.05846,51.76115],[0.05762,51.7629],[0.05819,51.76302],[0.05767,51.76589],[0.05483,51.76643],[0.0553,51.76774],[0.05473,51.77026],[0.05534,51.77058],[0.05546,51.77136],[0.05407,51.77554],[0.06127,51.77801],[0.06094,51.77839],[0.06012,51.77839],[0.05878,51.77989],[0.05807,51.77953],[0.05767,51.77967],[0.05964,51.78288],[0.06087,51.78353],[0.06294,51.78379],[0.0681,51.78395],[0.07132,51.78311],[0.07246,51.78084]]]}},{"type":"Feature","properties":{"id":"E01021841","name":"E01021841","parent":"E07000073","type":"LSOA","pop":1624,"r":210,"ff":89,"ffd":5480.3,"ffs":0.5115,"g":35,"co":0,"mo":2,"sa":0,"ic":0},"geometry":{"type":"Polygon","coordinates":[[[0.08398,51.77344],[0.08445,51.77268],[0.08496,51.77271],[0.08537,51.77218],[0.08509,51.77033],[0.0855,51.7693],[0.08188,51.76934],[0.08182,51.76802],[0.08139,51.76779],[0.08148,51.76736],[0.08014,51.767],[0.08187,51.7661],[0.08407,51.76576],[0.08396,51.76517],[0.08315,51.76476],[0.08309,51.76318],[0.08341,51.76248],[0.0831,51.76154],[0.08078,51.76165],[0.07765,51.76245],[0.0771,51.76229],[0.07518,51.76274],[0.06804,51.76289],[0.06752,51.76252],[0.06717,51.76251],[0.06678,51.76284],[0.06754,51.76337],[0.06774,51.7645],[0.06823,51.7645],[0.06943,51.76559],[0.07035,51.7659],[0.07015,51.76752],[0.07153,51.76749],[0.07468,51.77048],[0.07693,51.77053],[0.07601,51.77131],[0.07738,51.77099],[0.07828,51.77011],[0.07908,51.77019],[0.07927,51.77076],[0.07981,51.77068],[0.08017,51.77126],[0.08064,51.77112],[0.0816,51.77172],[0.0811,51.77193],[0.08134,51.77234],[0.08084,51.77246],[0.0816,51.7728],[0.0816,51.77349],[0.08249,51.77374],[0.08398,51.77344]]]}},{"type":"Feature","properties":{"id":"E01021842","name":"E01021842","parent":"E07000073","type":"LSOA","pop":1759,"r":211,"ff":89,"ffd":5059.7,"ffs":0.5115,"g":36,"co":0,"mo":2,"sa":0,"ic":0},"geometry":{"type":"Polygon","coordinates":[[[0.08914,51.76752],[0.08915,51.76645],[0.08838,51.76649],[0.08896,51.76522],[0.08563,51.76425],[0.08374,51.76422],[0.08381,51.76244],[0.08341,51.76248],[0.08309,51.76318],[0.08315,51.76476],[0.08396,51.76517],[0.08407,51.76576],[0.08187,51.7661],[0.08014,51.767],[0.08148,51.76736],[0.08139,51.76779],[0.08182,51.76802],[0.08188,51.76934],[0.0855,51.7693],[0.08509,51.77033],[0.08686,51.77037],[0.08776,51.77127],[0.08934,51.77053],[0.09062,51.76864],[0.08901,51.76824],[0.08914,51.76752]]]}},{"type":"Feature","properties":{"id":"E01021843","name":"E01021843","parent":"E07000073","type":"LSOA","pop":3088,"r":197,"ff":81,"ffd":2623.1,"ffs":0.5127,"g":38,"co":0,"mo":2,"sa":0,"ic":0},"geometry":{"type":"Polygon","coordinates":[[[0.09342,51.77894],[0.09497,51.77805],[0.09626,51.77618],[0.09538,51.77291],[0.09194,51.77185],[0.08934,51.77053],[0.08776,51.77127],[0.08686,51.77037],[0.08509,51.77033],[0.08537,51.77218],[0.08496,51.77271],[0.08573,51.77352],[0.08631,51.77368],[0.08718,51.77336],[0.08807,51.77378],[0.08874,51.77484],[0.089,51.77584],[0.08859,51.77666],[0.08689,51.77665],[0.08633,51.77739],[0.08747,51.77761],[0.08827,51.77742],[0.0875,51.77854],[0.09062,51.77912],[0.09057,51.77888],[0.09314,51.77911],[0.09342,51.77894]]]}},{"type":"Feature","properties":{"id":"E01021844","name":"E01021844","parent":"E07000073","type":"LSOA","pop":1372,"r":173,"ff":70,"ffd":5102.0,"ffs":0.5036,"g":33,"co":0,"mo":2,"sa":0,"ic":0},"geometry":{"type":"Polygon","coordinates":[[[0.11842,51.78002],[0.11876,51.77963],[0.11931,51.77978],[0.1198,51.77938],[0.12014,51.77831],[0.11906,51.77767],[0.11961,51.7771],[0.11934,51.7769],[0.1225,51.77723],[0.12516,51.77474],[0.12585,51.77487],[0.12627,51.77535],[0.12866,51.77578],[0.12823,51.77406],[0.12476,51.77411],[0.12474,51.77279],[0.12389,51.77278],[0.1241,51.77394],[0.12135,51.77422],[0.12095,51.77404],[0.12105,51.77488],[0.11919,51.77465],[0.11923,51.77381],[0.11547,51.77355],[0.1148,51.77468],[0.11685,51.77491],[0.11637,51.77524],[0.11646,51.7759],[0.11688,51.77635],[0.11772,51.77636],[0.11796,51.77685],[0.11652,51.77681],[0.11656,51.778],[0.11693,51.77798],[0.11708,51.77835],[0.11645,51.77828],[0.11629,51.77854],[0.11805,51.77927],[0.11731,51.77942],[0.11776,51.77991],[0.11737,51.78009],[0.11842,51.78002]]]}},{"type":"Feature","properties":{"id":"E01021845","name":"E01021845","parent":"E07000073","type":"LSOA","pop":1671,"r":177,"ff":70,"ffd":4189.1,"ffs":0.493,"g":34,"co":2,"mo":2,"sa":0,"ic":0},"geometry":{"type":"Polygon","coordinates":[[[0.11066,51.78839],[0.11107,51.78793],[0.11238,51.78821],[0.11305,51.78708],[0.11207,51.78682],[0.11267,51.78615],[0.11441,51.78655],[0.11546,51.78488],[0.11602,51.78501],[0.11803,51.7821],[0.11742,51.78202],[0.11865,51.78145],[0.11842,51.78002],[0.11737,51.78009],[0.11776,51.77991],[0.11731,51.77942],[0.11805,51.77927],[0.11629,51.77854],[0.11645,51.77828],[0.11708,51.77835],[0.11693,51.77798],[0.11656,51.778],[0.11652,51.77681],[0.11796,51.77685],[0.11772,51.77636],[0.11688,51.77635],[0.11646,51.7759],[0.11637,51.77524],[0.11685,51.77491],[0.1148,51.77468],[0.11428,51.77524],[0.11244,51.7748],[0.11143,51.77801],[0.1088,51.7817],[0.10748,51.78266],[0.1068,51.78225],[0.106,51.78265],[0.10481,51.78415],[0.10856,51.78567],[0.10729,51.78793],[0.11066,51.78839]]]}},{"type":"Feature","properties":{"id":"E01021846","name":"E01021846","parent":"E07000073","type":"LSOA","pop":1501,"r":174,"ff":70,"ffd":4663.6,"ffs":0.5,"g":33,"co":0,"mo":2,"sa":0,"ic":0},"geometry":{"type":"Polygon","coordinates":[[[0.12105,51.77488],[0.12095,51.77404],[0.12135,51.77422],[0.1241,51.77394],[0.12389,51.77278],[0.12474,51.77279],[0.12476,51.77411],[0.12823,51.77406],[0.12653,51.76931],[0.12642,51.76788],[0.12681,51.76736],[0.1261,51.76529],[0.126,51.76377],[0.12051,51.76449],[0.11425,51.76502],[0.11535,51.76652],[0.11539,51.76952],[0.11677,51.76973],[0.11734,51.76927],[0.11812,51.76976],[0.11871,51.76943],[0.11963,51.76942],[0.11936,51.7698],[0.11977,51.77012],[0.12027,51.76998],[0.11982,51.77072],[0.12069,51.77085],[0.12062,51.77124],[0.12301,51.77174],[0.12262,51.77243],[0.12292,51.77294],[0.12029,51.77285],[0.11928,51.77318],[0.11919,51.77465],[0.12105,51.77488]]]}},{"type":"Feature","properties":{"id":"E01021847","name":"E01021847","parent":"E07000073","type":"LSOA","pop":1587,"r":174,"ff":70,"ffd":4410.8,"ffs":0.5,"g":33,"co":0,"mo":2,"sa":0,"ic":0},"geometry":{"type":"Polygon","coordinates":[[[0.1148,51.77468],[0.11547,51.77355],[0.11923,51.77381],[0.11928,51.77318],[0.12029,51.77285],[0.12292,51.77294],[0.12262,51.77243],[0.12301,51.77174],[0.12062,51.77124],[0.12069,51.77085],[0.11982,51.77072],[0.12027,51.76998],[0.11977,51.77012],[0.11936,51.7698],[0.11963,51.76942],[0.11871,51.76943],[0.11812,51.76976],[0.11734,51.76927],[0.11677,51.76973],[0.11539,51.76952],[0.11481,51.77057],[0.11333,51.77217],[0.11276,51.77326],[0.11244,51.7748],[0.11428,51.77524],[0.1148,51.77468]]]}},{"type":"Feature","properties":{"id":"E01021848","name":"E01021848","parent":"E07000073","type":"LSOA","pop":2060,"r":173,"ff":70,"ffd":3398.1,"ffs":0.5072,"g":34,"co":2,"mo":2,"sa":0,"ic":0},"geometry":{"type":"Polygon","coordinates":[[[0.13245,51.79585],[0.13297,51.79089],[0.13255,51.78891],[0.13059,51.78685],[0.12771,51.78483],[0.12719,51.78323],[0.12866,51.77578],[0.12627,51.77535],[0.12585,51.77487],[0.12516,51.77474],[0.1225,51.77723],[0.11934,51.7769],[0.11961,51.7771],[0.11906,51.77767],[0.12014,51.77831],[0.1198,51.77938],[0.11931,51.77978],[0.11876,51.77963],[0.11842,51.78002],[0.11865,51.78145],[0.11742,51.78202],[0.11803,51.7821],[0.11602,51.78501],[0.11546,51.78488],[0.11441,51.78655],[0.11267,51.78615],[0.11207,51.78682],[0.11305,51.78708],[0.11238,51.78821],[0.11107,51.78793],[0.11066,51.78839],[0.11537,51.7887],[0.11871,51.79007],[0.12052,51.79018],[0.12204,51.79124],[0.12388,51.79368],[0.12543,51.7945],[0.12561,51.79516],[0.12734,51.79491],[0.12891,51.79531],[0.12916,51.79588],[0.13245,51.79585]]]}},{"type":"Feature","properties":{"id":"E01021849","name":"E01021849","parent":"E07000073","type":"LSOA","pop":1661,"r":179,"ff":72,"ffd":4334.7,"ffs":0.5035,"g":35,"co":0,"mo":2,"sa":0,"ic":0},"geometry":{"type":"Polygon","coordinates":[[[0.10648,51.77365],[0.10652,51.77327],[0.10733,51.77342],[0.10771,51.77288],[0.10735,51.77272],[0.10737,51.77177],[0.10779,51.77127],[0.10776,51.7706],[0.10684,51.77029],[0.10627,51.77054],[0.10594,51.76994],[0.10615,51.76966],[0.10576,51.76941],[0.10533,51.76951],[0.10546,51.76861],[0.1064,51.76826],[0.10627,51.76784],[0.10679,51.76767],[0.10579,51.76605],[0.09751,51.76759],[0.0976,51.76874],[0.09654,51.77084],[0.09731,51.77124],[0.09794,51.77098],[0.09896,51.77109],[0.10141,51.77166],[0.10174,51.77123],[0.10303,51.77174],[0.10334,51.77243],[0.10441,51.77317],[0.10548,51.77362],[0.10648,51.77365]]]}},{"type":"Feature","properties":{"id":"E01021850","name":"E01021850","parent":"E07000073","type":"LSOA","pop":1433,"r":175,"ff":70,"ffd":4884.9,"ffs":0.5,"g":34,"co":0,"mo":2,"sa":0,"ic":0},"geometry":{"type":"Polygon","coordinates":[[[0.11234,51.77186],[0.11307,51.7709],[0.11288,51.7706],[0.11177,51.77019],[0.11104,51.77098],[0.10911,51.77021],[0.10779,51.77127],[0.10737,51.77177],[0.10735,51.77272],[0.10853,51.77303],[0.10787,51.77385],[0.10939,51.77407],[0.10889,51.7742],[0.10859,51.77487],[0.10924,51.77549],[0.10826,51.77618],[0.11185,51.77673],[0.11276,51.77326],[0.11333,51.77217],[0.11234,51.77186]]]}},{"type":"Feature","properties":{"id":"E01021851","name":"E01021851","parent":"E07000073","type":"LSOA","pop":1846,"r":187,"ff":75,"ffd":4062.8,"ffs":0.5034,"g":37,"co":0,"mo":2,"sa":0,"ic":0},"geometry":{"type":"Polygon","coordinates":[[[0.0977,51.77493],[0.09822,51.77454],[0.09814,51.77481],[0.10064,51.77565],[0.102,51.77418],[0.10344,51.774],[0.10343,51.77347],[0.10421,51.7735],[0.10441,51.77317],[0.10334,51.77243],[0.10303,51.77174],[0.10174,51.77123],[0.10141,51.77166],[0.09896,51.77109],[0.09794,51.77098],[0.09731,51.77124],[0.09654,51.77084],[0.09538,51.77291],[0.09626,51.77618],[0.09799,51.77544],[0.0977,51.77493]]]}},{"type":"Feature","properties":{"id":"E01021852","name":"E01021852","parent":"E07000073","type":"LSOA","pop":1648,"r":179,"ff":71,"ffd":4308.3,"ffs":0.4965,"g":35,"co":0,"mo":2,"sa":0,"ic":0},"geometry":{"type":"Polygon","coordinates":[[[0.11481,51.77057],[0.11547,51.76933],[0.11535,51.76652],[0.11425,51.76502],[0.10579,51.76605],[0.10679,51.76767],[0.10627,51.76784],[0.1064,51.76826],[0.10546,51.76861],[0.10533,51.76951],[0.10576,51.76941],[0.10615,51.76966],[0.10594,51.76994],[0.10627,51.77054],[0.10684,51.77029],[0.10776,51.7706],[0.10779,51.77127],[0.10911,51.77021],[0.11104,51.77098],[0.11177,51.77019],[0.11288,51.7706],[0.11307,51.7709],[0.11234,51.77186],[0.11333,51.77217],[0.11481,51.77057]]]}},{"type":"Feature","properties":{"id":"E01021853","name":"E01021853","parent":"E07000073","type":"LSOA","pop":2356,"r":205,"ff":86,"ffd":3650.3,"ffs":0.515,"g":37,"co":2,"mo":2,"sa":0,"ic":0},"geometry":{"type":"Polygon","coordinates":[[[0.10481,51.78415],[0.106,51.78265],[0.1068,51.78225],[0.10748,51.78266],[0.1088,51.7817],[0.11143,51.77801],[0.11185,51.77673],[0.10826,51.77618],[0.10924,51.77549],[0.10859,51.77487],[0.10889,51.7742],[0.10939,51.77407],[0.10787,51.77385],[0.10853,51.77303],[0.10771,51.77288],[0.10733,51.77342],[0.10652,51.77327],[0.10648,51.77365],[0.10548,51.77362],[0.10441,51.77317],[0.10421,51.7735],[0.10343,51.77347],[0.10344,51.774],[0.102,51.77418],[0.10064,51.77565],[0.09814,51.77481],[0.09822,51.77454],[0.0977,51.77493],[0.09799,51.77544],[0.09626,51.77618],[0.09497,51.77805],[0.09314,51.77911],[0.0905,51.78133],[0.08982,51.78401],[0.09095,51.78407],[0.09128,51.78375],[0.09134,51.78428],[0.09187,51.78411],[0.09198,51.78443],[0.09256,51.78451],[0.0958,51.78339],[0.09692,51.7836],[0.09774,51.78324],[0.09963,51.78336],[0.101,51.78395],[0.10209,51.78488],[0.10357,51.78509],[0.10729,51.78793],[0.10856,51.78567],[0.10481,51.78415]]]}},{"type":"Feature","properties":{"id":"E01021854","name":"E01021854","parent":"E07000073","type":"LSOA","pop":3264,"r":158,"ff":63,"ffd":1930.1,"ffs":0.504,"g":32,"co":0,"mo":2,"sa":0,"ic":0},"geometry":{"type":"Polygon","coordinates":[[[0.14587,51.79537],[0.14593,51.7946],[0.14742,51.79346],[0.14909,51.79321],[0.15055,51.79394],[0.15199,51.7942],[0.15357,51.7938],[0.1544,51.79252],[0.15243,51.79161],[0.15156,51.79065],[0.15155,51.78933],[0.14873,51.78853],[0.14874,51.7873],[0.14428,51.78509],[0.1451,51.78501],[0.14458,51.78475],[0.14516,51.78399],[0.14762,51.78514],[0.14828,51.78507],[0.14868,51.78487],[0.14886,51.78378],[0.14652,51.78338],[0.1446,51.78345],[0.14377,51.7851],[0.14229,51.78613],[0.14138,51.78509],[0.13971,51.78547],[0.13873,51.78694],[0.13817,51.78738],[0.13427,51.78856],[0.13426,51.78799],[0.1331,51.78724],[0.13283,51.78781],[0.13185,51.78804],[0.13255,51.78891],[0.13297,51.79089],[0.13245,51.79585],[0.13586,51.79505],[0.13893,51.79575],[0.13935,51.79633],[0.14047,51.79648],[0.14145,51.79721],[0.144,51.79721],[0.14614,51.79624],[0.14652,51.79578],[0.14587,51.79537]]]}},{"type":"Feature","properties":{"id":"E01021855","name":"E01021855","parent":"E07000073","type":"LSOA","pop":1530,"r":157,"ff":64,"ffd":4183.0,"ffs":0.5039,"g":29,"co":0,"mo":2,"sa":0,"ic":0},"geometry":{"type":"Polygon","coordinates":[[[0.13971,51.78547],[0.14138,51.78509],[0.14229,51.78613],[0.14309,51.78546],[0.14306,51.78448],[0.14255,51.7844],[0.14244,51.78393],[0.14291,51.78358],[0.14252,51.78337],[0.13958,51.78321],[0.13942,51.78413],[0.14006,51.7844],[0.13946,51.78457],[0.13819,51.78433],[0.13793,51.78397],[0.13619,51.78381],[0.13807,51.78239],[0.13908,51.78094],[0.1389,51.78057],[0.13354,51.78004],[0.13238,51.78016],[0.13257,51.78204],[0.1332,51.78166],[0.13357,51.78191],[0.13341,51.7826],[0.13401,51.7825],[0.13402,51.7829],[0.13255,51.7829],[0.13218,51.78326],[0.13128,51.78337],[0.13121,51.78359],[0.13252,51.78392],[0.13222,51.78435],[0.13131,51.78413],[0.13105,51.78431],[0.13133,51.78511],[0.13359,51.7853],[0.13413,51.78503],[0.13553,51.78511],[0.13539,51.78544],[0.13588,51.78559],[0.13542,51.78632],[0.13484,51.78645],[0.13496,51.78684],[0.1331,51.78724],[0.13426,51.78799],[0.13427,51.78856],[0.13817,51.78738],[0.13873,51.78694],[0.13971,51.78547]]]}},{"type":"Feature","properties":{"id":"E01021856","name":"E01021856","parent":"E07000073","type":"LSOA","pop":1505,"r":165,"ff":65,"ffd":4318.9,"ffs":0.5,"g":34,"co":0,"mo":2,"sa":0,"ic":0},"geometry":{"type":"Polygon","coordinates":[[[0.13539,51.78544],[0.13553,51.78511],[0.13413,51.78503],[0.13359,51.7853],[0.13133,51.78511],[0.13105,51.78431],[0.13131,51.78413],[0.13222,51.78435],[0.13252,51.78392],[0.13121,51.78359],[0.13128,51.78337],[0.13218,51.78326],[0.13255,51.7829],[0.13402,51.7829],[0.13401,51.7825],[0.13341,51.7826],[0.13357,51.78191],[0.1332,51.78166],[0.13257,51.78204],[0.13238,51.78016],[0.13175,51.77979],[0.128,51.77967],[0.12719,51.78323],[0.12771,51.78483],[0.13059,51.78685],[0.13185,51.78804],[0.13283,51.78781],[0.1331,51.78724],[0.13496,51.78684],[0.13484,51.78645],[0.13542,51.78632],[0.13588,51.78559],[0.13539,51.78544]]]}},{"type":"Feature","properties":{"id":"E01021858","name":"E01021858","parent":"E07000073","type":"LSOA","pop":1636,"r":180,"ff":73,"ffd":4462.1,"ffs":0.4899,"g":30,"co":0,"mo":2,"sa":0,"ic":0},"geometry":{"type":"Polygon","coordinates":[[[0.10671,51.75411],[0.10675,51.75254],[0.10348,51.75197],[0.10297,51.75292],[0.10192,51.7524],[0.10279,51.75114],[0.10215,51.7509],[0.10262,51.75037],[0.10293,51.7505],[0.10314,51.75006],[0.1044,51.75044],[0.10425,51.75082],[0.10525,51.75123],[0.10743,51.74734],[0.1033,51.74611],[0.10297,51.74694],[0.10176,51.74805],[0.10382,51.74892],[0.10205,51.74899],[0.10081,51.75009],[0.10116,51.75037],[0.10007,51.75109],[0.09866,51.75127],[0.09708,51.75303],[0.10031,51.75288],[0.10671,51.75411]]]}},{"type":"Feature","properties":{"id":"E01021859","name":"E01021859","parent":"E07000073","type":"LSOA","pop":1672,"r":187,"ff":77,"ffd":4605.3,"ffs":0.4968,"g":31,"co":0,"mo":2,"sa":0,"ic":0},"geometry":{"type":"Polygon","coordinates":[[[0.09784,51.75017],[0.09785,51.74934],[0.09534,51.74869],[0.0959,51.74772],[0.09524,51.74752],[0.09474,51.74813],[0.09343,51.74864],[0.09275,51.74974],[0.09084,51.74935],[0.09013,51.75029],[0.08791,51.74987],[0.08796,51.75155],[0.08734,51.75327],[0.09137,51.75394],[0.09263,51.75394],[0.09708,51.75303],[0.09866,51.75127],[0.09768,51.7508],[0.09784,51.75017]]]}},{"type":"Feature","properties":{"id":"E01021860","name":"E01021860","parent":"E07000073","type":"LSOA","pop":1586,"r":190,"ff":78,"ffd":4918.0,"ffs":0.4937,"g":31,"co":0,"mo":2,"sa":0,"ic":0},"geometry":{"type":"Polygon","coordinates":[[[0.10081,51.75009],[0.10205,51.74899],[0.10382,51.74892],[0.10176,51.74805],[0.10297,51.74694],[0.1033,51.74611],[0.10279,51.74597],[0.10244,51.7463],[0.09966,51.74417],[0.09978,51.74396],[0.09744,51.74326],[0.09507,51.74597],[0.09881,51.74709],[0.09871,51.74741],[0.09781,51.74744],[0.09716,51.74814],[0.0959,51.74772],[0.09534,51.74869],[0.09785,51.74934],[0.09768,51.7508],[0.09866,51.75127],[0.10007,51.75109],[0.10116,51.75037],[0.10081,51.75009]]]}},{"type":"Feature","properties":{"id":"E01021861","name":"E01021861","parent":"E07000073","type":"LSOA","pop":1604,"r":174,"ff":73,"ffd":4551.1,"ffs":0.5105,"g":30,"co":0,"mo":2,"sa":0,"ic":0},"geometry":{"type":"Polygon","coordinates":[[[0.11247,51.75205],[0.11321,51.7503],[0.11,51.74961],[0.1127,51.74653],[0.10801,51.7455],[0.10743,51.74734],[0.10525,51.75123],[0.10425,51.75082],[0.1044,51.75044],[0.10314,51.75006],[0.10293,51.7505],[0.10262,51.75037],[0.10215,51.7509],[0.10279,51.75114],[0.10192,51.7524],[0.10297,51.75292],[0.10348,51.75197],[0.10675,51.75254],[0.10671,51.75411],[0.11072,51.75496],[0.11247,51.75205]]]}},{"type":"Feature","properties":{"id":"E01021862","name":"E01021862","parent":"E07000073","type":"LSOA","pop":1641,"r":191,"ff":78,"ffd":4753.2,"ffs":0.4968,"g":33,"co":0,"mo":2,"sa":0,"ic":0},"geometry":{"type":"Polygon","coordinates":[[[0.09013,51.75029],[0.09084,51.74935],[0.09275,51.74974],[0.09343,51.74864],[0.09474,51.74813],[0.09524,51.74752],[0.09716,51.74814],[0.09781,51.74744],[0.09871,51.74741],[0.09881,51.74709],[0.09507,51.74597],[0.09409,51.74721],[0.08845,51.74609],[0.08714,51.7462],[0.08804,51.74804],[0.08791,51.74987],[0.09013,51.75029]]]}},{"type":"Feature","properties":{"id":"E01021863","name":"E01021863","parent":"E07000073","type":"LSOA","pop":1877,"r":194,"ff":80,"ffd":4262.1,"ffs":0.5,"g":33,"co":0,"mo":2,"sa":0,"ic":0},"geometry":{"type":"Polygon","coordinates":[[[0.08791,51.74987],[0.08809,51.74884],[0.08702,51.74868],[0.08608,51.7492],[0.0862,51.74976],[0.08526,51.74956],[0.08605,51.74767],[0.08481,51.74746],[0.08412,51.74795],[0.08273,51.7479],[0.08257,51.74854],[0.0817,51.74823],[0.08142,51.74868],[0.08056,51.74863],[0.07981,51.74724],[0.08091,51.7472],[0.08161,51.7457],[0.08149,51.74563],[0.07825,51.74756],[0.07863,51.74784],[0.07819,51.74906],[0.07956,51.74923],[0.07961,51.74989],[0.08008,51.7501],[0.08181,51.74939],[0.08182,51.75023],[0.08315,51.75039],[0.08239,51.75084],[0.08206,51.75204],[0.08306,51.75253],[0.08734,51.75327],[0.08796,51.75155],[0.08791,51.74987]]]}},{"type":"Feature","properties":{"id":"E01021864","name":"E01021864","parent":"E07000073","type":"LSOA","pop":1498,"r":200,"ff":83,"ffd":5540.7,"ffs":0.5061,"g":35,"co":0,"mo":2,"sa":0,"ic":0},"geometry":{"type":"Polygon","coordinates":[[[0.07613,51.75276],[0.08034,51.75239],[0.08306,51.75253],[0.08206,51.75204],[0.08239,51.75084],[0.08315,51.75039],[0.08182,51.75023],[0.08181,51.74939],[0.08008,51.7501],[0.07961,51.74989],[0.07956,51.74923],[0.07819,51.74906],[0.07863,51.74784],[0.07825,51.74756],[0.07801,51.74828],[0.07754,51.74842],[0.07694,51.74804],[0.07738,51.74779],[0.07699,51.74789],[0.07623,51.74695],[0.07533,51.74733],[0.07496,51.74729],[0.07496,51.74686],[0.07405,51.74733],[0.07357,51.74704],[0.07256,51.74822],[0.07345,51.74866],[0.07242,51.74925],[0.07463,51.74991],[0.07462,51.75016],[0.07422,51.75012],[0.07332,51.7519],[0.07336,51.75311],[0.07285,51.75351],[0.07613,51.75276]]]}},{"type":"Feature","properties":{"id":"E01021865","name":"E01021865","parent":"E07000073","type":"LSOA","pop":1408,"r":207,"ff":84,"ffd":5965.9,"ffs":0.503,"g":38,"co":2,"mo":0,"sa":0,"ic":0},"geometry":{"type":"Polygon","coordinates":[[[0.0736,51.75133],[0.07422,51.75012],[0.07462,51.75016],[0.07463,51.74991],[0.07242,51.74925],[0.07345,51.74866],[0.07192,51.74776],[0.0727,51.74596],[0.06974,51.74756],[0.06913,51.7471],[0.06806,51.74785],[0.06829,51.74824],[0.06764,51.74843],[0.06804,51.74914],[0.06705,51.74927],[0.06797,51.75116],[0.06395,51.75146],[0.06801,51.75253],[0.07089,51.75359],[0.07285,51.75351],[0.07336,51.75311],[0.07332,51.7519],[0.0736,51.75133]]]}},{"type":"Feature","properties":{"id":"E01021866","name":"E01021866","parent":"E07000073","type":"LSOA","pop":1292,"r":198,"ff":84,"ffd":6501.5,"ffs":0.5153,"g":33,"co":2,"mo":0,"sa":0,"ic":0},"geometry":{"type":"Polygon","coordinates":[[[0.07801,51.74828],[0.07825,51.74756],[0.08149,51.74563],[0.0805,51.745],[0.08273,51.74293],[0.08133,51.74243],[0.079,51.74278],[0.07851,51.7421],[0.07797,51.74183],[0.07629,51.74283],[0.07696,51.74368],[0.0754,51.74435],[0.0727,51.74596],[0.07192,51.74776],[0.07256,51.74822],[0.07357,51.74704],[0.07405,51.74733],[0.07496,51.74686],[0.07496,51.74729],[0.07533,51.74733],[0.07623,51.74695],[0.07699,51.74789],[0.07738,51.74779],[0.07694,51.74804],[0.07754,51.74842],[0.07801,51.74828]]]}},{"type":"Feature","properties":{"id":"E01021867","name":"E01021867","parent":"E07000073","type":"LSOA","pop":1497,"r":198,"ff":81,"ffd":5410.8,"ffs":0.5,"g":35,"co":0,"mo":2,"sa":0,"ic":0},"geometry":{"type":"Polygon","coordinates":[[[0.08608,51.7492],[0.08702,51.74868],[0.08809,51.74884],[0.08804,51.74804],[0.08714,51.7462],[0.08845,51.74609],[0.09409,51.74721],[0.09963,51.74058],[0.10034,51.73897],[0.09674,51.73815],[0.0928,51.73622],[0.08429,51.73469],[0.08112,51.73828],[0.08075,51.74139],[0.0789,51.74227],[0.07851,51.7421],[0.079,51.74278],[0.08133,51.74243],[0.08273,51.74293],[0.0805,51.745],[0.08161,51.7457],[0.08091,51.7472],[0.07981,51.74724],[0.08056,51.74863],[0.08142,51.74868],[0.0817,51.74823],[0.08257,51.74854],[0.08273,51.7479],[0.08412,51.74795],[0.08481,51.74746],[0.08605,51.74767],[0.08526,51.74956],[0.0862,51.74976],[0.08608,51.7492]]]}},{"type":"Feature","properties":{"id":"E01021868","name":"E01021868","parent":"E07000073","type":"LSOA","pop":1689,"r":192,"ff":78,"ffd":4618.1,"ffs":0.4968,"g":34,"co":0,"mo":2,"sa":0,"ic":0},"geometry":{"type":"Polygon","coordinates":[[[0.09491,51.76188],[0.09661,51.75949],[0.09629,51.7593],[0.09591,51.75971],[0.095,51.7595],[0.09443,51.7602],[0.09369,51.76005],[0.09424,51.75901],[0.09562,51.75911],[0.09595,51.75885],[0.09311,51.75841],[0.09307,51.75791],[0.09395,51.75706],[0.09302,51.75696],[0.09301,51.75671],[0.09416,51.75567],[0.09201,51.75519],[0.09277,51.75445],[0.09263,51.75394],[0.09137,51.75394],[0.09089,51.75563],[0.08943,51.75772],[0.08842,51.76009],[0.08632,51.76226],[0.09272,51.76507],[0.09306,51.76549],[0.09213,51.76614],[0.09617,51.76763],[0.09645,51.76788],[0.09583,51.76889],[0.09709,51.76917],[0.0976,51.76874],[0.09758,51.76783],[0.097,51.76712],[0.09734,51.76695],[0.09713,51.76507],[0.09755,51.76349],[0.09452,51.76221],[0.09491,51.76188]]]}},{"type":"Feature","properties":{"id":"E01021869","name":"E01021869","parent":"E07000073","type":"LSOA","pop":1465,"r":186,"ff":78,"ffd":5324.2,"ffs":0.5032,"g":30,"co":0,"mo":2,"sa":0,"ic":0},"geometry":{"type":"Polygon","coordinates":[[[0.09844,51.75843],[0.10003,51.75791],[0.10069,51.75821],[0.10183,51.75669],[0.10125,51.7564],[0.1004,51.75658],[0.09915,51.75609],[0.09873,51.75642],[0.09851,51.75613],[0.09935,51.75544],[0.09921,51.75505],[0.09788,51.75501],[0.09729,51.75571],[0.09782,51.75623],[0.09732,51.75662],[0.09632,51.75633],[0.09709,51.7554],[0.09851,51.75439],[0.09663,51.75362],[0.09612,51.7545],[0.09385,51.75381],[0.09263,51.75394],[0.09277,51.75445],[0.09201,51.75519],[0.09416,51.75567],[0.09301,51.75671],[0.09302,51.75696],[0.09395,51.75706],[0.09307,51.75791],[0.09311,51.75841],[0.09595,51.75885],[0.09648,51.7581],[0.09697,51.75825],[0.0967,51.75897],[0.09785,51.75917],[0.09844,51.75843]]]}},{"type":"Feature","properties":{"id":"E01021870","name":"E01021870","parent":"E07000073","type":"LSOA","pop":1504,"r":175,"ff":72,"ffd":4787.2,"ffs":0.5,"g":30,"co":0,"mo":2,"sa":0,"ic":0},"geometry":{"type":"Polygon","coordinates":[[[0.1063,51.76032],[0.10361,51.75965],[0.10409,51.75918],[0.10364,51.75903],[0.10433,51.75829],[0.10374,51.75736],[0.10258,51.75936],[0.10147,51.75903],[0.1012,51.76001],[0.0967,51.75897],[0.09697,51.75825],[0.09648,51.7581],[0.09562,51.75911],[0.09424,51.75901],[0.09369,51.76005],[0.09443,51.7602],[0.095,51.7595],[0.09591,51.75971],[0.09629,51.7593],[0.09661,51.75949],[0.09452,51.76221],[0.09755,51.76349],[0.09713,51.76507],[0.09734,51.76695],[0.097,51.76712],[0.09758,51.76783],[0.09751,51.76759],[0.10551,51.76609],[0.10463,51.7648],[0.10602,51.76463],[0.10675,51.76254],[0.1077,51.76136],[0.10588,51.76078],[0.1063,51.76032]]]}},{"type":"Feature","properties":{"id":"E01021871","name":"E01021871","parent":"E07000073","type":"LSOA","pop":1663,"r":184,"ff":75,"ffd":4509.9,"ffs":0.4934,"g":31,"co":0,"mo":2,"sa":0,"ic":0},"geometry":{"type":"Polygon","coordinates":[[[0.1012,51.76001],[0.10147,51.75903],[0.10258,51.75936],[0.10374,51.75736],[0.10433,51.75829],[0.10574,51.75574],[0.10636,51.75545],[0.10636,51.75405],[0.10031,51.75288],[0.09708,51.75303],[0.09385,51.75381],[0.09612,51.7545],[0.09663,51.75362],[0.09843,51.75429],[0.09851,51.75439],[0.09709,51.7554],[0.09632,51.75633],[0.09732,51.75662],[0.09782,51.75623],[0.09729,51.75571],[0.09788,51.75501],[0.09921,51.75505],[0.09935,51.75544],[0.09851,51.75613],[0.09873,51.75642],[0.09915,51.75609],[0.1004,51.75658],[0.10125,51.7564],[0.10183,51.75669],[0.10069,51.75821],[0.10003,51.75791],[0.09844,51.75843],[0.09785,51.75917],[0.1012,51.76001]]]}},{"type":"Feature","properties":{"id":"E01034362","name":"E01034362","parent":"E07000073","type":"LSOA","pop":1914,"r":150,"ff":62,"ffd":3239.3,"ffs":0.5167,"g":29,"co":0,"mo":2,"sa":0,"ic":0},"geometry":{"type":"Polygon","coordinates":[[[0.15785,51.78514],[0.16134,51.78389],[0.16457,51.78328],[0.16447,51.78234],[0.1628,51.78109],[0.16071,51.78151],[0.15925,51.78236],[0.15639,51.78066],[0.15495,51.78089],[0.15394,51.78223],[0.15414,51.78278],[0.15281,51.78281],[0.15278,51.78213],[0.15221,51.78212],[0.15252,51.7822],[0.15189,51.78301],[0.1524,51.78317],[0.15199,51.78388],[0.15149,51.7843],[0.14996,51.78384],[0.15079,51.78306],[0.15039,51.78296],[0.1501,51.7833],[0.14926,51.78306],[0.14853,51.78316],[0.14819,51.78371],[0.14886,51.78378],[0.14868,51.78487],[0.14828,51.78507],[0.14762,51.78514],[0.14516,51.78399],[0.14458,51.78475],[0.1451,51.78501],[0.14428,51.78509],[0.14874,51.7873],[0.14873,51.78853],[0.15155,51.78933],[0.15166,51.78886],[0.15366,51.78875],[0.15491,51.78606],[0.1562,51.78531],[0.15785,51.78514]]]}},{"type":"Feature","properties":{"id":"E01034363","name":"E01034363","parent":"E07000073","type":"LSOA","pop":1591,"r":147,"ff":61,"ffd":3834.1,"ffs":0.5126,"g":27,"co":0,"mo":2,"sa":0,"ic":0},"geometry":{"type":"Polygon","coordinates":[[[0.14377,51.7851],[0.1446,51.78345],[0.14652,51.78338],[0.14819,51.78371],[0.14853,51.78316],[0.14926,51.78306],[0.1501,51.7833],[0.15039,51.78296],[0.15079,51.78306],[0.14996,51.78384],[0.15149,51.7843],[0.15199,51.78388],[0.1524,51.78317],[0.15189,51.78301],[0.15252,51.7822],[0.15221,51.78212],[0.15278,51.78213],[0.15281,51.78281],[0.15414,51.78278],[0.15394,51.78223],[0.15495,51.78089],[0.15639,51.78066],[0.15925,51.78236],[0.16071,51.78151],[0.1628,51.78109],[0.16447,51.78234],[0.16457,51.78328],[0.16802,51.78278],[0.16466,51.77741],[0.16063,51.77259],[0.15854,51.77376],[0.15781,51.77536],[0.15521,51.77707],[0.15299,51.78014],[0.15232,51.77972],[0.14366,51.77779],[0.14272,51.77814],[0.14263,51.77864],[0.14117,51.77799],[0.13648,51.77763],[0.13646,51.77645],[0.13593,51.77579],[0.1348,51.77575],[0.13479,51.7754],[0.13409,51.77523],[0.1347,51.77501],[0.13538,51.77526],[0.13526,51.77548],[0.13694,51.7756],[0.13635,51.77528],[0.13638,51.77459],[0.13382,51.77405],[0.13313,51.77556],[0.12859,51.77528],[0.12867,51.77593],[0.128,51.77967],[0.13175,51.77979],[0.13238,51.78016],[0.13354,51.78004],[0.1389,51.78057],[0.13908,51.78094],[0.13807,51.78239],[0.13619,51.78381],[0.13793,51.78397],[0.13819,51.78433],[0.13946,51.78457],[0.14006,51.7844],[0.13942,51.78413],[0.13958,51.78321],[0.14252,51.78337],[0.14291,51.78358],[0.14244,51.78393],[0.14255,51.7844],[0.14306,51.78448],[0.14309,51.78546],[0.14377,51.7851]]]}},{"type":"Feature","properties":{"id":"E01034364","name":"E01034364","parent":"E07000073","type":"LSOA","pop":1939,"r":157,"ff":64,"ffd":3300.7,"ffs":0.5,"g":28,"co":0,"mo":2,"sa":0,"ic":0},"geometry":{"type":"Polygon","coordinates":[[[0.15299,51.78014],[0.15521,51.77707],[0.15781,51.77536],[0.15854,51.77376],[0.16063,51.77259],[0.15463,51.76705],[0.15181,51.76833],[0.15098,51.76909],[0.147,51.76863],[0.14654,51.76932],[0.14475,51.76934],[0.14081,51.77061],[0.14088,51.77019],[0.14023,51.77021],[0.14097,51.77092],[0.14013,51.77109],[0.13902,51.77267],[0.13835,51.77247],[0.13812,51.77278],[0.13806,51.77304],[0.13856,51.77397],[0.14077,51.77478],[0.14272,51.77814],[0.14366,51.77779],[0.15232,51.77972],[0.15299,51.78014]]]}},{"type":"Feature","properties":{"id":"E01034365","name":"E01034365","parent":"E07000073","type":"LSOA","pop":1824,"r":164,"ff":66,"ffd":3618.4,"ffs":0.4962,"g":30,"co":0,"mo":2,"sa":0,"ic":0},"geometry":{"type":"Polygon","coordinates":[[[0.14272,51.77814],[0.14077,51.77478],[0.13856,51.77397],[0.13806,51.77304],[0.13835,51.77247],[0.13902,51.77267],[0.14013,51.77109],[0.14097,51.77092],[0.14023,51.77021],[0.13764,51.76964],[0.13759,51.77026],[0.13297,51.77022],[0.12949,51.76822],[0.12857,51.76708],[0.12681,51.76736],[0.12642,51.76788],[0.12653,51.76931],[0.12859,51.77528],[0.13313,51.77556],[0.13382,51.77405],[0.13638,51.77459],[0.13635,51.77528],[0.13694,51.7756],[0.13526,51.77548],[0.13538,51.77526],[0.1347,51.77501],[0.13409,51.77523],[0.13479,51.7754],[0.1348,51.77575],[0.13593,51.77579],[0.13646,51.77645],[0.13648,51.77763],[0.14117,51.77799],[0.14263,51.77864],[0.14272,51.77814]]]}},{"type":"Feature","properties":{"id":"E01034366","name":"E01034366","parent":"E07000073","type":"LSOA","pop":1193,"r":205,"ff":86,"ffd":7208.7,"ffs":0.515,"g":37,"co":0,"mo":2,"sa":0,"ic":0},"geometry":{"type":"Polygon","coordinates":[[[0.09662,51.7707],[0.0976,51.76874],[0.09709,51.76917],[0.09583,51.76889],[0.09645,51.76788],[0.09617,51.76763],[0.0929,51.76648],[0.09183,51.76815],[0.09124,51.76809],[0.09115,51.76784],[0.08934,51.77053],[0.09194,51.77185],[0.09538,51.77291],[0.09662,51.7707]]]}},{"type":"Feature","properties":{"id":"E01034367","name":"E01034367","parent":"E07000073","type":"LSOA","pop":1784,"r":203,"ff":84,"ffd":4708.5,"ffs":0.503,"g":35,"co":0,"mo":2,"sa":0,"ic":0},"geometry":{"type":"Polygon","coordinates":[[[0.09062,51.76864],[0.09115,51.76784],[0.09124,51.76809],[0.09183,51.76815],[0.0929,51.76648],[0.09213,51.76614],[0.09306,51.76549],[0.09272,51.76507],[0.08632,51.76226],[0.0831,51.76154],[0.08341,51.76248],[0.08381,51.76244],[0.08374,51.76422],[0.08563,51.76425],[0.08896,51.76522],[0.08838,51.76649],[0.08915,51.76645],[0.08901,51.76824],[0.09062,51.76864]]]}}]}