{"type":"FeatureCollection","features":[{"type":"Feature","properties":{"id":"E01032122","name":"E01032122","parent":"E07000234","type":"LSOA","pop":2357,"r":256,"ff":87,"ffd":3691.1,"ffs":0.5472,"g":95,"co":2,"mo":0,"sa":0,"ic":0},"geometry":{"type":"Polygon","coordinates":[[[-1.94022,52.38975],[-1.93513,52.38747],[-1.92791,52.38529],[-1.92182,52.38072],[-1.9205,52.37838],[-1.91898,52.37799],[-1.91602,52.3739],[-1.91289,52.37102],[-1.91171,52.36876],[-1.9121,52.36743],[-1.91172,52.36482],[-1.91057,52.36317],[-1.91097,52.36252],[-1.91142,52.3604],[-1.91253,52.35831],[-1.91258,52.35442],[-1.91527,52.35213],[-1.91629,52.35205],[-1.91811,52.35056],[-1.91845,52.34939],[-1.9181,52.34867],[-1.91916,52.34778],[-1.92328,52.34659],[-1.9259,52.34704],[-1.92751,52.34806],[-1.93307,52.34823],[-1.93501,52.3474],[-1.93633,52.34573],[-1.93634,52.34381],[-1.93764,52.34288],[-1.94022,52.34404],[-1.94191,52.34402],[-1.94787,52.34571],[-1.95081,52.34718],[-1.95128,52.34703],[-1.95153,52.34759],[-1.95356,52.34804],[-1.95806,52.34849],[-1.95875,52.34832],[-1.9623,52.34562],[-1.9632,52.34704],[-1.96511,52.34776],[-1.96405,52.34858],[-1.96411,52.34961],[-1.96332,52.35047],[-1.96222,52.35098],[-1.96239,52.3513],[-1.96009,52.35198],[-1.95959,52.35195],[-1.95984,52.35235],[-1.9616,52.35345],[-1.96177,52.35302],[-1.96283,52.35314],[-1.96376,52.35373],[-1.96532,52.35353],[-1.96532,52.35399],[-1.96433,52.35442],[-1.96453,52.35466],[-1.96572,52.35448],[-1.96589,52.35494],[-1.96525,52.35518],[-1.96581,52.35605],[-1.96496,52.35643],[-1.96515,52.35793],[-1.96617,52.35814],[-1.96567,52.35763],[-1.9658,52.35696],[-1.9672,52.35678],[-1.96874,52.35698],[-1.96972,52.3578],[-1.96906,52.35813],[-1.96983,52.36117],[-1.97247,52.36304],[-1.97119,52.36579],[-1.97353,52.36561],[-1.97434,52.36588],[-1.97407,52.3682],[-1.97555,52.36908],[-1.97678,52.37045],[-1.97618,52.37117],[-1.9763,52.37209],[-1.97458,52.37266],[-1.97562,52.37335],[-1.976,52.37411],[-1.97576,52.37497],[-1.9749,52.37556],[-1.97492,52.37751],[-1.97433,52.37841],[-1.97256,52.37698],[-1.97233,52.37756],[-1.96894,52.37865],[-1.96655,52.37846],[-1.96582,52.37869],[-1.96494,52.37979],[-1.96539,52.3809],[-1.9646,52.38096],[-1.96392,52.38255],[-1.96132,52.38527],[-1.96118,52.38563],[-1.96194,52.38558],[-1.96163,52.38614],[-1.96231,52.38652],[-1.96217,52.38735],[-1.95986,52.38745],[-1.95976,52.38835],[-1.96043,52.38909],[-1.95972,52.38904],[-1.95941,52.38824],[-1.95891,52.38825],[-1.95611,52.39066],[-1.95361,52.39337],[-1.95254,52.39332],[-1.9509,52.39257],[-1.94502,52.39057],[-1.94022,52.38975]]]}},{"type":"Feature","properties":{"id":"E01032123","name":"E01032123","parent":"E07000234","type":"LSOA","pop":1622,"r":27,"ff":15,"ffd":924.8,"ffs":0.5556,"g":0,"co":3,"mo":1,"sa":1,"ic":1},"geometry":{"type":"Polygon","coordinates":[[[-1.90336,52.35967],[-1.89918,52.35893],[-1.89396,52.35934],[-1.89378,52.35908],[-1.88897,52.36109],[-1.88701,52.35701],[-1.8864,52.35622],[-1.88542,52.35617],[-1.88491,52.35558],[-1.88451,52.35452],[-1.88478,52.35357],[-1.87623,52.34557],[-1.87404,52.33865],[-1.87285,52.33704],[-1.87097,52.33563],[-1.86826,52.33302],[-1.86532,52.33335],[-1.86497,52.33316],[-1.86725,52.33162],[-1.86746,52.33098],[-1.86667,52.31825],[-1.86719,52.31812],[-1.86857,52.31459],[-1.87038,52.31261],[-1.87489,52.31246],[-1.88093,52.31093],[-1.89009,52.31823],[-1.89098,52.32042],[-1.89187,52.32143],[-1.89303,52.32135],[-1.89502,52.32185],[-1.89774,52.32158],[-1.89897,52.32207],[-1.89943,52.32175],[-1.90878,52.32047],[-1.90939,52.32351],[-1.91243,52.32296],[-1.91415,52.32308],[-1.9158,52.32275],[-1.92189,52.32248],[-1.92632,52.32371],[-1.93399,52.32421],[-1.93931,52.32376],[-1.93935,52.32354],[-1.94095,52.32324],[-1.94257,52.3217],[-1.94302,52.32187],[-1.94306,52.32242],[-1.94434,52.32231],[-1.94483,52.3227],[-1.94453,52.32292],[-1.94547,52.32315],[-1.94626,52.32378],[-1.94777,52.32546],[-1.94751,52.32625],[-1.94931,52.32677],[-1.94861,52.32826],[-1.95022,52.32847],[-1.94979,52.32915],[-1.95068,52.32953],[-1.9511,52.33014],[-1.95188,52.33003],[-1.95305,52.33061],[-1.95362,52.33055],[-1.9566,52.33254],[-1.95225,52.3348],[-1.95356,52.33601],[-1.95359,52.33689],[-1.95186,52.33651],[-1.95038,52.33579],[-1.94824,52.33547],[-1.94649,52.33439],[-1.94274,52.33387],[-1.94274,52.33675],[-1.94423,52.33811],[-1.94961,52.33817],[-1.95224,52.34134],[-1.95405,52.34131],[-1.95483,52.3423],[-1.95418,52.343],[-1.95287,52.34348],[-1.95153,52.34759],[-1.95128,52.34703],[-1.95081,52.34718],[-1.94787,52.34571],[-1.94191,52.34402],[-1.94022,52.34404],[-1.93764,52.34288],[-1.93634,52.34381],[-1.93633,52.34573],[-1.93501,52.3474],[-1.93307,52.34823],[-1.92751,52.34806],[-1.9259,52.34704],[-1.92328,52.34659],[-1.91916,52.34778],[-1.9181,52.34867],[-1.91845,52.34939],[-1.91811,52.35056],[-1.91629,52.35205],[-1.91527,52.35213],[-1.91258,52.35442],[-1.91253,52.35831],[-1.91142,52.3604],[-1.91097,52.36252],[-1.90755,52.36171],[-1.90336,52.35967]]]}},{"type":"Feature","properties":{"id":"E01032124","name":"E01032124","parent":"E07000234","type":"LSOA","pop":1646,"r":237,"ff":79,"ffd":4799.5,"ffs":0.5338,"g":87,"co":2,"mo":0,"sa":2,"ic":0},"geometry":{"type":"Polygon","coordinates":[[[-1.96515,52.35793],[-1.96496,52.35643],[-1.96581,52.35605],[-1.96525,52.35518],[-1.96589,52.35494],[-1.96572,52.35448],[-1.96453,52.35466],[-1.96433,52.35442],[-1.96532,52.35399],[-1.96532,52.35353],[-1.96376,52.35373],[-1.96283,52.35314],[-1.96177,52.35302],[-1.9616,52.35345],[-1.95984,52.35235],[-1.95959,52.35195],[-1.96009,52.35198],[-1.96239,52.3513],[-1.96222,52.35098],[-1.96332,52.35047],[-1.96397,52.35151],[-1.96472,52.35146],[-1.96634,52.35284],[-1.96698,52.35261],[-1.9679,52.35295],[-1.96763,52.35342],[-1.9716,52.3557],[-1.97171,52.35422],[-1.97301,52.35171],[-1.971,52.35064],[-1.97037,52.34961],[-1.96983,52.34932],[-1.96852,52.34977],[-1.96733,52.34948],[-1.96827,52.35111],[-1.96802,52.35159],[-1.96711,52.35135],[-1.96552,52.34974],[-1.96714,52.34802],[-1.96819,52.34789],[-1.96792,52.34668],[-1.97042,52.34553],[-1.97107,52.3446],[-1.97374,52.34404],[-1.97604,52.3448],[-1.97636,52.34539],[-1.97809,52.34613],[-1.9821,52.34665],[-1.98456,52.34647],[-1.98819,52.35223],[-1.9906,52.35437],[-1.98697,52.3552],[-1.97414,52.3567],[-1.96972,52.3578],[-1.96874,52.35698],[-1.9672,52.35678],[-1.9658,52.35696],[-1.96567,52.35763],[-1.96617,52.35814],[-1.96515,52.35793]]]}},{"type":"Feature","properties":{"id":"E01032125","name":"E01032125","parent":"E07000234","type":"LSOA","pop":1501,"r":233,"ff":76,"ffd":5063.3,"ffs":0.5241,"g":86,"co":2,"mo":0,"sa":0,"ic":0},"geometry":{"type":"Polygon","coordinates":[[[-1.9679,52.35295],[-1.96698,52.35261],[-1.96634,52.35284],[-1.96472,52.35146],[-1.96397,52.35151],[-1.96332,52.35047],[-1.96411,52.34961],[-1.96405,52.34858],[-1.96511,52.34776],[-1.9632,52.34704],[-1.9623,52.34562],[-1.95875,52.34832],[-1.95806,52.34849],[-1.95356,52.34804],[-1.95153,52.34759],[-1.95287,52.34348],[-1.95418,52.343],[-1.95483,52.3423],[-1.95405,52.34131],[-1.95224,52.34134],[-1.94961,52.33817],[-1.94423,52.33811],[-1.94274,52.33675],[-1.94274,52.33387],[-1.94649,52.33439],[-1.94824,52.33547],[-1.95038,52.33579],[-1.95186,52.33651],[-1.95359,52.33689],[-1.95356,52.33601],[-1.95225,52.3348],[-1.9566,52.33254],[-1.95624,52.33342],[-1.95719,52.3341],[-1.95615,52.33411],[-1.95571,52.33462],[-1.95608,52.33587],[-1.95697,52.33634],[-1.95653,52.33742],[-1.95675,52.33825],[-1.95601,52.33856],[-1.95627,52.33946],[-1.95547,52.33969],[-1.95578,52.34068],[-1.95481,52.3408],[-1.95469,52.34203],[-1.95519,52.34258],[-1.95568,52.34232],[-1.95705,52.34275],[-1.95902,52.34259],[-1.96056,52.34292],[-1.96073,52.3433],[-1.96187,52.34364],[-1.96274,52.34351],[-1.96429,52.34399],[-1.96443,52.34371],[-1.96459,52.34399],[-1.96744,52.34436],[-1.96917,52.345],[-1.97107,52.3446],[-1.97042,52.34553],[-1.96792,52.34668],[-1.96819,52.34789],[-1.96714,52.34802],[-1.96552,52.34974],[-1.96711,52.35135],[-1.96802,52.35159],[-1.96827,52.35111],[-1.96733,52.34948],[-1.96852,52.34977],[-1.96983,52.34932],[-1.97037,52.34961],[-1.971,52.35064],[-1.97301,52.35171],[-1.97171,52.35422],[-1.9716,52.3557],[-1.96763,52.35342],[-1.9679,52.35295]]]}},{"type":"Feature","properties":{"id":"E01032126","name":"E01032126","parent":"E07000234","type":"LSOA","pop":2078,"r":404,"ff":135,"ffd":6496.6,"ffs":0.5294,"g":145,"co":0,"mo":0,"sa":0,"ic":0},"geometry":{"type":"Polygon","coordinates":[[[-2.01346,52.39235],[-2.01311,52.38937],[-2.0107,52.38501],[-2.01429,52.38259],[-2.01905,52.38222],[-2.02298,52.38149],[-2.0301,52.37723],[-2.03348,52.37334],[-2.04273,52.37552],[-2.04459,52.3763],[-2.04434,52.37721],[-2.04469,52.3778],[-2.04656,52.3785],[-2.04417,52.37938],[-2.03996,52.38158],[-2.03416,52.38289],[-2.03218,52.38364],[-2.03067,52.38484],[-2.03035,52.38584],[-2.03017,52.38865],[-2.0294,52.38967],[-2.02746,52.39078],[-2.02695,52.3905],[-2.02614,52.39096],[-2.02483,52.39128],[-2.02035,52.39148],[-2.01824,52.3911],[-2.01593,52.39147],[-2.01346,52.39235]]]}},{"type":"Feature","properties":{"id":"E01032127","name":"E01032127","parent":"E07000234","type":"LSOA","pop":1778,"r":383,"ff":122,"ffd":6861.6,"ffs":0.5126,"g":141,"co":0,"mo":0,"sa":0,"ic":0},"geometry":{"type":"Polygon","coordinates":[[[-2.0629,52.36198],[-2.06469,52.3608],[-2.06352,52.36089],[-2.06277,52.36139],[-2.06251,52.36061],[-2.06027,52.36034],[-2.06028,52.36111],[-2.05937,52.36187],[-2.05758,52.36271],[-2.05668,52.36271],[-2.05684,52.36304],[-2.05577,52.36303],[-2.05579,52.3606],[-2.05763,52.35905],[-2.05842,52.35897],[-2.05759,52.35741],[-2.05854,52.35769],[-2.06011,52.3577],[-2.06,52.35657],[-2.062,52.35537],[-2.06287,52.3531],[-2.06799,52.35499],[-2.06985,52.35382],[-2.07019,52.35312],[-2.07154,52.35295],[-2.06762,52.36484],[-2.06658,52.36625],[-2.065,52.36753],[-2.06297,52.36856],[-2.0603,52.36936],[-2.05922,52.36816],[-2.05991,52.36672],[-2.06094,52.36642],[-2.06126,52.36548],[-2.06119,52.36321],[-2.06271,52.36264],[-2.0629,52.36198]]]}},{"type":"Feature","properties":{"id":"E01032128","name":"E01032128","parent":"E07000234","type":"LSOA","pop":1475,"r":416,"ff":138,"ffd":9355.9,"ffs":0.5149,"g":144,"co":0,"mo":0,"sa":0,"ic":0},"geometry":{"type":"Polygon","coordinates":[[[-2.05129,52.36651],[-2.05104,52.36569],[-2.04979,52.36589],[-2.04914,52.36521],[-2.05193,52.36417],[-2.05522,52.36361],[-2.05614,52.36305],[-2.05684,52.36304],[-2.05668,52.36271],[-2.05758,52.36271],[-2.05937,52.36187],[-2.06028,52.36111],[-2.06027,52.36034],[-2.06251,52.36061],[-2.06277,52.36139],[-2.06352,52.36089],[-2.06469,52.3608],[-2.0629,52.36198],[-2.06271,52.36264],[-2.06119,52.36321],[-2.06126,52.36548],[-2.06094,52.36642],[-2.05991,52.36672],[-2.05962,52.36733],[-2.05737,52.36663],[-2.05696,52.36594],[-2.05642,52.36627],[-2.05505,52.36607],[-2.05364,52.36647],[-2.05232,52.36633],[-2.05183,52.36666],[-2.05221,52.36685],[-2.05128,52.36775],[-2.05061,52.36737],[-2.05129,52.36651]]]}},{"type":"Feature","properties":{"id":"E01032129","name":"E01032129","parent":"E07000234","type":"LSOA","pop":1362,"r":461,"ff":152,"ffd":11160.1,"ffs":0.5,"g":152,"co":0,"mo":0,"sa":0,"ic":0},"geometry":{"type":"Polygon","coordinates":[[[-2.04533,52.3718],[-2.04682,52.36557],[-2.04914,52.36521],[-2.04979,52.36589],[-2.05104,52.36569],[-2.05129,52.36651],[-2.05061,52.36737],[-2.05128,52.36775],[-2.05221,52.36685],[-2.05183,52.36666],[-2.05232,52.36633],[-2.05364,52.36647],[-2.05505,52.36607],[-2.05642,52.36627],[-2.05696,52.36594],[-2.05737,52.36663],[-2.05962,52.36733],[-2.05922,52.36816],[-2.0603,52.36936],[-2.05531,52.37044],[-2.05267,52.37153],[-2.05068,52.37298],[-2.04656,52.3785],[-2.04469,52.3778],[-2.04434,52.37721],[-2.04506,52.37534],[-2.04533,52.3718]]]}},{"type":"Feature","properties":{"id":"E01032131","name":"E01032131","parent":"E07000234","type":"LSOA","pop":1619,"r":97,"ff":30,"ffd":1853.0,"ffs":0.4918,"g":35,"co":0,"mo":0,"sa":0,"ic":0},"geometry":{"type":"Polygon","coordinates":[[[-2.07082,52.32331],[-2.07127,52.32285],[-2.07228,52.32303],[-2.0727,52.32291],[-2.0725,52.32176],[-2.0719,52.32019],[-2.07253,52.32004],[-2.07222,52.31936],[-2.07396,52.31928],[-2.07419,52.32022],[-2.07578,52.31939],[-2.07598,52.31966],[-2.07725,52.31922],[-2.07754,52.3199],[-2.07824,52.31972],[-2.07937,52.32028],[-2.07651,52.32269],[-2.07418,52.32413],[-2.07041,52.32723],[-2.06898,52.32635],[-2.06983,52.3253],[-2.06964,52.32487],[-2.0707,52.32412],[-2.07082,52.32331]]]}},{"type":"Feature","properties":{"id":"E01032132","name":"E01032132","parent":"E07000234","type":"LSOA","pop":2076,"r":97,"ff":30,"ffd":1445.1,"ffs":0.4918,"g":35,"co":0,"mo":0,"sa":0,"ic":0},"geometry":{"type":"Polygon","coordinates":[[[-2.06379,52.32293],[-2.06363,52.32242],[-2.06301,52.32215],[-2.06355,52.32167],[-2.06348,52.32111],[-2.06415,52.32078],[-2.06221,52.31901],[-2.06387,52.31856],[-2.06489,52.31904],[-2.06947,52.31832],[-2.07009,52.3184],[-2.07141,52.31944],[-2.07222,52.31936],[-2.07253,52.32004],[-2.0719,52.32019],[-2.0725,52.32176],[-2.0727,52.32291],[-2.07228,52.32303],[-2.07127,52.32285],[-2.07082,52.32331],[-2.0707,52.32412],[-2.06964,52.32487],[-2.06983,52.3253],[-2.06898,52.32635],[-2.06797,52.32569],[-2.06481,52.32501],[-2.06553,52.32431],[-2.06495,52.32335],[-2.06379,52.32293]]]}},{"type":"Feature","properties":{"id":"E01032133","name":"E01032133","parent":"E07000234","type":"LSOA","pop":1587,"r":424,"ff":140,"ffd":8821.7,"ffs":0.4762,"g":124,"co":2,"mo":2,"sa":0,"ic":0},"geometry":{"type":"Polygon","coordinates":[[[-1.88102,52.39127],[-1.88183,52.39013],[-1.8831,52.39022],[-1.88319,52.38995],[-1.8827,52.38987],[-1.88303,52.38901],[-1.88267,52.38821],[-1.88194,52.38836],[-1.88001,52.38757],[-1.87925,52.38769],[-1.87872,52.38732],[-1.87792,52.38624],[-1.87835,52.38612],[-1.87839,52.38563],[-1.87723,52.38588],[-1.87679,52.3856],[-1.87716,52.38514],[-1.87662,52.38501],[-1.87714,52.38476],[-1.87688,52.38435],[-1.88049,52.38382],[-1.88343,52.38369],[-1.88352,52.38467],[-1.88306,52.38495],[-1.88357,52.38538],[-1.88314,52.3856],[-1.8833,52.38579],[-1.88405,52.38562],[-1.88512,52.38721],[-1.8846,52.39123],[-1.88102,52.39127]]]}},{"type":"Feature","properties":{"id":"E01032134","name":"E01032134","parent":"E07000234","type":"LSOA","pop":1686,"r":427,"ff":149,"ffd":8837.5,"ffs":0.4934,"g":120,"co":2,"mo":0,"sa":0,"ic":0},"geometry":{"type":"Polygon","coordinates":[[[-1.91081,52.40669],[-1.90974,52.40448],[-1.90749,52.40423],[-1.90421,52.40314],[-1.90166,52.40373],[-1.89879,52.40374],[-1.89635,52.40331],[-1.89488,52.40362],[-1.89343,52.40421],[-1.89212,52.40443],[-1.88711,52.40469],[-1.88708,52.40418],[-1.88912,52.40181],[-1.89254,52.39939],[-1.89452,52.39754],[-1.89283,52.3974],[-1.89085,52.39658],[-1.88993,52.39521],[-1.88855,52.3939],[-1.88663,52.39421],[-1.88651,52.39343],[-1.88672,52.3911],[-1.88462,52.39139],[-1.88512,52.38721],[-1.88405,52.38562],[-1.8833,52.38579],[-1.88314,52.3856],[-1.88357,52.38538],[-1.88306,52.38495],[-1.88352,52.38467],[-1.88343,52.38369],[-1.88425,52.38371],[-1.88493,52.37904],[-1.88659,52.37953],[-1.8889,52.37949],[-1.8901,52.38001],[-1.89125,52.37927],[-1.89169,52.37781],[-1.89338,52.37689],[-1.89701,52.3802],[-1.8998,52.38173],[-1.91898,52.37799],[-1.9205,52.37838],[-1.92182,52.38072],[-1.92791,52.38529],[-1.93431,52.38724],[-1.93415,52.38755],[-1.93462,52.38788],[-1.93285,52.39033],[-1.93207,52.3905],[-1.92807,52.39289],[-1.92827,52.39314],[-1.92438,52.39669],[-1.92314,52.39623],[-1.92244,52.39686],[-1.91858,52.39819],[-1.91837,52.39971],[-1.91529,52.40321],[-1.91465,52.40675],[-1.91396,52.40666],[-1.91368,52.40746],[-1.91081,52.40669]]]}},{"type":"Feature","properties":{"id":"E01032135","name":"E01032135","parent":"E07000234","type":"LSOA","pop":1618,"r":406,"ff":136,"ffd":8405.4,"ffs":0.4857,"g":120,"co":2,"mo":2,"sa":0,"ic":0},"geometry":{"type":"Polygon","coordinates":[[[-1.87997,52.39122],[-1.87755,52.39036],[-1.87685,52.39065],[-1.87633,52.39],[-1.8746,52.39009],[-1.87445,52.38989],[-1.87149,52.39103],[-1.86934,52.38779],[-1.87117,52.38568],[-1.87266,52.38505],[-1.8753,52.38439],[-1.87688,52.38435],[-1.87714,52.38476],[-1.87662,52.38501],[-1.87716,52.38514],[-1.87679,52.3856],[-1.87723,52.38588],[-1.87839,52.38563],[-1.87835,52.38612],[-1.87792,52.38624],[-1.87872,52.38732],[-1.87925,52.38769],[-1.88001,52.38757],[-1.88194,52.38836],[-1.88267,52.38821],[-1.88303,52.38901],[-1.8827,52.38987],[-1.88319,52.38995],[-1.8831,52.39022],[-1.88183,52.39013],[-1.88102,52.39127],[-1.87997,52.39122]]]}},{"type":"Feature","properties":{"id":"E01032136","name":"E01032136","parent":"E07000234","type":"LSOA","pop":1331,"r":327,"ff":104,"ffd":7813.7,"ffs":0.5333,"g":128,"co":0,"mo":2,"sa":2,"ic":0},"geometry":{"type":"Polygon","coordinates":[[[-2.08099,52.43092],[-2.07928,52.43047],[-2.07822,52.43088],[-2.07726,52.43085],[-2.07835,52.42827],[-2.07953,52.42748],[-2.08124,52.42542],[-2.08441,52.42456],[-2.08416,52.42442],[-2.08788,52.42307],[-2.08836,52.42267],[-2.08814,52.42226],[-2.08893,52.42177],[-2.08816,52.42103],[-2.08486,52.42049],[-2.08414,52.41999],[-2.08221,52.41953],[-2.0814,52.41882],[-2.08235,52.41566],[-2.08162,52.41468],[-2.07979,52.41367],[-2.0797,52.41238],[-2.07899,52.41174],[-2.08084,52.40835],[-2.08081,52.40737],[-2.07951,52.40523],[-2.07715,52.40485],[-2.07695,52.40388],[-2.07804,52.40002],[-2.07327,52.3992],[-2.07042,52.39919],[-2.06874,52.39969],[-2.06638,52.39977],[-2.06501,52.40038],[-2.0625,52.39827],[-2.06226,52.39687],[-2.06362,52.39521],[-2.06264,52.39417],[-2.0631,52.39387],[-2.06232,52.3925],[-2.06308,52.39193],[-2.07096,52.38995],[-2.07476,52.39122],[-2.07511,52.38912],[-2.07653,52.38923],[-2.07783,52.38897],[-2.07968,52.38953],[-2.08248,52.38898],[-2.08148,52.388],[-2.08332,52.38707],[-2.08198,52.38602],[-2.08388,52.38522],[-2.08489,52.38562],[-2.086,52.38377],[-2.08748,52.38235],[-2.09294,52.38282],[-2.09372,52.38236],[-2.09369,52.3816],[-2.09609,52.38089],[-2.09697,52.38006],[-2.10497,52.38455],[-2.10133,52.38875],[-2.10114,52.39054],[-2.09731,52.39327],[-2.10063,52.39344],[-2.10308,52.39257],[-2.10436,52.39343],[-2.10292,52.39431],[-2.10266,52.3952],[-2.10348,52.3967],[-2.10185,52.39659],[-2.09992,52.39745],[-2.10279,52.39915],[-2.10141,52.39987],[-2.10008,52.39926],[-2.09816,52.39934],[-2.09654,52.40105],[-2.09276,52.4018],[-2.09345,52.40203],[-2.09294,52.40262],[-2.09461,52.40309],[-2.09345,52.40467],[-2.09432,52.40492],[-2.0932,52.40562],[-2.09504,52.40652],[-2.09758,52.40587],[-2.10158,52.40607],[-2.10396,52.40382],[-2.1038,52.40348],[-2.10536,52.40295],[-2.10577,52.40359],[-2.10836,52.40317],[-2.11078,52.40249],[-2.11359,52.4025],[-2.11235,52.40502],[-2.11394,52.40501],[-2.11468,52.40474],[-2.11442,52.40748],[-2.11415,52.40711],[-2.11344,52.40715],[-2.11424,52.40806],[-2.1134,52.40806],[-2.1112,52.40914],[-2.11345,52.41039],[-2.11498,52.40916],[-2.11735,52.40866],[-2.11487,52.40758],[-2.11568,52.40624],[-2.11751,52.40531],[-2.11775,52.40435],[-2.12309,52.40271],[-2.12602,52.40224],[-2.12723,52.40284],[-2.12625,52.4033],[-2.12773,52.40462],[-2.12752,52.40504],[-2.12811,52.40568],[-2.13404,52.4103],[-2.13926,52.41075],[-2.13895,52.41175],[-2.13652,52.41269],[-2.13094,52.4108],[-2.12614,52.41358],[-2.12346,52.41713],[-2.12647,52.41739],[-2.12769,52.41698],[-2.12945,52.41889],[-2.12948,52.41867],[-2.13082,52.42077],[-2.12647,52.42188],[-2.1243,52.42204],[-2.12265,52.42185],[-2.12042,52.42114],[-2.11744,52.42146],[-2.11367,52.42119],[-2.10881,52.42293],[-2.10707,52.42297],[-2.10676,52.4225],[-2.106,52.42245],[-2.1013,52.42525],[-2.10011,52.4265],[-2.09939,52.42611],[-2.09638,52.42685],[-2.09384,52.42808],[-2.09096,52.42884],[-2.08839,52.42928],[-2.08609,52.42924],[-2.08513,52.42949],[-2.08362,52.4306],[-2.08174,52.42998],[-2.08099,52.43092]]]}},{"type":"Feature","properties":{"id":"E01032137","name":"E01032137","parent":"E07000234","type":"LSOA","pop":1650,"r":272,"ff":81,"ffd":4909.1,"ffs":0.54,"g":119,"co":0,"mo":2,"sa":2,"ic":0},"geometry":{"type":"Polygon","coordinates":[[[-2.1112,52.40914],[-2.1134,52.40806],[-2.11424,52.40806],[-2.11344,52.40715],[-2.11415,52.40711],[-2.11442,52.40748],[-2.11468,52.40474],[-2.11394,52.40501],[-2.11235,52.40502],[-2.11359,52.4025],[-2.11078,52.40249],[-2.10836,52.40317],[-2.10577,52.40359],[-2.10536,52.40295],[-2.1038,52.40348],[-2.10396,52.40382],[-2.10158,52.40607],[-2.09758,52.40587],[-2.09504,52.40652],[-2.0932,52.40562],[-2.09432,52.40492],[-2.09345,52.40467],[-2.09461,52.40309],[-2.09294,52.40262],[-2.09345,52.40203],[-2.09276,52.4018],[-2.09654,52.40105],[-2.09816,52.39934],[-2.10008,52.39926],[-2.10141,52.39987],[-2.10279,52.39915],[-2.09992,52.39745],[-2.10185,52.39659],[-2.10348,52.3967],[-2.10266,52.3952],[-2.10292,52.39431],[-2.10436,52.39343],[-2.10308,52.39257],[-2.10063,52.39344],[-2.09731,52.39327],[-2.10114,52.39054],[-2.10133,52.38875],[-2.10497,52.38455],[-2.09697,52.38006],[-2.09821,52.37817],[-2.09835,52.3756],[-2.09938,52.37484],[-2.10004,52.37366],[-2.10261,52.3724],[-2.1041,52.37228],[-2.10466,52.37188],[-2.10542,52.37211],[-2.10643,52.37169],[-2.10643,52.36975],[-2.10484,52.36698],[-2.10659,52.36568],[-2.11061,52.36458],[-2.11222,52.36466],[-2.11319,52.36546],[-2.11544,52.36116],[-2.11942,52.35924],[-2.12097,52.36061],[-2.12121,52.36126],[-2.1209,52.36302],[-2.12019,52.36334],[-2.1201,52.36385],[-2.12187,52.36631],[-2.1225,52.36649],[-2.12209,52.36685],[-2.12314,52.37299],[-2.12435,52.37421],[-2.12845,52.38212],[-2.13112,52.38538],[-2.13252,52.3862],[-2.13146,52.38789],[-2.1299,52.3888],[-2.13225,52.39001],[-2.13207,52.39033],[-2.1334,52.39145],[-2.13333,52.39184],[-2.1377,52.3939],[-2.13619,52.39539],[-2.13786,52.39553],[-2.13714,52.39665],[-2.13518,52.39857],[-2.13203,52.39819],[-2.13135,52.39946],[-2.13097,52.39938],[-2.12874,52.40105],[-2.12602,52.40224],[-2.12309,52.40271],[-2.11775,52.40435],[-2.11751,52.40531],[-2.11568,52.40624],[-2.11487,52.40758],[-2.11735,52.40866],[-2.11498,52.40916],[-2.11345,52.41039],[-2.1112,52.40914]]]}},{"type":"Feature","properties":{"id":"E01032138","name":"E01032138","parent":"E07000234","type":"LSOA","pop":1698,"r":319,"ff":106,"ffd":6242.6,"ffs":0.5464,"g":121,"co":0,"mo":2,"sa":2,"ic":0},"geometry":{"type":"Polygon","coordinates":[[[-2.13082,52.42077],[-2.12948,52.41867],[-2.12945,52.41889],[-2.12769,52.41698],[-2.12647,52.41739],[-2.12346,52.41713],[-2.12614,52.41358],[-2.13094,52.4108],[-2.13652,52.41269],[-2.13895,52.41175],[-2.13926,52.41075],[-2.1445,52.4114],[-2.14425,52.41002],[-2.14574,52.40957],[-2.15447,52.4098],[-2.15826,52.40928],[-2.16032,52.41648],[-2.15329,52.41659],[-2.15192,52.41551],[-2.14967,52.41498],[-2.14857,52.41525],[-2.14401,52.41815],[-2.13896,52.41753],[-2.13734,52.41801],[-2.13668,52.41799],[-2.13082,52.42077]]]}},{"type":"Feature","properties":{"id":"E01032139","name":"E01032139","parent":"E07000234","type":"LSOA","pop":2524,"r":342,"ff":116,"ffd":4595.9,"ffs":0.5524,"g":128,"co":0,"mo":2,"sa":2,"ic":0},"geometry":{"type":"Polygon","coordinates":[[[-2.14633,52.42632],[-2.14355,52.42606],[-2.13603,52.42627],[-2.13548,52.42806],[-2.13351,52.42767],[-2.12962,52.42504],[-2.13243,52.42446],[-2.14083,52.42414],[-2.14125,52.42317],[-2.14218,52.42315],[-2.14263,52.42189],[-2.1411,52.42184],[-2.14088,52.42222],[-2.14003,52.42222],[-2.13972,52.42182],[-2.13806,52.42159],[-2.13764,52.42172],[-2.13677,52.42114],[-2.13537,52.42199],[-2.13278,52.42286],[-2.13174,52.42228],[-2.13082,52.42077],[-2.13668,52.41799],[-2.13734,52.41801],[-2.13896,52.41753],[-2.14401,52.41815],[-2.14409,52.4187],[-2.14313,52.41914],[-2.14316,52.41945],[-2.14378,52.41945],[-2.14349,52.41999],[-2.14426,52.41976],[-2.14634,52.41989],[-2.14692,52.42026],[-2.14673,52.42141],[-2.14791,52.42204],[-2.15097,52.42144],[-2.15181,52.42086],[-2.15236,52.41975],[-2.15294,52.41984],[-2.15191,52.42163],[-2.15263,52.42247],[-2.15184,52.42297],[-2.15115,52.42292],[-2.15026,52.42396],[-2.15233,52.42569],[-2.15709,52.42558],[-2.15762,52.42487],[-2.15727,52.42347],[-2.16318,52.42261],[-2.16417,52.42391],[-2.16406,52.42782],[-2.16485,52.4302],[-2.14633,52.42632]]]}},{"type":"Feature","properties":{"id":"E01032140","name":"E01032140","parent":"E07000234","type":"LSOA","pop":1844,"r":232,"ff":78,"ffd":4229.9,"ffs":0.5652,"g":91,"co":0,"mo":2,"sa":2,"ic":0},"geometry":{"type":"Polygon","coordinates":[[[-2.15026,52.42396],[-2.15115,52.42292],[-2.15184,52.42297],[-2.15263,52.42247],[-2.15191,52.42163],[-2.15294,52.41984],[-2.15236,52.41975],[-2.15181,52.42086],[-2.15097,52.42144],[-2.14791,52.42204],[-2.14673,52.42141],[-2.14692,52.42026],[-2.14634,52.41989],[-2.14426,52.41976],[-2.14349,52.41999],[-2.14378,52.41945],[-2.14316,52.41945],[-2.14313,52.41914],[-2.14409,52.4187],[-2.14401,52.41815],[-2.14857,52.41525],[-2.14967,52.41498],[-2.15192,52.41551],[-2.15329,52.41659],[-2.15396,52.41668],[-2.16032,52.41648],[-2.16202,52.41617],[-2.16258,52.41563],[-2.16324,52.41615],[-2.16395,52.41714],[-2.16393,52.41922],[-2.16467,52.42151],[-2.16771,52.42378],[-2.16381,52.42327],[-2.16318,52.42261],[-2.15727,52.42347],[-2.15762,52.42487],[-2.15709,52.42558],[-2.15233,52.42569],[-2.15026,52.42396]]]}},{"type":"Feature","properties":{"id":"E01032141","name":"E01032141","parent":"E07000234","type":"LSOA","pop":1523,"r":433,"ff":150,"ffd":9849.0,"ffs":0.5435,"g":152,"co":0,"mo":2,"sa":0,"ic":0},"geometry":{"type":"Polygon","coordinates":[[[-2.09857,52.44528],[-2.09567,52.44492],[-2.09328,52.44528],[-2.09287,52.44504],[-2.09425,52.44402],[-2.09414,52.44377],[-2.09026,52.44264],[-2.09076,52.44226],[-2.09076,52.44157],[-2.09047,52.44108],[-2.08934,52.44066],[-2.08874,52.44013],[-2.08725,52.43691],[-2.08751,52.43456],[-2.08696,52.43464],[-2.08645,52.43366],[-2.08551,52.4334],[-2.08605,52.43292],[-2.08476,52.43218],[-2.08342,52.43208],[-2.08266,52.43237],[-2.0821,52.43173],[-2.07989,52.43227],[-2.08174,52.42998],[-2.08362,52.4306],[-2.08513,52.42949],[-2.08609,52.42924],[-2.08839,52.42928],[-2.09096,52.42884],[-2.09384,52.42808],[-2.09638,52.42685],[-2.09939,52.42611],[-2.10011,52.4265],[-2.1013,52.42525],[-2.106,52.42245],[-2.10676,52.4225],[-2.10707,52.42297],[-2.10881,52.42293],[-2.11367,52.42119],[-2.11744,52.42146],[-2.12042,52.42114],[-2.12265,52.42185],[-2.1243,52.42204],[-2.12647,52.42188],[-2.13082,52.42077],[-2.13174,52.42228],[-2.13278,52.42286],[-2.13537,52.42199],[-2.13677,52.42114],[-2.13764,52.42172],[-2.13806,52.42159],[-2.13972,52.42182],[-2.14003,52.42222],[-2.14088,52.42222],[-2.1411,52.42184],[-2.14263,52.42189],[-2.14218,52.42315],[-2.14125,52.42317],[-2.14083,52.42414],[-2.13243,52.42446],[-2.12962,52.42504],[-2.13351,52.42767],[-2.13309,52.42762],[-2.13227,52.42992],[-2.13046,52.42963],[-2.12927,52.4299],[-2.12975,52.43073],[-2.12902,52.43092],[-2.1297,52.43221],[-2.12778,52.43236],[-2.12776,52.43271],[-2.12288,52.43342],[-2.11973,52.43468],[-2.11752,52.43394],[-2.11725,52.43436],[-2.11464,52.43566],[-2.11251,52.43751],[-2.11161,52.43743],[-2.10876,52.44124],[-2.10628,52.44292],[-2.10525,52.44421],[-2.10199,52.44399],[-2.10067,52.44434],[-2.10005,52.44496],[-2.09857,52.44528]]]}},{"type":"Feature","properties":{"id":"E01032142","name":"E01032142","parent":"E07000234","type":"LSOA","pop":2798,"r":330,"ff":113,"ffd":4038.6,"ffs":0.5622,"g":126,"co":2,"mo":0,"sa":0,"ic":0},"geometry":{"type":"Polygon","coordinates":[[[-1.98313,52.38293],[-1.98344,52.37884],[-1.9893,52.37685],[-1.99095,52.37496],[-1.99423,52.37426],[-1.99736,52.37302],[-1.999,52.37655],[-2.00107,52.38004],[-2.00335,52.37934],[-2.0051,52.38104],[-2.0068,52.38084],[-2.00869,52.38167],[-2.01135,52.38618],[-2.00846,52.38696],[-2.00594,52.38536],[-2.005,52.38415],[-2.00417,52.38396],[-2.00221,52.3842],[-2.00219,52.38353],[-2.00128,52.38357],[-2.00012,52.38166],[-1.99898,52.38128],[-1.99732,52.38107],[-1.99429,52.38126],[-1.99288,52.38195],[-1.98897,52.38264],[-1.98808,52.3836],[-1.98819,52.3845],[-1.98549,52.386],[-1.98378,52.38728],[-1.98167,52.38752],[-1.98313,52.38293]]]}},{"type":"Feature","properties":{"id":"E01032143","name":"E01032143","parent":"E07000234","type":"LSOA","pop":1751,"r":384,"ff":123,"ffd":7024.6,"ffs":0.5168,"g":142,"co":0,"mo":0,"sa":0,"ic":0},"geometry":{"type":"Polygon","coordinates":[[[-1.96397,52.39155],[-1.96043,52.38909],[-1.95976,52.38835],[-1.95986,52.38745],[-1.96217,52.38735],[-1.96231,52.38652],[-1.96163,52.38614],[-1.96194,52.38558],[-1.96118,52.38563],[-1.96132,52.38527],[-1.96392,52.38255],[-1.9646,52.38096],[-1.96539,52.3809],[-1.96494,52.37979],[-1.96582,52.37869],[-1.96655,52.37846],[-1.96894,52.37865],[-1.97233,52.37756],[-1.97256,52.37698],[-1.97433,52.37841],[-1.97692,52.3791],[-1.97786,52.37784],[-1.98004,52.37732],[-1.97786,52.37528],[-1.97758,52.37369],[-1.98268,52.37112],[-1.98233,52.37036],[-1.98528,52.36957],[-1.98983,52.36453],[-1.99133,52.36542],[-1.99608,52.36376],[-1.99961,52.36165],[-2.00411,52.36098],[-2.00748,52.36608],[-2.01031,52.36863],[-2.01139,52.37033],[-2.01415,52.36725],[-2.01548,52.36796],[-2.01472,52.36859],[-2.01958,52.37104],[-2.02094,52.37059],[-2.02327,52.37176],[-2.02515,52.37243],[-2.02922,52.37231],[-2.03042,52.37255],[-2.03209,52.37327],[-2.03348,52.37334],[-2.0301,52.37723],[-2.02298,52.38149],[-2.01905,52.38222],[-2.01429,52.38259],[-2.0107,52.38501],[-2.00869,52.38167],[-2.0068,52.38084],[-2.0051,52.38104],[-2.00335,52.37934],[-2.00107,52.38004],[-1.999,52.37655],[-1.99736,52.37302],[-1.99423,52.37426],[-1.99095,52.37496],[-1.9893,52.37685],[-1.98344,52.37884],[-1.98313,52.38293],[-1.98167,52.38752],[-1.97894,52.38787],[-1.97859,52.38751],[-1.97786,52.38769],[-1.97558,52.38711],[-1.97246,52.38813],[-1.97146,52.38931],[-1.97062,52.38961],[-1.96972,52.38969],[-1.96896,52.38921],[-1.96883,52.38946],[-1.96636,52.38947],[-1.96493,52.39219],[-1.96397,52.39155]]]}},{"type":"Feature","properties":{"id":"E01032144","name":"E01032144","parent":"E07000234","type":"LSOA","pop":2050,"r":284,"ff":87,"ffd":4243.9,"ffs":0.5058,"g":109,"co":2,"mo":0,"sa":0,"ic":0},"geometry":{"type":"Polygon","coordinates":[[[-1.97434,52.36588],[-1.97353,52.36561],[-1.97119,52.36579],[-1.97247,52.36304],[-1.96983,52.36117],[-1.96906,52.35813],[-1.97008,52.3577],[-1.97414,52.3567],[-1.98697,52.3552],[-1.99431,52.35363],[-2.00006,52.35306],[-1.99941,52.3537],[-2.00113,52.35573],[-2.00195,52.35599],[-2.00266,52.35827],[-2.00468,52.35972],[-2.00411,52.36098],[-1.99961,52.36165],[-1.99608,52.36376],[-1.99133,52.36542],[-1.98983,52.36453],[-1.98528,52.36957],[-1.98233,52.37036],[-1.98268,52.37112],[-1.97758,52.37369],[-1.97786,52.37528],[-1.98004,52.37732],[-1.97786,52.37784],[-1.97692,52.3791],[-1.97433,52.37841],[-1.97492,52.37751],[-1.9749,52.37556],[-1.97576,52.37497],[-1.976,52.37411],[-1.97562,52.37335],[-1.97458,52.37266],[-1.9763,52.37209],[-1.97618,52.37117],[-1.97678,52.37045],[-1.97555,52.36908],[-1.97407,52.3682],[-1.97434,52.36588]]]}},{"type":"Feature","properties":{"id":"E01032145","name":"E01032145","parent":"E07000234","type":"LSOA","pop":1605,"r":444,"ff":153,"ffd":9532.7,"ffs":0.4781,"g":118,"co":2,"mo":2,"sa":0,"ic":0},"geometry":{"type":"Polygon","coordinates":[[[-1.8836,52.40096],[-1.8827,52.39981],[-1.87835,52.3999],[-1.87786,52.40243],[-1.87377,52.40226],[-1.8722,52.40069],[-1.87255,52.39707],[-1.87157,52.39501],[-1.86944,52.3943],[-1.86909,52.39267],[-1.86988,52.39288],[-1.87131,52.39236],[-1.87135,52.39177],[-1.87306,52.39141],[-1.87277,52.39182],[-1.87358,52.39198],[-1.87399,52.39248],[-1.87518,52.39232],[-1.87557,52.39256],[-1.87527,52.3928],[-1.87603,52.3928],[-1.87644,52.39337],[-1.87708,52.39345],[-1.87793,52.39252],[-1.87869,52.39271],[-1.87876,52.39362],[-1.8801,52.39374],[-1.88038,52.39428],[-1.88074,52.39432],[-1.8799,52.3966],[-1.88049,52.39661],[-1.88067,52.39715],[-1.88098,52.3972],[-1.88138,52.39621],[-1.88386,52.39332],[-1.88462,52.39139],[-1.88672,52.3911],[-1.88651,52.39343],[-1.88663,52.39421],[-1.88855,52.3939],[-1.88993,52.39521],[-1.89085,52.39658],[-1.89283,52.3974],[-1.89452,52.39754],[-1.89254,52.39939],[-1.88912,52.40181],[-1.88708,52.40418],[-1.88711,52.40469],[-1.88595,52.40468],[-1.88619,52.40436],[-1.8836,52.40096]]]}},{"type":"Feature","properties":{"id":"E01032146","name":"E01032146","parent":"E07000234","type":"LSOA","pop":1699,"r":494,"ff":180,"ffd":10594.5,"ffs":0.5028,"g":131,"co":2,"mo":2,"sa":0,"ic":0},"geometry":{"type":"Polygon","coordinates":[[[-1.86478,52.40481],[-1.86379,52.40442],[-1.86345,52.40463],[-1.86177,52.4036],[-1.85827,52.40295],[-1.85344,52.40154],[-1.8517,52.40055],[-1.85065,52.40182],[-1.84548,52.40041],[-1.8456,52.39943],[-1.84648,52.39726],[-1.84802,52.39509],[-1.849,52.39408],[-1.8562,52.38873],[-1.85724,52.38877],[-1.85853,52.38816],[-1.86366,52.38825],[-1.8662,52.38862],[-1.86934,52.38779],[-1.87149,52.39103],[-1.87257,52.39064],[-1.87306,52.39141],[-1.87135,52.39177],[-1.87131,52.39236],[-1.86988,52.39288],[-1.86909,52.39267],[-1.86944,52.3943],[-1.87157,52.39501],[-1.87255,52.39707],[-1.8722,52.40069],[-1.87377,52.40226],[-1.87229,52.40219],[-1.87228,52.40468],[-1.86875,52.40474],[-1.86865,52.40421],[-1.86628,52.40456],[-1.86502,52.40436],[-1.86478,52.40481]]]}},{"type":"Feature","properties":{"id":"E01032147","name":"E01032147","parent":"E07000234","type":"LSOA","pop":1240,"r":448,"ff":154,"ffd":12419.4,"ffs":0.4843,"g":124,"co":2,"mo":2,"sa":0,"ic":0},"geometry":{"type":"Polygon","coordinates":[[[-1.87869,52.39271],[-1.87793,52.39252],[-1.87708,52.39345],[-1.87644,52.39337],[-1.87603,52.3928],[-1.87527,52.3928],[-1.87557,52.39256],[-1.87518,52.39232],[-1.87399,52.39248],[-1.87358,52.39198],[-1.87277,52.39182],[-1.87306,52.39141],[-1.87257,52.39064],[-1.87445,52.38989],[-1.8746,52.39009],[-1.87633,52.39],[-1.87685,52.39065],[-1.87755,52.39036],[-1.87997,52.39122],[-1.8846,52.39123],[-1.88386,52.39332],[-1.88138,52.39621],[-1.88098,52.3972],[-1.88067,52.39715],[-1.88049,52.39661],[-1.8799,52.3966],[-1.88074,52.39432],[-1.88038,52.39428],[-1.8801,52.39374],[-1.87876,52.39362],[-1.87869,52.39271]]]}},{"type":"Feature","properties":{"id":"E01032148","name":"E01032148","parent":"E07000234","type":"LSOA","pop":1224,"r":236,"ff":71,"ffd":5800.7,"ffs":0.5035,"g":92,"co":0,"mo":0,"sa":0,"ic":0},"geometry":{"type":"Polygon","coordinates":[[[-2.01512,52.36272],[-2.01697,52.36045],[-2.01271,52.36098],[-2.01382,52.36052],[-2.01389,52.35983],[-2.01222,52.35967],[-2.01157,52.36011],[-2.01006,52.36001],[-2.00873,52.36066],[-2.00754,52.35809],[-2.00867,52.35694],[-2.00961,52.35697],[-2.01037,52.35664],[-2.00997,52.3559],[-2.00867,52.35604],[-2.0077,52.35334],[-2.0068,52.35325],[-2.00596,52.35099],[-2.00723,52.35038],[-2.00779,52.35044],[-2.00752,52.3497],[-2.00851,52.34962],[-2.00912,52.35005],[-2.00939,52.34942],[-2.01069,52.34957],[-2.01077,52.34916],[-2.01305,52.34884],[-2.01312,52.34842],[-2.01416,52.34807],[-2.01292,52.34796],[-2.01199,52.34654],[-2.01531,52.34481],[-2.01504,52.34453],[-2.02156,52.33997],[-2.02138,52.33971],[-2.03369,52.33125],[-2.03853,52.33318],[-2.03763,52.33507],[-2.03794,52.33571],[-2.03672,52.33617],[-2.03537,52.33753],[-2.03335,52.33795],[-2.03522,52.33912],[-2.03393,52.34036],[-2.03178,52.34111],[-2.03213,52.34199],[-2.03426,52.34168],[-2.03515,52.34307],[-2.03669,52.34369],[-2.04171,52.34347],[-2.04304,52.34289],[-2.04593,52.34268],[-2.04848,52.34285],[-2.04816,52.34798],[-2.04775,52.34796],[-2.04759,52.34857],[-2.04645,52.34922],[-2.04545,52.34877],[-2.04471,52.34893],[-2.04439,52.34939],[-2.04191,52.34889],[-2.03973,52.34937],[-2.03583,52.34825],[-2.03499,52.34752],[-2.03164,52.34817],[-2.02981,52.34991],[-2.03036,52.35232],[-2.03222,52.35418],[-2.03008,52.35524],[-2.02883,52.3594],[-2.02767,52.35919],[-2.02444,52.36005],[-2.02358,52.3609],[-2.02394,52.36142],[-2.01942,52.36373],[-2.01712,52.3634],[-2.01512,52.36272]]]}},{"type":"Feature","properties":{"id":"E01032149","name":"E01032149","parent":"E07000234","type":"LSOA","pop":1262,"r":277,"ff":83,"ffd":6576.9,"ffs":0.5155,"g":113,"co":0,"mo":0,"sa":0,"ic":0},"geometry":{"type":"Polygon","coordinates":[[[-2.01031,52.36863],[-2.00748,52.36608],[-2.00411,52.36098],[-2.00468,52.35972],[-2.00266,52.35827],[-2.00195,52.35599],[-2.00113,52.35573],[-1.99941,52.3537],[-2.0034,52.35016],[-2.00808,52.34777],[-2.00918,52.34747],[-2.00944,52.3477],[-2.01199,52.34654],[-2.01292,52.34796],[-2.01416,52.34807],[-2.01312,52.34842],[-2.01305,52.34884],[-2.01077,52.34916],[-2.01069,52.34957],[-2.00939,52.34942],[-2.00912,52.35005],[-2.00851,52.34962],[-2.00752,52.3497],[-2.00779,52.35044],[-2.00723,52.35038],[-2.00596,52.35099],[-2.0068,52.35325],[-2.0077,52.35334],[-2.00867,52.35604],[-2.00997,52.3559],[-2.01037,52.35664],[-2.00961,52.35697],[-2.00867,52.35694],[-2.00754,52.35809],[-2.00873,52.36066],[-2.01006,52.36001],[-2.01157,52.36011],[-2.01222,52.35967],[-2.01389,52.35983],[-2.01382,52.36052],[-2.01271,52.36098],[-2.01697,52.36045],[-2.01512,52.36272],[-2.01712,52.3634],[-2.01942,52.36373],[-2.01521,52.36782],[-2.01415,52.36725],[-2.01139,52.37033],[-2.01031,52.36863]]]}},{"type":"Feature","properties":{"id":"E01032150","name":"E01032150","parent":"E07000234","type":"LSOA","pop":1437,"r":424,"ff":141,"ffd":9812.1,"ffs":0.5203,"g":149,"co":0,"mo":0,"sa":0,"ic":0},"geometry":{"type":"Polygon","coordinates":[[[-2.04273,52.37552],[-2.03348,52.37334],[-2.03209,52.37327],[-2.03042,52.37255],[-2.02922,52.37231],[-2.02515,52.37243],[-2.02327,52.37176],[-2.02094,52.37059],[-2.01958,52.37104],[-2.01472,52.36859],[-2.01548,52.36796],[-2.01521,52.36782],[-2.01942,52.36373],[-2.02394,52.36142],[-2.02358,52.3609],[-2.02444,52.36005],[-2.02767,52.35919],[-2.02883,52.3594],[-2.03333,52.36109],[-2.03583,52.36388],[-2.03756,52.36464],[-2.0393,52.36612],[-2.0407,52.36624],[-2.04143,52.36759],[-2.0421,52.36751],[-2.04375,52.36814],[-2.04349,52.36894],[-2.04123,52.36985],[-2.04103,52.37027],[-2.03878,52.37079],[-2.03764,52.37148],[-2.04261,52.37452],[-2.04484,52.37122],[-2.04533,52.3718],[-2.04506,52.37534],[-2.04459,52.3763],[-2.04273,52.37552]]]}},{"type":"Feature","properties":{"id":"E01032151","name":"E01032151","parent":"E07000234","type":"LSOA","pop":1466,"r":407,"ff":132,"ffd":9004.1,"ffs":0.5156,"g":147,"co":0,"mo":0,"sa":0,"ic":0},"geometry":{"type":"Polygon","coordinates":[[[-2.03764,52.37148],[-2.03878,52.37079],[-2.04103,52.37027],[-2.04123,52.36985],[-2.04349,52.36894],[-2.04375,52.36814],[-2.0421,52.36751],[-2.04143,52.36759],[-2.0407,52.36624],[-2.0393,52.36612],[-2.03756,52.36464],[-2.03583,52.36388],[-2.03333,52.36109],[-2.02883,52.3594],[-2.02971,52.35687],[-2.03537,52.35585],[-2.04099,52.35536],[-2.04653,52.35568],[-2.04652,52.35896],[-2.04606,52.36086],[-2.04682,52.36557],[-2.04533,52.3718],[-2.04484,52.37122],[-2.04261,52.37452],[-2.03764,52.37148]]]}},{"type":"Feature","properties":{"id":"E01032152","name":"E01032152","parent":"E07000234","type":"LSOA","pop":1343,"r":396,"ff":129,"ffd":9605.4,"ffs":0.5244,"g":146,"co":0,"mo":0,"sa":0,"ic":0},"geometry":{"type":"Polygon","coordinates":[[[-2.04652,52.35896],[-2.05106,52.35762],[-2.05178,52.35753],[-2.05264,52.35836],[-2.05382,52.35852],[-2.05759,52.35741],[-2.05842,52.35897],[-2.05763,52.35905],[-2.05579,52.3606],[-2.05577,52.36303],[-2.05614,52.36305],[-2.056,52.36322],[-2.05522,52.36361],[-2.05193,52.36417],[-2.04913,52.36521],[-2.04682,52.36557],[-2.04606,52.36086],[-2.04652,52.35896]]]}},{"type":"Feature","properties":{"id":"E01032153","name":"E01032153","parent":"E07000234","type":"LSOA","pop":2317,"r":236,"ff":64,"ffd":2762.2,"ffs":0.512,"g":108,"co":0,"mo":0,"sa":0,"ic":0},"geometry":{"type":"Polygon","coordinates":[[[-2.04652,52.35896],[-2.04646,52.35518],[-2.0474,52.35538],[-2.04776,52.35476],[-2.04732,52.3544],[-2.04753,52.35384],[-2.04841,52.35336],[-2.04727,52.35322],[-2.04736,52.35288],[-2.04918,52.35175],[-2.0483,52.35021],[-2.04882,52.35034],[-2.0502,52.34887],[-2.04852,52.3484],[-2.04879,52.34798],[-2.04816,52.34798],[-2.04848,52.34285],[-2.04966,52.3421],[-2.05117,52.34313],[-2.05128,52.3429],[-2.0536,52.34314],[-2.0535,52.34255],[-2.05404,52.34261],[-2.05448,52.34199],[-2.05585,52.34195],[-2.05617,52.34224],[-2.0558,52.34333],[-2.0568,52.34367],[-2.05695,52.34412],[-2.05804,52.3445],[-2.05867,52.34575],[-2.05802,52.34591],[-2.05767,52.34548],[-2.05616,52.34605],[-2.05532,52.34679],[-2.05514,52.34724],[-2.05449,52.34738],[-2.05684,52.34931],[-2.05462,52.35084],[-2.05553,52.3512],[-2.05562,52.35203],[-2.05659,52.35219],[-2.06155,52.35141],[-2.06175,52.35117],[-2.06086,52.35081],[-2.06204,52.34983],[-2.06149,52.3499],[-2.06074,52.34947],[-2.06231,52.34883],[-2.06324,52.35042],[-2.06287,52.3531],[-2.062,52.35537],[-2.06,52.35657],[-2.06011,52.3577],[-2.05854,52.35769],[-2.05759,52.35741],[-2.05382,52.35852],[-2.05264,52.35836],[-2.05178,52.35753],[-2.04652,52.35896]]]}},{"type":"Feature","properties":{"id":"E01032154","name":"E01032154","parent":"E07000234","type":"LSOA","pop":1765,"r":223,"ff":59,"ffd":3342.8,"ffs":0.5,"g":102,"co":0,"mo":0,"sa":0,"ic":0},"geometry":{"type":"Polygon","coordinates":[[[-2.05462,52.35084],[-2.05684,52.34931],[-2.05449,52.34738],[-2.05514,52.34724],[-2.05532,52.34679],[-2.05616,52.34605],[-2.05767,52.34548],[-2.05802,52.34591],[-2.05867,52.34575],[-2.05804,52.3445],[-2.05695,52.34412],[-2.0568,52.34367],[-2.05832,52.34306],[-2.05901,52.34466],[-2.06057,52.34722],[-2.06231,52.34883],[-2.06074,52.34947],[-2.06149,52.3499],[-2.06204,52.34983],[-2.06086,52.35081],[-2.06175,52.35117],[-2.06155,52.35141],[-2.05659,52.35219],[-2.05562,52.35203],[-2.05553,52.3512],[-2.05462,52.35084]]]}},{"type":"Feature","properties":{"id":"E01032155","name":"E01032155","parent":"E07000234","type":"LSOA","pop":1695,"r":324,"ff":100,"ffd":5899.7,"ffs":0.5236,"g":129,"co":0,"mo":0,"sa":0,"ic":0},"geometry":{"type":"Polygon","coordinates":[[[-2.02971,52.35687],[-2.03008,52.35524],[-2.03222,52.35418],[-2.03036,52.35232],[-2.02981,52.34991],[-2.03164,52.34817],[-2.03499,52.34752],[-2.03583,52.34825],[-2.03973,52.34937],[-2.04191,52.34889],[-2.04439,52.34939],[-2.04471,52.34893],[-2.04545,52.34877],[-2.04645,52.34922],[-2.04759,52.34857],[-2.04775,52.34796],[-2.04879,52.34798],[-2.04852,52.3484],[-2.0502,52.34887],[-2.04882,52.35034],[-2.0483,52.35021],[-2.04918,52.35175],[-2.04736,52.35288],[-2.04727,52.35322],[-2.04841,52.35336],[-2.04753,52.35384],[-2.04732,52.3544],[-2.04776,52.35476],[-2.0474,52.35538],[-2.04646,52.35518],[-2.04653,52.35568],[-2.04099,52.35536],[-2.03537,52.35585],[-2.02971,52.35687]]]}},{"type":"Feature","properties":{"id":"E01032156","name":"E01032156","parent":"E07000234","type":"LSOA","pop":2128,"r":122,"ff":34,"ffd":1597.7,"ffs":0.4658,"g":48,"co":0,"mo":0,"sa":0,"ic":0},"geometry":{"type":"Polygon","coordinates":[[[-2.05897,52.34014],[-2.05888,52.33889],[-2.05812,52.33889],[-2.05804,52.33786],[-2.05904,52.33755],[-2.06068,52.33628],[-2.05973,52.33587],[-2.05999,52.33557],[-2.05927,52.33525],[-2.06077,52.33401],[-2.06145,52.33422],[-2.06067,52.33309],[-2.06094,52.33293],[-2.06045,52.33269],[-2.06002,52.33293],[-2.05972,52.33244],[-2.06105,52.33224],[-2.05991,52.33191],[-2.06149,52.33067],[-2.0605,52.33014],[-2.06003,52.3304],[-2.05799,52.32846],[-2.06018,52.32831],[-2.06351,52.32736],[-2.06433,52.32827],[-2.06499,52.32836],[-2.06775,52.32795],[-2.0684,52.32721],[-2.06841,52.32635],[-2.06884,52.32625],[-2.07041,52.32723],[-2.06886,52.32841],[-2.06961,52.3288],[-2.06962,52.33003],[-2.06757,52.33168],[-2.06941,52.3337],[-2.06897,52.335],[-2.06994,52.33536],[-2.07064,52.33695],[-2.07189,52.33779],[-2.0708,52.33857],[-2.0686,52.33922],[-2.06712,52.33829],[-2.06462,52.33762],[-2.06378,52.33665],[-2.06207,52.33879],[-2.06006,52.34018],[-2.059,52.34065],[-2.05897,52.34014]]]}},{"type":"Feature","properties":{"id":"E01032157","name":"E01032157","parent":"E07000234","type":"LSOA","pop":1734,"r":167,"ff":49,"ffd":2825.8,"ffs":0.5269,"g":72,"co":0,"mo":0,"sa":0,"ic":0},"geometry":{"type":"Polygon","coordinates":[[[-2.05117,52.34313],[-2.04966,52.3421],[-2.04848,52.34285],[-2.04835,52.34129],[-2.04722,52.33582],[-2.04919,52.33587],[-2.04959,52.33553],[-2.04984,52.33575],[-2.05033,52.33532],[-2.0499,52.33485],[-2.05316,52.33556],[-2.05578,52.33535],[-2.05727,52.33455],[-2.05555,52.3337],[-2.05526,52.33402],[-2.05439,52.33374],[-2.05434,52.33341],[-2.05352,52.33363],[-2.05309,52.33315],[-2.05363,52.33279],[-2.05382,52.33195],[-2.05505,52.3315],[-2.05534,52.33181],[-2.05578,52.33164],[-2.05548,52.33136],[-2.05582,52.33116],[-2.05847,52.33256],[-2.05991,52.33191],[-2.06105,52.33224],[-2.05972,52.33244],[-2.06002,52.33293],[-2.06045,52.33269],[-2.06094,52.33293],[-2.06067,52.33309],[-2.06145,52.33422],[-2.06077,52.33401],[-2.05927,52.33525],[-2.05999,52.33557],[-2.05973,52.33587],[-2.06068,52.33628],[-2.05904,52.33755],[-2.05676,52.33813],[-2.05216,52.3417],[-2.05117,52.34313]]]}},{"type":"Feature","properties":{"id":"E01032158","name":"E01032158","parent":"E07000234","type":"LSOA","pop":1498,"r":160,"ff":44,"ffd":2937.2,"ffs":0.5057,"g":71,"co":0,"mo":0,"sa":0,"ic":0},"geometry":{"type":"Polygon","coordinates":[[[-2.03515,52.34307],[-2.03426,52.34168],[-2.03213,52.34199],[-2.03178,52.34111],[-2.03393,52.34036],[-2.03522,52.33912],[-2.03335,52.33795],[-2.03537,52.33753],[-2.03672,52.33617],[-2.03794,52.33571],[-2.03763,52.33507],[-2.03853,52.33318],[-2.04288,52.33462],[-2.04656,52.33467],[-2.04722,52.33445],[-2.04864,52.33284],[-2.05309,52.3298],[-2.05537,52.32789],[-2.05685,52.32624],[-2.05915,52.32271],[-2.0614,52.3241],[-2.06797,52.32569],[-2.06884,52.32625],[-2.06841,52.32635],[-2.0684,52.32721],[-2.06775,52.32795],[-2.06499,52.32836],[-2.06433,52.32827],[-2.06351,52.32736],[-2.06018,52.32831],[-2.05799,52.32846],[-2.06003,52.3304],[-2.0605,52.33014],[-2.06149,52.33067],[-2.05991,52.33191],[-2.05847,52.33256],[-2.05582,52.33116],[-2.05548,52.33136],[-2.05578,52.33164],[-2.05534,52.33181],[-2.05505,52.3315],[-2.05382,52.33195],[-2.05363,52.33279],[-2.05309,52.33315],[-2.05352,52.33363],[-2.05434,52.33341],[-2.05439,52.33374],[-2.05526,52.33402],[-2.05555,52.3337],[-2.05727,52.33455],[-2.05578,52.33535],[-2.05316,52.33556],[-2.0499,52.33485],[-2.05033,52.33532],[-2.04984,52.33575],[-2.04959,52.33553],[-2.04919,52.33587],[-2.04722,52.33582],[-2.04835,52.34129],[-2.04848,52.34285],[-2.04593,52.34268],[-2.04304,52.34289],[-2.04171,52.34347],[-2.03669,52.34369],[-2.03515,52.34307]]]}},{"type":"Feature","properties":{"id":"E01032159","name":"E01032159","parent":"E07000234","type":"LSOA","pop":1994,"r":194,"ff":51,"ffd":2557.7,"ffs":0.5204,"g":93,"co":0,"mo":0,"sa":0,"ic":0},"geometry":{"type":"Polygon","coordinates":[[[-2.07142,52.34503],[-2.06971,52.34416],[-2.06916,52.34417],[-2.06916,52.34348],[-2.06835,52.34311],[-2.06794,52.34349],[-2.06821,52.3436],[-2.06706,52.34359],[-2.06527,52.34467],[-2.06365,52.34452],[-2.06393,52.34402],[-2.06443,52.34404],[-2.0646,52.34377],[-2.06415,52.34355],[-2.06511,52.34278],[-2.06588,52.34245],[-2.06543,52.34234],[-2.06563,52.34161],[-2.06689,52.34191],[-2.06671,52.34236],[-2.0684,52.34214],[-2.0671,52.34161],[-2.0676,52.34132],[-2.06743,52.34068],[-2.06645,52.34067],[-2.06618,52.34099],[-2.06524,52.34054],[-2.06374,52.3407],[-2.063,52.34042],[-2.06226,52.34056],[-2.06124,52.33986],[-2.06064,52.33982],[-2.06207,52.33879],[-2.06378,52.33665],[-2.06462,52.33762],[-2.06712,52.33829],[-2.07082,52.3407],[-2.07166,52.34095],[-2.07178,52.34147],[-2.07322,52.34195],[-2.07348,52.34164],[-2.07745,52.34314],[-2.0812,52.34377],[-2.07439,52.34801],[-2.07242,52.35049],[-2.0712,52.35157],[-2.06903,52.34834],[-2.06936,52.34703],[-2.07031,52.34698],[-2.07221,52.34647],[-2.07117,52.34612],[-2.07063,52.34545],[-2.07142,52.34503]]]}},{"type":"Feature","properties":{"id":"E01032160","name":"E01032160","parent":"E07000234","type":"LSOA","pop":1760,"r":218,"ff":56,"ffd":3181.8,"ffs":0.4956,"g":102,"co":0,"mo":0,"sa":0,"ic":0},"geometry":{"type":"Polygon","coordinates":[[[-2.06057,52.34722],[-2.05901,52.34466],[-2.05832,52.34306],[-2.0568,52.34367],[-2.0558,52.34333],[-2.05617,52.34224],[-2.05585,52.34195],[-2.05448,52.34199],[-2.05404,52.34261],[-2.0535,52.34255],[-2.0536,52.34314],[-2.05128,52.3429],[-2.05216,52.3417],[-2.05676,52.33813],[-2.05804,52.33786],[-2.05812,52.33889],[-2.05888,52.33889],[-2.059,52.34065],[-2.06064,52.33982],[-2.06124,52.33986],[-2.06226,52.34056],[-2.063,52.34042],[-2.06374,52.3407],[-2.06524,52.34054],[-2.06618,52.34099],[-2.06645,52.34067],[-2.06743,52.34068],[-2.0676,52.34132],[-2.0671,52.34161],[-2.0684,52.34214],[-2.06671,52.34236],[-2.06689,52.34191],[-2.06563,52.34161],[-2.06543,52.34234],[-2.06588,52.34245],[-2.06511,52.34278],[-2.06407,52.34252],[-2.06319,52.34314],[-2.06178,52.34265],[-2.0608,52.34278],[-2.05999,52.34214],[-2.05902,52.34237],[-2.05907,52.34266],[-2.06035,52.34352],[-2.06141,52.3437],[-2.06083,52.34478],[-2.06162,52.34483],[-2.06273,52.34554],[-2.0615,52.34557],[-2.06188,52.34606],[-2.0613,52.34641],[-2.06062,52.34627],[-2.06056,52.34679],[-2.06142,52.34713],[-2.06086,52.34753],[-2.06057,52.34722]]]}},{"type":"Feature","properties":{"id":"E01032161","name":"E01032161","parent":"E07000234","type":"LSOA","pop":2123,"r":212,"ff":54,"ffd":2543.6,"ffs":0.4954,"g":100,"co":0,"mo":0,"sa":0,"ic":0},"geometry":{"type":"Polygon","coordinates":[[[-2.06287,52.3531],[-2.06324,52.35042],[-2.06231,52.34883],[-2.06086,52.34753],[-2.06142,52.34713],[-2.06056,52.34679],[-2.06062,52.34627],[-2.0613,52.34641],[-2.06188,52.34606],[-2.0615,52.34557],[-2.06273,52.34554],[-2.06162,52.34483],[-2.06083,52.34478],[-2.06141,52.3437],[-2.06035,52.34352],[-2.05907,52.34266],[-2.05902,52.34237],[-2.05999,52.34214],[-2.0608,52.34278],[-2.06178,52.34265],[-2.06319,52.34314],[-2.06407,52.34252],[-2.06511,52.34278],[-2.06415,52.34355],[-2.0646,52.34377],[-2.06443,52.34404],[-2.06393,52.34402],[-2.06365,52.34452],[-2.06527,52.34467],[-2.06706,52.34359],[-2.06821,52.3436],[-2.06794,52.34349],[-2.06835,52.34311],[-2.06916,52.34348],[-2.06916,52.34417],[-2.06971,52.34416],[-2.07142,52.34503],[-2.07063,52.34545],[-2.07117,52.34612],[-2.07221,52.34647],[-2.07031,52.34698],[-2.06936,52.34703],[-2.06903,52.34834],[-2.0712,52.35157],[-2.07242,52.35049],[-2.07154,52.35295],[-2.07019,52.35312],[-2.06985,52.35382],[-2.06799,52.35499],[-2.06287,52.3531]]]}},{"type":"Feature","properties":{"id":"E01032162","name":"E01032162","parent":"E07000234","type":"LSOA","pop":1915,"r":139,"ff":41,"ffd":2141.0,"ffs":0.5062,"g":57,"co":0,"mo":0,"sa":0,"ic":0},"geometry":{"type":"Polygon","coordinates":[[[-2.04085,52.3291],[-2.04172,52.32591],[-2.04668,52.32257],[-2.04725,52.3235],[-2.04684,52.32376],[-2.04774,52.32487],[-2.04665,52.32518],[-2.04689,52.32547],[-2.04844,52.32497],[-2.04927,52.32518],[-2.05149,52.3243],[-2.05105,52.32332],[-2.05282,52.32315],[-2.05353,52.32337],[-2.05406,52.3231],[-2.05617,52.32305],[-2.05617,52.32337],[-2.05693,52.32364],[-2.05791,52.32339],[-2.05754,52.32296],[-2.05915,52.32271],[-2.05685,52.32624],[-2.05603,52.32607],[-2.05541,52.32687],[-2.05478,52.3271],[-2.05449,52.32666],[-2.05379,52.32731],[-2.05348,52.32686],[-2.05288,52.32697],[-2.05285,52.32726],[-2.05238,52.32718],[-2.05171,52.32775],[-2.05103,52.32725],[-2.05047,52.32728],[-2.05075,52.32778],[-2.05029,52.32786],[-2.05024,52.32832],[-2.04942,52.32847],[-2.04938,52.32794],[-2.04873,52.32801],[-2.04777,52.32889],[-2.04406,52.32982],[-2.04085,52.3291]]]}},{"type":"Feature","properties":{"id":"E01032168","name":"E01032168","parent":"E07000234","type":"LSOA","pop":1170,"r":418,"ff":144,"ffd":12307.7,"ffs":0.5236,"g":139,"co":0,"mo":0,"sa":2,"ic":0},"geometry":{"type":"Polygon","coordinates":[[[-2.05693,52.41813],[-2.05628,52.41811],[-2.05473,52.41855],[-2.05413,52.41783],[-2.05191,52.41734],[-2.04914,52.4181],[-2.04754,52.4171],[-2.04644,52.41684],[-2.04513,52.41691],[-2.04347,52.41754],[-2.04067,52.41756],[-2.04016,52.4166],[-2.04542,52.41279],[-2.05419,52.41152],[-2.05662,52.41199],[-2.05801,52.41196],[-2.05711,52.41038],[-2.05978,52.40915],[-2.06155,52.40893],[-2.06402,52.40959],[-2.06386,52.41064],[-2.06566,52.41317],[-2.06573,52.41475],[-2.06715,52.41621],[-2.06921,52.41718],[-2.06545,52.41833],[-2.0643,52.41981],[-2.06406,52.42709],[-2.06279,52.4275],[-2.06071,52.42754],[-2.0605,52.42675],[-2.06105,52.42532],[-2.06059,52.42427],[-2.05979,52.42399],[-2.05962,52.42306],[-2.05871,52.42257],[-2.05902,52.42117],[-2.05693,52.41813]]]}},{"type":"Feature","properties":{"id":"E01032169","name":"E01032169","parent":"E07000234","type":"LSOA","pop":1153,"r":483,"ff":171,"ffd":14830.9,"ffs":0.5182,"g":149,"co":0,"mo":0,"sa":2,"ic":0},"geometry":{"type":"Polygon","coordinates":[[[-2.03712,52.44075],[-2.03713,52.43984],[-2.03863,52.43898],[-2.03849,52.43852],[-2.03984,52.43756],[-2.03813,52.43407],[-2.03844,52.43373],[-2.03759,52.43307],[-2.03816,52.4325],[-2.03753,52.43246],[-2.03766,52.43156],[-2.03688,52.43099],[-2.03749,52.43085],[-2.03696,52.43055],[-2.03757,52.43044],[-2.03789,52.43003],[-2.03734,52.4297],[-2.03809,52.42918],[-2.03748,52.42804],[-2.03694,52.42804],[-2.03699,52.42755],[-2.02971,52.4273],[-2.02897,52.42886],[-2.02933,52.42904],[-2.0278,52.42923],[-2.02619,52.43016],[-2.02604,52.43209],[-2.02368,52.43261],[-2.02374,52.43333],[-2.02488,52.43404],[-2.02477,52.43488],[-2.01699,52.43268],[-2.01575,52.43265],[-2.01528,52.43217],[-2.01549,52.43085],[-2.01546,52.42861],[-2.01378,52.42955],[-2.01257,52.4298],[-2.01318,52.42872],[-2.00974,52.42652],[-2.0073,52.42809],[-2.00656,52.42793],[-2.00469,52.42841],[-2.00432,52.42637],[-2.00352,52.42626],[-2.00339,52.42539],[-2.00163,52.42292],[-2.00282,52.42233],[-2.00128,52.42187],[-2.00204,52.42099],[-2.00037,52.42024],[-1.99902,52.41871],[-1.99701,52.41794],[-1.99706,52.41743],[-1.99104,52.41541],[-1.9887,52.41637],[-1.98822,52.41699],[-1.98604,52.41673],[-1.98886,52.41412],[-1.99068,52.41365],[-1.99324,52.41357],[-1.99598,52.41211],[-1.99692,52.41049],[-1.99779,52.40974],[-1.99814,52.40999],[-1.99862,52.40976],[-2.00142,52.41043],[-2.00208,52.41087],[-2.00279,52.41068],[-2.00419,52.41097],[-2.00464,52.40922],[-2.00644,52.40913],[-2.00809,52.40862],[-2.00924,52.41039],[-2.01086,52.40956],[-2.0128,52.40951],[-2.01237,52.40799],[-2.01273,52.40727],[-2.01427,52.40688],[-2.01501,52.40616],[-2.01755,52.40558],[-2.02019,52.40682],[-2.02189,52.40684],[-2.02326,52.40631],[-2.02418,52.40637],[-2.02753,52.4081],[-2.02786,52.40788],[-2.02727,52.40757],[-2.02731,52.40712],[-2.03337,52.40311],[-2.03364,52.40233],[-2.03221,52.40155],[-2.03304,52.40154],[-2.03413,52.40231],[-2.03607,52.40269],[-2.03752,52.40272],[-2.03939,52.40217],[-2.03957,52.40244],[-2.0425,52.40236],[-2.04052,52.40126],[-2.04171,52.39994],[-2.04427,52.39968],[-2.04344,52.39916],[-2.0434,52.39882],[-2.04404,52.39855],[-2.04531,52.39857],[-2.04717,52.39792],[-2.04721,52.39709],[-2.0493,52.39579],[-2.05048,52.39708],[-2.05207,52.39734],[-2.05316,52.39418],[-2.05538,52.39424],[-2.05882,52.39505],[-2.06001,52.3949],[-2.06017,52.39514],[-2.06264,52.39417],[-2.06362,52.39521],[-2.06226,52.39687],[-2.0625,52.39827],[-2.06501,52.40038],[-2.06638,52.39977],[-2.06874,52.39969],[-2.07042,52.39919],[-2.07327,52.3992],[-2.07804,52.40002],[-2.07695,52.40388],[-2.07715,52.40485],[-2.07951,52.40523],[-2.08081,52.40737],[-2.08084,52.40835],[-2.07899,52.41174],[-2.0797,52.41238],[-2.07979,52.41367],[-2.08162,52.41468],[-2.08235,52.41566],[-2.0814,52.41882],[-2.08221,52.41953],[-2.08414,52.41999],[-2.08486,52.42049],[-2.08816,52.42103],[-2.08893,52.42177],[-2.08814,52.42226],[-2.08836,52.42267],[-2.08788,52.42307],[-2.08416,52.42442],[-2.08441,52.42456],[-2.08124,52.42542],[-2.07953,52.42748],[-2.07835,52.42827],[-2.07726,52.43085],[-2.07822,52.43088],[-2.07928,52.43047],[-2.08099,52.43092],[-2.07989,52.43227],[-2.07806,52.43339],[-2.07767,52.43395],[-2.07481,52.434],[-2.07473,52.43271],[-2.0743,52.43269],[-2.07328,52.43378],[-2.0715,52.43392],[-2.07097,52.4337],[-2.06977,52.43433],[-2.0686,52.43447],[-2.06801,52.43518],[-2.06763,52.43472],[-2.06801,52.43296],[-2.06755,52.43256],[-2.06235,52.43246],[-2.06383,52.4307],[-2.06535,52.43044],[-2.06672,52.42972],[-2.06665,52.42922],[-2.06587,52.42881],[-2.06579,52.42809],[-2.06279,52.4275],[-2.06406,52.42709],[-2.0643,52.41981],[-2.06545,52.41833],[-2.06921,52.41718],[-2.06715,52.41621],[-2.06573,52.41475],[-2.06566,52.41317],[-2.06386,52.41064],[-2.06402,52.40959],[-2.06155,52.40893],[-2.05978,52.40915],[-2.05711,52.41038],[-2.05801,52.41196],[-2.05662,52.41199],[-2.05419,52.41152],[-2.04542,52.41279],[-2.04016,52.4166],[-2.04067,52.41756],[-2.04347,52.41754],[-2.04513,52.41691],[-2.04644,52.41684],[-2.04754,52.4171],[-2.04914,52.4181],[-2.05191,52.41734],[-2.05413,52.41783],[-2.05473,52.41855],[-2.05628,52.41811],[-2.05693,52.41813],[-2.05902,52.42117],[-2.05871,52.42257],[-2.05962,52.42306],[-2.05979,52.42399],[-2.06059,52.42427],[-2.06105,52.42532],[-2.0605,52.42675],[-2.06071,52.42754],[-2.05949,52.42893],[-2.05894,52.43079],[-2.05916,52.43263],[-2.05871,52.43341],[-2.0587,52.43503],[-2.05931,52.4354],[-2.05947,52.43625],[-2.06021,52.4364],[-2.05945,52.43726],[-2.05923,52.43887],[-2.05963,52.43937],[-2.05926,52.43998],[-2.05849,52.44077],[-2.05564,52.44132],[-2.05359,52.44062],[-2.05216,52.44053],[-2.05148,52.44083],[-2.04916,52.43968],[-2.04709,52.44041],[-2.04639,52.43996],[-2.04468,52.44007],[-2.04455,52.44068],[-2.0404,52.44128],[-2.03985,52.44072],[-2.03974,52.4414],[-2.03788,52.44156],[-2.03712,52.44075]]]}},{"type":"Feature","properties":{"id":"E01032170","name":"E01032170","parent":"E07000234","type":"LSOA","pop":1381,"r":473,"ff":167,"ffd":12092.7,"ffs":0.5235,"g":150,"co":0,"mo":0,"sa":0,"ic":0},"geometry":{"type":"Polygon","coordinates":[[[-2.03413,52.40231],[-2.03304,52.40154],[-2.03221,52.40155],[-2.03025,52.40071],[-2.02702,52.40042],[-2.02542,52.39972],[-2.02911,52.39877],[-2.03166,52.39711],[-2.03176,52.39599],[-2.03238,52.39619],[-2.03201,52.39515],[-2.03245,52.39468],[-2.03152,52.3944],[-2.03067,52.39463],[-2.03051,52.39499],[-2.03118,52.39526],[-2.03062,52.39538],[-2.03069,52.39576],[-2.03115,52.39586],[-2.03012,52.39642],[-2.02976,52.39619],[-2.03015,52.39592],[-2.02988,52.39518],[-2.02911,52.3947],[-2.02818,52.39457],[-2.02787,52.39529],[-2.02496,52.39588],[-2.02473,52.39526],[-2.02579,52.39418],[-2.02463,52.39383],[-2.02417,52.39337],[-2.02598,52.3926],[-2.02554,52.39235],[-2.02597,52.39204],[-2.02552,52.39172],[-2.02646,52.3913],[-2.02614,52.39096],[-2.02695,52.3905],[-2.02746,52.39078],[-2.0294,52.38967],[-2.03017,52.38865],[-2.03035,52.38584],[-2.03067,52.38484],[-2.03218,52.38364],[-2.03416,52.38289],[-2.03996,52.38158],[-2.04417,52.37938],[-2.04656,52.3785],[-2.04812,52.37943],[-2.04959,52.38119],[-2.04914,52.38192],[-2.04761,52.38273],[-2.04702,52.3861],[-2.04729,52.38713],[-2.04676,52.38703],[-2.04597,52.38804],[-2.04377,52.38947],[-2.04291,52.38963],[-2.03881,52.39259],[-2.03781,52.3929],[-2.03861,52.39336],[-2.03775,52.39476],[-2.03829,52.39483],[-2.03836,52.39628],[-2.03881,52.39679],[-2.04206,52.39819],[-2.04278,52.39919],[-2.04344,52.39916],[-2.04427,52.39968],[-2.04171,52.39994],[-2.04052,52.40126],[-2.0425,52.40236],[-2.03957,52.40244],[-2.03939,52.40217],[-2.03752,52.40272],[-2.03607,52.40269],[-2.03413,52.40231]]]}},{"type":"Feature","properties":{"id":"E01032171","name":"E01032171","parent":"E07000234","type":"LSOA","pop":1525,"r":482,"ff":172,"ffd":11278.7,"ffs":0.5325,"g":155,"co":0,"mo":0,"sa":0,"ic":0},"geometry":{"type":"Polygon","coordinates":[[[-2.02032,52.39873],[-2.01925,52.39628],[-2.02007,52.39539],[-2.02065,52.3955],[-2.02059,52.39599],[-2.02139,52.39593],[-2.02458,52.39695],[-2.02491,52.39766],[-2.0259,52.3975],[-2.02603,52.39779],[-2.02551,52.39794],[-2.02608,52.39803],[-2.0285,52.3973],[-2.02898,52.39687],[-2.02868,52.39633],[-2.02711,52.39556],[-2.02787,52.39529],[-2.02818,52.39457],[-2.02911,52.3947],[-2.02988,52.39518],[-2.03015,52.39592],[-2.02976,52.39619],[-2.03012,52.39642],[-2.03115,52.39586],[-2.03069,52.39576],[-2.03062,52.39538],[-2.03118,52.39526],[-2.03051,52.39499],[-2.03067,52.39463],[-2.03152,52.3944],[-2.03245,52.39468],[-2.03201,52.39515],[-2.03238,52.39619],[-2.03176,52.39599],[-2.03166,52.39711],[-2.02911,52.39877],[-2.02542,52.39972],[-2.02702,52.40042],[-2.02453,52.40058],[-2.02165,52.40019],[-2.02032,52.39873]]]}},{"type":"Feature","properties":{"id":"E01032172","name":"E01032172","parent":"E07000234","type":"LSOA","pop":1602,"r":541,"ff":184,"ffd":11485.6,"ffs":0.5041,"g":171,"co":0,"mo":0,"sa":0,"ic":0},"geometry":{"type":"Polygon","coordinates":[[[-2.02603,52.39779],[-2.0259,52.3975],[-2.02491,52.39766],[-2.02458,52.39695],[-2.02139,52.39593],[-2.02059,52.39599],[-2.02065,52.3955],[-2.02007,52.39539],[-2.01925,52.39628],[-2.01807,52.39495],[-2.0169,52.39426],[-2.01523,52.39466],[-2.01486,52.3945],[-2.01411,52.39412],[-2.01346,52.39235],[-2.01593,52.39147],[-2.01824,52.3911],[-2.02035,52.39148],[-2.02483,52.39128],[-2.02614,52.39096],[-2.02646,52.3913],[-2.02552,52.39172],[-2.02597,52.39204],[-2.02554,52.39235],[-2.02598,52.3926],[-2.02417,52.39337],[-2.02463,52.39383],[-2.02579,52.39418],[-2.02473,52.39526],[-2.02496,52.39588],[-2.02711,52.39556],[-2.02868,52.39633],[-2.02898,52.39687],[-2.0285,52.3973],[-2.02608,52.39803],[-2.02551,52.39794],[-2.02603,52.39779]]]}},{"type":"Feature","properties":{"id":"E01032173","name":"E01032173","parent":"E07000234","type":"LSOA","pop":1663,"r":107,"ff":30,"ffd":1804.0,"ffs":0.4688,"g":42,"co":0,"mo":0,"sa":0,"ic":0},"geometry":{"type":"Polygon","coordinates":[[[-2.0772,52.33603],[-2.07597,52.33341],[-2.07399,52.33358],[-2.07218,52.3341],[-2.06941,52.3337],[-2.06907,52.33345],[-2.06757,52.33168],[-2.06962,52.33003],[-2.06961,52.3288],[-2.06886,52.32841],[-2.07064,52.32704],[-2.07066,52.32788],[-2.07257,52.32732],[-2.07312,52.32768],[-2.07327,52.32853],[-2.07274,52.32881],[-2.07328,52.32928],[-2.07382,52.3291],[-2.07427,52.3297],[-2.07482,52.32969],[-2.0765,52.3289],[-2.07718,52.32926],[-2.07712,52.33025],[-2.07773,52.33203],[-2.07888,52.33175],[-2.08155,52.33011],[-2.08291,52.33018],[-2.08337,52.331],[-2.08468,52.3303],[-2.08432,52.33209],[-2.08458,52.33474],[-2.08362,52.33466],[-2.08177,52.33562],[-2.08073,52.33693],[-2.08094,52.33752],[-2.07673,52.33642],[-2.0772,52.33603]]]}},{"type":"Feature","properties":{"id":"E01032174","name":"E01032174","parent":"E07000234","type":"LSOA","pop":1646,"r":103,"ff":32,"ffd":1944.1,"ffs":0.5,"g":38,"co":0,"mo":0,"sa":0,"ic":0},"geometry":{"type":"Polygon","coordinates":[[[-2.07712,52.33025],[-2.07718,52.32926],[-2.0765,52.3289],[-2.07482,52.32969],[-2.07427,52.3297],[-2.07382,52.3291],[-2.07328,52.32928],[-2.07274,52.32881],[-2.07327,52.32853],[-2.07312,52.32768],[-2.07257,52.32732],[-2.07066,52.32788],[-2.07064,52.32704],[-2.07418,52.32413],[-2.07651,52.32269],[-2.07961,52.32011],[-2.07977,52.32037],[-2.08015,52.32022],[-2.08242,52.32094],[-2.07957,52.32255],[-2.08163,52.32459],[-2.08408,52.32408],[-2.0827,52.32629],[-2.08097,52.32758],[-2.08273,52.32946],[-2.08291,52.33018],[-2.08155,52.33011],[-2.07888,52.33175],[-2.07773,52.33203],[-2.07712,52.33025]]]}},{"type":"Feature","properties":{"id":"E01032175","name":"E01032175","parent":"E07000234","type":"LSOA","pop":1565,"r":141,"ff":34,"ffd":2172.5,"ffs":0.4658,"g":67,"co":0,"mo":0,"sa":0,"ic":0},"geometry":{"type":"Polygon","coordinates":[[[-2.07559,52.34236],[-2.07348,52.34164],[-2.07322,52.34195],[-2.07178,52.34147],[-2.07166,52.34095],[-2.07082,52.3407],[-2.0686,52.33922],[-2.0708,52.33857],[-2.07189,52.33779],[-2.07064,52.33695],[-2.06994,52.33536],[-2.06897,52.335],[-2.06941,52.3337],[-2.07218,52.3341],[-2.07399,52.33358],[-2.07597,52.33341],[-2.0772,52.33603],[-2.07673,52.33642],[-2.08094,52.33752],[-2.08073,52.33693],[-2.08177,52.33562],[-2.08362,52.33466],[-2.08458,52.33474],[-2.08451,52.33757],[-2.08343,52.34071],[-2.0812,52.34377],[-2.07745,52.34314],[-2.07559,52.34236]]]}},{"type":"Feature","properties":{"id":"E01032176","name":"E01032176","parent":"E07000234","type":"LSOA","pop":2255,"r":269,"ff":77,"ffd":3414.6,"ffs":0.5203,"g":117,"co":0,"mo":0,"sa":0,"ic":0},"geometry":{"type":"Polygon","coordinates":[[[-2.04278,52.39919],[-2.04206,52.39819],[-2.03881,52.39679],[-2.03836,52.39628],[-2.03829,52.39483],[-2.03775,52.39476],[-2.03861,52.39336],[-2.03781,52.3929],[-2.03881,52.39259],[-2.04291,52.38963],[-2.04377,52.38947],[-2.04597,52.38804],[-2.04676,52.38703],[-2.04729,52.38713],[-2.04702,52.3861],[-2.04761,52.38273],[-2.04914,52.38192],[-2.04959,52.38119],[-2.04812,52.37943],[-2.04656,52.3785],[-2.05068,52.37298],[-2.05267,52.37153],[-2.05531,52.37044],[-2.0603,52.36936],[-2.06297,52.36856],[-2.065,52.36753],[-2.06658,52.36625],[-2.06762,52.36484],[-2.07242,52.35049],[-2.07439,52.34801],[-2.0812,52.34377],[-2.08343,52.34071],[-2.08451,52.33757],[-2.08458,52.33474],[-2.08432,52.33209],[-2.08468,52.3303],[-2.08337,52.331],[-2.08273,52.32946],[-2.08097,52.32758],[-2.0827,52.32629],[-2.08408,52.32408],[-2.08163,52.32459],[-2.07957,52.32255],[-2.08242,52.32094],[-2.08319,52.31982],[-2.08449,52.31921],[-2.08433,52.31899],[-2.08621,52.31747],[-2.0941,52.31543],[-2.09564,52.31454],[-2.0988,52.31359],[-2.10217,52.31345],[-2.10751,52.31443],[-2.10996,52.31461],[-2.11234,52.31443],[-2.11448,52.31346],[-2.11431,52.31317],[-2.11713,52.31315],[-2.12406,52.3145],[-2.12219,52.31662],[-2.11859,52.31904],[-2.11575,52.3221],[-2.11839,52.32275],[-2.11786,52.32303],[-2.11859,52.32517],[-2.1173,52.32518],[-2.11761,52.32657],[-2.11703,52.32726],[-2.11615,52.3271],[-2.11848,52.33209],[-2.11753,52.33533],[-2.11723,52.33518],[-2.11628,52.33554],[-2.11523,52.33513],[-2.11467,52.33534],[-2.11351,52.33632],[-2.11328,52.33716],[-2.11417,52.33782],[-2.1142,52.33852],[-2.11646,52.33876],[-2.11609,52.34018],[-2.11677,52.34011],[-2.11742,52.34163],[-2.11698,52.34203],[-2.11886,52.34222],[-2.11928,52.34146],[-2.12129,52.34033],[-2.12386,52.34009],[-2.12468,52.34026],[-2.12475,52.34199],[-2.12277,52.34238],[-2.12309,52.34276],[-2.12534,52.34395],[-2.12639,52.34557],[-2.12903,52.34564],[-2.13147,52.34708],[-2.12909,52.35068],[-2.12733,52.35197],[-2.12773,52.35224],[-2.12972,52.35205],[-2.13073,52.35133],[-2.13201,52.35012],[-2.13302,52.34801],[-2.13717,52.34998],[-2.13597,52.35113],[-2.13586,52.35175],[-2.13553,52.35159],[-2.13534,52.35305],[-2.13411,52.35328],[-2.13247,52.35466],[-2.13243,52.35537],[-2.13125,52.35649],[-2.13076,52.35793],[-2.12546,52.35879],[-2.12458,52.35925],[-2.12387,52.35923],[-2.12241,52.35879],[-2.12142,52.35886],[-2.11921,52.35789],[-2.11942,52.35924],[-2.11544,52.36116],[-2.11319,52.36546],[-2.11222,52.36466],[-2.11061,52.36458],[-2.10659,52.36568],[-2.10484,52.36698],[-2.10643,52.36975],[-2.10643,52.37169],[-2.10542,52.37211],[-2.10466,52.37188],[-2.1041,52.37228],[-2.10261,52.3724],[-2.10004,52.37366],[-2.09938,52.37484],[-2.09835,52.3756],[-2.09821,52.37817],[-2.09697,52.38006],[-2.09609,52.38089],[-2.09369,52.3816],[-2.09372,52.38236],[-2.09294,52.38282],[-2.08748,52.38235],[-2.086,52.38377],[-2.08489,52.38562],[-2.08388,52.38522],[-2.08198,52.38602],[-2.08332,52.38707],[-2.08148,52.388],[-2.08248,52.38898],[-2.07968,52.38953],[-2.07783,52.38897],[-2.07653,52.38923],[-2.07511,52.38912],[-2.07476,52.39122],[-2.07096,52.38995],[-2.06308,52.39193],[-2.06232,52.3925],[-2.0631,52.39387],[-2.06017,52.39514],[-2.06001,52.3949],[-2.05882,52.39505],[-2.05538,52.39424],[-2.05316,52.39418],[-2.05207,52.39734],[-2.05048,52.39708],[-2.0493,52.39579],[-2.04721,52.39709],[-2.04717,52.39792],[-2.04531,52.39857],[-2.04404,52.39855],[-2.0434,52.39882],[-2.04344,52.39916],[-2.04278,52.39919]]]}},{"type":"Feature","properties":{"id":"E01032177","name":"E01032177","parent":"E07000234","type":"LSOA","pop":1947,"r":370,"ff":116,"ffd":5957.9,"ffs":0.4696,"g":117,"co":2,"mo":2,"sa":0,"ic":0},"geometry":{"type":"Polygon","coordinates":[[[-1.8562,52.38873],[-1.85822,52.38737],[-1.85721,52.38654],[-1.85874,52.38605],[-1.8588,52.38562],[-1.86132,52.38388],[-1.86094,52.38317],[-1.86182,52.38117],[-1.86133,52.38006],[-1.86199,52.37902],[-1.86192,52.37841],[-1.86302,52.37752],[-1.86347,52.37597],[-1.86501,52.37449],[-1.86526,52.37364],[-1.86656,52.37324],[-1.86696,52.37251],[-1.8677,52.37217],[-1.8724,52.37255],[-1.87418,52.37531],[-1.87688,52.37384],[-1.87639,52.37332],[-1.87769,52.37245],[-1.87865,52.373],[-1.8793,52.37395],[-1.88141,52.37401],[-1.88137,52.37434],[-1.87896,52.37414],[-1.87628,52.3756],[-1.8766,52.37609],[-1.87703,52.3759],[-1.88062,52.3768],[-1.88084,52.37746],[-1.8839,52.3783],[-1.88493,52.37904],[-1.88425,52.38371],[-1.88049,52.38382],[-1.87688,52.38435],[-1.8753,52.38439],[-1.87266,52.38505],[-1.87117,52.38568],[-1.86934,52.38779],[-1.8662,52.38862],[-1.86366,52.38825],[-1.85853,52.38816],[-1.85724,52.38877],[-1.8562,52.38873]]]}},{"type":"Feature","properties":{"id":"E01032178","name":"E01032178","parent":"E07000234","type":"LSOA","pop":1288,"r":370,"ff":114,"ffd":8850.9,"ffs":0.4634,"g":118,"co":2,"mo":2,"sa":0,"ic":0},"geometry":{"type":"Polygon","coordinates":[[[-1.89701,52.3802],[-1.89338,52.37689],[-1.89169,52.37781],[-1.89125,52.37927],[-1.8901,52.38001],[-1.8889,52.37949],[-1.88659,52.37953],[-1.88493,52.37904],[-1.8839,52.3783],[-1.88084,52.37746],[-1.88062,52.3768],[-1.87703,52.3759],[-1.8766,52.37609],[-1.87628,52.3756],[-1.87896,52.37414],[-1.88078,52.37439],[-1.88137,52.37434],[-1.88141,52.37401],[-1.8793,52.37395],[-1.87865,52.373],[-1.87769,52.37245],[-1.87639,52.37332],[-1.87688,52.37384],[-1.87418,52.37531],[-1.8724,52.37255],[-1.8677,52.37217],[-1.86772,52.37156],[-1.86827,52.37142],[-1.86905,52.3702],[-1.8703,52.36991],[-1.87006,52.36941],[-1.87052,52.36862],[-1.87203,52.3676],[-1.87369,52.36609],[-1.87346,52.36534],[-1.87612,52.36358],[-1.87667,52.36376],[-1.87966,52.36255],[-1.88086,52.36266],[-1.88432,52.36172],[-1.88781,52.36146],[-1.89378,52.35908],[-1.89396,52.35934],[-1.89918,52.35893],[-1.90336,52.35967],[-1.90755,52.36171],[-1.91097,52.36252],[-1.91057,52.36317],[-1.91172,52.36482],[-1.9121,52.36743],[-1.91171,52.36876],[-1.91289,52.37102],[-1.91602,52.3739],[-1.91898,52.37799],[-1.8998,52.38173],[-1.89701,52.3802]]]}},{"type":"Feature","properties":{"id":"E01033059","name":"E01033059","parent":"E07000234","type":"LSOA","pop":1572,"r":103,"ff":31,"ffd":1972.0,"ffs":0.4559,"g":34,"co":0,"mo":0,"sa":0,"ic":0},"geometry":{"type":"Polygon","coordinates":[[[-2.04058,52.3339],[-2.03369,52.33125],[-2.04172,52.32591],[-2.04085,52.3291],[-2.04361,52.32962],[-2.04351,52.33002],[-2.04312,52.33002],[-2.04212,52.3296],[-2.03973,52.32924],[-2.03851,52.32975],[-2.04023,52.33076],[-2.0405,52.33197],[-2.04128,52.33203],[-2.04126,52.33247],[-2.0402,52.33316],[-2.04133,52.33377],[-2.04244,52.33364],[-2.0437,52.333],[-2.04461,52.33324],[-2.04448,52.33196],[-2.04554,52.33168],[-2.04689,52.33165],[-2.04704,52.33114],[-2.04739,52.33141],[-2.04827,52.33115],[-2.04829,52.3307],[-2.04974,52.33091],[-2.04999,52.33067],[-2.05097,52.33124],[-2.04864,52.33284],[-2.04722,52.33445],[-2.04656,52.33467],[-2.04288,52.33462],[-2.04058,52.3339]]]}},{"type":"Feature","properties":{"id":"E01033060","name":"E01033060","parent":"E07000234","type":"LSOA","pop":1075,"r":175,"ff":51,"ffd":4744.2,"ffs":0.5204,"g":75,"co":0,"mo":0,"sa":0,"ic":0},"geometry":{"type":"Polygon","coordinates":[[[-1.98819,52.35223],[-1.98456,52.34647],[-1.9821,52.34665],[-1.97809,52.34613],[-1.97636,52.34539],[-1.97604,52.3448],[-1.97374,52.34404],[-1.96917,52.345],[-1.96744,52.34436],[-1.96459,52.34399],[-1.96443,52.34371],[-1.96429,52.34399],[-1.96274,52.34351],[-1.96187,52.34364],[-1.96073,52.3433],[-1.96056,52.34292],[-1.95902,52.34259],[-1.95705,52.34275],[-1.95568,52.34232],[-1.95519,52.34258],[-1.95469,52.34203],[-1.95481,52.3408],[-1.95578,52.34068],[-1.95547,52.33969],[-1.95627,52.33946],[-1.95601,52.33856],[-1.95675,52.33825],[-1.95653,52.33742],[-1.95697,52.33634],[-1.95608,52.33587],[-1.95571,52.33462],[-1.95615,52.33411],[-1.95719,52.3341],[-1.95624,52.33342],[-1.9566,52.33254],[-1.95362,52.33055],[-1.95305,52.33061],[-1.95188,52.33003],[-1.9511,52.33014],[-1.95068,52.32953],[-1.94979,52.32915],[-1.95022,52.32847],[-1.94861,52.32826],[-1.94931,52.32677],[-1.94751,52.32625],[-1.94777,52.32546],[-1.94547,52.32315],[-1.94453,52.32292],[-1.94483,52.3227],[-1.94434,52.32231],[-1.94306,52.32242],[-1.94302,52.32187],[-1.94257,52.3217],[-1.94298,52.32092],[-1.94485,52.32147],[-1.95007,52.32202],[-1.95131,52.32122],[-1.9526,52.31986],[-1.95499,52.32102],[-1.95576,52.319],[-1.95706,52.31764],[-1.95784,52.31841],[-1.95863,52.31832],[-1.95834,52.31759],[-1.95951,52.3169],[-1.96,52.31589],[-1.96045,52.31567],[-1.96011,52.31506],[-1.96067,52.3147],[-1.96957,52.31503],[-1.96864,52.31302],[-1.97039,52.31134],[-1.974,52.30839],[-1.97776,52.30989],[-1.98066,52.30923],[-1.98201,52.30831],[-1.98072,52.30714],[-1.97987,52.30606],[-1.97649,52.30371],[-1.97911,52.3009],[-1.9806,52.30023],[-1.98155,52.29936],[-1.98498,52.30009],[-1.98484,52.29896],[-1.98341,52.29876],[-1.98405,52.2954],[-1.98377,52.29507],[-1.98518,52.29339],[-1.98426,52.29244],[-1.98419,52.29206],[-1.98615,52.29091],[-1.98843,52.2899],[-1.9909,52.29205],[-1.9928,52.29061],[-1.99486,52.29051],[-2.00202,52.28814],[-1.99918,52.28563],[-1.99795,52.2836],[-2.00246,52.27958],[-2.00394,52.27925],[-2.00476,52.27953],[-2.00502,52.27909],[-2.00631,52.27853],[-2.00797,52.27868],[-2.00915,52.27806],[-2.01035,52.27874],[-2.01169,52.27837],[-2.01505,52.27852],[-2.02002,52.27955],[-2.02091,52.27873],[-2.0229,52.27843],[-2.02326,52.2781],[-2.02481,52.28038],[-2.02815,52.28127],[-2.03047,52.28254],[-2.0344,52.28283],[-2.03389,52.28315],[-2.03523,52.28365],[-2.03562,52.28432],[-2.03598,52.28422],[-2.03839,52.28563],[-2.04152,52.28652],[-2.04305,52.28731],[-2.04701,52.28786],[-2.0468,52.29166],[-2.04207,52.2984],[-2.03989,52.30104],[-2.03457,52.30451],[-2.03547,52.30556],[-2.03622,52.30554],[-2.03157,52.3092],[-2.02588,52.31174],[-2.02243,52.31545],[-2.02201,52.31669],[-2.02068,52.31671],[-2.01893,52.3174],[-2.01716,52.31597],[-2.01579,52.31538],[-2.01526,52.31607],[-2.01294,52.3162],[-2.01317,52.31665],[-2.01236,52.31687],[-2.01197,52.3167],[-2.00983,52.31952],[-2.00872,52.32002],[-2.00382,52.31726],[-2.00204,52.31808],[-2.00074,52.3169],[-1.99932,52.31746],[-1.99886,52.31713],[-1.99752,52.3177],[-1.99698,52.3175],[-1.99207,52.31531],[-1.99087,52.31425],[-1.98776,52.3127],[-1.98644,52.31152],[-1.98559,52.31637],[-1.986,52.31727],[-1.98503,52.31902],[-1.98967,52.31993],[-1.99025,52.32031],[-1.99308,52.32041],[-1.99744,52.32327],[-1.9976,52.32382],[-1.99901,52.32415],[-1.99832,52.32463],[-1.99738,52.32475],[-1.99819,52.32542],[-1.99769,52.32566],[-1.99426,52.32633],[-1.99263,52.32592],[-1.99285,52.32661],[-1.99016,52.32728],[-1.98736,52.32719],[-1.98552,52.32669],[-1.9845,52.32602],[-1.98137,52.32228],[-1.97653,52.32108],[-1.97328,52.32098],[-1.96997,52.3192],[-1.96622,52.32244],[-1.96659,52.32433],[-1.96403,52.32687],[-1.96271,52.33113],[-1.96801,52.33324],[-1.9671,52.33804],[-1.96738,52.33877],[-1.97337,52.33896],[-1.97773,52.34085],[-1.97998,52.34076],[-1.97809,52.33624],[-1.98458,52.33336],[-1.98955,52.33357],[-1.99158,52.33238],[-1.99409,52.32911],[-1.99461,52.32894],[-2.0003,52.33103],[-2.00168,52.32846],[-2.00649,52.32894],[-2.00925,52.32959],[-2.01106,52.33095],[-2.01258,52.33049],[-2.01284,52.33016],[-2.01232,52.32874],[-2.01293,52.32635],[-2.00419,52.32198],[-2.00395,52.32251],[-2.00272,52.32299],[-2.00111,52.32102],[-2.00318,52.31978],[-2.00335,52.32011],[-2.00403,52.31993],[-2.00454,52.32066],[-2.00812,52.32123],[-2.01176,52.31935],[-2.01245,52.32228],[-2.01499,52.32377],[-2.01499,52.3251],[-2.01682,52.32534],[-2.01757,52.32746],[-2.01707,52.32832],[-2.01968,52.32938],[-2.0202,52.32909],[-2.02127,52.32937],[-2.02161,52.33],[-2.02309,52.33026],[-2.02733,52.33032],[-2.02654,52.32952],[-2.02939,52.32968],[-2.02832,52.32661],[-2.03046,52.32582],[-2.03132,52.32492],[-2.03178,52.32406],[-2.03089,52.32351],[-2.03275,52.32254],[-2.03428,52.3223],[-2.03809,52.32387],[-2.03819,52.32488],[-2.03717,52.32663],[-2.03789,52.32738],[-2.03443,52.32882],[-2.03329,52.32888],[-2.03254,52.32951],[-2.03265,52.33011],[-2.03434,52.33087],[-2.02138,52.33971],[-2.02156,52.33997],[-2.01504,52.34453],[-2.01531,52.34481],[-2.00944,52.3477],[-2.00918,52.34747],[-2.00808,52.34777],[-2.0034,52.35016],[-2.00006,52.35306],[-1.99431,52.35363],[-1.9906,52.35437],[-1.98819,52.35223]]]}},{"type":"Feature","properties":{"id":"E01033061","name":"E01033061","parent":"E07000234","type":"LSOA","pop":1783,"r":159,"ff":44,"ffd":2467.8,"ffs":0.5116,"g":71,"co":0,"mo":0,"sa":0,"ic":0},"geometry":{"type":"Polygon","coordinates":[[[-2.0402,52.33316],[-2.04126,52.33247],[-2.04128,52.33203],[-2.0405,52.33197],[-2.04023,52.33076],[-2.03851,52.32975],[-2.03973,52.32924],[-2.04212,52.3296],[-2.04351,52.33002],[-2.04361,52.32962],[-2.04406,52.32982],[-2.04777,52.32889],[-2.04873,52.32801],[-2.04938,52.32794],[-2.04942,52.32847],[-2.05024,52.32832],[-2.05029,52.32786],[-2.05075,52.32778],[-2.05047,52.32728],[-2.05103,52.32725],[-2.05171,52.32775],[-2.05238,52.32718],[-2.05285,52.32726],[-2.05288,52.32697],[-2.05348,52.32686],[-2.05379,52.32731],[-2.05449,52.32666],[-2.05478,52.3271],[-2.05541,52.32687],[-2.05603,52.32607],[-2.05685,52.32624],[-2.05537,52.32789],[-2.05309,52.3298],[-2.05097,52.33124],[-2.04999,52.33067],[-2.04974,52.33091],[-2.04829,52.3307],[-2.04827,52.33115],[-2.04739,52.33141],[-2.04704,52.33114],[-2.04689,52.33165],[-2.04554,52.33168],[-2.04448,52.33196],[-2.04461,52.33324],[-2.0437,52.333],[-2.04244,52.33364],[-2.04133,52.33377],[-2.0402,52.33316]]]}},{"type":"Feature","properties":{"id":"E01033062","name":"E01033062","parent":"E07000234","type":"LSOA","pop":2246,"r":95,"ff":30,"ffd":1335.7,"ffs":0.5,"g":34,"co":0,"mo":0,"sa":0,"ic":0},"geometry":{"type":"Polygon","coordinates":[[[-2.07937,52.32028],[-2.07824,52.31972],[-2.07754,52.3199],[-2.07725,52.31922],[-2.07598,52.31966],[-2.07578,52.31939],[-2.07419,52.32022],[-2.07396,52.31928],[-2.07141,52.31944],[-2.07009,52.3184],[-2.06898,52.31838],[-2.06489,52.31904],[-2.06364,52.31834],[-2.06706,52.31678],[-2.07037,52.31556],[-2.07293,52.31526],[-2.07301,52.31552],[-2.07534,52.31532],[-2.07592,52.31535],[-2.07597,52.3156],[-2.07736,52.31518],[-2.07749,52.31487],[-2.0783,52.31445],[-2.0784,52.31506],[-2.08178,52.31364],[-2.08226,52.31377],[-2.08268,52.31432],[-2.08236,52.31494],[-2.08146,52.3148],[-2.08094,52.31521],[-2.08172,52.31555],[-2.08112,52.31613],[-2.07954,52.31616],[-2.07968,52.31652],[-2.08046,52.31663],[-2.07991,52.31778],[-2.07905,52.31784],[-2.07988,52.31956],[-2.07937,52.32028]]]}},{"type":"Feature","properties":{"id":"E01033243","name":"E01033243","parent":"E07000234","type":"LSOA","pop":2295,"r":107,"ff":31,"ffd":1350.8,"ffs":0.4493,"g":37,"co":0,"mo":0,"sa":0,"ic":0},"geometry":{"type":"Polygon","coordinates":[[[-1.9671,52.33804],[-1.96801,52.33324],[-1.96271,52.33113],[-1.96403,52.32687],[-1.96659,52.32433],[-1.96622,52.32244],[-1.96997,52.3192],[-1.97328,52.32098],[-1.97653,52.32108],[-1.98137,52.32228],[-1.9845,52.32602],[-1.98552,52.32669],[-1.98736,52.32719],[-1.99016,52.32728],[-1.99285,52.32661],[-1.99263,52.32592],[-1.99426,52.32633],[-1.99769,52.32566],[-1.99819,52.32542],[-1.99738,52.32475],[-1.99832,52.32463],[-1.99901,52.32415],[-1.9976,52.32382],[-1.99744,52.32327],[-1.99308,52.32041],[-1.99025,52.32031],[-1.98967,52.31993],[-1.98503,52.31902],[-1.986,52.31727],[-1.98559,52.31637],[-1.98644,52.31152],[-1.98776,52.3127],[-1.99087,52.31425],[-1.99207,52.31531],[-1.99698,52.3175],[-1.99752,52.3177],[-1.99886,52.31713],[-1.99932,52.31746],[-2.00074,52.3169],[-2.00204,52.31808],[-2.00382,52.31726],[-2.00872,52.32002],[-2.00983,52.31952],[-2.01197,52.3167],[-2.01236,52.31687],[-2.01317,52.31665],[-2.01294,52.3162],[-2.01526,52.31607],[-2.01579,52.31538],[-2.01716,52.31597],[-2.01893,52.3174],[-2.02068,52.31671],[-2.02201,52.31669],[-2.02243,52.31545],[-2.02588,52.31174],[-2.03157,52.3092],[-2.03622,52.30554],[-2.04049,52.30665],[-2.04148,52.30647],[-2.04233,52.30682],[-2.04394,52.30676],[-2.04502,52.30745],[-2.04577,52.30754],[-2.04572,52.30779],[-2.04836,52.30861],[-2.04885,52.31341],[-2.04771,52.31361],[-2.04811,52.31423],[-2.05009,52.31375],[-2.05329,52.3168],[-2.05407,52.31707],[-2.05406,52.31762],[-2.05282,52.31771],[-2.04839,52.32152],[-2.03434,52.33087],[-2.03265,52.33011],[-2.03254,52.32951],[-2.03329,52.32888],[-2.03443,52.32882],[-2.03789,52.32738],[-2.03717,52.32663],[-2.03819,52.32488],[-2.03809,52.32387],[-2.03428,52.3223],[-2.03275,52.32254],[-2.03089,52.32351],[-2.03178,52.32406],[-2.03132,52.32492],[-2.03046,52.32582],[-2.02832,52.32661],[-2.02939,52.32968],[-2.02654,52.32952],[-2.02733,52.33032],[-2.02309,52.33026],[-2.02161,52.33],[-2.02127,52.32937],[-2.0202,52.32909],[-2.01968,52.32938],[-2.01707,52.32832],[-2.01757,52.32746],[-2.01682,52.32534],[-2.01499,52.3251],[-2.01499,52.32377],[-2.01245,52.32228],[-2.01176,52.31935],[-2.00812,52.32123],[-2.00454,52.32066],[-2.00403,52.31993],[-2.00335,52.32011],[-2.00318,52.31978],[-2.00111,52.32102],[-2.00272,52.32299],[-2.00395,52.32251],[-2.00419,52.32198],[-2.01293,52.32635],[-2.01232,52.32874],[-2.01284,52.33016],[-2.01258,52.33049],[-2.01106,52.33095],[-2.00925,52.32959],[-2.00649,52.32894],[-2.00168,52.32846],[-2.0003,52.33103],[-1.99461,52.32894],[-1.99409,52.32911],[-1.99158,52.33238],[-1.98955,52.33357],[-1.98458,52.33336],[-1.97809,52.33624],[-1.97998,52.34076],[-1.97773,52.34085],[-1.97337,52.33896],[-1.96738,52.33877],[-1.9671,52.33804]]]}},{"type":"Feature","properties":{"id":"E01034316","name":"E01034316","parent":"E07000234","type":"LSOA","pop":1393,"r":99,"ff":31,"ffd":2225.4,"ffs":0.4769,"g":33,"co":0,"mo":0,"sa":0,"ic":0},"geometry":{"type":"Polygon","coordinates":[[[-2.04725,52.3235],[-2.04668,52.32257],[-2.04839,52.32152],[-2.05282,52.31771],[-2.0542,52.31758],[-2.05698,52.31787],[-2.05846,52.31869],[-2.05752,52.3191],[-2.05666,52.32057],[-2.05517,52.32007],[-2.05453,52.32049],[-2.05365,52.32032],[-2.0533,52.32059],[-2.05365,52.32182],[-2.05263,52.32046],[-2.05141,52.3217],[-2.05184,52.32252],[-2.05049,52.32276],[-2.05002,52.32316],[-2.05061,52.32336],[-2.05041,52.32371],[-2.04893,52.32438],[-2.04827,52.32318],[-2.04782,52.32369],[-2.04844,52.32497],[-2.04689,52.32547],[-2.04665,52.32518],[-2.04774,52.32487],[-2.04684,52.32376],[-2.04725,52.3235]]]}},{"type":"Feature","properties":{"id":"E01034317","name":"E01034317","parent":"E07000234","type":"LSOA","pop":1449,"r":103,"ff":31,"ffd":2139.4,"ffs":0.4559,"g":34,"co":0,"mo":0,"sa":0,"ic":0},"geometry":{"type":"Polygon","coordinates":[[[-2.04844,52.32497],[-2.04782,52.32369],[-2.04827,52.32318],[-2.04893,52.32438],[-2.05041,52.32371],[-2.05061,52.32336],[-2.05002,52.32316],[-2.05049,52.32276],[-2.05184,52.32252],[-2.05141,52.3217],[-2.05263,52.32046],[-2.05365,52.32182],[-2.0533,52.32059],[-2.05365,52.32032],[-2.05453,52.32049],[-2.05517,52.32007],[-2.05666,52.32057],[-2.05752,52.3191],[-2.05846,52.31869],[-2.05698,52.31787],[-2.0542,52.31758],[-2.05465,52.31673],[-2.05737,52.31455],[-2.05767,52.31378],[-2.06046,52.31323],[-2.06032,52.31294],[-2.06095,52.31242],[-2.06061,52.31232],[-2.0615,52.31152],[-2.06196,52.31154],[-2.06246,52.312],[-2.06157,52.31306],[-2.06321,52.31601],[-2.06257,52.31673],[-2.06251,52.31761],[-2.06387,52.31856],[-2.06221,52.31901],[-2.06415,52.32078],[-2.06348,52.32111],[-2.06355,52.32167],[-2.06301,52.32215],[-2.06363,52.32242],[-2.06379,52.32293],[-2.06495,52.32335],[-2.06553,52.32431],[-2.06481,52.32501],[-2.0614,52.3241],[-2.05915,52.32271],[-2.05754,52.32296],[-2.05791,52.32339],[-2.05693,52.32364],[-2.05617,52.32337],[-2.05617,52.32305],[-2.05406,52.3231],[-2.05353,52.32337],[-2.05282,52.32315],[-2.05105,52.32332],[-2.05149,52.3243],[-2.04927,52.32518],[-2.04844,52.32497]]]}},{"type":"Feature","properties":{"id":"E01034318","name":"E01034318","parent":"E07000234","type":"LSOA","pop":1418,"r":83,"ff":26,"ffd":1833.6,"ffs":0.4815,"g":28,"co":0,"mo":0,"sa":2,"ic":0},"geometry":{"type":"Polygon","coordinates":[[[-2.08242,52.32094],[-2.08015,52.32022],[-2.07977,52.32037],[-2.07961,52.32011],[-2.07988,52.31956],[-2.07905,52.31784],[-2.07991,52.31778],[-2.08046,52.31663],[-2.07968,52.31652],[-2.07954,52.31616],[-2.08112,52.31613],[-2.08172,52.31555],[-2.08094,52.31521],[-2.08146,52.3148],[-2.08236,52.31494],[-2.08268,52.31432],[-2.08226,52.31377],[-2.08178,52.31364],[-2.0784,52.31506],[-2.0783,52.31445],[-2.07749,52.31487],[-2.07736,52.31518],[-2.07597,52.3156],[-2.07592,52.31535],[-2.07534,52.31532],[-2.07301,52.31552],[-2.07293,52.31526],[-2.07037,52.31556],[-2.06706,52.31678],[-2.06364,52.31834],[-2.06251,52.31761],[-2.06257,52.31673],[-2.06321,52.31601],[-2.06157,52.31306],[-2.06246,52.312],[-2.06196,52.31154],[-2.0615,52.31152],[-2.06061,52.31232],[-2.06095,52.31242],[-2.06032,52.31294],[-2.06046,52.31323],[-2.05767,52.31378],[-2.05737,52.31455],[-2.05465,52.31673],[-2.05406,52.31762],[-2.05407,52.31707],[-2.05329,52.3168],[-2.05009,52.31375],[-2.04811,52.31423],[-2.04771,52.31361],[-2.04885,52.31341],[-2.04836,52.30861],[-2.04572,52.30779],[-2.04577,52.30754],[-2.04502,52.30745],[-2.04394,52.30676],[-2.04233,52.30682],[-2.04148,52.30647],[-2.04049,52.30665],[-2.03622,52.30554],[-2.03547,52.30556],[-2.03457,52.30451],[-2.03989,52.30104],[-2.04207,52.2984],[-2.0468,52.29166],[-2.04701,52.28786],[-2.0512,52.28697],[-2.05554,52.28471],[-2.05781,52.28429],[-2.06089,52.28419],[-2.06185,52.28474],[-2.07082,52.28729],[-2.07404,52.28858],[-2.07706,52.28909],[-2.08129,52.28879],[-2.08758,52.28905],[-2.08927,52.28949],[-2.09169,52.28856],[-2.08656,52.29537],[-2.08489,52.29694],[-2.08532,52.29521],[-2.08446,52.29515],[-2.08523,52.29409],[-2.08471,52.2931],[-2.08653,52.29265],[-2.08713,52.2919],[-2.08501,52.29056],[-2.0816,52.29191],[-2.0808,52.29196],[-2.07947,52.29453],[-2.07699,52.29712],[-2.07705,52.29801],[-2.07806,52.30089],[-2.07898,52.30267],[-2.08132,52.30426],[-2.08153,52.30477],[-2.08338,52.30441],[-2.08343,52.30392],[-2.08382,52.30433],[-2.08678,52.30414],[-2.08772,52.30357],[-2.08796,52.30384],[-2.08986,52.30351],[-2.09031,52.30386],[-2.0904,52.30492],[-2.08871,52.30634],[-2.08723,52.30989],[-2.08528,52.31214],[-2.08519,52.31271],[-2.08586,52.31322],[-2.08516,52.3135],[-2.08633,52.31453],[-2.0951,52.31337],[-2.0941,52.31543],[-2.08621,52.31747],[-2.08433,52.31899],[-2.08449,52.31921],[-2.08319,52.31982],[-2.08242,52.32094]]]}},{"type":"Feature","properties":{"id":"E01034319","name":"E01034319","parent":"E07000234","type":"LSOA","pop":1480,"r":103,"ff":31,"ffd":2094.6,"ffs":0.4559,"g":34,"co":0,"mo":0,"sa":2,"ic":0},"geometry":{"type":"Polygon","coordinates":[[[-2.08132,52.30426],[-2.07898,52.30267],[-2.07806,52.30089],[-2.07705,52.29801],[-2.07699,52.29712],[-2.07947,52.29453],[-2.0808,52.29196],[-2.0816,52.29191],[-2.08501,52.29056],[-2.08713,52.2919],[-2.08653,52.29265],[-2.08471,52.2931],[-2.08523,52.29409],[-2.08446,52.29515],[-2.08532,52.29521],[-2.08489,52.29694],[-2.08772,52.30357],[-2.08678,52.30414],[-2.08382,52.30433],[-2.08343,52.30392],[-2.08338,52.30441],[-2.08153,52.30477],[-2.08132,52.30426]]]}}]}