{"type":"FeatureCollection","features":[{"type":"Feature","properties":{"id":"E01022899","name":"E01022899","parent":"E07000090","type":"LSOA","pop":1379,"r":362,"ff":108,"ffd":7831.8,"ffs":0.4481,"g":117,"co":0,"mo":0,"sa":0,"ic":0},"geometry":{"type":"Polygon","coordinates":[[[-1.01281,50.86746],[-1.00829,50.86573],[-1.00629,50.86574],[-1.00552,50.86527],[-1.00323,50.86478],[-0.99985,50.86452],[-0.99976,50.86378],[-1.00074,50.86379],[-1.00094,50.86282],[-1.00027,50.86059],[-1.00259,50.86011],[-1.00312,50.86017],[-1.00455,50.86218],[-1.00615,50.86331],[-1.00699,50.8643],[-1.00901,50.86467],[-1.00918,50.86533],[-1.01667,50.86441],[-1.01549,50.87077],[-1.01488,50.87245],[-1.01329,50.87198],[-1.01336,50.86852],[-1.01281,50.86746]]]}},{"type":"Feature","properties":{"id":"E01022900","name":"E01022900","parent":"E07000090","type":"LSOA","pop":1769,"r":336,"ff":97,"ffd":5483.3,"ffs":0.4429,"g":113,"co":0,"mo":0,"sa":0,"ic":0},"geometry":{"type":"Polygon","coordinates":[[[-0.99712,50.86722],[-0.99706,50.86679],[-0.9963,50.86675],[-0.99634,50.86646],[-0.99923,50.86712],[-0.99929,50.86655],[-0.9956,50.86498],[-0.99547,50.86452],[-0.99481,50.86444],[-0.99477,50.86409],[-0.99423,50.86418],[-0.99402,50.86374],[-0.9924,50.8627],[-0.99156,50.8609],[-0.98996,50.8606],[-0.98895,50.85963],[-0.98949,50.8589],[-0.99033,50.85941],[-0.99091,50.85936],[-0.9946,50.86133],[-0.99605,50.86252],[-0.99562,50.86271],[-0.99636,50.86322],[-0.99928,50.8632],[-0.99902,50.86438],[-0.99957,50.86439],[-0.99967,50.86401],[-0.99985,50.86452],[-1.0026,50.86479],[-1.00171,50.86606],[-1.00223,50.86663],[-1.002,50.86688],[-1.00153,50.86698],[-1.00175,50.86777],[-1.00072,50.8687],[-1.00104,50.86919],[-1.00076,50.8694],[-0.99899,50.86977],[-0.99842,50.86939],[-0.99815,50.86839],[-0.99642,50.86778],[-0.99632,50.86755],[-0.99712,50.86722]]]}},{"type":"Feature","properties":{"id":"E01022901","name":"E01022901","parent":"E07000090","type":"LSOA","pop":1807,"r":340,"ff":98,"ffd":5423.4,"ffs":0.4395,"g":113,"co":0,"mo":0,"sa":0,"ic":0},"geometry":{"type":"Polygon","coordinates":[[[-0.99765,50.87216],[-0.99809,50.87181],[-0.99859,50.87196],[-0.99892,50.8717],[-0.99819,50.87142],[-0.99854,50.87012],[-0.99842,50.86939],[-0.99899,50.86977],[-1.00076,50.8694],[-1.00104,50.86919],[-1.00303,50.86915],[-1.00404,50.86966],[-1.00532,50.86935],[-1.01488,50.87245],[-1.01338,50.87554],[-1.00915,50.88112],[-1.00612,50.88432],[-1.00546,50.88399],[-1.00614,50.8828],[-1.00355,50.87654],[-1.00127,50.87554],[-1.0013,50.87519],[-1.00033,50.87458],[-0.99765,50.87216]]]}},{"type":"Feature","properties":{"id":"E01022902","name":"E01022902","parent":"E07000090","type":"LSOA","pop":1539,"r":363,"ff":108,"ffd":7017.5,"ffs":0.4481,"g":118,"co":0,"mo":0,"sa":0,"ic":0},"geometry":{"type":"Polygon","coordinates":[[[-1.01329,50.87198],[-1.00532,50.86935],[-1.00404,50.86966],[-1.00303,50.86915],[-1.00104,50.86919],[-1.00072,50.8687],[-1.00175,50.86777],[-1.00153,50.86698],[-1.002,50.86688],[-1.00223,50.86663],[-1.00171,50.86606],[-1.0026,50.86479],[-1.00323,50.86478],[-1.00552,50.86527],[-1.00629,50.86574],[-1.00829,50.86573],[-1.01281,50.86746],[-1.01336,50.86852],[-1.01329,50.87198]]]}},{"type":"Feature","properties":{"id":"E01022903","name":"E01022903","parent":"E07000090","type":"LSOA","pop":1734,"r":268,"ff":74,"ffd":4267.6,"ffs":0.4379,"g":95,"co":0,"mo":0,"sa":0,"ic":0},"geometry":{"type":"Polygon","coordinates":[[[-0.97978,50.87937],[-0.97871,50.87831],[-0.9765,50.87915],[-0.97584,50.87802],[-0.97425,50.87802],[-0.97257,50.87866],[-0.97169,50.87786],[-0.97343,50.87668],[-0.97408,50.87186],[-0.97757,50.86632],[-0.97781,50.8656],[-0.97857,50.86553],[-0.97973,50.86591],[-0.97879,50.86641],[-0.97927,50.86664],[-0.98142,50.86642],[-0.9815,50.86617],[-0.98285,50.86592],[-0.98302,50.86769],[-0.98407,50.86794],[-0.98575,50.86787],[-0.98598,50.86816],[-0.98772,50.86819],[-0.98818,50.8687],[-0.98361,50.87003],[-0.98373,50.87177],[-0.98441,50.8718],[-0.98211,50.8724],[-0.98207,50.87313],[-0.98032,50.873],[-0.97903,50.87393],[-0.97892,50.87635],[-0.97978,50.87937]]]}},{"type":"Feature","properties":{"id":"E01022904","name":"E01022904","parent":"E07000090","type":"LSOA","pop":2142,"r":277,"ff":77,"ffd":3594.8,"ffs":0.4375,"g":97,"co":0,"mo":0,"sa":0,"ic":0},"geometry":{"type":"Polygon","coordinates":[[[-0.97973,50.86591],[-0.97857,50.86553],[-0.97781,50.8656],[-0.9787,50.86254],[-0.97886,50.86094],[-0.97933,50.86021],[-0.98086,50.85927],[-0.98397,50.8585],[-0.98445,50.8597],[-0.98604,50.85939],[-0.98847,50.85936],[-0.98996,50.8606],[-0.99156,50.8609],[-0.9924,50.8627],[-0.9918,50.86319],[-0.98921,50.86372],[-0.98818,50.86278],[-0.98841,50.86189],[-0.98717,50.86194],[-0.98711,50.86222],[-0.98582,50.86268],[-0.98517,50.86192],[-0.98459,50.86186],[-0.984,50.86237],[-0.98389,50.86307],[-0.98352,50.86277],[-0.9826,50.86316],[-0.98327,50.86377],[-0.98277,50.86418],[-0.98389,50.86518],[-0.98338,50.86583],[-0.9815,50.86617],[-0.98142,50.86642],[-0.97927,50.86664],[-0.97879,50.86641],[-0.97973,50.86591]]]}},{"type":"Feature","properties":{"id":"E01022905","name":"E01022905","parent":"E07000090","type":"LSOA","pop":1790,"r":298,"ff":82,"ffd":4581.0,"ffs":0.4316,"g":104,"co":0,"mo":0,"sa":0,"ic":0},"geometry":{"type":"Polygon","coordinates":[[[-0.98598,50.86816],[-0.98575,50.86787],[-0.98407,50.86794],[-0.98302,50.86769],[-0.98285,50.86592],[-0.98338,50.86583],[-0.98389,50.86518],[-0.98277,50.86418],[-0.98327,50.86377],[-0.9826,50.86316],[-0.98352,50.86277],[-0.98389,50.86307],[-0.984,50.86237],[-0.98459,50.86186],[-0.98517,50.86192],[-0.98582,50.86268],[-0.98711,50.86222],[-0.98717,50.86194],[-0.98841,50.86189],[-0.98818,50.86278],[-0.98921,50.86372],[-0.98964,50.86515],[-0.98995,50.86515],[-0.98992,50.8659],[-0.98886,50.86697],[-0.98859,50.86843],[-0.98818,50.8687],[-0.98772,50.86819],[-0.98598,50.86816]]]}},{"type":"Feature","properties":{"id":"E01022906","name":"E01022906","parent":"E07000090","type":"LSOA","pop":1375,"r":274,"ff":76,"ffd":5527.3,"ffs":0.4318,"g":94,"co":0,"mo":0,"sa":0,"ic":0},"geometry":{"type":"Polygon","coordinates":[[[-0.98638,50.88502],[-0.98599,50.88472],[-0.98544,50.885],[-0.97978,50.87937],[-0.97892,50.87635],[-0.97903,50.87393],[-0.98032,50.873],[-0.98207,50.87313],[-0.98211,50.8724],[-0.98439,50.87175],[-0.98564,50.87168],[-0.98672,50.87286],[-0.988,50.87294],[-0.99003,50.87257],[-0.99044,50.87337],[-0.99045,50.87385],[-0.98924,50.87409],[-0.98932,50.87442],[-0.98809,50.87498],[-0.98848,50.87515],[-0.988,50.8756],[-0.99205,50.87525],[-0.99584,50.88223],[-0.99322,50.89206],[-0.99234,50.89167],[-0.98654,50.88602],[-0.98638,50.88502]]]}},{"type":"Feature","properties":{"id":"E01022907","name":"E01022907","parent":"E07000090","type":"LSOA","pop":1550,"r":363,"ff":112,"ffd":7225.8,"ffs":0.4571,"g":114,"co":0,"mo":0,"sa":0,"ic":0},"geometry":{"type":"Polygon","coordinates":[[[-1.00259,50.86011],[-1.00229,50.8578],[-1.00188,50.85761],[-1.00255,50.85667],[-1.00286,50.85661],[-1.00283,50.85711],[-1.00332,50.85711],[-1.00349,50.85783],[-1.00403,50.85772],[-1.00481,50.85824],[-1.00579,50.85813],[-1.00616,50.8591],[-1.00711,50.85885],[-1.00708,50.85787],[-1.01238,50.85804],[-1.01593,50.85836],[-1.01667,50.86441],[-1.00918,50.86533],[-1.00901,50.86467],[-1.00699,50.8643],[-1.00615,50.86331],[-1.00455,50.86218],[-1.00312,50.86017],[-1.00259,50.86011]]]}},{"type":"Feature","properties":{"id":"E01022908","name":"E01022908","parent":"E07000090","type":"LSOA","pop":1540,"r":319,"ff":92,"ffd":5974.0,"ffs":0.4466,"g":109,"co":0,"mo":0,"sa":0,"ic":0},"geometry":{"type":"Polygon","coordinates":[[[-0.99902,50.86438],[-0.99928,50.8632],[-0.99636,50.86322],[-0.99562,50.86271],[-0.99605,50.86252],[-0.9946,50.86133],[-0.99091,50.85936],[-0.99033,50.85941],[-0.98912,50.8587],[-0.98933,50.85802],[-0.98867,50.85798],[-0.98856,50.85773],[-0.98915,50.85761],[-0.98892,50.8566],[-0.99065,50.85633],[-0.99101,50.85732],[-0.99329,50.85736],[-0.99338,50.85698],[-0.99408,50.85688],[-0.99458,50.85719],[-0.99472,50.85675],[-0.99525,50.85663],[-0.99658,50.857],[-0.99751,50.85688],[-0.99725,50.85866],[-0.99741,50.85958],[-0.99636,50.85977],[-0.99695,50.86038],[-0.99899,50.86009],[-0.9991,50.86042],[-1.00027,50.86059],[-1.00094,50.86282],[-1.00074,50.86379],[-0.99976,50.86378],[-0.99957,50.86439],[-0.99902,50.86438]]]}},{"type":"Feature","properties":{"id":"E01022909","name":"E01022909","parent":"E07000090","type":"LSOA","pop":1903,"r":409,"ff":128,"ffd":6726.2,"ffs":0.4672,"g":131,"co":0,"mo":0,"sa":0,"ic":0},"geometry":{"type":"MultiPolygon","coordinates":[[[[-1.0012,50.85093],[-1.00226,50.84922],[-1.0021,50.84966],[-1.0012,50.85093]]],[[[-1.00616,50.8591],[-1.00579,50.85813],[-1.00481,50.85824],[-1.00403,50.85772],[-1.00349,50.85783],[-1.00332,50.85711],[-1.00283,50.85711],[-1.00286,50.85661],[-1.00255,50.85667],[-1.00282,50.85642],[-1.0024,50.85549],[-1.00546,50.85477],[-1.00508,50.85408],[-1.00439,50.85417],[-1.00414,50.85455],[-1.00389,50.85421],[-1.00336,50.85421],[-1.0045,50.8539],[-1.00449,50.85344],[-1.00499,50.85327],[-1.00469,50.85244],[-1.00397,50.85195],[-1.00284,50.85253],[-1.00294,50.85281],[-1.0015,50.85268],[-1.00118,50.85402],[-0.99999,50.85445],[-1.00019,50.85249],[-0.99953,50.85158],[-1.00093,50.85131],[-1.00219,50.85013],[-1.00247,50.84934],[-1.00266,50.84982],[-1.00293,50.84959],[-1.00262,50.84913],[-1.0028,50.84848],[-1.00678,50.84745],[-1.00671,50.84765],[-1.00998,50.84722],[-1.01084,50.84919],[-1.01201,50.84923],[-1.01222,50.85049],[-1.01194,50.85059],[-1.01206,50.85177],[-1.01375,50.85382],[-1.01217,50.85419],[-1.01191,50.85495],[-1.01063,50.85527],[-1.01065,50.85558],[-1.0102,50.85562],[-1.01015,50.85753],[-1.01226,50.85764],[-1.01238,50.85804],[-1.00708,50.85787],[-1.00711,50.85885],[-1.00616,50.8591]]]]}},{"type":"Feature","properties":{"id":"E01022910","name":"E01022910","parent":"E07000090","type":"LSOA","pop":1422,"r":337,"ff":97,"ffd":6821.4,"ffs":0.4389,"g":112,"co":2,"mo":0,"sa":0,"ic":0},"geometry":{"type":"Polygon","coordinates":[[[-0.98445,50.8597],[-0.98397,50.8585],[-0.98569,50.8571],[-0.98602,50.85581],[-0.98563,50.85476],[-0.98719,50.85488],[-0.9868,50.85424],[-0.9879,50.85228],[-0.99595,50.85416],[-0.99223,50.85599],[-0.9927,50.85639],[-0.99336,50.85633],[-0.99309,50.85701],[-0.99232,50.85704],[-0.99111,50.85624],[-0.98892,50.8566],[-0.98915,50.85761],[-0.98856,50.85773],[-0.98867,50.85798],[-0.98933,50.85802],[-0.98912,50.8587],[-0.98949,50.8589],[-0.98895,50.85963],[-0.98847,50.85936],[-0.98604,50.85939],[-0.98445,50.8597]]]}},{"type":"Feature","properties":{"id":"E01022911","name":"E01022911","parent":"E07000090","type":"LSOA","pop":1510,"r":349,"ff":102,"ffd":6755.0,"ffs":0.4397,"g":113,"co":0,"mo":0,"sa":0,"ic":0},"geometry":{"type":"Polygon","coordinates":[[[-0.9991,50.86042],[-0.99899,50.86009],[-0.99695,50.86038],[-0.99636,50.85977],[-0.99741,50.85958],[-0.99725,50.85866],[-0.99751,50.85688],[-0.99658,50.857],[-0.99525,50.85663],[-0.99472,50.85675],[-0.99458,50.85719],[-0.99408,50.85688],[-0.99338,50.85698],[-0.99329,50.85736],[-0.99101,50.85732],[-0.99065,50.85633],[-0.99111,50.85624],[-0.99232,50.85704],[-0.99309,50.85701],[-0.99336,50.85633],[-0.9927,50.85639],[-0.99223,50.85599],[-0.99586,50.85411],[-1.00019,50.85249],[-0.99999,50.85445],[-1.00118,50.85402],[-1.0015,50.85268],[-1.00294,50.85281],[-1.00284,50.85253],[-1.00397,50.85195],[-1.00469,50.85244],[-1.00499,50.85327],[-1.00449,50.85344],[-1.0045,50.8539],[-1.00336,50.85421],[-1.00389,50.85421],[-1.00414,50.85455],[-1.00439,50.85417],[-1.00508,50.85408],[-1.00546,50.85477],[-1.0024,50.85549],[-1.00282,50.85642],[-1.00188,50.85761],[-1.00229,50.8578],[-1.00259,50.86011],[-1.00027,50.86059],[-0.9991,50.86042]]]}},{"type":"Feature","properties":{"id":"E01022913","name":"E01022913","parent":"E07000090","type":"LSOA","pop":1294,"r":264,"ff":73,"ffd":5641.4,"ffs":0.4424,"g":95,"co":0,"mo":0,"sa":0,"ic":0},"geometry":{"type":"Polygon","coordinates":[[[-0.97719,50.86611],[-0.97708,50.86522],[-0.9761,50.8653],[-0.97598,50.86492],[-0.97642,50.86482],[-0.97674,50.86405],[-0.97607,50.86386],[-0.97602,50.86346],[-0.97659,50.86335],[-0.97652,50.86285],[-0.97718,50.86279],[-0.97712,50.8624],[-0.97594,50.86207],[-0.97455,50.86232],[-0.97459,50.86156],[-0.97377,50.86159],[-0.97362,50.86104],[-0.97221,50.86103],[-0.97314,50.85981],[-0.97933,50.86021],[-0.97886,50.86094],[-0.9787,50.86254],[-0.97757,50.86632],[-0.97719,50.86611]]]}},{"type":"Feature","properties":{"id":"E01022914","name":"E01022914","parent":"E07000090","type":"LSOA","pop":1287,"r":231,"ff":63,"ffd":4895.1,"ffs":0.4468,"g":86,"co":0,"mo":0,"sa":0,"ic":0},"geometry":{"type":"Polygon","coordinates":[[[-0.96748,50.873],[-0.96792,50.8727],[-0.96721,50.87228],[-0.96697,50.87289],[-0.96555,50.87249],[-0.9667,50.87178],[-0.96755,50.87165],[-0.96663,50.871],[-0.96706,50.87065],[-0.96969,50.87106],[-0.96979,50.87082],[-0.97081,50.87056],[-0.97068,50.87153],[-0.97185,50.87235],[-0.97188,50.87277],[-0.97282,50.87263],[-0.97285,50.87311],[-0.97384,50.87342],[-0.97343,50.87668],[-0.97169,50.87786],[-0.96989,50.87803],[-0.96826,50.87771],[-0.96895,50.87566],[-0.96691,50.87502],[-0.96824,50.87325],[-0.96748,50.873]]]}},{"type":"Feature","properties":{"id":"E01022915","name":"E01022915","parent":"E07000090","type":"LSOA","pop":1675,"r":232,"ff":64,"ffd":3820.9,"ffs":0.4507,"g":86,"co":0,"mo":0,"sa":2,"ic":0},"geometry":{"type":"Polygon","coordinates":[[[-0.96801,50.87344],[-0.9621,50.87265],[-0.96044,50.87218],[-0.96262,50.86882],[-0.96444,50.86925],[-0.96684,50.86695],[-0.96775,50.86724],[-0.96833,50.86604],[-0.96936,50.86629],[-0.96991,50.86679],[-0.97014,50.86797],[-0.97034,50.86811],[-0.97026,50.86958],[-0.96969,50.87106],[-0.96706,50.87065],[-0.96663,50.871],[-0.96755,50.87165],[-0.9667,50.87178],[-0.96555,50.87249],[-0.96697,50.87289],[-0.96721,50.87228],[-0.96792,50.8727],[-0.96748,50.873],[-0.96824,50.87325],[-0.96801,50.87344]]]}},{"type":"Feature","properties":{"id":"E01022916","name":"E01022916","parent":"E07000090","type":"LSOA","pop":1661,"r":250,"ff":71,"ffd":4274.5,"ffs":0.4551,"g":90,"co":0,"mo":0,"sa":0,"ic":0},"geometry":{"type":"Polygon","coordinates":[[[-0.96338,50.86725],[-0.96919,50.85822],[-0.9735,50.85922],[-0.97221,50.86103],[-0.97362,50.86104],[-0.97377,50.86159],[-0.97459,50.86156],[-0.97455,50.86232],[-0.97594,50.86207],[-0.97712,50.8624],[-0.97718,50.86279],[-0.97652,50.86285],[-0.97659,50.86335],[-0.97602,50.86346],[-0.97607,50.86386],[-0.97674,50.86405],[-0.97642,50.86482],[-0.97598,50.86492],[-0.9761,50.8653],[-0.97708,50.86522],[-0.97719,50.86611],[-0.97417,50.86616],[-0.97156,50.86696],[-0.97072,50.86817],[-0.97014,50.86797],[-0.96991,50.86679],[-0.96936,50.86629],[-0.96833,50.86604],[-0.96775,50.86724],[-0.96684,50.86695],[-0.96444,50.86925],[-0.96262,50.86882],[-0.96338,50.86725]]]}},{"type":"Feature","properties":{"id":"E01022917","name":"E01022917","parent":"E07000090","type":"LSOA","pop":1223,"r":238,"ff":66,"ffd":5396.6,"ffs":0.4552,"g":89,"co":0,"mo":0,"sa":0,"ic":0},"geometry":{"type":"Polygon","coordinates":[[[-0.97285,50.87311],[-0.97282,50.87263],[-0.97188,50.87277],[-0.97185,50.87235],[-0.97068,50.87153],[-0.97081,50.87056],[-0.96979,50.87082],[-0.97026,50.86958],[-0.97034,50.86811],[-0.97072,50.86817],[-0.97156,50.86696],[-0.97417,50.86616],[-0.97719,50.86611],[-0.97757,50.86632],[-0.97408,50.87186],[-0.97384,50.87342],[-0.97285,50.87311]]]}},{"type":"Feature","properties":{"id":"E01022918","name":"E01022918","parent":"E07000090","type":"LSOA","pop":1571,"r":233,"ff":62,"ffd":3946.5,"ffs":0.446,"g":90,"co":2,"mo":0,"sa":0,"ic":0},"geometry":{"type":"Polygon","coordinates":[[[-1.00888,50.89899],[-1.00832,50.89875],[-1.00804,50.89897],[-1.0074,50.89869],[-1.00754,50.89845],[-1.00797,50.89856],[-1.00811,50.89794],[-1.0069,50.89829],[-1.0067,50.89784],[-1.00551,50.89808],[-1.00512,50.8975],[-1.00389,50.89719],[-1.00471,50.89655],[-1.00274,50.89572],[-0.99877,50.8954],[-0.99955,50.89295],[-1.00152,50.89264],[-1.00594,50.89234],[-1.00732,50.89279],[-1.00824,50.89345],[-1.00776,50.89435],[-1.01067,50.89423],[-1.01255,50.89245],[-1.01455,50.89301],[-1.01476,50.89346],[-1.01524,50.89364],[-1.01558,50.89342],[-1.01652,50.89398],[-1.01706,50.89375],[-1.01743,50.89391],[-1.01875,50.8931],[-1.01924,50.89327],[-1.01876,50.89382],[-1.01939,50.89427],[-1.01927,50.8946],[-1.01666,50.89529],[-1.01553,50.89619],[-1.01644,50.89731],[-1.01568,50.89737],[-1.01505,50.89819],[-1.01397,50.89813],[-1.01203,50.8986],[-1.01136,50.89828],[-1.01062,50.89841],[-1.01037,50.8978],[-1.00888,50.89899]]]}},{"type":"Feature","properties":{"id":"E01022919","name":"E01022919","parent":"E07000090","type":"LSOA","pop":1557,"r":224,"ff":58,"ffd":3725.1,"ffs":0.4394,"g":88,"co":2,"mo":0,"sa":0,"ic":0},"geometry":{"type":"Polygon","coordinates":[[[-1.01847,50.90383],[-1.0187,50.90344],[-1.01912,50.90363],[-1.01861,50.9029],[-1.01656,50.90234],[-1.01768,50.90089],[-1.01614,50.90044],[-1.01597,50.90062],[-1.0158,50.89957],[-1.01637,50.89905],[-1.01706,50.89944],[-1.01844,50.8989],[-1.02047,50.8998],[-1.0211,50.89943],[-1.02137,50.89952],[-1.02427,50.89839],[-1.02376,50.8977],[-1.02447,50.89741],[-1.02542,50.89751],[-1.02536,50.89678],[-1.02497,50.89665],[-1.02529,50.89611],[-1.02734,50.89617],[-1.02724,50.89647],[-1.02939,50.89677],[-1.02605,50.89872],[-1.02345,50.90069],[-1.02296,50.90136],[-1.02163,50.90421],[-1.01943,50.90421],[-1.01938,50.90499],[-1.01837,50.90448],[-1.01847,50.90383]]]}},{"type":"Feature","properties":{"id":"E01022920","name":"E01022920","parent":"E07000090","type":"LSOA","pop":1598,"r":223,"ff":59,"ffd":3692.1,"ffs":0.4504,"g":88,"co":2,"mo":0,"sa":0,"ic":0},"geometry":{"type":"Polygon","coordinates":[[[-1.01275,50.9019],[-1.01264,50.90131],[-1.01419,50.90072],[-1.01388,50.90025],[-1.01261,50.90004],[-1.01397,50.89869],[-1.01397,50.89813],[-1.01505,50.89819],[-1.01568,50.89737],[-1.01644,50.89731],[-1.01553,50.89619],[-1.01666,50.89529],[-1.01927,50.8946],[-1.01939,50.89427],[-1.02529,50.89611],[-1.02497,50.89665],[-1.02536,50.89678],[-1.02542,50.89751],[-1.02447,50.89741],[-1.02376,50.8977],[-1.02427,50.89839],[-1.02137,50.89952],[-1.0211,50.89943],[-1.02047,50.8998],[-1.01844,50.8989],[-1.01706,50.89944],[-1.01637,50.89905],[-1.0158,50.89957],[-1.01597,50.90062],[-1.0156,50.90095],[-1.01484,50.90081],[-1.01455,50.90121],[-1.01406,50.90099],[-1.0138,50.90135],[-1.01435,50.90157],[-1.01366,50.90154],[-1.01322,50.90208],[-1.01275,50.9019]]]}},{"type":"Feature","properties":{"id":"E01022921","name":"E01022921","parent":"E07000090","type":"LSOA","pop":1468,"r":297,"ff":81,"ffd":5517.7,"ffs":0.4332,"g":106,"co":2,"mo":0,"sa":0,"ic":0},"geometry":{"type":"Polygon","coordinates":[[[-1.00732,50.89279],[-1.00594,50.89234],[-1.00152,50.89264],[-1.00485,50.89],[-1.00582,50.88962],[-1.00561,50.88886],[-1.00632,50.8883],[-1.00817,50.88796],[-1.00843,50.88726],[-1.00998,50.8872],[-1.00992,50.88676],[-1.01162,50.88705],[-1.01233,50.88821],[-1.01263,50.88819],[-1.01095,50.89029],[-1.01875,50.8931],[-1.01743,50.89391],[-1.01706,50.89375],[-1.01652,50.89398],[-1.01558,50.89342],[-1.01524,50.89364],[-1.01476,50.89346],[-1.01455,50.89301],[-1.01255,50.89245],[-1.01067,50.89423],[-1.00776,50.89435],[-1.00824,50.89345],[-1.00732,50.89279]]]}},{"type":"Feature","properties":{"id":"E01022922","name":"E01022922","parent":"E07000090","type":"LSOA","pop":1395,"r":330,"ff":95,"ffd":6810.0,"ffs":0.4439,"g":112,"co":0,"mo":0,"sa":0,"ic":0},"geometry":{"type":"Polygon","coordinates":[[[-1.01143,50.88984],[-1.01263,50.88819],[-1.01233,50.88821],[-1.01162,50.88705],[-1.00992,50.88676],[-1.00998,50.8872],[-1.00843,50.88726],[-1.00817,50.88796],[-1.00632,50.8883],[-1.00561,50.88886],[-1.00582,50.88962],[-1.00485,50.89],[-1.00152,50.89264],[-0.99955,50.89295],[-1.00326,50.88766],[-1.00835,50.88195],[-1.00997,50.88348],[-1.01118,50.88388],[-1.01231,50.88575],[-1.01357,50.88646],[-1.01164,50.88703],[-1.01239,50.88816],[-1.01583,50.88778],[-1.02021,50.88684],[-1.02465,50.88719],[-1.02458,50.88758],[-1.0251,50.88773],[-1.0228,50.89011],[-1.01924,50.89327],[-1.01095,50.89029],[-1.01143,50.88984]]]}},{"type":"Feature","properties":{"id":"E01022924","name":"E01022924","parent":"E07000090","type":"LSOA","pop":1576,"r":205,"ff":52,"ffd":3299.5,"ffs":0.4407,"g":83,"co":0,"mo":0,"sa":2,"ic":0},"geometry":{"type":"Polygon","coordinates":[[[-0.92792,50.86283],[-0.9299,50.85843],[-0.93123,50.85723],[-0.93203,50.85567],[-0.93342,50.85484],[-0.93304,50.85424],[-0.93277,50.85321],[-0.93283,50.85207],[-0.93373,50.85184],[-0.93439,50.84953],[-0.93499,50.84889],[-0.9363,50.8486],[-0.93742,50.84903],[-0.93738,50.84974],[-0.93674,50.8501],[-0.9373,50.85058],[-0.93778,50.85057],[-0.93755,50.85224],[-0.9391,50.85223],[-0.93863,50.85289],[-0.93802,50.8533],[-0.93883,50.85402],[-0.93744,50.85436],[-0.93726,50.85511],[-0.93797,50.85512],[-0.93799,50.85584],[-0.93759,50.85594],[-0.93711,50.85564],[-0.93683,50.85647],[-0.93751,50.85646],[-0.93673,50.8577],[-0.93672,50.85897],[-0.9385,50.8591],[-0.93864,50.86108],[-0.93453,50.86132],[-0.93298,50.86077],[-0.9322,50.86209],[-0.93035,50.86322],[-0.92654,50.864],[-0.92792,50.86283]]]}},{"type":"Feature","properties":{"id":"E01022925","name":"E01022925","parent":"E07000090","type":"LSOA","pop":2245,"r":199,"ff":52,"ffd":2316.3,"ffs":0.4483,"g":79,"co":0,"mo":0,"sa":3,"ic":0},"geometry":{"type":"Polygon","coordinates":[[[-0.92936,50.86676],[-0.92922,50.86611],[-0.92869,50.86632],[-0.92866,50.86578],[-0.928,50.86567],[-0.92682,50.86467],[-0.92654,50.864],[-0.93035,50.86322],[-0.9322,50.86209],[-0.93298,50.86077],[-0.93547,50.86172],[-0.93818,50.86152],[-0.93816,50.86221],[-0.93894,50.86236],[-0.93915,50.86317],[-0.93959,50.8631],[-0.93993,50.86353],[-0.94012,50.86303],[-0.94426,50.86258],[-0.94433,50.86223],[-0.94396,50.86182],[-0.9439,50.86137],[-0.94438,50.86116],[-0.94537,50.86139],[-0.94648,50.86091],[-0.95316,50.86697],[-0.95355,50.86819],[-0.94334,50.87248],[-0.93861,50.87372],[-0.9387,50.87251],[-0.93694,50.87007],[-0.93553,50.86913],[-0.93193,50.86842],[-0.92936,50.86676]]]}},{"type":"Feature","properties":{"id":"E01022926","name":"E01022926","parent":"E07000090","type":"LSOA","pop":1839,"r":218,"ff":57,"ffd":3099.5,"ffs":0.4488,"g":87,"co":0,"mo":0,"sa":2,"ic":0},"geometry":{"type":"Polygon","coordinates":[[[-0.93993,50.86353],[-0.93959,50.8631],[-0.93915,50.86317],[-0.93894,50.86236],[-0.93816,50.86221],[-0.93818,50.86152],[-0.93547,50.86172],[-0.93453,50.86132],[-0.93864,50.86108],[-0.9385,50.8591],[-0.93672,50.85897],[-0.93673,50.8577],[-0.93751,50.85646],[-0.93683,50.85647],[-0.93711,50.85564],[-0.93759,50.85594],[-0.93799,50.85584],[-0.93797,50.85512],[-0.93726,50.85511],[-0.93744,50.85436],[-0.93883,50.85402],[-0.93802,50.8533],[-0.93863,50.85289],[-0.93887,50.85347],[-0.94119,50.85322],[-0.94142,50.85238],[-0.94615,50.85327],[-0.95013,50.85352],[-0.95195,50.85786],[-0.95164,50.86023],[-0.94634,50.86068],[-0.94648,50.86091],[-0.94537,50.86139],[-0.94438,50.86116],[-0.9439,50.86137],[-0.94396,50.86182],[-0.94433,50.86223],[-0.94426,50.86258],[-0.94012,50.86303],[-0.93993,50.86353]]]}},{"type":"Feature","properties":{"id":"E01022927","name":"E01022927","parent":"E07000090","type":"LSOA","pop":1718,"r":297,"ff":82,"ffd":4773.0,"ffs":0.4432,"g":108,"co":0,"mo":0,"sa":2,"ic":0},"geometry":{"type":"Polygon","coordinates":[[[-0.94142,50.85238],[-0.94131,50.85106],[-0.94167,50.8511],[-0.94121,50.85072],[-0.94032,50.85067],[-0.94029,50.8504],[-0.94152,50.85018],[-0.94158,50.84993],[-0.94137,50.8495],[-0.94059,50.84974],[-0.94011,50.84952],[-0.93989,50.84788],[-0.94097,50.84818],[-0.94087,50.84748],[-0.94184,50.84702],[-0.94152,50.84843],[-0.94243,50.84879],[-0.94281,50.84777],[-0.94518,50.84798],[-0.94508,50.84842],[-0.94592,50.84907],[-0.94639,50.85044],[-0.9474,50.8508],[-0.94787,50.85045],[-0.94745,50.84991],[-0.94771,50.8495],[-0.94756,50.84851],[-0.94867,50.84843],[-0.94818,50.84768],[-0.9473,50.84745],[-0.94737,50.84665],[-0.948,50.84605],[-0.94741,50.84552],[-0.94884,50.84556],[-0.94879,50.84596],[-0.94944,50.84622],[-0.94917,50.84754],[-0.94965,50.84755],[-0.95015,50.84835],[-0.95316,50.84858],[-0.95208,50.8492],[-0.9518,50.85028],[-0.95236,50.85138],[-0.95296,50.85131],[-0.95313,50.85164],[-0.95695,50.85052],[-0.95714,50.84894],[-0.96058,50.84914],[-0.96052,50.8503],[-0.95897,50.85107],[-0.95702,50.85091],[-0.957,50.85124],[-0.95405,50.8519],[-0.95436,50.85265],[-0.94963,50.85234],[-0.95013,50.85352],[-0.94615,50.85327],[-0.94142,50.85238]]]}},{"type":"Feature","properties":{"id":"E01022928","name":"E01022928","parent":"E07000090","type":"LSOA","pop":1708,"r":304,"ff":83,"ffd":4859.5,"ffs":0.4368,"g":110,"co":0,"mo":0,"sa":2,"ic":0},"geometry":{"type":"MultiPolygon","coordinates":[[[[-0.94444,50.83507],[-0.94504,50.83452],[-0.9451,50.83493],[-0.94563,50.83504],[-0.94579,50.83458],[-0.94473,50.83447],[-0.94443,50.83483],[-0.94426,50.83457],[-0.94492,50.8343],[-0.94678,50.83457],[-0.94667,50.83522],[-0.94603,50.83491],[-0.94576,50.83522],[-0.94444,50.83507]]],[[[-0.93969,50.84219],[-0.94011,50.84179],[-0.94029,50.84192],[-0.94005,50.84187],[-0.93969,50.84219]]],[[[-0.93775,50.84239],[-0.93822,50.84235],[-0.93791,50.84246],[-0.93775,50.84239]]],[[[-0.95313,50.85164],[-0.95296,50.85131],[-0.95236,50.85138],[-0.9518,50.85028],[-0.95208,50.8492],[-0.95316,50.84858],[-0.95015,50.84835],[-0.94965,50.84755],[-0.94917,50.84754],[-0.94944,50.84622],[-0.94879,50.84596],[-0.94884,50.84556],[-0.94741,50.84552],[-0.948,50.84605],[-0.94737,50.84665],[-0.9473,50.84745],[-0.94818,50.84768],[-0.94867,50.84843],[-0.94756,50.84851],[-0.94771,50.8495],[-0.94745,50.84991],[-0.94787,50.85045],[-0.9474,50.8508],[-0.94639,50.85044],[-0.94592,50.84907],[-0.94508,50.84842],[-0.94518,50.84798],[-0.94281,50.84777],[-0.94243,50.84879],[-0.94152,50.84843],[-0.94184,50.84702],[-0.94087,50.84748],[-0.94097,50.84818],[-0.93949,50.84761],[-0.93893,50.84637],[-0.9392,50.84595],[-0.94028,50.84562],[-0.9399,50.8452],[-0.94016,50.84483],[-0.94124,50.84473],[-0.94133,50.84599],[-0.94175,50.84604],[-0.94277,50.84554],[-0.94254,50.84457],[-0.9437,50.8449],[-0.94453,50.84453],[-0.94456,50.84269],[-0.94357,50.84241],[-0.94039,50.84234],[-0.94048,50.84205],[-0.94079,50.84226],[-0.9436,50.84226],[-0.94613,50.84271],[-0.94817,50.84263],[-0.9508,50.84288],[-0.95158,50.84322],[-0.95157,50.84248],[-0.9558,50.84113],[-0.95569,50.83985],[-0.95615,50.83964],[-0.95614,50.84027],[-0.95757,50.8453],[-0.95718,50.84533],[-0.95743,50.84614],[-0.95765,50.84897],[-0.95714,50.84894],[-0.95695,50.85052],[-0.95313,50.85164]]]]}},{"type":"Feature","properties":{"id":"E01022929","name":"E01022929","parent":"E07000090","type":"LSOA","pop":1546,"r":262,"ff":70,"ffd":4527.8,"ffs":0.4348,"g":97,"co":0,"mo":0,"sa":2,"ic":0},"geometry":{"type":"Polygon","coordinates":[[[-0.93863,50.85289],[-0.9391,50.85223],[-0.93755,50.85224],[-0.93778,50.85057],[-0.9373,50.85058],[-0.93674,50.8501],[-0.93738,50.84974],[-0.93742,50.84903],[-0.9363,50.8486],[-0.93499,50.84889],[-0.93439,50.84953],[-0.93357,50.84756],[-0.93248,50.84658],[-0.93248,50.84605],[-0.93361,50.84631],[-0.93222,50.84493],[-0.93207,50.84369],[-0.93226,50.84337],[-0.93225,50.84361],[-0.93291,50.84331],[-0.93296,50.84385],[-0.9351,50.84441],[-0.93748,50.84443],[-0.93793,50.84423],[-0.93728,50.84397],[-0.93756,50.8424],[-0.93962,50.84226],[-0.94005,50.84187],[-0.94048,50.84205],[-0.94039,50.84234],[-0.94357,50.84241],[-0.94456,50.84269],[-0.94453,50.84453],[-0.9437,50.8449],[-0.94254,50.84457],[-0.94277,50.84554],[-0.94175,50.84604],[-0.94133,50.84599],[-0.94124,50.84473],[-0.94016,50.84483],[-0.9399,50.8452],[-0.94028,50.84562],[-0.9392,50.84595],[-0.93893,50.84637],[-0.93949,50.84761],[-0.93989,50.84788],[-0.94011,50.84952],[-0.94059,50.84974],[-0.94137,50.8495],[-0.94158,50.84993],[-0.94152,50.85018],[-0.94029,50.8504],[-0.94032,50.85067],[-0.94121,50.85072],[-0.94167,50.8511],[-0.94131,50.85106],[-0.94142,50.85238],[-0.94119,50.85322],[-0.93887,50.85347],[-0.93863,50.85289]]]}},{"type":"Feature","properties":{"id":"E01022930","name":"E01022930","parent":"E07000090","type":"LSOA","pop":1749,"r":223,"ff":58,"ffd":3316.2,"ffs":0.4427,"g":88,"co":2,"mo":0,"sa":0,"ic":0},"geometry":{"type":"Polygon","coordinates":[[[-1.03938,50.89612],[-1.04002,50.89558],[-1.03788,50.89569],[-1.03748,50.89494],[-1.03574,50.89489],[-1.03593,50.89582],[-1.03453,50.89613],[-1.03247,50.89383],[-1.03205,50.89371],[-1.03236,50.89255],[-1.03297,50.89257],[-1.03315,50.89214],[-1.03671,50.89182],[-1.04114,50.89249],[-1.04336,50.89226],[-1.04528,50.8914],[-1.04578,50.8917],[-1.04757,50.89055],[-1.04913,50.89147],[-1.04364,50.89514],[-1.04151,50.89713],[-1.04104,50.89691],[-1.04145,50.89641],[-1.041,50.89619],[-1.03938,50.89612]]]}},{"type":"Feature","properties":{"id":"E01022931","name":"E01022931","parent":"E07000090","type":"LSOA","pop":1611,"r":257,"ff":71,"ffd":4407.2,"ffs":0.4465,"g":94,"co":2,"mo":0,"sa":0,"ic":0},"geometry":{"type":"Polygon","coordinates":[[[-1.02224,50.89518],[-1.01939,50.89427],[-1.01876,50.89382],[-1.0228,50.89011],[-1.02382,50.89044],[-1.02484,50.88986],[-1.02648,50.89027],[-1.02626,50.8906],[-1.02755,50.89099],[-1.02967,50.88992],[-1.03313,50.89079],[-1.03247,50.89214],[-1.03315,50.89214],[-1.03297,50.89257],[-1.03236,50.89255],[-1.03205,50.89371],[-1.03079,50.89522],[-1.03037,50.89506],[-1.0289,50.89662],[-1.02724,50.89647],[-1.02734,50.89617],[-1.02529,50.89611],[-1.02224,50.89518]]]}},{"type":"Feature","properties":{"id":"E01022933","name":"E01022933","parent":"E07000090","type":"LSOA","pop":1532,"r":203,"ff":51,"ffd":3329.0,"ffs":0.4322,"g":81,"co":2,"mo":0,"sa":0,"ic":0},"geometry":{"type":"Polygon","coordinates":[[[-1.02453,50.90328],[-1.02454,50.90212],[-1.02364,50.90164],[-1.02382,50.90129],[-1.02345,50.90069],[-1.02605,50.89872],[-1.02894,50.8971],[-1.02943,50.89735],[-1.0293,50.89797],[-1.03078,50.89932],[-1.03065,50.90028],[-1.03126,50.90049],[-1.03189,50.90016],[-1.0321,50.90104],[-1.03164,50.90135],[-1.0303,50.90139],[-1.02958,50.90187],[-1.02915,50.90121],[-1.02823,50.9013],[-1.02808,50.90205],[-1.02683,50.90206],[-1.0266,50.90299],[-1.02505,50.9029],[-1.02453,50.90328]]]}},{"type":"Feature","properties":{"id":"E01022934","name":"E01022934","parent":"E07000090","type":"LSOA","pop":2114,"r":190,"ff":48,"ffd":2270.6,"ffs":0.4486,"g":79,"co":2,"mo":0,"sa":0,"ic":0},"geometry":{"type":"Polygon","coordinates":[[[-1.03405,50.90528],[-1.03116,50.90476],[-1.03058,50.90484],[-1.0297,50.90421],[-1.02976,50.90345],[-1.02807,50.90416],[-1.02728,50.90399],[-1.0266,50.90299],[-1.02683,50.90206],[-1.02808,50.90205],[-1.02823,50.9013],[-1.02915,50.90121],[-1.02958,50.90187],[-1.0303,50.90139],[-1.03164,50.90135],[-1.0321,50.90104],[-1.03189,50.90016],[-1.03126,50.90049],[-1.03065,50.90028],[-1.03078,50.89932],[-1.0293,50.89797],[-1.02943,50.89735],[-1.02894,50.8971],[-1.02916,50.89695],[-1.02956,50.89708],[-1.02965,50.89675],[-1.03175,50.89714],[-1.03277,50.89752],[-1.03269,50.89789],[-1.0334,50.89774],[-1.03442,50.89831],[-1.03577,50.89809],[-1.03658,50.89875],[-1.03613,50.899],[-1.03622,50.89954],[-1.03833,50.89948],[-1.03839,50.89991],[-1.03913,50.90011],[-1.03797,50.90149],[-1.0339,50.90221],[-1.03412,50.90416],[-1.03405,50.90528]]]}},{"type":"Feature","properties":{"id":"E01022935","name":"E01022935","parent":"E07000090","type":"LSOA","pop":1495,"r":205,"ff":50,"ffd":3344.5,"ffs":0.4274,"g":84,"co":2,"mo":0,"sa":0,"ic":0},"geometry":{"type":"Polygon","coordinates":[[[-1.03839,50.89991],[-1.03833,50.89948],[-1.03622,50.89954],[-1.03613,50.899],[-1.03658,50.89875],[-1.03577,50.89809],[-1.03442,50.89831],[-1.0334,50.89774],[-1.03269,50.89789],[-1.03277,50.89752],[-1.03175,50.89714],[-1.02965,50.89675],[-1.02956,50.89708],[-1.02916,50.89695],[-1.02939,50.89677],[-1.0289,50.89662],[-1.03037,50.89506],[-1.03079,50.89522],[-1.03205,50.89371],[-1.03247,50.89383],[-1.03453,50.89613],[-1.03593,50.89582],[-1.03574,50.89489],[-1.03748,50.89494],[-1.03788,50.89569],[-1.04002,50.89558],[-1.03938,50.89612],[-1.041,50.89619],[-1.04145,50.89641],[-1.04104,50.89691],[-1.04151,50.89713],[-1.03913,50.90011],[-1.03839,50.89991]]]}},{"type":"Feature","properties":{"id":"E01022936","name":"E01022936","parent":"E07000090","type":"LSOA","pop":1460,"r":14,"ff":10,"ffd":684.9,"ffs":0.7143,"g":0,"co":3,"mo":3,"sa":3,"ic":1},"geometry":{"type":"MultiPolygon","coordinates":[[[[-0.9561,50.78284],[-0.95645,50.78273],[-0.95533,50.78363],[-0.9561,50.78284]]],[[[-0.95928,50.78409],[-0.95933,50.78287],[-0.95699,50.78255],[-0.95846,50.78207],[-0.9615,50.78231],[-0.9613,50.78242],[-0.96217,50.783],[-0.96185,50.7835],[-0.9607,50.78324],[-0.96028,50.78429],[-0.95948,50.78435],[-0.95928,50.78409]]],[[[-0.95127,50.7842],[-0.95494,50.78379],[-0.95356,50.78434],[-0.95136,50.78464],[-0.95127,50.7842]]],[[[-0.94302,50.78359],[-0.94329,50.7832],[-0.94389,50.78347],[-0.94437,50.78292],[-0.9455,50.78274],[-0.94584,50.78322],[-0.94622,50.78314],[-0.94709,50.78261],[-0.94705,50.78201],[-0.94859,50.78053],[-0.95225,50.78046],[-0.95225,50.78],[-0.95147,50.77943],[-0.95223,50.77894],[-0.94865,50.77839],[-0.94903,50.77806],[-0.9481,50.77831],[-0.94801,50.77875],[-0.94845,50.77904],[-0.94785,50.7791],[-0.94754,50.77878],[-0.94697,50.77881],[-0.94691,50.7791],[-0.94631,50.77892],[-0.94643,50.77871],[-0.94547,50.779],[-0.94511,50.77882],[-0.94468,50.77699],[-0.94324,50.77687],[-0.94324,50.77656],[-0.94625,50.77677],[-0.95902,50.77892],[-0.95894,50.78046],[-0.95974,50.78094],[-0.96008,50.78066],[-0.96129,50.78121],[-0.96192,50.78111],[-0.96172,50.78137],[-0.9623,50.78188],[-0.96154,50.78229],[-0.95982,50.78183],[-0.95887,50.78115],[-0.95722,50.78176],[-0.95533,50.78186],[-0.95359,50.78321],[-0.95329,50.78287],[-0.9531,50.78311],[-0.95209,50.78301],[-0.95198,50.78326],[-0.95019,50.78294],[-0.94917,50.78315],[-0.9484,50.78361],[-0.9482,50.78426],[-0.94392,50.78452],[-0.94316,50.78472],[-0.94354,50.78427],[-0.94302,50.78359]]]]}},{"type":"Feature","properties":{"id":"E01022937","name":"E01022937","parent":"E07000090","type":"LSOA","pop":1308,"r":18,"ff":14,"ffd":1070.3,"ffs":0.7778,"g":0,"co":3,"mo":3,"sa":3,"ic":1},"geometry":{"type":"MultiPolygon","coordinates":[[[[-0.96902,50.80282],[-0.96757,50.803],[-0.96562,50.80267],[-0.9647,50.8034],[-0.96135,50.80347],[-0.95995,50.80455],[-0.95869,50.80473],[-0.95722,50.80429],[-0.95612,50.80294],[-0.9554,50.80284],[-0.95275,50.80112],[-0.95313,50.80048],[-0.95457,50.79971],[-0.95624,50.79974],[-0.95696,50.79931],[-0.95642,50.79704],[-0.9566,50.79532],[-0.95537,50.79455],[-0.95534,50.79379],[-0.95741,50.79363],[-0.95811,50.79334],[-0.95857,50.79308],[-0.95961,50.79138],[-0.96315,50.79244],[-0.9636,50.79323],[-0.965,50.79427],[-0.96641,50.79393],[-0.96687,50.79477],[-0.96811,50.79456],[-0.97059,50.79452],[-0.97076,50.79496],[-0.97105,50.7945],[-0.97192,50.79436],[-0.97208,50.79475],[-0.97141,50.79677],[-0.97368,50.79678],[-0.97546,50.79795],[-0.97601,50.79795],[-0.9756,50.80059],[-0.97362,50.80085],[-0.97288,50.8016],[-0.97327,50.80354],[-0.97437,50.8053],[-0.97089,50.80566],[-0.97115,50.80595],[-0.96931,50.80452],[-0.96902,50.80282]]],[[[-0.97264,50.80748],[-0.97314,50.80707],[-0.9727,50.80752],[-0.97264,50.80748]]],[[[-0.9725,50.80766],[-0.97187,50.80706],[-0.97207,50.80718],[-0.9725,50.80766]]],[[[-0.9725,50.80894],[-0.97238,50.80885],[-0.97329,50.80903],[-0.97329,50.80905],[-0.9725,50.80894]]],[[[-0.96734,50.83484],[-0.9653,50.83428],[-0.96533,50.83396],[-0.96712,50.83444],[-0.96808,50.83199],[-0.96944,50.83199],[-0.97008,50.83227],[-0.96988,50.83165],[-0.96838,50.83163],[-0.97046,50.83087],[-0.96864,50.83116],[-0.96844,50.83067],[-0.96682,50.83051],[-0.96647,50.83092],[-0.9642,50.83153],[-0.96387,50.83331],[-0.96455,50.83381],[-0.96319,50.83325],[-0.96235,50.83223],[-0.96246,50.83168],[-0.96262,50.83245],[-0.9629,50.83271],[-0.96371,50.83304],[-0.96393,50.83239],[-0.96376,50.83278],[-0.96309,50.83276],[-0.96261,50.83202],[-0.96295,50.83201],[-0.9627,50.83169],[-0.96366,50.83156],[-0.96394,50.83202],[-0.96377,50.83151],[-0.96338,50.83149],[-0.96466,50.83118],[-0.96399,50.83076],[-0.96219,50.83097],[-0.96228,50.83155],[-0.96113,50.83062],[-0.95975,50.8304],[-0.95901,50.83145],[-0.95723,50.8313],[-0.95719,50.83071],[-0.95386,50.82921],[-0.95216,50.82785],[-0.95205,50.82592],[-0.95099,50.82395],[-0.95172,50.82181],[-0.95364,50.82078],[-0.95448,50.81976],[-0.95451,50.81873],[-0.95543,50.81759],[-0.95471,50.81665],[-0.95451,50.81699],[-0.95476,50.81643],[-0.95493,50.81661],[-0.95674,50.81619],[-0.95713,50.81634],[-0.95758,50.81584],[-0.95664,50.81492],[-0.95724,50.81451],[-0.95695,50.8135],[-0.95562,50.81418],[-0.95458,50.81401],[-0.95481,50.81355],[-0.9567,50.81241],[-0.95675,50.81167],[-0.95635,50.81148],[-0.95693,50.81139],[-0.9564,50.81138],[-0.95658,50.81116],[-0.95584,50.81125],[-0.9563,50.81111],[-0.95607,50.81082],[-0.95677,50.81073],[-0.95623,50.81071],[-0.95632,50.81037],[-0.95665,50.81045],[-0.95617,50.81021],[-0.9566,50.81006],[-0.95621,50.8101],[-0.95609,50.80978],[-0.95686,50.80977],[-0.95598,50.80968],[-0.95759,50.80969],[-0.95613,50.80961],[-0.95661,50.80926],[-0.95599,50.80947],[-0.95649,50.80917],[-0.95574,50.80921],[-0.9561,50.80893],[-0.9565,50.80899],[-0.95632,50.8089],[-0.95659,50.80886],[-0.95694,50.80926],[-0.95729,50.80932],[-0.95695,50.80924],[-0.95715,50.809],[-0.95657,50.80882],[-0.95609,50.80884],[-0.95684,50.80865],[-0.95598,50.80872],[-0.95616,50.80844],[-0.95669,50.80855],[-0.95649,50.80842],[-0.95726,50.80824],[-0.95672,50.80831],[-0.95657,50.808],[-0.95748,50.80826],[-0.95798,50.80826],[-0.95741,50.80818],[-0.95735,50.80798],[-0.95748,50.80809],[-0.95842,50.80785],[-0.95757,50.80802],[-0.95722,50.80757],[-0.95766,50.80779],[-0.95794,50.80765],[-0.95738,50.80753],[-0.95797,50.80746],[-0.95805,50.80788],[-0.95851,50.80777],[-0.95897,50.80963],[-0.96015,50.81102],[-0.9613,50.81137],[-0.96517,50.81099],[-0.96643,50.81122],[-0.96879,50.81035],[-0.96981,50.81069],[-0.96999,50.81047],[-0.97103,50.81058],[-0.96913,50.8102],[-0.9692,50.80992],[-0.96752,50.81002],[-0.96671,50.8095],[-0.96523,50.80976],[-0.96158,50.80921],[-0.96213,50.80884],[-0.96363,50.8091],[-0.96334,50.80845],[-0.9631,50.80869],[-0.96244,50.80817],[-0.96251,50.8078],[-0.96569,50.80636],[-0.96936,50.80639],[-0.9697,50.8068],[-0.97099,50.80722],[-0.97158,50.80825],[-0.97131,50.80805],[-0.97038,50.80998],[-0.97169,50.81022],[-0.97147,50.81067],[-0.97239,50.81146],[-0.97375,50.81141],[-0.97257,50.81496],[-0.97226,50.82051],[-0.97493,50.82056],[-0.97517,50.82527],[-0.97477,50.82654],[-0.97733,50.82671],[-0.97709,50.83128],[-0.97766,50.83164],[-0.97746,50.83238],[-0.97781,50.83308],[-0.97706,50.83186],[-0.97529,50.83214],[-0.97434,50.83278],[-0.97382,50.83269],[-0.97418,50.8324],[-0.97365,50.83269],[-0.97344,50.83253],[-0.97355,50.83273],[-0.97323,50.83247],[-0.97288,50.83264],[-0.97303,50.83236],[-0.97354,50.8323],[-0.97305,50.83221],[-0.9714,50.8327],[-0.97129,50.83389],[-0.97029,50.83466],[-0.96734,50.83484]]]]}},{"type":"Feature","properties":{"id":"E01022938","name":"E01022938","parent":"E07000090","type":"LSOA","pop":1757,"r":17,"ff":13,"ffd":739.9,"ffs":0.7647,"g":0,"co":3,"mo":3,"sa":3,"ic":1},"geometry":{"type":"Polygon","coordinates":[[[-0.97546,50.79795],[-0.97368,50.79678],[-0.97141,50.79677],[-0.97208,50.79475],[-0.97192,50.79436],[-0.97105,50.7945],[-0.97076,50.79496],[-0.97059,50.79452],[-0.96811,50.79456],[-0.96687,50.79477],[-0.96641,50.79393],[-0.965,50.79427],[-0.9636,50.79323],[-0.96315,50.79244],[-0.96244,50.79219],[-0.96655,50.79057],[-0.96716,50.78983],[-0.96794,50.79021],[-0.96702,50.78907],[-0.96694,50.78798],[-0.96731,50.78725],[-0.96755,50.78737],[-0.9675,50.78691],[-0.97104,50.78649],[-0.9732,50.78749],[-0.97361,50.78739],[-0.97396,50.78767],[-0.97462,50.78743],[-0.97505,50.78765],[-0.97693,50.78764],[-0.97716,50.79085],[-0.97601,50.79795],[-0.97546,50.79795]]]}},{"type":"Feature","properties":{"id":"E01022939","name":"E01022939","parent":"E07000090","type":"LSOA","pop":1516,"r":16,"ff":12,"ffd":791.6,"ffs":0.75,"g":0,"co":3,"mo":3,"sa":3,"ic":1},"geometry":{"type":"Polygon","coordinates":[[[-0.95755,50.78984],[-0.95562,50.78897],[-0.95677,50.78843],[-0.95819,50.78858],[-0.95998,50.78764],[-0.95946,50.78693],[-0.96028,50.78695],[-0.96033,50.78642],[-0.95951,50.78595],[-0.9601,50.78582],[-0.96039,50.78515],[-0.9594,50.78515],[-0.95912,50.78435],[-0.95793,50.78451],[-0.95743,50.78511],[-0.95611,50.78566],[-0.95419,50.78579],[-0.95356,50.78561],[-0.95356,50.78434],[-0.95521,50.78376],[-0.95645,50.78273],[-0.95742,50.7825],[-0.95933,50.78287],[-0.95928,50.78409],[-0.95948,50.78435],[-0.96028,50.78429],[-0.9607,50.78324],[-0.96185,50.7835],[-0.96217,50.783],[-0.9613,50.78242],[-0.9623,50.78188],[-0.96172,50.78137],[-0.96192,50.78111],[-0.96236,50.78105],[-0.96251,50.78063],[-0.96383,50.78117],[-0.96388,50.78157],[-0.96518,50.78181],[-0.96448,50.78223],[-0.9647,50.78294],[-0.96509,50.78292],[-0.96509,50.78357],[-0.96611,50.7842],[-0.96531,50.78446],[-0.96592,50.7854],[-0.96838,50.78532],[-0.96892,50.78546],[-0.96935,50.78521],[-0.96952,50.78545],[-0.96949,50.78435],[-0.97122,50.78441],[-0.97106,50.78394],[-0.97182,50.78408],[-0.97166,50.78477],[-0.97104,50.78469],[-0.97101,50.78504],[-0.97213,50.78512],[-0.97197,50.78557],[-0.97246,50.78604],[-0.9711,50.78617],[-0.97104,50.78649],[-0.9675,50.78691],[-0.96755,50.78737],[-0.96737,50.78719],[-0.96649,50.7876],[-0.96648,50.78815],[-0.96541,50.78848],[-0.96228,50.78815],[-0.96055,50.78918],[-0.96014,50.78888],[-0.95755,50.78984]]]}},{"type":"Feature","properties":{"id":"E01022940","name":"E01022940","parent":"E07000090","type":"LSOA","pop":1515,"r":17,"ff":13,"ffd":858.1,"ffs":0.7647,"g":0,"co":3,"mo":3,"sa":3,"ic":1},"geometry":{"type":"Polygon","coordinates":[[[-0.97396,50.78767],[-0.97361,50.78739],[-0.9732,50.78749],[-0.97104,50.78649],[-0.9711,50.78617],[-0.97246,50.78604],[-0.97197,50.78557],[-0.97213,50.78512],[-0.97101,50.78504],[-0.97104,50.78469],[-0.97166,50.78477],[-0.97182,50.78408],[-0.97106,50.78394],[-0.97122,50.78441],[-0.96949,50.78435],[-0.96952,50.78545],[-0.96935,50.78521],[-0.96892,50.78546],[-0.96838,50.78532],[-0.96592,50.7854],[-0.96531,50.78446],[-0.96611,50.7842],[-0.96509,50.78357],[-0.96509,50.78292],[-0.9647,50.78294],[-0.96448,50.78223],[-0.96518,50.78181],[-0.96388,50.78157],[-0.96383,50.78117],[-0.96251,50.78063],[-0.96236,50.78105],[-0.96129,50.78121],[-0.96008,50.78066],[-0.95974,50.78094],[-0.95894,50.78046],[-0.95902,50.77892],[-0.97035,50.78147],[-0.97866,50.78271],[-0.97693,50.78764],[-0.97505,50.78765],[-0.97462,50.78743],[-0.97396,50.78767]]]}},{"type":"Feature","properties":{"id":"E01022941","name":"E01022941","parent":"E07000090","type":"LSOA","pop":1475,"r":20,"ff":16,"ffd":1084.7,"ffs":0.8,"g":0,"co":3,"mo":3,"sa":3,"ic":1},"geometry":{"type":"MultiPolygon","coordinates":[[[[-0.938,50.78743],[-0.93637,50.78673],[-0.93599,50.78622],[-0.93613,50.78163],[-0.9356,50.77911],[-0.9362,50.77845],[-0.93897,50.77692],[-0.94284,50.77653],[-0.94324,50.77656],[-0.94324,50.77687],[-0.94468,50.77699],[-0.94511,50.77882],[-0.94547,50.779],[-0.94643,50.77871],[-0.94631,50.77892],[-0.94691,50.7791],[-0.94697,50.77881],[-0.94754,50.77878],[-0.94785,50.7791],[-0.94845,50.77904],[-0.94801,50.77875],[-0.9481,50.77831],[-0.94903,50.77806],[-0.94865,50.77839],[-0.95223,50.77894],[-0.95147,50.77943],[-0.95225,50.78],[-0.95225,50.78046],[-0.94859,50.78053],[-0.94705,50.78201],[-0.94709,50.78261],[-0.94622,50.78314],[-0.94584,50.78322],[-0.9455,50.78274],[-0.94437,50.78292],[-0.94389,50.78347],[-0.94329,50.7832],[-0.94302,50.78359],[-0.94354,50.78427],[-0.94316,50.78472],[-0.94207,50.785],[-0.94311,50.78669],[-0.94147,50.78601],[-0.94116,50.78514],[-0.93923,50.78432],[-0.9378,50.78289],[-0.93823,50.78238],[-0.93792,50.7826],[-0.93742,50.78244],[-0.93685,50.78281],[-0.93704,50.78478],[-0.93803,50.78489],[-0.93928,50.78614],[-0.94104,50.78652],[-0.94153,50.78741],[-0.94099,50.78694],[-0.938,50.78743]]],[[[-0.96731,50.78726],[-0.96731,50.78725],[-0.96694,50.78798],[-0.96693,50.7877],[-0.96731,50.78726]]],[[[-0.95905,50.78928],[-0.96014,50.78888],[-0.96055,50.78918],[-0.96228,50.78815],[-0.96541,50.78848],[-0.96233,50.78819],[-0.96046,50.7894],[-0.95905,50.78928]]],[[[-0.95755,50.78984],[-0.95245,50.78765],[-0.95071,50.78659],[-0.95098,50.78637],[-0.95168,50.78671],[-0.95249,50.78603],[-0.95179,50.7859],[-0.95277,50.78587],[-0.9516,50.78574],[-0.95136,50.78464],[-0.95356,50.78434],[-0.95356,50.78561],[-0.95419,50.78579],[-0.95611,50.78566],[-0.95743,50.78511],[-0.95793,50.78451],[-0.95912,50.78435],[-0.9594,50.78515],[-0.96039,50.78515],[-0.9601,50.78582],[-0.95951,50.78595],[-0.96033,50.78642],[-0.96028,50.78695],[-0.95946,50.78693],[-0.95998,50.78764],[-0.95819,50.78858],[-0.95677,50.78843],[-0.95562,50.78897],[-0.95755,50.78984]]],[[[-0.95815,50.79328],[-0.95955,50.7909],[-0.96178,50.79019],[-0.96332,50.7893],[-0.96604,50.78929],[-0.96716,50.78983],[-0.96655,50.79057],[-0.96244,50.79219],[-0.95961,50.79138],[-0.95857,50.79308],[-0.95815,50.79328]]],[[[-0.95534,50.79379],[-0.95795,50.79337],[-0.95741,50.79363],[-0.95534,50.79379]]],[[[-0.95642,50.79704],[-0.95653,50.79528],[-0.9566,50.79532],[-0.95642,50.79704]]],[[[-0.95405,50.79998],[-0.95455,50.7997],[-0.95457,50.79971],[-0.95405,50.79998]]],[[[-0.95305,50.80052],[-0.95313,50.80048],[-0.95291,50.8008],[-0.95305,50.80052]]],[[[-0.95615,50.80298],[-0.95552,50.80287],[-0.95612,50.80294],[-0.95615,50.80298]]]]}},{"type":"Feature","properties":{"id":"E01022942","name":"E01022942","parent":"E07000090","type":"LSOA","pop":1448,"r":18,"ff":14,"ffd":966.9,"ffs":0.7778,"g":0,"co":3,"mo":3,"sa":3,"ic":1},"geometry":{"type":"Polygon","coordinates":[[[-0.98973,50.79016],[-0.99002,50.78947],[-0.98901,50.789],[-0.98807,50.78792],[-0.98755,50.78797],[-0.98753,50.7884],[-0.98645,50.78827],[-0.987,50.78674],[-0.98606,50.78667],[-0.98555,50.78594],[-0.98341,50.78549],[-0.98311,50.78479],[-0.98248,50.78465],[-0.98336,50.78309],[-1.00113,50.78456],[-1.00297,50.78485],[-1.00304,50.78539],[-1.00114,50.7853],[-0.99945,50.78732],[-0.99989,50.78745],[-0.99949,50.78859],[-1.00002,50.78874],[-1.0008,50.78843],[-1.00096,50.78899],[-1.00174,50.78899],[-1.00105,50.78949],[-0.99618,50.78893],[-0.99725,50.78726],[-0.99676,50.78711],[-0.9969,50.78667],[-0.99623,50.78661],[-0.99613,50.78709],[-0.99539,50.78716],[-0.99373,50.78683],[-0.9932,50.78703],[-0.99312,50.78764],[-0.99265,50.7877],[-0.99257,50.7885],[-0.99324,50.7885],[-0.99322,50.79008],[-0.99125,50.78952],[-0.9909,50.79057],[-0.99023,50.79078],[-0.98973,50.79016]]]}},{"type":"Feature","properties":{"id":"E01022943","name":"E01022943","parent":"E07000090","type":"LSOA","pop":1420,"r":18,"ff":14,"ffd":985.9,"ffs":0.7778,"g":0,"co":3,"mo":3,"sa":3,"ic":1},"geometry":{"type":"MultiPolygon","coordinates":[[[[-0.98338,50.81991],[-0.9851,50.81803],[-0.98409,50.81416],[-0.98554,50.8144],[-0.98554,50.81342],[-0.98852,50.8102],[-0.98897,50.8044],[-0.99248,50.79675],[-0.99441,50.79476],[-0.99512,50.79277],[-0.99409,50.79206],[-0.99219,50.79165],[-0.99156,50.79111],[-0.99211,50.79103],[-0.9925,50.79054],[-0.99311,50.79055],[-0.99324,50.7885],[-0.99257,50.7885],[-0.99265,50.7877],[-0.99312,50.78764],[-0.9932,50.78703],[-0.99373,50.78683],[-0.99539,50.78716],[-0.99613,50.78709],[-0.99623,50.78661],[-0.9969,50.78667],[-0.99676,50.78711],[-0.99725,50.78726],[-0.99618,50.78893],[-1.00105,50.78949],[-1.00174,50.78899],[-1.00096,50.78899],[-1.0008,50.78843],[-1.00002,50.78874],[-0.99949,50.78859],[-0.99989,50.78745],[-0.99945,50.78732],[-1.00114,50.7853],[-1.00304,50.78539],[-1.00297,50.78485],[-1.00706,50.78549],[-1.01163,50.78539],[-1.01671,50.78443],[-1.01972,50.78463],[-1.02251,50.78652],[-1.02385,50.78807],[-1.02469,50.79277],[-1.02563,50.7943],[-1.02503,50.79383],[-1.0254,50.79542],[-1.02508,50.79603],[-1.02358,50.79589],[-1.02281,50.7955],[-1.02028,50.79582],[-1.01991,50.79555],[-1.02113,50.79562],[-1.02208,50.79405],[-1.02153,50.79334],[-1.02043,50.79292],[-1.01738,50.79233],[-1.01763,50.79369],[-1.01696,50.79248],[-1.01663,50.79307],[-1.01752,50.79409],[-1.01783,50.79392],[-1.01799,50.79433],[-1.01874,50.79436],[-1.01743,50.79497],[-1.01514,50.79433],[-1.00987,50.79369],[-1.00878,50.79323],[-1.01084,50.79361],[-1.01089,50.7934],[-1.00978,50.79336],[-1.00985,50.79299],[-1.00934,50.79324],[-1.00887,50.79288],[-1.00861,50.79323],[-1.00874,50.7935],[-1.00817,50.7933],[-1.00705,50.79365],[-1.00655,50.79348],[-1.00599,50.79369],[-1.00604,50.79332],[-1.00464,50.7938],[-1.00542,50.79382],[-1.00582,50.79353],[-1.0059,50.79373],[-1.00653,50.79352],[-1.007,50.79375],[-1.00851,50.79362],[-1.00713,50.79387],[-1.00339,50.7941],[-1.001,50.79462],[-0.99662,50.79689],[-0.99452,50.79837],[-0.99292,50.80047],[-0.99087,50.80176],[-0.98947,50.80358],[-0.9889,50.81104],[-0.98629,50.81288],[-0.98591,50.81361],[-0.9857,50.81971],[-0.98417,50.82027],[-0.98544,50.81949],[-0.98543,50.81873],[-0.98426,50.81899],[-0.9833,50.82068],[-0.98338,50.81991]]],[[[-0.97709,50.83128],[-0.97735,50.82796],[-0.98005,50.828],[-0.98043,50.82648],[-0.98368,50.82653],[-0.98315,50.82207],[-0.98329,50.82079],[-0.98374,50.82207],[-0.98578,50.82366],[-0.98762,50.82387],[-0.9868,50.823],[-0.98956,50.82434],[-0.9861,50.82402],[-0.98519,50.82522],[-0.98601,50.82592],[-0.98697,50.82607],[-0.98653,50.82711],[-0.98855,50.82812],[-0.99016,50.82686],[-0.98891,50.82802],[-0.98701,50.82896],[-0.98613,50.82904],[-0.98821,50.82822],[-0.9865,50.82718],[-0.98346,50.82841],[-0.9817,50.83212],[-0.98122,50.83199],[-0.98163,50.83189],[-0.9822,50.83061],[-0.98099,50.82996],[-0.98051,50.83033],[-0.9797,50.83034],[-0.97788,50.8316],[-0.97769,50.83204],[-0.97816,50.83295],[-0.97781,50.83308],[-0.97746,50.83238],[-0.97766,50.83164],[-0.97709,50.83128]]]]}},{"type":"Feature","properties":{"id":"E01022944","name":"E01022944","parent":"E07000090","type":"LSOA","pop":1240,"r":23,"ff":16,"ffd":1290.3,"ffs":0.6957,"g":0,"co":3,"mo":3,"sa":1,"ic":1},"geometry":{"type":"Polygon","coordinates":[[[-0.97477,50.82654],[-0.97517,50.82527],[-0.97493,50.82056],[-0.97226,50.82051],[-0.97257,50.81496],[-0.97375,50.81141],[-0.97239,50.81146],[-0.97147,50.81067],[-0.97169,50.81022],[-0.97038,50.80998],[-0.97131,50.80805],[-0.97216,50.80881],[-0.97333,50.80903],[-0.97342,50.80853],[-0.97207,50.80718],[-0.9727,50.80752],[-0.97314,50.80707],[-0.97267,50.8066],[-0.972,50.80687],[-0.97235,50.80662],[-0.97089,50.80566],[-0.97437,50.8053],[-0.97327,50.80354],[-0.97288,50.8016],[-0.97362,50.80085],[-0.9756,50.80059],[-0.97734,50.80077],[-0.97863,50.8019],[-0.98215,50.80236],[-0.98294,50.80128],[-0.98423,50.80072],[-0.98584,50.80061],[-0.98945,50.80123],[-0.99012,50.80173],[-0.98897,50.8044],[-0.98852,50.8102],[-0.98554,50.81342],[-0.98554,50.8144],[-0.98409,50.81416],[-0.9851,50.81803],[-0.98338,50.81991],[-0.98315,50.82207],[-0.98368,50.82653],[-0.98043,50.82648],[-0.98005,50.828],[-0.97735,50.82796],[-0.97733,50.82671],[-0.97477,50.82654]]]}},{"type":"Feature","properties":{"id":"E01022945","name":"E01022945","parent":"E07000090","type":"LSOA","pop":2275,"r":17,"ff":13,"ffd":571.4,"ffs":0.7647,"g":0,"co":3,"mo":3,"sa":3,"ic":1},"geometry":{"type":"Polygon","coordinates":[[[-0.98516,50.79554],[-0.98248,50.79538],[-0.98224,50.79644],[-0.98116,50.79592],[-0.98122,50.79504],[-0.9795,50.79489],[-0.97665,50.794],[-0.97716,50.79085],[-0.97695,50.78725],[-0.97866,50.78271],[-0.98336,50.78309],[-0.98248,50.78465],[-0.98311,50.78479],[-0.98341,50.78549],[-0.98555,50.78594],[-0.98606,50.78667],[-0.987,50.78674],[-0.98645,50.78827],[-0.98753,50.7884],[-0.98766,50.7933],[-0.98831,50.79337],[-0.98811,50.79368],[-0.98752,50.79363],[-0.98544,50.7965],[-0.98516,50.79554]]]}},{"type":"Feature","properties":{"id":"E01022946","name":"E01022946","parent":"E07000090","type":"LSOA","pop":2041,"r":18,"ff":14,"ffd":685.9,"ffs":0.7778,"g":0,"co":3,"mo":3,"sa":3,"ic":1},"geometry":{"type":"Polygon","coordinates":[[[-0.9756,50.80059],[-0.97665,50.794],[-0.9795,50.79489],[-0.98122,50.79504],[-0.98116,50.79592],[-0.98224,50.79644],[-0.98248,50.79538],[-0.98516,50.79554],[-0.98544,50.7965],[-0.98752,50.79363],[-0.98811,50.79368],[-0.98831,50.79337],[-0.98766,50.7933],[-0.98755,50.78797],[-0.98807,50.78792],[-0.98901,50.789],[-0.99002,50.78947],[-0.98973,50.79016],[-0.99023,50.79078],[-0.9909,50.79057],[-0.99125,50.78952],[-0.99322,50.79008],[-0.99311,50.79055],[-0.9925,50.79054],[-0.99211,50.79103],[-0.99156,50.79111],[-0.99219,50.79165],[-0.99409,50.79206],[-0.99512,50.79277],[-0.99441,50.79476],[-0.99248,50.79675],[-0.99012,50.80173],[-0.98945,50.80123],[-0.98584,50.80061],[-0.98423,50.80072],[-0.98294,50.80128],[-0.98215,50.80236],[-0.97863,50.8019],[-0.97734,50.80077],[-0.9756,50.80059]]]}},{"type":"Feature","properties":{"id":"E01022947","name":"E01022947","parent":"E07000090","type":"LSOA","pop":1674,"r":360,"ff":112,"ffd":6690.6,"ffs":0.4667,"g":116,"co":0,"mo":0,"sa":0,"ic":0},"geometry":{"type":"Polygon","coordinates":[[[-1.05462,50.86745],[-1.04738,50.86575],[-1.04743,50.86678],[-1.04623,50.86602],[-1.04725,50.86285],[-1.04645,50.86256],[-1.04706,50.86168],[-1.04648,50.86112],[-1.04766,50.86001],[-1.04786,50.85932],[-1.04614,50.85912],[-1.04594,50.85856],[-1.04559,50.85855],[-1.04537,50.85908],[-1.04358,50.85856],[-1.04345,50.85817],[-1.04234,50.85782],[-1.04293,50.85761],[-1.04296,50.85697],[-1.04111,50.85618],[-1.04042,50.85406],[-1.04144,50.85326],[-1.04697,50.85393],[-1.0468,50.85505],[-1.04952,50.85525],[-1.05013,50.8559],[-1.05071,50.85621],[-1.05094,50.8559],[-1.05167,50.856],[-1.05237,50.85655],[-1.05401,50.85655],[-1.05255,50.86018],[-1.0504,50.85963],[-1.04877,50.86319],[-1.04889,50.86546],[-1.05402,50.86501],[-1.05352,50.86638],[-1.05477,50.86639],[-1.05462,50.86745]]]}},{"type":"Feature","properties":{"id":"E01022948","name":"E01022948","parent":"E07000090","type":"LSOA","pop":1592,"r":357,"ff":112,"ffd":7035.2,"ffs":0.4726,"g":116,"co":0,"mo":0,"sa":0,"ic":0},"geometry":{"type":"Polygon","coordinates":[[[-1.04116,50.86765],[-1.04036,50.8668],[-1.03756,50.86704],[-1.03741,50.86662],[-1.03815,50.86638],[-1.03799,50.86562],[-1.04,50.86564],[-1.0401,50.86531],[-1.03933,50.86506],[-1.03944,50.86479],[-1.04092,50.86448],[-1.04104,50.86388],[-1.04213,50.86354],[-1.04177,50.86287],[-1.04378,50.86269],[-1.04491,50.86279],[-1.04501,50.86303],[-1.04505,50.86253],[-1.04315,50.86231],[-1.04343,50.86047],[-1.04427,50.86049],[-1.04458,50.86009],[-1.04527,50.86053],[-1.04475,50.86193],[-1.04725,50.86285],[-1.04623,50.86602],[-1.04743,50.86678],[-1.04744,50.86697],[-1.04644,50.86691],[-1.04555,50.86927],[-1.04639,50.86964],[-1.04569,50.87058],[-1.0438,50.8701],[-1.04265,50.87003],[-1.04277,50.86965],[-1.04355,50.86895],[-1.04116,50.86765]]]}},{"type":"Feature","properties":{"id":"E01022949","name":"E01022949","parent":"E07000090","type":"LSOA","pop":1491,"r":371,"ff":117,"ffd":7847.1,"ffs":0.468,"g":117,"co":0,"mo":0,"sa":0,"ic":0},"geometry":{"type":"Polygon","coordinates":[[[-1.02553,50.86316],[-1.02431,50.8636],[-1.02483,50.86338],[-1.02478,50.86231],[-1.02541,50.8617],[-1.02504,50.86142],[-1.02249,50.86106],[-1.02201,50.86432],[-1.01662,50.86456],[-1.01593,50.85836],[-1.01451,50.85487],[-1.01597,50.8548],[-1.01661,50.85288],[-1.02264,50.8521],[-1.02311,50.85277],[-1.03404,50.85285],[-1.03319,50.85419],[-1.03103,50.85602],[-1.03137,50.85673],[-1.03086,50.85787],[-1.02811,50.86146],[-1.02724,50.86131],[-1.02604,50.86223],[-1.02604,50.86278],[-1.02553,50.86316]]]}},{"type":"Feature","properties":{"id":"E01022950","name":"E01022950","parent":"E07000090","type":"LSOA","pop":1725,"r":380,"ff":122,"ffd":7072.5,"ffs":0.471,"g":117,"co":0,"mo":0,"sa":0,"ic":0},"geometry":{"type":"Polygon","coordinates":[[[-1.03032,50.86691],[-1.02997,50.86633],[-1.02682,50.8662],[-1.02759,50.86479],[-1.02837,50.86492],[-1.02794,50.86464],[-1.02798,50.86295],[-1.02858,50.863],[-1.02877,50.8635],[-1.03193,50.86341],[-1.03207,50.86377],[-1.03253,50.86338],[-1.0324,50.86282],[-1.03,50.86251],[-1.0307,50.86127],[-1.03188,50.86149],[-1.03226,50.86201],[-1.03268,50.86153],[-1.034,50.86223],[-1.03391,50.86159],[-1.03456,50.86138],[-1.0359,50.86327],[-1.03778,50.86331],[-1.03812,50.86274],[-1.04104,50.86288],[-1.04183,50.86312],[-1.04213,50.86354],[-1.04104,50.86388],[-1.04092,50.86448],[-1.03944,50.86479],[-1.03933,50.86506],[-1.0401,50.86531],[-1.04,50.86564],[-1.03799,50.86562],[-1.03803,50.86595],[-1.03599,50.86611],[-1.0359,50.86669],[-1.03479,50.86696],[-1.03452,50.86671],[-1.0322,50.86671],[-1.03198,50.86703],[-1.03032,50.86691]]]}},{"type":"Feature","properties":{"id":"E01022951","name":"E01022951","parent":"E07000090","type":"LSOA","pop":1410,"r":349,"ff":107,"ffd":7588.7,"ffs":0.4632,"g":114,"co":0,"mo":0,"sa":0,"ic":0},"geometry":{"type":"Polygon","coordinates":[[[-1.03568,50.86297],[-1.03431,50.86112],[-1.03518,50.86069],[-1.03629,50.86084],[-1.0366,50.8619],[-1.03711,50.86096],[-1.038,50.86109],[-1.03824,50.86073],[-1.03935,50.8608],[-1.03935,50.86041],[-1.04035,50.86002],[-1.04064,50.85873],[-1.03875,50.85886],[-1.03762,50.85768],[-1.03541,50.8565],[-1.03544,50.85513],[-1.04042,50.85406],[-1.04111,50.85618],[-1.04296,50.85697],[-1.04293,50.85761],[-1.04234,50.85782],[-1.04345,50.85817],[-1.04358,50.85856],[-1.04537,50.85908],[-1.04559,50.85855],[-1.04594,50.85856],[-1.04614,50.85912],[-1.04786,50.85932],[-1.04766,50.86001],[-1.04648,50.86112],[-1.04706,50.86168],[-1.04645,50.86256],[-1.04475,50.86193],[-1.04527,50.86053],[-1.04502,50.86031],[-1.04458,50.86009],[-1.04427,50.86049],[-1.04343,50.86047],[-1.04315,50.86231],[-1.04505,50.86253],[-1.04501,50.86303],[-1.04491,50.86279],[-1.04378,50.86269],[-1.04177,50.86287],[-1.04183,50.86312],[-1.04104,50.86288],[-1.03812,50.86274],[-1.03778,50.86331],[-1.03707,50.86334],[-1.0359,50.86327],[-1.03568,50.86297]]]}},{"type":"Feature","properties":{"id":"E01022952","name":"E01022952","parent":"E07000090","type":"LSOA","pop":1419,"r":365,"ff":115,"ffd":8104.3,"ffs":0.4675,"g":115,"co":0,"mo":0,"sa":0,"ic":0},"geometry":{"type":"Polygon","coordinates":[[[-1.02483,50.86338],[-1.02431,50.8636],[-1.02553,50.86316],[-1.02604,50.86278],[-1.02604,50.86223],[-1.02724,50.86131],[-1.02811,50.86146],[-1.03086,50.85787],[-1.03137,50.85673],[-1.03103,50.85602],[-1.03319,50.85419],[-1.03404,50.85285],[-1.04144,50.85326],[-1.04042,50.85406],[-1.03544,50.85513],[-1.03541,50.8565],[-1.03762,50.85768],[-1.03875,50.85886],[-1.04064,50.85873],[-1.04035,50.86002],[-1.03935,50.86041],[-1.03935,50.8608],[-1.03824,50.86073],[-1.038,50.86109],[-1.03711,50.86096],[-1.0366,50.8619],[-1.03629,50.86084],[-1.03518,50.86069],[-1.03431,50.86112],[-1.03456,50.86138],[-1.03391,50.86159],[-1.034,50.86223],[-1.03268,50.86153],[-1.03226,50.86201],[-1.03188,50.86149],[-1.0307,50.86127],[-1.03,50.86251],[-1.0324,50.86282],[-1.03253,50.86338],[-1.03207,50.86377],[-1.03193,50.86341],[-1.02877,50.8635],[-1.02858,50.863],[-1.02798,50.86295],[-1.02794,50.86464],[-1.02837,50.86492],[-1.0263,50.86441],[-1.02166,50.86433],[-1.02201,50.86432],[-1.02249,50.86106],[-1.02504,50.86142],[-1.02541,50.8617],[-1.02478,50.86231],[-1.02483,50.86338]]]}},{"type":"Feature","properties":{"id":"E01022954","name":"E01022954","parent":"E07000090","type":"LSOA","pop":1565,"r":385,"ff":114,"ffd":7284.3,"ffs":0.4453,"g":125,"co":0,"mo":0,"sa":0,"ic":0},"geometry":{"type":"MultiPolygon","coordinates":[[[[-1.00141,50.84531],[-1.00141,50.84529],[-1.00142,50.84532],[-1.00141,50.84531]]],[[[-0.97995,50.85093],[-0.97971,50.85047],[-0.97975,50.8509],[-0.97564,50.85055],[-0.97599,50.85008],[-0.9751,50.84996],[-0.97473,50.85047],[-0.97424,50.85042],[-0.97483,50.84926],[-0.97402,50.84921],[-0.97452,50.849],[-0.97419,50.84871],[-0.97502,50.84869],[-0.97539,50.84798],[-0.97487,50.84788],[-0.97521,50.84748],[-0.97396,50.84719],[-0.97413,50.84669],[-0.97371,50.84672],[-0.97251,50.84536],[-0.97251,50.84444],[-0.97676,50.8451],[-0.97911,50.84368],[-0.9798,50.84286],[-0.97933,50.84155],[-0.97718,50.84121],[-0.97822,50.83962],[-0.97924,50.83948],[-0.97987,50.83888],[-0.98035,50.83711],[-0.97899,50.83593],[-0.97902,50.83549],[-0.9794,50.83531],[-0.98067,50.8357],[-0.98204,50.83771],[-0.98119,50.83619],[-0.98093,50.83504],[-0.98124,50.83494],[-0.98229,50.83756],[-0.98367,50.8383],[-0.98553,50.83811],[-0.98619,50.83834],[-0.9874,50.83958],[-0.9873,50.8398],[-0.98673,50.8397],[-0.98774,50.84003],[-0.98732,50.83924],[-0.98612,50.83795],[-0.98593,50.83812],[-0.98522,50.83782],[-0.98716,50.83741],[-0.98957,50.83767],[-0.99566,50.8398],[-0.99731,50.84057],[-0.99828,50.84183],[-0.99876,50.8416],[-0.99829,50.84186],[-0.99852,50.8422],[-1.00077,50.84355],[-1.00086,50.8441],[-0.99996,50.84444],[-0.99731,50.84634],[-0.998,50.84618],[-0.99986,50.84473],[-1.00087,50.84493],[-1.00099,50.84563],[-1.00143,50.84618],[-0.99721,50.84764],[-0.994,50.8477],[-0.99422,50.84917],[-0.99059,50.84906],[-0.98947,50.85018],[-0.98783,50.85072],[-0.98725,50.84862],[-0.98427,50.84844],[-0.98402,50.84711],[-0.98219,50.84663],[-0.98114,50.84656],[-0.9809,50.84725],[-0.97962,50.8479],[-0.97969,50.84815],[-0.97919,50.8494],[-0.98026,50.84956],[-0.98042,50.84912],[-0.98116,50.84893],[-0.98137,50.8496],[-0.98075,50.85051],[-0.98129,50.85109],[-0.97995,50.85093]]]]}},{"type":"Feature","properties":{"id":"E01022955","name":"E01022955","parent":"E07000090","type":"LSOA","pop":1654,"r":361,"ff":108,"ffd":6529.6,"ffs":0.4481,"g":116,"co":0,"mo":0,"sa":2,"ic":0},"geometry":{"type":"Polygon","coordinates":[[[-0.96856,50.85699],[-0.96826,50.85654],[-0.96799,50.85682],[-0.96721,50.85685],[-0.96716,50.85614],[-0.9678,50.85555],[-0.96677,50.85489],[-0.96617,50.85485],[-0.96609,50.85452],[-0.9668,50.85385],[-0.96659,50.85339],[-0.96747,50.85336],[-0.96722,50.85279],[-0.96818,50.85286],[-0.96834,50.85252],[-0.96722,50.85235],[-0.96721,50.85179],[-0.96856,50.85165],[-0.96742,50.8508],[-0.96867,50.85028],[-0.96846,50.84991],[-0.96727,50.8498],[-0.96754,50.8489],[-0.96708,50.84844],[-0.96916,50.8475],[-0.96792,50.84687],[-0.96762,50.84626],[-0.96813,50.84595],[-0.97105,50.84621],[-0.97062,50.84711],[-0.97413,50.84669],[-0.97396,50.84719],[-0.97521,50.84748],[-0.97487,50.84788],[-0.97539,50.84798],[-0.97502,50.84869],[-0.97419,50.84871],[-0.97452,50.849],[-0.97402,50.84921],[-0.97483,50.84926],[-0.97424,50.85042],[-0.97473,50.85047],[-0.9751,50.84996],[-0.97599,50.85008],[-0.97564,50.85055],[-0.97642,50.85063],[-0.97734,50.85154],[-0.97777,50.85119],[-0.97745,50.853],[-0.97835,50.85361],[-0.97644,50.85519],[-0.97537,50.85489],[-0.97581,50.85416],[-0.97228,50.85381],[-0.97187,50.8542],[-0.96902,50.85403],[-0.96886,50.85473],[-0.97043,50.8549],[-0.97015,50.85553],[-0.96941,50.85569],[-0.96856,50.85699]]]}},{"type":"Feature","properties":{"id":"E01022956","name":"E01022956","parent":"E07000090","type":"LSOA","pop":1252,"r":280,"ff":78,"ffd":6230.0,"ffs":0.4382,"g":98,"co":0,"mo":0,"sa":2,"ic":0},"geometry":{"type":"Polygon","coordinates":[[[-0.95899,50.86426],[-0.96076,50.86124],[-0.96177,50.86126],[-0.96222,50.86079],[-0.96097,50.86057],[-0.96182,50.86019],[-0.9622,50.86039],[-0.9646,50.85973],[-0.96525,50.85906],[-0.9662,50.85914],[-0.96604,50.85959],[-0.9667,50.85995],[-0.96741,50.85933],[-0.96832,50.8596],[-0.9644,50.86571],[-0.9613,50.86456],[-0.95899,50.86426]]]}},{"type":"Feature","properties":{"id":"E01022957","name":"E01022957","parent":"E07000090","type":"LSOA","pop":1342,"r":274,"ff":75,"ffd":5588.7,"ffs":0.431,"g":96,"co":0,"mo":0,"sa":0,"ic":0},"geometry":{"type":"Polygon","coordinates":[[[-0.96586,50.85748],[-0.96599,50.85722],[-0.96664,50.85738],[-0.96721,50.85685],[-0.96799,50.85682],[-0.96826,50.85654],[-0.96856,50.85699],[-0.96941,50.85569],[-0.97015,50.85553],[-0.97043,50.8549],[-0.96886,50.85473],[-0.96902,50.85403],[-0.97187,50.8542],[-0.97228,50.85381],[-0.97581,50.85416],[-0.97537,50.85489],[-0.97644,50.85519],[-0.97665,50.85497],[-0.97905,50.85514],[-0.97968,50.85433],[-0.98078,50.8542],[-0.98317,50.85458],[-0.98367,50.85511],[-0.98337,50.85542],[-0.98441,50.85611],[-0.98288,50.85753],[-0.98385,50.85854],[-0.98086,50.85927],[-0.97933,50.86021],[-0.97314,50.85981],[-0.9735,50.85922],[-0.96919,50.85822],[-0.96942,50.85784],[-0.96586,50.85748]]]}},{"type":"Feature","properties":{"id":"E01022958","name":"E01022958","parent":"E07000090","type":"LSOA","pop":2794,"r":294,"ff":82,"ffd":2934.9,"ffs":0.4362,"g":102,"co":0,"mo":0,"sa":2,"ic":0},"geometry":{"type":"Polygon","coordinates":[[[-0.94879,50.8631],[-0.94634,50.86068],[-0.95164,50.86023],[-0.95195,50.85786],[-0.94963,50.85234],[-0.95436,50.85265],[-0.95405,50.8519],[-0.957,50.85124],[-0.95702,50.85091],[-0.95897,50.85107],[-0.96052,50.8503],[-0.96058,50.84914],[-0.95765,50.84897],[-0.95743,50.84614],[-0.95718,50.84533],[-0.95757,50.8453],[-0.95614,50.84027],[-0.95615,50.83964],[-0.95771,50.83966],[-0.95898,50.83924],[-0.96334,50.84073],[-0.96578,50.84032],[-0.96837,50.84148],[-0.97104,50.84216],[-0.97451,50.84219],[-0.97718,50.84121],[-0.97933,50.84155],[-0.9798,50.84286],[-0.97911,50.84368],[-0.97676,50.8451],[-0.97251,50.84444],[-0.97251,50.84536],[-0.97371,50.84672],[-0.97062,50.84711],[-0.97105,50.84621],[-0.96813,50.84595],[-0.96762,50.84626],[-0.96792,50.84687],[-0.96916,50.8475],[-0.96708,50.84844],[-0.96754,50.8489],[-0.96727,50.8498],[-0.96846,50.84991],[-0.96867,50.85028],[-0.96742,50.8508],[-0.96856,50.85165],[-0.96721,50.85179],[-0.96722,50.85235],[-0.96834,50.85252],[-0.96818,50.85286],[-0.96722,50.85279],[-0.96747,50.85336],[-0.96659,50.85339],[-0.9668,50.85385],[-0.96609,50.85452],[-0.96617,50.85485],[-0.96677,50.85489],[-0.9678,50.85555],[-0.96716,50.85614],[-0.96721,50.85685],[-0.96664,50.85738],[-0.96599,50.85722],[-0.96586,50.85748],[-0.96942,50.85784],[-0.96832,50.8596],[-0.96741,50.85933],[-0.9667,50.85995],[-0.96604,50.85959],[-0.9662,50.85914],[-0.96525,50.85906],[-0.9646,50.85973],[-0.9622,50.86039],[-0.96182,50.86019],[-0.96097,50.86057],[-0.96222,50.86079],[-0.96177,50.86126],[-0.96076,50.86124],[-0.95899,50.86426],[-0.9613,50.86456],[-0.9644,50.86571],[-0.96338,50.86725],[-0.96085,50.86765],[-0.95801,50.86771],[-0.95573,50.86823],[-0.95355,50.86819],[-0.95316,50.86697],[-0.94879,50.8631]]]}},{"type":"Feature","properties":{"id":"E01022959","name":"E01022959","parent":"E07000090","type":"LSOA","pop":1490,"r":321,"ff":97,"ffd":6510.1,"ffs":0.4597,"g":106,"co":0,"mo":0,"sa":0,"ic":0},"geometry":{"type":"Polygon","coordinates":[[[-1.03481,50.87417],[-1.03397,50.87388],[-1.03289,50.87411],[-1.03113,50.87348],[-1.0323,50.87276],[-1.0332,50.87281],[-1.03348,50.87257],[-1.03268,50.8721],[-1.03326,50.87166],[-1.03304,50.87112],[-1.03195,50.87103],[-1.0312,50.87191],[-1.03227,50.87236],[-1.03178,50.87264],[-1.03019,50.87232],[-1.02991,50.87086],[-1.03111,50.86991],[-1.03244,50.86941],[-1.03275,50.8696],[-1.03549,50.86869],[-1.03673,50.86916],[-1.03907,50.87101],[-1.03985,50.87084],[-1.03929,50.87231],[-1.03964,50.87277],[-1.039,50.87303],[-1.03789,50.873],[-1.03745,50.8733],[-1.03769,50.87362],[-1.03738,50.87388],[-1.03623,50.87377],[-1.03598,50.87406],[-1.03506,50.87379],[-1.03481,50.87417]]]}},{"type":"Feature","properties":{"id":"E01022960","name":"E01022960","parent":"E07000090","type":"LSOA","pop":1265,"r":352,"ff":106,"ffd":8379.4,"ffs":0.4549,"g":115,"co":0,"mo":0,"sa":0,"ic":0},"geometry":{"type":"Polygon","coordinates":[[[-1.01786,50.87267],[-1.01735,50.87224],[-1.01668,50.87242],[-1.01654,50.87201],[-1.01588,50.87185],[-1.0166,50.8712],[-1.01708,50.87137],[-1.01716,50.87096],[-1.01562,50.87079],[-1.01577,50.87035],[-1.01739,50.87063],[-1.01735,50.86959],[-1.018,50.86851],[-1.02028,50.86874],[-1.02059,50.86803],[-1.02533,50.86833],[-1.02621,50.86723],[-1.02895,50.86718],[-1.02941,50.86761],[-1.02953,50.86796],[-1.02839,50.86775],[-1.02725,50.86791],[-1.02729,50.86868],[-1.02679,50.86905],[-1.02742,50.86929],[-1.02745,50.86967],[-1.02688,50.86983],[-1.02539,50.86956],[-1.02509,50.87131],[-1.02443,50.87138],[-1.02446,50.8716],[-1.0238,50.87142],[-1.02346,50.87189],[-1.02294,50.87141],[-1.02041,50.87248],[-1.01904,50.87199],[-1.01844,50.87241],[-1.01809,50.87213],[-1.01786,50.87267]]]}},{"type":"Feature","properties":{"id":"E01022961","name":"E01022961","parent":"E07000090","type":"LSOA","pop":1299,"r":359,"ff":108,"ffd":8314.1,"ffs":0.45,"g":115,"co":0,"mo":0,"sa":0,"ic":0},"geometry":{"type":"Polygon","coordinates":[[[-1.02824,50.87135],[-1.02747,50.87106],[-1.02671,50.87119],[-1.02694,50.87082],[-1.0281,50.87053],[-1.0288,50.86967],[-1.02688,50.86983],[-1.02745,50.86967],[-1.02742,50.86929],[-1.02679,50.86905],[-1.02729,50.86868],[-1.02725,50.86791],[-1.02839,50.86775],[-1.02953,50.86796],[-1.02895,50.86718],[-1.02621,50.86723],[-1.02533,50.86833],[-1.02059,50.86803],[-1.02028,50.86874],[-1.018,50.86851],[-1.01735,50.86959],[-1.01739,50.87063],[-1.01577,50.87035],[-1.01562,50.87079],[-1.01549,50.87077],[-1.01662,50.86456],[-1.02166,50.86433],[-1.0263,50.86441],[-1.02759,50.86479],[-1.02682,50.8662],[-1.02997,50.86633],[-1.03032,50.86691],[-1.03198,50.86703],[-1.0322,50.86671],[-1.03452,50.86671],[-1.03479,50.86696],[-1.03371,50.86725],[-1.03387,50.86752],[-1.03463,50.86753],[-1.03429,50.86897],[-1.03275,50.8696],[-1.03244,50.86941],[-1.03111,50.86991],[-1.02991,50.87086],[-1.02953,50.87066],[-1.02929,50.87113],[-1.02824,50.87135]]]}},{"type":"Feature","properties":{"id":"E01022962","name":"E01022962","parent":"E07000090","type":"LSOA","pop":2197,"r":301,"ff":91,"ffd":4142.0,"ffs":0.4573,"g":98,"co":0,"mo":0,"sa":0,"ic":0},"geometry":{"type":"Polygon","coordinates":[[[-1.03816,50.87658],[-1.03655,50.87649],[-1.0362,50.87669],[-1.03532,50.87624],[-1.03609,50.87578],[-1.03665,50.87466],[-1.03753,50.87473],[-1.03767,50.87507],[-1.0383,50.87467],[-1.03799,50.87442],[-1.03759,50.87465],[-1.03724,50.87448],[-1.03815,50.87387],[-1.03745,50.8733],[-1.03789,50.873],[-1.039,50.87303],[-1.03964,50.87277],[-1.03929,50.87231],[-1.03985,50.87084],[-1.03907,50.87101],[-1.03673,50.86916],[-1.03549,50.86869],[-1.03429,50.86897],[-1.03463,50.86753],[-1.03387,50.86752],[-1.03371,50.86725],[-1.0359,50.86669],[-1.03599,50.86611],[-1.03803,50.86595],[-1.03815,50.86638],[-1.03741,50.86662],[-1.03756,50.86704],[-1.04036,50.8668],[-1.04116,50.86765],[-1.04355,50.86895],[-1.04277,50.86965],[-1.04265,50.87003],[-1.0438,50.8701],[-1.04779,50.87109],[-1.0476,50.87238],[-1.04649,50.8741],[-1.04417,50.87325],[-1.04307,50.875],[-1.04264,50.87494],[-1.04241,50.87525],[-1.04141,50.87786],[-1.04042,50.87781],[-1.04066,50.87671],[-1.03816,50.87658]]]}},{"type":"Feature","properties":{"id":"E01022963","name":"E01022963","parent":"E07000090","type":"LSOA","pop":1456,"r":347,"ff":104,"ffd":7142.9,"ffs":0.4561,"g":115,"co":2,"mo":0,"sa":0,"ic":0},"geometry":{"type":"Polygon","coordinates":[[[-1.01871,50.87777],[-1.01893,50.87683],[-1.01831,50.87679],[-1.01804,50.87622],[-1.01814,50.87599],[-1.0188,50.87614],[-1.01939,50.87566],[-1.0201,50.87603],[-1.02248,50.87436],[-1.02371,50.87449],[-1.02324,50.87377],[-1.02204,50.87288],[-1.02346,50.87189],[-1.0238,50.87142],[-1.02446,50.8716],[-1.02443,50.87138],[-1.02509,50.87131],[-1.02539,50.86956],[-1.02688,50.86983],[-1.0288,50.86967],[-1.0281,50.87053],[-1.02694,50.87082],[-1.02671,50.87119],[-1.02747,50.87106],[-1.02824,50.87135],[-1.02854,50.87125],[-1.02929,50.87113],[-1.02953,50.87066],[-1.02991,50.87086],[-1.02997,50.87115],[-1.02919,50.87149],[-1.02867,50.87125],[-1.02822,50.87202],[-1.02772,50.87241],[-1.0285,50.87311],[-1.027,50.87375],[-1.02622,50.87461],[-1.02745,50.87557],[-1.02785,50.87532],[-1.02871,50.87552],[-1.02923,50.8764],[-1.03002,50.87617],[-1.03052,50.87647],[-1.02946,50.87717],[-1.02849,50.8764],[-1.02647,50.87707],[-1.02701,50.87762],[-1.02549,50.87827],[-1.02479,50.8775],[-1.02207,50.87869],[-1.01871,50.87777]]]}},{"type":"Feature","properties":{"id":"E01022964","name":"E01022964","parent":"E07000090","type":"LSOA","pop":1344,"r":362,"ff":107,"ffd":7961.3,"ffs":0.4421,"g":116,"co":0,"mo":0,"sa":0,"ic":0},"geometry":{"type":"Polygon","coordinates":[[[-1.01433,50.87642],[-1.01429,50.87591],[-1.01338,50.87554],[-1.01488,50.87245],[-1.01549,50.87077],[-1.01716,50.87096],[-1.01708,50.87137],[-1.0166,50.8712],[-1.01588,50.87185],[-1.01654,50.87201],[-1.01668,50.87242],[-1.01735,50.87224],[-1.01786,50.87267],[-1.01809,50.87213],[-1.01844,50.87241],[-1.01904,50.87199],[-1.02041,50.87248],[-1.02294,50.87141],[-1.02346,50.87189],[-1.02204,50.87288],[-1.02324,50.87377],[-1.02371,50.87449],[-1.02248,50.87436],[-1.0201,50.87603],[-1.01939,50.87566],[-1.0188,50.87614],[-1.01814,50.87599],[-1.01804,50.87622],[-1.01831,50.87679],[-1.01893,50.87683],[-1.01871,50.87777],[-1.01433,50.87642]]]}},{"type":"Feature","properties":{"id":"E01022965","name":"E01022965","parent":"E07000090","type":"LSOA","pop":1406,"r":321,"ff":98,"ffd":6970.1,"ffs":0.4601,"g":104,"co":2,"mo":0,"sa":0,"ic":0},"geometry":{"type":"Polygon","coordinates":[[[-1.03397,50.87591],[-1.0335,50.87553],[-1.03306,50.87575],[-1.03229,50.87544],[-1.03052,50.87647],[-1.03002,50.87617],[-1.02923,50.8764],[-1.02871,50.87552],[-1.02785,50.87532],[-1.02745,50.87557],[-1.02622,50.87461],[-1.027,50.87375],[-1.0285,50.87311],[-1.02772,50.87241],[-1.02822,50.87202],[-1.02867,50.87125],[-1.02919,50.87149],[-1.02997,50.87115],[-1.03019,50.87232],[-1.03178,50.87264],[-1.03227,50.87236],[-1.0312,50.87191],[-1.03195,50.87103],[-1.03304,50.87112],[-1.03326,50.87166],[-1.03268,50.8721],[-1.03348,50.87257],[-1.0332,50.87281],[-1.0323,50.87276],[-1.03113,50.87348],[-1.03289,50.87411],[-1.03397,50.87388],[-1.03481,50.87417],[-1.03506,50.87379],[-1.03598,50.87406],[-1.03623,50.87377],[-1.03738,50.87388],[-1.03769,50.87362],[-1.03815,50.87387],[-1.03724,50.87448],[-1.03759,50.87465],[-1.03799,50.87442],[-1.0383,50.87467],[-1.03767,50.87507],[-1.03753,50.87473],[-1.03665,50.87466],[-1.03609,50.87578],[-1.03477,50.87658],[-1.03397,50.87591]]]}},{"type":"Feature","properties":{"id":"E01022966","name":"E01022966","parent":"E07000090","type":"LSOA","pop":1388,"r":292,"ff":81,"ffd":5835.7,"ffs":0.4355,"g":102,"co":0,"mo":0,"sa":0,"ic":0},"geometry":{"type":"Polygon","coordinates":[[[-0.99485,50.87619],[-0.99463,50.87578],[-0.99469,50.8754],[-0.9965,50.87518],[-0.99675,50.87554],[-0.99638,50.87603],[-0.99778,50.87566],[-0.99757,50.87515],[-0.99804,50.87511],[-0.9987,50.87583],[-0.99968,50.8752],[-0.99907,50.87476],[-0.99936,50.8745],[-1.00021,50.87478],[-1.00033,50.87458],[-1.0013,50.87519],[-1.00127,50.87554],[-1.00355,50.87654],[-1.00614,50.8828],[-1.00546,50.88399],[-1.00612,50.88432],[-1.00326,50.88766],[-0.99955,50.89295],[-0.99877,50.8954],[-0.99729,50.89464],[-0.99576,50.89304],[-0.99322,50.89206],[-0.99584,50.88223],[-0.99363,50.87828],[-0.99422,50.87804],[-0.99373,50.8778],[-0.99445,50.87758],[-0.99442,50.87688],[-0.99367,50.87652],[-0.99485,50.87619]]]}},{"type":"Feature","properties":{"id":"E01022967","name":"E01022967","parent":"E07000090","type":"LSOA","pop":1040,"r":290,"ff":82,"ffd":7884.6,"ffs":0.4457,"g":102,"co":0,"mo":0,"sa":0,"ic":0},"geometry":{"type":"Polygon","coordinates":[[[-0.99363,50.87828],[-0.99205,50.87525],[-0.99128,50.87525],[-0.99122,50.875],[-0.99199,50.87491],[-0.99181,50.87417],[-0.99475,50.87349],[-0.99501,50.87291],[-0.99552,50.87292],[-0.99549,50.87247],[-0.99606,50.87255],[-0.99597,50.87294],[-0.99796,50.87243],[-1.00033,50.87458],[-1.00021,50.87478],[-0.99936,50.8745],[-0.99907,50.87476],[-0.99968,50.8752],[-0.9987,50.87583],[-0.99804,50.87511],[-0.99757,50.87515],[-0.99778,50.87566],[-0.99638,50.87603],[-0.99675,50.87554],[-0.9965,50.87518],[-0.99469,50.8754],[-0.99463,50.87578],[-0.99485,50.87619],[-0.99367,50.87652],[-0.99442,50.87688],[-0.99445,50.87758],[-0.99373,50.8778],[-0.99422,50.87804],[-0.99363,50.87828]]]}},{"type":"Feature","properties":{"id":"E01022968","name":"E01022968","parent":"E07000090","type":"LSOA","pop":1407,"r":309,"ff":86,"ffd":6112.3,"ffs":0.4322,"g":106,"co":0,"mo":0,"sa":0,"ic":0},"geometry":{"type":"Polygon","coordinates":[[[-0.99156,50.87327],[-0.99124,50.87246],[-0.99469,50.8725],[-0.99474,50.87092],[-0.99542,50.87099],[-0.99642,50.86778],[-0.99815,50.86839],[-0.99854,50.87012],[-0.99819,50.87142],[-0.99892,50.8717],[-0.99859,50.87196],[-0.99809,50.87181],[-0.99765,50.87216],[-0.99796,50.87243],[-0.99597,50.87294],[-0.99606,50.87255],[-0.99549,50.87247],[-0.99552,50.87292],[-0.99501,50.87291],[-0.99475,50.87349],[-0.99181,50.87417],[-0.99199,50.87491],[-0.99122,50.875],[-0.99128,50.87525],[-0.988,50.8756],[-0.98848,50.87515],[-0.98809,50.87498],[-0.98932,50.87442],[-0.98924,50.87409],[-0.99045,50.87385],[-0.99044,50.87337],[-0.99156,50.87327]]]}},{"type":"Feature","properties":{"id":"E01022969","name":"E01022969","parent":"E07000090","type":"LSOA","pop":1938,"r":284,"ff":80,"ffd":4128.0,"ffs":0.442,"g":99,"co":0,"mo":0,"sa":0,"ic":0},"geometry":{"type":"Polygon","coordinates":[[[-0.99044,50.87337],[-0.99003,50.87257],[-0.988,50.87294],[-0.98672,50.87286],[-0.98564,50.87168],[-0.98373,50.87177],[-0.98361,50.87003],[-0.98527,50.86962],[-0.98706,50.87032],[-0.98756,50.87096],[-0.98919,50.87147],[-0.98951,50.87116],[-0.98927,50.87004],[-0.98873,50.86937],[-0.98973,50.86904],[-0.98988,50.86934],[-0.99194,50.86896],[-0.99284,50.86855],[-0.99268,50.86822],[-0.99593,50.8672],[-0.99632,50.86755],[-0.99642,50.86778],[-0.99542,50.87099],[-0.99474,50.87092],[-0.99469,50.8725],[-0.99124,50.87246],[-0.99156,50.87327],[-0.99044,50.87337]]]}},{"type":"Feature","properties":{"id":"E01022970","name":"E01022970","parent":"E07000090","type":"LSOA","pop":1857,"r":297,"ff":84,"ffd":4523.4,"ffs":0.4398,"g":102,"co":0,"mo":0,"sa":0,"ic":0},"geometry":{"type":"Polygon","coordinates":[[[-0.98527,50.86962],[-0.98859,50.86843],[-0.98886,50.86697],[-0.98992,50.8659],[-0.98995,50.86515],[-0.98964,50.86515],[-0.98921,50.86372],[-0.9918,50.86319],[-0.9924,50.8627],[-0.99402,50.86374],[-0.99423,50.86418],[-0.99477,50.86409],[-0.99481,50.86444],[-0.99547,50.86452],[-0.9956,50.86498],[-0.99929,50.86655],[-0.99923,50.86712],[-0.99634,50.86646],[-0.9963,50.86675],[-0.99706,50.86679],[-0.99712,50.86722],[-0.99632,50.86755],[-0.99593,50.8672],[-0.99268,50.86822],[-0.99284,50.86855],[-0.99194,50.86896],[-0.98988,50.86934],[-0.98973,50.86904],[-0.98873,50.86937],[-0.98927,50.87004],[-0.98951,50.87116],[-0.98919,50.87147],[-0.98756,50.87096],[-0.98706,50.87032],[-0.98527,50.86962]]]}},{"type":"Feature","properties":{"id":"E01022971","name":"E01022971","parent":"E07000090","type":"LSOA","pop":1466,"r":330,"ff":95,"ffd":6480.2,"ffs":0.4439,"g":112,"co":0,"mo":0,"sa":0,"ic":0},"geometry":{"type":"Polygon","coordinates":[[[-1.01156,50.88465],[-1.01118,50.88388],[-1.01159,50.88392],[-1.01141,50.88363],[-1.01185,50.88355],[-1.01127,50.88324],[-1.0114,50.88286],[-1.01316,50.88306],[-1.01357,50.88247],[-1.01523,50.88239],[-1.01551,50.88168],[-1.01663,50.88212],[-1.01737,50.88185],[-1.01706,50.8814],[-1.01739,50.88135],[-1.01895,50.88196],[-1.02107,50.8799],[-1.02152,50.88024],[-1.01999,50.88187],[-1.02096,50.88232],[-1.01932,50.88342],[-1.02,50.88431],[-1.01965,50.88468],[-1.02035,50.88493],[-1.01944,50.88551],[-1.01946,50.88598],[-1.02055,50.88637],[-1.02021,50.88684],[-1.01583,50.88778],[-1.01239,50.88816],[-1.01164,50.88703],[-1.01357,50.88646],[-1.01231,50.88575],[-1.01156,50.88465]]]}},{"type":"Feature","properties":{"id":"E01022972","name":"E01022972","parent":"E07000090","type":"LSOA","pop":1835,"r":307,"ff":87,"ffd":4741.1,"ffs":0.4394,"g":105,"co":2,"mo":0,"sa":0,"ic":0},"geometry":{"type":"Polygon","coordinates":[[[-1.02021,50.88684],[-1.02055,50.88637],[-1.01946,50.88598],[-1.01944,50.88551],[-1.02035,50.88493],[-1.01965,50.88468],[-1.02,50.88431],[-1.01932,50.88342],[-1.02096,50.88232],[-1.02149,50.88262],[-1.024,50.8792],[-1.0266,50.88045],[-1.02749,50.88006],[-1.02906,50.88045],[-1.02968,50.88023],[-1.02898,50.88094],[-1.02856,50.88081],[-1.02824,50.88143],[-1.02751,50.8816],[-1.02752,50.8819],[-1.02573,50.88161],[-1.02647,50.8826],[-1.02755,50.88288],[-1.02724,50.8838],[-1.02785,50.88402],[-1.02758,50.88438],[-1.02812,50.88453],[-1.02814,50.88507],[-1.02886,50.88425],[-1.03017,50.88449],[-1.03076,50.88497],[-1.03049,50.88517],[-1.03144,50.8851],[-1.03101,50.88589],[-1.03188,50.88621],[-1.03123,50.8871],[-1.02937,50.88649],[-1.02861,50.88732],[-1.02771,50.88702],[-1.02762,50.88671],[-1.02709,50.8866],[-1.02644,50.88699],[-1.02586,50.88675],[-1.0251,50.88773],[-1.02458,50.88758],[-1.02465,50.88719],[-1.02021,50.88684]]]}},{"type":"Feature","properties":{"id":"E01022973","name":"E01022973","parent":"E07000090","type":"LSOA","pop":2048,"r":342,"ff":102,"ffd":4980.5,"ffs":0.4533,"g":113,"co":2,"mo":0,"sa":0,"ic":0},"geometry":{"type":"Polygon","coordinates":[[[-1.03017,50.88449],[-1.02886,50.88425],[-1.02814,50.88507],[-1.02812,50.88453],[-1.02758,50.88438],[-1.02785,50.88402],[-1.02724,50.8838],[-1.02755,50.88288],[-1.02647,50.8826],[-1.02573,50.88161],[-1.02752,50.8819],[-1.02751,50.8816],[-1.02824,50.88143],[-1.02856,50.88081],[-1.02898,50.88094],[-1.02968,50.88023],[-1.02906,50.88045],[-1.02749,50.88006],[-1.0266,50.88045],[-1.0255,50.88002],[-1.02611,50.8797],[-1.02638,50.87996],[-1.02696,50.87893],[-1.02883,50.87821],[-1.02889,50.87786],[-1.02792,50.87752],[-1.02701,50.87762],[-1.02647,50.87707],[-1.02849,50.8764],[-1.02946,50.87717],[-1.03229,50.87544],[-1.03306,50.87575],[-1.0335,50.87553],[-1.03477,50.87658],[-1.03532,50.87624],[-1.0362,50.87669],[-1.03655,50.87649],[-1.04066,50.87671],[-1.04042,50.87781],[-1.03939,50.87769],[-1.0379,50.8802],[-1.03502,50.88063],[-1.03676,50.88228],[-1.0368,50.88297],[-1.03519,50.88363],[-1.0348,50.88452],[-1.03283,50.88381],[-1.03144,50.8851],[-1.03049,50.88517],[-1.03076,50.88497],[-1.03017,50.88449]]]}},{"type":"Feature","properties":{"id":"E01022974","name":"E01022974","parent":"E07000090","type":"LSOA","pop":1327,"r":364,"ff":110,"ffd":8289.4,"ffs":0.4508,"g":116,"co":0,"mo":0,"sa":0,"ic":0},"geometry":{"type":"Polygon","coordinates":[[[-1.00997,50.88348],[-1.00835,50.88195],[-1.01338,50.87554],[-1.01429,50.87591],[-1.01433,50.87642],[-1.02207,50.87869],[-1.02479,50.8775],[-1.02549,50.87827],[-1.02701,50.87762],[-1.02792,50.87752],[-1.02889,50.87786],[-1.02883,50.87821],[-1.02696,50.87893],[-1.02638,50.87996],[-1.02611,50.8797],[-1.0255,50.88002],[-1.024,50.8792],[-1.02149,50.88262],[-1.01999,50.88187],[-1.02152,50.88024],[-1.02107,50.8799],[-1.01895,50.88196],[-1.01739,50.88135],[-1.01706,50.8814],[-1.01737,50.88185],[-1.01663,50.88212],[-1.01551,50.88168],[-1.01523,50.88239],[-1.01357,50.88247],[-1.01316,50.88306],[-1.0114,50.88286],[-1.01127,50.88324],[-1.01185,50.88355],[-1.01141,50.88363],[-1.01159,50.88392],[-1.00997,50.88348]]]}},{"type":"Feature","properties":{"id":"E01022975","name":"E01022975","parent":"E07000090","type":"LSOA","pop":2005,"r":261,"ff":72,"ffd":3591.0,"ffs":0.4417,"g":94,"co":2,"mo":0,"sa":0,"ic":0},"geometry":{"type":"Polygon","coordinates":[[[-1.03671,50.89182],[-1.03666,50.89112],[-1.03588,50.89099],[-1.03735,50.88988],[-1.03656,50.88938],[-1.03804,50.88833],[-1.03714,50.88782],[-1.03609,50.88822],[-1.03628,50.88848],[-1.0352,50.88895],[-1.03492,50.88945],[-1.03439,50.88921],[-1.0348,50.88882],[-1.03256,50.88796],[-1.03285,50.8876],[-1.03573,50.88803],[-1.03597,50.88785],[-1.03458,50.88652],[-1.0353,50.8858],[-1.03604,50.88647],[-1.03684,50.88591],[-1.03505,50.88407],[-1.03519,50.88363],[-1.0368,50.88297],[-1.03676,50.88228],[-1.04192,50.88259],[-1.04397,50.88314],[-1.04476,50.88359],[-1.04428,50.88433],[-1.04531,50.88469],[-1.04664,50.88695],[-1.04682,50.88755],[-1.04512,50.88904],[-1.04757,50.89055],[-1.04578,50.8917],[-1.04528,50.8914],[-1.04336,50.89226],[-1.04114,50.89249],[-1.03671,50.89182]]]}},{"type":"Feature","properties":{"id":"E01022976","name":"E01022976","parent":"E07000090","type":"LSOA","pop":1378,"r":247,"ff":68,"ffd":4934.7,"ffs":0.4503,"g":92,"co":2,"mo":0,"sa":0,"ic":0},"geometry":{"type":"Polygon","coordinates":[[[-1.03001,50.89011],[-1.02967,50.88992],[-1.02755,50.89099],[-1.02626,50.8906],[-1.02648,50.89027],[-1.02484,50.88986],[-1.02382,50.89044],[-1.0228,50.89011],[-1.02586,50.88675],[-1.02644,50.88699],[-1.02709,50.8866],[-1.02762,50.88671],[-1.02771,50.88702],[-1.02861,50.88732],[-1.02937,50.88649],[-1.03123,50.8871],[-1.03188,50.88621],[-1.03101,50.88589],[-1.03144,50.8851],[-1.03283,50.88381],[-1.0348,50.88452],[-1.03505,50.88407],[-1.03684,50.88591],[-1.03604,50.88647],[-1.0353,50.8858],[-1.03458,50.88652],[-1.03597,50.88785],[-1.03573,50.88803],[-1.03285,50.8876],[-1.03256,50.88796],[-1.0348,50.88882],[-1.03439,50.88921],[-1.03492,50.88945],[-1.0352,50.88895],[-1.03628,50.88848],[-1.03609,50.88822],[-1.03714,50.88782],[-1.03804,50.88833],[-1.03656,50.88938],[-1.03735,50.88988],[-1.03588,50.89099],[-1.03666,50.89112],[-1.03671,50.89182],[-1.03247,50.89214],[-1.03313,50.89079],[-1.03001,50.89011]]]}},{"type":"Feature","properties":{"id":"E01032605","name":"E01032605","parent":"E07000090","type":"LSOA","pop":2267,"r":421,"ff":135,"ffd":5955.0,"ffs":0.4737,"g":132,"co":0,"mo":0,"sa":0,"ic":0},"geometry":{"type":"MultiPolygon","coordinates":[[[[-1.00884,50.82607],[-1.00812,50.82494],[-1.00732,50.82488],[-1.00734,50.82464],[-1.00758,50.82481],[-1.0082,50.82458],[-1.0087,50.82484],[-1.00881,50.82559],[-1.00941,50.82518],[-1.00991,50.82546],[-1.00978,50.82509],[-1.00886,50.82504],[-1.00941,50.82496],[-1.00941,50.82469],[-1.00989,50.8249],[-1.00933,50.82439],[-1.01009,50.8237],[-1.00891,50.8245],[-1.0091,50.82381],[-1.00849,50.82404],[-1.00846,50.82385],[-1.00968,50.82354],[-1.00795,50.82344],[-1.0083,50.82306],[-1.00876,50.82324],[-1.00841,50.82289],[-1.00805,50.82314],[-1.00761,50.82301],[-1.00766,50.82247],[-1.00731,50.82299],[-1.00796,50.82316],[-1.00787,50.82351],[-1.00734,50.82333],[-1.006,50.8239],[-1.00701,50.8231],[-1.00741,50.82197],[-1.00915,50.82269],[-1.01062,50.82388],[-1.01016,50.8267],[-1.00884,50.82607]]],[[[-1.0142,50.82936],[-1.01398,50.82851],[-1.01426,50.82838],[-1.01443,50.82881],[-1.01436,50.8284],[-1.01416,50.82834],[-1.01467,50.82838],[-1.01433,50.82816],[-1.01393,50.82827],[-1.01388,50.82871],[-1.0134,50.82816],[-1.01381,50.82786],[-1.01342,50.82798],[-1.01264,50.82755],[-1.01322,50.82724],[-1.01442,50.82722],[-1.01297,50.82707],[-1.01265,50.8264],[-1.01409,50.82557],[-1.01446,50.82585],[-1.01459,50.8255],[-1.01502,50.82593],[-1.01455,50.82637],[-1.01492,50.82683],[-1.01689,50.82814],[-1.01592,50.82858],[-1.01572,50.82837],[-1.01567,50.82875],[-1.0142,50.82936]]],[[[-1.02364,50.83315],[-1.02397,50.83309],[-1.02313,50.83388],[-1.02348,50.83341],[-1.02364,50.83315]]],[[[-1.00524,50.83458],[-1.00508,50.83407],[-1.00582,50.83417],[-1.00537,50.83404],[-1.00565,50.83372],[-1.0049,50.83401],[-1.00457,50.83351],[-1.00498,50.83335],[-1.00441,50.83315],[-1.00313,50.83127],[-1.00184,50.8305],[-1.00161,50.82999],[-1.00218,50.8295],[-1.00316,50.82982],[-1.00373,50.83114],[-1.00492,50.8316],[-1.00621,50.83149],[-1.00541,50.83168],[-1.00535,50.83182],[-1.00543,50.83187],[-1.00575,50.83187],[-1.00557,50.8322],[-1.00523,50.83229],[-1.00481,50.832],[-1.00491,50.83241],[-1.00549,50.83232],[-1.00582,50.83194],[-1.00609,50.83233],[-1.00603,50.832],[-1.00572,50.83182],[-1.00538,50.83177],[-1.0064,50.83163],[-1.00692,50.83217],[-1.00671,50.83297],[-1.00603,50.83326],[-1.00679,50.83302],[-1.007,50.83328],[-1.00768,50.83309],[-1.0089,50.83333],[-1.00894,50.83391],[-1.00832,50.83441],[-1.00781,50.83433],[-1.00814,50.83459],[-1.00686,50.83524],[-1.00622,50.83502],[-1.00678,50.83473],[-1.00524,50.83458]]],[[[-1.02202,50.83532],[-1.02218,50.8351],[-1.02234,50.83634],[-1.02217,50.83662],[-1.02202,50.83532]]],[[[-1.01916,50.83821],[-1.01913,50.83757],[-1.01892,50.83742],[-1.01976,50.83715],[-1.01913,50.83727],[-1.01899,50.83701],[-1.01884,50.83747],[-1.01847,50.83731],[-1.01867,50.83756],[-1.01823,50.83761],[-1.01882,50.83781],[-1.01893,50.8375],[-1.01902,50.83817],[-1.01814,50.83827],[-1.01847,50.83799],[-1.01803,50.83814],[-1.01736,50.83758],[-1.015,50.83754],[-1.01383,50.83731],[-1.01425,50.83724],[-1.0136,50.83707],[-1.01356,50.8367],[-1.01316,50.83679],[-1.01351,50.83718],[-1.01253,50.83683],[-1.01291,50.83672],[-1.01152,50.83668],[-1.0108,50.83566],[-1.01123,50.83655],[-1.009,50.83608],[-1.00843,50.83635],[-1.00835,50.83574],[-1.00803,50.83587],[-1.00778,50.83542],[-1.00857,50.83487],[-1.00876,50.83514],[-1.01042,50.83484],[-1.01438,50.83565],[-1.01555,50.83687],[-1.01706,50.83687],[-1.02023,50.83542],[-1.02125,50.83533],[-1.02178,50.83617],[-1.02127,50.83623],[-1.02158,50.83667],[-1.02175,50.83633],[-1.02165,50.83711],[-1.02162,50.83686],[-1.02104,50.83705],[-1.02114,50.8373],[-1.02033,50.83772],[-1.02004,50.83704],[-1.02037,50.83722],[-1.02048,50.837],[-1.01967,50.83685],[-1.02001,50.83736],[-1.01957,50.83742],[-1.02002,50.83752],[-1.01955,50.8375],[-1.02017,50.83779],[-1.01941,50.83761],[-1.01942,50.83801],[-1.02031,50.83814],[-1.01972,50.83837],[-1.01916,50.83821]]],[[[-1.02065,50.83901],[-1.0209,50.83862],[-1.02064,50.83904],[-1.02065,50.83901]]],[[[-1.01974,50.84008],[-1.01918,50.83961],[-1.01907,50.83935],[-1.01983,50.83922],[-1.01936,50.83937],[-1.01984,50.83938],[-1.01971,50.83957],[-1.01926,50.83956],[-1.01961,50.83966],[-1.01995,50.83947],[-1.01973,50.83979],[-1.02003,50.83968],[-1.02016,50.83954],[-1.01995,50.83908],[-1.02038,50.8388],[-1.02028,50.83965],[-1.02077,50.8399],[-1.02009,50.83985],[-1.01995,50.84006],[-1.02037,50.84008],[-1.02003,50.84023],[-1.01974,50.84008]]],[[[-1.02013,50.84097],[-1.02016,50.84062],[-1.01985,50.8408],[-1.01936,50.84043],[-1.02035,50.84021],[-1.02052,50.84083],[-1.02073,50.84],[-1.02117,50.84088],[-1.02013,50.84097]]],[[[-1.02095,50.84152],[-1.02103,50.84129],[-1.02134,50.84143],[-1.02087,50.84116],[-1.02154,50.84091],[-1.02174,50.84134],[-1.02117,50.84168],[-1.02095,50.84152]]],[[[-1.01084,50.84919],[-1.00998,50.84722],[-1.00671,50.84765],[-1.00678,50.84745],[-1.0028,50.84848],[-1.00302,50.84769],[-1.00142,50.84532],[-1.00172,50.84423],[-1.00262,50.84313],[-1.0039,50.8428],[-1.01311,50.84438],[-1.01656,50.84355],[-1.02061,50.84299],[-1.02162,50.84253],[-1.02125,50.84222],[-1.02062,50.84231],[-1.02029,50.84269],[-1.01937,50.84203],[-1.02056,50.84157],[-1.02078,50.84185],[-1.02009,50.84209],[-1.02075,50.84219],[-1.02069,50.84194],[-1.0212,50.84171],[-1.02135,50.84182],[-1.02186,50.8413],[-1.022,50.84176],[-1.0215,50.84193],[-1.02197,50.84185],[-1.02214,50.84166],[-1.02059,50.83953],[-1.02063,50.83907],[-1.02235,50.84181],[-1.02164,50.84209],[-1.02171,50.84263],[-1.02255,50.8428],[-1.023,50.84397],[-1.02344,50.84605],[-1.02478,50.84598],[-1.02507,50.84772],[-1.02385,50.84792],[-1.02452,50.84979],[-1.02282,50.85031],[-1.02244,50.8509],[-1.02264,50.8521],[-1.01661,50.85288],[-1.01597,50.8548],[-1.01451,50.85487],[-1.01593,50.85836],[-1.01238,50.85804],[-1.01226,50.85764],[-1.01015,50.85753],[-1.0102,50.85562],[-1.01065,50.85558],[-1.01063,50.85527],[-1.01191,50.85495],[-1.01217,50.85419],[-1.01375,50.85382],[-1.01206,50.85177],[-1.01194,50.85059],[-1.01222,50.85049],[-1.01201,50.84923],[-1.01084,50.84919]]]]}},{"type":"Feature","properties":{"id":"E01032617","name":"E01032617","parent":"E07000090","type":"LSOA","pop":1578,"r":230,"ff":61,"ffd":3865.7,"ffs":0.4453,"g":89,"co":2,"mo":0,"sa":0,"ic":0},"geometry":{"type":"Polygon","coordinates":[[[-1.00782,50.90254],[-1.00779,50.90237],[-1.00148,50.89948],[-1.00389,50.89719],[-1.00512,50.8975],[-1.00551,50.89808],[-1.0067,50.89784],[-1.0069,50.89829],[-1.00811,50.89794],[-1.00797,50.89856],[-1.00754,50.89845],[-1.0074,50.89869],[-1.00804,50.89897],[-1.00832,50.89875],[-1.00888,50.89899],[-1.01037,50.8978],[-1.01062,50.89841],[-1.01136,50.89828],[-1.01203,50.8986],[-1.01397,50.89813],[-1.01397,50.89869],[-1.01261,50.90004],[-1.01388,50.90025],[-1.01419,50.90072],[-1.01264,50.90131],[-1.01275,50.9019],[-1.01322,50.90208],[-1.01366,50.90154],[-1.01435,50.90157],[-1.0138,50.90135],[-1.01406,50.90099],[-1.01455,50.90121],[-1.01484,50.90081],[-1.0156,50.90095],[-1.01614,50.90044],[-1.01768,50.90089],[-1.01656,50.90234],[-1.01861,50.9029],[-1.01912,50.90363],[-1.0187,50.90344],[-1.01847,50.90383],[-1.0152,50.90339],[-1.01201,50.90249],[-1.01113,50.90377],[-1.00897,50.90297],[-1.0091,50.90271],[-1.00782,50.90254]]]}},{"type":"Feature","properties":{"id":"E01032618","name":"E01032618","parent":"E07000090","type":"LSOA","pop":1923,"r":218,"ff":57,"ffd":2964.1,"ffs":0.4524,"g":88,"co":2,"mo":0,"sa":0,"ic":0},"geometry":{"type":"Polygon","coordinates":[[[-1.0194,50.90464],[-1.01943,50.90421],[-1.02163,50.90421],[-1.02296,50.90136],[-1.02345,50.90069],[-1.02382,50.90129],[-1.02364,50.90164],[-1.02454,50.90212],[-1.02453,50.90328],[-1.02505,50.9029],[-1.0266,50.90299],[-1.02728,50.90399],[-1.02807,50.90416],[-1.02976,50.90345],[-1.0297,50.90421],[-1.03058,50.90484],[-1.02927,50.90466],[-1.02844,50.90578],[-1.02386,50.90616],[-1.02555,50.90908],[-1.02453,50.90946],[-1.0218,50.90965],[-1.01996,50.90944],[-1.01868,50.90904],[-1.01772,50.90849],[-1.01869,50.90807],[-1.01918,50.90711],[-1.01897,50.90659],[-1.0194,50.90464]]]}},{"type":"Feature","properties":{"id":"E01034066","name":"E01034066","parent":"E07000090","type":"LSOA","pop":969,"r":342,"ff":101,"ffd":10423.1,"ffs":0.4469,"g":112,"co":2,"mo":0,"sa":0,"ic":0},"geometry":{"type":"MultiPolygon","coordinates":[[[[-1.00101,50.85122],[-1.00098,50.85128],[-1.00095,50.85128],[-1.00101,50.85122]]],[[[-0.98367,50.85511],[-0.98309,50.85432],[-0.98376,50.85399],[-0.98368,50.85275],[-0.9848,50.85263],[-0.98467,50.8515],[-0.98505,50.85074],[-0.98648,50.85083],[-0.98662,50.85113],[-0.98947,50.85018],[-0.99059,50.84906],[-0.99422,50.84917],[-0.994,50.8477],[-0.99721,50.84764],[-1.00143,50.84618],[-1.00274,50.84788],[-1.00226,50.84922],[-1.00095,50.85128],[-0.99953,50.85158],[-1.00019,50.85249],[-0.99586,50.85411],[-0.9879,50.85228],[-0.9868,50.85424],[-0.98719,50.85488],[-0.98563,50.85476],[-0.98602,50.85581],[-0.98569,50.8571],[-0.98385,50.85854],[-0.98288,50.85753],[-0.98441,50.85611],[-0.98337,50.85542],[-0.98367,50.85511]]]]}},{"type":"Feature","properties":{"id":"E01034067","name":"E01034067","parent":"E07000090","type":"LSOA","pop":1407,"r":214,"ff":59,"ffd":4193.3,"ffs":0.447,"g":78,"co":0,"mo":0,"sa":1,"ic":0},"geometry":{"type":"Polygon","coordinates":[[[-0.97665,50.85497],[-0.97835,50.85361],[-0.97745,50.853],[-0.97777,50.85119],[-0.97734,50.85154],[-0.97642,50.85063],[-0.97975,50.8509],[-0.97971,50.85047],[-0.97995,50.85093],[-0.98129,50.85109],[-0.98075,50.85051],[-0.98137,50.8496],[-0.98116,50.84893],[-0.98042,50.84912],[-0.98026,50.84956],[-0.97919,50.8494],[-0.97969,50.84815],[-0.97962,50.8479],[-0.9809,50.84725],[-0.98114,50.84656],[-0.98219,50.84663],[-0.98402,50.84711],[-0.98427,50.84844],[-0.98725,50.84862],[-0.98783,50.85072],[-0.98662,50.85113],[-0.98648,50.85083],[-0.98505,50.85074],[-0.98467,50.8515],[-0.9848,50.85263],[-0.98368,50.85275],[-0.98376,50.85399],[-0.98309,50.85432],[-0.98317,50.85458],[-0.98078,50.8542],[-0.97968,50.85433],[-0.97905,50.85514],[-0.97665,50.85497]]]}}]}