{"type":"FeatureCollection","features":[{"type":"Feature","properties":{"id":"E01019526","name":"E01019526","parent":"E07000034","type":"LSOA","pop":1253,"r":217,"ff":85,"ffd":6783.7,"ffs":0.5449,"g":60,"co":2,"mo":0,"sa":0,"ic":0},"geometry":{"type":"Polygon","coordinates":[[[-1.41209,53.27417],[-1.41074,53.27198],[-1.40991,53.27218],[-1.41004,53.27293],[-1.40793,53.27263],[-1.40707,53.2722],[-1.4057,53.27322],[-1.40547,53.273],[-1.40469,53.27356],[-1.40426,53.27317],[-1.40385,53.27326],[-1.40218,53.27242],[-1.40076,53.27265],[-1.40013,53.27238],[-1.39947,53.27263],[-1.3984,53.27167],[-1.39752,53.26915],[-1.40127,53.26953],[-1.40203,53.26998],[-1.40379,53.26951],[-1.40984,53.26685],[-1.41385,53.26769],[-1.41405,53.26857],[-1.41574,53.26863],[-1.41572,53.26982],[-1.41623,53.26991],[-1.41623,53.26963],[-1.4173,53.26949],[-1.41755,53.26994],[-1.41647,53.2705],[-1.41715,53.27096],[-1.41626,53.2713],[-1.41492,53.27079],[-1.41409,53.2708],[-1.41297,53.27114],[-1.41317,53.27133],[-1.41302,53.27179],[-1.41154,53.27213],[-1.41258,53.27386],[-1.41209,53.27417]]]}},{"type":"Feature","properties":{"id":"E01019527","name":"E01019527","parent":"E07000034","type":"LSOA","pop":1392,"r":206,"ff":78,"ffd":5603.4,"ffs":0.5493,"g":63,"co":2,"mo":0,"sa":0,"ic":0},"geometry":{"type":"Polygon","coordinates":[[[-1.35317,53.2865],[-1.35417,53.28583],[-1.35606,53.28185],[-1.35553,53.2805],[-1.35648,53.2802],[-1.35608,53.27866],[-1.35663,53.27798],[-1.35645,53.27749],[-1.35459,53.27654],[-1.35373,53.27539],[-1.35406,53.27463],[-1.35533,53.27413],[-1.35547,53.27358],[-1.35457,53.27271],[-1.35373,53.27254],[-1.35548,53.26951],[-1.35609,53.26894],[-1.35867,53.26749],[-1.35935,53.26789],[-1.36048,53.26704],[-1.36291,53.26616],[-1.36501,53.26611],[-1.36537,53.26523],[-1.36849,53.26513],[-1.36867,53.26478],[-1.36928,53.26479],[-1.37603,53.26615],[-1.37615,53.26571],[-1.37778,53.26563],[-1.37791,53.26701],[-1.37961,53.2668],[-1.38199,53.26723],[-1.38655,53.26766],[-1.38821,53.26695],[-1.38795,53.26802],[-1.38643,53.26824],[-1.38578,53.26865],[-1.38647,53.26921],[-1.38782,53.26938],[-1.38873,53.27059],[-1.39233,53.2708],[-1.39731,53.27028],[-1.39752,53.26915],[-1.3984,53.27167],[-1.39947,53.27263],[-1.39999,53.27368],[-1.39956,53.27502],[-1.40233,53.27475],[-1.4026,53.27581],[-1.40336,53.27578],[-1.40388,53.2751],[-1.40431,53.27512],[-1.40439,53.2755],[-1.40447,53.27515],[-1.40504,53.27497],[-1.40545,53.27547],[-1.40596,53.27545],[-1.40624,53.27573],[-1.40524,53.27688],[-1.40468,53.27685],[-1.40429,53.27603],[-1.40364,53.27626],[-1.40355,53.27607],[-1.4026,53.27652],[-1.40408,53.27751],[-1.40354,53.27815],[-1.40263,53.27796],[-1.40214,53.27728],[-1.40253,53.27719],[-1.40236,53.27693],[-1.40198,53.27702],[-1.40155,53.27647],[-1.40082,53.27656],[-1.40206,53.27808],[-1.4006,53.2786],[-1.40174,53.28157],[-1.39928,53.28197],[-1.3995,53.28246],[-1.39632,53.28342],[-1.39614,53.28379],[-1.39674,53.28456],[-1.39176,53.28714],[-1.39142,53.28647],[-1.38716,53.2861],[-1.38656,53.28695],[-1.38734,53.28988],[-1.3863,53.29228],[-1.38667,53.29375],[-1.38596,53.29411],[-1.38599,53.2949],[-1.38073,53.29549],[-1.38088,53.2966],[-1.37715,53.29685],[-1.37705,53.29904],[-1.37192,53.29765],[-1.37217,53.29747],[-1.37152,53.29732],[-1.37126,53.29689],[-1.37136,53.29564],[-1.36987,53.29371],[-1.36801,53.29298],[-1.3685,53.29207],[-1.36689,53.28918],[-1.36079,53.28868],[-1.35972,53.28838],[-1.35896,53.28775],[-1.35317,53.2865]]]}},{"type":"Feature","properties":{"id":"E01019528","name":"E01019528","parent":"E07000034","type":"LSOA","pop":1430,"r":215,"ff":84,"ffd":5874.1,"ffs":0.549,"g":61,"co":2,"mo":0,"sa":0,"ic":0},"geometry":{"type":"Polygon","coordinates":[[[-1.40393,53.28402],[-1.40235,53.28256],[-1.40174,53.28157],[-1.4006,53.2786],[-1.40206,53.27808],[-1.40082,53.27656],[-1.40155,53.27647],[-1.40198,53.27702],[-1.40236,53.27693],[-1.40253,53.27719],[-1.40214,53.27728],[-1.40263,53.27796],[-1.40354,53.27815],[-1.40408,53.27751],[-1.40478,53.27749],[-1.40496,53.27727],[-1.40538,53.27759],[-1.40582,53.27748],[-1.4091,53.27903],[-1.41218,53.27922],[-1.4111,53.27798],[-1.41055,53.27646],[-1.41165,53.2755],[-1.4131,53.27522],[-1.41249,53.27487],[-1.4131,53.2744],[-1.41226,53.27446],[-1.41209,53.27417],[-1.41258,53.27386],[-1.41154,53.27213],[-1.41302,53.27179],[-1.41317,53.27133],[-1.41297,53.27114],[-1.41409,53.2708],[-1.41492,53.27079],[-1.41626,53.2713],[-1.41715,53.27096],[-1.41805,53.27145],[-1.41898,53.27134],[-1.41945,53.27202],[-1.41839,53.27275],[-1.41949,53.27313],[-1.4222,53.27321],[-1.42217,53.27387],[-1.42253,53.27433],[-1.42326,53.27439],[-1.4234,53.27853],[-1.42178,53.27869],[-1.42139,53.281],[-1.42362,53.28084],[-1.4225,53.28232],[-1.42324,53.28271],[-1.42313,53.28346],[-1.42149,53.28343],[-1.41891,53.2849],[-1.41797,53.28627],[-1.41544,53.28764],[-1.41464,53.28681],[-1.40981,53.28674],[-1.40795,53.28627],[-1.40393,53.28402]]]}},{"type":"Feature","properties":{"id":"E01019529","name":"E01019529","parent":"E07000034","type":"LSOA","pop":1411,"r":216,"ff":84,"ffd":5953.2,"ffs":0.5455,"g":61,"co":2,"mo":0,"sa":0,"ic":0},"geometry":{"type":"Polygon","coordinates":[[[-1.4091,53.27903],[-1.40582,53.27748],[-1.40538,53.27759],[-1.40496,53.27727],[-1.40478,53.27749],[-1.40408,53.27751],[-1.4026,53.27652],[-1.40355,53.27607],[-1.40364,53.27626],[-1.40429,53.27603],[-1.40468,53.27685],[-1.40524,53.27688],[-1.40624,53.27573],[-1.40596,53.27545],[-1.40545,53.27547],[-1.40504,53.27497],[-1.40447,53.27515],[-1.40439,53.2755],[-1.40431,53.27512],[-1.40388,53.2751],[-1.40336,53.27578],[-1.4026,53.27581],[-1.40233,53.27475],[-1.39956,53.27502],[-1.39999,53.27368],[-1.39947,53.27263],[-1.40013,53.27238],[-1.40076,53.27265],[-1.40218,53.27242],[-1.40385,53.27326],[-1.40426,53.27317],[-1.40469,53.27356],[-1.40547,53.273],[-1.4057,53.27322],[-1.40707,53.2722],[-1.40793,53.27263],[-1.41004,53.27293],[-1.40991,53.27218],[-1.41074,53.27198],[-1.41226,53.27446],[-1.4131,53.2744],[-1.41249,53.27487],[-1.4131,53.27522],[-1.41165,53.2755],[-1.41055,53.27646],[-1.4111,53.27798],[-1.41218,53.27922],[-1.4091,53.27903]]]}},{"type":"Feature","properties":{"id":"E01019530","name":"E01019530","parent":"E07000034","type":"LSOA","pop":1490,"r":224,"ff":88,"ffd":5906.0,"ffs":0.5399,"g":60,"co":0,"mo":0,"sa":0,"ic":0},"geometry":{"type":"Polygon","coordinates":[[[-1.3891,53.26079],[-1.39016,53.26021],[-1.38914,53.25964],[-1.38999,53.25942],[-1.38987,53.25906],[-1.39108,53.25902],[-1.39138,53.25855],[-1.39351,53.25866],[-1.39353,53.25929],[-1.39441,53.25938],[-1.39456,53.25853],[-1.39432,53.25785],[-1.39547,53.25745],[-1.39711,53.25741],[-1.39691,53.25691],[-1.39811,53.25723],[-1.3986,53.25772],[-1.39836,53.25829],[-1.39845,53.25935],[-1.39794,53.25967],[-1.39685,53.25972],[-1.39685,53.26048],[-1.39714,53.26073],[-1.39788,53.26069],[-1.39803,53.26031],[-1.39902,53.26073],[-1.40024,53.26308],[-1.40015,53.26424],[-1.39936,53.26526],[-1.39624,53.26512],[-1.39404,53.26243],[-1.39273,53.26224],[-1.39221,53.26156],[-1.38944,53.26131],[-1.3891,53.26079]]]}},{"type":"Feature","properties":{"id":"E01019531","name":"E01019531","parent":"E07000034","type":"LSOA","pop":1682,"r":227,"ff":89,"ffd":5291.3,"ffs":0.5427,"g":62,"co":0,"mo":0,"sa":0,"ic":0},"geometry":{"type":"Polygon","coordinates":[[[-1.38604,53.26029],[-1.3846,53.25831],[-1.38587,53.25796],[-1.38953,53.25756],[-1.39343,53.25753],[-1.39388,53.25722],[-1.39381,53.25652],[-1.39535,53.25629],[-1.39693,53.25683],[-1.39711,53.25741],[-1.39547,53.25745],[-1.39432,53.25785],[-1.39456,53.25853],[-1.39441,53.25938],[-1.39353,53.25929],[-1.39351,53.25866],[-1.39138,53.25855],[-1.39108,53.25902],[-1.38987,53.25906],[-1.38999,53.25942],[-1.38914,53.25964],[-1.39016,53.26021],[-1.3891,53.26079],[-1.38944,53.26131],[-1.39221,53.26156],[-1.39273,53.26224],[-1.39404,53.26243],[-1.39624,53.26512],[-1.39936,53.26526],[-1.39933,53.26637],[-1.39836,53.26722],[-1.39803,53.26909],[-1.39752,53.26915],[-1.39731,53.27028],[-1.39233,53.2708],[-1.38873,53.27059],[-1.38782,53.26938],[-1.38647,53.26921],[-1.38578,53.26865],[-1.38643,53.26824],[-1.38795,53.26802],[-1.38821,53.26695],[-1.38753,53.26628],[-1.38836,53.26435],[-1.38809,53.26248],[-1.38694,53.26155],[-1.38604,53.26029]]]}},{"type":"Feature","properties":{"id":"E01019532","name":"E01019532","parent":"E07000034","type":"LSOA","pop":1113,"r":223,"ff":90,"ffd":8086.3,"ffs":0.5556,"g":60,"co":0,"mo":0,"sa":0,"ic":0},"geometry":{"type":"Polygon","coordinates":[[[-1.39902,53.26073],[-1.39803,53.26031],[-1.39788,53.26069],[-1.39714,53.26073],[-1.39685,53.26048],[-1.39685,53.25972],[-1.39794,53.25967],[-1.39845,53.25935],[-1.39836,53.25829],[-1.3986,53.25772],[-1.40465,53.25833],[-1.40627,53.25876],[-1.40872,53.26032],[-1.41359,53.26135],[-1.41278,53.26316],[-1.41364,53.26427],[-1.40932,53.26713],[-1.40379,53.26951],[-1.40203,53.26998],[-1.40127,53.26953],[-1.39803,53.26909],[-1.39836,53.26722],[-1.39933,53.26637],[-1.39936,53.26526],[-1.40015,53.26424],[-1.40024,53.26308],[-1.39902,53.26073]]]}},{"type":"Feature","properties":{"id":"E01019533","name":"E01019533","parent":"E07000034","type":"LSOA","pop":1358,"r":222,"ff":85,"ffd":6259.2,"ffs":0.5312,"g":61,"co":0,"mo":0,"sa":0,"ic":0},"geometry":{"type":"Polygon","coordinates":[[[-1.41314,53.25242],[-1.41228,53.25212],[-1.41095,53.25229],[-1.40999,53.25175],[-1.40927,53.25207],[-1.40801,53.2521],[-1.40716,53.25127],[-1.40533,53.25129],[-1.40254,53.25015],[-1.40185,53.25021],[-1.40227,53.24824],[-1.40279,53.24803],[-1.40165,53.24701],[-1.39963,53.24615],[-1.39442,53.24286],[-1.39326,53.24103],[-1.39473,53.24101],[-1.40389,53.23893],[-1.40446,53.23851],[-1.40697,53.23882],[-1.4116,53.23885],[-1.41539,53.23924],[-1.41607,53.23862],[-1.41806,53.23845],[-1.41951,53.23856],[-1.41848,53.24327],[-1.41834,53.24771],[-1.41887,53.25043],[-1.41924,53.25461],[-1.41712,53.2556],[-1.41467,53.25402],[-1.41411,53.2531],[-1.41314,53.25242]]]}},{"type":"Feature","properties":{"id":"E01019534","name":"E01019534","parent":"E07000034","type":"LSOA","pop":1469,"r":224,"ff":88,"ffd":5990.5,"ffs":0.5432,"g":61,"co":0,"mo":0,"sa":0,"ic":0},"geometry":{"type":"Polygon","coordinates":[[[-1.3846,53.25831],[-1.38089,53.25605],[-1.3818,53.25464],[-1.38067,53.25233],[-1.37904,53.25133],[-1.37966,53.24962],[-1.38229,53.24896],[-1.39066,53.24823],[-1.39153,53.25098],[-1.39477,53.25106],[-1.39742,53.25033],[-1.3962,53.24919],[-1.39963,53.24615],[-1.40165,53.24701],[-1.40279,53.24803],[-1.40227,53.24824],[-1.40185,53.25021],[-1.40254,53.25015],[-1.40533,53.25129],[-1.40716,53.25127],[-1.40801,53.2521],[-1.40927,53.25207],[-1.40999,53.25175],[-1.41095,53.25229],[-1.41228,53.25212],[-1.41359,53.25267],[-1.40832,53.25309],[-1.40848,53.25335],[-1.40755,53.25379],[-1.40798,53.25469],[-1.40725,53.25528],[-1.40649,53.25478],[-1.40599,53.25369],[-1.40244,53.2544],[-1.40227,53.25484],[-1.40196,53.25454],[-1.4015,53.25469],[-1.40156,53.25522],[-1.40073,53.2563],[-1.40097,53.25679],[-1.40278,53.25688],[-1.40321,53.25713],[-1.40313,53.25766],[-1.40424,53.25775],[-1.4046,53.25748],[-1.40449,53.25785],[-1.40494,53.25795],[-1.40478,53.25837],[-1.3986,53.25772],[-1.39811,53.25723],[-1.39535,53.25629],[-1.39381,53.25652],[-1.39388,53.25722],[-1.39343,53.25753],[-1.38953,53.25756],[-1.38587,53.25796],[-1.3846,53.25831]]]}},{"type":"Feature","properties":{"id":"E01019535","name":"E01019535","parent":"E07000034","type":"LSOA","pop":1465,"r":224,"ff":86,"ffd":5870.3,"ffs":0.5309,"g":61,"co":0,"mo":0,"sa":0,"ic":0},"geometry":{"type":"Polygon","coordinates":[[[-1.39153,53.25098],[-1.39066,53.24823],[-1.38229,53.24896],[-1.37966,53.24962],[-1.37967,53.24835],[-1.38034,53.2438],[-1.38297,53.24266],[-1.38326,53.24202],[-1.3877,53.23946],[-1.38842,53.23962],[-1.38941,53.23895],[-1.39027,53.23886],[-1.39326,53.24103],[-1.39442,53.24286],[-1.39963,53.24615],[-1.3962,53.24919],[-1.39742,53.25033],[-1.39477,53.25106],[-1.39153,53.25098]]]}},{"type":"Feature","properties":{"id":"E01019536","name":"E01019536","parent":"E07000034","type":"LSOA","pop":1992,"r":220,"ff":88,"ffd":4417.7,"ffs":0.557,"g":61,"co":0,"mo":0,"sa":0,"ic":0},"geometry":{"type":"Polygon","coordinates":[[[-1.40449,53.25785],[-1.4046,53.25748],[-1.40424,53.25775],[-1.40313,53.25766],[-1.40321,53.25713],[-1.40278,53.25688],[-1.40097,53.25679],[-1.40073,53.2563],[-1.40156,53.25522],[-1.4015,53.25469],[-1.40196,53.25454],[-1.40227,53.25484],[-1.40244,53.2544],[-1.40599,53.25369],[-1.40649,53.25478],[-1.40725,53.25528],[-1.40798,53.25469],[-1.40755,53.25379],[-1.40848,53.25335],[-1.40832,53.25309],[-1.41359,53.25267],[-1.41411,53.2531],[-1.41467,53.25402],[-1.41712,53.2556],[-1.41924,53.25461],[-1.42031,53.25514],[-1.41953,53.25541],[-1.41895,53.25511],[-1.41857,53.25544],[-1.41877,53.25602],[-1.41793,53.25606],[-1.41803,53.25658],[-1.41653,53.25632],[-1.41633,53.25702],[-1.41685,53.25737],[-1.41505,53.25789],[-1.41604,53.25861],[-1.41458,53.25884],[-1.41359,53.26135],[-1.40872,53.26032],[-1.40627,53.25876],[-1.40478,53.25837],[-1.40494,53.25795],[-1.40449,53.25785]]]}},{"type":"Feature","properties":{"id":"E01019537","name":"E01019537","parent":"E07000034","type":"LSOA","pop":1658,"r":208,"ff":78,"ffd":4704.5,"ffs":0.5306,"g":60,"co":0,"mo":0,"sa":0,"ic":0},"geometry":{"type":"Polygon","coordinates":[[[-1.44531,53.25101],[-1.4427,53.25068],[-1.44108,53.25084],[-1.44034,53.25005],[-1.43938,53.24951],[-1.43734,53.24712],[-1.43866,53.24658],[-1.43995,53.24475],[-1.44024,53.2449],[-1.44076,53.24458],[-1.44162,53.24533],[-1.4414,53.24554],[-1.44223,53.24589],[-1.44214,53.2456],[-1.44282,53.24535],[-1.44274,53.24483],[-1.44349,53.24473],[-1.44537,53.24532],[-1.44669,53.24623],[-1.44776,53.24631],[-1.44886,53.24761],[-1.45008,53.24747],[-1.45111,53.24885],[-1.44809,53.25198],[-1.4464,53.2511],[-1.44531,53.25101]]]}},{"type":"Feature","properties":{"id":"E01019538","name":"E01019538","parent":"E07000034","type":"LSOA","pop":2242,"r":208,"ff":78,"ffd":3479.0,"ffs":0.5306,"g":60,"co":0,"mo":0,"sa":0,"ic":0},"geometry":{"type":"Polygon","coordinates":[[[-1.43757,53.24067],[-1.43654,53.24039],[-1.43426,53.24239],[-1.42636,53.23852],[-1.42776,53.23741],[-1.43129,53.23763],[-1.43157,53.2364],[-1.43243,53.23643],[-1.43273,53.23536],[-1.43594,53.2357],[-1.43704,53.23545],[-1.4372,53.23645],[-1.43943,53.23683],[-1.44128,53.23794],[-1.4409,53.23806],[-1.43996,53.23911],[-1.44043,53.23938],[-1.43994,53.2398],[-1.43899,53.23928],[-1.43812,53.24069],[-1.4391,53.24118],[-1.4399,53.24244],[-1.43917,53.24291],[-1.43757,53.24067]]]}},{"type":"Feature","properties":{"id":"E01019539","name":"E01019539","parent":"E07000034","type":"LSOA","pop":1576,"r":204,"ff":77,"ffd":4885.8,"ffs":0.5347,"g":59,"co":0,"mo":0,"sa":0,"ic":0},"geometry":{"type":"Polygon","coordinates":[[[-1.44537,53.24532],[-1.44349,53.24473],[-1.44274,53.24483],[-1.44282,53.24535],[-1.44214,53.2456],[-1.44223,53.24589],[-1.4414,53.24554],[-1.44162,53.24533],[-1.44076,53.24458],[-1.44024,53.2449],[-1.43426,53.24239],[-1.43654,53.24039],[-1.43757,53.24067],[-1.43917,53.24291],[-1.4399,53.24244],[-1.44159,53.23996],[-1.44342,53.24106],[-1.44432,53.24213],[-1.4456,53.24268],[-1.44594,53.24235],[-1.44826,53.24276],[-1.4489,53.24313],[-1.44873,53.24381],[-1.45018,53.2447],[-1.44995,53.24677],[-1.45008,53.24747],[-1.44886,53.24761],[-1.44776,53.24631],[-1.44669,53.24623],[-1.44537,53.24532]]]}},{"type":"Feature","properties":{"id":"E01019540","name":"E01019540","parent":"E07000034","type":"LSOA","pop":1401,"r":204,"ff":77,"ffd":5496.1,"ffs":0.5347,"g":59,"co":0,"mo":0,"sa":0,"ic":0},"geometry":{"type":"Polygon","coordinates":[[[-1.44826,53.24276],[-1.44594,53.24235],[-1.4456,53.24268],[-1.44432,53.24213],[-1.44342,53.24106],[-1.44159,53.23996],[-1.4399,53.24244],[-1.4391,53.24118],[-1.43812,53.24069],[-1.43899,53.23928],[-1.43994,53.2398],[-1.44043,53.23938],[-1.43996,53.23911],[-1.4409,53.23806],[-1.44128,53.23794],[-1.44261,53.23845],[-1.44297,53.23809],[-1.44352,53.23841],[-1.44377,53.23822],[-1.44453,53.23844],[-1.44614,53.23724],[-1.44745,53.23772],[-1.44803,53.23746],[-1.45086,53.23833],[-1.45107,53.23812],[-1.45296,53.23857],[-1.45228,53.23923],[-1.45276,53.23945],[-1.45279,53.23971],[-1.45242,53.24033],[-1.45271,53.24154],[-1.45137,53.24126],[-1.45084,53.24059],[-1.44993,53.24089],[-1.44826,53.24276]]]}},{"type":"Feature","properties":{"id":"E01019541","name":"E01019541","parent":"E07000034","type":"LSOA","pop":1576,"r":198,"ff":76,"ffd":4822.3,"ffs":0.5352,"g":55,"co":0,"mo":0,"sa":0,"ic":0},"geometry":{"type":"Polygon","coordinates":[[[-1.4556,53.26262],[-1.45576,53.2611],[-1.45914,53.26084],[-1.45907,53.25926],[-1.45961,53.25783],[-1.45789,53.25735],[-1.4518,53.25768],[-1.45117,53.25806],[-1.45069,53.25805],[-1.45014,53.25741],[-1.45116,53.25638],[-1.45277,53.25644],[-1.45348,53.256],[-1.45362,53.2556],[-1.45315,53.25556],[-1.45234,53.2561],[-1.44942,53.25579],[-1.44877,53.25608],[-1.44824,53.25516],[-1.44725,53.25472],[-1.44737,53.25354],[-1.44778,53.25321],[-1.44864,53.2534],[-1.44881,53.25236],[-1.45154,53.25259],[-1.45753,53.2542],[-1.46151,53.2546],[-1.46609,53.25594],[-1.46875,53.25647],[-1.47069,53.25727],[-1.47251,53.25829],[-1.47113,53.25941],[-1.4723,53.26001],[-1.47274,53.25979],[-1.47073,53.26115],[-1.46467,53.2628],[-1.46321,53.26287],[-1.46274,53.26232],[-1.45686,53.26306],[-1.4556,53.26262]]]}},{"type":"Feature","properties":{"id":"E01019542","name":"E01019542","parent":"E07000034","type":"LSOA","pop":1605,"r":215,"ff":84,"ffd":5233.6,"ffs":0.5455,"g":60,"co":0,"mo":0,"sa":0,"ic":0},"geometry":{"type":"Polygon","coordinates":[[[-1.42842,53.26035],[-1.42584,53.25873],[-1.42825,53.25859],[-1.42892,53.25822],[-1.42928,53.25845],[-1.42985,53.25815],[-1.42975,53.25781],[-1.43038,53.2578],[-1.43058,53.25737],[-1.43132,53.2575],[-1.43136,53.25718],[-1.4335,53.25753],[-1.43521,53.25938],[-1.43782,53.25764],[-1.43929,53.25741],[-1.43999,53.25814],[-1.43935,53.25841],[-1.44216,53.25885],[-1.442,53.25755],[-1.443,53.25742],[-1.44408,53.25792],[-1.4441,53.25856],[-1.44337,53.25944],[-1.4425,53.25928],[-1.44262,53.25969],[-1.44215,53.25982],[-1.43944,53.25959],[-1.43856,53.25988],[-1.43907,53.25997],[-1.43867,53.26045],[-1.43779,53.26065],[-1.43811,53.26116],[-1.43789,53.26159],[-1.43858,53.26315],[-1.4383,53.26353],[-1.43695,53.26387],[-1.44061,53.26557],[-1.44301,53.2661],[-1.44551,53.26638],[-1.44318,53.26894],[-1.43664,53.26739],[-1.43435,53.26446],[-1.43237,53.26229],[-1.42842,53.26035]]]}},{"type":"Feature","properties":{"id":"E01019543","name":"E01019543","parent":"E07000034","type":"LSOA","pop":2213,"r":203,"ff":79,"ffd":3569.8,"ffs":0.5411,"g":56,"co":0,"mo":0,"sa":0,"ic":0},"geometry":{"type":"Polygon","coordinates":[[[-1.45847,53.27365],[-1.45778,53.27339],[-1.45511,53.27353],[-1.45319,53.27311],[-1.44969,53.27112],[-1.44308,53.26999],[-1.44318,53.26894],[-1.44551,53.26638],[-1.44301,53.2661],[-1.44129,53.26458],[-1.44232,53.26311],[-1.44329,53.26264],[-1.44351,53.26313],[-1.44455,53.26304],[-1.44525,53.26295],[-1.4453,53.26259],[-1.44817,53.2621],[-1.44869,53.26168],[-1.44801,53.26146],[-1.44779,53.26096],[-1.4479,53.2599],[-1.44842,53.25964],[-1.44876,53.26002],[-1.4505,53.25956],[-1.45143,53.259],[-1.45117,53.25806],[-1.4518,53.25768],[-1.45789,53.25735],[-1.45961,53.25783],[-1.45907,53.25926],[-1.45914,53.26084],[-1.45576,53.2611],[-1.4556,53.26262],[-1.45686,53.26306],[-1.46274,53.26232],[-1.46321,53.26287],[-1.46467,53.2628],[-1.47073,53.26115],[-1.47274,53.25979],[-1.47321,53.26006],[-1.47376,53.25969],[-1.47438,53.26001],[-1.47468,53.25941],[-1.47584,53.25969],[-1.47866,53.26282],[-1.47975,53.26333],[-1.4806,53.26335],[-1.47905,53.26351],[-1.47543,53.26515],[-1.47485,53.2651],[-1.47329,53.26618],[-1.47227,53.26638],[-1.47011,53.26763],[-1.46787,53.26749],[-1.46653,53.26758],[-1.46637,53.26793],[-1.4642,53.268],[-1.46273,53.27035],[-1.46138,53.27209],[-1.45847,53.27365]]]}},{"type":"Feature","properties":{"id":"E01019544","name":"E01019544","parent":"E07000034","type":"LSOA","pop":1575,"r":211,"ff":83,"ffd":5269.8,"ffs":0.5497,"g":59,"co":0,"mo":0,"sa":0,"ic":0},"geometry":{"type":"Polygon","coordinates":[[[-1.43858,53.26315],[-1.43789,53.26159],[-1.43811,53.26116],[-1.43779,53.26065],[-1.43867,53.26045],[-1.43907,53.25997],[-1.43856,53.25988],[-1.43944,53.25959],[-1.44215,53.25982],[-1.44262,53.25969],[-1.4425,53.25928],[-1.44337,53.25944],[-1.4441,53.25856],[-1.44408,53.25792],[-1.443,53.25742],[-1.442,53.25755],[-1.44216,53.25885],[-1.43935,53.25841],[-1.43999,53.25814],[-1.43929,53.25741],[-1.44484,53.25692],[-1.44662,53.25632],[-1.44685,53.25608],[-1.44707,53.25323],[-1.44834,53.25212],[-1.44881,53.25236],[-1.44864,53.2534],[-1.44778,53.25321],[-1.44737,53.25354],[-1.44725,53.25472],[-1.44824,53.25516],[-1.44877,53.25608],[-1.44942,53.25579],[-1.45234,53.2561],[-1.45315,53.25556],[-1.45362,53.2556],[-1.45348,53.256],[-1.45277,53.25644],[-1.45116,53.25638],[-1.45014,53.25741],[-1.45069,53.25805],[-1.45117,53.25806],[-1.45143,53.259],[-1.4505,53.25956],[-1.44876,53.26002],[-1.44842,53.25964],[-1.4479,53.2599],[-1.44779,53.26096],[-1.44801,53.26146],[-1.44869,53.26168],[-1.44817,53.2621],[-1.4453,53.26259],[-1.44525,53.26295],[-1.44351,53.26313],[-1.44329,53.26264],[-1.44232,53.26311],[-1.44129,53.26458],[-1.44301,53.2661],[-1.44061,53.26557],[-1.43695,53.26387],[-1.4383,53.26353],[-1.43858,53.26315]]]}},{"type":"Feature","properties":{"id":"E01019545","name":"E01019545","parent":"E07000034","type":"LSOA","pop":1292,"r":223,"ff":81,"ffd":6269.3,"ffs":0.5094,"g":63,"co":0,"mo":0,"sa":0,"ic":0},"geometry":{"type":"Polygon","coordinates":[[[-1.40622,53.22167],[-1.40507,53.22136],[-1.40413,53.2216],[-1.40363,53.22141],[-1.40462,53.2201],[-1.40366,53.22004],[-1.40354,53.21958],[-1.40254,53.2196],[-1.40328,53.21896],[-1.40211,53.21887],[-1.40253,53.21829],[-1.40004,53.21708],[-1.40019,53.21686],[-1.3996,53.21517],[-1.40101,53.21396],[-1.4014,53.21375],[-1.40535,53.21432],[-1.40513,53.21464],[-1.40836,53.21556],[-1.40917,53.21564],[-1.40912,53.21543],[-1.41003,53.21567],[-1.40929,53.21618],[-1.40981,53.21645],[-1.40958,53.21664],[-1.4084,53.21655],[-1.40782,53.21713],[-1.40703,53.21649],[-1.40592,53.2168],[-1.40817,53.21741],[-1.40648,53.21798],[-1.40688,53.21915],[-1.40772,53.22007],[-1.40827,53.22014],[-1.40784,53.22045],[-1.40827,53.22066],[-1.40809,53.22106],[-1.40769,53.22129],[-1.40657,53.22107],[-1.40622,53.22167]]]}},{"type":"Feature","properties":{"id":"E01019546","name":"E01019546","parent":"E07000034","type":"LSOA","pop":1343,"r":220,"ff":81,"ffd":6031.3,"ffs":0.5192,"g":63,"co":0,"mo":0,"sa":0,"ic":0},"geometry":{"type":"Polygon","coordinates":[[[-1.40862,53.22639],[-1.40889,53.22597],[-1.40557,53.22545],[-1.40474,53.22515],[-1.40503,53.2232],[-1.40553,53.22314],[-1.40571,53.22259],[-1.40824,53.2232],[-1.40783,53.22365],[-1.40809,53.22414],[-1.40892,53.22422],[-1.40968,53.22313],[-1.40916,53.22287],[-1.40992,53.22244],[-1.40982,53.22197],[-1.41192,53.22267],[-1.41216,53.22237],[-1.41151,53.22196],[-1.41242,53.22158],[-1.40961,53.22119],[-1.40976,53.22089],[-1.41213,53.22124],[-1.41237,53.22089],[-1.41277,53.22093],[-1.41303,53.22024],[-1.41477,53.22064],[-1.41593,53.22247],[-1.41701,53.22357],[-1.4164,53.22456],[-1.41455,53.22434],[-1.41402,53.22498],[-1.4118,53.22394],[-1.41149,53.22438],[-1.41272,53.22558],[-1.41068,53.22654],[-1.40973,53.22637],[-1.40893,53.22678],[-1.40862,53.22639]]]}},{"type":"Feature","properties":{"id":"E01019547","name":"E01019547","parent":"E07000034","type":"LSOA","pop":1346,"r":225,"ff":81,"ffd":6017.8,"ffs":0.5031,"g":63,"co":0,"mo":0,"sa":0,"ic":0},"geometry":{"type":"Polygon","coordinates":[[[-1.40508,53.22643],[-1.40311,53.22601],[-1.4013,53.22634],[-1.40146,53.22601],[-1.40105,53.2259],[-1.39877,53.22602],[-1.39852,53.22523],[-1.39559,53.22272],[-1.40141,53.21777],[-1.40253,53.21829],[-1.40211,53.21887],[-1.40328,53.21896],[-1.40254,53.2196],[-1.40354,53.21958],[-1.40366,53.22004],[-1.40462,53.2201],[-1.40363,53.22141],[-1.40413,53.2216],[-1.40507,53.22136],[-1.40622,53.22167],[-1.40657,53.22107],[-1.40769,53.22129],[-1.40809,53.22106],[-1.40852,53.21947],[-1.40913,53.21963],[-1.4087,53.2213],[-1.40961,53.22119],[-1.41242,53.22158],[-1.41151,53.22196],[-1.41216,53.22237],[-1.41192,53.22267],[-1.40982,53.22197],[-1.40992,53.22244],[-1.40916,53.22287],[-1.40968,53.22313],[-1.40892,53.22422],[-1.40809,53.22414],[-1.40783,53.22365],[-1.40824,53.2232],[-1.40571,53.22259],[-1.40553,53.22314],[-1.40503,53.2232],[-1.40474,53.22515],[-1.40557,53.22545],[-1.40889,53.22597],[-1.40862,53.22639],[-1.40815,53.22621],[-1.40614,53.22656],[-1.40508,53.22643]]]}},{"type":"Feature","properties":{"id":"E01019548","name":"E01019548","parent":"E07000034","type":"LSOA","pop":2179,"r":217,"ff":79,"ffd":3625.5,"ffs":0.5163,"g":63,"co":0,"mo":0,"sa":0,"ic":0},"geometry":{"type":"Polygon","coordinates":[[[-1.42564,53.22429],[-1.42437,53.22224],[-1.42327,53.2224],[-1.42233,53.22185],[-1.42129,53.22245],[-1.42088,53.22221],[-1.42019,53.22039],[-1.41491,53.22066],[-1.41303,53.22024],[-1.41277,53.22093],[-1.41237,53.22089],[-1.41213,53.22124],[-1.40976,53.22089],[-1.40961,53.22119],[-1.4087,53.2213],[-1.40913,53.21963],[-1.40852,53.21947],[-1.40827,53.22066],[-1.40784,53.22045],[-1.40827,53.22014],[-1.40772,53.22007],[-1.40688,53.21915],[-1.40648,53.21798],[-1.40817,53.21741],[-1.40592,53.2168],[-1.40703,53.21649],[-1.40782,53.21713],[-1.4084,53.21655],[-1.40958,53.21664],[-1.40981,53.21645],[-1.40929,53.21618],[-1.41003,53.21567],[-1.40912,53.21543],[-1.40989,53.21515],[-1.41169,53.21556],[-1.41639,53.21428],[-1.42084,53.21244],[-1.42193,53.2134],[-1.42261,53.2135],[-1.42257,53.21387],[-1.42307,53.21385],[-1.42238,53.21412],[-1.42269,53.21438],[-1.42743,53.21535],[-1.4281,53.21696],[-1.42819,53.21733],[-1.42666,53.2221],[-1.42657,53.2243],[-1.42564,53.22429]]]}},{"type":"Feature","properties":{"id":"E01019549","name":"E01019549","parent":"E07000034","type":"LSOA","pop":1460,"r":195,"ff":68,"ffd":4657.5,"ffs":0.5191,"g":63,"co":2,"mo":2,"sa":2,"ic":0},"geometry":{"type":"Polygon","coordinates":[[[-1.34455,53.25428],[-1.34491,53.25192],[-1.34393,53.25057],[-1.34303,53.25064],[-1.34311,53.25255],[-1.34205,53.25382],[-1.33911,53.25415],[-1.33571,53.25347],[-1.33179,53.25428],[-1.32867,53.25405],[-1.32783,53.25435],[-1.32607,53.25435],[-1.32385,53.25263],[-1.32264,53.24122],[-1.3192,53.23958],[-1.32382,53.23751],[-1.32594,53.23616],[-1.33212,53.2367],[-1.33197,53.24159],[-1.33531,53.24129],[-1.33645,53.24186],[-1.33883,53.2415],[-1.33875,53.24061],[-1.33959,53.24008],[-1.34297,53.24044],[-1.34718,53.23962],[-1.34786,53.2418],[-1.34942,53.24292],[-1.34989,53.24516],[-1.35086,53.24639],[-1.35317,53.24585],[-1.35676,53.24574],[-1.35832,53.24516],[-1.36061,53.24793],[-1.36085,53.24928],[-1.36043,53.25042],[-1.36697,53.25085],[-1.36703,53.25133],[-1.36462,53.25123],[-1.36299,53.25256],[-1.36329,53.25283],[-1.3651,53.25289],[-1.36463,53.25418],[-1.36305,53.2542],[-1.36298,53.25318],[-1.36143,53.25299],[-1.36063,53.25246],[-1.35631,53.25318],[-1.35055,53.25305],[-1.34996,53.25403],[-1.34741,53.25416],[-1.34729,53.25453],[-1.34447,53.25473],[-1.34455,53.25428]]]}},{"type":"Feature","properties":{"id":"E01019550","name":"E01019550","parent":"E07000034","type":"LSOA","pop":1657,"r":221,"ff":87,"ffd":5250.5,"ffs":0.5541,"g":63,"co":2,"mo":0,"sa":0,"ic":0},"geometry":{"type":"Polygon","coordinates":[[[-1.36615,53.25537],[-1.36609,53.25415],[-1.36463,53.25418],[-1.3651,53.25289],[-1.36329,53.25283],[-1.36299,53.25256],[-1.36462,53.25123],[-1.36703,53.25133],[-1.36697,53.25085],[-1.36844,53.25132],[-1.37016,53.25064],[-1.37057,53.24876],[-1.37183,53.24795],[-1.37149,53.24744],[-1.37033,53.24764],[-1.37174,53.24578],[-1.37386,53.24612],[-1.37448,53.24634],[-1.37444,53.24679],[-1.37493,53.2467],[-1.37554,53.24708],[-1.37527,53.24821],[-1.37347,53.24808],[-1.37341,53.24857],[-1.37504,53.24853],[-1.37526,53.24893],[-1.37463,53.24907],[-1.37479,53.25026],[-1.37437,53.25109],[-1.3732,53.25191],[-1.37327,53.25268],[-1.37278,53.25312],[-1.37316,53.25348],[-1.37254,53.25385],[-1.37193,53.25311],[-1.37136,53.25357],[-1.37193,53.25381],[-1.37186,53.25419],[-1.36948,53.25454],[-1.36931,53.25547],[-1.36615,53.25537]]]}},{"type":"Feature","properties":{"id":"E01019551","name":"E01019551","parent":"E07000034","type":"LSOA","pop":1433,"r":218,"ff":87,"ffd":6071.2,"ffs":0.5613,"g":62,"co":2,"mo":0,"sa":0,"ic":0},"geometry":{"type":"Polygon","coordinates":[[[-1.36061,53.24793],[-1.35832,53.24516],[-1.36302,53.24432],[-1.3632,53.24391],[-1.36646,53.24273],[-1.37037,53.24196],[-1.37166,53.24119],[-1.37573,53.24087],[-1.37721,53.24116],[-1.37866,53.24216],[-1.38034,53.2438],[-1.37967,53.24835],[-1.37604,53.24804],[-1.37527,53.24821],[-1.37554,53.24708],[-1.37493,53.2467],[-1.37444,53.24679],[-1.37448,53.24634],[-1.37174,53.24578],[-1.37033,53.24764],[-1.37149,53.24744],[-1.37183,53.24795],[-1.37057,53.24876],[-1.37016,53.25064],[-1.36844,53.25132],[-1.36697,53.25085],[-1.36043,53.25042],[-1.36085,53.24928],[-1.36061,53.24793]]]}},{"type":"Feature","properties":{"id":"E01019552","name":"E01019552","parent":"E07000034","type":"LSOA","pop":1253,"r":225,"ff":89,"ffd":7103.0,"ffs":0.5528,"g":63,"co":2,"mo":0,"sa":0,"ic":0},"geometry":{"type":"Polygon","coordinates":[[[-1.37823,53.26232],[-1.3772,53.26104],[-1.37573,53.26131],[-1.37507,53.26036],[-1.37401,53.25781],[-1.3697,53.25601],[-1.36931,53.25547],[-1.36948,53.25454],[-1.37186,53.25419],[-1.37193,53.25381],[-1.37136,53.25357],[-1.37193,53.25311],[-1.37254,53.25385],[-1.37316,53.25348],[-1.37278,53.25312],[-1.37327,53.25268],[-1.3732,53.25191],[-1.37437,53.25109],[-1.37479,53.25026],[-1.37463,53.24907],[-1.37526,53.24893],[-1.37504,53.24853],[-1.37341,53.24857],[-1.37347,53.24808],[-1.37527,53.24821],[-1.37604,53.24804],[-1.37967,53.24835],[-1.37966,53.24962],[-1.37904,53.25133],[-1.38067,53.25233],[-1.3818,53.25464],[-1.38089,53.25605],[-1.3846,53.25831],[-1.38694,53.26155],[-1.3849,53.26203],[-1.38457,53.26167],[-1.38405,53.26222],[-1.38338,53.2619],[-1.38366,53.26162],[-1.38332,53.26121],[-1.3822,53.2618],[-1.38176,53.26145],[-1.38107,53.26148],[-1.37966,53.26336],[-1.37902,53.26356],[-1.37858,53.26294],[-1.37887,53.26247],[-1.37823,53.26232]]]}},{"type":"Feature","properties":{"id":"E01019553","name":"E01019553","parent":"E07000034","type":"LSOA","pop":1877,"r":222,"ff":86,"ffd":4581.8,"ffs":0.5409,"g":62,"co":2,"mo":0,"sa":0,"ic":0},"geometry":{"type":"Polygon","coordinates":[[[-1.38199,53.26723],[-1.37961,53.2668],[-1.37791,53.26701],[-1.37778,53.26563],[-1.37615,53.26571],[-1.37544,53.26364],[-1.37588,53.26334],[-1.37463,53.2612],[-1.37514,53.26043],[-1.37573,53.26131],[-1.3772,53.26104],[-1.37823,53.26232],[-1.37887,53.26247],[-1.37858,53.26294],[-1.37902,53.26356],[-1.37966,53.26336],[-1.38107,53.26148],[-1.38176,53.26145],[-1.3822,53.2618],[-1.38332,53.26121],[-1.38366,53.26162],[-1.38338,53.2619],[-1.38405,53.26222],[-1.38457,53.26167],[-1.3849,53.26203],[-1.38694,53.26155],[-1.38809,53.26248],[-1.38836,53.26435],[-1.38753,53.26628],[-1.38821,53.26695],[-1.38655,53.26766],[-1.38199,53.26723]]]}},{"type":"Feature","properties":{"id":"E01019554","name":"E01019554","parent":"E07000034","type":"LSOA","pop":1415,"r":204,"ff":77,"ffd":5441.7,"ffs":0.5347,"g":59,"co":0,"mo":0,"sa":0,"ic":0},"geometry":{"type":"Polygon","coordinates":[[[-1.44261,53.23845],[-1.44071,53.23767],[-1.44172,53.23709],[-1.44194,53.23669],[-1.44136,53.23679],[-1.44122,53.23621],[-1.44035,53.2358],[-1.44123,53.23527],[-1.44191,53.23543],[-1.44297,53.23509],[-1.44326,53.23538],[-1.44372,53.23532],[-1.44393,53.2348],[-1.44444,53.23517],[-1.44491,53.23495],[-1.44539,53.23522],[-1.44581,53.23485],[-1.44469,53.23424],[-1.44533,53.23409],[-1.44582,53.23434],[-1.44566,53.23402],[-1.44695,53.23379],[-1.44678,53.23352],[-1.44581,53.2336],[-1.4449,53.23277],[-1.44416,53.23259],[-1.44716,53.23217],[-1.44753,53.23287],[-1.44908,53.2318],[-1.44953,53.2318],[-1.44986,53.23315],[-1.45751,53.23159],[-1.4573,53.23198],[-1.45538,53.23229],[-1.45489,53.23213],[-1.45503,53.23325],[-1.45451,53.23301],[-1.4543,53.23338],[-1.45124,53.23343],[-1.45183,53.23395],[-1.45133,53.2345],[-1.45187,53.23505],[-1.45165,53.23545],[-1.45057,53.23607],[-1.45025,53.23594],[-1.45091,53.23519],[-1.44989,53.2348],[-1.44964,53.23539],[-1.4492,53.2355],[-1.44894,53.23498],[-1.44805,53.23546],[-1.44833,53.2362],[-1.44715,53.23637],[-1.44665,53.23563],[-1.44592,53.23575],[-1.44595,53.23614],[-1.44348,53.23784],[-1.44377,53.23822],[-1.44352,53.23841],[-1.44297,53.23809],[-1.44261,53.23845]]]}},{"type":"Feature","properties":{"id":"E01019555","name":"E01019555","parent":"E07000034","type":"LSOA","pop":1456,"r":201,"ff":77,"ffd":5288.5,"ffs":0.5423,"g":58,"co":0,"mo":0,"sa":0,"ic":0},"geometry":{"type":"Polygon","coordinates":[[[-1.45228,53.23923],[-1.45296,53.23857],[-1.45107,53.23812],[-1.45086,53.23833],[-1.44803,53.23746],[-1.44745,53.23772],[-1.44614,53.23724],[-1.44453,53.23844],[-1.44377,53.23822],[-1.44348,53.23784],[-1.44595,53.23614],[-1.44592,53.23575],[-1.44665,53.23563],[-1.44715,53.23637],[-1.44833,53.2362],[-1.44805,53.23546],[-1.44894,53.23498],[-1.4492,53.2355],[-1.44964,53.23539],[-1.44989,53.2348],[-1.45091,53.23519],[-1.45025,53.23594],[-1.45057,53.23607],[-1.45165,53.23545],[-1.45187,53.23505],[-1.45133,53.2345],[-1.45183,53.23395],[-1.45124,53.23343],[-1.4543,53.23338],[-1.45451,53.23301],[-1.45503,53.23325],[-1.45489,53.23213],[-1.45538,53.23229],[-1.4573,53.23198],[-1.45717,53.2338],[-1.45692,53.23431],[-1.45633,53.23408],[-1.45515,53.23611],[-1.45373,53.23738],[-1.4543,53.23811],[-1.45425,53.2388],[-1.45362,53.23935],[-1.45301,53.2392],[-1.45276,53.23945],[-1.45228,53.23923]]]}},{"type":"Feature","properties":{"id":"E01019556","name":"E01019556","parent":"E07000034","type":"LSOA","pop":1527,"r":207,"ff":77,"ffd":5042.6,"ffs":0.531,"g":61,"co":0,"mo":0,"sa":0,"ic":0},"geometry":{"type":"Polygon","coordinates":[[[-1.43943,53.23683],[-1.4372,53.23645],[-1.43614,53.23017],[-1.43716,53.23002],[-1.43704,53.22965],[-1.44023,53.22924],[-1.44164,53.22945],[-1.44372,53.22893],[-1.44526,53.2291],[-1.44612,53.22797],[-1.44591,53.22763],[-1.44666,53.2271],[-1.44908,53.2318],[-1.44753,53.23287],[-1.44716,53.23217],[-1.44416,53.23259],[-1.4449,53.23277],[-1.44581,53.2336],[-1.44678,53.23352],[-1.44695,53.23379],[-1.44566,53.23402],[-1.44582,53.23434],[-1.44533,53.23409],[-1.44469,53.23424],[-1.44581,53.23485],[-1.44539,53.23522],[-1.44491,53.23495],[-1.44444,53.23517],[-1.44393,53.2348],[-1.44372,53.23532],[-1.44326,53.23538],[-1.44297,53.23509],[-1.44191,53.23543],[-1.44123,53.23527],[-1.44035,53.2358],[-1.44122,53.23621],[-1.44136,53.23679],[-1.44194,53.23669],[-1.44172,53.23709],[-1.44071,53.23767],[-1.43943,53.23683]]]}},{"type":"Feature","properties":{"id":"E01019557","name":"E01019557","parent":"E07000034","type":"LSOA","pop":1513,"r":195,"ff":76,"ffd":5023.1,"ffs":0.5429,"g":54,"co":0,"mo":0,"sa":0,"ic":0},"geometry":{"type":"Polygon","coordinates":[[[-1.46151,53.2546],[-1.45753,53.2542],[-1.45154,53.25259],[-1.44881,53.25236],[-1.44809,53.25198],[-1.45082,53.24917],[-1.45344,53.25051],[-1.45769,53.24729],[-1.45803,53.24747],[-1.46129,53.24687],[-1.46207,53.24777],[-1.46321,53.24851],[-1.46427,53.24889],[-1.46414,53.24907],[-1.46628,53.24968],[-1.46588,53.24995],[-1.46482,53.24997],[-1.46463,53.25044],[-1.46211,53.2514],[-1.46209,53.25239],[-1.46131,53.25336],[-1.46255,53.25333],[-1.46327,53.25368],[-1.46356,53.25338],[-1.46413,53.25343],[-1.46387,53.25433],[-1.46463,53.25449],[-1.46461,53.25388],[-1.46508,53.25408],[-1.46589,53.25388],[-1.46533,53.25431],[-1.46539,53.25472],[-1.46582,53.25477],[-1.46518,53.2557],[-1.46151,53.2546]]]}},{"type":"Feature","properties":{"id":"E01019558","name":"E01019558","parent":"E07000034","type":"LSOA","pop":1265,"r":191,"ff":75,"ffd":5928.9,"ffs":0.5474,"g":53,"co":0,"mo":0,"sa":0,"ic":0},"geometry":{"type":"Polygon","coordinates":[[[-1.47069,53.25727],[-1.46875,53.25647],[-1.46518,53.2557],[-1.46582,53.25477],[-1.46539,53.25472],[-1.46533,53.25431],[-1.46589,53.25388],[-1.46508,53.25408],[-1.46461,53.25388],[-1.46463,53.25449],[-1.46387,53.25433],[-1.46413,53.25343],[-1.46356,53.25338],[-1.46327,53.25368],[-1.46255,53.25333],[-1.46131,53.25336],[-1.46209,53.25239],[-1.46211,53.2514],[-1.46463,53.25044],[-1.46482,53.24997],[-1.46588,53.24995],[-1.46628,53.24968],[-1.46414,53.24907],[-1.46427,53.24889],[-1.46567,53.24923],[-1.46736,53.24918],[-1.46921,53.24842],[-1.47079,53.24738],[-1.47263,53.24669],[-1.47406,53.24554],[-1.47572,53.24544],[-1.47477,53.24589],[-1.47455,53.24647],[-1.47592,53.24614],[-1.47695,53.24639],[-1.47673,53.24742],[-1.47804,53.24724],[-1.47758,53.24664],[-1.47914,53.24654],[-1.47914,53.24597],[-1.4796,53.24578],[-1.48009,53.24584],[-1.48009,53.24719],[-1.47972,53.24708],[-1.47922,53.24766],[-1.47872,53.24767],[-1.47914,53.24827],[-1.47853,53.24852],[-1.4779,53.24822],[-1.47671,53.24862],[-1.47478,53.24875],[-1.47394,53.24915],[-1.47385,53.24983],[-1.47493,53.25007],[-1.4759,53.25081],[-1.47816,53.25099],[-1.47879,53.25229],[-1.47507,53.25348],[-1.47627,53.2547],[-1.47352,53.25724],[-1.47221,53.25653],[-1.47069,53.25727]]]}},{"type":"Feature","properties":{"id":"E01019559","name":"E01019559","parent":"E07000034","type":"LSOA","pop":1059,"r":184,"ff":72,"ffd":6798.9,"ffs":0.5538,"g":53,"co":2,"mo":0,"sa":0,"ic":0},"geometry":{"type":"Polygon","coordinates":[[[-1.47922,53.24766],[-1.47972,53.24708],[-1.48009,53.24719],[-1.48009,53.24584],[-1.4796,53.24578],[-1.47914,53.24597],[-1.47914,53.24654],[-1.47758,53.24664],[-1.47804,53.24724],[-1.47673,53.24742],[-1.47695,53.24639],[-1.47592,53.24614],[-1.47455,53.24647],[-1.47477,53.24589],[-1.47572,53.24544],[-1.47406,53.24554],[-1.4742,53.24424],[-1.47305,53.24413],[-1.47334,53.24342],[-1.47077,53.24335],[-1.47002,53.2436],[-1.46975,53.24194],[-1.4662,53.24162],[-1.46625,53.23969],[-1.46664,53.23946],[-1.47186,53.23949],[-1.47509,53.23982],[-1.47755,53.23972],[-1.47897,53.2425],[-1.47855,53.24341],[-1.47909,53.24351],[-1.4809,53.24513],[-1.48171,53.24648],[-1.48098,53.24665],[-1.48131,53.24786],[-1.48075,53.2485],[-1.47979,53.24865],[-1.47914,53.24827],[-1.47872,53.24767],[-1.47922,53.24766]]]}},{"type":"Feature","properties":{"id":"E01019560","name":"E01019560","parent":"E07000034","type":"LSOA","pop":1300,"r":199,"ff":76,"ffd":5846.2,"ffs":0.5315,"g":55,"co":0,"mo":0,"sa":0,"ic":0},"geometry":{"type":"Polygon","coordinates":[[[-1.46207,53.24777],[-1.46129,53.24687],[-1.45803,53.24747],[-1.45769,53.24729],[-1.45662,53.24648],[-1.45476,53.24557],[-1.45488,53.24481],[-1.4542,53.24415],[-1.45432,53.24341],[-1.45341,53.24276],[-1.45472,53.24223],[-1.45799,53.24326],[-1.4612,53.24305],[-1.4627,53.24278],[-1.46433,53.24172],[-1.4662,53.24162],[-1.46975,53.24194],[-1.46986,53.24253],[-1.46852,53.24354],[-1.46878,53.24426],[-1.46809,53.24413],[-1.46641,53.24448],[-1.46618,53.24502],[-1.4665,53.24519],[-1.46625,53.24598],[-1.46703,53.24628],[-1.46757,53.24751],[-1.46689,53.2475],[-1.46633,53.24687],[-1.46559,53.24667],[-1.46532,53.24638],[-1.46421,53.24623],[-1.4627,53.24713],[-1.46283,53.24754],[-1.46207,53.24777]]]}},{"type":"Feature","properties":{"id":"E01019561","name":"E01019561","parent":"E07000034","type":"LSOA","pop":1244,"r":193,"ff":75,"ffd":6028.9,"ffs":0.5396,"g":53,"co":0,"mo":0,"sa":0,"ic":0},"geometry":{"type":"Polygon","coordinates":[[[-1.46283,53.24754],[-1.4627,53.24713],[-1.46421,53.24623],[-1.46532,53.24638],[-1.46559,53.24667],[-1.46633,53.24687],[-1.46689,53.2475],[-1.46757,53.24751],[-1.46703,53.24628],[-1.46625,53.24598],[-1.4665,53.24519],[-1.46618,53.24502],[-1.46641,53.24448],[-1.46809,53.24413],[-1.46878,53.24426],[-1.46852,53.24354],[-1.46986,53.24253],[-1.47002,53.2436],[-1.47077,53.24335],[-1.47334,53.24342],[-1.47305,53.24413],[-1.4742,53.24424],[-1.47406,53.24554],[-1.47263,53.24669],[-1.47079,53.24738],[-1.46921,53.24842],[-1.46736,53.24918],[-1.46567,53.24923],[-1.46427,53.24889],[-1.46321,53.24851],[-1.46207,53.24777],[-1.46283,53.24754]]]}},{"type":"Feature","properties":{"id":"E01019562","name":"E01019562","parent":"E07000034","type":"LSOA","pop":1297,"r":199,"ff":77,"ffd":5936.8,"ffs":0.5385,"g":55,"co":0,"mo":0,"sa":0,"ic":0},"geometry":{"type":"Polygon","coordinates":[[[-1.44826,53.24276],[-1.44993,53.24089],[-1.45084,53.24059],[-1.45137,53.24126],[-1.45271,53.24154],[-1.45242,53.24033],[-1.45279,53.23971],[-1.45473,53.23976],[-1.45608,53.24259],[-1.45472,53.24223],[-1.45341,53.24276],[-1.45432,53.24341],[-1.4542,53.24415],[-1.45488,53.24481],[-1.45476,53.24557],[-1.45662,53.24648],[-1.45769,53.24729],[-1.45344,53.25051],[-1.45082,53.24917],[-1.45111,53.24885],[-1.45008,53.24747],[-1.44997,53.24694],[-1.45018,53.2447],[-1.44873,53.24381],[-1.4489,53.24313],[-1.44826,53.24276]]]}},{"type":"Feature","properties":{"id":"E01019563","name":"E01019563","parent":"E07000034","type":"LSOA","pop":1725,"r":149,"ff":49,"ffd":2840.6,"ffs":0.5158,"g":53,"co":2,"mo":0,"sa":2,"ic":0},"geometry":{"type":"Polygon","coordinates":[[[-1.33717,53.28833],[-1.33644,53.28807],[-1.33611,53.28885],[-1.33363,53.28976],[-1.32259,53.28138],[-1.3167,53.28166],[-1.30905,53.27539],[-1.30726,53.27546],[-1.30593,53.27363],[-1.30598,53.27262],[-1.30539,53.27158],[-1.30829,53.27141],[-1.31417,53.27305],[-1.31586,53.27295],[-1.31929,53.27174],[-1.32277,53.27144],[-1.32597,53.27182],[-1.32682,53.27237],[-1.32892,53.27186],[-1.33337,53.27289],[-1.33241,53.27312],[-1.33175,53.27535],[-1.33066,53.27513],[-1.32717,53.2756],[-1.32914,53.27559],[-1.32879,53.2777],[-1.32965,53.27851],[-1.33108,53.27865],[-1.33202,53.27913],[-1.33485,53.27697],[-1.33634,53.27677],[-1.33751,53.27781],[-1.34245,53.27776],[-1.34076,53.28065],[-1.34622,53.28053],[-1.34535,53.28412],[-1.34565,53.28574],[-1.34266,53.2857],[-1.34113,53.28746],[-1.34036,53.2877],[-1.33922,53.28876],[-1.33969,53.28912],[-1.33907,53.28986],[-1.33727,53.28957],[-1.33717,53.28833]]]}},{"type":"Feature","properties":{"id":"E01019564","name":"E01019564","parent":"E07000034","type":"LSOA","pop":1773,"r":177,"ff":63,"ffd":3553.3,"ffs":0.5294,"g":57,"co":2,"mo":0,"sa":2,"ic":0},"geometry":{"type":"Polygon","coordinates":[[[-1.32879,53.2777],[-1.32914,53.27559],[-1.32717,53.2756],[-1.33066,53.27513],[-1.33175,53.27535],[-1.33241,53.27312],[-1.33337,53.27289],[-1.32892,53.27186],[-1.32682,53.27237],[-1.32597,53.27182],[-1.32277,53.27144],[-1.31929,53.27174],[-1.31586,53.27295],[-1.31417,53.27305],[-1.30829,53.27141],[-1.30539,53.27158],[-1.30471,53.26998],[-1.30348,53.26949],[-1.30162,53.26698],[-1.30218,53.26662],[-1.30209,53.26535],[-1.30131,53.2639],[-1.30262,53.26327],[-1.30938,53.26344],[-1.31668,53.2625],[-1.3216,53.26103],[-1.32258,53.25979],[-1.32394,53.25916],[-1.33126,53.25723],[-1.33564,53.25907],[-1.33699,53.26214],[-1.3385,53.26328],[-1.33858,53.26419],[-1.34005,53.26414],[-1.3411,53.26488],[-1.34136,53.26554],[-1.33851,53.26611],[-1.3349,53.26518],[-1.33372,53.26768],[-1.33717,53.26833],[-1.33898,53.26722],[-1.33998,53.26698],[-1.34082,53.26778],[-1.34252,53.26851],[-1.34303,53.26861],[-1.34348,53.26832],[-1.3435,53.26858],[-1.34514,53.26853],[-1.34611,53.26883],[-1.34612,53.26931],[-1.34445,53.26928],[-1.34446,53.26976],[-1.3437,53.26973],[-1.34369,53.27018],[-1.34453,53.27026],[-1.3446,53.27082],[-1.34527,53.27129],[-1.34579,53.27081],[-1.34749,53.2711],[-1.34713,53.27275],[-1.34578,53.27266],[-1.34546,53.27241],[-1.34245,53.27776],[-1.33751,53.27781],[-1.33634,53.27677],[-1.33485,53.27697],[-1.33202,53.27913],[-1.33108,53.27865],[-1.32965,53.27851],[-1.32879,53.2777]]]}},{"type":"Feature","properties":{"id":"E01019565","name":"E01019565","parent":"E07000034","type":"LSOA","pop":1345,"r":197,"ff":72,"ffd":5353.2,"ffs":0.5414,"g":63,"co":2,"mo":0,"sa":2,"ic":0},"geometry":{"type":"Polygon","coordinates":[[[-1.34922,53.2866],[-1.34844,53.28569],[-1.34733,53.28615],[-1.34669,53.28572],[-1.34565,53.28574],[-1.34535,53.28412],[-1.34622,53.28053],[-1.34076,53.28065],[-1.34546,53.27241],[-1.34578,53.27266],[-1.34713,53.27275],[-1.34749,53.2711],[-1.34579,53.27081],[-1.34527,53.27129],[-1.3446,53.27082],[-1.34453,53.27026],[-1.34369,53.27018],[-1.3437,53.26973],[-1.34446,53.26976],[-1.34445,53.26928],[-1.34612,53.26931],[-1.34611,53.26883],[-1.34514,53.26853],[-1.3435,53.26858],[-1.34348,53.26832],[-1.34303,53.26861],[-1.34252,53.26851],[-1.34082,53.26778],[-1.33998,53.26698],[-1.33898,53.26722],[-1.33717,53.26833],[-1.33372,53.26768],[-1.3349,53.26518],[-1.33851,53.26611],[-1.34136,53.26554],[-1.3411,53.26488],[-1.34005,53.26414],[-1.33858,53.26419],[-1.3385,53.26328],[-1.33699,53.26214],[-1.33661,53.26128],[-1.33844,53.26133],[-1.34222,53.26325],[-1.3431,53.26294],[-1.34444,53.26314],[-1.34602,53.26111],[-1.3476,53.26112],[-1.34808,53.26208],[-1.35248,53.26256],[-1.35269,53.26387],[-1.35134,53.2661],[-1.35016,53.26687],[-1.34979,53.26867],[-1.35226,53.26868],[-1.35548,53.26951],[-1.35373,53.27254],[-1.35457,53.27271],[-1.35547,53.27358],[-1.35533,53.27413],[-1.35406,53.27463],[-1.35373,53.27539],[-1.35459,53.27654],[-1.35645,53.27749],[-1.35663,53.27798],[-1.35608,53.27866],[-1.35648,53.2802],[-1.35553,53.2805],[-1.35606,53.28185],[-1.35417,53.28583],[-1.35317,53.2865],[-1.34922,53.2866]]]}},{"type":"Feature","properties":{"id":"E01019566","name":"E01019566","parent":"E07000034","type":"LSOA","pop":2045,"r":142,"ff":45,"ffd":2200.5,"ffs":0.5172,"g":54,"co":2,"mo":0,"sa":0,"ic":0},"geometry":{"type":"Polygon","coordinates":[[[-1.35172,53.2654],[-1.35269,53.26387],[-1.35248,53.26256],[-1.34808,53.26208],[-1.3476,53.26112],[-1.34602,53.26111],[-1.34444,53.26314],[-1.3431,53.26294],[-1.34222,53.26325],[-1.33844,53.26133],[-1.33661,53.26128],[-1.33564,53.25907],[-1.33126,53.25723],[-1.32607,53.25435],[-1.32783,53.25435],[-1.32867,53.25405],[-1.33179,53.25428],[-1.33571,53.25347],[-1.33911,53.25415],[-1.34205,53.25382],[-1.34311,53.25255],[-1.34303,53.25064],[-1.34393,53.25057],[-1.34491,53.25192],[-1.34447,53.25473],[-1.34729,53.25453],[-1.34741,53.25416],[-1.34996,53.25403],[-1.35055,53.25305],[-1.35631,53.25318],[-1.36063,53.25246],[-1.36143,53.25299],[-1.36038,53.25466],[-1.36285,53.25565],[-1.36292,53.25627],[-1.36142,53.25691],[-1.36088,53.25668],[-1.36049,53.2571],[-1.36009,53.25831],[-1.36018,53.25917],[-1.36063,53.25919],[-1.36006,53.25921],[-1.35977,53.25966],[-1.35697,53.26092],[-1.3561,53.26105],[-1.35539,53.26289],[-1.35736,53.26311],[-1.35839,53.26291],[-1.3588,53.26331],[-1.35792,53.26434],[-1.35845,53.26429],[-1.3583,53.26453],[-1.35705,53.26518],[-1.35709,53.2657],[-1.35554,53.26649],[-1.35548,53.26718],[-1.35589,53.26769],[-1.35518,53.26827],[-1.35609,53.26894],[-1.35548,53.26951],[-1.35226,53.26868],[-1.34979,53.26867],[-1.35016,53.26687],[-1.35134,53.2661],[-1.35172,53.2654]]]}},{"type":"Feature","properties":{"id":"E01019567","name":"E01019567","parent":"E07000034","type":"LSOA","pop":1796,"r":232,"ff":87,"ffd":4844.1,"ffs":0.5179,"g":63,"co":2,"mo":0,"sa":0,"ic":0},"geometry":{"type":"Polygon","coordinates":[[[-1.35589,53.26769],[-1.35548,53.26718],[-1.35554,53.26649],[-1.35709,53.2657],[-1.35705,53.26518],[-1.3583,53.26453],[-1.35845,53.26429],[-1.35792,53.26434],[-1.3588,53.26331],[-1.35839,53.26291],[-1.35736,53.26311],[-1.35539,53.26289],[-1.3561,53.26105],[-1.35697,53.26092],[-1.35897,53.26161],[-1.35962,53.26223],[-1.35919,53.26272],[-1.35952,53.26321],[-1.36001,53.26335],[-1.36027,53.26311],[-1.36285,53.26287],[-1.36293,53.26318],[-1.3658,53.2622],[-1.36719,53.26083],[-1.36679,53.26052],[-1.36861,53.26],[-1.36786,53.25949],[-1.36694,53.2595],[-1.36677,53.25895],[-1.36613,53.25883],[-1.36506,53.25915],[-1.36531,53.25886],[-1.36506,53.2585],[-1.36377,53.25877],[-1.36303,53.25817],[-1.36305,53.25755],[-1.36185,53.25735],[-1.36129,53.25819],[-1.36071,53.25819],[-1.36063,53.25919],[-1.36018,53.25917],[-1.36009,53.25831],[-1.36049,53.2571],[-1.36088,53.25668],[-1.36142,53.25691],[-1.36292,53.25627],[-1.36285,53.25565],[-1.36038,53.25466],[-1.36143,53.25299],[-1.36298,53.25318],[-1.36305,53.2542],[-1.36609,53.25415],[-1.36615,53.25537],[-1.36931,53.25547],[-1.3697,53.25601],[-1.37401,53.25781],[-1.37514,53.26043],[-1.37463,53.2612],[-1.37588,53.26334],[-1.37544,53.26364],[-1.37615,53.26571],[-1.37603,53.26615],[-1.36867,53.26478],[-1.36849,53.26513],[-1.36537,53.26523],[-1.36501,53.26611],[-1.36291,53.26616],[-1.36048,53.26704],[-1.35935,53.26789],[-1.35867,53.26749],[-1.35609,53.26894],[-1.35518,53.26827],[-1.35589,53.26769]]]}},{"type":"Feature","properties":{"id":"E01019568","name":"E01019568","parent":"E07000034","type":"LSOA","pop":1451,"r":210,"ff":79,"ffd":5444.5,"ffs":0.5374,"g":62,"co":2,"mo":0,"sa":0,"ic":0},"geometry":{"type":"Polygon","coordinates":[[[-1.35952,53.26321],[-1.35919,53.26272],[-1.35962,53.26223],[-1.35897,53.26161],[-1.35697,53.26092],[-1.35977,53.25966],[-1.36006,53.25921],[-1.36063,53.25919],[-1.36071,53.25819],[-1.36129,53.25819],[-1.36185,53.25735],[-1.36305,53.25755],[-1.36303,53.25817],[-1.36377,53.25877],[-1.36506,53.2585],[-1.36531,53.25886],[-1.36506,53.25915],[-1.36613,53.25883],[-1.36677,53.25895],[-1.36694,53.2595],[-1.36786,53.25949],[-1.36861,53.26],[-1.36679,53.26052],[-1.36719,53.26083],[-1.3658,53.2622],[-1.36293,53.26318],[-1.36285,53.26287],[-1.36027,53.26311],[-1.36001,53.26335],[-1.35952,53.26321]]]}},{"type":"Feature","properties":{"id":"E01019569","name":"E01019569","parent":"E07000034","type":"LSOA","pop":1531,"r":215,"ff":83,"ffd":5421.3,"ffs":0.539,"g":60,"co":0,"mo":0,"sa":0,"ic":0},"geometry":{"type":"Polygon","coordinates":[[[-1.42422,53.25696],[-1.42242,53.25347],[-1.42031,53.25514],[-1.41924,53.25461],[-1.41887,53.25043],[-1.41851,53.2488],[-1.41941,53.24857],[-1.41973,53.249],[-1.4228,53.24866],[-1.4229,53.24904],[-1.42711,53.24862],[-1.42767,53.24931],[-1.42885,53.24947],[-1.42913,53.25005],[-1.43036,53.25048],[-1.43071,53.25085],[-1.43018,53.25108],[-1.43223,53.25181],[-1.43199,53.25207],[-1.43001,53.2526],[-1.43047,53.25315],[-1.43233,53.2526],[-1.43319,53.25328],[-1.43384,53.25272],[-1.43446,53.25282],[-1.43519,53.25427],[-1.43461,53.25456],[-1.43475,53.25496],[-1.43432,53.25506],[-1.43473,53.25567],[-1.43416,53.25572],[-1.4342,53.25624],[-1.43327,53.25621],[-1.43307,53.25573],[-1.43346,53.25568],[-1.43125,53.25438],[-1.43057,53.25512],[-1.43137,53.25559],[-1.4302,53.25627],[-1.4295,53.25608],[-1.42905,53.25546],[-1.42758,53.25584],[-1.42917,53.25744],[-1.42872,53.25771],[-1.42892,53.25822],[-1.42825,53.25859],[-1.42584,53.25873],[-1.42422,53.25696]]]}},{"type":"Feature","properties":{"id":"E01019570","name":"E01019570","parent":"E07000034","type":"LSOA","pop":1252,"r":214,"ff":83,"ffd":6629.4,"ffs":0.5425,"g":60,"co":0,"mo":0,"sa":0,"ic":0},"geometry":{"type":"Polygon","coordinates":[[[-1.44651,53.25606],[-1.44654,53.25571],[-1.44561,53.25575],[-1.4452,53.25458],[-1.44469,53.25495],[-1.4434,53.25476],[-1.44113,53.25499],[-1.44159,53.25459],[-1.4409,53.25427],[-1.44156,53.25385],[-1.44113,53.25278],[-1.43974,53.25278],[-1.43845,53.25431],[-1.43883,53.25429],[-1.43891,53.25474],[-1.43763,53.25502],[-1.43665,53.25575],[-1.43475,53.25496],[-1.43461,53.25456],[-1.43519,53.25427],[-1.43446,53.25282],[-1.43384,53.25272],[-1.43319,53.25328],[-1.43233,53.2526],[-1.43047,53.25315],[-1.43001,53.2526],[-1.43199,53.25207],[-1.43223,53.25181],[-1.43018,53.25108],[-1.43071,53.25085],[-1.43036,53.25048],[-1.43109,53.25031],[-1.43272,53.25103],[-1.43441,53.25229],[-1.44108,53.25084],[-1.4427,53.25068],[-1.4464,53.2511],[-1.44834,53.25212],[-1.44707,53.25323],[-1.44685,53.25608],[-1.44651,53.25606]]]}},{"type":"Feature","properties":{"id":"E01019571","name":"E01019571","parent":"E07000034","type":"LSOA","pop":1496,"r":214,"ff":83,"ffd":5548.1,"ffs":0.5425,"g":60,"co":0,"mo":0,"sa":0,"ic":0},"geometry":{"type":"Polygon","coordinates":[[[-1.4335,53.25753],[-1.43136,53.25718],[-1.43132,53.2575],[-1.43058,53.25737],[-1.43038,53.2578],[-1.42975,53.25781],[-1.42985,53.25815],[-1.42928,53.25845],[-1.42892,53.25822],[-1.42872,53.25771],[-1.42917,53.25744],[-1.42758,53.25584],[-1.42905,53.25546],[-1.4295,53.25608],[-1.4302,53.25627],[-1.43137,53.25559],[-1.43057,53.25512],[-1.43125,53.25438],[-1.43346,53.25568],[-1.43307,53.25573],[-1.43327,53.25621],[-1.4342,53.25624],[-1.43416,53.25572],[-1.43473,53.25567],[-1.43432,53.25506],[-1.43475,53.25496],[-1.43673,53.25575],[-1.43763,53.25502],[-1.43891,53.25474],[-1.43883,53.25429],[-1.43845,53.25431],[-1.43974,53.25278],[-1.44113,53.25278],[-1.44156,53.25385],[-1.4409,53.25427],[-1.44159,53.25459],[-1.44113,53.25499],[-1.4434,53.25476],[-1.44469,53.25495],[-1.4452,53.25458],[-1.44561,53.25575],[-1.44654,53.25571],[-1.44651,53.25606],[-1.44685,53.25608],[-1.44662,53.25632],[-1.44484,53.25692],[-1.43782,53.25764],[-1.43521,53.25938],[-1.4335,53.25753]]]}},{"type":"Feature","properties":{"id":"E01019572","name":"E01019572","parent":"E07000034","type":"LSOA","pop":1402,"r":214,"ff":83,"ffd":5920.1,"ffs":0.5425,"g":60,"co":0,"mo":0,"sa":0,"ic":0},"geometry":{"type":"Polygon","coordinates":[[[-1.41839,53.27275],[-1.41945,53.27202],[-1.41898,53.27134],[-1.41805,53.27145],[-1.41647,53.2705],[-1.41755,53.26994],[-1.4173,53.26949],[-1.41623,53.26963],[-1.41623,53.26991],[-1.41572,53.26982],[-1.41574,53.26863],[-1.41405,53.26857],[-1.41385,53.26769],[-1.40984,53.26685],[-1.41364,53.26427],[-1.41302,53.26354],[-1.41641,53.26365],[-1.41741,53.264],[-1.41718,53.26478],[-1.42206,53.26475],[-1.42189,53.26498],[-1.42295,53.26561],[-1.42281,53.26594],[-1.42194,53.26598],[-1.42131,53.2665],[-1.4222,53.26697],[-1.42373,53.26698],[-1.42254,53.26825],[-1.42069,53.26765],[-1.41939,53.26767],[-1.42164,53.26849],[-1.42385,53.26904],[-1.42477,53.26887],[-1.42504,53.26931],[-1.42593,53.26913],[-1.42638,53.26925],[-1.42567,53.26969],[-1.42603,53.27007],[-1.4249,53.27045],[-1.42384,53.27036],[-1.42388,53.2706],[-1.42545,53.27095],[-1.42596,53.27175],[-1.42479,53.27218],[-1.42344,53.27215],[-1.42217,53.27387],[-1.4222,53.27321],[-1.41949,53.27313],[-1.41839,53.27275]]]}},{"type":"Feature","properties":{"id":"E01019573","name":"E01019573","parent":"E07000034","type":"LSOA","pop":1794,"r":216,"ff":84,"ffd":4682.3,"ffs":0.5419,"g":60,"co":0,"mo":0,"sa":0,"ic":0},"geometry":{"type":"Polygon","coordinates":[[[-1.45582,53.2825],[-1.45445,53.28138],[-1.45159,53.28193],[-1.44791,53.28315],[-1.44712,53.28285],[-1.44394,53.2827],[-1.44163,53.28195],[-1.43908,53.28022],[-1.43866,53.28062],[-1.43595,53.28092],[-1.43219,53.28187],[-1.42324,53.28271],[-1.4225,53.28232],[-1.42362,53.28084],[-1.42139,53.281],[-1.42178,53.27869],[-1.4234,53.27853],[-1.42326,53.27439],[-1.42253,53.27433],[-1.42217,53.27387],[-1.42344,53.27215],[-1.42479,53.27218],[-1.42596,53.27175],[-1.42545,53.27095],[-1.42388,53.2706],[-1.42384,53.27036],[-1.4249,53.27045],[-1.42686,53.26981],[-1.42768,53.27153],[-1.4297,53.27193],[-1.43043,53.27175],[-1.43013,53.27245],[-1.43191,53.27235],[-1.43166,53.27095],[-1.43128,53.27048],[-1.42706,53.26839],[-1.42683,53.26797],[-1.42776,53.26837],[-1.42871,53.26779],[-1.42682,53.26744],[-1.42756,53.26624],[-1.42955,53.26586],[-1.43154,53.26482],[-1.43435,53.26446],[-1.43664,53.26739],[-1.44318,53.26894],[-1.44308,53.26999],[-1.44969,53.27112],[-1.45319,53.27311],[-1.45511,53.27353],[-1.45778,53.27339],[-1.45847,53.27365],[-1.46138,53.27209],[-1.46273,53.27035],[-1.46542,53.27031],[-1.46508,53.27223],[-1.46689,53.27396],[-1.46694,53.27464],[-1.4649,53.27494],[-1.46525,53.276],[-1.46491,53.27721],[-1.4658,53.27808],[-1.4644,53.27846],[-1.46081,53.27806],[-1.45979,53.27994],[-1.45851,53.28309],[-1.45707,53.28375],[-1.45582,53.2825]]]}},{"type":"Feature","properties":{"id":"E01019574","name":"E01019574","parent":"E07000034","type":"LSOA","pop":1252,"r":216,"ff":84,"ffd":6709.3,"ffs":0.5419,"g":60,"co":0,"mo":0,"sa":0,"ic":0},"geometry":{"type":"Polygon","coordinates":[[[-1.43013,53.27245],[-1.43043,53.27175],[-1.4297,53.27193],[-1.42768,53.27153],[-1.42686,53.26981],[-1.42603,53.27007],[-1.42567,53.26969],[-1.42638,53.26925],[-1.42593,53.26913],[-1.42504,53.26931],[-1.42477,53.26887],[-1.42385,53.26904],[-1.42164,53.26849],[-1.41939,53.26767],[-1.42069,53.26765],[-1.42254,53.26825],[-1.42373,53.26698],[-1.4222,53.26697],[-1.42131,53.2665],[-1.42194,53.26598],[-1.42281,53.26594],[-1.42295,53.26561],[-1.42189,53.26498],[-1.42206,53.26475],[-1.41718,53.26478],[-1.41741,53.264],[-1.41641,53.26365],[-1.41302,53.26354],[-1.41278,53.26316],[-1.41458,53.25884],[-1.41604,53.25861],[-1.41505,53.25789],[-1.41685,53.25737],[-1.41633,53.25702],[-1.41653,53.25632],[-1.41803,53.25658],[-1.41793,53.25606],[-1.41877,53.25602],[-1.41857,53.25544],[-1.41895,53.25511],[-1.41953,53.25541],[-1.42031,53.25514],[-1.42242,53.25347],[-1.42422,53.25696],[-1.42584,53.25873],[-1.42842,53.26035],[-1.43237,53.26229],[-1.43435,53.26446],[-1.43154,53.26482],[-1.42955,53.26586],[-1.42756,53.26624],[-1.42682,53.26744],[-1.42871,53.26779],[-1.42776,53.26837],[-1.42683,53.26797],[-1.42706,53.26839],[-1.43128,53.27048],[-1.43166,53.27095],[-1.43191,53.27235],[-1.43013,53.27245]]]}},{"type":"Feature","properties":{"id":"E01019575","name":"E01019575","parent":"E07000034","type":"LSOA","pop":1714,"r":210,"ff":77,"ffd":4492.4,"ffs":0.5203,"g":61,"co":0,"mo":0,"sa":0,"ic":0},"geometry":{"type":"Polygon","coordinates":[[[-1.42948,53.22781],[-1.42881,53.22682],[-1.42693,53.22564],[-1.42774,53.22485],[-1.42676,53.22453],[-1.42657,53.2243],[-1.42666,53.2221],[-1.42745,53.21986],[-1.42811,53.22],[-1.42736,53.22089],[-1.42788,53.22083],[-1.42913,53.22167],[-1.4324,53.22259],[-1.43286,53.22217],[-1.43346,53.22262],[-1.43318,53.22327],[-1.4339,53.22336],[-1.43408,53.22376],[-1.43474,53.22396],[-1.43337,53.22437],[-1.43425,53.22492],[-1.43362,53.22508],[-1.43371,53.22634],[-1.4338,53.22676],[-1.4346,53.22681],[-1.43449,53.22707],[-1.43363,53.22761],[-1.43254,53.22722],[-1.43226,53.22767],[-1.43177,53.22732],[-1.43089,53.22738],[-1.42948,53.22781]]]}},{"type":"Feature","properties":{"id":"E01019576","name":"E01019576","parent":"E07000034","type":"LSOA","pop":1561,"r":208,"ff":77,"ffd":4932.7,"ffs":0.5274,"g":61,"co":0,"mo":0,"sa":0,"ic":0},"geometry":{"type":"Polygon","coordinates":[[[-1.43614,53.23017],[-1.43449,53.22707],[-1.4346,53.22681],[-1.4338,53.22676],[-1.43362,53.22508],[-1.43425,53.22492],[-1.43337,53.22437],[-1.43474,53.22396],[-1.43504,53.22332],[-1.43708,53.22306],[-1.43779,53.22232],[-1.4385,53.22213],[-1.43739,53.22154],[-1.43758,53.22092],[-1.4379,53.22112],[-1.43898,53.22077],[-1.44156,53.22288],[-1.44045,53.22301],[-1.44055,53.22346],[-1.44415,53.22325],[-1.44443,53.22432],[-1.44313,53.22455],[-1.44322,53.22602],[-1.44422,53.22595],[-1.44477,53.22676],[-1.44625,53.22646],[-1.44796,53.22684],[-1.44666,53.2271],[-1.44591,53.22763],[-1.44612,53.22797],[-1.44526,53.2291],[-1.44372,53.22893],[-1.44164,53.22945],[-1.44023,53.22924],[-1.43704,53.22965],[-1.43716,53.23002],[-1.43614,53.23017]]]}},{"type":"Feature","properties":{"id":"E01019577","name":"E01019577","parent":"E07000034","type":"LSOA","pop":1539,"r":206,"ff":76,"ffd":4938.3,"ffs":0.5278,"g":61,"co":0,"mo":0,"sa":0,"ic":0},"geometry":{"type":"Polygon","coordinates":[[[-1.43711,53.21865],[-1.43671,53.21854],[-1.4364,53.21914],[-1.43566,53.21917],[-1.4352,53.21881],[-1.43513,53.21824],[-1.43425,53.21795],[-1.4308,53.21827],[-1.43264,53.21932],[-1.42736,53.22089],[-1.42811,53.22],[-1.42745,53.21986],[-1.42819,53.21733],[-1.42743,53.21535],[-1.42928,53.21543],[-1.43345,53.21382],[-1.43728,53.21315],[-1.44,53.21359],[-1.44071,53.21711],[-1.43816,53.2202],[-1.43898,53.22077],[-1.4379,53.22112],[-1.43758,53.22092],[-1.43744,53.2204],[-1.43659,53.22002],[-1.43722,53.21939],[-1.4368,53.21933],[-1.43711,53.21865]]]}},{"type":"Feature","properties":{"id":"E01019578","name":"E01019578","parent":"E07000034","type":"LSOA","pop":1603,"r":208,"ff":76,"ffd":4741.1,"ffs":0.5205,"g":61,"co":0,"mo":0,"sa":0,"ic":0},"geometry":{"type":"Polygon","coordinates":[[[-1.43346,53.22262],[-1.43286,53.22217],[-1.4324,53.22259],[-1.42913,53.22167],[-1.42788,53.22083],[-1.43264,53.21932],[-1.4308,53.21827],[-1.43425,53.21795],[-1.43513,53.21824],[-1.4352,53.21881],[-1.43566,53.21917],[-1.4364,53.21914],[-1.43671,53.21854],[-1.43711,53.21865],[-1.4368,53.21933],[-1.43722,53.21939],[-1.43659,53.22002],[-1.43744,53.2204],[-1.43758,53.22092],[-1.43739,53.22154],[-1.4385,53.22213],[-1.43779,53.22232],[-1.43708,53.22306],[-1.43504,53.22332],[-1.4347,53.22391],[-1.43408,53.22376],[-1.4339,53.22336],[-1.43318,53.22327],[-1.43346,53.22262]]]}},{"type":"Feature","properties":{"id":"E01019579","name":"E01019579","parent":"E07000034","type":"LSOA","pop":2168,"r":212,"ff":81,"ffd":3736.2,"ffs":0.5364,"g":60,"co":0,"mo":0,"sa":0,"ic":0},"geometry":{"type":"Polygon","coordinates":[[[-1.4229,53.24904],[-1.4228,53.24866],[-1.41973,53.249],[-1.41941,53.24857],[-1.41851,53.2488],[-1.41834,53.24771],[-1.41848,53.24327],[-1.41925,53.23975],[-1.42045,53.24016],[-1.42239,53.23818],[-1.42472,53.23867],[-1.42606,53.23801],[-1.42636,53.23852],[-1.42736,53.23908],[-1.43307,53.24179],[-1.4329,53.24211],[-1.43338,53.24225],[-1.43369,53.24312],[-1.43321,53.2435],[-1.43371,53.24371],[-1.43395,53.24337],[-1.43487,53.24337],[-1.43463,53.24395],[-1.43433,53.2439],[-1.43413,53.24491],[-1.43388,53.24493],[-1.43138,53.24407],[-1.42955,53.24416],[-1.42916,53.24277],[-1.42798,53.24272],[-1.4273,53.24335],[-1.42679,53.24327],[-1.42573,53.24558],[-1.42711,53.24862],[-1.4229,53.24904]]]}},{"type":"Feature","properties":{"id":"E01019580","name":"E01019580","parent":"E07000034","type":"LSOA","pop":1629,"r":213,"ff":82,"ffd":5033.8,"ffs":0.5395,"g":60,"co":0,"mo":0,"sa":0,"ic":0},"geometry":{"type":"Polygon","coordinates":[[[-1.43168,53.25062],[-1.43109,53.25031],[-1.43036,53.25048],[-1.42913,53.25005],[-1.42885,53.24947],[-1.42767,53.24931],[-1.42711,53.24862],[-1.42602,53.24643],[-1.42857,53.24625],[-1.43038,53.24668],[-1.43074,53.24754],[-1.43226,53.24784],[-1.43282,53.24752],[-1.43279,53.24707],[-1.43679,53.24677],[-1.43734,53.24712],[-1.43938,53.24951],[-1.44034,53.25005],[-1.44108,53.25084],[-1.43441,53.25229],[-1.43272,53.25103],[-1.43168,53.25062]]]}},{"type":"Feature","properties":{"id":"E01019581","name":"E01019581","parent":"E07000034","type":"LSOA","pop":1429,"r":211,"ff":81,"ffd":5668.3,"ffs":0.54,"g":60,"co":0,"mo":0,"sa":0,"ic":0},"geometry":{"type":"Polygon","coordinates":[[[-1.43074,53.24754],[-1.43038,53.24668],[-1.42857,53.24625],[-1.42602,53.24643],[-1.42573,53.24558],[-1.42679,53.24327],[-1.4273,53.24335],[-1.42798,53.24272],[-1.42916,53.24277],[-1.42955,53.24416],[-1.43138,53.24407],[-1.43413,53.24491],[-1.43433,53.2439],[-1.43463,53.24395],[-1.43487,53.24337],[-1.43395,53.24337],[-1.43371,53.24371],[-1.43321,53.2435],[-1.43369,53.24312],[-1.43338,53.24225],[-1.4329,53.24211],[-1.43307,53.24179],[-1.43727,53.24378],[-1.43995,53.24475],[-1.43866,53.24658],[-1.43734,53.24712],[-1.43679,53.24677],[-1.43279,53.24707],[-1.43282,53.24752],[-1.43226,53.24784],[-1.43074,53.24754]]]}},{"type":"Feature","properties":{"id":"E01019582","name":"E01019582","parent":"E07000034","type":"LSOA","pop":1453,"r":225,"ff":82,"ffd":5643.5,"ffs":0.5062,"g":62,"co":0,"mo":0,"sa":0,"ic":0},"geometry":{"type":"Polygon","coordinates":[[[-1.41478,53.23074],[-1.41343,53.23044],[-1.40762,53.23059],[-1.40826,53.22958],[-1.40784,53.22856],[-1.40131,53.22872],[-1.39977,53.22841],[-1.40098,53.22937],[-1.40051,53.2299],[-1.3993,53.22983],[-1.39934,53.23008],[-1.39885,53.23006],[-1.39636,53.22668],[-1.39708,53.22544],[-1.39852,53.22523],[-1.39877,53.22602],[-1.40105,53.2259],[-1.40146,53.22601],[-1.4013,53.22634],[-1.40311,53.22601],[-1.40614,53.22656],[-1.40815,53.22621],[-1.40862,53.22639],[-1.40893,53.22678],[-1.40973,53.22637],[-1.41068,53.22654],[-1.41059,53.22676],[-1.41203,53.22734],[-1.41277,53.22801],[-1.41376,53.22786],[-1.41447,53.22719],[-1.41546,53.2275],[-1.41598,53.22694],[-1.41666,53.22736],[-1.41715,53.22718],[-1.41628,53.22632],[-1.41747,53.22613],[-1.41701,53.22566],[-1.41761,53.22534],[-1.41878,53.22537],[-1.42037,53.2265],[-1.4192,53.22728],[-1.41929,53.22796],[-1.41858,53.22831],[-1.41933,53.22891],[-1.41964,53.22988],[-1.41849,53.22937],[-1.41652,53.22929],[-1.41656,53.23016],[-1.41601,53.23004],[-1.41575,53.23066],[-1.41478,53.23074]]]}},{"type":"Feature","properties":{"id":"E01019583","name":"E01019583","parent":"E07000034","type":"LSOA","pop":1405,"r":214,"ff":76,"ffd":5409.3,"ffs":0.5067,"g":63,"co":0,"mo":0,"sa":0,"ic":0},"geometry":{"type":"Polygon","coordinates":[[[-1.41203,53.22734],[-1.41059,53.22676],[-1.41068,53.22654],[-1.41272,53.22558],[-1.41149,53.22438],[-1.4118,53.22394],[-1.41402,53.22498],[-1.41455,53.22434],[-1.4164,53.22456],[-1.41701,53.22357],[-1.41593,53.22247],[-1.41477,53.22064],[-1.42019,53.22039],[-1.42088,53.22221],[-1.42129,53.22245],[-1.42233,53.22185],[-1.42327,53.2224],[-1.42437,53.22224],[-1.42564,53.22429],[-1.42573,53.2252],[-1.42523,53.22545],[-1.42556,53.22602],[-1.42473,53.226],[-1.42462,53.22549],[-1.42381,53.22567],[-1.42332,53.22618],[-1.42478,53.22654],[-1.42386,53.22691],[-1.42385,53.22725],[-1.42159,53.22791],[-1.4216,53.22694],[-1.42095,53.22692],[-1.41878,53.22537],[-1.41761,53.22534],[-1.41701,53.22566],[-1.41747,53.22613],[-1.41628,53.22632],[-1.41715,53.22718],[-1.41666,53.22736],[-1.41598,53.22694],[-1.41546,53.2275],[-1.41447,53.22719],[-1.41376,53.22786],[-1.41277,53.22801],[-1.41203,53.22734]]]}},{"type":"Feature","properties":{"id":"E01019585","name":"E01019585","parent":"E07000034","type":"LSOA","pop":2412,"r":225,"ff":83,"ffd":3441.1,"ffs":0.5123,"g":62,"co":0,"mo":0,"sa":0,"ic":0},"geometry":{"type":"Polygon","coordinates":[[[-1.39027,53.23886],[-1.39008,53.23788],[-1.39119,53.23763],[-1.39082,53.23724],[-1.39158,53.23719],[-1.39164,53.23561],[-1.39405,53.23498],[-1.39362,53.23401],[-1.39864,53.23387],[-1.40082,53.23415],[-1.40097,53.23264],[-1.40035,53.23109],[-1.39918,53.23045],[-1.39885,53.23006],[-1.39934,53.23008],[-1.3993,53.22983],[-1.40051,53.2299],[-1.40098,53.22937],[-1.39977,53.22841],[-1.40131,53.22872],[-1.40784,53.22856],[-1.40826,53.22958],[-1.40762,53.23059],[-1.41343,53.23044],[-1.41478,53.23074],[-1.41492,53.23092],[-1.41647,53.23086],[-1.41765,53.23119],[-1.41724,53.23234],[-1.4182,53.23235],[-1.41852,53.23354],[-1.42073,53.23399],[-1.42003,53.23662],[-1.41879,53.23669],[-1.41729,53.23624],[-1.41593,53.23663],[-1.41607,53.23862],[-1.41539,53.23924],[-1.4116,53.23885],[-1.40697,53.23882],[-1.40446,53.23851],[-1.40389,53.23893],[-1.39473,53.24101],[-1.39326,53.24103],[-1.39027,53.23886]]]}},{"type":"Feature","properties":{"id":"E01019586","name":"E01019586","parent":"E07000034","type":"LSOA","pop":1273,"r":200,"ff":75,"ffd":5891.6,"ffs":0.5396,"g":60,"co":0,"mo":0,"sa":0,"ic":0},"geometry":{"type":"Polygon","coordinates":[[[-1.45068,53.22902],[-1.45029,53.22865],[-1.44767,53.22919],[-1.44666,53.2271],[-1.44796,53.22684],[-1.44625,53.22646],[-1.44678,53.22515],[-1.44744,53.2249],[-1.44701,53.22443],[-1.44886,53.22405],[-1.45037,53.22463],[-1.45069,53.22399],[-1.45155,53.22413],[-1.45129,53.22481],[-1.45262,53.22645],[-1.45386,53.22599],[-1.45378,53.22554],[-1.45451,53.2253],[-1.45512,53.22559],[-1.4558,53.22685],[-1.45664,53.22666],[-1.45714,53.22747],[-1.45683,53.22791],[-1.45368,53.2285],[-1.45393,53.22902],[-1.45412,53.23044],[-1.45288,53.23112],[-1.45154,53.23097],[-1.45118,53.23027],[-1.45011,53.23023],[-1.44979,53.22953],[-1.45068,53.22902]]]}},{"type":"Feature","properties":{"id":"E01019587","name":"E01019587","parent":"E07000034","type":"LSOA","pop":1334,"r":190,"ff":73,"ffd":5472.3,"ffs":0.5489,"g":56,"co":0,"mo":0,"sa":0,"ic":0},"geometry":{"type":"Polygon","coordinates":[[[-1.44908,53.2318],[-1.44767,53.22919],[-1.45029,53.22865],[-1.45068,53.22902],[-1.44979,53.22953],[-1.45011,53.23023],[-1.45118,53.23027],[-1.45154,53.23097],[-1.45288,53.23112],[-1.45412,53.23044],[-1.45393,53.22902],[-1.45368,53.2285],[-1.45683,53.22791],[-1.45714,53.22747],[-1.458,53.22712],[-1.45883,53.22718],[-1.45965,53.2266],[-1.46021,53.22682],[-1.4602,53.22648],[-1.46191,53.22586],[-1.46039,53.22457],[-1.46132,53.22471],[-1.4616,53.22446],[-1.46108,53.22443],[-1.46057,53.22384],[-1.45945,53.22392],[-1.45915,53.22322],[-1.46041,53.22352],[-1.4602,53.22285],[-1.46116,53.22267],[-1.46106,53.22319],[-1.46156,53.22322],[-1.4617,53.22359],[-1.46304,53.22348],[-1.46319,53.22407],[-1.46404,53.22408],[-1.46396,53.22261],[-1.46649,53.22259],[-1.46573,53.22146],[-1.46471,53.22206],[-1.46395,53.22154],[-1.46424,53.22098],[-1.46486,53.22106],[-1.46447,53.22057],[-1.46565,53.22018],[-1.46717,53.2227],[-1.46713,53.22356],[-1.46625,53.22394],[-1.46644,53.22428],[-1.46768,53.22406],[-1.46874,53.22657],[-1.46403,53.22703],[-1.46472,53.22805],[-1.46432,53.22844],[-1.46298,53.22882],[-1.46079,53.2289],[-1.45862,53.22931],[-1.45826,53.23025],[-1.45787,53.23049],[-1.45545,53.23116],[-1.45425,53.23117],[-1.45426,53.23214],[-1.44986,53.23315],[-1.44953,53.2318],[-1.44908,53.2318]]]}},{"type":"Feature","properties":{"id":"E01019588","name":"E01019588","parent":"E07000034","type":"LSOA","pop":1351,"r":193,"ff":73,"ffd":5403.4,"ffs":0.5489,"g":59,"co":0,"mo":0,"sa":0,"ic":0},"geometry":{"type":"Polygon","coordinates":[[[-1.45714,53.22747],[-1.45664,53.22666],[-1.4558,53.22685],[-1.45512,53.22559],[-1.45451,53.2253],[-1.45378,53.22554],[-1.45386,53.22599],[-1.45262,53.22645],[-1.45129,53.22481],[-1.45155,53.22413],[-1.45208,53.22444],[-1.45367,53.22375],[-1.45429,53.22413],[-1.45475,53.22376],[-1.45425,53.22355],[-1.45421,53.22297],[-1.45324,53.22286],[-1.45407,53.22215],[-1.45492,53.22259],[-1.45533,53.22246],[-1.45531,53.22188],[-1.45481,53.22206],[-1.45449,53.22186],[-1.45482,53.22158],[-1.45485,53.2207],[-1.45626,53.22026],[-1.45804,53.22014],[-1.45912,53.22065],[-1.46017,53.22032],[-1.46168,53.22165],[-1.46447,53.22057],[-1.46486,53.22106],[-1.46424,53.22098],[-1.46395,53.22154],[-1.46471,53.22206],[-1.46573,53.22146],[-1.46649,53.22259],[-1.46396,53.22261],[-1.46404,53.22408],[-1.46319,53.22407],[-1.46304,53.22348],[-1.4617,53.22359],[-1.46156,53.22322],[-1.46106,53.22319],[-1.46116,53.22267],[-1.4602,53.22285],[-1.46041,53.22352],[-1.45915,53.22322],[-1.45945,53.22392],[-1.46057,53.22384],[-1.46108,53.22443],[-1.4616,53.22446],[-1.46132,53.22471],[-1.46039,53.22457],[-1.46191,53.22586],[-1.4602,53.22648],[-1.46021,53.22682],[-1.45965,53.2266],[-1.45883,53.22718],[-1.458,53.22712],[-1.45714,53.22747]]]}},{"type":"Feature","properties":{"id":"E01019589","name":"E01019589","parent":"E07000034","type":"LSOA","pop":1468,"r":199,"ff":75,"ffd":5109.0,"ffs":0.5474,"g":61,"co":0,"mo":0,"sa":0,"ic":0},"geometry":{"type":"Polygon","coordinates":[[[-1.44477,53.22676],[-1.44422,53.22595],[-1.44322,53.22602],[-1.44313,53.22455],[-1.44443,53.22432],[-1.44415,53.22325],[-1.44055,53.22346],[-1.44045,53.22301],[-1.44156,53.22288],[-1.43816,53.2202],[-1.43929,53.21878],[-1.4412,53.22063],[-1.44298,53.21981],[-1.44417,53.22075],[-1.44527,53.22],[-1.44753,53.22141],[-1.45029,53.22083],[-1.45243,53.22073],[-1.45738,53.21964],[-1.45804,53.22014],[-1.45626,53.22026],[-1.45485,53.2207],[-1.45482,53.22158],[-1.45449,53.22186],[-1.45481,53.22206],[-1.45531,53.22188],[-1.45533,53.22246],[-1.45492,53.22259],[-1.45407,53.22215],[-1.45324,53.22286],[-1.45421,53.22297],[-1.45425,53.22355],[-1.45475,53.22376],[-1.45429,53.22413],[-1.45367,53.22375],[-1.45208,53.22444],[-1.45155,53.22413],[-1.45069,53.22399],[-1.45037,53.22463],[-1.44886,53.22405],[-1.44701,53.22443],[-1.44744,53.2249],[-1.44678,53.22515],[-1.44625,53.22646],[-1.44477,53.22676]]]}},{"type":"Feature","properties":{"id":"E01019590","name":"E01019590","parent":"E07000034","type":"LSOA","pop":1817,"r":196,"ff":75,"ffd":4127.7,"ffs":0.5357,"g":55,"co":0,"mo":0,"sa":0,"ic":0},"geometry":{"type":"Polygon","coordinates":[[[-1.45276,53.23945],[-1.45301,53.2392],[-1.45362,53.23935],[-1.45425,53.2388],[-1.4543,53.23811],[-1.45373,53.23738],[-1.45515,53.23611],[-1.45579,53.23509],[-1.45765,53.23545],[-1.45848,53.23478],[-1.4592,53.23463],[-1.45893,53.2343],[-1.45929,53.23387],[-1.46098,53.2341],[-1.4605,53.23493],[-1.46303,53.23496],[-1.46444,53.23463],[-1.46488,53.23525],[-1.4651,53.23609],[-1.46658,53.2369],[-1.46619,53.23818],[-1.46323,53.2382],[-1.4629,53.23896],[-1.46461,53.23887],[-1.46476,53.23933],[-1.46639,53.23923],[-1.46664,53.23946],[-1.46625,53.23969],[-1.4662,53.24162],[-1.46433,53.24172],[-1.4627,53.24278],[-1.4612,53.24305],[-1.45799,53.24326],[-1.45608,53.24259],[-1.45473,53.23976],[-1.45279,53.23971],[-1.45276,53.23945]]]}},{"type":"Feature","properties":{"id":"E01019591","name":"E01019591","parent":"E07000034","type":"LSOA","pop":1504,"r":193,"ff":74,"ffd":4920.2,"ffs":0.5401,"g":55,"co":0,"mo":0,"sa":0,"ic":0},"geometry":{"type":"Polygon","coordinates":[[[-1.45579,53.23509],[-1.45633,53.23408],[-1.45692,53.23431],[-1.45717,53.2338],[-1.4573,53.23198],[-1.45751,53.23159],[-1.45426,53.23214],[-1.45425,53.23117],[-1.45545,53.23116],[-1.45787,53.23049],[-1.45826,53.23025],[-1.45862,53.22931],[-1.46027,53.22897],[-1.46067,53.23017],[-1.46138,53.23081],[-1.46209,53.23084],[-1.46205,53.23051],[-1.46385,53.23019],[-1.46469,53.23065],[-1.46566,53.23043],[-1.46744,53.23044],[-1.46761,53.23097],[-1.46665,53.23141],[-1.46732,53.23172],[-1.46757,53.23158],[-1.46733,53.23269],[-1.46709,53.23238],[-1.4666,53.23251],[-1.46568,53.23339],[-1.46603,53.23381],[-1.46504,53.23432],[-1.46538,53.23448],[-1.46488,53.23525],[-1.46444,53.23463],[-1.46303,53.23496],[-1.4605,53.23493],[-1.46098,53.2341],[-1.45929,53.23387],[-1.45893,53.2343],[-1.4592,53.23463],[-1.45848,53.23478],[-1.45765,53.23545],[-1.45579,53.23509]]]}},{"type":"Feature","properties":{"id":"E01019592","name":"E01019592","parent":"E07000034","type":"LSOA","pop":1678,"r":191,"ff":74,"ffd":4410.0,"ffs":0.5441,"g":54,"co":0,"mo":0,"sa":0,"ic":0},"geometry":{"type":"Polygon","coordinates":[[[-1.46664,53.23946],[-1.46639,53.23923],[-1.46476,53.23933],[-1.46461,53.23887],[-1.4629,53.23896],[-1.46323,53.2382],[-1.46619,53.23818],[-1.46658,53.2369],[-1.4651,53.23609],[-1.46488,53.23525],[-1.46538,53.23448],[-1.46504,53.23432],[-1.46603,53.23381],[-1.46568,53.23339],[-1.4666,53.23251],[-1.46709,53.23238],[-1.46733,53.23269],[-1.46757,53.23158],[-1.46732,53.23172],[-1.46665,53.23141],[-1.46761,53.23097],[-1.46744,53.23044],[-1.46566,53.23043],[-1.46469,53.23065],[-1.46385,53.23019],[-1.46205,53.23051],[-1.46209,53.23084],[-1.46138,53.23081],[-1.46067,53.23017],[-1.46027,53.22897],[-1.46298,53.22882],[-1.46432,53.22844],[-1.46472,53.22805],[-1.46403,53.22703],[-1.46874,53.22657],[-1.47103,53.22679],[-1.4772,53.22618],[-1.48196,53.22625],[-1.48307,53.22899],[-1.48416,53.22898],[-1.48417,53.23071],[-1.48256,53.23102],[-1.48397,53.23248],[-1.48299,53.23264],[-1.48316,53.23331],[-1.48082,53.23348],[-1.4807,53.23323],[-1.47807,53.23373],[-1.47204,53.23341],[-1.47178,53.23452],[-1.47186,53.23611],[-1.47136,53.23618],[-1.47149,53.23887],[-1.47217,53.239],[-1.47155,53.23939],[-1.47186,53.23949],[-1.46664,53.23946]]]}},{"type":"Feature","properties":{"id":"E01019593","name":"E01019593","parent":"E07000034","type":"LSOA","pop":1077,"r":186,"ff":71,"ffd":6592.4,"ffs":0.542,"g":54,"co":0,"mo":0,"sa":2,"ic":0},"geometry":{"type":"Polygon","coordinates":[[[-1.46874,53.22657],[-1.46768,53.22406],[-1.46644,53.22428],[-1.46625,53.22394],[-1.46713,53.22356],[-1.46717,53.2227],[-1.46565,53.22018],[-1.4676,53.21952],[-1.47005,53.22123],[-1.47326,53.22162],[-1.47571,53.22166],[-1.47772,53.22217],[-1.47955,53.22227],[-1.47967,53.22271],[-1.47813,53.22291],[-1.47841,53.22372],[-1.4778,53.22432],[-1.47698,53.22437],[-1.47584,53.22508],[-1.4772,53.22618],[-1.47103,53.22679],[-1.46874,53.22657]]]}},{"type":"Feature","properties":{"id":"E01033387","name":"E01033387","parent":"E07000034","type":"LSOA","pop":1300,"r":218,"ff":81,"ffd":6230.8,"ffs":0.5226,"g":62,"co":0,"mo":0,"sa":0,"ic":0},"geometry":{"type":"Polygon","coordinates":[[[-1.41951,53.23856],[-1.41806,53.23845],[-1.41607,53.23862],[-1.41593,53.23663],[-1.41729,53.23624],[-1.41879,53.23669],[-1.42003,53.23662],[-1.42073,53.23399],[-1.41852,53.23354],[-1.4182,53.23235],[-1.41724,53.23234],[-1.41765,53.23119],[-1.41647,53.23086],[-1.41492,53.23092],[-1.41478,53.23074],[-1.41575,53.23066],[-1.41601,53.23004],[-1.41656,53.23016],[-1.41652,53.22929],[-1.41849,53.22937],[-1.41964,53.22988],[-1.41933,53.22891],[-1.41858,53.22831],[-1.41929,53.22796],[-1.4192,53.22728],[-1.42037,53.2265],[-1.42095,53.22692],[-1.4216,53.22694],[-1.42159,53.22791],[-1.42385,53.22725],[-1.42439,53.22739],[-1.42496,53.22688],[-1.4253,53.22696],[-1.42496,53.22806],[-1.42546,53.22809],[-1.42564,53.22759],[-1.42656,53.22806],[-1.42715,53.22738],[-1.42855,53.22768],[-1.42805,53.229],[-1.42754,53.22931],[-1.42689,53.22921],[-1.42644,53.23007],[-1.42793,53.23122],[-1.4313,53.2315],[-1.43091,53.23229],[-1.4312,53.23248],[-1.42955,53.23306],[-1.42925,53.23355],[-1.43065,53.23347],[-1.43102,53.23369],[-1.4308,53.23482],[-1.43273,53.23536],[-1.43243,53.23643],[-1.43157,53.2364],[-1.43129,53.23763],[-1.42776,53.23741],[-1.42636,53.23852],[-1.42606,53.23801],[-1.42472,53.23867],[-1.42239,53.23818],[-1.42045,53.24016],[-1.41925,53.23975],[-1.41951,53.23856]]]}},{"type":"Feature","properties":{"id":"E01033388","name":"E01033388","parent":"E07000034","type":"LSOA","pop":1651,"r":213,"ff":78,"ffd":4724.4,"ffs":0.52,"g":62,"co":0,"mo":0,"sa":0,"ic":0},"geometry":{"type":"Polygon","coordinates":[[[-1.43102,53.23369],[-1.43065,53.23347],[-1.42925,53.23355],[-1.42955,53.23306],[-1.4312,53.23248],[-1.43091,53.23229],[-1.4313,53.2315],[-1.42793,53.23122],[-1.42644,53.23007],[-1.42689,53.22921],[-1.42754,53.22931],[-1.42805,53.229],[-1.42855,53.22768],[-1.42715,53.22738],[-1.42656,53.22806],[-1.42564,53.22759],[-1.42546,53.22809],[-1.42496,53.22806],[-1.4253,53.22696],[-1.42496,53.22688],[-1.42439,53.22739],[-1.42385,53.22725],[-1.42386,53.22691],[-1.42478,53.22654],[-1.42332,53.22618],[-1.42381,53.22567],[-1.42462,53.22549],[-1.42473,53.226],[-1.42556,53.22602],[-1.42523,53.22545],[-1.42573,53.2252],[-1.42564,53.22429],[-1.42657,53.2243],[-1.42676,53.22453],[-1.42774,53.22485],[-1.42693,53.22564],[-1.42881,53.22682],[-1.42948,53.22781],[-1.43089,53.22738],[-1.43177,53.22732],[-1.43226,53.22767],[-1.43254,53.22722],[-1.43363,53.22761],[-1.43449,53.22707],[-1.43614,53.23017],[-1.43704,53.23545],[-1.43594,53.2357],[-1.43273,53.23536],[-1.4308,53.23482],[-1.43102,53.23369]]]}}]}