{"type":"FeatureCollection","features":[{"type":"Feature","properties":{"id":"E01022643","name":"E01022643","parent":"E07000086","type":"LSOA","pop":1459,"r":189,"ff":61,"ffd":4180.9,"ffs":0.5041,"g":67,"co":2,"mo":2,"sa":0,"ic":0},"geometry":{"type":"Polygon","coordinates":[[[-1.32222,50.97717],[-1.32096,50.97575],[-1.32065,50.97414],[-1.31823,50.97283],[-1.31859,50.97215],[-1.31741,50.9726],[-1.3173,50.97364],[-1.31555,50.97311],[-1.3146,50.97248],[-1.31405,50.97086],[-1.31434,50.96901],[-1.31403,50.96793],[-1.31713,50.96719],[-1.31675,50.96627],[-1.31565,50.96597],[-1.31383,50.96607],[-1.31393,50.96568],[-1.31467,50.96564],[-1.31525,50.96463],[-1.31477,50.96426],[-1.31494,50.96397],[-1.31592,50.9637],[-1.31579,50.96287],[-1.31505,50.96255],[-1.31567,50.96193],[-1.31636,50.96224],[-1.3165,50.96466],[-1.31696,50.96516],[-1.31987,50.96451],[-1.32167,50.96457],[-1.32576,50.96616],[-1.32496,50.96842],[-1.32556,50.96855],[-1.32563,50.96913],[-1.32631,50.96954],[-1.32738,50.97119],[-1.32852,50.97186],[-1.32823,50.97383],[-1.32788,50.97416],[-1.32836,50.97631],[-1.32702,50.97624],[-1.32636,50.97669],[-1.32556,50.97676],[-1.32554,50.97718],[-1.32351,50.97715],[-1.32363,50.97795],[-1.32253,50.97815],[-1.32222,50.97717]]]}},{"type":"Feature","properties":{"id":"E01022644","name":"E01022644","parent":"E07000086","type":"LSOA","pop":1221,"r":196,"ff":64,"ffd":5241.6,"ffs":0.5039,"g":68,"co":2,"mo":2,"sa":0,"ic":0},"geometry":{"type":"Polygon","coordinates":[[[-1.30977,50.96686],[-1.31113,50.96596],[-1.30936,50.96486],[-1.30648,50.96423],[-1.30478,50.96332],[-1.3065,50.9614],[-1.30811,50.96149],[-1.30804,50.9622],[-1.30906,50.96245],[-1.30978,50.96208],[-1.30951,50.96227],[-1.31077,50.96293],[-1.31208,50.96246],[-1.31226,50.96283],[-1.3128,50.96287],[-1.31353,50.9622],[-1.3136,50.96273],[-1.31395,50.96273],[-1.31379,50.96406],[-1.31437,50.96404],[-1.31431,50.96294],[-1.31505,50.96255],[-1.31579,50.96287],[-1.31592,50.9637],[-1.31494,50.96397],[-1.31477,50.96426],[-1.31525,50.96463],[-1.31467,50.96564],[-1.31393,50.96568],[-1.31383,50.96607],[-1.31565,50.96597],[-1.31675,50.96627],[-1.31713,50.96719],[-1.31145,50.96849],[-1.31045,50.9679],[-1.31142,50.96728],[-1.31094,50.96695],[-1.30977,50.96686]]]}},{"type":"Feature","properties":{"id":"E01022645","name":"E01022645","parent":"E07000086","type":"LSOA","pop":1128,"r":186,"ff":61,"ffd":5407.8,"ffs":0.5083,"g":65,"co":2,"mo":2,"sa":0,"ic":0},"geometry":{"type":"Polygon","coordinates":[[[-1.3165,50.96466],[-1.31636,50.96224],[-1.31567,50.96193],[-1.31505,50.96255],[-1.31431,50.96294],[-1.31437,50.96404],[-1.31379,50.96406],[-1.31395,50.96273],[-1.3136,50.96273],[-1.31353,50.9622],[-1.3128,50.96287],[-1.31226,50.96283],[-1.31208,50.96246],[-1.31077,50.96293],[-1.30951,50.96227],[-1.30978,50.96208],[-1.30906,50.96245],[-1.30804,50.9622],[-1.30811,50.96149],[-1.31001,50.96154],[-1.31003,50.95989],[-1.31343,50.9591],[-1.31393,50.95746],[-1.31645,50.9576],[-1.31737,50.95587],[-1.32067,50.95591],[-1.32265,50.95535],[-1.32353,50.95471],[-1.32542,50.95468],[-1.32659,50.95502],[-1.3272,50.95704],[-1.32753,50.95705],[-1.32777,50.95901],[-1.32727,50.96065],[-1.32586,50.96239],[-1.32532,50.96374],[-1.32444,50.9648],[-1.32277,50.96424],[-1.32167,50.96457],[-1.31987,50.96451],[-1.31696,50.96516],[-1.3165,50.96466]]]}},{"type":"Feature","properties":{"id":"E01022646","name":"E01022646","parent":"E07000086","type":"LSOA","pop":1390,"r":185,"ff":60,"ffd":4316.5,"ffs":0.5,"g":64,"co":2,"mo":2,"sa":0,"ic":0},"geometry":{"type":"Polygon","coordinates":[[[-1.30503,50.96613],[-1.30648,50.96423],[-1.30936,50.96486],[-1.31113,50.96596],[-1.30977,50.96686],[-1.31094,50.96695],[-1.31142,50.96728],[-1.31045,50.9679],[-1.31145,50.96849],[-1.30527,50.97005],[-1.3035,50.9698],[-1.30367,50.96833],[-1.30503,50.96613]]]}},{"type":"Feature","properties":{"id":"E01022647","name":"E01022647","parent":"E07000086","type":"LSOA","pop":1785,"r":165,"ff":49,"ffd":2745.1,"ffs":0.4579,"g":57,"co":2,"mo":2,"sa":0,"ic":0},"geometry":{"type":"Polygon","coordinates":[[[-1.31499,50.98108],[-1.31416,50.97755],[-1.31429,50.97712],[-1.31531,50.97744],[-1.31586,50.97363],[-1.31555,50.97311],[-1.3173,50.97364],[-1.31741,50.9726],[-1.31859,50.97215],[-1.31823,50.97283],[-1.32065,50.97414],[-1.32096,50.97575],[-1.32222,50.97717],[-1.32253,50.97815],[-1.32363,50.97795],[-1.32351,50.97715],[-1.32554,50.97718],[-1.32556,50.97676],[-1.32636,50.97669],[-1.32702,50.97624],[-1.32836,50.97631],[-1.32788,50.97416],[-1.32823,50.97383],[-1.32953,50.97421],[-1.3311,50.97407],[-1.3312,50.97376],[-1.33346,50.97388],[-1.33357,50.97449],[-1.33295,50.97482],[-1.33407,50.97488],[-1.33601,50.97617],[-1.33537,50.97664],[-1.33538,50.97726],[-1.33483,50.97752],[-1.33522,50.97762],[-1.33494,50.97792],[-1.33524,50.97838],[-1.33379,50.97974],[-1.33326,50.97998],[-1.33383,50.98061],[-1.33274,50.98152],[-1.3331,50.98346],[-1.33039,50.98375],[-1.3291,50.9821],[-1.32855,50.98063],[-1.32768,50.98012],[-1.32309,50.98389],[-1.32329,50.98587],[-1.32273,50.98755],[-1.31981,50.98724],[-1.31876,50.98687],[-1.31305,50.98269],[-1.31499,50.98108]]]}},{"type":"Feature","properties":{"id":"E01022648","name":"E01022648","parent":"E07000086","type":"LSOA","pop":1737,"r":179,"ff":59,"ffd":3396.7,"ffs":0.4917,"g":58,"co":2,"mo":2,"sa":0,"ic":0},"geometry":{"type":"Polygon","coordinates":[[[-1.34165,50.98454],[-1.3395,50.98392],[-1.33765,50.9843],[-1.33547,50.98351],[-1.3331,50.98346],[-1.33274,50.98152],[-1.33383,50.98061],[-1.33326,50.97998],[-1.33379,50.97974],[-1.33524,50.97838],[-1.33494,50.97792],[-1.33522,50.97762],[-1.33483,50.97752],[-1.33538,50.97726],[-1.33537,50.97664],[-1.33601,50.97617],[-1.33407,50.97488],[-1.33295,50.97482],[-1.33357,50.97449],[-1.3334,50.97396],[-1.334,50.97305],[-1.33354,50.97334],[-1.33321,50.97243],[-1.33139,50.97205],[-1.33163,50.97125],[-1.33237,50.97067],[-1.33281,50.9708],[-1.33305,50.97044],[-1.33481,50.97089],[-1.33456,50.97127],[-1.33522,50.97168],[-1.33521,50.97228],[-1.33569,50.97242],[-1.33713,50.97074],[-1.33689,50.96976],[-1.33805,50.96986],[-1.33791,50.96966],[-1.34011,50.97003],[-1.34051,50.97097],[-1.34023,50.9728],[-1.34088,50.97414],[-1.34202,50.97486],[-1.3423,50.97586],[-1.34173,50.97722],[-1.3424,50.97774],[-1.34196,50.97851],[-1.34523,50.98022],[-1.34657,50.9814],[-1.34492,50.98255],[-1.34517,50.9836],[-1.3444,50.98472],[-1.34256,50.98496],[-1.34165,50.98454]]]}},{"type":"Feature","properties":{"id":"E01022649","name":"E01022649","parent":"E07000086","type":"LSOA","pop":1593,"r":191,"ff":63,"ffd":3954.8,"ffs":0.504,"g":65,"co":2,"mo":2,"sa":0,"ic":0},"geometry":{"type":"Polygon","coordinates":[[[-1.32823,50.97383],[-1.32852,50.97186],[-1.32738,50.97119],[-1.32631,50.96954],[-1.32563,50.96913],[-1.32556,50.96855],[-1.32496,50.96842],[-1.32542,50.96727],[-1.32653,50.96738],[-1.32781,50.96682],[-1.32887,50.96719],[-1.33029,50.96731],[-1.32991,50.96803],[-1.33068,50.96816],[-1.33132,50.96767],[-1.3334,50.96865],[-1.33286,50.97006],[-1.33163,50.97125],[-1.33139,50.97205],[-1.33321,50.97243],[-1.33354,50.97334],[-1.334,50.97305],[-1.33346,50.97388],[-1.3312,50.97376],[-1.3311,50.97407],[-1.32953,50.97421],[-1.32823,50.97383]]]}},{"type":"Feature","properties":{"id":"E01022650","name":"E01022650","parent":"E07000086","type":"LSOA","pop":1220,"r":207,"ff":72,"ffd":5901.6,"ffs":0.5217,"g":68,"co":2,"mo":2,"sa":0,"ic":0},"geometry":{"type":"Polygon","coordinates":[[[-1.33481,50.97089],[-1.33305,50.97044],[-1.33281,50.9708],[-1.33237,50.97067],[-1.33286,50.97006],[-1.3334,50.96865],[-1.33261,50.96815],[-1.33132,50.96767],[-1.33068,50.96816],[-1.32991,50.96803],[-1.33029,50.96731],[-1.32887,50.96719],[-1.32781,50.96682],[-1.32653,50.96738],[-1.32542,50.96727],[-1.32576,50.96616],[-1.32167,50.96457],[-1.32277,50.96424],[-1.32444,50.9648],[-1.32532,50.96374],[-1.32586,50.96239],[-1.32727,50.96065],[-1.32777,50.95901],[-1.32753,50.95705],[-1.3272,50.95704],[-1.32659,50.95502],[-1.32826,50.95538],[-1.33214,50.95723],[-1.33503,50.95782],[-1.33403,50.95902],[-1.33291,50.95945],[-1.33409,50.95981],[-1.33346,50.96049],[-1.33417,50.96213],[-1.33621,50.96323],[-1.33646,50.96392],[-1.33756,50.96475],[-1.33905,50.96768],[-1.33993,50.96839],[-1.34011,50.97003],[-1.33791,50.96966],[-1.33805,50.96986],[-1.33689,50.96976],[-1.33713,50.97074],[-1.33569,50.97242],[-1.33521,50.97228],[-1.33522,50.97168],[-1.33456,50.97127],[-1.33481,50.97089]]]}},{"type":"Feature","properties":{"id":"E01022651","name":"E01022651","parent":"E07000086","type":"LSOA","pop":1807,"r":205,"ff":69,"ffd":3818.5,"ffs":0.5149,"g":70,"co":0,"mo":2,"sa":0,"ic":0},"geometry":{"type":"Polygon","coordinates":[[[-1.29103,50.91281],[-1.29068,50.91254],[-1.28848,50.91266],[-1.28758,50.91186],[-1.28852,50.91055],[-1.28757,50.91044],[-1.28552,50.90902],[-1.28581,50.90846],[-1.28527,50.90658],[-1.28319,50.90367],[-1.28068,50.89715],[-1.28681,50.8966],[-1.28775,50.89706],[-1.28766,50.89649],[-1.2884,50.89661],[-1.28845,50.8963],[-1.28909,50.89618],[-1.28965,50.89546],[-1.28954,50.89348],[-1.28993,50.89265],[-1.29007,50.89292],[-1.29082,50.8925],[-1.29381,50.89245],[-1.2943,50.893],[-1.29469,50.89294],[-1.29284,50.89427],[-1.29415,50.89473],[-1.29539,50.89475],[-1.29618,50.8957],[-1.29593,50.8965],[-1.29639,50.89692],[-1.29518,50.89917],[-1.29556,50.90126],[-1.29517,50.90292],[-1.29488,50.90547],[-1.29508,50.9073],[-1.29548,50.90828],[-1.29506,50.9103],[-1.29548,50.91085],[-1.29309,50.91148],[-1.29103,50.91281]]]}},{"type":"Feature","properties":{"id":"E01022652","name":"E01022652","parent":"E07000086","type":"LSOA","pop":1717,"r":176,"ff":55,"ffd":3203.3,"ffs":0.5,"g":65,"co":0,"mo":2,"sa":0,"ic":0},"geometry":{"type":"MultiPolygon","coordinates":[[[[-1.26186,50.89908],[-1.26197,50.89902],[-1.26187,50.89912],[-1.26186,50.89908]]],[[[-1.26297,50.90459],[-1.26297,50.90458],[-1.263,50.90461],[-1.26297,50.90459]]],[[[-1.27446,50.91916],[-1.27447,50.91821],[-1.27387,50.91858],[-1.27305,50.91805],[-1.27358,50.91754],[-1.27416,50.91735],[-1.27366,50.9171],[-1.27424,50.91636],[-1.27392,50.9164],[-1.2752,50.91534],[-1.27368,50.91451],[-1.27382,50.91421],[-1.27248,50.91401],[-1.27214,50.91356],[-1.27077,50.91359],[-1.27033,50.91232],[-1.26895,50.91253],[-1.26876,50.91208],[-1.26927,50.91163],[-1.26868,50.91135],[-1.26872,50.91068],[-1.26949,50.91119],[-1.27069,50.91127],[-1.27033,50.91103],[-1.2695,50.91111],[-1.26823,50.91029],[-1.26891,50.90984],[-1.26885,50.90957],[-1.2674,50.90902],[-1.26698,50.9082],[-1.26581,50.90828],[-1.26575,50.90782],[-1.26614,50.90787],[-1.26476,50.90683],[-1.26536,50.90613],[-1.26471,50.90526],[-1.2623,50.90343],[-1.261,50.90286],[-1.26078,50.90221],[-1.26214,50.90137],[-1.26265,50.89985],[-1.26413,50.89888],[-1.265,50.89878],[-1.2681,50.8994],[-1.26935,50.89938],[-1.27183,50.89875],[-1.27314,50.8991],[-1.27282,50.89866],[-1.27529,50.89872],[-1.27903,50.89733],[-1.28048,50.89749],[-1.28076,50.89942],[-1.28069,50.89752],[-1.28319,50.90367],[-1.28527,50.90658],[-1.28581,50.90846],[-1.28552,50.90902],[-1.28757,50.91044],[-1.28852,50.91055],[-1.28758,50.91186],[-1.28848,50.91266],[-1.29068,50.91254],[-1.29103,50.91281],[-1.29056,50.9145],[-1.29108,50.91609],[-1.29162,50.916],[-1.2915,50.91654],[-1.2913,50.91688],[-1.28835,50.91886],[-1.28588,50.91812],[-1.28276,50.91842],[-1.28204,50.91764],[-1.28164,50.91599],[-1.28012,50.91634],[-1.27707,50.91587],[-1.27633,50.91701],[-1.27772,50.91667],[-1.27762,50.91705],[-1.27818,50.91716],[-1.2781,50.91744],[-1.27706,50.9176],[-1.27674,50.91852],[-1.2771,50.91867],[-1.27617,50.91901],[-1.27655,50.91918],[-1.27608,50.91988],[-1.27696,50.92007],[-1.27686,50.92056],[-1.276,50.92054],[-1.27446,50.91916]]]]}},{"type":"Feature","properties":{"id":"E01022654","name":"E01022654","parent":"E07000086","type":"LSOA","pop":1337,"r":215,"ff":75,"ffd":5609.6,"ffs":0.5137,"g":67,"co":0,"mo":2,"sa":0,"ic":0},"geometry":{"type":"Polygon","coordinates":[[[-1.31955,50.89175],[-1.31921,50.89142],[-1.3172,50.89189],[-1.31698,50.89154],[-1.31762,50.89092],[-1.31736,50.88973],[-1.31636,50.89019],[-1.31583,50.88938],[-1.31603,50.88877],[-1.31666,50.88847],[-1.31774,50.88722],[-1.31792,50.88639],[-1.31852,50.88612],[-1.31958,50.88673],[-1.32183,50.88726],[-1.32149,50.88788],[-1.32282,50.88787],[-1.32278,50.88821],[-1.32323,50.88821],[-1.32347,50.88749],[-1.3242,50.8876],[-1.32365,50.88905],[-1.32246,50.88902],[-1.32236,50.88954],[-1.32164,50.88923],[-1.32213,50.89021],[-1.32146,50.89034],[-1.32116,50.89091],[-1.32155,50.89101],[-1.32127,50.89172],[-1.32165,50.89196],[-1.32023,50.89215],[-1.32008,50.89257],[-1.31911,50.89244],[-1.31955,50.89175]]]}},{"type":"Feature","properties":{"id":"E01022655","name":"E01022655","parent":"E07000086","type":"LSOA","pop":1436,"r":205,"ff":72,"ffd":5013.9,"ffs":0.5217,"g":65,"co":0,"mo":2,"sa":0,"ic":0},"geometry":{"type":"Polygon","coordinates":[[[-1.32278,50.88821],[-1.32282,50.88787],[-1.32149,50.88788],[-1.32183,50.88726],[-1.32215,50.88729],[-1.32215,50.887],[-1.32002,50.88644],[-1.31977,50.88655],[-1.31946,50.88604],[-1.32002,50.88593],[-1.3199,50.88557],[-1.31934,50.88562],[-1.31951,50.88529],[-1.31846,50.88547],[-1.31817,50.88524],[-1.31837,50.88393],[-1.31945,50.8838],[-1.3192,50.8836],[-1.31971,50.88315],[-1.31902,50.88289],[-1.31958,50.88213],[-1.32069,50.88252],[-1.3242,50.88274],[-1.32477,50.883],[-1.3242,50.8876],[-1.32347,50.88749],[-1.32323,50.88821],[-1.32278,50.88821]]]}},{"type":"Feature","properties":{"id":"E01022656","name":"E01022656","parent":"E07000086","type":"LSOA","pop":2821,"r":226,"ff":79,"ffd":2800.4,"ffs":0.5064,"g":68,"co":0,"mo":2,"sa":0,"ic":0},"geometry":{"type":"Polygon","coordinates":[[[-1.32191,50.9075],[-1.32022,50.90432],[-1.3194,50.90211],[-1.31898,50.89901],[-1.31896,50.8974],[-1.32055,50.89639],[-1.32181,50.89401],[-1.3242,50.8876],[-1.32438,50.88529],[-1.32797,50.88594],[-1.32738,50.8865],[-1.32973,50.88734],[-1.3297,50.88763],[-1.33189,50.88825],[-1.33215,50.88795],[-1.33496,50.88867],[-1.3347,50.88901],[-1.33517,50.88916],[-1.33822,50.88807],[-1.34084,50.88662],[-1.34404,50.88284],[-1.34772,50.88444],[-1.34834,50.88673],[-1.34939,50.88859],[-1.34694,50.88942],[-1.34322,50.89146],[-1.34209,50.89363],[-1.34147,50.89417],[-1.33637,50.89517],[-1.33519,50.89619],[-1.33506,50.89737],[-1.32209,50.90093],[-1.3241,50.90441],[-1.32796,50.90445],[-1.32762,50.90463],[-1.32813,50.90518],[-1.3277,50.90555],[-1.32864,50.90659],[-1.32464,50.90843],[-1.32904,50.91331],[-1.32859,50.91345],[-1.32901,50.91436],[-1.32857,50.91457],[-1.32982,50.91494],[-1.32982,50.91561],[-1.33242,50.91813],[-1.33138,50.91844],[-1.32528,50.91167],[-1.32191,50.9075]]]}},{"type":"Feature","properties":{"id":"E01022657","name":"E01022657","parent":"E07000086","type":"LSOA","pop":3271,"r":226,"ff":83,"ffd":2537.5,"ffs":0.5287,"g":67,"co":0,"mo":2,"sa":0,"ic":0},"geometry":{"type":"MultiPolygon","coordinates":[[[[-1.30671,50.87772],[-1.30676,50.87771],[-1.30684,50.87794],[-1.30675,50.87795],[-1.30671,50.87772]]],[[[-1.30277,50.90319],[-1.3015,50.90287],[-1.30007,50.90296],[-1.29859,50.90357],[-1.29517,50.90292],[-1.29556,50.90126],[-1.29518,50.89917],[-1.29639,50.89692],[-1.29593,50.8965],[-1.29618,50.8957],[-1.29539,50.89475],[-1.29415,50.89473],[-1.29284,50.89427],[-1.29469,50.89293],[-1.29463,50.89309],[-1.29526,50.89361],[-1.29607,50.89409],[-1.29528,50.89356],[-1.295,50.89278],[-1.29392,50.8923],[-1.29283,50.89222],[-1.29518,50.89025],[-1.29565,50.88928],[-1.29608,50.88929],[-1.29579,50.88909],[-1.29624,50.88859],[-1.29662,50.88875],[-1.29664,50.8884],[-1.29704,50.88837],[-1.2974,50.88852],[-1.29705,50.88869],[-1.29763,50.88861],[-1.29731,50.88823],[-1.29795,50.88803],[-1.29774,50.88845],[-1.29817,50.88857],[-1.29976,50.88723],[-1.3011,50.88678],[-1.30113,50.88658],[-1.30026,50.88696],[-1.30088,50.88661],[-1.30078,50.88583],[-1.30171,50.88525],[-1.30132,50.88496],[-1.303,50.88461],[-1.30452,50.88351],[-1.30434,50.88292],[-1.30503,50.88288],[-1.30447,50.88268],[-1.3046,50.88212],[-1.30349,50.88128],[-1.30094,50.88011],[-1.30065,50.87964],[-1.30107,50.87956],[-1.30092,50.87988],[-1.30194,50.87979],[-1.30246,50.87941],[-1.3029,50.87964],[-1.30226,50.87976],[-1.30232,50.88002],[-1.30313,50.87991],[-1.30324,50.87962],[-1.30373,50.87983],[-1.30341,50.87937],[-1.304,50.87887],[-1.30323,50.87924],[-1.30321,50.87888],[-1.30376,50.87853],[-1.30436,50.87879],[-1.30452,50.87853],[-1.30413,50.87864],[-1.30397,50.87827],[-1.30311,50.87862],[-1.30418,50.87804],[-1.30522,50.87843],[-1.30434,50.87792],[-1.30547,50.87785],[-1.30596,50.87835],[-1.30546,50.87773],[-1.30671,50.87821],[-1.3069,50.87811],[-1.30725,50.87915],[-1.30831,50.87966],[-1.31019,50.88181],[-1.30961,50.8823],[-1.31033,50.88333],[-1.30914,50.88411],[-1.30846,50.88414],[-1.30731,50.88505],[-1.30482,50.88499],[-1.30407,50.8853],[-1.30685,50.88557],[-1.30584,50.88634],[-1.30494,50.8864],[-1.30344,50.88599],[-1.30371,50.88635],[-1.30871,50.88955],[-1.30762,50.88979],[-1.30571,50.88833],[-1.30491,50.88831],[-1.30473,50.88891],[-1.30316,50.88988],[-1.30328,50.8905],[-1.30506,50.89121],[-1.30811,50.89052],[-1.3084,50.8902],[-1.3089,50.89028],[-1.30875,50.89057],[-1.30953,50.89058],[-1.30969,50.8916],[-1.31068,50.89078],[-1.31118,50.89087],[-1.31337,50.892],[-1.31364,50.89164],[-1.31464,50.89221],[-1.31548,50.89192],[-1.31588,50.89213],[-1.31654,50.8915],[-1.31641,50.89081],[-1.31762,50.89063],[-1.31762,50.89092],[-1.31698,50.89154],[-1.3172,50.89189],[-1.31921,50.89142],[-1.31955,50.89175],[-1.31911,50.89244],[-1.32008,50.89257],[-1.32023,50.89215],[-1.32165,50.89196],[-1.32127,50.89172],[-1.32155,50.89101],[-1.32116,50.89091],[-1.32146,50.89034],[-1.32213,50.89021],[-1.32164,50.88923],[-1.32236,50.88954],[-1.32246,50.88902],[-1.32365,50.88905],[-1.32181,50.89401],[-1.32055,50.89639],[-1.31896,50.8974],[-1.31898,50.89901],[-1.30954,50.9008],[-1.30884,50.90427],[-1.30464,50.9038],[-1.30277,50.90319]]]]}},{"type":"Feature","properties":{"id":"E01022658","name":"E01022658","parent":"E07000086","type":"LSOA","pop":1723,"r":211,"ff":73,"ffd":4236.8,"ffs":0.5141,"g":68,"co":0,"mo":2,"sa":0,"ic":0},"geometry":{"type":"Polygon","coordinates":[[[-1.31464,50.89221],[-1.31364,50.89164],[-1.31337,50.892],[-1.31118,50.89087],[-1.31068,50.89078],[-1.30969,50.8916],[-1.30953,50.89058],[-1.30875,50.89057],[-1.3089,50.89028],[-1.3084,50.8902],[-1.30811,50.89052],[-1.30506,50.89121],[-1.30328,50.8905],[-1.30316,50.88988],[-1.30473,50.88891],[-1.30491,50.88831],[-1.30571,50.88833],[-1.30762,50.88979],[-1.30871,50.88955],[-1.30371,50.88635],[-1.30344,50.88599],[-1.30494,50.8864],[-1.30584,50.88634],[-1.30685,50.88557],[-1.30407,50.8853],[-1.30482,50.88499],[-1.30731,50.88505],[-1.30846,50.88414],[-1.30914,50.88411],[-1.31033,50.88333],[-1.30961,50.8823],[-1.31019,50.88181],[-1.30831,50.87966],[-1.30725,50.87915],[-1.3069,50.87811],[-1.30733,50.87788],[-1.30684,50.87794],[-1.30676,50.87771],[-1.30723,50.87757],[-1.3082,50.87801],[-1.30748,50.87754],[-1.30882,50.8773],[-1.3091,50.87698],[-1.31014,50.87722],[-1.31011,50.87681],[-1.31063,50.87694],[-1.31131,50.87635],[-1.31241,50.87657],[-1.31298,50.87641],[-1.31343,50.87605],[-1.31294,50.87603],[-1.31294,50.8757],[-1.31326,50.87587],[-1.31375,50.87564],[-1.31432,50.87605],[-1.31426,50.87578],[-1.31458,50.87583],[-1.31393,50.8754],[-1.3148,50.8754],[-1.3144,50.87532],[-1.31486,50.8749],[-1.31412,50.87514],[-1.31348,50.87483],[-1.31381,50.87463],[-1.31398,50.87481],[-1.31482,50.87477],[-1.31409,50.87473],[-1.31408,50.87449],[-1.31488,50.87449],[-1.31419,50.87429],[-1.31466,50.87382],[-1.31422,50.8736],[-1.3144,50.87309],[-1.31479,50.87333],[-1.31523,50.87316],[-1.31585,50.87386],[-1.31545,50.87557],[-1.31566,50.87539],[-1.31554,50.87555],[-1.31666,50.8762],[-1.31763,50.87635],[-1.31774,50.8769],[-1.31825,50.87702],[-1.31803,50.8773],[-1.31863,50.8774],[-1.31998,50.87914],[-1.32031,50.88095],[-1.31937,50.88188],[-1.31958,50.88213],[-1.31902,50.88289],[-1.31971,50.88315],[-1.3192,50.8836],[-1.31945,50.8838],[-1.31837,50.88393],[-1.31817,50.88524],[-1.31846,50.88547],[-1.31951,50.88529],[-1.31934,50.88562],[-1.3199,50.88557],[-1.32002,50.88593],[-1.31946,50.88604],[-1.31977,50.88655],[-1.32002,50.88644],[-1.32215,50.887],[-1.32215,50.88729],[-1.31958,50.88673],[-1.31852,50.88612],[-1.31792,50.88639],[-1.31774,50.88722],[-1.31666,50.88847],[-1.31603,50.88877],[-1.31583,50.88938],[-1.31636,50.89019],[-1.31736,50.88973],[-1.31762,50.89063],[-1.31641,50.89081],[-1.31654,50.8915],[-1.31588,50.89213],[-1.31548,50.89192],[-1.31464,50.89221]]]}},{"type":"Feature","properties":{"id":"E01022659","name":"E01022659","parent":"E07000086","type":"LSOA","pop":1523,"r":314,"ff":103,"ffd":6763.0,"ffs":0.4976,"g":104,"co":0,"mo":2,"sa":0,"ic":0},"geometry":{"type":"Polygon","coordinates":[[[-1.37513,50.98273],[-1.37543,50.98247],[-1.37636,50.98253],[-1.37629,50.98198],[-1.37679,50.98179],[-1.37666,50.98105],[-1.37582,50.98071],[-1.37488,50.9798],[-1.3744,50.98131],[-1.37327,50.98095],[-1.37288,50.98153],[-1.37114,50.98114],[-1.37152,50.98051],[-1.36985,50.98013],[-1.36888,50.9809],[-1.36789,50.98073],[-1.37271,50.97572],[-1.37522,50.97682],[-1.37794,50.97836],[-1.38098,50.98059],[-1.37931,50.98102],[-1.37888,50.98146],[-1.37848,50.98133],[-1.37763,50.9821],[-1.3782,50.98283],[-1.37718,50.98354],[-1.37513,50.98273]]]}},{"type":"Feature","properties":{"id":"E01022660","name":"E01022660","parent":"E07000086","type":"LSOA","pop":1521,"r":310,"ff":101,"ffd":6640.4,"ffs":0.4975,"g":104,"co":0,"mo":2,"sa":0,"ic":0},"geometry":{"type":"Polygon","coordinates":[[[-1.37182,50.9863],[-1.36794,50.98328],[-1.36618,50.98257],[-1.36789,50.98073],[-1.36888,50.9809],[-1.36985,50.98013],[-1.37152,50.98051],[-1.37114,50.98114],[-1.37288,50.98153],[-1.37327,50.98095],[-1.3744,50.98131],[-1.37488,50.9798],[-1.37582,50.98071],[-1.37666,50.98105],[-1.37679,50.98179],[-1.37629,50.98198],[-1.37636,50.98253],[-1.37543,50.98247],[-1.37484,50.98302],[-1.37526,50.98317],[-1.37439,50.98401],[-1.37467,50.98469],[-1.37623,50.98441],[-1.37749,50.98485],[-1.37711,50.98517],[-1.3782,50.98566],[-1.37818,50.98597],[-1.37732,50.98624],[-1.37756,50.98666],[-1.37549,50.98736],[-1.37582,50.9865],[-1.37518,50.98601],[-1.37458,50.98669],[-1.37477,50.98695],[-1.37355,50.9874],[-1.37182,50.9863]]]}},{"type":"Feature","properties":{"id":"E01022661","name":"E01022661","parent":"E07000086","type":"LSOA","pop":1724,"r":272,"ff":86,"ffd":4988.4,"ffs":0.4914,"g":94,"co":0,"mo":2,"sa":0,"ic":0},"geometry":{"type":"Polygon","coordinates":[[[-1.37753,50.98938],[-1.375,50.98758],[-1.37411,50.98792],[-1.37355,50.9874],[-1.37477,50.98695],[-1.37458,50.98669],[-1.37518,50.98601],[-1.37582,50.9865],[-1.37549,50.98736],[-1.37756,50.98666],[-1.37732,50.98624],[-1.37818,50.98597],[-1.3782,50.98566],[-1.37711,50.98517],[-1.37749,50.98485],[-1.37623,50.98441],[-1.37467,50.98469],[-1.37439,50.98401],[-1.37526,50.98317],[-1.37484,50.98302],[-1.37513,50.98273],[-1.37718,50.98354],[-1.3782,50.98283],[-1.37763,50.9821],[-1.37848,50.98133],[-1.37888,50.98146],[-1.37931,50.98102],[-1.38098,50.98059],[-1.38342,50.98237],[-1.38331,50.98284],[-1.38473,50.98394],[-1.38481,50.98431],[-1.38316,50.98554],[-1.3827,50.98972],[-1.37957,50.98973],[-1.37753,50.98938]]]}},{"type":"Feature","properties":{"id":"E01022662","name":"E01022662","parent":"E07000086","type":"LSOA","pop":1420,"r":348,"ff":120,"ffd":8450.7,"ffs":0.515,"g":112,"co":0,"mo":2,"sa":0,"ic":0},"geometry":{"type":"Polygon","coordinates":[[[-1.37794,50.97836],[-1.37522,50.97682],[-1.37271,50.97572],[-1.37492,50.97339],[-1.37939,50.97339],[-1.38299,50.97386],[-1.38364,50.97411],[-1.38365,50.97468],[-1.38327,50.97481],[-1.38514,50.97541],[-1.38451,50.97563],[-1.38259,50.9754],[-1.38243,50.9757],[-1.38347,50.97661],[-1.38236,50.97687],[-1.38242,50.97719],[-1.38192,50.97712],[-1.38243,50.97772],[-1.38229,50.97829],[-1.38174,50.97825],[-1.38187,50.98004],[-1.38435,50.98117],[-1.38408,50.98153],[-1.38219,50.98148],[-1.37794,50.97836]]]}},{"type":"Feature","properties":{"id":"E01022663","name":"E01022663","parent":"E07000086","type":"LSOA","pop":1528,"r":339,"ff":116,"ffd":7591.6,"ffs":0.5088,"g":108,"co":0,"mo":2,"sa":0,"ic":0},"geometry":{"type":"Polygon","coordinates":[[[-1.38731,50.97657],[-1.38756,50.97615],[-1.38715,50.9762],[-1.38721,50.97664],[-1.38568,50.97696],[-1.3863,50.97783],[-1.3856,50.97776],[-1.38523,50.97808],[-1.38498,50.97971],[-1.38351,50.9798],[-1.3839,50.98105],[-1.38187,50.98004],[-1.38174,50.97825],[-1.38229,50.97829],[-1.38243,50.97772],[-1.38192,50.97712],[-1.38242,50.97719],[-1.38236,50.97687],[-1.38347,50.97661],[-1.38243,50.9757],[-1.38259,50.9754],[-1.38451,50.97563],[-1.38514,50.97541],[-1.38327,50.97481],[-1.38365,50.97468],[-1.38364,50.97411],[-1.38801,50.97507],[-1.38959,50.97164],[-1.39003,50.97024],[-1.39276,50.96449],[-1.39396,50.96474],[-1.39275,50.9677],[-1.39647,50.96851],[-1.39239,50.97627],[-1.39638,50.97755],[-1.39596,50.97897],[-1.39442,50.97965],[-1.39204,50.98182],[-1.39025,50.98099],[-1.39153,50.97977],[-1.38679,50.97724],[-1.38731,50.97657]]]}},{"type":"Feature","properties":{"id":"E01022664","name":"E01022664","parent":"E07000086","type":"LSOA","pop":1500,"r":235,"ff":70,"ffd":4666.7,"ffs":0.4698,"g":84,"co":0,"mo":2,"sa":0,"ic":0},"geometry":{"type":"Polygon","coordinates":[[[-1.3796,50.99101],[-1.37957,50.98973],[-1.3827,50.98972],[-1.38316,50.98554],[-1.38465,50.98446],[-1.3852,50.9863],[-1.38781,50.98853],[-1.38845,50.98822],[-1.38944,50.98976],[-1.39118,50.98927],[-1.39319,50.9895],[-1.39513,50.99093],[-1.39042,50.99156],[-1.38662,50.99256],[-1.38609,50.99228],[-1.38499,50.99247],[-1.38482,50.99182],[-1.38687,50.99146],[-1.38652,50.99068],[-1.38171,50.99142],[-1.37938,50.99257],[-1.37802,50.99229],[-1.3796,50.99101]]]}},{"type":"Feature","properties":{"id":"E01022665","name":"E01022665","parent":"E07000086","type":"LSOA","pop":1381,"r":209,"ff":59,"ffd":4272.3,"ffs":0.4504,"g":76,"co":0,"mo":2,"sa":0,"ic":0},"geometry":{"type":"Polygon","coordinates":[[[-1.38721,50.97664],[-1.38715,50.9762],[-1.38756,50.97615],[-1.38731,50.97657],[-1.38679,50.97724],[-1.39153,50.97977],[-1.39025,50.98099],[-1.39204,50.98182],[-1.39105,50.98286],[-1.39242,50.98585],[-1.39143,50.98681],[-1.3917,50.98723],[-1.39383,50.9886],[-1.3949,50.98868],[-1.39571,50.98917],[-1.39693,50.99019],[-1.39704,50.99052],[-1.39513,50.99093],[-1.39319,50.9895],[-1.39118,50.98927],[-1.38944,50.98976],[-1.38845,50.98822],[-1.38781,50.98853],[-1.3852,50.9863],[-1.38465,50.98446],[-1.38481,50.98431],[-1.38473,50.98394],[-1.38331,50.98284],[-1.38342,50.98237],[-1.38219,50.98148],[-1.38408,50.98153],[-1.38435,50.98117],[-1.3839,50.98105],[-1.38351,50.9798],[-1.38498,50.97971],[-1.38523,50.97808],[-1.3856,50.97776],[-1.3863,50.97783],[-1.38568,50.97696],[-1.38721,50.97664]]]}},{"type":"Feature","properties":{"id":"E01022666","name":"E01022666","parent":"E07000086","type":"LSOA","pop":2340,"r":283,"ff":91,"ffd":3888.9,"ffs":0.4973,"g":97,"co":0,"mo":2,"sa":0,"ic":0},"geometry":{"type":"Polygon","coordinates":[[[-1.35079,50.97149],[-1.3503,50.96946],[-1.35086,50.96667],[-1.35374,50.96684],[-1.35431,50.96632],[-1.35565,50.96645],[-1.35592,50.96608],[-1.35606,50.96649],[-1.35714,50.9666],[-1.35676,50.96776],[-1.35718,50.96828],[-1.35743,50.96781],[-1.35885,50.96796],[-1.3586,50.96985],[-1.36165,50.97017],[-1.36144,50.9712],[-1.36046,50.97113],[-1.35963,50.97148],[-1.35713,50.97026],[-1.35676,50.97112],[-1.3561,50.97117],[-1.35621,50.97217],[-1.35389,50.97222],[-1.3542,50.97363],[-1.35199,50.97292],[-1.35085,50.97182],[-1.35079,50.97149]]]}},{"type":"Feature","properties":{"id":"E01022667","name":"E01022667","parent":"E07000086","type":"LSOA","pop":2239,"r":297,"ff":95,"ffd":4243.0,"ffs":0.4922,"g":101,"co":0,"mo":2,"sa":0,"ic":0},"geometry":{"type":"Polygon","coordinates":[[[-1.36613,50.97409],[-1.36333,50.97384],[-1.36015,50.97388],[-1.36025,50.97532],[-1.3595,50.97533],[-1.35973,50.9747],[-1.35799,50.97498],[-1.35782,50.97413],[-1.35526,50.97441],[-1.35505,50.97426],[-1.35588,50.974],[-1.35585,50.97371],[-1.35461,50.9732],[-1.35454,50.97285],[-1.35404,50.97289],[-1.35389,50.97222],[-1.35621,50.97217],[-1.3561,50.97117],[-1.35676,50.97112],[-1.35713,50.97026],[-1.35963,50.97148],[-1.36046,50.97113],[-1.36144,50.9712],[-1.36165,50.97017],[-1.36336,50.97046],[-1.36376,50.97017],[-1.36836,50.97097],[-1.36811,50.97174],[-1.37492,50.97339],[-1.37271,50.97572],[-1.36613,50.97409]]]}},{"type":"Feature","properties":{"id":"E01022669","name":"E01022669","parent":"E07000086","type":"LSOA","pop":1844,"r":306,"ff":100,"ffd":5423.0,"ffs":0.5,"g":103,"co":0,"mo":2,"sa":0,"ic":0},"geometry":{"type":"Polygon","coordinates":[[[-1.35718,50.96828],[-1.35676,50.96776],[-1.35714,50.9666],[-1.35606,50.96649],[-1.35592,50.96608],[-1.35565,50.96645],[-1.35319,50.9662],[-1.35372,50.96467],[-1.35473,50.96478],[-1.35481,50.96519],[-1.3551,50.9648],[-1.35802,50.96508],[-1.35817,50.96442],[-1.35758,50.9642],[-1.35675,50.96443],[-1.35641,50.96342],[-1.35949,50.96379],[-1.35883,50.96407],[-1.35858,50.96514],[-1.36101,50.96537],[-1.36093,50.96604],[-1.36342,50.96678],[-1.36259,50.96736],[-1.36182,50.9683],[-1.36134,50.96814],[-1.36015,50.96691],[-1.35894,50.96678],[-1.35885,50.96796],[-1.35743,50.96781],[-1.35718,50.96828]]]}},{"type":"Feature","properties":{"id":"E01022670","name":"E01022670","parent":"E07000086","type":"LSOA","pop":1492,"r":329,"ff":115,"ffd":7707.8,"ffs":0.5251,"g":107,"co":0,"mo":2,"sa":0,"ic":0},"geometry":{"type":"Polygon","coordinates":[[[-1.34148,50.96677],[-1.34024,50.96578],[-1.33835,50.9663],[-1.33756,50.96475],[-1.33646,50.96392],[-1.33621,50.96323],[-1.33417,50.96213],[-1.33346,50.96049],[-1.33409,50.95981],[-1.33291,50.95945],[-1.33403,50.95902],[-1.33542,50.95746],[-1.335,50.95663],[-1.33682,50.95585],[-1.33673,50.95535],[-1.33758,50.95575],[-1.33771,50.95518],[-1.34781,50.95762],[-1.35166,50.95906],[-1.35133,50.95923],[-1.35242,50.96078],[-1.35268,50.96207],[-1.35208,50.96294],[-1.35641,50.96342],[-1.35675,50.96443],[-1.35758,50.9642],[-1.35817,50.96442],[-1.35802,50.96508],[-1.3551,50.9648],[-1.35481,50.96519],[-1.35473,50.96478],[-1.35372,50.96467],[-1.35319,50.9662],[-1.35431,50.96632],[-1.35374,50.96684],[-1.35051,50.96669],[-1.35,50.96519],[-1.34782,50.96355],[-1.3458,50.96396],[-1.34611,50.9655],[-1.34579,50.96586],[-1.34415,50.96601],[-1.34148,50.96677]]]}},{"type":"Feature","properties":{"id":"E01022671","name":"E01022671","parent":"E07000086","type":"LSOA","pop":1438,"r":260,"ff":80,"ffd":5563.3,"ffs":0.479,"g":91,"co":0,"mo":2,"sa":0,"ic":0},"geometry":{"type":"Polygon","coordinates":[[[-1.35284,50.97553],[-1.35165,50.97465],[-1.35182,50.97365],[-1.3508,50.97302],[-1.34942,50.97099],[-1.34845,50.9748],[-1.34202,50.97486],[-1.34088,50.97414],[-1.34023,50.9728],[-1.34051,50.97097],[-1.34011,50.97003],[-1.33993,50.96839],[-1.33905,50.96768],[-1.33835,50.9663],[-1.34024,50.96578],[-1.34148,50.96677],[-1.34415,50.96601],[-1.34579,50.96586],[-1.34611,50.9655],[-1.3458,50.96396],[-1.34782,50.96355],[-1.35,50.96519],[-1.35051,50.96669],[-1.35086,50.96667],[-1.3503,50.96946],[-1.35085,50.97182],[-1.35199,50.97292],[-1.3542,50.97363],[-1.35404,50.97289],[-1.35454,50.97285],[-1.35461,50.9732],[-1.35585,50.97371],[-1.35588,50.974],[-1.35505,50.97426],[-1.35526,50.97441],[-1.35782,50.97413],[-1.35799,50.97498],[-1.35973,50.9747],[-1.3595,50.97533],[-1.35905,50.97531],[-1.35911,50.97505],[-1.35864,50.97523],[-1.35802,50.97699],[-1.35652,50.97698],[-1.35284,50.97553]]]}},{"type":"Feature","properties":{"id":"E01022672","name":"E01022672","parent":"E07000086","type":"LSOA","pop":1491,"r":267,"ff":81,"ffd":5432.6,"ffs":0.4737,"g":93,"co":0,"mo":2,"sa":0,"ic":0},"geometry":{"type":"Polygon","coordinates":[[[-1.35523,50.98487],[-1.35401,50.98387],[-1.35287,50.98397],[-1.35292,50.98367],[-1.35268,50.98331],[-1.35098,50.98313],[-1.3473,50.9845],[-1.34595,50.98459],[-1.34657,50.9814],[-1.34523,50.98022],[-1.34787,50.98041],[-1.34779,50.98074],[-1.34953,50.98063],[-1.34935,50.97793],[-1.35004,50.9778],[-1.34954,50.97823],[-1.35004,50.97867],[-1.35074,50.97834],[-1.35118,50.97858],[-1.35048,50.97975],[-1.35108,50.98003],[-1.35118,50.98107],[-1.35147,50.98108],[-1.35171,50.97994],[-1.35256,50.98084],[-1.3535,50.98009],[-1.35498,50.98109],[-1.35576,50.98133],[-1.35517,50.98214],[-1.35577,50.98289],[-1.35624,50.98286],[-1.3561,50.9826],[-1.35729,50.98217],[-1.35747,50.9818],[-1.35798,50.98212],[-1.35737,50.98238],[-1.3579,50.98307],[-1.35637,50.98559],[-1.35554,50.98533],[-1.35568,50.98496],[-1.35523,50.98487]]]}},{"type":"Feature","properties":{"id":"E01022673","name":"E01022673","parent":"E07000086","type":"LSOA","pop":2305,"r":270,"ff":84,"ffd":3644.3,"ffs":0.4828,"g":93,"co":0,"mo":2,"sa":0,"ic":0},"geometry":{"type":"Polygon","coordinates":[[[-1.35108,50.98003],[-1.35048,50.97975],[-1.35118,50.97858],[-1.35074,50.97834],[-1.35004,50.97867],[-1.34954,50.97823],[-1.35004,50.9778],[-1.34935,50.97793],[-1.34953,50.98063],[-1.34779,50.98074],[-1.34787,50.98041],[-1.34523,50.98022],[-1.34196,50.97851],[-1.3424,50.97774],[-1.34173,50.97722],[-1.3423,50.97586],[-1.34202,50.97486],[-1.34845,50.9748],[-1.34942,50.97099],[-1.3508,50.97302],[-1.35182,50.97365],[-1.35165,50.97465],[-1.35313,50.97572],[-1.35652,50.97698],[-1.35464,50.9785],[-1.35356,50.9786],[-1.35386,50.97923],[-1.3553,50.97933],[-1.35501,50.97997],[-1.35577,50.98012],[-1.35525,50.98109],[-1.35498,50.98109],[-1.3535,50.98009],[-1.35256,50.98084],[-1.35171,50.97994],[-1.35147,50.98108],[-1.35118,50.98107],[-1.35108,50.98003]]]}},{"type":"Feature","properties":{"id":"E01022674","name":"E01022674","parent":"E07000086","type":"LSOA","pop":1551,"r":263,"ff":81,"ffd":5222.4,"ffs":0.4793,"g":91,"co":0,"mo":2,"sa":0,"ic":0},"geometry":{"type":"Polygon","coordinates":[[[-1.35798,50.98212],[-1.35747,50.9818],[-1.35729,50.98217],[-1.3561,50.9826],[-1.35624,50.98286],[-1.35577,50.98289],[-1.35517,50.98214],[-1.35576,50.98133],[-1.35525,50.98109],[-1.35577,50.98012],[-1.35501,50.97997],[-1.3553,50.97933],[-1.35386,50.97923],[-1.35356,50.9786],[-1.35464,50.9785],[-1.35652,50.97698],[-1.35802,50.97699],[-1.35864,50.97523],[-1.35911,50.97505],[-1.35905,50.97531],[-1.36025,50.97532],[-1.36015,50.97388],[-1.36333,50.97384],[-1.36698,50.97421],[-1.36537,50.97546],[-1.36482,50.9764],[-1.36593,50.97674],[-1.36552,50.97865],[-1.36488,50.97863],[-1.36465,50.97936],[-1.3656,50.97952],[-1.36568,50.98005],[-1.36491,50.98078],[-1.36328,50.98042],[-1.36299,50.9806],[-1.36188,50.98019],[-1.36015,50.98182],[-1.3579,50.98307],[-1.35737,50.98238],[-1.35798,50.98212]]]}},{"type":"Feature","properties":{"id":"E01022675","name":"E01022675","parent":"E07000086","type":"LSOA","pop":1395,"r":275,"ff":86,"ffd":6164.9,"ffs":0.4831,"g":94,"co":0,"mo":2,"sa":0,"ic":0},"geometry":{"type":"Polygon","coordinates":[[[-1.35577,50.987],[-1.35547,50.98629],[-1.35382,50.98674],[-1.35273,50.98645],[-1.35256,50.98611],[-1.35367,50.98559],[-1.35366,50.98515],[-1.35523,50.98487],[-1.35568,50.98496],[-1.35554,50.98533],[-1.35637,50.98559],[-1.3579,50.98307],[-1.36015,50.98182],[-1.36188,50.98019],[-1.36299,50.9806],[-1.36328,50.98042],[-1.36491,50.98078],[-1.36568,50.98005],[-1.3656,50.97952],[-1.36465,50.97936],[-1.36488,50.97863],[-1.36552,50.97865],[-1.36593,50.97674],[-1.36482,50.9764],[-1.36537,50.97546],[-1.36698,50.97421],[-1.37271,50.97572],[-1.36596,50.98281],[-1.36298,50.98709],[-1.36112,50.98609],[-1.35892,50.98561],[-1.35812,50.98653],[-1.35749,50.98686],[-1.35658,50.98681],[-1.35679,50.98749],[-1.35562,50.98772],[-1.35508,50.98839],[-1.35435,50.98738],[-1.35577,50.987]]]}},{"type":"Feature","properties":{"id":"E01022676","name":"E01022676","parent":"E07000086","type":"LSOA","pop":1837,"r":296,"ff":94,"ffd":5117.0,"ffs":0.4896,"g":101,"co":0,"mo":2,"sa":0,"ic":0},"geometry":{"type":"Polygon","coordinates":[[[-1.35347,50.99816],[-1.35391,50.99709],[-1.35111,50.99673],[-1.35118,50.99536],[-1.35052,50.99462],[-1.34972,50.99441],[-1.34923,50.99327],[-1.34686,50.99107],[-1.34596,50.99257],[-1.34355,50.99197],[-1.34341,50.99125],[-1.34277,50.99089],[-1.34361,50.9895],[-1.34595,50.98459],[-1.3473,50.9845],[-1.35098,50.98313],[-1.35268,50.98331],[-1.35292,50.98367],[-1.35287,50.98397],[-1.35401,50.98387],[-1.35523,50.98487],[-1.35366,50.98515],[-1.35367,50.98559],[-1.35256,50.98611],[-1.35273,50.98645],[-1.35382,50.98674],[-1.35547,50.98629],[-1.35577,50.987],[-1.35435,50.98738],[-1.35508,50.98839],[-1.35562,50.98772],[-1.35679,50.98749],[-1.35658,50.98681],[-1.35749,50.98686],[-1.35812,50.98653],[-1.35892,50.98561],[-1.36112,50.98609],[-1.36298,50.98709],[-1.35817,50.9951],[-1.35707,50.99843],[-1.35653,50.9984],[-1.35621,50.99777],[-1.35453,50.99844],[-1.35347,50.99816]]]}},{"type":"Feature","properties":{"id":"E01022678","name":"E01022678","parent":"E07000086","type":"LSOA","pop":2027,"r":360,"ff":130,"ffd":6413.4,"ffs":0.5263,"g":110,"co":0,"mo":2,"sa":0,"ic":0},"geometry":{"type":"Polygon","coordinates":[[[-1.36873,50.9649],[-1.36477,50.96442],[-1.36563,50.96398],[-1.36522,50.96348],[-1.36646,50.9625],[-1.36599,50.96199],[-1.36699,50.96163],[-1.36966,50.96185],[-1.37045,50.96173],[-1.37085,50.9613],[-1.37237,50.96118],[-1.37274,50.96086],[-1.37841,50.96182],[-1.38274,50.96324],[-1.3814,50.96449],[-1.37921,50.96479],[-1.37907,50.96508],[-1.37779,50.96487],[-1.37632,50.96401],[-1.37624,50.9651],[-1.37517,50.96481],[-1.3746,50.9652],[-1.37467,50.96558],[-1.37117,50.96543],[-1.37017,50.96504],[-1.36873,50.9649]]]}},{"type":"Feature","properties":{"id":"E01022679","name":"E01022679","parent":"E07000086","type":"LSOA","pop":2021,"r":349,"ff":129,"ffd":6383.0,"ffs":0.5397,"g":107,"co":0,"mo":2,"sa":0,"ic":0},"geometry":{"type":"Polygon","coordinates":[[[-1.35208,50.96294],[-1.35268,50.96207],[-1.35314,50.9622],[-1.35724,50.95748],[-1.35779,50.95736],[-1.35964,50.95805],[-1.35909,50.95872],[-1.36347,50.95702],[-1.36202,50.95914],[-1.3612,50.95987],[-1.3591,50.95918],[-1.35817,50.96036],[-1.36004,50.96083],[-1.35985,50.9609],[-1.36029,50.96152],[-1.36078,50.96156],[-1.36066,50.96242],[-1.35806,50.96222],[-1.35773,50.96358],[-1.35208,50.96294]]]}},{"type":"Feature","properties":{"id":"E01022680","name":"E01022680","parent":"E07000086","type":"LSOA","pop":1706,"r":353,"ff":121,"ffd":7092.6,"ffs":0.5105,"g":113,"co":0,"mo":2,"sa":0,"ic":0},"geometry":{"type":"Polygon","coordinates":[[[-1.38299,50.97386],[-1.37939,50.97339],[-1.37474,50.97336],[-1.37686,50.97095],[-1.3779,50.97158],[-1.37997,50.97092],[-1.38014,50.97136],[-1.37956,50.97146],[-1.37961,50.97212],[-1.3807,50.97115],[-1.38192,50.97083],[-1.38366,50.97077],[-1.38484,50.96943],[-1.38567,50.96975],[-1.38539,50.97012],[-1.3867,50.97064],[-1.38721,50.97023],[-1.38829,50.97035],[-1.38845,50.96998],[-1.38771,50.9697],[-1.38867,50.96906],[-1.38922,50.96951],[-1.38873,50.96964],[-1.3891,50.9701],[-1.39003,50.97024],[-1.38959,50.97164],[-1.38801,50.97507],[-1.38299,50.97386]]]}},{"type":"Feature","properties":{"id":"E01022681","name":"E01022681","parent":"E07000086","type":"LSOA","pop":1784,"r":351,"ff":123,"ffd":6894.6,"ffs":0.5168,"g":110,"co":0,"mo":2,"sa":0,"ic":0},"geometry":{"type":"Polygon","coordinates":[[[-1.36836,50.97097],[-1.37017,50.96504],[-1.37117,50.96543],[-1.37467,50.96558],[-1.3746,50.9652],[-1.37517,50.96481],[-1.37624,50.9651],[-1.37632,50.96401],[-1.37779,50.96487],[-1.37907,50.96508],[-1.37921,50.96479],[-1.3814,50.96449],[-1.38274,50.96324],[-1.38497,50.96439],[-1.38197,50.96651],[-1.38165,50.96635],[-1.37985,50.96798],[-1.38128,50.96798],[-1.38322,50.96862],[-1.3836,50.96797],[-1.38527,50.96685],[-1.38609,50.96605],[-1.38672,50.96593],[-1.38755,50.96666],[-1.38867,50.96906],[-1.38771,50.9697],[-1.38845,50.96998],[-1.38829,50.97035],[-1.38721,50.97023],[-1.3867,50.97064],[-1.38539,50.97012],[-1.38567,50.96975],[-1.38484,50.96943],[-1.38366,50.97077],[-1.38192,50.97083],[-1.3807,50.97115],[-1.37961,50.97212],[-1.37956,50.97146],[-1.38014,50.97136],[-1.37997,50.97092],[-1.3779,50.97158],[-1.37686,50.97095],[-1.37474,50.97336],[-1.36811,50.97174],[-1.36836,50.97097]]]}},{"type":"Feature","properties":{"id":"E01022682","name":"E01022682","parent":"E07000086","type":"LSOA","pop":2392,"r":164,"ff":48,"ffd":2006.7,"ffs":0.48,"g":63,"co":2,"mo":2,"sa":0,"ic":0},"geometry":{"type":"Polygon","coordinates":[[[-1.25963,50.97922],[-1.25815,50.97834],[-1.26015,50.97472],[-1.26576,50.96888],[-1.2685,50.96752],[-1.2692,50.96758],[-1.26933,50.96642],[-1.26997,50.96553],[-1.2707,50.96386],[-1.27195,50.96251],[-1.27613,50.96195],[-1.27695,50.96096],[-1.28226,50.95849],[-1.28304,50.9577],[-1.28335,50.95623],[-1.28592,50.95436],[-1.28721,50.95278],[-1.28837,50.95214],[-1.28904,50.95261],[-1.28842,50.95313],[-1.29104,50.95515],[-1.29087,50.95565],[-1.29236,50.95621],[-1.29243,50.95743],[-1.291,50.95938],[-1.29106,50.95986],[-1.29277,50.96191],[-1.29404,50.9616],[-1.29442,50.96308],[-1.29518,50.96385],[-1.29429,50.96436],[-1.29294,50.96407],[-1.29294,50.96382],[-1.29186,50.96383],[-1.29194,50.96429],[-1.29152,50.96448],[-1.29072,50.96385],[-1.29031,50.96389],[-1.29032,50.96447],[-1.28856,50.9643],[-1.28735,50.96452],[-1.28735,50.96412],[-1.28672,50.96373],[-1.28597,50.96379],[-1.28609,50.96504],[-1.2869,50.96583],[-1.28788,50.96557],[-1.28817,50.96594],[-1.29306,50.96495],[-1.29756,50.96565],[-1.29655,50.96644],[-1.29614,50.9675],[-1.29378,50.96862],[-1.29406,50.97166],[-1.29076,50.97412],[-1.2867,50.97355],[-1.28657,50.97379],[-1.28479,50.97354],[-1.28031,50.97439],[-1.27699,50.97436],[-1.27539,50.97389],[-1.27285,50.97708],[-1.27207,50.9791],[-1.26776,50.97863],[-1.26655,50.98016],[-1.26273,50.98015],[-1.25963,50.97922]]]}},{"type":"Feature","properties":{"id":"E01022683","name":"E01022683","parent":"E07000086","type":"LSOA","pop":2257,"r":174,"ff":53,"ffd":2348.2,"ffs":0.4953,"g":66,"co":2,"mo":2,"sa":0,"ic":0},"geometry":{"type":"Polygon","coordinates":[[[-1.3153,50.98514],[-1.31341,50.98456],[-1.31241,50.98474],[-1.31069,50.98448],[-1.30234,50.9828],[-1.30015,50.98265],[-1.29588,50.98283],[-1.29315,50.98371],[-1.29057,50.98287],[-1.29048,50.9823],[-1.29514,50.97613],[-1.29523,50.97462],[-1.29317,50.97411],[-1.29076,50.97412],[-1.29406,50.97166],[-1.29378,50.96862],[-1.29614,50.9675],[-1.29655,50.96644],[-1.29756,50.96565],[-1.29746,50.96534],[-1.29848,50.96523],[-1.29783,50.96607],[-1.29864,50.96668],[-1.29878,50.96764],[-1.29813,50.96789],[-1.29929,50.96906],[-1.30011,50.96955],[-1.30098,50.96952],[-1.30062,50.96993],[-1.30121,50.97085],[-1.30245,50.97062],[-1.30256,50.97017],[-1.30218,50.96861],[-1.30367,50.96833],[-1.3035,50.9698],[-1.30527,50.97005],[-1.30656,50.96961],[-1.31403,50.96793],[-1.31434,50.96901],[-1.31405,50.97086],[-1.3146,50.97248],[-1.31555,50.97311],[-1.31586,50.97363],[-1.31531,50.97744],[-1.31429,50.97712],[-1.31416,50.97755],[-1.31499,50.98108],[-1.31305,50.98269],[-1.31639,50.98513],[-1.3153,50.98514]]]}},{"type":"Feature","properties":{"id":"E01022684","name":"E01022684","parent":"E07000086","type":"LSOA","pop":1380,"r":178,"ff":56,"ffd":4058.0,"ffs":0.4956,"g":64,"co":2,"mo":2,"sa":0,"ic":0},"geometry":{"type":"Polygon","coordinates":[[[-1.30062,50.96993],[-1.30098,50.96952],[-1.30011,50.96955],[-1.29929,50.96906],[-1.29813,50.96789],[-1.29878,50.96764],[-1.29864,50.96668],[-1.29889,50.96601],[-1.29962,50.96614],[-1.29936,50.96565],[-1.29967,50.96542],[-1.30085,50.96639],[-1.30183,50.96604],[-1.30174,50.96657],[-1.30328,50.96678],[-1.3025,50.96635],[-1.30269,50.96556],[-1.30197,50.96548],[-1.30101,50.96466],[-1.3018,50.96456],[-1.30217,50.96309],[-1.30044,50.96317],[-1.3005,50.96251],[-1.30122,50.96194],[-1.30223,50.96218],[-1.30361,50.96112],[-1.30623,50.96163],[-1.30478,50.96332],[-1.30648,50.96423],[-1.30367,50.96833],[-1.30218,50.96861],[-1.30256,50.97017],[-1.30245,50.97062],[-1.30121,50.97085],[-1.30062,50.96993]]]}},{"type":"Feature","properties":{"id":"E01022685","name":"E01022685","parent":"E07000086","type":"LSOA","pop":1178,"r":168,"ff":51,"ffd":4329.4,"ffs":0.4811,"g":61,"co":2,"mo":2,"sa":0,"ic":0},"geometry":{"type":"Polygon","coordinates":[[[-1.30174,50.96657],[-1.30183,50.96604],[-1.30085,50.96639],[-1.29967,50.96542],[-1.29936,50.96565],[-1.29962,50.96614],[-1.29889,50.96601],[-1.29864,50.96668],[-1.29783,50.96607],[-1.29848,50.96523],[-1.29746,50.96534],[-1.29756,50.96565],[-1.29306,50.96495],[-1.28817,50.96594],[-1.28788,50.96557],[-1.2869,50.96583],[-1.28609,50.96504],[-1.28597,50.96379],[-1.28672,50.96373],[-1.28735,50.96412],[-1.28735,50.96452],[-1.28856,50.9643],[-1.29032,50.96447],[-1.29031,50.96389],[-1.29072,50.96385],[-1.29152,50.96448],[-1.29194,50.96429],[-1.29186,50.96383],[-1.29294,50.96382],[-1.29294,50.96407],[-1.29429,50.96436],[-1.29518,50.96385],[-1.29442,50.96308],[-1.29404,50.9616],[-1.29277,50.96191],[-1.29106,50.95986],[-1.29274,50.9595],[-1.29455,50.95968],[-1.29518,50.95993],[-1.29552,50.96074],[-1.29596,50.9621],[-1.29559,50.96241],[-1.29619,50.96251],[-1.29739,50.96457],[-1.29782,50.96458],[-1.29793,50.96404],[-1.29928,50.96402],[-1.2998,50.96344],[-1.30198,50.96344],[-1.3018,50.96456],[-1.30101,50.96466],[-1.30197,50.96548],[-1.30269,50.96556],[-1.3025,50.96635],[-1.30328,50.96678],[-1.30174,50.96657]]]}},{"type":"Feature","properties":{"id":"E01022686","name":"E01022686","parent":"E07000086","type":"LSOA","pop":2285,"r":170,"ff":52,"ffd":2275.7,"ffs":0.4771,"g":60,"co":2,"mo":2,"sa":0,"ic":0},"geometry":{"type":"Polygon","coordinates":[[[-1.29739,50.96457],[-1.29619,50.96251],[-1.29559,50.96241],[-1.29596,50.9621],[-1.29518,50.95993],[-1.29455,50.95968],[-1.29274,50.9595],[-1.29106,50.95986],[-1.291,50.95938],[-1.29243,50.95743],[-1.29236,50.95621],[-1.29472,50.95451],[-1.29482,50.95352],[-1.2948,50.95375],[-1.29544,50.95378],[-1.29597,50.95298],[-1.2958,50.95238],[-1.29645,50.95095],[-1.29678,50.95134],[-1.29905,50.95143],[-1.29931,50.95081],[-1.29871,50.9506],[-1.29893,50.95048],[-1.30453,50.95083],[-1.30569,50.95161],[-1.30724,50.95189],[-1.31082,50.95229],[-1.3126,50.95219],[-1.31424,50.95479],[-1.31494,50.95533],[-1.31737,50.95587],[-1.31645,50.9576],[-1.31393,50.95746],[-1.31343,50.9591],[-1.31003,50.95989],[-1.31001,50.96154],[-1.3065,50.9614],[-1.30623,50.96163],[-1.30361,50.96112],[-1.30223,50.96218],[-1.30122,50.96194],[-1.3005,50.96251],[-1.30044,50.96317],[-1.30217,50.96309],[-1.30198,50.96344],[-1.2998,50.96344],[-1.29928,50.96402],[-1.29793,50.96404],[-1.29782,50.96458],[-1.29739,50.96457]]]}},{"type":"Feature","properties":{"id":"E01022687","name":"E01022687","parent":"E07000086","type":"LSOA","pop":1648,"r":178,"ff":57,"ffd":3458.7,"ffs":0.4957,"g":62,"co":2,"mo":2,"sa":0,"ic":0},"geometry":{"type":"Polygon","coordinates":[[[-1.29104,50.95515],[-1.28842,50.95313],[-1.28904,50.95261],[-1.28837,50.95214],[-1.28928,50.95127],[-1.29048,50.95124],[-1.29109,50.95083],[-1.29248,50.9487],[-1.29217,50.94782],[-1.291,50.9468],[-1.29201,50.9466],[-1.29147,50.94657],[-1.29246,50.94562],[-1.29737,50.94347],[-1.29629,50.94692],[-1.30099,50.94723],[-1.30036,50.94917],[-1.30109,50.94929],[-1.3004,50.9506],[-1.29893,50.95048],[-1.29871,50.9506],[-1.29931,50.95081],[-1.29905,50.95143],[-1.29678,50.95134],[-1.29645,50.95095],[-1.2958,50.95238],[-1.29597,50.95298],[-1.29544,50.95378],[-1.2948,50.95375],[-1.29482,50.95352],[-1.29472,50.95451],[-1.29236,50.95621],[-1.29087,50.95565],[-1.29104,50.95515]]]}},{"type":"Feature","properties":{"id":"E01022688","name":"E01022688","parent":"E07000086","type":"LSOA","pop":2178,"r":103,"ff":37,"ffd":1698.8,"ffs":0.5781,"g":39,"co":2,"mo":2,"sa":0,"ic":0},"geometry":{"type":"Polygon","coordinates":[[[-1.32111,50.8697],[-1.31921,50.86917],[-1.31714,50.86932],[-1.31752,50.86608],[-1.31688,50.8638],[-1.31711,50.86332],[-1.31607,50.86291],[-1.31554,50.86333],[-1.31284,50.86297],[-1.3129,50.86127],[-1.31349,50.85959],[-1.31289,50.85953],[-1.31291,50.85845],[-1.31239,50.85781],[-1.31276,50.85597],[-1.31241,50.85582],[-1.31292,50.85519],[-1.31265,50.85502],[-1.31386,50.85516],[-1.31452,50.85375],[-1.31521,50.8533],[-1.31564,50.85357],[-1.31522,50.8538],[-1.31609,50.85355],[-1.31653,50.85378],[-1.31631,50.85345],[-1.31671,50.85309],[-1.31589,50.85344],[-1.31513,50.85318],[-1.31396,50.85361],[-1.31241,50.85287],[-1.31233,50.85211],[-1.31199,50.85183],[-1.3115,50.85191],[-1.3102,50.85079],[-1.30982,50.84984],[-1.31027,50.84901],[-1.31306,50.84885],[-1.31465,50.8501],[-1.32229,50.85204],[-1.32961,50.85613],[-1.32826,50.85793],[-1.32739,50.85749],[-1.32531,50.85898],[-1.3254,50.85975],[-1.32819,50.86137],[-1.32793,50.86174],[-1.3287,50.86195],[-1.32918,50.86242],[-1.32863,50.86337],[-1.32742,50.86198],[-1.32579,50.86143],[-1.32551,50.86092],[-1.32437,50.86222],[-1.32457,50.8631],[-1.32297,50.86365],[-1.32068,50.86503],[-1.32192,50.86715],[-1.32111,50.8697]]]}},{"type":"Feature","properties":{"id":"E01022689","name":"E01022689","parent":"E07000086","type":"LSOA","pop":2078,"r":193,"ff":71,"ffd":3416.7,"ffs":0.5299,"g":58,"co":0,"mo":2,"sa":0,"ic":0},"geometry":{"type":"Polygon","coordinates":[[[-1.33496,50.88867],[-1.33215,50.88795],[-1.33189,50.88825],[-1.3297,50.88763],[-1.32973,50.88734],[-1.32738,50.8865],[-1.32797,50.88594],[-1.32438,50.88529],[-1.32477,50.883],[-1.3242,50.88274],[-1.32069,50.88252],[-1.31958,50.88213],[-1.31937,50.88188],[-1.32031,50.88095],[-1.31998,50.87914],[-1.31863,50.8774],[-1.31803,50.8773],[-1.31825,50.87702],[-1.31774,50.8769],[-1.31763,50.87635],[-1.31666,50.8762],[-1.31554,50.87555],[-1.31602,50.87509],[-1.31694,50.87612],[-1.31633,50.87445],[-1.3171,50.87424],[-1.31649,50.87399],[-1.31643,50.87317],[-1.31591,50.87312],[-1.31532,50.87239],[-1.31481,50.87238],[-1.314,50.8725],[-1.31311,50.87313],[-1.31264,50.87184],[-1.31319,50.87181],[-1.31254,50.87153],[-1.31184,50.87006],[-1.30979,50.86968],[-1.30952,50.869],[-1.3098,50.86817],[-1.31064,50.86781],[-1.31,50.86775],[-1.31061,50.86705],[-1.31215,50.8671],[-1.31223,50.86681],[-1.3115,50.86657],[-1.31078,50.86667],[-1.31179,50.86568],[-1.31264,50.8658],[-1.31172,50.86551],[-1.312,50.86499],[-1.31247,50.86491],[-1.31212,50.86544],[-1.3127,50.86496],[-1.31321,50.86507],[-1.31286,50.86485],[-1.31386,50.86473],[-1.314,50.864],[-1.31449,50.86392],[-1.31388,50.86398],[-1.31373,50.86474],[-1.31187,50.86474],[-1.31281,50.8646],[-1.31203,50.86424],[-1.31284,50.86297],[-1.31554,50.86333],[-1.31607,50.86291],[-1.31711,50.86332],[-1.31688,50.8638],[-1.31752,50.86608],[-1.31714,50.86932],[-1.31921,50.86917],[-1.32111,50.8697],[-1.32127,50.87019],[-1.32788,50.86986],[-1.32837,50.87124],[-1.33,50.87102],[-1.33194,50.87025],[-1.33126,50.8696],[-1.33089,50.86605],[-1.33221,50.86603],[-1.33366,50.8651],[-1.33547,50.86527],[-1.34007,50.86319],[-1.35133,50.86992],[-1.3519,50.86993],[-1.35131,50.87072],[-1.35034,50.87082],[-1.35052,50.87102],[-1.34954,50.8711],[-1.34799,50.87182],[-1.34736,50.87101],[-1.34676,50.87108],[-1.34363,50.87196],[-1.33964,50.87355],[-1.34042,50.8767],[-1.33998,50.87666],[-1.3399,50.87721],[-1.34075,50.88053],[-1.34156,50.8807],[-1.3424,50.88227],[-1.34404,50.88284],[-1.34084,50.88662],[-1.33822,50.88807],[-1.33517,50.88916],[-1.3347,50.88901],[-1.33496,50.88867]]]}},{"type":"Feature","properties":{"id":"E01022690","name":"E01022690","parent":"E07000086","type":"LSOA","pop":1911,"r":121,"ff":45,"ffd":2354.8,"ffs":0.5556,"g":40,"co":2,"mo":2,"sa":0,"ic":0},"geometry":{"type":"Polygon","coordinates":[[[-1.32837,50.87124],[-1.32788,50.86986],[-1.32127,50.87019],[-1.32111,50.8697],[-1.32192,50.86715],[-1.32068,50.86503],[-1.32297,50.86365],[-1.32457,50.8631],[-1.32437,50.86222],[-1.32551,50.86092],[-1.32579,50.86143],[-1.32742,50.86198],[-1.32863,50.86337],[-1.32918,50.86242],[-1.3287,50.86195],[-1.32793,50.86174],[-1.32819,50.86137],[-1.3254,50.85975],[-1.32531,50.85898],[-1.32739,50.85749],[-1.32826,50.85793],[-1.32961,50.85613],[-1.33193,50.85713],[-1.33522,50.85928],[-1.34007,50.86319],[-1.33547,50.86527],[-1.33366,50.8651],[-1.33221,50.86603],[-1.33089,50.86605],[-1.33126,50.8696],[-1.33194,50.87025],[-1.33,50.87102],[-1.32837,50.87124]]]}},{"type":"Feature","properties":{"id":"E01022691","name":"E01022691","parent":"E07000086","type":"LSOA","pop":1522,"r":213,"ff":69,"ffd":4533.5,"ffs":0.4859,"g":70,"co":0,"mo":2,"sa":0,"ic":0},"geometry":{"type":"Polygon","coordinates":[[[-1.29549,50.93307],[-1.29121,50.9306],[-1.2922,50.92948],[-1.2944,50.93076],[-1.29438,50.93104],[-1.29534,50.93079],[-1.29657,50.93158],[-1.29657,50.93113],[-1.29708,50.93091],[-1.29743,50.93109],[-1.29737,50.93062],[-1.29829,50.93035],[-1.2985,50.92998],[-1.29984,50.92898],[-1.30122,50.93017],[-1.30174,50.93163],[-1.30272,50.93288],[-1.30251,50.93378],[-1.30065,50.93451],[-1.30075,50.93477],[-1.29975,50.93545],[-1.29549,50.93307]]]}},{"type":"Feature","properties":{"id":"E01022693","name":"E01022693","parent":"E07000086","type":"LSOA","pop":1456,"r":209,"ff":66,"ffd":4533.0,"ffs":0.4853,"g":72,"co":0,"mo":2,"sa":0,"ic":0},"geometry":{"type":"Polygon","coordinates":[[[-1.29589,50.93121],[-1.29534,50.93079],[-1.29438,50.93104],[-1.2944,50.93076],[-1.2922,50.92948],[-1.29121,50.9306],[-1.28791,50.92874],[-1.28868,50.92829],[-1.29009,50.929],[-1.29045,50.92873],[-1.28932,50.92815],[-1.28966,50.92803],[-1.289,50.92736],[-1.29009,50.92692],[-1.29041,50.92742],[-1.29135,50.9276],[-1.29164,50.9283],[-1.29317,50.92745],[-1.29144,50.92627],[-1.30108,50.92778],[-1.2985,50.92998],[-1.29829,50.93035],[-1.29737,50.93062],[-1.29743,50.93109],[-1.29708,50.93091],[-1.29657,50.93113],[-1.29657,50.93158],[-1.29589,50.93121]]]}},{"type":"Feature","properties":{"id":"E01022694","name":"E01022694","parent":"E07000086","type":"LSOA","pop":1734,"r":255,"ff":85,"ffd":4902.0,"ffs":0.4942,"g":82,"co":0,"mo":2,"sa":0,"ic":0},"geometry":{"type":"Polygon","coordinates":[[[-1.29009,50.929],[-1.28868,50.92829],[-1.28791,50.92874],[-1.28209,50.9258],[-1.27827,50.92429],[-1.27837,50.92403],[-1.28241,50.92197],[-1.28631,50.91946],[-1.28835,50.91886],[-1.2913,50.91688],[-1.2915,50.91654],[-1.29405,50.91743],[-1.29911,50.92093],[-1.29932,50.9214],[-1.29774,50.92322],[-1.29636,50.92341],[-1.2962,50.92478],[-1.29676,50.92562],[-1.29804,50.92551],[-1.30186,50.92635],[-1.30108,50.92778],[-1.29144,50.92627],[-1.29317,50.92745],[-1.29164,50.9283],[-1.29135,50.9276],[-1.29041,50.92742],[-1.29009,50.92692],[-1.289,50.92736],[-1.28966,50.92803],[-1.28932,50.92815],[-1.29045,50.92873],[-1.29009,50.929]]]}},{"type":"Feature","properties":{"id":"E01022695","name":"E01022695","parent":"E07000086","type":"LSOA","pop":1255,"r":213,"ff":71,"ffd":5657.4,"ffs":0.5035,"g":71,"co":0,"mo":2,"sa":0,"ic":0},"geometry":{"type":"Polygon","coordinates":[[[-1.29158,50.91624],[-1.29162,50.916],[-1.29108,50.91609],[-1.29056,50.9145],[-1.29103,50.91281],[-1.29309,50.91148],[-1.29525,50.91249],[-1.29603,50.91355],[-1.2969,50.91352],[-1.29653,50.91183],[-1.29677,50.91161],[-1.2979,50.91199],[-1.29816,50.91175],[-1.29774,50.91152],[-1.29877,50.91117],[-1.29934,50.91172],[-1.29965,50.91156],[-1.30031,50.91195],[-1.30048,50.9123],[-1.29848,50.91284],[-1.29981,50.91374],[-1.30164,50.91287],[-1.30143,50.91331],[-1.30201,50.91353],[-1.30239,50.91298],[-1.30303,50.91264],[-1.30375,50.91287],[-1.30435,50.91226],[-1.30459,50.91259],[-1.30406,50.91312],[-1.30446,50.91315],[-1.30444,50.91342],[-1.30003,50.91453],[-1.29158,50.91624]]]}},{"type":"Feature","properties":{"id":"E01022696","name":"E01022696","parent":"E07000086","type":"LSOA","pop":1444,"r":225,"ff":76,"ffd":5263.2,"ffs":0.5,"g":72,"co":0,"mo":2,"sa":0,"ic":0},"geometry":{"type":"Polygon","coordinates":[[[-1.29981,50.91374],[-1.29848,50.91284],[-1.30048,50.9123],[-1.30031,50.91195],[-1.29965,50.91156],[-1.29934,50.91172],[-1.29877,50.91117],[-1.29774,50.91152],[-1.29816,50.91175],[-1.2979,50.91199],[-1.29677,50.91161],[-1.29653,50.91183],[-1.2969,50.91352],[-1.29603,50.91355],[-1.29525,50.91249],[-1.29309,50.91148],[-1.29548,50.91085],[-1.29506,50.9103],[-1.2955,50.91023],[-1.29609,50.90928],[-1.29711,50.90954],[-1.29722,50.90913],[-1.29789,50.90936],[-1.29927,50.90866],[-1.29883,50.90836],[-1.29993,50.90782],[-1.30033,50.90815],[-1.30058,50.908],[-1.30109,50.90814],[-1.30075,50.90842],[-1.30159,50.90905],[-1.3022,50.90822],[-1.30354,50.90842],[-1.30271,50.90924],[-1.30311,50.90954],[-1.30386,50.9095],[-1.30485,50.90894],[-1.30606,50.90772],[-1.30638,50.90785],[-1.30471,50.91113],[-1.30543,50.91148],[-1.30375,50.91287],[-1.30303,50.91264],[-1.30239,50.91298],[-1.30201,50.91353],[-1.30143,50.91331],[-1.30164,50.91287],[-1.29981,50.91374]]]}},{"type":"Feature","properties":{"id":"E01022697","name":"E01022697","parent":"E07000086","type":"LSOA","pop":1567,"r":291,"ff":100,"ffd":6381.6,"ffs":0.5,"g":89,"co":0,"mo":2,"sa":0,"ic":0},"geometry":{"type":"Polygon","coordinates":[[[-1.31418,50.91152],[-1.31299,50.91133],[-1.31129,50.9116],[-1.30444,50.91342],[-1.30446,50.91315],[-1.30406,50.91312],[-1.30459,50.91259],[-1.30435,50.91226],[-1.30724,50.91014],[-1.30619,50.91025],[-1.30702,50.90937],[-1.30847,50.90867],[-1.30894,50.90888],[-1.31074,50.90756],[-1.30892,50.90671],[-1.30943,50.90633],[-1.31152,50.90638],[-1.31187,50.90608],[-1.31231,50.90627],[-1.31506,50.90379],[-1.31793,50.90851],[-1.31859,50.91015],[-1.31899,50.9102],[-1.31928,50.91264],[-1.31806,50.91659],[-1.31618,50.91643],[-1.31538,50.91495],[-1.31509,50.9122],[-1.31418,50.91152]]]}},{"type":"Feature","properties":{"id":"E01022698","name":"E01022698","parent":"E07000086","type":"LSOA","pop":2005,"r":267,"ff":93,"ffd":4638.4,"ffs":0.5,"g":79,"co":0,"mo":2,"sa":0,"ic":0},"geometry":{"type":"Polygon","coordinates":[[[-1.31793,50.90851],[-1.31506,50.90379],[-1.31231,50.90627],[-1.31187,50.90608],[-1.31152,50.90638],[-1.30943,50.90633],[-1.30892,50.90671],[-1.31074,50.90756],[-1.30894,50.90888],[-1.30847,50.90867],[-1.30702,50.90937],[-1.30619,50.91025],[-1.30724,50.91014],[-1.30543,50.91148],[-1.30471,50.91113],[-1.30638,50.90785],[-1.30606,50.90772],[-1.30485,50.90894],[-1.30386,50.9095],[-1.30311,50.90954],[-1.30271,50.90924],[-1.30369,50.90812],[-1.3027,50.90754],[-1.30379,50.90689],[-1.30349,50.90662],[-1.30472,50.90608],[-1.30438,50.9058],[-1.30393,50.90599],[-1.30359,50.90542],[-1.30262,50.90564],[-1.30231,50.90538],[-1.30266,50.90518],[-1.30277,50.90319],[-1.30464,50.9038],[-1.30884,50.90427],[-1.30954,50.9008],[-1.31898,50.89901],[-1.3194,50.90211],[-1.32022,50.90432],[-1.32191,50.9075],[-1.32528,50.91167],[-1.32756,50.91411],[-1.32364,50.91665],[-1.3214,50.91713],[-1.31893,50.91722],[-1.31806,50.91659],[-1.31928,50.91264],[-1.31899,50.9102],[-1.31859,50.91015],[-1.31793,50.90851]]]}},{"type":"Feature","properties":{"id":"E01022699","name":"E01022699","parent":"E07000086","type":"LSOA","pop":1773,"r":208,"ff":69,"ffd":3891.7,"ffs":0.4964,"g":68,"co":0,"mo":2,"sa":0,"ic":0},"geometry":{"type":"Polygon","coordinates":[[[-1.29506,50.9103],[-1.29548,50.90828],[-1.29508,50.9073],[-1.29488,50.90547],[-1.29517,50.90292],[-1.29859,50.90357],[-1.30007,50.90296],[-1.3015,50.90287],[-1.30277,50.90319],[-1.30266,50.90518],[-1.30231,50.90538],[-1.30262,50.90564],[-1.30359,50.90542],[-1.30393,50.90599],[-1.30438,50.9058],[-1.30472,50.90608],[-1.30349,50.90662],[-1.30379,50.90689],[-1.3027,50.90754],[-1.30369,50.90812],[-1.30354,50.90842],[-1.3022,50.90822],[-1.30159,50.90905],[-1.30075,50.90842],[-1.30109,50.90814],[-1.30058,50.908],[-1.30033,50.90815],[-1.29993,50.90782],[-1.29883,50.90836],[-1.29927,50.90866],[-1.29789,50.90936],[-1.29722,50.90913],[-1.29711,50.90954],[-1.29609,50.90928],[-1.2955,50.91023],[-1.29506,50.9103]]]}},{"type":"Feature","properties":{"id":"E01022700","name":"E01022700","parent":"E07000086","type":"LSOA","pop":1506,"r":279,"ff":97,"ffd":6440.9,"ffs":0.5052,"g":85,"co":0,"mo":2,"sa":0,"ic":0},"geometry":{"type":"Polygon","coordinates":[[[-1.30357,50.92686],[-1.30435,50.92515],[-1.30359,50.925],[-1.30389,50.92424],[-1.30455,50.92437],[-1.30409,50.92306],[-1.30303,50.92294],[-1.30361,50.9216],[-1.3023,50.92134],[-1.30111,50.92065],[-1.30007,50.92086],[-1.29937,50.9205],[-1.29911,50.92093],[-1.29819,50.92025],[-1.29894,50.91971],[-1.30355,50.92007],[-1.30362,50.91931],[-1.30436,50.91928],[-1.30265,50.91705],[-1.30172,50.917],[-1.30267,50.9167],[-1.30316,50.91606],[-1.30298,50.91567],[-1.30156,50.91518],[-1.29975,50.9156],[-1.30052,50.91494],[-1.30003,50.91453],[-1.30633,50.9129],[-1.30654,50.9132],[-1.30816,50.9132],[-1.30641,50.91502],[-1.30495,50.91508],[-1.30493,50.91559],[-1.30569,50.91699],[-1.30642,50.91679],[-1.30722,50.91713],[-1.3068,50.91856],[-1.30572,50.91892],[-1.30589,50.9194],[-1.3073,50.91981],[-1.3076,50.91926],[-1.30713,50.91894],[-1.30816,50.91825],[-1.30982,50.91818],[-1.31051,50.91735],[-1.31209,50.91848],[-1.31019,50.92035],[-1.31222,50.92114],[-1.31199,50.92136],[-1.3127,50.92203],[-1.31284,50.92303],[-1.31347,50.92306],[-1.31107,50.92459],[-1.31055,50.92448],[-1.30855,50.92668],[-1.30697,50.92631],[-1.30626,50.92687],[-1.30458,50.92715],[-1.30357,50.92686]]]}},{"type":"Feature","properties":{"id":"E01022701","name":"E01022701","parent":"E07000086","type":"LSOA","pop":1160,"r":234,"ff":79,"ffd":6810.3,"ffs":0.5,"g":75,"co":0,"mo":2,"sa":0,"ic":0},"geometry":{"type":"Polygon","coordinates":[[[-1.29754,50.91979],[-1.29405,50.91743],[-1.2915,50.91654],[-1.29158,50.91624],[-1.30003,50.91453],[-1.30052,50.91494],[-1.29975,50.9156],[-1.30156,50.91518],[-1.30298,50.91567],[-1.30316,50.91606],[-1.30267,50.9167],[-1.30172,50.917],[-1.30265,50.91705],[-1.30436,50.91928],[-1.30362,50.91931],[-1.30355,50.92007],[-1.29894,50.91971],[-1.29819,50.92025],[-1.29754,50.91979]]]}},{"type":"Feature","properties":{"id":"E01022702","name":"E01022702","parent":"E07000086","type":"LSOA","pop":1272,"r":284,"ff":99,"ffd":7783.0,"ffs":0.5025,"g":85,"co":0,"mo":2,"sa":0,"ic":0},"geometry":{"type":"Polygon","coordinates":[[[-1.31209,50.91848],[-1.31051,50.91735],[-1.30982,50.91818],[-1.30816,50.91825],[-1.30713,50.91894],[-1.3076,50.91926],[-1.3073,50.91981],[-1.30589,50.9194],[-1.30572,50.91892],[-1.3068,50.91856],[-1.30722,50.91713],[-1.30642,50.91679],[-1.30569,50.91699],[-1.30493,50.91559],[-1.30495,50.91508],[-1.30641,50.91502],[-1.30816,50.9132],[-1.30654,50.9132],[-1.30633,50.9129],[-1.31129,50.9116],[-1.31299,50.91133],[-1.31418,50.91152],[-1.31509,50.9122],[-1.31538,50.91495],[-1.31618,50.91643],[-1.31806,50.91659],[-1.31893,50.91722],[-1.3214,50.91713],[-1.32364,50.91665],[-1.31347,50.92306],[-1.31284,50.92303],[-1.3127,50.92203],[-1.31199,50.92136],[-1.31222,50.92114],[-1.31019,50.92035],[-1.31209,50.91848]]]}},{"type":"Feature","properties":{"id":"E01022703","name":"E01022703","parent":"E07000086","type":"LSOA","pop":1472,"r":276,"ff":95,"ffd":6453.8,"ffs":0.508,"g":87,"co":0,"mo":2,"sa":0,"ic":0},"geometry":{"type":"Polygon","coordinates":[[[-1.29832,50.92556],[-1.29676,50.92562],[-1.2962,50.92478],[-1.29636,50.92341],[-1.29774,50.92322],[-1.29932,50.9214],[-1.29911,50.92093],[-1.29937,50.9205],[-1.30007,50.92086],[-1.30111,50.92065],[-1.3023,50.92134],[-1.30361,50.9216],[-1.30303,50.92294],[-1.30409,50.92306],[-1.30455,50.92437],[-1.30389,50.92424],[-1.30359,50.925],[-1.30435,50.92515],[-1.30357,50.92686],[-1.30458,50.92715],[-1.30229,50.92746],[-1.30147,50.9279],[-1.30108,50.92778],[-1.30186,50.92635],[-1.29832,50.92556]]]}},{"type":"Feature","properties":{"id":"E01022704","name":"E01022704","parent":"E07000086","type":"LSOA","pop":1889,"r":269,"ff":84,"ffd":4446.8,"ffs":0.4855,"g":93,"co":0,"mo":2,"sa":0,"ic":0},"geometry":{"type":"Polygon","coordinates":[[[-1.36353,50.9924],[-1.36357,50.9916],[-1.36317,50.99138],[-1.36216,50.99136],[-1.36167,50.99216],[-1.36014,50.9918],[-1.36406,50.98533],[-1.36618,50.98257],[-1.36794,50.98328],[-1.37182,50.9863],[-1.37132,50.98658],[-1.3693,50.98496],[-1.36883,50.98508],[-1.36966,50.98597],[-1.36861,50.98656],[-1.36751,50.98625],[-1.36764,50.98594],[-1.36715,50.98582],[-1.36702,50.98638],[-1.3676,50.98665],[-1.36656,50.98774],[-1.36874,50.98857],[-1.36832,50.98906],[-1.36994,50.98963],[-1.36989,50.9904],[-1.36784,50.99183],[-1.36749,50.99165],[-1.36657,50.99294],[-1.36589,50.99308],[-1.36353,50.9924]]]}},{"type":"Feature","properties":{"id":"E01022705","name":"E01022705","parent":"E07000086","type":"LSOA","pop":1682,"r":250,"ff":77,"ffd":4577.9,"ffs":0.4813,"g":87,"co":0,"mo":2,"sa":0,"ic":0},"geometry":{"type":"Polygon","coordinates":[[[-1.37182,50.99639],[-1.36924,50.99551],[-1.3691,50.99471],[-1.36766,50.99419],[-1.36721,50.9945],[-1.3656,50.99377],[-1.36657,50.99294],[-1.36749,50.99165],[-1.36784,50.99183],[-1.36989,50.9904],[-1.36994,50.98963],[-1.36832,50.98906],[-1.36874,50.98857],[-1.36656,50.98774],[-1.3676,50.98665],[-1.36702,50.98638],[-1.36715,50.98582],[-1.36764,50.98594],[-1.36751,50.98625],[-1.36861,50.98656],[-1.36966,50.98597],[-1.36883,50.98508],[-1.3693,50.98496],[-1.37132,50.98658],[-1.37182,50.9863],[-1.37411,50.98792],[-1.375,50.98758],[-1.37753,50.98938],[-1.37957,50.98973],[-1.3796,50.99101],[-1.37591,50.99375],[-1.37453,50.9962],[-1.37373,50.99602],[-1.37309,50.99625],[-1.37236,50.9959],[-1.37182,50.99639]]]}},{"type":"Feature","properties":{"id":"E01022706","name":"E01022706","parent":"E07000086","type":"LSOA","pop":1700,"r":257,"ff":78,"ffd":4588.2,"ffs":0.4727,"g":89,"co":0,"mo":2,"sa":0,"ic":0},"geometry":{"type":"Polygon","coordinates":[[[-1.36302,50.99992],[-1.35968,50.99863],[-1.35707,50.99843],[-1.35817,50.9951],[-1.36014,50.9918],[-1.36167,50.99216],[-1.36216,50.99136],[-1.36317,50.99138],[-1.36357,50.9916],[-1.36353,50.9924],[-1.36589,50.99308],[-1.36657,50.99294],[-1.3656,50.99377],[-1.36721,50.9945],[-1.36766,50.99419],[-1.3691,50.99471],[-1.36924,50.99551],[-1.37182,50.99639],[-1.37236,50.9959],[-1.37309,50.99625],[-1.37373,50.99602],[-1.37453,50.9962],[-1.3741,50.99779],[-1.37501,50.99798],[-1.37541,50.99871],[-1.37591,50.99884],[-1.37665,50.99842],[-1.37979,50.9991],[-1.38057,50.99814],[-1.38125,50.99832],[-1.37959,51.00058],[-1.37885,51.00295],[-1.3689,51.0014],[-1.36804,51.00054],[-1.36302,50.99992]]]}},{"type":"Feature","properties":{"id":"E01022707","name":"E01022707","parent":"E07000086","type":"LSOA","pop":1906,"r":200,"ff":53,"ffd":2780.7,"ffs":0.424,"g":73,"co":0,"mo":2,"sa":0,"ic":0},"geometry":{"type":"Polygon","coordinates":[[[-1.39193,50.99922],[-1.39182,50.99888],[-1.39133,50.99897],[-1.39006,50.99824],[-1.39144,50.99707],[-1.39137,50.99674],[-1.39026,50.99705],[-1.38842,50.99675],[-1.38707,50.99628],[-1.386,50.99549],[-1.38637,50.99522],[-1.38757,50.9956],[-1.38792,50.99523],[-1.38732,50.99494],[-1.38574,50.99509],[-1.3847,50.99598],[-1.38355,50.99508],[-1.3813,50.99517],[-1.38106,50.99552],[-1.37992,50.99541],[-1.38055,50.99473],[-1.38175,50.99468],[-1.38257,50.99423],[-1.38217,50.99402],[-1.38276,50.99406],[-1.3827,50.99366],[-1.38327,50.99351],[-1.38321,50.99313],[-1.38517,50.99285],[-1.38528,50.9932],[-1.3843,50.99341],[-1.38455,50.99397],[-1.38585,50.99381],[-1.38741,50.99345],[-1.38723,50.99286],[-1.38667,50.99291],[-1.38662,50.99256],[-1.39042,50.99156],[-1.39157,50.99152],[-1.39704,50.99052],[-1.39693,50.99019],[-1.39718,50.99048],[-1.39732,50.99174],[-1.39684,50.99248],[-1.39779,50.99298],[-1.39813,50.99438],[-1.39964,50.99467],[-1.39911,50.9965],[-1.398,50.99764],[-1.39576,50.99898],[-1.39193,50.99922]]]}},{"type":"Feature","properties":{"id":"E01022708","name":"E01022708","parent":"E07000086","type":"LSOA","pop":1860,"r":200,"ff":55,"ffd":2957.0,"ffs":0.4435,"g":74,"co":0,"mo":2,"sa":0,"ic":0},"geometry":{"type":"Polygon","coordinates":[[[-1.37885,51.00295],[-1.37959,51.00058],[-1.38034,51.00069],[-1.38022,51.0012],[-1.38146,51.0008],[-1.38093,51.00022],[-1.3821,50.99843],[-1.38772,50.99953],[-1.38789,50.99905],[-1.38904,50.99835],[-1.39006,50.99824],[-1.39133,50.99897],[-1.39182,50.99888],[-1.39297,51.00436],[-1.38906,51.00362],[-1.38589,51.00428],[-1.38452,51.00424],[-1.37885,51.00295]]]}},{"type":"Feature","properties":{"id":"E01022709","name":"E01022709","parent":"E07000086","type":"LSOA","pop":1784,"r":228,"ff":66,"ffd":3699.6,"ffs":0.4615,"g":83,"co":0,"mo":2,"sa":0,"ic":0},"geometry":{"type":"Polygon","coordinates":[[[-1.37959,51.00058],[-1.38125,50.99832],[-1.38057,50.99814],[-1.37979,50.9991],[-1.37665,50.99842],[-1.37591,50.99884],[-1.37541,50.99871],[-1.37501,50.99798],[-1.3741,50.99779],[-1.37453,50.9962],[-1.37591,50.99375],[-1.37802,50.99229],[-1.37938,50.99257],[-1.38171,50.99142],[-1.38652,50.99068],[-1.38687,50.99146],[-1.38482,50.99182],[-1.38499,50.99247],[-1.38609,50.99228],[-1.38662,50.99256],[-1.38667,50.99291],[-1.38723,50.99286],[-1.38741,50.99345],[-1.38455,50.99397],[-1.3843,50.99341],[-1.38528,50.9932],[-1.38517,50.99285],[-1.38321,50.99313],[-1.38327,50.99351],[-1.3827,50.99366],[-1.38276,50.99406],[-1.38217,50.99402],[-1.38257,50.99423],[-1.38175,50.99468],[-1.38055,50.99473],[-1.37992,50.99541],[-1.38106,50.99552],[-1.3813,50.99517],[-1.38355,50.99508],[-1.3847,50.99598],[-1.38574,50.99509],[-1.38732,50.99494],[-1.38792,50.99523],[-1.38757,50.9956],[-1.38637,50.99522],[-1.386,50.99549],[-1.38707,50.99628],[-1.38842,50.99675],[-1.39026,50.99705],[-1.39137,50.99674],[-1.39144,50.99707],[-1.39006,50.99824],[-1.38904,50.99835],[-1.38789,50.99905],[-1.38772,50.99953],[-1.3821,50.99843],[-1.38093,51.00022],[-1.38146,51.0008],[-1.38022,51.0012],[-1.38034,51.00069],[-1.37959,51.00058]]]}},{"type":"Feature","properties":{"id":"E01022710","name":"E01022710","parent":"E07000086","type":"LSOA","pop":2239,"r":185,"ff":70,"ffd":3126.4,"ffs":0.5303,"g":52,"co":0,"mo":2,"sa":0,"ic":0},"geometry":{"type":"Polygon","coordinates":[[[-1.35444,50.87637],[-1.35355,50.87518],[-1.35312,50.87541],[-1.35264,50.87515],[-1.35231,50.87539],[-1.35277,50.87595],[-1.35251,50.87619],[-1.35156,50.87579],[-1.35187,50.87553],[-1.35161,50.87525],[-1.35056,50.87484],[-1.3496,50.87488],[-1.34933,50.87562],[-1.34862,50.87593],[-1.34807,50.87479],[-1.3476,50.87463],[-1.34797,50.87419],[-1.34663,50.87446],[-1.34557,50.87433],[-1.3454,50.87407],[-1.34443,50.87429],[-1.34391,50.87318],[-1.34525,50.87151],[-1.34736,50.87101],[-1.34799,50.87182],[-1.34954,50.8711],[-1.35052,50.87102],[-1.35034,50.87082],[-1.35131,50.87072],[-1.3519,50.86993],[-1.35856,50.87587],[-1.365,50.87994],[-1.36355,50.88137],[-1.3612,50.88298],[-1.36014,50.88419],[-1.35826,50.88516],[-1.35425,50.8859],[-1.35112,50.8868],[-1.34939,50.88859],[-1.34834,50.88673],[-1.34772,50.88444],[-1.34404,50.88282],[-1.35222,50.87918],[-1.35258,50.87893],[-1.35225,50.87824],[-1.35358,50.87752],[-1.35354,50.87683],[-1.35444,50.87637]]]}},{"type":"Feature","properties":{"id":"E01022711","name":"E01022711","parent":"E07000086","type":"LSOA","pop":1788,"r":180,"ff":69,"ffd":3859.1,"ffs":0.5349,"g":50,"co":0,"mo":2,"sa":0,"ic":0},"geometry":{"type":"Polygon","coordinates":[[[-1.34688,50.8816],[-1.3464,50.88059],[-1.34545,50.88075],[-1.34438,50.88038],[-1.34301,50.88092],[-1.34287,50.8806],[-1.34469,50.88005],[-1.34422,50.87928],[-1.34473,50.87911],[-1.34319,50.87799],[-1.34434,50.87773],[-1.34398,50.87715],[-1.34532,50.8767],[-1.34403,50.87541],[-1.34513,50.87506],[-1.3454,50.87407],[-1.34557,50.87433],[-1.34663,50.87446],[-1.34797,50.87419],[-1.3476,50.87463],[-1.34807,50.87479],[-1.3487,50.87595],[-1.34933,50.87562],[-1.3496,50.87488],[-1.35056,50.87484],[-1.35161,50.87525],[-1.35187,50.87553],[-1.35156,50.87579],[-1.35251,50.87619],[-1.35277,50.87595],[-1.35231,50.87539],[-1.35264,50.87515],[-1.35312,50.87541],[-1.35355,50.87518],[-1.35444,50.87637],[-1.35354,50.87683],[-1.35358,50.87752],[-1.35225,50.87824],[-1.35258,50.87893],[-1.34688,50.8816]]]}},{"type":"Feature","properties":{"id":"E01022712","name":"E01022712","parent":"E07000086","type":"LSOA","pop":1596,"r":212,"ff":78,"ffd":4887.2,"ffs":0.52,"g":61,"co":0,"mo":2,"sa":0,"ic":0},"geometry":{"type":"Polygon","coordinates":[[[-1.3424,50.88227],[-1.34156,50.8807],[-1.34075,50.88053],[-1.3399,50.87721],[-1.33998,50.87666],[-1.34042,50.8767],[-1.33964,50.87355],[-1.34363,50.87196],[-1.34525,50.87151],[-1.34391,50.87318],[-1.34443,50.87429],[-1.3454,50.87407],[-1.34513,50.87506],[-1.34403,50.87541],[-1.34532,50.8767],[-1.34398,50.87715],[-1.34434,50.87773],[-1.34319,50.87799],[-1.34473,50.87911],[-1.34422,50.87928],[-1.34469,50.88005],[-1.34287,50.8806],[-1.34301,50.88092],[-1.34438,50.88038],[-1.34545,50.88075],[-1.3464,50.88059],[-1.34688,50.8816],[-1.3441,50.88286],[-1.3424,50.88227]]]}},{"type":"Feature","properties":{"id":"E01022713","name":"E01022713","parent":"E07000086","type":"LSOA","pop":2330,"r":294,"ff":108,"ffd":4635.2,"ffs":0.5118,"g":81,"co":0,"mo":2,"sa":0,"ic":0},"geometry":{"type":"Polygon","coordinates":[[[-1.32826,50.95538],[-1.32542,50.95468],[-1.32353,50.95471],[-1.32265,50.95535],[-1.32067,50.95591],[-1.31737,50.95587],[-1.31494,50.95533],[-1.31424,50.95479],[-1.3126,50.95219],[-1.31082,50.95229],[-1.30724,50.95189],[-1.30569,50.95161],[-1.30453,50.95083],[-1.3004,50.9506],[-1.30109,50.94929],[-1.30036,50.94917],[-1.30099,50.94723],[-1.29629,50.94692],[-1.29849,50.94038],[-1.30347,50.93761],[-1.30702,50.93458],[-1.30825,50.93309],[-1.30826,50.93138],[-1.30975,50.92882],[-1.31107,50.92459],[-1.31928,50.92646],[-1.32378,50.92717],[-1.32785,50.92727],[-1.32799,50.92861],[-1.32752,50.92969],[-1.32771,50.93039],[-1.32562,50.93141],[-1.32687,50.9324],[-1.32871,50.93287],[-1.32958,50.93282],[-1.32967,50.93242],[-1.33108,50.93206],[-1.33134,50.93281],[-1.33379,50.93186],[-1.33401,50.93288],[-1.33264,50.93353],[-1.33319,50.93393],[-1.33444,50.93397],[-1.33454,50.9343],[-1.33512,50.93434],[-1.3346,50.93704],[-1.33629,50.93725],[-1.33641,50.93838],[-1.33716,50.9392],[-1.34176,50.93886],[-1.34511,50.93913],[-1.34717,50.9385],[-1.34831,50.93652],[-1.35216,50.93783],[-1.35393,50.93622],[-1.35455,50.93681],[-1.35663,50.93769],[-1.35894,50.938],[-1.35695,50.93947],[-1.35457,50.94054],[-1.35471,50.94097],[-1.35354,50.94074],[-1.35458,50.93936],[-1.35384,50.93916],[-1.35307,50.93948],[-1.35251,50.94068],[-1.35174,50.94103],[-1.35204,50.94147],[-1.35042,50.94239],[-1.34943,50.94246],[-1.34909,50.94294],[-1.34863,50.94279],[-1.34762,50.94327],[-1.34736,50.94431],[-1.34598,50.94457],[-1.34645,50.94544],[-1.34574,50.94593],[-1.34667,50.94622],[-1.34404,50.94701],[-1.34383,50.94777],[-1.34294,50.94839],[-1.34326,50.94879],[-1.34264,50.94912],[-1.34278,50.94978],[-1.34176,50.95075],[-1.34203,50.95179],[-1.34173,50.95227],[-1.33905,50.95239],[-1.33821,50.95328],[-1.33715,50.95361],[-1.33739,50.95406],[-1.3387,50.95406],[-1.33774,50.9546],[-1.33758,50.95575],[-1.33673,50.95535],[-1.33682,50.95585],[-1.335,50.95663],[-1.33542,50.95746],[-1.33503,50.95782],[-1.33214,50.95723],[-1.32826,50.95538]]]}},{"type":"Feature","properties":{"id":"E01022714","name":"E01022714","parent":"E07000086","type":"LSOA","pop":1596,"r":310,"ff":115,"ffd":7205.5,"ffs":0.5044,"g":80,"co":0,"mo":2,"sa":0,"ic":0},"geometry":{"type":"Polygon","coordinates":[[[-1.33454,50.9343],[-1.33444,50.93397],[-1.33319,50.93393],[-1.33264,50.93353],[-1.33401,50.93288],[-1.33379,50.93186],[-1.33134,50.93281],[-1.33108,50.93206],[-1.32967,50.93242],[-1.32958,50.93282],[-1.32871,50.93287],[-1.32687,50.9324],[-1.32562,50.93141],[-1.32771,50.93039],[-1.32752,50.92969],[-1.32799,50.92861],[-1.32785,50.92727],[-1.32746,50.92726],[-1.33277,50.92738],[-1.33645,50.92764],[-1.33594,50.92819],[-1.33523,50.92817],[-1.33483,50.92915],[-1.33518,50.92945],[-1.33591,50.9294],[-1.33641,50.93004],[-1.33591,50.93032],[-1.33641,50.93132],[-1.33784,50.93149],[-1.33831,50.93017],[-1.34199,50.93165],[-1.33984,50.93253],[-1.33914,50.93239],[-1.33764,50.93318],[-1.33805,50.93361],[-1.3377,50.93438],[-1.33729,50.93451],[-1.33649,50.93402],[-1.33492,50.93495],[-1.33512,50.93434],[-1.33454,50.9343]]]}},{"type":"Feature","properties":{"id":"E01022715","name":"E01022715","parent":"E07000086","type":"LSOA","pop":2054,"r":352,"ff":130,"ffd":6329.1,"ffs":0.5098,"g":94,"co":0,"mo":2,"sa":0,"ic":0},"geometry":{"type":"Polygon","coordinates":[[[-1.33716,50.9392],[-1.33641,50.93838],[-1.33629,50.93725],[-1.3346,50.93704],[-1.33492,50.93495],[-1.33649,50.93402],[-1.33729,50.93451],[-1.3377,50.93438],[-1.33805,50.93361],[-1.33764,50.93318],[-1.33914,50.93239],[-1.33984,50.93253],[-1.34199,50.93165],[-1.33831,50.93017],[-1.33784,50.93149],[-1.33641,50.93132],[-1.33591,50.93032],[-1.33641,50.93004],[-1.33591,50.9294],[-1.33518,50.92945],[-1.33483,50.92915],[-1.33523,50.92817],[-1.33594,50.92819],[-1.33645,50.92764],[-1.33776,50.92777],[-1.34069,50.92872],[-1.34264,50.92889],[-1.34383,50.92866],[-1.34496,50.92956],[-1.34802,50.93395],[-1.3491,50.93429],[-1.35016,50.93328],[-1.35232,50.93359],[-1.35345,50.93237],[-1.35593,50.93327],[-1.35467,50.93425],[-1.35286,50.93526],[-1.35393,50.93622],[-1.35216,50.93783],[-1.34831,50.93652],[-1.34717,50.9385],[-1.34511,50.93913],[-1.34176,50.93886],[-1.33716,50.9392]]]}},{"type":"Feature","properties":{"id":"E01022716","name":"E01022716","parent":"E07000086","type":"LSOA","pop":1458,"r":378,"ff":151,"ffd":10356.7,"ffs":0.5336,"g":92,"co":0,"mo":2,"sa":0,"ic":0},"geometry":{"type":"Polygon","coordinates":[[[-1.34802,50.93395],[-1.34496,50.92956],[-1.34602,50.92993],[-1.34805,50.9325],[-1.34907,50.93246],[-1.34839,50.93192],[-1.34944,50.9317],[-1.34919,50.93092],[-1.34808,50.93083],[-1.34933,50.93002],[-1.34971,50.93003],[-1.34975,50.93051],[-1.35018,50.93048],[-1.35016,50.9298],[-1.35101,50.92966],[-1.35042,50.92928],[-1.35162,50.92873],[-1.35216,50.9275],[-1.35287,50.92865],[-1.3521,50.92924],[-1.3532,50.92908],[-1.35435,50.93076],[-1.35487,50.93077],[-1.35588,50.92947],[-1.35793,50.93073],[-1.35729,50.93247],[-1.35593,50.93327],[-1.35345,50.93237],[-1.35232,50.93359],[-1.35016,50.93328],[-1.3491,50.93429],[-1.34802,50.93395]]]}},{"type":"Feature","properties":{"id":"E01022717","name":"E01022717","parent":"E07000086","type":"LSOA","pop":1212,"r":371,"ff":150,"ffd":12376.2,"ffs":0.5357,"g":89,"co":0,"mo":2,"sa":0,"ic":0},"geometry":{"type":"Polygon","coordinates":[[[-1.34805,50.9325],[-1.34602,50.92993],[-1.34677,50.9295],[-1.34731,50.92978],[-1.34783,50.92918],[-1.34767,50.92804],[-1.34687,50.92857],[-1.34625,50.9285],[-1.34576,50.92879],[-1.34511,50.92805],[-1.34523,50.92679],[-1.34659,50.92651],[-1.34674,50.92689],[-1.34714,50.92682],[-1.34677,50.92631],[-1.34772,50.92605],[-1.34815,50.92666],[-1.3485,50.92664],[-1.34845,50.92633],[-1.34983,50.92616],[-1.35014,50.9258],[-1.3512,50.92665],[-1.35313,50.92615],[-1.35477,50.92862],[-1.35588,50.92947],[-1.35487,50.93077],[-1.35435,50.93076],[-1.3532,50.92908],[-1.3521,50.92924],[-1.35287,50.92865],[-1.35216,50.9275],[-1.35162,50.92873],[-1.35042,50.92928],[-1.35101,50.92966],[-1.35016,50.9298],[-1.35018,50.93048],[-1.34975,50.93051],[-1.34971,50.93003],[-1.34933,50.93002],[-1.34808,50.93083],[-1.34919,50.93092],[-1.34944,50.9317],[-1.34839,50.93192],[-1.34907,50.93246],[-1.34805,50.9325]]]}},{"type":"Feature","properties":{"id":"E01022718","name":"E01022718","parent":"E07000086","type":"LSOA","pop":1544,"r":344,"ff":131,"ffd":8484.5,"ffs":0.5178,"g":89,"co":0,"mo":2,"sa":0,"ic":0},"geometry":{"type":"Polygon","coordinates":[[[-1.34496,50.92956],[-1.34383,50.92866],[-1.34264,50.92889],[-1.34069,50.92872],[-1.33776,50.92777],[-1.33796,50.92743],[-1.33737,50.92663],[-1.33841,50.92609],[-1.3376,50.92593],[-1.3379,50.92564],[-1.33757,50.9252],[-1.33895,50.92513],[-1.33947,50.92466],[-1.33867,50.92403],[-1.33949,50.92371],[-1.3445,50.92285],[-1.34737,50.92454],[-1.35014,50.9258],[-1.34983,50.92616],[-1.34845,50.92633],[-1.3485,50.92664],[-1.34815,50.92666],[-1.34772,50.92605],[-1.34677,50.92631],[-1.34714,50.92682],[-1.34674,50.92689],[-1.34659,50.92651],[-1.34523,50.92679],[-1.34511,50.92805],[-1.34576,50.92879],[-1.34625,50.9285],[-1.34687,50.92857],[-1.34767,50.92804],[-1.34783,50.92918],[-1.34731,50.92978],[-1.34677,50.9295],[-1.34602,50.92993],[-1.34496,50.92956]]]}},{"type":"Feature","properties":{"id":"E01022719","name":"E01022719","parent":"E07000086","type":"LSOA","pop":1546,"r":328,"ff":123,"ffd":7956.0,"ffs":0.5104,"g":85,"co":0,"mo":2,"sa":0,"ic":0},"geometry":{"type":"Polygon","coordinates":[[[-1.31347,50.92306],[-1.32756,50.91411],[-1.33138,50.91844],[-1.33242,50.91813],[-1.33322,50.91968],[-1.33531,50.921],[-1.33599,50.92098],[-1.33665,50.9205],[-1.3383,50.92137],[-1.33773,50.92248],[-1.33949,50.92371],[-1.33867,50.92403],[-1.33947,50.92466],[-1.33895,50.92513],[-1.33757,50.9252],[-1.3379,50.92564],[-1.3376,50.92593],[-1.33841,50.92609],[-1.33737,50.92663],[-1.33796,50.92743],[-1.33776,50.92777],[-1.33277,50.92738],[-1.32378,50.92717],[-1.31928,50.92646],[-1.31107,50.92459],[-1.31347,50.92306]]]}},{"type":"Feature","properties":{"id":"E01035433","name":"E01035433","parent":"E07000086","type":"LSOA","pop":1386,"r":303,"ff":98,"ffd":7070.7,"ffs":0.4949,"g":102,"co":0,"mo":2,"sa":0,"ic":0},"geometry":{"type":"Polygon","coordinates":[[[-1.36165,50.97017],[-1.3586,50.96985],[-1.35894,50.96678],[-1.36015,50.96691],[-1.36134,50.96814],[-1.36182,50.9683],[-1.36259,50.96736],[-1.36377,50.9676],[-1.36338,50.96835],[-1.36459,50.9686],[-1.365,50.96944],[-1.36559,50.96929],[-1.36523,50.9704],[-1.36376,50.97017],[-1.36336,50.97046],[-1.36165,50.97017]]]}},{"type":"Feature","properties":{"id":"E01035434","name":"E01035434","parent":"E07000086","type":"LSOA","pop":1915,"r":333,"ff":119,"ffd":6214.1,"ffs":0.5312,"g":106,"co":0,"mo":2,"sa":0,"ic":0},"geometry":{"type":"Polygon","coordinates":[[[-1.36523,50.9704],[-1.36559,50.96929],[-1.365,50.96944],[-1.36459,50.9686],[-1.36338,50.96835],[-1.36377,50.9676],[-1.36259,50.96736],[-1.36342,50.96678],[-1.36093,50.96604],[-1.36101,50.96537],[-1.35858,50.96514],[-1.35883,50.96407],[-1.35949,50.96379],[-1.37017,50.96504],[-1.36836,50.97097],[-1.36523,50.9704]]]}},{"type":"Feature","properties":{"id":"E01035435","name":"E01035435","parent":"E07000086","type":"LSOA","pop":1132,"r":357,"ff":132,"ffd":11660.8,"ffs":0.5366,"g":108,"co":0,"mo":2,"sa":0,"ic":0},"geometry":{"type":"Polygon","coordinates":[[[-1.35773,50.96358],[-1.35806,50.96222],[-1.36066,50.96242],[-1.36078,50.96156],[-1.36029,50.96152],[-1.35985,50.9609],[-1.36259,50.96069],[-1.36283,50.96],[-1.36562,50.95992],[-1.36563,50.95958],[-1.37082,50.95927],[-1.3718,50.95961],[-1.37123,50.96082],[-1.37237,50.96118],[-1.37085,50.9613],[-1.37045,50.96173],[-1.36966,50.96185],[-1.36699,50.96163],[-1.36599,50.96199],[-1.36646,50.9625],[-1.36522,50.96348],[-1.36563,50.96398],[-1.36477,50.96442],[-1.35773,50.96358]]]}},{"type":"Feature","properties":{"id":"E01035436","name":"E01035436","parent":"E07000086","type":"LSOA","pop":2446,"r":371,"ff":135,"ffd":5519.2,"ffs":0.5253,"g":111,"co":0,"mo":2,"sa":0,"ic":0},"geometry":{"type":"Polygon","coordinates":[[[-1.38755,50.96666],[-1.38672,50.96593],[-1.38609,50.96605],[-1.38527,50.96685],[-1.3836,50.96797],[-1.38322,50.96862],[-1.38128,50.96798],[-1.37985,50.96798],[-1.38165,50.96635],[-1.38197,50.96651],[-1.38497,50.96439],[-1.38274,50.96324],[-1.37841,50.96182],[-1.37274,50.96086],[-1.37237,50.96118],[-1.37123,50.96082],[-1.3718,50.95961],[-1.37166,50.95833],[-1.37234,50.9584],[-1.37389,50.95956],[-1.37566,50.95917],[-1.37511,50.95722],[-1.37369,50.95594],[-1.37364,50.95545],[-1.37206,50.95562],[-1.37158,50.95533],[-1.37031,50.95352],[-1.37052,50.95192],[-1.37194,50.95015],[-1.37391,50.95025],[-1.37403,50.94984],[-1.37905,50.9495],[-1.3785,50.95075],[-1.37781,50.95085],[-1.37569,50.95235],[-1.37403,50.95398],[-1.3757,50.95431],[-1.37602,50.95535],[-1.37652,50.9556],[-1.38064,50.95604],[-1.38027,50.95679],[-1.38106,50.95686],[-1.38448,50.95627],[-1.38562,50.95826],[-1.38532,50.95918],[-1.38357,50.96002],[-1.38295,50.96076],[-1.38373,50.96114],[-1.38452,50.96071],[-1.38528,50.96167],[-1.38996,50.96302],[-1.39055,50.9638],[-1.39276,50.96449],[-1.39003,50.97024],[-1.3891,50.9701],[-1.38873,50.96964],[-1.38922,50.96951],[-1.38867,50.96906],[-1.38755,50.96666]]]}},{"type":"Feature","properties":{"id":"E01035437","name":"E01035437","parent":"E07000086","type":"LSOA","pop":1740,"r":351,"ff":129,"ffd":7413.8,"ffs":0.5375,"g":108,"co":0,"mo":2,"sa":0,"ic":0},"geometry":{"type":"Polygon","coordinates":[[[-1.34781,50.95762],[-1.33771,50.95518],[-1.33774,50.9546],[-1.3387,50.95406],[-1.33739,50.95406],[-1.33715,50.95361],[-1.33821,50.95328],[-1.33905,50.95239],[-1.34173,50.95227],[-1.34203,50.95179],[-1.34176,50.95075],[-1.34278,50.94978],[-1.34264,50.94912],[-1.34326,50.94879],[-1.34294,50.94839],[-1.34383,50.94777],[-1.34404,50.94701],[-1.34667,50.94622],[-1.34574,50.94593],[-1.34645,50.94544],[-1.34598,50.94457],[-1.34736,50.94431],[-1.34762,50.94327],[-1.34863,50.94279],[-1.34909,50.94294],[-1.34943,50.94246],[-1.35042,50.94239],[-1.35204,50.94147],[-1.35174,50.94103],[-1.35251,50.94068],[-1.35307,50.93948],[-1.35384,50.93916],[-1.35458,50.93936],[-1.35354,50.94074],[-1.35471,50.94097],[-1.36692,50.94687],[-1.36972,50.94708],[-1.37094,50.94606],[-1.37676,50.94718],[-1.37989,50.94752],[-1.37905,50.9495],[-1.37403,50.94984],[-1.37391,50.95025],[-1.37194,50.95015],[-1.37052,50.95192],[-1.37031,50.95352],[-1.37158,50.95533],[-1.37206,50.95562],[-1.37364,50.95545],[-1.37369,50.95594],[-1.37511,50.95722],[-1.37566,50.95917],[-1.37389,50.95956],[-1.37234,50.9584],[-1.37166,50.95833],[-1.3718,50.95961],[-1.37082,50.95927],[-1.36563,50.95958],[-1.36562,50.95992],[-1.36283,50.96],[-1.36259,50.96069],[-1.36004,50.96083],[-1.35817,50.96036],[-1.3591,50.95918],[-1.3612,50.95987],[-1.36202,50.95914],[-1.36347,50.95702],[-1.35909,50.95872],[-1.35964,50.95805],[-1.35779,50.95736],[-1.35724,50.95748],[-1.35314,50.9622],[-1.35268,50.96207],[-1.35242,50.96078],[-1.35133,50.95923],[-1.35166,50.95906],[-1.34781,50.95762]]]}},{"type":"Feature","properties":{"id":"E01035438","name":"E01035438","parent":"E07000086","type":"LSOA","pop":3180,"r":116,"ff":32,"ffd":1006.3,"ffs":0.5517,"g":57,"co":0,"mo":2,"sa":0,"ic":0},"geometry":{"type":"Polygon","coordinates":[[[-1.28489,50.93655],[-1.28378,50.93629],[-1.28355,50.93654],[-1.28209,50.9365],[-1.28176,50.93625],[-1.28062,50.93663],[-1.27867,50.93647],[-1.27633,50.93584],[-1.27522,50.93601],[-1.27369,50.9357],[-1.27257,50.934],[-1.27076,50.9335],[-1.27032,50.9327],[-1.27054,50.93212],[-1.26937,50.93103],[-1.2711,50.93054],[-1.27299,50.93047],[-1.27403,50.93065],[-1.27489,50.93191],[-1.27578,50.93163],[-1.27791,50.93162],[-1.27854,50.9313],[-1.2774,50.93075],[-1.27749,50.93036],[-1.27629,50.92958],[-1.27646,50.92898],[-1.27777,50.92939],[-1.27871,50.93018],[-1.27875,50.92933],[-1.28034,50.92978],[-1.28133,50.92894],[-1.28073,50.92892],[-1.28067,50.92864],[-1.28177,50.92801],[-1.28062,50.92707],[-1.28019,50.92721],[-1.28062,50.92801],[-1.27908,50.9284],[-1.27889,50.92797],[-1.27959,50.92768],[-1.27922,50.92737],[-1.27928,50.92676],[-1.27832,50.92562],[-1.27894,50.92545],[-1.2783,50.9246],[-1.27825,50.92439],[-1.27828,50.92403],[-1.27837,50.92403],[-1.27827,50.92429],[-1.28209,50.9258],[-1.28791,50.92874],[-1.30347,50.93761],[-1.29849,50.94038],[-1.29737,50.94347],[-1.29246,50.94562],[-1.29147,50.94657],[-1.29201,50.9466],[-1.291,50.9468],[-1.28801,50.94544],[-1.28672,50.94272],[-1.28699,50.93962],[-1.28507,50.93736],[-1.28489,50.93655]]]}},{"type":"Feature","properties":{"id":"E01035439","name":"E01035439","parent":"E07000086","type":"LSOA","pop":1910,"r":226,"ff":78,"ffd":4083.8,"ffs":0.5065,"g":71,"co":0,"mo":2,"sa":0,"ic":0},"geometry":{"type":"Polygon","coordinates":[[[-1.30122,50.93017],[-1.29984,50.92898],[-1.301,50.92788],[-1.30252,50.92826],[-1.30204,50.92917],[-1.30301,50.92913],[-1.30365,50.92958],[-1.3057,50.92947],[-1.30688,50.93011],[-1.30876,50.93075],[-1.30826,50.93138],[-1.30825,50.93309],[-1.30702,50.93458],[-1.30347,50.93761],[-1.29975,50.93545],[-1.30075,50.93477],[-1.30065,50.93451],[-1.30251,50.93378],[-1.30272,50.93288],[-1.30174,50.93163],[-1.30122,50.93017]]]}},{"type":"Feature","properties":{"id":"E01035440","name":"E01035440","parent":"E07000086","type":"LSOA","pop":1538,"r":242,"ff":84,"ffd":5461.6,"ffs":0.503,"g":74,"co":0,"mo":2,"sa":0,"ic":0},"geometry":{"type":"Polygon","coordinates":[[[-1.30688,50.93011],[-1.3057,50.92947],[-1.30365,50.92958],[-1.30301,50.92913],[-1.30204,50.92917],[-1.30252,50.92826],[-1.301,50.92788],[-1.30147,50.9279],[-1.30229,50.92746],[-1.30626,50.92687],[-1.30697,50.92631],[-1.30855,50.92668],[-1.31055,50.92448],[-1.31107,50.92459],[-1.30975,50.92882],[-1.30876,50.93075],[-1.30688,50.93011]]]}},{"type":"Feature","properties":{"id":"E01035441","name":"E01035441","parent":"E07000086","type":"LSOA","pop":2317,"r":170,"ff":51,"ffd":2201.1,"ffs":0.4857,"g":64,"co":0,"mo":2,"sa":0,"ic":0},"geometry":{"type":"MultiPolygon","coordinates":[[[[-1.26783,50.91474],[-1.26783,50.91459],[-1.26787,50.91466],[-1.26783,50.91474]]],[[[-1.27403,50.93065],[-1.27299,50.93047],[-1.2711,50.93054],[-1.26937,50.93103],[-1.26862,50.93079],[-1.26874,50.93049],[-1.26721,50.92934],[-1.26753,50.92883],[-1.26683,50.92821],[-1.26664,50.92721],[-1.2663,50.92705],[-1.2666,50.92682],[-1.26538,50.92648],[-1.26529,50.92619],[-1.26463,50.92618],[-1.26471,50.92541],[-1.26581,50.92494],[-1.26561,50.92413],[-1.26521,50.92388],[-1.26557,50.92325],[-1.26455,50.92286],[-1.26483,50.92089],[-1.26424,50.9205],[-1.26516,50.91985],[-1.26538,50.91839],[-1.26648,50.91804],[-1.2675,50.91726],[-1.26775,50.91652],[-1.26685,50.91645],[-1.26749,50.91566],[-1.26777,50.91568],[-1.26801,50.91471],[-1.2678,50.91412],[-1.26869,50.91408],[-1.26839,50.91325],[-1.26912,50.91291],[-1.26895,50.91253],[-1.27033,50.91232],[-1.27077,50.91359],[-1.27214,50.91356],[-1.27248,50.91401],[-1.27382,50.91421],[-1.27368,50.91451],[-1.2752,50.91534],[-1.27392,50.9164],[-1.27424,50.91636],[-1.27366,50.9171],[-1.27416,50.91735],[-1.27358,50.91754],[-1.27305,50.91805],[-1.27387,50.91858],[-1.27447,50.91821],[-1.27446,50.91916],[-1.276,50.92054],[-1.27686,50.92056],[-1.27696,50.92007],[-1.27608,50.91988],[-1.27655,50.91918],[-1.27617,50.91901],[-1.2771,50.91867],[-1.27674,50.91852],[-1.27706,50.9176],[-1.2781,50.91744],[-1.27818,50.91716],[-1.27762,50.91705],[-1.27772,50.91667],[-1.27633,50.91701],[-1.27707,50.91587],[-1.28012,50.91634],[-1.28164,50.91599],[-1.28204,50.91764],[-1.28276,50.91842],[-1.28588,50.91812],[-1.28835,50.91886],[-1.28631,50.91946],[-1.28241,50.92197],[-1.27828,50.92403],[-1.2783,50.9246],[-1.27894,50.92545],[-1.27832,50.92562],[-1.27928,50.92676],[-1.27922,50.92737],[-1.27959,50.92768],[-1.27889,50.92797],[-1.27908,50.9284],[-1.28062,50.92801],[-1.28019,50.92721],[-1.28062,50.92707],[-1.28177,50.92801],[-1.28067,50.92864],[-1.28073,50.92892],[-1.28133,50.92894],[-1.28034,50.92978],[-1.27875,50.92933],[-1.27871,50.93018],[-1.27777,50.92939],[-1.27646,50.92898],[-1.27629,50.92958],[-1.27749,50.93036],[-1.2774,50.93075],[-1.27854,50.9313],[-1.27791,50.93162],[-1.27578,50.93163],[-1.27489,50.93191],[-1.27403,50.93065]]]]}}]}