{"type":"FeatureCollection","features":[{"type":"Feature","properties":{"id":"E01026581","name":"E01026581","parent":"E07000145","type":"LSOA","pop":1669,"r":129,"ff":42,"ffd":2516.5,"ffs":0.4468,"g":34,"co":2,"mo":0,"sa":0,"ic":0},"geometry":{"type":"Polygon","coordinates":[[[1.71091,52.59376],[1.71149,52.59096],[1.71291,52.58757],[1.71184,52.58623],[1.70982,52.58612],[1.71023,52.58381],[1.71021,52.58287],[1.70882,52.58312],[1.70603,52.58298],[1.70446,52.58387],[1.70386,52.58351],[1.70304,52.58352],[1.70299,52.58422],[1.70211,52.58403],[1.70196,52.58512],[1.70124,52.58498],[1.69935,52.5839],[1.69922,52.58424],[1.7011,52.58531],[1.70168,52.58631],[1.70094,52.58672],[1.70312,52.58907],[1.7045,52.59025],[1.70196,52.59166],[1.70041,52.59163],[1.70152,52.59539],[1.70333,52.59812],[1.70428,52.60059],[1.70769,52.60044],[1.70999,52.59619],[1.71137,52.59475],[1.71083,52.59458],[1.71091,52.59376]]]}},{"type":"Feature","properties":{"id":"E01026582","name":"E01026582","parent":"E07000145","type":"LSOA","pop":1991,"r":129,"ff":42,"ffd":2109.5,"ffs":0.4468,"g":34,"co":2,"mo":0,"sa":0,"ic":0},"geometry":{"type":"Polygon","coordinates":[[[1.69947,52.60477],[1.69877,52.60339],[1.69938,52.60296],[1.69896,52.60223],[1.69805,52.602],[1.69805,52.60099],[1.70428,52.60059],[1.70333,52.59812],[1.70152,52.59539],[1.70041,52.59163],[1.70196,52.59166],[1.7045,52.59025],[1.70312,52.58907],[1.70094,52.58672],[1.70168,52.58631],[1.7011,52.58531],[1.69922,52.58424],[1.69939,52.58275],[1.69971,52.582],[1.70017,52.58191],[1.69954,52.58095],[1.6999,52.58038],[1.69904,52.58063],[1.69905,52.58011],[1.69978,52.57989],[1.70136,52.57998],[1.70067,52.57919],[1.69937,52.57915],[1.69878,52.5795],[1.69838,52.58047],[1.69829,52.58288],[1.69648,52.58182],[1.69533,52.5825],[1.69429,52.5823],[1.69099,52.58241],[1.69073,52.58715],[1.68773,52.58681],[1.6874,52.58733],[1.68155,52.58667],[1.68093,52.58814],[1.68153,52.58828],[1.68099,52.58969],[1.68198,52.59041],[1.68357,52.59076],[1.68238,52.59261],[1.68246,52.59354],[1.68293,52.59382],[1.68258,52.59517],[1.68294,52.59624],[1.68379,52.5968],[1.6849,52.59845],[1.68681,52.59986],[1.68559,52.5999],[1.68371,52.60067],[1.68948,52.60341],[1.69011,52.60402],[1.69123,52.60378],[1.69238,52.60412],[1.6961,52.6063],[1.69547,52.6064],[1.69756,52.60702],[1.69773,52.60656],[1.69886,52.60579],[1.69947,52.60477]]]}},{"type":"Feature","properties":{"id":"E01026583","name":"E01026583","parent":"E07000145","type":"LSOA","pop":1276,"r":129,"ff":42,"ffd":3291.5,"ffs":0.4468,"g":34,"co":2,"mo":0,"sa":0,"ic":0},"geometry":{"type":"Polygon","coordinates":[[[1.70196,52.58512],[1.70211,52.58403],[1.70299,52.58422],[1.70304,52.58352],[1.70386,52.58351],[1.70446,52.58387],[1.70603,52.58298],[1.70882,52.58312],[1.71021,52.58287],[1.71023,52.5816],[1.70667,52.57937],[1.70589,52.57946],[1.70576,52.57996],[1.70521,52.58],[1.70484,52.57974],[1.70311,52.57978],[1.70147,52.58042],[1.70136,52.57998],[1.69978,52.57989],[1.69905,52.58011],[1.69904,52.58063],[1.6999,52.58038],[1.69954,52.58095],[1.70017,52.58191],[1.69971,52.582],[1.69939,52.58275],[1.6992,52.58363],[1.69935,52.5839],[1.70124,52.58498],[1.70196,52.58512]]]}},{"type":"Feature","properties":{"id":"E01026584","name":"E01026584","parent":"E07000145","type":"LSOA","pop":1475,"r":129,"ff":42,"ffd":2847.5,"ffs":0.4468,"g":34,"co":2,"mo":0,"sa":0,"ic":0},"geometry":{"type":"Polygon","coordinates":[[[1.69099,52.58241],[1.69429,52.5823],[1.69533,52.5825],[1.69648,52.58182],[1.69829,52.58288],[1.69838,52.58047],[1.69878,52.5795],[1.69937,52.57915],[1.70067,52.57919],[1.70136,52.57998],[1.70147,52.58042],[1.70311,52.57978],[1.70484,52.57974],[1.70521,52.58],[1.70576,52.57996],[1.70589,52.57946],[1.70667,52.57937],[1.70505,52.57817],[1.70137,52.57812],[1.70158,52.57682],[1.6984,52.57659],[1.69652,52.57678],[1.69479,52.57739],[1.69368,52.57647],[1.69033,52.5789],[1.68591,52.58026],[1.68626,52.58538],[1.68819,52.58566],[1.68773,52.58681],[1.69073,52.58715],[1.69099,52.58241]]]}},{"type":"Feature","properties":{"id":"E01026587","name":"E01026587","parent":"E07000145","type":"LSOA","pop":3628,"r":126,"ff":41,"ffd":1130.1,"ffs":0.4457,"g":33,"co":3,"mo":0,"sa":0,"ic":0},"geometry":{"type":"Polygon","coordinates":[[[1.69033,52.5789],[1.69368,52.57647],[1.69411,52.57678],[1.69447,52.57657],[1.69508,52.57687],[1.69581,52.57669],[1.6951,52.57538],[1.69417,52.57564],[1.69411,52.57597],[1.69288,52.57631],[1.69248,52.57577],[1.69284,52.57525],[1.69181,52.57527],[1.69165,52.57469],[1.69215,52.57462],[1.69208,52.57391],[1.69106,52.57195],[1.69186,52.57193],[1.6922,52.57293],[1.69376,52.57203],[1.6941,52.57221],[1.69403,52.57378],[1.69531,52.57503],[1.69641,52.57515],[1.69655,52.57477],[1.69786,52.57481],[1.69881,52.57419],[1.69977,52.57417],[1.69987,52.57351],[1.70061,52.57354],[1.70105,52.57295],[1.7005,52.57293],[1.70032,52.57244],[1.69904,52.57247],[1.69953,52.57145],[1.69931,52.5708],[1.7005,52.57115],[1.70061,52.57076],[1.70122,52.57057],[1.70135,52.5699],[1.70222,52.56999],[1.70205,52.57064],[1.7026,52.57105],[1.70409,52.56881],[1.70645,52.56672],[1.70832,52.56393],[1.70922,52.56321],[1.70952,52.56272],[1.70541,52.56211],[1.70731,52.55725],[1.70845,52.55581],[1.71199,52.55542],[1.71139,52.55379],[1.7095,52.55386],[1.70889,52.55123],[1.70324,52.55151],[1.69959,52.55046],[1.69658,52.55433],[1.69605,52.55812],[1.69376,52.5582],[1.69229,52.55877],[1.69249,52.55941],[1.6939,52.56039],[1.69355,52.56232],[1.6833,52.56203],[1.67913,52.56272],[1.67792,52.56563],[1.67844,52.57004],[1.67984,52.57235],[1.67843,52.57284],[1.67914,52.57344],[1.67998,52.57473],[1.67733,52.57611],[1.67502,52.57687],[1.67582,52.57847],[1.67777,52.57923],[1.6805,52.57956],[1.68382,52.5786],[1.68561,52.57843],[1.68591,52.58026],[1.69033,52.5789]]]}},{"type":"Feature","properties":{"id":"E01026588","name":"E01026588","parent":"E07000145","type":"LSOA","pop":2820,"r":111,"ff":37,"ffd":1312.1,"ffs":0.4744,"g":32,"co":3,"mo":0,"sa":0,"ic":0},"geometry":{"type":"Polygon","coordinates":[[[1.7329,52.55686],[1.73406,52.55019],[1.73554,52.5443],[1.73588,52.54393],[1.73566,52.54376],[1.73593,52.54315],[1.73642,52.54305],[1.73603,52.54302],[1.73595,52.54261],[1.73628,52.54207],[1.73677,52.54205],[1.73625,52.54178],[1.73656,52.5411],[1.73712,52.54104],[1.73666,52.54098],[1.73673,52.54022],[1.73751,52.53993],[1.73695,52.53993],[1.73709,52.53904],[1.73781,52.53895],[1.73734,52.53894],[1.73724,52.53853],[1.7375,52.53811],[1.73792,52.53804],[1.7376,52.53763],[1.73777,52.53723],[1.73838,52.53719],[1.738,52.53676],[1.73821,52.5364],[1.73881,52.53632],[1.73841,52.5359],[1.73883,52.53585],[1.73849,52.53577],[1.73901,52.53534],[1.73915,52.53398],[1.74023,52.53208],[1.72604,52.53064],[1.72532,52.53237],[1.72398,52.53365],[1.71676,52.53547],[1.71023,52.53788],[1.708,52.53945],[1.70559,52.53997],[1.70414,52.54215],[1.704,52.54353],[1.70201,52.54466],[1.70042,52.54494],[1.69818,52.54425],[1.69612,52.54413],[1.69314,52.54507],[1.69034,52.545],[1.68971,52.5461],[1.68971,52.5471],[1.68611,52.54938],[1.68676,52.55002],[1.68902,52.54972],[1.68894,52.54928],[1.69045,52.54913],[1.69959,52.55046],[1.70324,52.55151],[1.70889,52.55123],[1.7095,52.55386],[1.71139,52.55379],[1.71191,52.55522],[1.71341,52.55542],[1.71356,52.55503],[1.71457,52.5549],[1.71482,52.55561],[1.71577,52.55575],[1.71738,52.55557],[1.71781,52.55286],[1.7185,52.55264],[1.72139,52.55307],[1.72135,52.55396],[1.72207,52.55401],[1.72209,52.55502],[1.72549,52.55498],[1.7258,52.55055],[1.72842,52.55085],[1.72923,52.55017],[1.72827,52.55218],[1.72867,52.55226],[1.72826,52.55359],[1.72685,52.55598],[1.73179,52.55571],[1.73191,52.55527],[1.73237,52.55541],[1.7329,52.55686]]]}},{"type":"Feature","properties":{"id":"E01026589","name":"E01026589","parent":"E07000145","type":"LSOA","pop":1290,"r":105,"ff":37,"ffd":2868.2,"ffs":0.5,"g":30,"co":2,"mo":2,"sa":2,"ic":0},"geometry":{"type":"Polygon","coordinates":[[[1.72484,52.66171],[1.72538,52.66082],[1.72662,52.66086],[1.72683,52.66056],[1.72471,52.66038],[1.72477,52.65948],[1.72535,52.65931],[1.72449,52.65781],[1.72373,52.65766],[1.72418,52.65681],[1.72314,52.65667],[1.72377,52.65574],[1.72433,52.6563],[1.72541,52.65588],[1.72588,52.65631],[1.72703,52.65653],[1.72728,52.65595],[1.72593,52.65598],[1.7256,52.6551],[1.72318,52.65474],[1.72248,52.65546],[1.71946,52.65524],[1.72015,52.65445],[1.71898,52.65428],[1.71781,52.65477],[1.71693,52.65337],[1.71629,52.65336],[1.71598,52.65396],[1.71555,52.65405],[1.71492,52.65486],[1.71516,52.65524],[1.71331,52.6548],[1.71299,52.65802],[1.71563,52.65828],[1.71839,52.6591],[1.72089,52.65882],[1.72117,52.65825],[1.72227,52.6583],[1.72239,52.65878],[1.72172,52.65972],[1.72226,52.65979],[1.72218,52.66045],[1.72444,52.66075],[1.72436,52.66132],[1.72484,52.66171]]]}},{"type":"Feature","properties":{"id":"E01026590","name":"E01026590","parent":"E07000145","type":"LSOA","pop":1278,"r":109,"ff":37,"ffd":2895.1,"ffs":0.4868,"g":32,"co":2,"mo":2,"sa":0,"ic":0},"geometry":{"type":"Polygon","coordinates":[[[1.72318,52.65474],[1.72363,52.6518],[1.72483,52.64917],[1.71369,52.65015],[1.71331,52.6548],[1.71516,52.65524],[1.71492,52.65486],[1.71555,52.65405],[1.71598,52.65396],[1.71629,52.65336],[1.71693,52.65337],[1.71781,52.65477],[1.71898,52.65428],[1.72015,52.65445],[1.71946,52.65524],[1.72248,52.65546],[1.72318,52.65474]]]}},{"type":"Feature","properties":{"id":"E01026591","name":"E01026591","parent":"E07000145","type":"LSOA","pop":1698,"r":102,"ff":37,"ffd":2179.0,"ffs":0.5068,"g":28,"co":2,"mo":2,"sa":2,"ic":0},"geometry":{"type":"Polygon","coordinates":[[[1.72586,52.66412],[1.72768,52.66326],[1.7291,52.66347],[1.73094,52.65785],[1.73254,52.65455],[1.72991,52.65464],[1.72611,52.65415],[1.7256,52.6551],[1.72593,52.65598],[1.72728,52.65595],[1.72703,52.65653],[1.72588,52.65631],[1.72541,52.65588],[1.72433,52.6563],[1.72377,52.65574],[1.72314,52.65667],[1.72418,52.65681],[1.72373,52.65766],[1.72449,52.65781],[1.72535,52.65931],[1.72477,52.65948],[1.72471,52.66038],[1.72683,52.66056],[1.72662,52.66086],[1.72538,52.66082],[1.72484,52.66171],[1.72436,52.66132],[1.72444,52.66075],[1.72218,52.66045],[1.72226,52.65979],[1.72172,52.65972],[1.72239,52.65878],[1.72227,52.6583],[1.72117,52.65825],[1.72089,52.65882],[1.71839,52.6591],[1.71563,52.65828],[1.71299,52.65802],[1.71282,52.66066],[1.71307,52.66233],[1.71468,52.66222],[1.71849,52.66297],[1.72241,52.66325],[1.72586,52.66412]]]}},{"type":"Feature","properties":{"id":"E01026592","name":"E01026592","parent":"E07000145","type":"LSOA","pop":1244,"r":108,"ff":37,"ffd":2974.3,"ffs":0.4805,"g":30,"co":2,"mo":2,"sa":0,"ic":0},"geometry":{"type":"Polygon","coordinates":[[[1.7256,52.6551],[1.72611,52.65415],[1.72991,52.65464],[1.73254,52.65455],[1.73466,52.65011],[1.73697,52.64746],[1.73734,52.64642],[1.73368,52.64595],[1.73313,52.64545],[1.73236,52.64557],[1.73266,52.64678],[1.73227,52.64696],[1.73256,52.64733],[1.73217,52.6474],[1.73183,52.64774],[1.73143,52.64766],[1.73104,52.64806],[1.72995,52.64769],[1.72941,52.64806],[1.72989,52.64831],[1.72922,52.6493],[1.72874,52.64921],[1.72834,52.65013],[1.72465,52.64939],[1.72363,52.6518],[1.72318,52.65474],[1.7256,52.6551]]]}},{"type":"Feature","properties":{"id":"E01026593","name":"E01026593","parent":"E07000145","type":"LSOA","pop":1331,"r":114,"ff":38,"ffd":2855.0,"ffs":0.4691,"g":32,"co":2,"mo":2,"sa":0,"ic":0},"geometry":{"type":"Polygon","coordinates":[[[1.69288,52.66373],[1.70879,52.66297],[1.71307,52.66233],[1.71282,52.66066],[1.71369,52.65015],[1.72483,52.64917],[1.72465,52.64939],[1.72762,52.65008],[1.72752,52.64926],[1.72833,52.64893],[1.72837,52.64828],[1.7278,52.64805],[1.72774,52.64764],[1.72668,52.64803],[1.72669,52.64706],[1.72558,52.64647],[1.72462,52.64673],[1.7244,52.64648],[1.72334,52.64704],[1.72268,52.64694],[1.72291,52.64669],[1.72212,52.64629],[1.72214,52.6456],[1.72153,52.64516],[1.72229,52.64297],[1.72029,52.64194],[1.72805,52.6389],[1.72862,52.63791],[1.72822,52.63354],[1.7218,52.63325],[1.72116,52.63242],[1.72226,52.63192],[1.72151,52.63163],[1.72161,52.63062],[1.72138,52.63042],[1.71834,52.63137],[1.71002,52.63101],[1.70673,52.63013],[1.70458,52.62912],[1.70377,52.62685],[1.70304,52.62614],[1.70105,52.62565],[1.69832,52.6257],[1.69797,52.62645],[1.69668,52.6262],[1.69523,52.62638],[1.69511,52.62765],[1.69389,52.62866],[1.69411,52.62929],[1.69254,52.62933],[1.6925,52.63006],[1.69147,52.62999],[1.69135,52.63086],[1.68949,52.63097],[1.68914,52.63184],[1.68776,52.63262],[1.68781,52.63329],[1.68926,52.63363],[1.68801,52.6348],[1.68887,52.63553],[1.68955,52.63562],[1.69031,52.63823],[1.68897,52.63806],[1.68775,52.6384],[1.68725,52.64031],[1.68681,52.64067],[1.68501,52.64072],[1.68442,52.64123],[1.6861,52.643],[1.68872,52.64486],[1.69168,52.64587],[1.69162,52.64648],[1.69109,52.64667],[1.69207,52.64772],[1.69207,52.64822],[1.69295,52.64801],[1.69511,52.64817],[1.69564,52.64854],[1.6958,52.64918],[1.69469,52.65171],[1.69463,52.65278],[1.69526,52.65356],[1.69498,52.6557],[1.69685,52.65562],[1.69648,52.65962],[1.69288,52.66373]]]}},{"type":"Feature","properties":{"id":"E01026594","name":"E01026594","parent":"E07000145","type":"LSOA","pop":1760,"r":121,"ff":40,"ffd":2272.7,"ffs":0.4651,"g":34,"co":2,"mo":2,"sa":0,"ic":0},"geometry":{"type":"Polygon","coordinates":[[[1.72834,52.65013],[1.72874,52.64921],[1.72922,52.6493],[1.72989,52.64831],[1.72941,52.64806],[1.72995,52.64769],[1.73104,52.64806],[1.73143,52.64766],[1.73183,52.64774],[1.73217,52.6474],[1.73256,52.64733],[1.73227,52.64696],[1.73266,52.64678],[1.73236,52.64557],[1.73313,52.64545],[1.73368,52.64595],[1.73734,52.64642],[1.74168,52.63441],[1.73743,52.63398],[1.72822,52.63354],[1.72862,52.63791],[1.72805,52.6389],[1.72029,52.64194],[1.72229,52.64297],[1.72153,52.64516],[1.72214,52.6456],[1.72212,52.64629],[1.72291,52.64669],[1.72268,52.64694],[1.72334,52.64704],[1.7244,52.64648],[1.72462,52.64673],[1.72558,52.64647],[1.72669,52.64706],[1.72668,52.64803],[1.72774,52.64764],[1.7278,52.64805],[1.72837,52.64828],[1.72833,52.64893],[1.72752,52.64926],[1.72762,52.65008],[1.72834,52.65013]]]}},{"type":"Feature","properties":{"id":"E01026595","name":"E01026595","parent":"E07000145","type":"LSOA","pop":1906,"r":130,"ff":44,"ffd":2308.5,"ffs":0.4632,"g":34,"co":2,"mo":0,"sa":0,"ic":0},"geometry":{"type":"Polygon","coordinates":[[[1.73628,52.61812],[1.73681,52.61643],[1.73791,52.61656],[1.73801,52.61789],[1.7384,52.61811],[1.74211,52.61787],[1.74142,52.61322],[1.73788,52.61346],[1.73758,52.61052],[1.73695,52.61057],[1.73698,52.61113],[1.73516,52.6112],[1.73611,52.6122],[1.73561,52.61338],[1.73526,52.61362],[1.73351,52.61367],[1.73362,52.61512],[1.73125,52.61527],[1.73078,52.61177],[1.72898,52.61145],[1.72916,52.61177],[1.72758,52.61231],[1.72745,52.61275],[1.72757,52.61321],[1.72809,52.61316],[1.72878,52.61388],[1.72773,52.61401],[1.72693,52.61343],[1.72629,52.61349],[1.72661,52.61473],[1.72702,52.61493],[1.72743,52.61487],[1.72799,52.61649],[1.73144,52.61626],[1.73181,52.61764],[1.7305,52.61742],[1.72954,52.61802],[1.7285,52.61815],[1.72856,52.61845],[1.73628,52.61812]]]}},{"type":"Feature","properties":{"id":"E01026596","name":"E01026596","parent":"E07000145","type":"LSOA","pop":1583,"r":130,"ff":44,"ffd":2779.5,"ffs":0.4632,"g":34,"co":2,"mo":0,"sa":0,"ic":0},"geometry":{"type":"MultiPolygon","coordinates":[[[[1.71439,52.61518],[1.71498,52.61299],[1.71415,52.6131],[1.71474,52.61322],[1.71476,52.61369],[1.71441,52.61461],[1.71375,52.61474],[1.71552,52.61671],[1.71419,52.6177],[1.71599,52.61665],[1.71439,52.61518]]],[[[1.72506,52.61839],[1.72486,52.61784],[1.72563,52.61795],[1.72654,52.61844],[1.72734,52.61799],[1.72694,52.61789],[1.72654,52.61621],[1.72712,52.61612],[1.72702,52.61493],[1.72661,52.61473],[1.72629,52.61349],[1.72693,52.61343],[1.72773,52.61401],[1.72878,52.61388],[1.72809,52.61316],[1.72757,52.61321],[1.72745,52.61275],[1.72758,52.61231],[1.72916,52.61177],[1.72898,52.61145],[1.72747,52.61109],[1.72726,52.61064],[1.72695,52.61084],[1.72685,52.61041],[1.72568,52.61096],[1.72602,52.61192],[1.72445,52.61156],[1.72367,52.61211],[1.72421,52.6129],[1.7239,52.615],[1.72295,52.61497],[1.72185,52.61616],[1.72234,52.61966],[1.72274,52.62006],[1.72541,52.62101],[1.72738,52.62032],[1.72506,52.61839]]],[[[1.72546,52.6216],[1.72186,52.61984],[1.72152,52.61596],[1.72321,52.61421],[1.72123,52.61451],[1.72184,52.61387],[1.72023,52.61397],[1.7191,52.61536],[1.71865,52.61529],[1.7163,52.61275],[1.71592,52.6129],[1.71637,52.6136],[1.71581,52.61296],[1.71537,52.61303],[1.71467,52.61525],[1.71507,52.61571],[1.71624,52.61564],[1.7151,52.61573],[1.71617,52.61666],[1.71653,52.61647],[1.71401,52.618],[1.71034,52.61923],[1.70573,52.6196],[1.70499,52.61914],[1.69897,52.61783],[1.69712,52.61767],[1.6957,52.61831],[1.69492,52.61814],[1.6931,52.61699],[1.68995,52.61366],[1.68904,52.61306],[1.68833,52.61311],[1.68517,52.6107],[1.68403,52.61052],[1.68321,52.61083],[1.68288,52.61032],[1.68169,52.61034],[1.67952,52.60839],[1.68147,52.60971],[1.6818,52.61031],[1.68263,52.61019],[1.68176,52.60838],[1.67861,52.60784],[1.67764,52.60729],[1.67551,52.60741],[1.66716,52.60664],[1.6631,52.6058],[1.65905,52.60395],[1.65799,52.60402],[1.65811,52.60295],[1.65752,52.60185],[1.65498,52.60036],[1.65341,52.59882],[1.65284,52.59733],[1.64964,52.59562],[1.64781,52.59384],[1.64645,52.59126],[1.64548,52.5906],[1.64631,52.59109],[1.64653,52.59094],[1.64546,52.58938],[1.63101,52.5925],[1.63482,52.59286],[1.63479,52.59468],[1.63638,52.59718],[1.63737,52.59842],[1.63943,52.59921],[1.64037,52.60143],[1.64234,52.603],[1.64198,52.60423],[1.64274,52.60461],[1.64557,52.60283],[1.65068,52.60198],[1.65382,52.6037],[1.65439,52.60457],[1.65392,52.60513],[1.65568,52.60653],[1.6593,52.60741],[1.66191,52.60708],[1.66327,52.6073],[1.66522,52.608],[1.66683,52.60965],[1.66819,52.61021],[1.67135,52.61025],[1.67372,52.60937],[1.67517,52.60961],[1.67799,52.61218],[1.67793,52.61315],[1.67681,52.61434],[1.67781,52.61581],[1.67904,52.61667],[1.67826,52.61889],[1.67947,52.62019],[1.68178,52.6209],[1.68608,52.62128],[1.68627,52.62175],[1.68837,52.62212],[1.68921,52.62261],[1.69235,52.62132],[1.6942,52.62158],[1.69693,52.6231],[1.69838,52.62516],[1.70123,52.62535],[1.70307,52.6258],[1.70403,52.6264],[1.70504,52.62829],[1.70616,52.62919],[1.71007,52.63064],[1.71707,52.63094],[1.72001,52.63048],[1.72482,52.62696],[1.72613,52.62419],[1.72546,52.6216]]]]}},{"type":"Feature","properties":{"id":"E01026597","name":"E01026597","parent":"E07000145","type":"LSOA","pop":1951,"r":130,"ff":44,"ffd":2255.3,"ffs":0.4632,"g":34,"co":2,"mo":0,"sa":0,"ic":0},"geometry":{"type":"MultiPolygon","coordinates":[[[[1.72249,52.61496],[1.72311,52.61432],[1.72239,52.61495],[1.72249,52.61496]]],[[[1.72367,52.61211],[1.72445,52.61156],[1.72602,52.61192],[1.72568,52.61096],[1.72685,52.61041],[1.72695,52.61084],[1.72726,52.61064],[1.72747,52.61109],[1.73078,52.61177],[1.73073,52.61157],[1.73178,52.61153],[1.73178,52.61059],[1.73299,52.61071],[1.73322,52.60995],[1.732,52.60964],[1.73204,52.60916],[1.73157,52.60926],[1.73177,52.60885],[1.73168,52.60861],[1.73118,52.6084],[1.73153,52.60795],[1.73051,52.60792],[1.73052,52.60772],[1.72931,52.60761],[1.72902,52.6082],[1.72905,52.60704],[1.72747,52.60679],[1.72723,52.60711],[1.72502,52.60628],[1.72438,52.60641],[1.72404,52.60612],[1.72105,52.60822],[1.72002,52.61075],[1.72218,52.61143],[1.72323,52.61223],[1.72383,52.61401],[1.72295,52.61497],[1.7239,52.615],[1.72421,52.6129],[1.72367,52.61211]]],[[[1.72023,52.61397],[1.72184,52.61387],[1.72123,52.61451],[1.72335,52.61406],[1.72251,52.6119],[1.72139,52.61149],[1.71965,52.61143],[1.7163,52.61275],[1.71865,52.61529],[1.7191,52.61536],[1.72023,52.61397]]]]}},{"type":"Feature","properties":{"id":"E01026598","name":"E01026598","parent":"E07000145","type":"LSOA","pop":1788,"r":130,"ff":44,"ffd":2460.9,"ffs":0.4632,"g":34,"co":2,"mo":0,"sa":0,"ic":0},"geometry":{"type":"Polygon","coordinates":[[[1.73359,52.61481],[1.73351,52.61367],[1.73526,52.61362],[1.73561,52.61338],[1.73611,52.6122],[1.73516,52.6112],[1.73698,52.61113],[1.73695,52.61057],[1.73758,52.61052],[1.73788,52.61346],[1.74142,52.61322],[1.74071,52.60839],[1.73699,52.60836],[1.73677,52.60808],[1.72905,52.60704],[1.72902,52.6082],[1.72931,52.60761],[1.73052,52.60772],[1.73051,52.60792],[1.73153,52.60795],[1.73118,52.6084],[1.73168,52.60861],[1.73177,52.60885],[1.73157,52.60926],[1.73204,52.60916],[1.732,52.60964],[1.73322,52.60995],[1.73299,52.61071],[1.73178,52.61059],[1.73178,52.61153],[1.73073,52.61157],[1.73125,52.61527],[1.73362,52.61512],[1.73359,52.61481]]]}},{"type":"Feature","properties":{"id":"E01026599","name":"E01026599","parent":"E07000145","type":"LSOA","pop":1427,"r":130,"ff":44,"ffd":3083.4,"ffs":0.4632,"g":34,"co":2,"mo":0,"sa":0,"ic":0},"geometry":{"type":"Polygon","coordinates":[[[1.72738,52.62032],[1.72801,52.61998],[1.73395,52.61982],[1.73381,52.61821],[1.72856,52.61845],[1.7285,52.61815],[1.72954,52.61802],[1.7305,52.61742],[1.73181,52.61764],[1.73144,52.61626],[1.72799,52.61649],[1.72743,52.61487],[1.72702,52.61493],[1.72712,52.61612],[1.72654,52.61621],[1.72694,52.61789],[1.72734,52.61799],[1.72654,52.61844],[1.72563,52.61795],[1.72486,52.61784],[1.72506,52.61839],[1.72738,52.62032]]]}},{"type":"Feature","properties":{"id":"E01026600","name":"E01026600","parent":"E07000145","type":"LSOA","pop":1424,"r":129,"ff":42,"ffd":2949.4,"ffs":0.4468,"g":34,"co":2,"mo":0,"sa":0,"ic":0},"geometry":{"type":"Polygon","coordinates":[[[1.72519,52.59077],[1.72534,52.59013],[1.72672,52.59055],[1.7281,52.58892],[1.7283,52.58689],[1.72784,52.58682],[1.72761,52.58707],[1.72704,52.58696],[1.72675,52.58776],[1.72693,52.58797],[1.72507,52.58911],[1.72394,52.58563],[1.7213,52.58433],[1.72082,52.58425],[1.72051,52.58459],[1.71915,52.58435],[1.71873,52.58462],[1.71708,52.58423],[1.71616,52.58498],[1.71543,52.58507],[1.71611,52.58592],[1.71679,52.58601],[1.71676,52.58635],[1.71586,52.58639],[1.71525,52.58724],[1.71291,52.58757],[1.71248,52.58846],[1.71615,52.58983],[1.71662,52.58918],[1.71941,52.58823],[1.71985,52.59234],[1.723,52.59183],[1.72519,52.59077]]]}},{"type":"Feature","properties":{"id":"E01026601","name":"E01026601","parent":"E07000145","type":"LSOA","pop":1472,"r":129,"ff":42,"ffd":2853.3,"ffs":0.4468,"g":34,"co":2,"mo":0,"sa":0,"ic":0},"geometry":{"type":"Polygon","coordinates":[[[1.72675,52.58776],[1.72704,52.58696],[1.72761,52.58707],[1.72784,52.58682],[1.7283,52.58689],[1.72816,52.58755],[1.72834,52.58757],[1.72874,52.58532],[1.72808,52.58528],[1.72766,52.58331],[1.72628,52.58323],[1.72607,52.58344],[1.72555,52.58312],[1.72135,52.58397],[1.7213,52.58433],[1.72394,52.58563],[1.72507,52.58911],[1.72693,52.58797],[1.72675,52.58776]]]}},{"type":"Feature","properties":{"id":"E01026602","name":"E01026602","parent":"E07000145","type":"LSOA","pop":1727,"r":129,"ff":42,"ffd":2432.0,"ffs":0.4468,"g":34,"co":2,"mo":0,"sa":0,"ic":0},"geometry":{"type":"Polygon","coordinates":[[[1.71616,52.58498],[1.71708,52.58423],[1.71873,52.58462],[1.71915,52.58435],[1.72051,52.58459],[1.72082,52.58425],[1.71917,52.58389],[1.719,52.57956],[1.71782,52.57936],[1.7181,52.58065],[1.71716,52.5805],[1.71691,52.5807],[1.71672,52.57969],[1.71633,52.57996],[1.71648,52.58061],[1.71603,52.58023],[1.71469,52.58033],[1.71398,52.58018],[1.71402,52.57995],[1.71344,52.57995],[1.71299,52.58042],[1.71217,52.58031],[1.71251,52.58107],[1.71153,52.58145],[1.71031,52.58106],[1.71023,52.58381],[1.70982,52.58612],[1.71184,52.58623],[1.71291,52.58757],[1.71525,52.58724],[1.71586,52.58639],[1.71676,52.58635],[1.71679,52.58601],[1.71611,52.58592],[1.71543,52.58507],[1.71616,52.58498]]]}},{"type":"Feature","properties":{"id":"E01026603","name":"E01026603","parent":"E07000145","type":"LSOA","pop":1631,"r":129,"ff":42,"ffd":2575.1,"ffs":0.4468,"g":34,"co":2,"mo":0,"sa":0,"ic":0},"geometry":{"type":"Polygon","coordinates":[[[1.71251,52.58107],[1.71217,52.58031],[1.71299,52.58042],[1.71344,52.57995],[1.71402,52.57995],[1.71494,52.57941],[1.71558,52.57961],[1.71581,52.5788],[1.71616,52.57881],[1.71614,52.5782],[1.7174,52.57797],[1.71761,52.57754],[1.71699,52.57679],[1.71619,52.57662],[1.71646,52.57622],[1.71598,52.5757],[1.71518,52.57554],[1.71463,52.57496],[1.70868,52.57516],[1.7091,52.57857],[1.71036,52.57861],[1.71031,52.58106],[1.71153,52.58145],[1.71251,52.58107]]]}},{"type":"Feature","properties":{"id":"E01026604","name":"E01026604","parent":"E07000145","type":"LSOA","pop":1564,"r":129,"ff":42,"ffd":2685.4,"ffs":0.4468,"g":34,"co":2,"mo":0,"sa":0,"ic":0},"geometry":{"type":"Polygon","coordinates":[[[1.71691,52.5807],[1.71716,52.5805],[1.7181,52.58065],[1.71782,52.57936],[1.719,52.57956],[1.71944,52.57764],[1.72197,52.57433],[1.72119,52.57307],[1.72023,52.5732],[1.71982,52.57292],[1.7178,52.57315],[1.71587,52.57249],[1.71566,52.57278],[1.71428,52.5728],[1.71463,52.57496],[1.71518,52.57554],[1.71598,52.5757],[1.71646,52.57622],[1.71619,52.57662],[1.71699,52.57679],[1.71761,52.57754],[1.7174,52.57797],[1.71614,52.5782],[1.71616,52.57881],[1.71581,52.5788],[1.71558,52.57961],[1.71494,52.57941],[1.71402,52.57995],[1.71398,52.58018],[1.71469,52.58033],[1.71603,52.58023],[1.71648,52.58061],[1.71633,52.57996],[1.71672,52.57969],[1.71691,52.5807]]]}},{"type":"Feature","properties":{"id":"E01026605","name":"E01026605","parent":"E07000145","type":"LSOA","pop":1773,"r":42,"ff":17,"ffd":958.8,"ffs":0.7083,"g":17,"co":2,"mo":2,"sa":2,"ic":0},"geometry":{"type":"Polygon","coordinates":[[[1.70136,52.70396],[1.70113,52.70134],[1.702,52.70121],[1.70177,52.70002],[1.70222,52.69995],[1.69647,52.70028],[1.69598,52.69715],[1.69254,52.69802],[1.69203,52.69771],[1.69069,52.69783],[1.69138,52.69726],[1.69101,52.69718],[1.68985,52.69745],[1.68983,52.69795],[1.68924,52.69817],[1.68966,52.6984],[1.68886,52.69851],[1.68894,52.69887],[1.6884,52.69885],[1.68847,52.69921],[1.68795,52.6995],[1.68881,52.69996],[1.68848,52.70021],[1.68594,52.70016],[1.68583,52.69895],[1.68756,52.69851],[1.68605,52.69778],[1.68504,52.69852],[1.68467,52.69779],[1.68503,52.69687],[1.68768,52.69684],[1.68848,52.69637],[1.68825,52.6959],[1.68702,52.69569],[1.68719,52.69477],[1.68686,52.69455],[1.68736,52.69436],[1.68794,52.69499],[1.69067,52.69466],[1.69003,52.69372],[1.69115,52.69305],[1.69075,52.69275],[1.69174,52.69215],[1.69218,52.69277],[1.6934,52.69237],[1.69341,52.69086],[1.69395,52.68994],[1.69983,52.68453],[1.69561,52.6847],[1.6955,52.68491],[1.69126,52.68527],[1.68712,52.68512],[1.68237,52.6857],[1.67589,52.68594],[1.67598,52.68626],[1.67521,52.68642],[1.67466,52.68513],[1.67224,52.68556],[1.66725,52.68563],[1.66735,52.68615],[1.66672,52.68627],[1.6652,52.6859],[1.66422,52.68604],[1.6619,52.68439],[1.65918,52.68407],[1.65387,52.68402],[1.65029,52.68483],[1.65044,52.68667],[1.65311,52.69089],[1.65452,52.69239],[1.65683,52.69632],[1.66464,52.69711],[1.66371,52.70118],[1.66693,52.70089],[1.66672,52.70219],[1.67551,52.70348],[1.68156,52.70327],[1.68782,52.70344],[1.68815,52.7024],[1.69247,52.70302],[1.69773,52.70338],[1.69788,52.70384],[1.70136,52.70396]]]}},{"type":"Feature","properties":{"id":"E01026606","name":"E01026606","parent":"E07000145","type":"LSOA","pop":1356,"r":13,"ff":11,"ffd":811.2,"ffs":0.8462,"g":0,"co":3,"mo":3,"sa":3,"ic":1},"geometry":{"type":"Polygon","coordinates":[[[1.68237,52.7365],[1.68331,52.73553],[1.68374,52.73564],[1.68339,52.73553],[1.68362,52.73521],[1.68573,52.73319],[1.68653,52.73285],[1.68625,52.73275],[1.68704,52.73182],[1.69444,52.72645],[1.69752,52.72361],[1.70003,52.71695],[1.7045,52.70744],[1.70474,52.70441],[1.70612,52.7012],[1.70733,52.69909],[1.70177,52.70002],[1.702,52.70121],[1.70113,52.70134],[1.70136,52.70396],[1.69788,52.70384],[1.69773,52.70338],[1.69247,52.70302],[1.68815,52.7024],[1.68782,52.70344],[1.68156,52.70327],[1.67551,52.70348],[1.66672,52.70219],[1.66005,52.70163],[1.65646,52.70669],[1.65432,52.70597],[1.65336,52.70694],[1.65568,52.70755],[1.6502,52.71493],[1.64853,52.71434],[1.64771,52.71628],[1.64683,52.71616],[1.6462,52.71834],[1.64386,52.71812],[1.64326,52.71956],[1.6426,52.72195],[1.64726,52.72271],[1.64756,52.72368],[1.64492,52.72504],[1.64385,52.72615],[1.63932,52.7273],[1.63702,52.72741],[1.63739,52.72836],[1.63715,52.73104],[1.6372,52.73275],[1.63814,52.73373],[1.64584,52.73663],[1.65137,52.73788],[1.66318,52.73928],[1.6676,52.74127],[1.67485,52.74259],[1.68055,52.73845],[1.68196,52.73685],[1.68265,52.7366],[1.68237,52.7365]]]}},{"type":"Feature","properties":{"id":"E01026607","name":"E01026607","parent":"E07000145","type":"LSOA","pop":1755,"r":56,"ff":20,"ffd":1139.6,"ffs":0.6452,"g":24,"co":2,"mo":2,"sa":2,"ic":0},"geometry":{"type":"Polygon","coordinates":[[[1.70733,52.69909],[1.70975,52.69488],[1.71478,52.6879],[1.71282,52.68751],[1.70986,52.68482],[1.70926,52.68472],[1.70928,52.68501],[1.70661,52.68561],[1.70668,52.68603],[1.7054,52.68617],[1.70512,52.68429],[1.69983,52.68453],[1.69395,52.68994],[1.69341,52.69086],[1.6934,52.69237],[1.69218,52.69277],[1.69174,52.69215],[1.69075,52.69275],[1.69115,52.69305],[1.69003,52.69372],[1.69067,52.69466],[1.68794,52.69499],[1.68736,52.69436],[1.68686,52.69455],[1.68719,52.69477],[1.68702,52.69569],[1.68825,52.6959],[1.68848,52.69637],[1.68768,52.69684],[1.68503,52.69687],[1.68467,52.69779],[1.68504,52.69852],[1.68605,52.69778],[1.68756,52.69851],[1.68583,52.69895],[1.68594,52.70016],[1.68848,52.70021],[1.68881,52.69996],[1.68795,52.6995],[1.68847,52.69921],[1.6884,52.69885],[1.68894,52.69887],[1.68886,52.69851],[1.68966,52.6984],[1.68924,52.69817],[1.68983,52.69795],[1.68985,52.69745],[1.69101,52.69718],[1.69138,52.69726],[1.69069,52.69783],[1.69203,52.69771],[1.69254,52.69802],[1.69598,52.69715],[1.69647,52.70028],[1.70222,52.69995],[1.70733,52.69909]]]}},{"type":"Feature","properties":{"id":"E01026608","name":"E01026608","parent":"E07000145","type":"LSOA","pop":1490,"r":15,"ff":12,"ffd":805.4,"ffs":0.8,"g":0,"co":3,"mo":3,"sa":3,"ic":1},"geometry":{"type":"Polygon","coordinates":[[[1.62314,52.67714],[1.62382,52.67642],[1.62604,52.67522],[1.63042,52.67398],[1.63271,52.6722],[1.63442,52.67173],[1.63705,52.67175],[1.63753,52.6699],[1.63909,52.66883],[1.64075,52.66878],[1.64155,52.66843],[1.64424,52.67038],[1.6511,52.67272],[1.6521,52.6729],[1.6577,52.67246],[1.65941,52.67308],[1.66174,52.6727],[1.66379,52.67194],[1.66227,52.6694],[1.66368,52.66945],[1.66589,52.66846],[1.66787,52.66911],[1.67024,52.66807],[1.67111,52.66829],[1.67534,52.66652],[1.67476,52.66615],[1.6766,52.66527],[1.67604,52.66483],[1.67836,52.66417],[1.68596,52.66434],[1.69113,52.66493],[1.69231,52.66365],[1.69288,52.66373],[1.69648,52.65962],[1.69685,52.65562],[1.69498,52.6557],[1.6894,52.65486],[1.68663,52.65494],[1.68119,52.6553],[1.67593,52.6562],[1.66646,52.6573],[1.66483,52.65483],[1.66297,52.65507],[1.65856,52.6563],[1.65677,52.65623],[1.64877,52.65406],[1.64897,52.65365],[1.64658,52.65309],[1.64593,52.6563],[1.64301,52.65583],[1.64242,52.65666],[1.64169,52.65666],[1.6381,52.65599],[1.6379,52.65573],[1.63049,52.65647],[1.62749,52.65742],[1.62674,52.65889],[1.62603,52.65799],[1.62418,52.65716],[1.62105,52.65692],[1.61905,52.65748],[1.61836,52.65742],[1.61522,52.65558],[1.61472,52.65445],[1.61373,52.65424],[1.61322,52.65896],[1.61249,52.66013],[1.61184,52.66333],[1.6097,52.66464],[1.61155,52.66725],[1.60672,52.66728],[1.60664,52.66893],[1.61108,52.66866],[1.61214,52.66814],[1.61383,52.66818],[1.61471,52.66853],[1.6149,52.66915],[1.61389,52.66972],[1.61454,52.67046],[1.61439,52.67082],[1.6131,52.67065],[1.61288,52.67086],[1.61404,52.6713],[1.61554,52.67128],[1.61597,52.67328],[1.61364,52.67376],[1.61197,52.67555],[1.61241,52.67648],[1.61206,52.67714],[1.61473,52.67701],[1.61507,52.67758],[1.61869,52.67768],[1.62314,52.67714]]]}},{"type":"Feature","properties":{"id":"E01026609","name":"E01026609","parent":"E07000145","type":"LSOA","pop":1245,"r":18,"ff":10,"ffd":803.2,"ffs":0.5556,"g":0,"co":3,"mo":3,"sa":3,"ic":1},"geometry":{"type":"MultiPolygon","coordinates":[[[[1.69357,52.62147],[1.69344,52.62147],[1.69361,52.6215],[1.69357,52.62147]]],[[[1.59828,52.62772],[1.59828,52.62739],[1.59812,52.62788],[1.59828,52.62772]]],[[[1.65559,52.63077],[1.66006,52.62997],[1.66679,52.63012],[1.66873,52.62896],[1.66978,52.6287],[1.67388,52.62922],[1.67912,52.62929],[1.68226,52.62781],[1.68584,52.62785],[1.68731,52.6275],[1.68827,52.62626],[1.6873,52.62484],[1.68732,52.62403],[1.68796,52.62314],[1.68921,52.62261],[1.68837,52.62212],[1.68627,52.62175],[1.68608,52.62128],[1.68178,52.6209],[1.67947,52.62019],[1.67826,52.61889],[1.67904,52.61667],[1.67781,52.61581],[1.67681,52.61434],[1.67418,52.61476],[1.67331,52.61549],[1.67287,52.61661],[1.67113,52.61741],[1.66963,52.61727],[1.66914,52.61671],[1.66808,52.61695],[1.6681,52.61764],[1.66749,52.61831],[1.66578,52.61952],[1.66484,52.61961],[1.66298,52.6212],[1.65935,52.62566],[1.65866,52.62519],[1.65418,52.62417],[1.6489,52.62453],[1.64288,52.62613],[1.6421,52.62674],[1.64162,52.6267],[1.64121,52.62729],[1.64235,52.62878],[1.6419,52.6289],[1.64394,52.63023],[1.64989,52.63038],[1.65312,52.63179],[1.65559,52.63077]]],[[[1.62449,52.63168],[1.62687,52.63123],[1.62944,52.63144],[1.63339,52.6325],[1.63367,52.63145],[1.63169,52.63007],[1.63075,52.62787],[1.62956,52.62744],[1.62958,52.627],[1.62732,52.62677],[1.62598,52.6271],[1.62452,52.62641],[1.62279,52.62656],[1.6224,52.62584],[1.62126,52.62552],[1.6205,52.62479],[1.62146,52.62354],[1.62115,52.62383],[1.61997,52.62357],[1.6173,52.62568],[1.61806,52.62841],[1.61778,52.62871],[1.61794,52.62941],[1.61677,52.63173],[1.61844,52.63255],[1.62246,52.63325],[1.62449,52.63168]]],[[[1.56117,52.64956],[1.56189,52.64949],[1.56136,52.64951],[1.56117,52.64956]]],[[[1.60302,52.68077],[1.60343,52.6791],[1.60555,52.67936],[1.60564,52.67914],[1.60679,52.6791],[1.60779,52.67838],[1.60781,52.67861],[1.60898,52.67873],[1.60898,52.67746],[1.61206,52.67714],[1.61241,52.67648],[1.61197,52.67555],[1.61364,52.67376],[1.61597,52.67328],[1.61554,52.67128],[1.61404,52.6713],[1.61288,52.67086],[1.6131,52.67065],[1.61439,52.67082],[1.61454,52.67046],[1.61389,52.66972],[1.6149,52.66915],[1.61471,52.66853],[1.61383,52.66818],[1.61214,52.66814],[1.61108,52.66866],[1.60664,52.66893],[1.60672,52.66728],[1.61155,52.66725],[1.6097,52.66464],[1.61184,52.66333],[1.61249,52.66013],[1.61322,52.65896],[1.61373,52.65424],[1.61472,52.65445],[1.61522,52.65558],[1.61836,52.65742],[1.61905,52.65748],[1.62105,52.65692],[1.62418,52.65716],[1.62603,52.65799],[1.62674,52.65889],[1.62749,52.65742],[1.63049,52.65647],[1.6379,52.65573],[1.6381,52.65599],[1.64169,52.65666],[1.64242,52.65666],[1.64301,52.65583],[1.64593,52.6563],[1.64658,52.65309],[1.64897,52.65365],[1.64877,52.65406],[1.65677,52.65623],[1.65856,52.6563],[1.66297,52.65507],[1.66483,52.65483],[1.66646,52.6573],[1.67593,52.6562],[1.68119,52.6553],[1.68663,52.65494],[1.6894,52.65486],[1.69498,52.6557],[1.69526,52.65356],[1.69463,52.65278],[1.69469,52.65171],[1.6958,52.64918],[1.69564,52.64854],[1.69511,52.64817],[1.69295,52.64801],[1.69207,52.64822],[1.69207,52.64772],[1.69109,52.64667],[1.69162,52.64648],[1.69168,52.64587],[1.68872,52.64486],[1.6861,52.643],[1.68442,52.64123],[1.68501,52.64072],[1.68681,52.64067],[1.68725,52.64031],[1.68775,52.6384],[1.68897,52.63806],[1.69031,52.63823],[1.68955,52.63562],[1.68887,52.63553],[1.68801,52.6348],[1.68926,52.63363],[1.68781,52.63329],[1.68776,52.63262],[1.68914,52.63184],[1.68949,52.63097],[1.69135,52.63086],[1.69147,52.62999],[1.6925,52.63006],[1.69254,52.62933],[1.69411,52.62929],[1.69389,52.62866],[1.69511,52.62765],[1.69523,52.62638],[1.69668,52.6262],[1.69797,52.62645],[1.69832,52.6257],[1.69741,52.62508],[1.69637,52.62331],[1.69581,52.62303],[1.69489,52.62312],[1.69561,52.62286],[1.69418,52.62195],[1.69274,52.62162],[1.68812,52.6235],[1.68772,52.62459],[1.68883,52.62635],[1.68775,52.62779],[1.6862,52.6282],[1.68228,52.62814],[1.67911,52.62968],[1.67404,52.62955],[1.66978,52.62901],[1.66716,52.6304],[1.66382,52.63026],[1.65781,52.63055],[1.65317,52.63206],[1.64956,52.63063],[1.63891,52.63041],[1.63639,52.63103],[1.63359,52.63278],[1.63267,52.63275],[1.62944,52.63169],[1.62632,52.63147],[1.62458,52.63196],[1.6231,52.63331],[1.62228,52.6335],[1.61633,52.63236],[1.61666,52.63221],[1.61638,52.6312],[1.61746,52.62894],[1.61636,52.62817],[1.61376,52.62747],[1.61133,52.62519],[1.60794,52.62427],[1.60469,52.62427],[1.5997,52.62553],[1.59887,52.6264],[1.59873,52.62787],[1.59808,52.6285],[1.59345,52.62908],[1.59324,52.62972],[1.5939,52.63204],[1.59177,52.63449],[1.59295,52.63639],[1.59224,52.63757],[1.58987,52.63871],[1.58825,52.6385],[1.58543,52.63694],[1.58317,52.63671],[1.579,52.63718],[1.57893,52.63762],[1.57866,52.63729],[1.57759,52.63759],[1.57483,52.63963],[1.57379,52.63946],[1.57231,52.63813],[1.57125,52.63766],[1.56974,52.63757],[1.56845,52.63796],[1.56701,52.63938],[1.56662,52.64184],[1.5676,52.64438],[1.56888,52.64558],[1.57008,52.64615],[1.57034,52.64711],[1.56988,52.64822],[1.56838,52.64922],[1.56799,52.64906],[1.56595,52.64959],[1.56129,52.64975],[1.55891,52.65036],[1.56079,52.65166],[1.56183,52.65299],[1.56538,52.65461],[1.56567,52.65552],[1.56661,52.65591],[1.56588,52.65686],[1.5671,52.65793],[1.56815,52.65811],[1.5685,52.65889],[1.57006,52.65958],[1.57203,52.66329],[1.57297,52.66324],[1.57338,52.66386],[1.57476,52.66389],[1.5758,52.66432],[1.57523,52.66613],[1.57781,52.66741],[1.57812,52.66878],[1.57733,52.67049],[1.58156,52.67733],[1.58279,52.68009],[1.5917,52.67922],[1.59211,52.68069],[1.59467,52.68029],[1.59718,52.68148],[1.6023,52.68158],[1.60302,52.68077]]]]}},{"type":"Feature","properties":{"id":"E01026610","name":"E01026610","parent":"E07000145","type":"LSOA","pop":1488,"r":129,"ff":43,"ffd":2889.8,"ffs":0.4574,"g":34,"co":2,"mo":0,"sa":0,"ic":0},"geometry":{"type":"Polygon","coordinates":[[[1.72994,52.57314],[1.73081,52.57257],[1.73088,52.57151],[1.73031,52.57136],[1.73021,52.57101],[1.72968,52.57094],[1.73074,52.57028],[1.72864,52.57029],[1.72799,52.56999],[1.7299,52.56968],[1.72947,52.56933],[1.72786,52.56958],[1.72769,52.56918],[1.72937,52.56893],[1.72941,52.56845],[1.72741,52.56875],[1.72718,52.56829],[1.72673,52.56838],[1.72557,52.5693],[1.7247,52.57112],[1.72514,52.57251],[1.72556,52.57305],[1.72851,52.57297],[1.72994,52.57314]]]}},{"type":"Feature","properties":{"id":"E01026611","name":"E01026611","parent":"E07000145","type":"LSOA","pop":1305,"r":129,"ff":44,"ffd":3371.6,"ffs":0.4681,"g":34,"co":2,"mo":0,"sa":0,"ic":0},"geometry":{"type":"Polygon","coordinates":[[[1.73256,52.56931],[1.73219,52.56338],[1.7329,52.55686],[1.72983,52.55696],[1.72952,52.55635],[1.72743,52.55632],[1.72761,52.55695],[1.72837,52.55736],[1.72813,52.55843],[1.72866,52.55846],[1.72845,52.55814],[1.72951,52.55847],[1.72926,52.56016],[1.72871,52.56005],[1.72865,52.56035],[1.72752,52.56028],[1.72755,52.55985],[1.72486,52.55985],[1.72426,52.56073],[1.72333,52.56052],[1.72198,52.55985],[1.72131,52.5589],[1.72082,52.55907],[1.72149,52.56001],[1.72102,52.56015],[1.72168,52.56042],[1.72212,52.56119],[1.72118,52.56139],[1.72202,52.56406],[1.72699,52.56314],[1.72717,52.56532],[1.72673,52.56838],[1.72718,52.56829],[1.72741,52.56875],[1.72941,52.56845],[1.72937,52.56893],[1.72769,52.56918],[1.72786,52.56958],[1.72947,52.56933],[1.7299,52.56968],[1.72799,52.56999],[1.72864,52.57029],[1.73074,52.57028],[1.72968,52.57094],[1.73021,52.57101],[1.73031,52.57136],[1.73154,52.57151],[1.73188,52.5707],[1.73122,52.56982],[1.73203,52.56933],[1.73256,52.56931]]]}},{"type":"Feature","properties":{"id":"E01026612","name":"E01026612","parent":"E07000145","type":"LSOA","pop":2410,"r":123,"ff":41,"ffd":1701.2,"ffs":0.4607,"g":33,"co":3,"mo":0,"sa":0,"ic":0},"geometry":{"type":"Polygon","coordinates":[[[1.71591,52.56042],[1.72027,52.56022],[1.72118,52.56139],[1.72212,52.56119],[1.72168,52.56042],[1.72102,52.56015],[1.72149,52.56001],[1.72082,52.55907],[1.72131,52.5589],[1.72198,52.55985],[1.72333,52.56052],[1.72426,52.56073],[1.72486,52.55985],[1.72755,52.55985],[1.72752,52.56028],[1.72865,52.56035],[1.72871,52.56005],[1.72926,52.56016],[1.72951,52.55847],[1.72845,52.55814],[1.72866,52.55846],[1.72813,52.55843],[1.72837,52.55736],[1.72761,52.55695],[1.72743,52.55632],[1.72952,52.55635],[1.72983,52.55696],[1.73284,52.55688],[1.73237,52.55541],[1.73191,52.55527],[1.73179,52.55571],[1.72685,52.55598],[1.72826,52.55359],[1.72867,52.55226],[1.72827,52.55218],[1.72923,52.55017],[1.72842,52.55085],[1.7258,52.55055],[1.72549,52.55498],[1.72209,52.55502],[1.72207,52.55401],[1.72135,52.55396],[1.72139,52.55307],[1.7185,52.55264],[1.71781,52.55286],[1.71738,52.55557],[1.71577,52.55575],[1.71482,52.55561],[1.71457,52.5549],[1.71356,52.55503],[1.71341,52.55542],[1.71191,52.55522],[1.71199,52.55542],[1.70845,52.55581],[1.70731,52.55725],[1.70541,52.56211],[1.70952,52.56272],[1.70922,52.56321],[1.71216,52.56077],[1.71591,52.56042]]]}},{"type":"Feature","properties":{"id":"E01026613","name":"E01026613","parent":"E07000145","type":"LSOA","pop":1269,"r":98,"ff":28,"ffd":2206.5,"ffs":0.4308,"g":32,"co":3,"mo":0,"sa":0,"ic":0},"geometry":{"type":"MultiPolygon","coordinates":[[[[1.61521,52.54017],[1.61473,52.54018],[1.61597,52.54031],[1.61521,52.54017]]],[[[1.65212,52.56514],[1.65249,52.56452],[1.65539,52.56586],[1.65591,52.56563],[1.65595,52.56426],[1.65749,52.56448],[1.65761,52.56483],[1.65791,52.56457],[1.65878,52.56458],[1.65869,52.56495],[1.66077,52.56483],[1.66101,52.56551],[1.66067,52.56603],[1.66123,52.56617],[1.66116,52.56655],[1.66288,52.56609],[1.66348,52.56658],[1.66527,52.56672],[1.6659,52.56708],[1.67222,52.56456],[1.67438,52.56097],[1.67488,52.56089],[1.66742,52.55496],[1.66522,52.5569],[1.66286,52.55763],[1.66193,52.56015],[1.6593,52.5613],[1.65679,52.56164],[1.65669,52.56008],[1.65339,52.56044],[1.64857,52.55933],[1.64761,52.5587],[1.64751,52.55824],[1.65393,52.55703],[1.65468,52.55425],[1.6546,52.55233],[1.65799,52.55218],[1.65963,52.54935],[1.66235,52.54785],[1.659,52.54463],[1.65915,52.54225],[1.65429,52.54163],[1.65131,52.54012],[1.64888,52.53951],[1.64614,52.53978],[1.64294,52.5396],[1.63889,52.53762],[1.63786,52.5376],[1.63774,52.53731],[1.63674,52.53744],[1.63811,52.53654],[1.63787,52.53569],[1.63829,52.53378],[1.63126,52.5323],[1.63654,52.52794],[1.63354,52.52663],[1.63096,52.52618],[1.63057,52.5267],[1.62891,52.52613],[1.62863,52.52721],[1.63104,52.52815],[1.62862,52.52732],[1.62817,52.52802],[1.62957,52.52858],[1.6281,52.52811],[1.62769,52.52848],[1.62862,52.52887],[1.62758,52.52857],[1.62321,52.53106],[1.62476,52.53187],[1.62301,52.53119],[1.62096,52.53279],[1.62058,52.53329],[1.6223,52.53379],[1.62267,52.53355],[1.62259,52.53389],[1.62053,52.53339],[1.62032,52.53356],[1.62037,52.53461],[1.6211,52.53558],[1.62276,52.53572],[1.62123,52.53572],[1.62223,52.53597],[1.62154,52.53603],[1.62172,52.53639],[1.62242,52.53645],[1.62173,52.53647],[1.62197,52.53861],[1.62116,52.53995],[1.61966,52.54076],[1.61858,52.54089],[1.61399,52.54026],[1.61198,52.5403],[1.61201,52.54065],[1.61191,52.54031],[1.61041,52.54046],[1.60796,52.54123],[1.6063,52.54243],[1.60592,52.54444],[1.60764,52.54826],[1.60968,52.55019],[1.61282,52.55141],[1.61576,52.55167],[1.616,52.55087],[1.61592,52.55158],[1.61985,52.55151],[1.62313,52.55252],[1.62583,52.55413],[1.62714,52.55581],[1.62806,52.5555],[1.62725,52.55595],[1.62882,52.55766],[1.63264,52.56013],[1.63358,52.5611],[1.6341,52.56108],[1.63368,52.56123],[1.63465,52.56396],[1.63348,52.56959],[1.63606,52.56932],[1.64927,52.56644],[1.65212,52.56514]]]]}},{"type":"Feature","properties":{"id":"E01026614","name":"E01026614","parent":"E07000145","type":"LSOA","pop":1711,"r":118,"ff":38,"ffd":2220.9,"ffs":0.4524,"g":33,"co":3,"mo":0,"sa":0,"ic":0},"geometry":{"type":"MultiPolygon","coordinates":[[[[1.63714,52.57456],[1.63706,52.57453],[1.63712,52.57456],[1.63714,52.57456]]],[[[1.68371,52.60067],[1.68559,52.5999],[1.68681,52.59986],[1.6849,52.59845],[1.68379,52.5968],[1.68294,52.59624],[1.68258,52.59517],[1.68293,52.59382],[1.68246,52.59354],[1.68238,52.59261],[1.68357,52.59076],[1.68198,52.59041],[1.68099,52.58969],[1.68153,52.58828],[1.68093,52.58814],[1.68155,52.58667],[1.6874,52.58733],[1.68773,52.58681],[1.68819,52.58566],[1.68626,52.58538],[1.68591,52.58026],[1.68561,52.57843],[1.68382,52.5786],[1.6805,52.57956],[1.67777,52.57923],[1.67582,52.57847],[1.67502,52.57687],[1.67391,52.57583],[1.66619,52.57178],[1.66798,52.57023],[1.66773,52.56979],[1.66446,52.56967],[1.66323,52.57005],[1.66322,52.57045],[1.66171,52.57057],[1.65975,52.57116],[1.65907,52.56901],[1.65804,52.56929],[1.65759,52.56963],[1.65538,52.56976],[1.65557,52.57107],[1.65491,52.57158],[1.65378,52.57169],[1.65356,52.57119],[1.65115,52.56997],[1.63606,52.56932],[1.63348,52.56959],[1.63332,52.57039],[1.63412,52.57213],[1.63611,52.57385],[1.6378,52.57459],[1.63908,52.57477],[1.64397,52.57436],[1.64432,52.57387],[1.6442,52.57441],[1.64748,52.57528],[1.64923,52.57663],[1.64928,52.5761],[1.65054,52.57631],[1.65007,52.57677],[1.65055,52.5768],[1.65066,52.57728],[1.64986,52.5773],[1.64978,52.57678],[1.64937,52.57683],[1.64973,52.57735],[1.65065,52.57731],[1.65074,52.57769],[1.64991,52.57773],[1.65031,52.57816],[1.65025,52.57925],[1.64831,52.58232],[1.64825,52.58409],[1.64969,52.5859],[1.65093,52.5864],[1.65149,52.587],[1.65262,52.5869],[1.65105,52.5878],[1.65084,52.58944],[1.6499,52.59098],[1.6504,52.59199],[1.64964,52.59222],[1.65006,52.59388],[1.65215,52.59478],[1.65636,52.59559],[1.65862,52.5968],[1.66142,52.59764],[1.66465,52.5978],[1.67053,52.59892],[1.67376,52.5986],[1.67673,52.59957],[1.68371,52.60067]]]]}},{"type":"Feature","properties":{"id":"E01026615","name":"E01026615","parent":"E07000145","type":"LSOA","pop":1331,"r":108,"ff":33,"ffd":2479.3,"ffs":0.44,"g":32,"co":3,"mo":0,"sa":0,"ic":0},"geometry":{"type":"Polygon","coordinates":[[[1.67844,52.57004],[1.67792,52.56563],[1.67913,52.56272],[1.6833,52.56203],[1.69355,52.56232],[1.6939,52.56039],[1.69249,52.55941],[1.69229,52.55877],[1.69376,52.5582],[1.69605,52.55812],[1.69658,52.55433],[1.69959,52.55046],[1.69045,52.54913],[1.68894,52.54928],[1.68902,52.54972],[1.68676,52.55002],[1.68611,52.54938],[1.68438,52.54991],[1.68282,52.54831],[1.68058,52.54777],[1.67924,52.5479],[1.67515,52.54946],[1.66784,52.55025],[1.66537,52.54952],[1.66235,52.54785],[1.65963,52.54935],[1.65799,52.55218],[1.6546,52.55233],[1.65468,52.55425],[1.65393,52.55703],[1.64751,52.55824],[1.64761,52.5587],[1.64857,52.55933],[1.65339,52.56044],[1.65669,52.56008],[1.65679,52.56164],[1.6593,52.5613],[1.66193,52.56015],[1.66286,52.55763],[1.66522,52.5569],[1.66742,52.55496],[1.67488,52.56089],[1.67438,52.56097],[1.67222,52.56456],[1.66642,52.56697],[1.6659,52.56708],[1.66527,52.56672],[1.66348,52.56658],[1.66288,52.56609],[1.65858,52.56704],[1.6597,52.56788],[1.65952,52.56817],[1.65829,52.56835],[1.65796,52.56805],[1.65726,52.56811],[1.65689,52.56725],[1.6564,52.56733],[1.6568,52.56794],[1.65657,52.56828],[1.65732,52.56818],[1.65719,52.56852],[1.65733,52.56908],[1.65804,52.56929],[1.65907,52.56901],[1.65975,52.57116],[1.66171,52.57057],[1.66322,52.57045],[1.66323,52.57005],[1.66446,52.56967],[1.66773,52.56979],[1.66798,52.57023],[1.66619,52.57178],[1.67391,52.57583],[1.67502,52.57687],[1.67733,52.57611],[1.67998,52.57473],[1.67914,52.57344],[1.67843,52.57284],[1.67984,52.57235],[1.67844,52.57004]]]}},{"type":"Feature","properties":{"id":"E01026616","name":"E01026616","parent":"E07000145","type":"LSOA","pop":1185,"r":102,"ff":32,"ffd":2700.4,"ffs":0.4638,"g":32,"co":3,"mo":0,"sa":0,"ic":0},"geometry":{"type":"Polygon","coordinates":[[[1.65719,52.56852],[1.65732,52.56818],[1.65657,52.56828],[1.6568,52.56794],[1.6564,52.56733],[1.65689,52.56725],[1.65726,52.56811],[1.65796,52.56805],[1.65829,52.56835],[1.65952,52.56817],[1.6597,52.56788],[1.65858,52.56704],[1.66116,52.56655],[1.66123,52.56617],[1.66067,52.56603],[1.66101,52.56551],[1.66077,52.56483],[1.65869,52.56495],[1.65878,52.56458],[1.65791,52.56457],[1.65761,52.56483],[1.65749,52.56448],[1.65595,52.56426],[1.65591,52.56563],[1.65539,52.56586],[1.65249,52.56452],[1.65212,52.56514],[1.64927,52.56644],[1.63606,52.56932],[1.65115,52.56997],[1.65356,52.57119],[1.65378,52.57169],[1.65491,52.57158],[1.65557,52.57107],[1.65538,52.56976],[1.65759,52.56963],[1.65804,52.56929],[1.65733,52.56908],[1.65719,52.56852]]]}},{"type":"Feature","properties":{"id":"E01026617","name":"E01026617","parent":"E07000145","type":"LSOA","pop":1285,"r":130,"ff":44,"ffd":3424.1,"ffs":0.4632,"g":34,"co":2,"mo":0,"sa":0,"ic":0},"geometry":{"type":"Polygon","coordinates":[[[1.71969,52.56772],[1.72017,52.56762],[1.72051,52.56792],[1.72176,52.567],[1.72194,52.56644],[1.72155,52.5656],[1.71875,52.56562],[1.71834,52.56489],[1.71718,52.56439],[1.71707,52.56457],[1.71544,52.56473],[1.71503,52.56415],[1.71682,52.56273],[1.71836,52.5628],[1.71846,52.56322],[1.71962,52.56315],[1.71985,52.56229],[1.72082,52.56201],[1.7206,52.56148],[1.72118,52.56139],[1.72027,52.56022],[1.71216,52.56077],[1.70832,52.56393],[1.70779,52.56463],[1.70883,52.56592],[1.71145,52.56583],[1.71146,52.56615],[1.71239,52.56659],[1.71332,52.56622],[1.71424,52.56629],[1.71391,52.5669],[1.71582,52.56691],[1.71608,52.56788],[1.71688,52.56806],[1.71733,52.56882],[1.71928,52.56845],[1.71922,52.56822],[1.71983,52.56803],[1.71969,52.56772]]]}},{"type":"Feature","properties":{"id":"E01026618","name":"E01026618","parent":"E07000145","type":"LSOA","pop":1533,"r":129,"ff":44,"ffd":2870.2,"ffs":0.4632,"g":33,"co":3,"mo":0,"sa":0,"ic":0},"geometry":{"type":"Polygon","coordinates":[[[1.72287,52.57073],[1.72448,52.57055],[1.72477,52.57081],[1.72557,52.5693],[1.72673,52.56838],[1.72717,52.56532],[1.72699,52.56314],[1.72202,52.56406],[1.72118,52.56139],[1.7206,52.56148],[1.72082,52.56201],[1.71985,52.56229],[1.71962,52.56315],[1.71846,52.56322],[1.71836,52.5628],[1.71682,52.56273],[1.71503,52.56415],[1.71544,52.56473],[1.71707,52.56457],[1.71718,52.56439],[1.71834,52.56489],[1.71875,52.56562],[1.72155,52.5656],[1.72194,52.56644],[1.72176,52.567],[1.72051,52.56792],[1.7203,52.56867],[1.7207,52.5689],[1.72078,52.56953],[1.71969,52.56969],[1.71959,52.5704],[1.72039,52.57069],[1.72053,52.57144],[1.72287,52.57073]]]}},{"type":"Feature","properties":{"id":"E01026619","name":"E01026619","parent":"E07000145","type":"LSOA","pop":1494,"r":127,"ff":42,"ffd":2811.2,"ffs":0.4516,"g":33,"co":3,"mo":0,"sa":0,"ic":0},"geometry":{"type":"Polygon","coordinates":[[[1.71157,52.57185],[1.71197,52.57063],[1.71161,52.57026],[1.71224,52.57003],[1.71198,52.56955],[1.71415,52.56931],[1.71348,52.56845],[1.71385,52.56819],[1.71401,52.56778],[1.71596,52.56757],[1.71582,52.56691],[1.71391,52.5669],[1.71424,52.56629],[1.71332,52.56622],[1.71239,52.56659],[1.71146,52.56615],[1.71145,52.56583],[1.70883,52.56592],[1.70779,52.56463],[1.70645,52.56672],[1.70479,52.56825],[1.7072,52.5685],[1.70801,52.56914],[1.70803,52.56989],[1.70887,52.57022],[1.70879,52.57123],[1.70962,52.57092],[1.70971,52.57182],[1.71126,52.57219],[1.71157,52.57185]]]}},{"type":"Feature","properties":{"id":"E01026620","name":"E01026620","parent":"E07000145","type":"LSOA","pop":1606,"r":128,"ff":42,"ffd":2615.2,"ffs":0.4516,"g":34,"co":2,"mo":0,"sa":0,"ic":0},"geometry":{"type":"Polygon","coordinates":[[[1.71463,52.57496],[1.71428,52.5728],[1.71566,52.57278],[1.71587,52.57249],[1.71587,52.57097],[1.71523,52.57065],[1.71197,52.57063],[1.71157,52.57185],[1.71126,52.57219],[1.70971,52.57182],[1.70962,52.57092],[1.70879,52.57123],[1.70887,52.57022],[1.70803,52.56989],[1.70774,52.57168],[1.70792,52.57517],[1.71463,52.57496]]]}},{"type":"Feature","properties":{"id":"E01026621","name":"E01026621","parent":"E07000145","type":"LSOA","pop":1558,"r":128,"ff":43,"ffd":2759.9,"ffs":0.4574,"g":33,"co":3,"mo":0,"sa":0,"ic":0},"geometry":{"type":"Polygon","coordinates":[[[1.72203,52.57427],[1.7247,52.57112],[1.72477,52.57081],[1.72448,52.57055],[1.72287,52.57073],[1.72053,52.57144],[1.72039,52.57069],[1.71959,52.5704],[1.71969,52.56969],[1.72078,52.56953],[1.7207,52.5689],[1.7203,52.56867],[1.72051,52.56792],[1.72017,52.56762],[1.71969,52.56772],[1.71983,52.56803],[1.71922,52.56822],[1.71928,52.56845],[1.71733,52.56882],[1.71688,52.56806],[1.71608,52.56788],[1.71596,52.56757],[1.71401,52.56778],[1.71385,52.56819],[1.71348,52.56845],[1.71415,52.56931],[1.71198,52.56955],[1.71224,52.57003],[1.71161,52.57026],[1.71197,52.57063],[1.71523,52.57065],[1.71587,52.57097],[1.71587,52.57249],[1.7178,52.57315],[1.71982,52.57292],[1.72023,52.5732],[1.72119,52.57307],[1.72203,52.57427]]]}},{"type":"Feature","properties":{"id":"E01026622","name":"E01026622","parent":"E07000145","type":"LSOA","pop":1688,"r":129,"ff":43,"ffd":2547.4,"ffs":0.4574,"g":34,"co":2,"mo":0,"sa":0,"ic":0},"geometry":{"type":"Polygon","coordinates":[[[1.73555,52.59657],[1.73545,52.59532],[1.73816,52.59528],[1.73767,52.59152],[1.73748,52.58731],[1.73799,52.58247],[1.739,52.58264],[1.74488,52.58002],[1.74577,52.57926],[1.74575,52.57861],[1.74554,52.57837],[1.74561,52.57923],[1.74491,52.57983],[1.73883,52.57998],[1.73805,52.5752],[1.73879,52.57478],[1.74157,52.57446],[1.74356,52.57471],[1.74363,52.57504],[1.7449,52.57532],[1.74556,52.57671],[1.74539,52.57568],[1.7443,52.57463],[1.73949,52.57322],[1.7398,52.57303],[1.73536,52.57294],[1.73434,52.57413],[1.73372,52.57414],[1.73259,52.58029],[1.73047,52.58451],[1.72922,52.58919],[1.72675,52.59251],[1.72713,52.59616],[1.72821,52.59612],[1.72814,52.59648],[1.73029,52.5965],[1.73113,52.59616],[1.7314,52.59531],[1.73343,52.59531],[1.7332,52.59574],[1.73415,52.5964],[1.73468,52.59669],[1.73555,52.59657]]]}},{"type":"Feature","properties":{"id":"E01026623","name":"E01026623","parent":"E07000145","type":"LSOA","pop":1895,"r":130,"ff":44,"ffd":2321.9,"ffs":0.4632,"g":34,"co":2,"mo":0,"sa":0,"ic":0},"geometry":{"type":"Polygon","coordinates":[[[1.73678,52.60769],[1.73675,52.60527],[1.73565,52.60532],[1.73554,52.60462],[1.73488,52.6046],[1.73498,52.60496],[1.73426,52.60517],[1.73429,52.60491],[1.73317,52.60488],[1.73182,52.60433],[1.73199,52.60402],[1.73129,52.60403],[1.73073,52.60441],[1.73127,52.60478],[1.72955,52.60548],[1.72812,52.60477],[1.72799,52.60558],[1.72713,52.60613],[1.72669,52.60596],[1.7272,52.6055],[1.7267,52.60519],[1.72683,52.60486],[1.72573,52.60454],[1.72635,52.60352],[1.72587,52.60343],[1.72565,52.60413],[1.72404,52.60612],[1.72438,52.60641],[1.72502,52.60628],[1.72723,52.60711],[1.72747,52.60679],[1.73677,52.60808],[1.73678,52.60769]]]}},{"type":"Feature","properties":{"id":"E01026624","name":"E01026624","parent":"E07000145","type":"LSOA","pop":1913,"r":130,"ff":44,"ffd":2300.1,"ffs":0.4632,"g":34,"co":2,"mo":0,"sa":0,"ic":0},"geometry":{"type":"Polygon","coordinates":[[[1.73127,52.60478],[1.73073,52.60441],[1.73129,52.60403],[1.73199,52.60402],[1.73182,52.60433],[1.73317,52.60488],[1.73429,52.60491],[1.73426,52.60517],[1.73498,52.60496],[1.73488,52.6046],[1.73554,52.60462],[1.73406,52.60403],[1.73557,52.60374],[1.73536,52.60329],[1.73461,52.60294],[1.73578,52.60287],[1.73561,52.60246],[1.73433,52.60214],[1.73322,52.60232],[1.73396,52.60165],[1.73511,52.60144],[1.73508,52.60123],[1.73411,52.60076],[1.73355,52.60131],[1.73322,52.60117],[1.73245,52.60147],[1.73284,52.60078],[1.73218,52.601],[1.73213,52.60151],[1.73097,52.60153],[1.72988,52.60192],[1.73014,52.60257],[1.72918,52.60343],[1.72946,52.60413],[1.7289,52.60414],[1.72872,52.60455],[1.72839,52.60444],[1.72758,52.60466],[1.72955,52.60548],[1.73127,52.60478]]]}},{"type":"Feature","properties":{"id":"E01026625","name":"E01026625","parent":"E07000145","type":"LSOA","pop":1881,"r":130,"ff":44,"ffd":2339.2,"ffs":0.4632,"g":34,"co":2,"mo":0,"sa":0,"ic":0},"geometry":{"type":"Polygon","coordinates":[[[1.72758,52.60466],[1.72839,52.60444],[1.72872,52.60455],[1.7289,52.60414],[1.72946,52.60413],[1.72918,52.60343],[1.73014,52.60257],[1.72988,52.60192],[1.73097,52.60153],[1.73213,52.60151],[1.73218,52.601],[1.7318,52.60106],[1.73169,52.60021],[1.73179,52.59954],[1.73236,52.59951],[1.73243,52.59891],[1.7306,52.59876],[1.73008,52.59964],[1.73028,52.60014],[1.72882,52.6],[1.72802,52.60049],[1.72755,52.60045],[1.72654,52.6031],[1.72573,52.60454],[1.72683,52.60486],[1.7267,52.60519],[1.7272,52.6055],[1.72669,52.60596],[1.72713,52.60613],[1.72799,52.60558],[1.72812,52.60477],[1.72758,52.60466]]]}},{"type":"Feature","properties":{"id":"E01026626","name":"E01026626","parent":"E07000145","type":"LSOA","pop":2119,"r":130,"ff":44,"ffd":2076.5,"ffs":0.4632,"g":34,"co":2,"mo":0,"sa":0,"ic":0},"geometry":{"type":"Polygon","coordinates":[[[1.74071,52.60837],[1.73914,52.60289],[1.73816,52.59528],[1.73545,52.59532],[1.73555,52.59657],[1.73468,52.59669],[1.7332,52.59574],[1.73343,52.59531],[1.7314,52.59531],[1.73113,52.59616],[1.73029,52.5965],[1.72814,52.59648],[1.72821,52.59612],[1.72713,52.59616],[1.72727,52.59756],[1.72682,52.60044],[1.72587,52.60343],[1.72635,52.60352],[1.72755,52.60045],[1.72802,52.60049],[1.72882,52.6],[1.73028,52.60014],[1.73008,52.59964],[1.7306,52.59876],[1.73243,52.59891],[1.73236,52.59951],[1.73179,52.59954],[1.7318,52.60106],[1.73284,52.60078],[1.73245,52.60147],[1.73287,52.60142],[1.73322,52.60117],[1.73355,52.60131],[1.73411,52.60076],[1.73508,52.60123],[1.73511,52.60144],[1.73396,52.60165],[1.73322,52.60232],[1.73433,52.60214],[1.73561,52.60246],[1.73578,52.60287],[1.73461,52.60294],[1.73536,52.60329],[1.73557,52.60374],[1.73406,52.60403],[1.73554,52.60462],[1.73565,52.60532],[1.73675,52.60527],[1.73677,52.60808],[1.73699,52.60836],[1.74071,52.60837]]]}},{"type":"Feature","properties":{"id":"E01026627","name":"E01026627","parent":"E07000145","type":"LSOA","pop":1345,"r":66,"ff":22,"ffd":1635.7,"ffs":0.55,"g":25,"co":2,"mo":2,"sa":2,"ic":0},"geometry":{"type":"Polygon","coordinates":[[[1.71403,52.68463],[1.71374,52.68374],[1.71416,52.68346],[1.7136,52.68322],[1.71566,52.68269],[1.71519,52.68221],[1.71413,52.6821],[1.71432,52.68155],[1.71272,52.68045],[1.71201,52.68049],[1.71312,52.6793],[1.71412,52.67922],[1.71399,52.67821],[1.71451,52.67807],[1.71427,52.67676],[1.71358,52.67676],[1.71054,52.67457],[1.70883,52.67472],[1.70867,52.67431],[1.71015,52.67295],[1.7081,52.67306],[1.70726,52.67135],[1.70381,52.67157],[1.7038,52.672],[1.70341,52.67198],[1.70352,52.67331],[1.70178,52.67332],[1.70182,52.67363],[1.69982,52.67375],[1.69738,52.67449],[1.69735,52.67482],[1.69656,52.67416],[1.69518,52.67429],[1.6937,52.67357],[1.69294,52.67388],[1.69291,52.67357],[1.69229,52.67344],[1.69182,52.67377],[1.69178,52.67473],[1.68924,52.67458],[1.68894,52.67509],[1.69031,52.67556],[1.6902,52.67616],[1.6889,52.67625],[1.68883,52.67586],[1.68814,52.67587],[1.68864,52.67438],[1.68744,52.67471],[1.6876,52.67502],[1.68687,52.67542],[1.68423,52.67646],[1.68519,52.67756],[1.68473,52.67779],[1.68506,52.67815],[1.68362,52.67864],[1.68548,52.67897],[1.68587,52.67822],[1.6877,52.67719],[1.68818,52.67727],[1.68807,52.67778],[1.6876,52.67783],[1.68796,52.67794],[1.6863,52.67904],[1.68637,52.67935],[1.68692,52.67956],[1.6877,52.67933],[1.68764,52.67904],[1.6885,52.67892],[1.69149,52.67976],[1.69452,52.67976],[1.69514,52.6807],[1.68953,52.68204],[1.68738,52.68223],[1.68712,52.68512],[1.69126,52.68527],[1.6955,52.68491],[1.69561,52.6847],[1.70512,52.68429],[1.7054,52.68617],[1.70668,52.68603],[1.70661,52.68561],[1.70928,52.68501],[1.70926,52.68472],[1.70986,52.68482],[1.71282,52.68751],[1.71403,52.68463]]]}},{"type":"Feature","properties":{"id":"E01026628","name":"E01026628","parent":"E07000145","type":"LSOA","pop":1895,"r":85,"ff":25,"ffd":1319.3,"ffs":0.463,"g":30,"co":2,"mo":2,"sa":2,"ic":0},"geometry":{"type":"Polygon","coordinates":[[[1.71706,52.68466],[1.72322,52.67329],[1.72817,52.66693],[1.7291,52.66347],[1.72768,52.66326],[1.72586,52.66412],[1.72241,52.66325],[1.71849,52.66297],[1.71468,52.66222],[1.70879,52.66297],[1.69231,52.66365],[1.69113,52.66493],[1.69215,52.66547],[1.69367,52.66725],[1.6941,52.66959],[1.69343,52.67095],[1.69453,52.67082],[1.69465,52.67177],[1.69404,52.67221],[1.69256,52.67199],[1.69181,52.67293],[1.69032,52.67324],[1.69003,52.67377],[1.69062,52.67397],[1.69149,52.67341],[1.69291,52.67357],[1.69294,52.67388],[1.6937,52.67357],[1.69518,52.67429],[1.69656,52.67416],[1.69735,52.67482],[1.69738,52.67449],[1.69982,52.67375],[1.70182,52.67363],[1.70178,52.67332],[1.70352,52.67331],[1.70341,52.67198],[1.7038,52.672],[1.70381,52.67157],[1.70726,52.67135],[1.7081,52.67306],[1.71015,52.67295],[1.70867,52.67431],[1.70883,52.67472],[1.71054,52.67457],[1.71358,52.67676],[1.71427,52.67676],[1.71451,52.67807],[1.71399,52.67821],[1.71412,52.67922],[1.71312,52.6793],[1.71201,52.68049],[1.71272,52.68045],[1.71432,52.68155],[1.71413,52.6821],[1.71519,52.68221],[1.71566,52.68269],[1.7136,52.68322],[1.71416,52.68346],[1.71374,52.68374],[1.71403,52.68463],[1.71282,52.68751],[1.71478,52.6879],[1.71706,52.68466]]]}},{"type":"Feature","properties":{"id":"E01026629","name":"E01026629","parent":"E07000145","type":"LSOA","pop":1421,"r":78,"ff":25,"ffd":1759.3,"ffs":0.5,"g":27,"co":2,"mo":2,"sa":2,"ic":0},"geometry":{"type":"Polygon","coordinates":[[[1.68712,52.68512],[1.68738,52.68223],[1.68953,52.68204],[1.69514,52.6807],[1.69452,52.67976],[1.69149,52.67976],[1.6885,52.67892],[1.68764,52.67904],[1.6877,52.67933],[1.68692,52.67956],[1.68637,52.67935],[1.6863,52.67904],[1.68796,52.67794],[1.6876,52.67783],[1.68807,52.67778],[1.68818,52.67727],[1.6877,52.67719],[1.68587,52.67822],[1.68548,52.67897],[1.68362,52.67864],[1.68506,52.67815],[1.68473,52.67779],[1.68519,52.67756],[1.68423,52.67646],[1.68687,52.67542],[1.6876,52.67502],[1.68744,52.67471],[1.68864,52.67438],[1.68814,52.67587],[1.68883,52.67586],[1.6889,52.67625],[1.6902,52.67616],[1.69031,52.67556],[1.68894,52.67509],[1.68924,52.67458],[1.69178,52.67473],[1.69182,52.67377],[1.69229,52.67344],[1.69149,52.67341],[1.69062,52.67397],[1.69003,52.67377],[1.69032,52.67324],[1.69181,52.67293],[1.69256,52.67199],[1.69404,52.67221],[1.69465,52.67177],[1.69453,52.67082],[1.69343,52.67095],[1.6941,52.66959],[1.69367,52.66725],[1.69215,52.66547],[1.69113,52.66493],[1.68596,52.66434],[1.67836,52.66417],[1.67604,52.66483],[1.6766,52.66527],[1.67476,52.66615],[1.67534,52.66652],[1.67111,52.66829],[1.67024,52.66807],[1.66787,52.66911],[1.66589,52.66846],[1.66368,52.66945],[1.66227,52.6694],[1.66379,52.67194],[1.66174,52.6727],[1.65941,52.67308],[1.6577,52.67246],[1.6521,52.6729],[1.6511,52.67272],[1.64424,52.67038],[1.64155,52.66843],[1.64075,52.66878],[1.63909,52.66883],[1.63753,52.6699],[1.63705,52.67175],[1.64008,52.67737],[1.64504,52.68049],[1.6478,52.68319],[1.64893,52.68501],[1.65387,52.68402],[1.65918,52.68407],[1.6619,52.68439],[1.66422,52.68604],[1.6652,52.6859],[1.66672,52.68627],[1.66735,52.68615],[1.66725,52.68563],[1.67224,52.68556],[1.67466,52.68513],[1.67521,52.68642],[1.67598,52.68626],[1.67589,52.68594],[1.68237,52.6857],[1.68712,52.68512]]]}},{"type":"Feature","properties":{"id":"E01026630","name":"E01026630","parent":"E07000145","type":"LSOA","pop":1543,"r":129,"ff":42,"ffd":2722.0,"ffs":0.4468,"g":34,"co":2,"mo":0,"sa":0,"ic":0},"geometry":{"type":"Polygon","coordinates":[[[1.72654,52.58019],[1.72606,52.57924],[1.72468,52.57951],[1.72358,52.57862],[1.72415,52.57846],[1.72512,52.57905],[1.72622,52.5787],[1.72643,52.57896],[1.72716,52.57897],[1.72711,52.57858],[1.72768,52.57849],[1.72794,52.57909],[1.73131,52.57895],[1.73163,52.57773],[1.73009,52.57768],[1.73035,52.57522],[1.72982,52.57445],[1.72924,52.57449],[1.72949,52.57504],[1.7284,52.57523],[1.72716,52.57523],[1.72584,52.57471],[1.72544,52.57528],[1.72319,52.57577],[1.72203,52.57427],[1.71944,52.57764],[1.71904,52.57892],[1.72084,52.57886],[1.72115,52.57935],[1.72354,52.57902],[1.72455,52.58012],[1.72572,52.58006],[1.726,52.58035],[1.72654,52.58019]]]}},{"type":"Feature","properties":{"id":"E01026631","name":"E01026631","parent":"E07000145","type":"LSOA","pop":1549,"r":129,"ff":42,"ffd":2711.4,"ffs":0.4468,"g":34,"co":2,"mo":0,"sa":0,"ic":0},"geometry":{"type":"Polygon","coordinates":[[[1.73171,52.57774],[1.73253,52.57236],[1.73403,52.57179],[1.73807,52.5722],[1.73864,52.57204],[1.73605,52.57164],[1.73472,52.57087],[1.7343,52.57007],[1.73418,52.57049],[1.73311,52.57023],[1.73256,52.56931],[1.73203,52.56933],[1.73122,52.56982],[1.73188,52.5707],[1.73154,52.57151],[1.73088,52.57151],[1.73081,52.57257],[1.72994,52.57314],[1.72851,52.57297],[1.72556,52.57305],[1.72514,52.57251],[1.7247,52.57112],[1.72203,52.57427],[1.72319,52.57577],[1.72544,52.57528],[1.72584,52.57471],[1.72716,52.57523],[1.7284,52.57523],[1.72949,52.57504],[1.72924,52.57449],[1.72982,52.57445],[1.73035,52.57522],[1.73009,52.57768],[1.73171,52.57774]]]}},{"type":"Feature","properties":{"id":"E01026632","name":"E01026632","parent":"E07000145","type":"LSOA","pop":1672,"r":129,"ff":42,"ffd":2512.0,"ffs":0.4468,"g":34,"co":2,"mo":0,"sa":0,"ic":0},"geometry":{"type":"Polygon","coordinates":[[[1.72879,52.58506],[1.73137,52.57997],[1.73171,52.57774],[1.73131,52.57895],[1.72794,52.57909],[1.72768,52.57849],[1.72711,52.57858],[1.72716,52.57897],[1.72643,52.57896],[1.72622,52.5787],[1.72512,52.57905],[1.72415,52.57846],[1.72358,52.57862],[1.72468,52.57951],[1.72606,52.57924],[1.72654,52.58019],[1.726,52.58035],[1.72572,52.58006],[1.72455,52.58012],[1.72354,52.57902],[1.72115,52.57935],[1.72084,52.57886],[1.71904,52.57893],[1.71917,52.58389],[1.7213,52.58433],[1.72135,52.58397],[1.72555,52.58312],[1.72607,52.58344],[1.72628,52.58323],[1.72766,52.58331],[1.72808,52.58528],[1.72874,52.58532],[1.72879,52.58506]]]}},{"type":"Feature","properties":{"id":"E01026633","name":"E01026633","parent":"E07000145","type":"LSOA","pop":1806,"r":128,"ff":42,"ffd":2325.6,"ffs":0.4516,"g":34,"co":2,"mo":0,"sa":0,"ic":0},"geometry":{"type":"Polygon","coordinates":[[[1.72207,52.60217],[1.72268,52.60039],[1.72315,52.59969],[1.7245,52.60005],[1.72578,52.59999],[1.72583,52.59978],[1.72521,52.59958],[1.7259,52.59959],[1.72613,52.59775],[1.72545,52.59273],[1.72672,52.59055],[1.72534,52.59013],[1.72519,52.59077],[1.723,52.59183],[1.71985,52.59234],[1.71941,52.58823],[1.71662,52.58918],[1.71615,52.58983],[1.71248,52.58846],[1.71149,52.59096],[1.71091,52.59376],[1.7126,52.59654],[1.71246,52.59979],[1.71379,52.59896],[1.7145,52.59789],[1.71673,52.59676],[1.71742,52.59893],[1.71687,52.60002],[1.7184,52.60118],[1.71917,52.60114],[1.71974,52.60159],[1.72019,52.60128],[1.7208,52.60219],[1.72207,52.60217]]]}},{"type":"Feature","properties":{"id":"E01026634","name":"E01026634","parent":"E07000145","type":"LSOA","pop":1483,"r":127,"ff":41,"ffd":2764.7,"ffs":0.4457,"g":34,"co":2,"mo":0,"sa":0,"ic":0},"geometry":{"type":"Polygon","coordinates":[[[1.71695,52.60638],[1.71835,52.60566],[1.71931,52.60612],[1.71858,52.60678],[1.71899,52.60711],[1.72014,52.60617],[1.72061,52.60615],[1.72075,52.60563],[1.72007,52.60522],[1.72109,52.60489],[1.72129,52.60453],[1.72078,52.6043],[1.72063,52.60349],[1.7208,52.60219],[1.72019,52.60128],[1.71974,52.60159],[1.71917,52.60114],[1.7184,52.60118],[1.71687,52.60002],[1.71742,52.59893],[1.71673,52.59676],[1.7145,52.59789],[1.71379,52.59896],[1.71246,52.59979],[1.71245,52.60122],[1.71106,52.60265],[1.71549,52.60494],[1.71664,52.60452],[1.71442,52.60651],[1.7165,52.60742],[1.71695,52.60638]]]}},{"type":"Feature","properties":{"id":"E01026635","name":"E01026635","parent":"E07000145","type":"LSOA","pop":2459,"r":127,"ff":41,"ffd":1667.3,"ffs":0.4457,"g":34,"co":2,"mo":0,"sa":0,"ic":0},"geometry":{"type":"Polygon","coordinates":[[[1.71952,52.6083],[1.72286,52.60625],[1.72492,52.60343],[1.72578,52.59999],[1.7245,52.60005],[1.72315,52.59969],[1.72268,52.60039],[1.72207,52.60217],[1.7208,52.60219],[1.72063,52.60349],[1.72078,52.6043],[1.72129,52.60453],[1.72109,52.60489],[1.72007,52.60522],[1.72075,52.60563],[1.72061,52.60615],[1.72014,52.60617],[1.71899,52.60711],[1.71858,52.60678],[1.71931,52.60612],[1.71835,52.60566],[1.71695,52.60638],[1.7165,52.60742],[1.71569,52.60709],[1.71442,52.60651],[1.71664,52.60452],[1.71549,52.60494],[1.71106,52.60265],[1.71245,52.60122],[1.7126,52.59654],[1.71091,52.59376],[1.71083,52.59458],[1.71137,52.59475],[1.70999,52.59619],[1.70769,52.60044],[1.69805,52.60099],[1.69805,52.602],[1.69896,52.60223],[1.69938,52.60296],[1.69877,52.60339],[1.69947,52.60477],[1.69886,52.60579],[1.69773,52.60656],[1.69756,52.60702],[1.69879,52.60724],[1.69925,52.60692],[1.70025,52.60705],[1.70069,52.60744],[1.70151,52.60721],[1.70579,52.60816],[1.70651,52.60881],[1.71135,52.61113],[1.71347,52.61155],[1.71486,52.61129],[1.71882,52.60963],[1.71952,52.6083]]]}},{"type":"Feature","properties":{"id":"E01026636","name":"E01026636","parent":"E07000145","type":"LSOA","pop":1546,"r":41,"ff":16,"ffd":1034.9,"ffs":0.7273,"g":18,"co":2,"mo":2,"sa":2,"ic":0},"geometry":{"type":"MultiPolygon","coordinates":[[[[1.54688,52.69709],[1.54645,52.69676],[1.54658,52.69691],[1.54688,52.69709]]],[[[1.59311,52.70927],[1.59707,52.70226],[1.60613,52.69673],[1.60588,52.69633],[1.60756,52.69545],[1.60875,52.69419],[1.60979,52.69202],[1.61196,52.69228],[1.61159,52.69336],[1.61392,52.69366],[1.61438,52.69209],[1.61718,52.69297],[1.61796,52.69273],[1.62105,52.69305],[1.62125,52.69349],[1.62236,52.6938],[1.63084,52.6948],[1.63082,52.69431],[1.64167,52.69294],[1.65311,52.69089],[1.65044,52.68667],[1.65029,52.68483],[1.64893,52.68501],[1.6478,52.68319],[1.64504,52.68049],[1.64008,52.67737],[1.63705,52.67175],[1.63442,52.67173],[1.63271,52.6722],[1.63042,52.67398],[1.62604,52.67522],[1.62382,52.67642],[1.62314,52.67714],[1.61869,52.67768],[1.61507,52.67758],[1.61473,52.67701],[1.60898,52.67746],[1.60898,52.67873],[1.60781,52.67861],[1.60779,52.67838],[1.60679,52.6791],[1.60564,52.67914],[1.60555,52.67936],[1.60343,52.6791],[1.60302,52.68077],[1.6023,52.68158],[1.59718,52.68148],[1.59467,52.68029],[1.59211,52.68069],[1.5917,52.67922],[1.58279,52.68009],[1.58156,52.67733],[1.57733,52.67049],[1.57812,52.66878],[1.57781,52.66741],[1.57523,52.66613],[1.5758,52.66432],[1.57476,52.66389],[1.57338,52.66386],[1.57297,52.66324],[1.57203,52.66329],[1.57006,52.65958],[1.5685,52.65889],[1.56815,52.65811],[1.5671,52.65793],[1.56588,52.65686],[1.56661,52.65591],[1.56567,52.65552],[1.56538,52.65461],[1.56183,52.65299],[1.56079,52.65166],[1.55891,52.65036],[1.55778,52.65114],[1.55735,52.652],[1.55731,52.65411],[1.55767,52.6551],[1.56053,52.65846],[1.56244,52.66551],[1.56201,52.66771],[1.56117,52.66927],[1.55903,52.67099],[1.56163,52.67376],[1.5588,52.67108],[1.55503,52.67249],[1.55347,52.67375],[1.55099,52.67986],[1.55464,52.68027],[1.55087,52.68017],[1.55052,52.68142],[1.54966,52.68195],[1.54968,52.68346],[1.54986,52.68427],[1.55021,52.68428],[1.54986,52.6844],[1.54998,52.68578],[1.55043,52.68586],[1.55002,52.68598],[1.55006,52.68709],[1.55327,52.68719],[1.55335,52.68697],[1.55414,52.68688],[1.55352,52.68704],[1.55422,52.68716],[1.55349,52.68718],[1.5542,52.68725],[1.55034,52.68741],[1.54868,52.6897],[1.5456,52.69225],[1.54493,52.69391],[1.54577,52.69592],[1.55053,52.69911],[1.55422,52.70071],[1.5569,52.70138],[1.56204,52.70204],[1.56782,52.70118],[1.57011,52.70127],[1.57019,52.70105],[1.57035,52.70136],[1.57058,52.7011],[1.57061,52.70141],[1.57343,52.70236],[1.57651,52.70415],[1.57778,52.70541],[1.579,52.70813],[1.58091,52.70945],[1.58158,52.70925],[1.58119,52.70977],[1.5821,52.70986],[1.58275,52.71041],[1.58592,52.71152],[1.59034,52.71248],[1.59093,52.71135],[1.59234,52.71038],[1.59311,52.70927]]]]}},{"type":"Feature","properties":{"id":"E01026637","name":"E01026637","parent":"E07000145","type":"LSOA","pop":2333,"r":15,"ff":12,"ffd":514.4,"ffs":0.8,"g":0,"co":3,"mo":3,"sa":3,"ic":1},"geometry":{"type":"Polygon","coordinates":[[[1.63421,52.72952],[1.63611,52.7143],[1.6368,52.71432],[1.63658,52.71327],[1.63791,52.71262],[1.63731,52.71129],[1.63811,52.71069],[1.63625,52.71023],[1.6361,52.70982],[1.63503,52.70954],[1.63442,52.70857],[1.63403,52.70848],[1.63353,52.70938],[1.63213,52.70898],[1.63241,52.70859],[1.63152,52.70886],[1.62871,52.70845],[1.62771,52.70902],[1.62622,52.70927],[1.62479,52.7073],[1.62266,52.70678],[1.62406,52.70643],[1.62435,52.70593],[1.62247,52.70389],[1.62277,52.70237],[1.62543,52.70274],[1.62591,52.70196],[1.6284,52.70211],[1.62847,52.70188],[1.62758,52.70168],[1.6271,52.70196],[1.62651,52.70182],[1.62652,52.70139],[1.62547,52.70117],[1.626,52.70016],[1.62707,52.70029],[1.62745,52.70078],[1.62772,52.70012],[1.62713,52.69968],[1.62864,52.69976],[1.62939,52.69929],[1.63136,52.70157],[1.63194,52.70164],[1.63239,52.70213],[1.63402,52.70213],[1.63275,52.70282],[1.63322,52.70321],[1.63254,52.70369],[1.63392,52.70367],[1.63436,52.70434],[1.63522,52.7047],[1.63512,52.70527],[1.63446,52.705],[1.63409,52.70516],[1.63373,52.70605],[1.63448,52.70616],[1.6344,52.70689],[1.63386,52.70707],[1.63456,52.70752],[1.63562,52.70576],[1.63937,52.70631],[1.64485,52.70427],[1.64653,52.704],[1.64794,52.70339],[1.64918,52.70203],[1.65156,52.70193],[1.64883,52.69789],[1.65178,52.69112],[1.64167,52.69294],[1.63082,52.69431],[1.63084,52.6948],[1.62236,52.6938],[1.62125,52.69349],[1.62105,52.69305],[1.61796,52.69273],[1.61718,52.69297],[1.61438,52.69209],[1.61392,52.69366],[1.61159,52.69336],[1.61196,52.69228],[1.60979,52.69202],[1.60875,52.69419],[1.60756,52.69545],[1.60588,52.69633],[1.60613,52.69673],[1.59707,52.70226],[1.59311,52.70927],[1.59234,52.71038],[1.59093,52.71135],[1.59034,52.71248],[1.59339,52.71287],[1.60245,52.71502],[1.60573,52.71542],[1.60904,52.71542],[1.60946,52.71496],[1.60948,52.71539],[1.60988,52.71519],[1.61022,52.7154],[1.61264,52.71536],[1.61917,52.71749],[1.6232,52.71552],[1.62022,52.71707],[1.61982,52.71763],[1.62386,52.7201],[1.6288,52.72411],[1.63305,52.72583],[1.63291,52.72607],[1.6308,52.72528],[1.62771,52.72355],[1.62659,52.72438],[1.62665,52.72496],[1.63295,52.72709],[1.63421,52.72952]]]}},{"type":"Feature","properties":{"id":"E01026638","name":"E01026638","parent":"E07000145","type":"LSOA","pop":1695,"r":15,"ff":12,"ffd":708.0,"ffs":0.8,"g":0,"co":3,"mo":3,"sa":3,"ic":1},"geometry":{"type":"Polygon","coordinates":[[[1.64326,52.71956],[1.64386,52.71812],[1.6462,52.71834],[1.64683,52.71616],[1.64771,52.71628],[1.64853,52.71434],[1.6502,52.71493],[1.65568,52.70755],[1.65336,52.70694],[1.65432,52.70597],[1.65646,52.70669],[1.66005,52.70163],[1.66672,52.70219],[1.66693,52.70089],[1.66371,52.70118],[1.66464,52.69711],[1.65683,52.69632],[1.65452,52.69239],[1.65311,52.69089],[1.65178,52.69112],[1.64883,52.69789],[1.65156,52.70193],[1.64918,52.70203],[1.64794,52.70339],[1.64653,52.704],[1.64485,52.70427],[1.63937,52.70631],[1.63562,52.70576],[1.63456,52.70752],[1.63386,52.70707],[1.6344,52.70689],[1.63448,52.70616],[1.63373,52.70605],[1.63409,52.70516],[1.63446,52.705],[1.63512,52.70527],[1.63522,52.7047],[1.63436,52.70434],[1.63392,52.70367],[1.63254,52.70369],[1.63322,52.70321],[1.63275,52.70282],[1.63402,52.70213],[1.63239,52.70213],[1.63194,52.70164],[1.63136,52.70157],[1.62939,52.69929],[1.62864,52.69976],[1.62713,52.69968],[1.62772,52.70012],[1.62745,52.70078],[1.62707,52.70029],[1.626,52.70016],[1.62547,52.70117],[1.62652,52.70139],[1.62651,52.70182],[1.6271,52.70196],[1.62758,52.70168],[1.62847,52.70188],[1.6284,52.70211],[1.62591,52.70196],[1.62543,52.70274],[1.62277,52.70237],[1.62247,52.70389],[1.62435,52.70593],[1.62406,52.70643],[1.62266,52.70678],[1.62479,52.7073],[1.62622,52.70927],[1.62771,52.70902],[1.62871,52.70845],[1.63152,52.70886],[1.63241,52.70859],[1.63213,52.70898],[1.63353,52.70938],[1.63403,52.70848],[1.63442,52.70857],[1.63503,52.70954],[1.6361,52.70982],[1.63625,52.71023],[1.63811,52.71069],[1.63731,52.71129],[1.63791,52.71262],[1.63658,52.71327],[1.6368,52.71432],[1.63611,52.7143],[1.63421,52.72952],[1.63472,52.73108],[1.63715,52.73104],[1.63739,52.72836],[1.63702,52.72741],[1.63932,52.7273],[1.64385,52.72615],[1.64492,52.72504],[1.64756,52.72368],[1.64726,52.72271],[1.6426,52.72195],[1.64326,52.71956]]]}},{"type":"Feature","properties":{"id":"E01026639","name":"E01026639","parent":"E07000145","type":"LSOA","pop":1505,"r":130,"ff":44,"ffd":2923.6,"ffs":0.4632,"g":34,"co":2,"mo":0,"sa":0,"ic":0},"geometry":{"type":"Polygon","coordinates":[[[1.74523,52.62622],[1.74238,52.61992],[1.74211,52.61787],[1.7384,52.61811],[1.73801,52.61789],[1.73791,52.61656],[1.73681,52.61643],[1.73628,52.61812],[1.73381,52.61821],[1.73395,52.61982],[1.72958,52.61994],[1.72959,52.62028],[1.73002,52.62029],[1.73005,52.62124],[1.73047,52.62123],[1.73051,52.62186],[1.73094,52.62185],[1.73052,52.62301],[1.73129,52.62302],[1.73133,52.62331],[1.73219,52.62355],[1.73315,52.62292],[1.73398,52.62284],[1.7341,52.62352],[1.73636,52.62345],[1.73641,52.6237],[1.73781,52.62455],[1.73816,52.6244],[1.73867,52.62555],[1.73943,52.63098],[1.73862,52.63128],[1.73869,52.63262],[1.73726,52.63268],[1.73743,52.63398],[1.74168,52.63441],[1.74523,52.62622]]]}},{"type":"Feature","properties":{"id":"E01026640","name":"E01026640","parent":"E07000145","type":"LSOA","pop":1466,"r":130,"ff":45,"ffd":3069.6,"ffs":0.4737,"g":34,"co":2,"mo":0,"sa":0,"ic":0},"geometry":{"type":"Polygon","coordinates":[[[1.734,52.62719],[1.73367,52.62511],[1.73325,52.62507],[1.73327,52.62401],[1.73255,52.62405],[1.73262,52.62543],[1.73226,52.62545],[1.73063,52.62652],[1.73033,52.62716],[1.72965,52.62722],[1.73001,52.62654],[1.72941,52.62644],[1.72901,52.62721],[1.72849,52.62731],[1.72838,52.62593],[1.73022,52.6257],[1.72966,52.62421],[1.73135,52.62412],[1.73219,52.62355],[1.73133,52.62331],[1.73129,52.62302],[1.73052,52.62301],[1.73094,52.62185],[1.73051,52.62186],[1.73047,52.62123],[1.73005,52.62124],[1.73002,52.62029],[1.72959,52.62028],[1.72958,52.61994],[1.72801,52.61998],[1.72541,52.62101],[1.72624,52.62182],[1.72673,52.62316],[1.72654,52.62531],[1.72543,52.62722],[1.72138,52.63042],[1.72161,52.63062],[1.72151,52.63163],[1.72226,52.63192],[1.72116,52.63242],[1.7218,52.63325],[1.73743,52.63398],[1.73708,52.63135],[1.73616,52.63087],[1.73601,52.62984],[1.73527,52.62888],[1.73539,52.62768],[1.73325,52.62767],[1.73323,52.62727],[1.734,52.62719]]]}},{"type":"Feature","properties":{"id":"E01026641","name":"E01026641","parent":"E07000145","type":"LSOA","pop":1443,"r":129,"ff":45,"ffd":3118.5,"ffs":0.4787,"g":34,"co":2,"mo":0,"sa":0,"ic":0},"geometry":{"type":"Polygon","coordinates":[[[1.73867,52.62555],[1.73816,52.6244],[1.73781,52.62455],[1.73641,52.6237],[1.73636,52.62345],[1.7341,52.62352],[1.73398,52.62284],[1.73315,52.62292],[1.73135,52.62412],[1.72966,52.62421],[1.73022,52.6257],[1.72838,52.62593],[1.72849,52.62731],[1.72901,52.62721],[1.72941,52.62644],[1.73001,52.62654],[1.72965,52.62722],[1.73033,52.62716],[1.73063,52.62652],[1.73226,52.62545],[1.73262,52.62543],[1.73255,52.62405],[1.73327,52.62401],[1.73325,52.62507],[1.73367,52.62511],[1.734,52.62719],[1.73323,52.62727],[1.73325,52.62767],[1.73539,52.62768],[1.73527,52.62888],[1.73601,52.62984],[1.73616,52.63087],[1.73708,52.63135],[1.73726,52.63268],[1.73869,52.63262],[1.73862,52.63128],[1.73943,52.63098],[1.73867,52.62555]]]}},{"type":"Feature","properties":{"id":"E01034767","name":"E01034767","parent":"E07000145","type":"LSOA","pop":2145,"r":127,"ff":42,"ffd":1958.0,"ffs":0.4516,"g":33,"co":3,"mo":0,"sa":0,"ic":0},"geometry":{"type":"Polygon","coordinates":[[[1.70889,52.57658],[1.70868,52.57516],[1.70792,52.57517],[1.70774,52.57168],[1.70801,52.56914],[1.7072,52.5685],[1.70479,52.56825],[1.70409,52.56881],[1.7026,52.57105],[1.70205,52.57064],[1.70222,52.56999],[1.70135,52.5699],[1.70122,52.57057],[1.70061,52.57076],[1.7005,52.57115],[1.69931,52.5708],[1.69953,52.57145],[1.69904,52.57247],[1.70032,52.57244],[1.7005,52.57293],[1.70105,52.57295],[1.70061,52.57354],[1.69987,52.57351],[1.69977,52.57417],[1.69881,52.57419],[1.69786,52.57481],[1.69655,52.57477],[1.69641,52.57515],[1.69531,52.57503],[1.69403,52.57378],[1.6941,52.57221],[1.69376,52.57203],[1.6922,52.57293],[1.69186,52.57193],[1.69106,52.57195],[1.69208,52.57391],[1.69215,52.57462],[1.69165,52.57469],[1.69181,52.57527],[1.69284,52.57525],[1.69248,52.57577],[1.69288,52.57631],[1.69411,52.57597],[1.69417,52.57564],[1.6951,52.57538],[1.69529,52.57563],[1.69581,52.57669],[1.69508,52.57687],[1.69447,52.57657],[1.69411,52.57678],[1.69479,52.57739],[1.69652,52.57678],[1.6984,52.57659],[1.70158,52.57682],[1.70137,52.57812],[1.70505,52.57817],[1.71023,52.5816],[1.71036,52.57861],[1.7091,52.57857],[1.70889,52.57658]]]}}]}