{"type":"FeatureCollection","features":[{"type":"Feature","properties":{"id":"E01029475","name":"E01029475","parent":"E07000194","type":"LSOA","pop":2062,"r":226,"ff":67,"ffd":3249.3,"ffs":0.4351,"g":72,"co":0,"mo":0,"sa":2,"ic":0},"geometry":{"type":"Polygon","coordinates":[[[-1.91498,52.68266],[-1.91461,52.68264],[-1.91455,52.68295],[-1.91366,52.68288],[-1.9137,52.68254],[-1.91129,52.68229],[-1.91109,52.68268],[-1.90584,52.68228],[-1.90614,52.68276],[-1.90426,52.68277],[-1.90574,52.68206],[-1.9054,52.68099],[-1.90464,52.68108],[-1.90432,52.68032],[-1.90474,52.68031],[-1.90513,52.67981],[-1.90543,52.67874],[-1.90604,52.67815],[-1.90675,52.67829],[-1.90732,52.67793],[-1.90751,52.67756],[-1.90839,52.67762],[-1.90974,52.67599],[-1.91063,52.67641],[-1.91068,52.67678],[-1.9104,52.67719],[-1.90913,52.67727],[-1.90903,52.6775],[-1.91068,52.67805],[-1.91139,52.67808],[-1.91172,52.67721],[-1.91382,52.67698],[-1.91387,52.67654],[-1.91435,52.67646],[-1.91532,52.67911],[-1.91554,52.67914],[-1.91718,52.68312],[-1.91573,52.68304],[-1.91581,52.68272],[-1.91498,52.68266]]]}},{"type":"Feature","properties":{"id":"E01029476","name":"E01029476","parent":"E07000194","type":"LSOA","pop":1407,"r":233,"ff":70,"ffd":4975.1,"ffs":0.4516,"g":78,"co":0,"mo":0,"sa":2,"ic":0},"geometry":{"type":"Polygon","coordinates":[[[-1.91063,52.67641],[-1.90974,52.67599],[-1.90839,52.67762],[-1.90751,52.67756],[-1.90732,52.67793],[-1.90705,52.67799],[-1.90557,52.67766],[-1.89928,52.67543],[-1.90056,52.6754],[-1.90111,52.67509],[-1.90881,52.67404],[-1.91341,52.67412],[-1.91435,52.67646],[-1.91387,52.67654],[-1.91382,52.67698],[-1.91172,52.67721],[-1.91139,52.67808],[-1.91068,52.67805],[-1.90903,52.6775],[-1.90913,52.67727],[-1.9104,52.67719],[-1.91068,52.67678],[-1.91063,52.67641]]]}},{"type":"Feature","properties":{"id":"E01029477","name":"E01029477","parent":"E07000194","type":"LSOA","pop":1909,"r":65,"ff":19,"ffd":995.3,"ffs":0.3958,"g":15,"co":3,"mo":0,"sa":3,"ic":0},"geometry":{"type":"Polygon","coordinates":[[[-1.77272,52.74907],[-1.77199,52.74884],[-1.77024,52.74912],[-1.76909,52.74804],[-1.76874,52.74815],[-1.76961,52.74913],[-1.76905,52.74916],[-1.76896,52.74948],[-1.76984,52.74984],[-1.76978,52.75016],[-1.76773,52.75006],[-1.76771,52.75064],[-1.76721,52.75081],[-1.76381,52.74848],[-1.76017,52.74721],[-1.75922,52.74628],[-1.75762,52.74554],[-1.75809,52.74415],[-1.75695,52.74359],[-1.75613,52.74167],[-1.75334,52.7408],[-1.754,52.74035],[-1.7506,52.73915],[-1.74919,52.73974],[-1.74646,52.73926],[-1.74409,52.73937],[-1.74424,52.7384],[-1.74123,52.7383],[-1.74184,52.73407],[-1.74115,52.73393],[-1.74274,52.73368],[-1.74311,52.73305],[-1.74252,52.73262],[-1.74513,52.73274],[-1.74488,52.73187],[-1.74504,52.73137],[-1.74585,52.73133],[-1.74677,52.73155],[-1.74887,52.73079],[-1.74985,52.73105],[-1.75069,52.73082],[-1.75089,52.73057],[-1.75149,52.73066],[-1.75161,52.73031],[-1.75249,52.73083],[-1.75309,52.73059],[-1.75323,52.72987],[-1.75393,52.72992],[-1.75359,52.72919],[-1.75401,52.72885],[-1.75114,52.72776],[-1.7497,52.72843],[-1.74826,52.72814],[-1.74799,52.72767],[-1.74664,52.72735],[-1.74665,52.72653],[-1.74533,52.72629],[-1.74716,52.72408],[-1.74308,52.72397],[-1.74184,52.72441],[-1.73913,52.72305],[-1.73662,52.72247],[-1.73229,52.72401],[-1.73013,52.72565],[-1.72594,52.72337],[-1.72319,52.72261],[-1.72313,52.72202],[-1.72453,52.7207],[-1.7292,52.71937],[-1.73064,52.71795],[-1.73094,52.71676],[-1.73003,52.71502],[-1.72993,52.71007],[-1.73166,52.70804],[-1.73255,52.70612],[-1.73491,52.70513],[-1.74011,52.70479],[-1.74224,52.70341],[-1.74408,52.70067],[-1.74549,52.70047],[-1.74703,52.70068],[-1.74895,52.70162],[-1.75058,52.70194],[-1.75077,52.70236],[-1.75227,52.70253],[-1.75234,52.70289],[-1.75302,52.70309],[-1.75418,52.70316],[-1.75443,52.70281],[-1.7561,52.70284],[-1.75679,52.70256],[-1.7591,52.7026],[-1.76147,52.70211],[-1.76371,52.70096],[-1.76434,52.70105],[-1.76467,52.70048],[-1.76781,52.69983],[-1.76893,52.69918],[-1.76985,52.69917],[-1.77088,52.69857],[-1.77154,52.69756],[-1.77625,52.69548],[-1.77839,52.69581],[-1.78284,52.69741],[-1.77607,52.70301],[-1.77678,52.70354],[-1.7766,52.70424],[-1.78301,52.70566],[-1.77822,52.71101],[-1.77519,52.71003],[-1.7742,52.70863],[-1.77135,52.70834],[-1.76767,52.70707],[-1.76548,52.70776],[-1.76411,52.70621],[-1.7573,52.7063],[-1.75577,52.70402],[-1.75669,52.70788],[-1.7513,52.71222],[-1.75746,52.71282],[-1.76256,52.71373],[-1.76362,52.71319],[-1.76407,52.71469],[-1.76282,52.71541],[-1.76227,52.71629],[-1.7611,52.71678],[-1.76055,52.71664],[-1.75998,52.71706],[-1.75887,52.71697],[-1.75333,52.72105],[-1.75402,52.72256],[-1.75474,52.72236],[-1.7568,52.72249],[-1.75933,52.72163],[-1.75985,52.72198],[-1.76124,52.7221],[-1.76098,52.72285],[-1.76214,52.72318],[-1.76506,52.72501],[-1.77016,52.7258],[-1.77333,52.72197],[-1.7748,52.72107],[-1.77082,52.71888],[-1.76999,52.71828],[-1.77001,52.71783],[-1.77363,52.71796],[-1.78446,52.72206],[-1.79088,52.71606],[-1.7945,52.71749],[-1.79559,52.71881],[-1.79516,52.7192],[-1.79582,52.71958],[-1.79722,52.71938],[-1.80633,52.71603],[-1.80887,52.71642],[-1.8081,52.72449],[-1.80959,52.72453],[-1.80927,52.72631],[-1.81106,52.72633],[-1.80389,52.73613],[-1.79731,52.73629],[-1.79483,52.74146],[-1.7931,52.74281],[-1.7924,52.74291],[-1.79213,52.74357],[-1.79014,52.74312],[-1.79,52.74275],[-1.78951,52.7427],[-1.78944,52.74297],[-1.78748,52.74285],[-1.78554,52.74356],[-1.78523,52.74344],[-1.78446,52.74497],[-1.78456,52.74585],[-1.77984,52.74589],[-1.77848,52.74619],[-1.77728,52.74864],[-1.77762,52.74886],[-1.77843,52.7482],[-1.77852,52.749],[-1.77585,52.75077],[-1.77393,52.75099],[-1.77272,52.75072],[-1.7718,52.74976],[-1.77272,52.74907]]]}},{"type":"Feature","properties":{"id":"E01029478","name":"E01029478","parent":"E07000194","type":"LSOA","pop":1677,"r":61,"ff":16,"ffd":954.1,"ffs":0.3636,"g":15,"co":3,"mo":0,"sa":3,"ic":0},"geometry":{"type":"Polygon","coordinates":[[[-1.7331,52.73988],[-1.73399,52.73893],[-1.73181,52.73896],[-1.73125,52.73925],[-1.73087,52.73908],[-1.73108,52.73835],[-1.72886,52.73845],[-1.72798,52.73897],[-1.72725,52.7385],[-1.72723,52.73803],[-1.72623,52.7378],[-1.72555,52.73802],[-1.7259,52.73863],[-1.72559,52.73911],[-1.72365,52.73931],[-1.72314,52.73862],[-1.72467,52.73777],[-1.72435,52.73706],[-1.72304,52.73808],[-1.72193,52.73787],[-1.72137,52.73623],[-1.7223,52.73548],[-1.72151,52.73502],[-1.71982,52.73469],[-1.72058,52.73421],[-1.71997,52.73343],[-1.7174,52.7334],[-1.71794,52.7327],[-1.71718,52.73232],[-1.71693,52.73145],[-1.71861,52.73131],[-1.72003,52.73068],[-1.72207,52.73102],[-1.72272,52.73087],[-1.72602,52.72874],[-1.72424,52.72672],[-1.72319,52.72261],[-1.72594,52.72337],[-1.73013,52.72565],[-1.73229,52.72401],[-1.73662,52.72247],[-1.73913,52.72305],[-1.74184,52.72441],[-1.74308,52.72397],[-1.74716,52.72408],[-1.74533,52.72629],[-1.74665,52.72653],[-1.74664,52.72735],[-1.74799,52.72767],[-1.74826,52.72814],[-1.7497,52.72843],[-1.75114,52.72776],[-1.75401,52.72885],[-1.75359,52.72919],[-1.75393,52.72992],[-1.75323,52.72987],[-1.75309,52.73059],[-1.75249,52.73083],[-1.75161,52.73031],[-1.75149,52.73066],[-1.75089,52.73057],[-1.75069,52.73082],[-1.74985,52.73105],[-1.74887,52.73079],[-1.74677,52.73155],[-1.74585,52.73133],[-1.74504,52.73137],[-1.74488,52.73187],[-1.74513,52.73274],[-1.74252,52.73262],[-1.74311,52.73305],[-1.74274,52.73368],[-1.74115,52.73393],[-1.74184,52.73407],[-1.74123,52.7383],[-1.73709,52.73915],[-1.73482,52.73923],[-1.73383,52.73976],[-1.73429,52.74011],[-1.73394,52.74025],[-1.7331,52.73988]]]}},{"type":"Feature","properties":{"id":"E01029480","name":"E01029480","parent":"E07000194","type":"LSOA","pop":2053,"r":40,"ff":16,"ffd":779.3,"ffs":0.4706,"g":6,"co":2,"mo":0,"sa":3,"ic":1},"geometry":{"type":"Polygon","coordinates":[[[-1.85494,52.75502],[-1.85248,52.75454],[-1.85118,52.75464],[-1.84447,52.75423],[-1.84408,52.75341],[-1.84276,52.75332],[-1.84269,52.75265],[-1.8436,52.7527],[-1.84298,52.75039],[-1.84801,52.7491],[-1.85246,52.74689],[-1.85403,52.74664],[-1.85518,52.74551],[-1.85588,52.74546],[-1.85649,52.74322],[-1.85547,52.74059],[-1.85699,52.73926],[-1.85937,52.73986],[-1.85952,52.73939],[-1.86112,52.74008],[-1.86154,52.73996],[-1.85924,52.73727],[-1.86291,52.73797],[-1.86289,52.73914],[-1.86312,52.7401],[-1.86367,52.74018],[-1.86392,52.74074],[-1.86563,52.74111],[-1.86446,52.7422],[-1.86356,52.74246],[-1.86423,52.74265],[-1.86453,52.74247],[-1.86501,52.7429],[-1.86472,52.74353],[-1.86612,52.74381],[-1.86638,52.74306],[-1.86738,52.74351],[-1.86867,52.74338],[-1.87001,52.74376],[-1.86995,52.74318],[-1.87073,52.7424],[-1.86848,52.74206],[-1.8678,52.74219],[-1.86908,52.74156],[-1.86783,52.74128],[-1.86717,52.74026],[-1.8666,52.74024],[-1.86667,52.74003],[-1.86577,52.7399],[-1.86506,52.73942],[-1.86629,52.7391],[-1.86551,52.73862],[-1.86637,52.7382],[-1.86896,52.7379],[-1.869,52.73831],[-1.86989,52.73802],[-1.87097,52.73814],[-1.87143,52.73984],[-1.87271,52.74029],[-1.87403,52.74028],[-1.87414,52.73867],[-1.87477,52.73858],[-1.87588,52.7392],[-1.87697,52.7389],[-1.8774,52.7391],[-1.87609,52.74002],[-1.87732,52.74042],[-1.87776,52.74123],[-1.87692,52.74132],[-1.87649,52.74068],[-1.87601,52.7411],[-1.87693,52.74151],[-1.87692,52.74179],[-1.87565,52.74177],[-1.87596,52.74213],[-1.87639,52.74207],[-1.87618,52.7424],[-1.87703,52.74228],[-1.8774,52.74336],[-1.87651,52.74363],[-1.88082,52.74507],[-1.88041,52.74532],[-1.87684,52.746],[-1.87459,52.7469],[-1.87097,52.74706],[-1.86766,52.74751],[-1.86465,52.74847],[-1.86399,52.74939],[-1.86273,52.7501],[-1.86261,52.75101],[-1.85941,52.75229],[-1.85991,52.75331],[-1.85852,52.75488],[-1.85494,52.75502]]]}},{"type":"Feature","properties":{"id":"E01029482","name":"E01029482","parent":"E07000194","type":"LSOA","pop":1624,"r":39,"ff":16,"ffd":985.2,"ffs":0.4848,"g":6,"co":2,"mo":0,"sa":3,"ic":1},"geometry":{"type":"Polygon","coordinates":[[[-1.86482,52.74321],[-1.86501,52.7429],[-1.86453,52.74247],[-1.86423,52.74265],[-1.86356,52.74246],[-1.86446,52.7422],[-1.86563,52.74111],[-1.86392,52.74074],[-1.86367,52.74018],[-1.86312,52.7401],[-1.86289,52.73914],[-1.86291,52.73797],[-1.85924,52.73727],[-1.86154,52.73996],[-1.86112,52.74008],[-1.85952,52.73939],[-1.85937,52.73986],[-1.85699,52.73926],[-1.85763,52.73567],[-1.86303,52.73444],[-1.86224,52.73257],[-1.86097,52.73142],[-1.86019,52.72987],[-1.86306,52.7295],[-1.86598,52.73055],[-1.86842,52.73189],[-1.87036,52.73198],[-1.87321,52.73296],[-1.87315,52.73318],[-1.87843,52.73405],[-1.88128,52.73524],[-1.88028,52.73662],[-1.88044,52.7371],[-1.87974,52.73761],[-1.87843,52.73748],[-1.87681,52.73637],[-1.87357,52.73815],[-1.8716,52.73816],[-1.87168,52.73782],[-1.87087,52.73785],[-1.87084,52.7376],[-1.86637,52.7382],[-1.86551,52.73862],[-1.86629,52.7391],[-1.86506,52.73942],[-1.86577,52.7399],[-1.86667,52.74003],[-1.8666,52.74024],[-1.86717,52.74026],[-1.86783,52.74128],[-1.86908,52.74156],[-1.8678,52.74219],[-1.86848,52.74206],[-1.87073,52.7424],[-1.86995,52.74318],[-1.87001,52.74376],[-1.86867,52.74338],[-1.86738,52.74351],[-1.86638,52.74306],[-1.86612,52.74381],[-1.86472,52.74353],[-1.86482,52.74321]]]}},{"type":"Feature","properties":{"id":"E01029483","name":"E01029483","parent":"E07000194","type":"LSOA","pop":1447,"r":84,"ff":26,"ffd":1796.8,"ffs":0.3824,"g":14,"co":3,"mo":0,"sa":3,"ic":0},"geometry":{"type":"Polygon","coordinates":[[[-1.79886,52.68236],[-1.7946,52.68201],[-1.79597,52.68033],[-1.7989,52.67731],[-1.80438,52.67289],[-1.80601,52.67299],[-1.80676,52.6742],[-1.81005,52.67643],[-1.80725,52.67815],[-1.80294,52.68159],[-1.80254,52.6814],[-1.80214,52.6816],[-1.80077,52.68123],[-1.8001,52.6815],[-1.80059,52.68216],[-1.80114,52.68195],[-1.80209,52.68233],[-1.80036,52.68339],[-1.79886,52.68236]]]}},{"type":"Feature","properties":{"id":"E01029484","name":"E01029484","parent":"E07000194","type":"LSOA","pop":1681,"r":83,"ff":25,"ffd":1487.2,"ffs":0.3731,"g":14,"co":3,"mo":0,"sa":3,"ic":0},"geometry":{"type":"Polygon","coordinates":[[[-1.79271,52.6847],[-1.7946,52.68201],[-1.79886,52.68236],[-1.80036,52.68339],[-1.80209,52.68233],[-1.80114,52.68195],[-1.80059,52.68216],[-1.8001,52.6815],[-1.80077,52.68123],[-1.80214,52.6816],[-1.80254,52.6814],[-1.80294,52.68159],[-1.80562,52.67939],[-1.80694,52.67998],[-1.80774,52.67991],[-1.8076,52.6802],[-1.80638,52.68009],[-1.8055,52.68066],[-1.80731,52.68145],[-1.80687,52.68178],[-1.80707,52.68216],[-1.80661,52.68314],[-1.80592,52.68323],[-1.80624,52.68375],[-1.80558,52.68392],[-1.80575,52.6844],[-1.80735,52.68428],[-1.80917,52.6831],[-1.81004,52.68334],[-1.80994,52.68414],[-1.81468,52.68303],[-1.81376,52.68227],[-1.81361,52.68127],[-1.81331,52.68112],[-1.81234,52.68142],[-1.81331,52.68066],[-1.81424,52.68051],[-1.81702,52.68179],[-1.81923,52.68225],[-1.82237,52.68356],[-1.81537,52.68492],[-1.80135,52.68821],[-1.80078,52.68779],[-1.80094,52.68748],[-1.79782,52.68604],[-1.79271,52.6847]]]}},{"type":"Feature","properties":{"id":"E01029485","name":"E01029485","parent":"E07000194","type":"LSOA","pop":1440,"r":83,"ff":25,"ffd":1736.1,"ffs":0.3731,"g":14,"co":3,"mo":0,"sa":3,"ic":0},"geometry":{"type":"Polygon","coordinates":[[[-1.80661,52.68314],[-1.80707,52.68216],[-1.80687,52.68178],[-1.80731,52.68145],[-1.8055,52.68066],[-1.80638,52.68009],[-1.8076,52.6802],[-1.80774,52.67991],[-1.80694,52.67998],[-1.80562,52.67939],[-1.80725,52.67815],[-1.81005,52.67643],[-1.81427,52.68024],[-1.81424,52.68051],[-1.81331,52.68066],[-1.81234,52.68142],[-1.81331,52.68112],[-1.81361,52.68127],[-1.81376,52.68227],[-1.81468,52.68303],[-1.80994,52.68414],[-1.81004,52.68334],[-1.80917,52.6831],[-1.80735,52.68428],[-1.80575,52.6844],[-1.80558,52.68392],[-1.80624,52.68375],[-1.80592,52.68323],[-1.80661,52.68314]]]}},{"type":"Feature","properties":{"id":"E01029486","name":"E01029486","parent":"E07000194","type":"LSOA","pop":1430,"r":217,"ff":65,"ffd":4545.5,"ffs":0.4276,"g":65,"co":0,"mo":0,"sa":2,"ic":0},"geometry":{"type":"Polygon","coordinates":[[[-1.92354,52.69332],[-1.92213,52.69034],[-1.92132,52.69042],[-1.9205,52.689],[-1.91965,52.68848],[-1.91913,52.6871],[-1.92025,52.68716],[-1.91963,52.68609],[-1.92534,52.68536],[-1.92631,52.68555],[-1.92676,52.68851],[-1.92786,52.68841],[-1.92765,52.68887],[-1.92707,52.68882],[-1.92709,52.68922],[-1.92521,52.6895],[-1.92503,52.68992],[-1.92265,52.69028],[-1.92277,52.69055],[-1.92435,52.691],[-1.92448,52.69065],[-1.92528,52.6905],[-1.92585,52.69143],[-1.92931,52.69162],[-1.92674,52.6928],[-1.92354,52.69332]]]}},{"type":"Feature","properties":{"id":"E01029487","name":"E01029487","parent":"E07000194","type":"LSOA","pop":1627,"r":232,"ff":69,"ffd":4240.9,"ffs":0.4313,"g":72,"co":0,"mo":0,"sa":2,"ic":0},"geometry":{"type":"Polygon","coordinates":[[[-1.92739,52.69393],[-1.9252,52.69324],[-1.92354,52.69332],[-1.92674,52.6928],[-1.92931,52.69162],[-1.92585,52.69143],[-1.92528,52.6905],[-1.92448,52.69065],[-1.92435,52.691],[-1.92277,52.69055],[-1.92265,52.69028],[-1.92503,52.68992],[-1.92521,52.6895],[-1.92709,52.68922],[-1.92707,52.68882],[-1.92765,52.68887],[-1.92786,52.68841],[-1.92676,52.68851],[-1.92663,52.68721],[-1.92935,52.6871],[-1.92936,52.68648],[-1.93114,52.68656],[-1.93112,52.68706],[-1.93288,52.68697],[-1.93283,52.68819],[-1.93403,52.68819],[-1.93427,52.68882],[-1.93369,52.68896],[-1.93481,52.68944],[-1.93491,52.69016],[-1.93454,52.6903],[-1.93448,52.69199],[-1.93364,52.69198],[-1.93355,52.69596],[-1.93262,52.69631],[-1.93105,52.69546],[-1.93062,52.69455],[-1.92951,52.69415],[-1.92739,52.69393]]]}},{"type":"Feature","properties":{"id":"E01029488","name":"E01029488","parent":"E07000194","type":"LSOA","pop":2441,"r":123,"ff":45,"ffd":1843.5,"ffs":0.4891,"g":30,"co":3,"mo":0,"sa":0,"ic":0},"geometry":{"type":"Polygon","coordinates":[[[-1.80502,52.67248],[-1.80349,52.67177],[-1.80114,52.67192],[-1.79445,52.66977],[-1.79268,52.66859],[-1.78741,52.66383],[-1.78398,52.66249],[-1.78125,52.66082],[-1.77371,52.65558],[-1.76893,52.65616],[-1.7668,52.65677],[-1.76655,52.65726],[-1.76569,52.65738],[-1.76422,52.65824],[-1.76378,52.65806],[-1.76343,52.65859],[-1.76393,52.65918],[-1.76173,52.66049],[-1.76076,52.66153],[-1.75725,52.66004],[-1.75328,52.65667],[-1.75194,52.65632],[-1.75215,52.65307],[-1.75299,52.65199],[-1.75429,52.65124],[-1.75737,52.65026],[-1.75851,52.64816],[-1.76131,52.64704],[-1.75002,52.64249],[-1.75015,52.63972],[-1.75381,52.63592],[-1.75353,52.63299],[-1.75525,52.6312],[-1.7515,52.63011],[-1.75181,52.62801],[-1.75113,52.62801],[-1.75048,52.62637],[-1.75086,52.62456],[-1.75196,52.62269],[-1.7526,52.62246],[-1.75298,52.62111],[-1.75363,52.62066],[-1.75363,52.62017],[-1.75226,52.6197],[-1.75178,52.61895],[-1.75082,52.61832],[-1.75057,52.61744],[-1.74909,52.6173],[-1.74695,52.61777],[-1.74625,52.61744],[-1.74667,52.61651],[-1.74631,52.61616],[-1.7428,52.61551],[-1.7422,52.61412],[-1.74229,52.61303],[-1.73733,52.61023],[-1.73479,52.61031],[-1.73383,52.61072],[-1.73234,52.61045],[-1.73143,52.60976],[-1.72892,52.60991],[-1.72714,52.60952],[-1.7247,52.61019],[-1.71978,52.61094],[-1.71898,52.61075],[-1.71742,52.61096],[-1.71769,52.60854],[-1.71703,52.60801],[-1.71486,52.60778],[-1.71226,52.60817],[-1.71167,52.60856],[-1.70711,52.60629],[-1.70652,52.60618],[-1.70618,52.60673],[-1.70049,52.60582],[-1.69955,52.60684],[-1.69526,52.60762],[-1.69454,52.60871],[-1.69398,52.60864],[-1.69356,52.61008],[-1.69207,52.61203],[-1.69033,52.61067],[-1.6909,52.6095],[-1.69098,52.60748],[-1.69066,52.6068],[-1.68891,52.60627],[-1.68875,52.60559],[-1.69029,52.60522],[-1.69129,52.60392],[-1.69264,52.60341],[-1.69325,52.60152],[-1.69431,52.60028],[-1.69391,52.59983],[-1.6953,52.5987],[-1.69624,52.59886],[-1.6986,52.59706],[-1.69945,52.59702],[-1.6992,52.59743],[-1.70043,52.59739],[-1.70364,52.59615],[-1.7037,52.5953],[-1.70434,52.59529],[-1.70434,52.59504],[-1.70315,52.59481],[-1.7023,52.59491],[-1.7019,52.59408],[-1.7004,52.59341],[-1.70047,52.59179],[-1.701,52.59166],[-1.70039,52.59091],[-1.7041,52.59065],[-1.70425,52.59011],[-1.70311,52.59026],[-1.70426,52.58923],[-1.7033,52.58863],[-1.70417,52.58852],[-1.70394,52.58763],[-1.70462,52.58752],[-1.70544,52.58769],[-1.70766,52.58745],[-1.71388,52.58882],[-1.71567,52.58893],[-1.71755,52.58867],[-1.71758,52.58912],[-1.72341,52.58785],[-1.72441,52.58844],[-1.72751,52.58833],[-1.72931,52.58793],[-1.73005,52.58831],[-1.73317,52.58857],[-1.73355,52.58908],[-1.73754,52.589],[-1.73925,52.58943],[-1.74036,52.59023],[-1.73918,52.59354],[-1.74128,52.59432],[-1.74505,52.59373],[-1.75105,52.59341],[-1.75575,52.59166],[-1.76265,52.59054],[-1.76847,52.58912],[-1.7707,52.58939],[-1.77308,52.59104],[-1.77386,52.59204],[-1.77462,52.5923],[-1.77725,52.59207],[-1.78102,52.59126],[-1.78392,52.58911],[-1.78808,52.58786],[-1.78972,52.59154],[-1.79276,52.59378],[-1.79531,52.5951],[-1.79427,52.5961],[-1.79653,52.59912],[-1.79744,52.59931],[-1.80168,52.60107],[-1.80394,52.60135],[-1.81182,52.60441],[-1.81906,52.60616],[-1.81874,52.60819],[-1.81912,52.60991],[-1.81788,52.61259],[-1.81774,52.61392],[-1.81841,52.61616],[-1.81951,52.61789],[-1.81955,52.61935],[-1.8182,52.62238],[-1.81872,52.6235],[-1.81888,52.62613],[-1.81843,52.62628],[-1.81833,52.62733],[-1.81706,52.62844],[-1.81728,52.62895],[-1.81667,52.63052],[-1.81948,52.63361],[-1.82299,52.63615],[-1.81829,52.63781],[-1.81772,52.63816],[-1.81789,52.63851],[-1.81641,52.63947],[-1.81194,52.64037],[-1.81205,52.64208],[-1.81267,52.64261],[-1.81216,52.64388],[-1.81081,52.64571],[-1.80936,52.64654],[-1.81911,52.64944],[-1.8253,52.65229],[-1.82403,52.65458],[-1.82922,52.65518],[-1.83073,52.65765],[-1.83347,52.65942],[-1.82766,52.66249],[-1.82627,52.66236],[-1.82427,52.66165],[-1.82205,52.66201],[-1.82229,52.66222],[-1.8205,52.66318],[-1.82027,52.66298],[-1.81961,52.66316],[-1.8179,52.66487],[-1.81679,52.66407],[-1.81599,52.66203],[-1.81357,52.66576],[-1.81133,52.66809],[-1.80502,52.67248]]]}},{"type":"Feature","properties":{"id":"E01029489","name":"E01029489","parent":"E07000194","type":"LSOA","pop":1535,"r":226,"ff":68,"ffd":4430.0,"ffs":0.4331,"g":69,"co":0,"mo":0,"sa":2,"ic":0},"geometry":{"type":"Polygon","coordinates":[[[-1.91843,52.6843],[-1.91756,52.68356],[-1.91696,52.68275],[-1.91554,52.67914],[-1.9257,52.68055],[-1.92548,52.68106],[-1.92318,52.682],[-1.92381,52.6821],[-1.92293,52.68404],[-1.92451,52.68385],[-1.9247,52.68343],[-1.92517,52.68351],[-1.92511,52.68421],[-1.9246,52.68425],[-1.92403,52.68498],[-1.92556,52.68505],[-1.92534,52.68536],[-1.91963,52.68609],[-1.91843,52.6843]]]}},{"type":"Feature","properties":{"id":"E01029490","name":"E01029490","parent":"E07000194","type":"LSOA","pop":1411,"r":232,"ff":69,"ffd":4890.1,"ffs":0.4313,"g":72,"co":0,"mo":0,"sa":2,"ic":0},"geometry":{"type":"Polygon","coordinates":[[[-1.93286,52.68792],[-1.93288,52.68697],[-1.93112,52.68706],[-1.93114,52.68656],[-1.92936,52.68648],[-1.92935,52.6871],[-1.92663,52.68721],[-1.92631,52.68555],[-1.92534,52.68536],[-1.92556,52.68505],[-1.92403,52.68498],[-1.9246,52.68425],[-1.92511,52.68421],[-1.92517,52.68351],[-1.9247,52.68343],[-1.92451,52.68385],[-1.92293,52.68404],[-1.92381,52.6821],[-1.92318,52.682],[-1.92548,52.68106],[-1.9257,52.68055],[-1.93387,52.68169],[-1.9337,52.68815],[-1.93283,52.68819],[-1.93286,52.68792]]]}},{"type":"Feature","properties":{"id":"E01029491","name":"E01029491","parent":"E07000194","type":"LSOA","pop":1725,"r":86,"ff":28,"ffd":1623.2,"ffs":0.4,"g":14,"co":3,"mo":0,"sa":3,"ic":0},"geometry":{"type":"Polygon","coordinates":[[[-1.83911,52.6935],[-1.83857,52.69295],[-1.83793,52.69287],[-1.83725,52.69348],[-1.83776,52.69389],[-1.8366,52.69426],[-1.83608,52.69408],[-1.83626,52.69372],[-1.83565,52.69357],[-1.83538,52.69319],[-1.83725,52.69257],[-1.83689,52.69225],[-1.83639,52.69243],[-1.83533,52.6922],[-1.83572,52.69171],[-1.83699,52.69171],[-1.83785,52.69065],[-1.83754,52.69025],[-1.83674,52.69038],[-1.8365,52.6911],[-1.83601,52.69118],[-1.83514,52.69053],[-1.83363,52.69129],[-1.83351,52.69049],[-1.832,52.69013],[-1.83144,52.68963],[-1.83192,52.68881],[-1.83078,52.68801],[-1.83439,52.68644],[-1.83669,52.68771],[-1.84016,52.68884],[-1.83907,52.69116],[-1.83976,52.69162],[-1.84029,52.69128],[-1.84075,52.69179],[-1.84032,52.69199],[-1.8407,52.69232],[-1.84118,52.69212],[-1.8417,52.69261],[-1.84169,52.69333],[-1.84225,52.69324],[-1.84333,52.69436],[-1.84263,52.69446],[-1.84281,52.69471],[-1.83986,52.69578],[-1.83856,52.69453],[-1.83911,52.6935]]]}},{"type":"Feature","properties":{"id":"E01029492","name":"E01029492","parent":"E07000194","type":"LSOA","pop":2028,"r":86,"ff":27,"ffd":1331.4,"ffs":0.3857,"g":14,"co":3,"mo":0,"sa":3,"ic":0},"geometry":{"type":"Polygon","coordinates":[[[-1.83483,52.69796],[-1.83408,52.6972],[-1.83209,52.69412],[-1.83024,52.69193],[-1.83144,52.68963],[-1.832,52.69013],[-1.83351,52.69049],[-1.83363,52.69129],[-1.83514,52.69053],[-1.83601,52.69118],[-1.8365,52.6911],[-1.83674,52.69038],[-1.83754,52.69025],[-1.83785,52.69065],[-1.83699,52.69171],[-1.83572,52.69171],[-1.83533,52.6922],[-1.83639,52.69243],[-1.83689,52.69225],[-1.83725,52.69257],[-1.83538,52.69319],[-1.83565,52.69357],[-1.83626,52.69372],[-1.83608,52.69408],[-1.8366,52.69426],[-1.83776,52.69389],[-1.83725,52.69348],[-1.83793,52.69287],[-1.83857,52.69295],[-1.83911,52.6935],[-1.83856,52.69453],[-1.83986,52.69578],[-1.84885,52.69254],[-1.85381,52.69732],[-1.85381,52.69862],[-1.85144,52.70019],[-1.84941,52.70067],[-1.84833,52.69881],[-1.84647,52.69723],[-1.84396,52.69809],[-1.84206,52.69928],[-1.84056,52.69961],[-1.83605,52.70189],[-1.83483,52.69796]]]}},{"type":"Feature","properties":{"id":"E01029493","name":"E01029493","parent":"E07000194","type":"LSOA","pop":1928,"r":232,"ff":69,"ffd":3578.8,"ffs":0.4313,"g":72,"co":0,"mo":0,"sa":2,"ic":0},"geometry":{"type":"Polygon","coordinates":[[[-1.94524,52.69022],[-1.94459,52.68918],[-1.94346,52.68953],[-1.94231,52.68851],[-1.94318,52.68824],[-1.9429,52.68774],[-1.94122,52.6873],[-1.9418,52.68632],[-1.94169,52.68527],[-1.94261,52.68482],[-1.94208,52.68436],[-1.94247,52.6836],[-1.94131,52.68323],[-1.94055,52.68256],[-1.94674,52.68081],[-1.94725,52.68172],[-1.94822,52.68162],[-1.95026,52.68331],[-1.95005,52.6839],[-1.95459,52.68453],[-1.95366,52.68665],[-1.95084,52.68793],[-1.94934,52.68913],[-1.94797,52.68809],[-1.94676,52.68882],[-1.94524,52.69022]]]}},{"type":"Feature","properties":{"id":"E01029494","name":"E01029494","parent":"E07000194","type":"LSOA","pop":1643,"r":232,"ff":69,"ffd":4199.6,"ffs":0.4313,"g":72,"co":0,"mo":0,"sa":2,"ic":0},"geometry":{"type":"Polygon","coordinates":[[[-1.93704,52.68722],[-1.93511,52.68688],[-1.93373,52.68725],[-1.93444,52.68774],[-1.93403,52.68819],[-1.9337,52.68815],[-1.93387,52.68169],[-1.94055,52.68256],[-1.94131,52.68323],[-1.94247,52.6836],[-1.94208,52.68436],[-1.94261,52.68482],[-1.94169,52.68527],[-1.9418,52.68632],[-1.94122,52.6873],[-1.94065,52.68776],[-1.93857,52.68825],[-1.9363,52.68813],[-1.93704,52.68722]]]}},{"type":"Feature","properties":{"id":"E01029495","name":"E01029495","parent":"E07000194","type":"LSOA","pop":1574,"r":225,"ff":66,"ffd":4193.1,"ffs":0.4286,"g":71,"co":0,"mo":0,"sa":2,"ic":0},"geometry":{"type":"Polygon","coordinates":[[[-1.93857,52.69601],[-1.93648,52.69558],[-1.93355,52.69596],[-1.93364,52.69198],[-1.93448,52.69199],[-1.93454,52.6903],[-1.93491,52.69016],[-1.93481,52.68944],[-1.93369,52.68896],[-1.93427,52.68882],[-1.93403,52.68819],[-1.93444,52.68774],[-1.93373,52.68725],[-1.93511,52.68688],[-1.93704,52.68722],[-1.9363,52.68813],[-1.93857,52.68825],[-1.94065,52.68776],[-1.94104,52.68734],[-1.942,52.68744],[-1.9429,52.68774],[-1.94318,52.68824],[-1.94231,52.68851],[-1.94346,52.68953],[-1.94459,52.68918],[-1.94524,52.69022],[-1.94676,52.68882],[-1.94797,52.68809],[-1.94934,52.68913],[-1.94816,52.69083],[-1.9475,52.69364],[-1.94963,52.69567],[-1.94663,52.69568],[-1.94275,52.69691],[-1.94132,52.69685],[-1.93857,52.69601]]]}},{"type":"Feature","properties":{"id":"E01029496","name":"E01029496","parent":"E07000194","type":"LSOA","pop":1942,"r":230,"ff":69,"ffd":3553.0,"ffs":0.4367,"g":72,"co":0,"mo":0,"sa":2,"ic":0},"geometry":{"type":"Polygon","coordinates":[[[-1.92646,52.67931],[-1.92717,52.67803],[-1.92647,52.67775],[-1.92712,52.67499],[-1.92563,52.67456],[-1.92681,52.67382],[-1.92914,52.67338],[-1.92957,52.6731],[-1.9293,52.67294],[-1.93,52.67291],[-1.93035,52.67252],[-1.92981,52.6724],[-1.93325,52.67073],[-1.9338,52.67132],[-1.93311,52.67198],[-1.93329,52.67235],[-1.93411,52.67236],[-1.93478,52.67273],[-1.93476,52.67366],[-1.9375,52.67352],[-1.93838,52.67466],[-1.93713,52.67465],[-1.93713,52.67532],[-1.9352,52.67529],[-1.9351,52.67716],[-1.93458,52.67743],[-1.93398,52.67744],[-1.93396,52.67625],[-1.93287,52.67598],[-1.93174,52.6765],[-1.93147,52.67744],[-1.92974,52.67775],[-1.92925,52.67844],[-1.92812,52.67843],[-1.92881,52.67872],[-1.92876,52.67907],[-1.92994,52.67929],[-1.92999,52.67991],[-1.92646,52.67931]]]}},{"type":"Feature","properties":{"id":"E01029498","name":"E01029498","parent":"E07000194","type":"LSOA","pop":1991,"r":20,"ff":10,"ffd":502.3,"ffs":0.5,"g":0,"co":3,"mo":1,"sa":3,"ic":1},"geometry":{"type":"Polygon","coordinates":[[[-1.93584,52.80655],[-1.93621,52.80534],[-1.93331,52.806],[-1.93303,52.80519],[-1.93078,52.80557],[-1.93065,52.8049],[-1.93128,52.80465],[-1.9312,52.80435],[-1.93049,52.80443],[-1.93054,52.80395],[-1.92886,52.80371],[-1.92896,52.80319],[-1.92703,52.80265],[-1.92607,52.80191],[-1.92291,52.8016],[-1.91855,52.80007],[-1.91786,52.80045],[-1.9162,52.79936],[-1.91534,52.79916],[-1.91284,52.80013],[-1.90926,52.79915],[-1.90766,52.79809],[-1.90463,52.79783],[-1.90282,52.79674],[-1.90194,52.79532],[-1.89767,52.79562],[-1.89528,52.79657],[-1.8928,52.79809],[-1.89206,52.79941],[-1.89056,52.80021],[-1.88988,52.80037],[-1.88773,52.79908],[-1.88729,52.7992],[-1.88673,52.79879],[-1.88613,52.79862],[-1.88571,52.79884],[-1.8847,52.79847],[-1.88422,52.79718],[-1.88357,52.79689],[-1.88338,52.79707],[-1.88221,52.79628],[-1.8782,52.79619],[-1.87659,52.79566],[-1.8764,52.79523],[-1.87578,52.79505],[-1.87541,52.79517],[-1.87363,52.79467],[-1.8726,52.79412],[-1.87238,52.7932],[-1.87171,52.79319],[-1.87047,52.792],[-1.86911,52.79201],[-1.86832,52.79153],[-1.86713,52.79154],[-1.86658,52.79077],[-1.86488,52.79038],[-1.8646,52.78988],[-1.86371,52.78994],[-1.86361,52.78953],[-1.86269,52.78938],[-1.8618,52.78818],[-1.86243,52.78703],[-1.86175,52.78684],[-1.86139,52.7862],[-1.86083,52.78625],[-1.86099,52.78585],[-1.86048,52.78604],[-1.86058,52.78538],[-1.86006,52.7853],[-1.86027,52.78492],[-1.85979,52.78453],[-1.85808,52.78436],[-1.8577,52.78405],[-1.85762,52.7838],[-1.85826,52.78377],[-1.85836,52.78309],[-1.85683,52.78269],[-1.85806,52.78093],[-1.8615,52.78071],[-1.86339,52.78006],[-1.86664,52.77966],[-1.86727,52.77945],[-1.86734,52.77882],[-1.86547,52.77539],[-1.86408,52.77434],[-1.8614,52.77356],[-1.86193,52.77265],[-1.86012,52.77107],[-1.85834,52.77011],[-1.85408,52.76584],[-1.85421,52.76417],[-1.85406,52.76393],[-1.85358,52.76402],[-1.85176,52.75943],[-1.85118,52.75464],[-1.85248,52.75454],[-1.85494,52.75502],[-1.85852,52.75488],[-1.85991,52.75331],[-1.85941,52.75229],[-1.86261,52.75101],[-1.86273,52.7501],[-1.86399,52.74939],[-1.86465,52.74847],[-1.86766,52.74751],[-1.87097,52.74706],[-1.87459,52.7469],[-1.87684,52.746],[-1.88041,52.74532],[-1.88131,52.74575],[-1.88127,52.74604],[-1.8863,52.74671],[-1.88668,52.74825],[-1.88786,52.74902],[-1.89388,52.75079],[-1.89589,52.75165],[-1.89847,52.75208],[-1.89965,52.75414],[-1.90648,52.75637],[-1.90936,52.75843],[-1.91075,52.75861],[-1.91245,52.75971],[-1.923,52.76249],[-1.92548,52.76376],[-1.92725,52.76496],[-1.92864,52.76616],[-1.92881,52.76718],[-1.92971,52.76807],[-1.93041,52.76812],[-1.93163,52.7676],[-1.9325,52.76781],[-1.93705,52.77121],[-1.93949,52.77212],[-1.94281,52.77305],[-1.94394,52.77376],[-1.94573,52.77643],[-1.94772,52.77831],[-1.95206,52.78016],[-1.9513,52.78015],[-1.94838,52.78372],[-1.94711,52.78597],[-1.9464,52.78592],[-1.94528,52.78935],[-1.9492,52.7894],[-1.94928,52.79003],[-1.95069,52.78978],[-1.95137,52.79178],[-1.94804,52.79342],[-1.95176,52.79595],[-1.95605,52.79791],[-1.95813,52.79849],[-1.95263,52.80064],[-1.95305,52.80149],[-1.95242,52.80178],[-1.9527,52.80199],[-1.95117,52.80392],[-1.95133,52.80743],[-1.94991,52.80743],[-1.94911,52.80779],[-1.94178,52.8074],[-1.93859,52.80675],[-1.93584,52.80655]]]}},{"type":"Feature","properties":{"id":"E01029499","name":"E01029499","parent":"E07000194","type":"LSOA","pop":1588,"r":85,"ff":26,"ffd":1637.3,"ffs":0.3768,"g":14,"co":3,"mo":0,"sa":3,"ic":0},"geometry":{"type":"Polygon","coordinates":[[[-1.82284,52.69813],[-1.82021,52.69634],[-1.82048,52.69611],[-1.82043,52.69554],[-1.8195,52.69521],[-1.81936,52.69479],[-1.82338,52.69573],[-1.82422,52.69536],[-1.82355,52.69498],[-1.82383,52.69446],[-1.82415,52.6946],[-1.82485,52.69425],[-1.82465,52.69367],[-1.82609,52.69356],[-1.82715,52.69454],[-1.8302,52.69322],[-1.82995,52.6929],[-1.82904,52.6928],[-1.8292,52.69228],[-1.8298,52.69191],[-1.83024,52.69193],[-1.83209,52.69412],[-1.83396,52.69703],[-1.83351,52.69711],[-1.8333,52.69681],[-1.83076,52.69728],[-1.82994,52.69605],[-1.82921,52.69623],[-1.82857,52.69556],[-1.82714,52.69572],[-1.82706,52.69613],[-1.82428,52.69619],[-1.82376,52.69679],[-1.82509,52.69762],[-1.82527,52.69817],[-1.82459,52.69806],[-1.82372,52.69869],[-1.82284,52.69813]]]}},{"type":"Feature","properties":{"id":"E01029500","name":"E01029500","parent":"E07000194","type":"LSOA","pop":1591,"r":85,"ff":26,"ffd":1634.2,"ffs":0.3768,"g":14,"co":3,"mo":0,"sa":3,"ic":0},"geometry":{"type":"Polygon","coordinates":[[[-1.82301,52.7007],[-1.82075,52.69982],[-1.81974,52.69878],[-1.81813,52.69522],[-1.81936,52.69479],[-1.8195,52.69521],[-1.82043,52.69554],[-1.82048,52.69611],[-1.82021,52.69634],[-1.82372,52.69869],[-1.82459,52.69806],[-1.82527,52.69817],[-1.82509,52.69762],[-1.82376,52.69679],[-1.82428,52.69619],[-1.82706,52.69613],[-1.82714,52.69572],[-1.82857,52.69556],[-1.82921,52.69623],[-1.82994,52.69605],[-1.83076,52.69728],[-1.8333,52.69681],[-1.83351,52.69711],[-1.83396,52.69703],[-1.83483,52.69796],[-1.83605,52.70189],[-1.83509,52.70206],[-1.83224,52.70084],[-1.82985,52.70036],[-1.82377,52.70146],[-1.82206,52.70247],[-1.82301,52.7007]]]}},{"type":"Feature","properties":{"id":"E01029501","name":"E01029501","parent":"E07000194","type":"LSOA","pop":1630,"r":85,"ff":26,"ffd":1595.1,"ffs":0.3768,"g":14,"co":3,"mo":0,"sa":3,"ic":0},"geometry":{"type":"Polygon","coordinates":[[[-1.81927,52.69476],[-1.82004,52.69356],[-1.82076,52.6942],[-1.82298,52.69293],[-1.82304,52.69154],[-1.82258,52.69043],[-1.82078,52.68912],[-1.82318,52.68911],[-1.82706,52.68662],[-1.82825,52.68559],[-1.83078,52.68801],[-1.83192,52.68881],[-1.83024,52.69193],[-1.8298,52.69191],[-1.8292,52.69228],[-1.82904,52.6928],[-1.82995,52.6929],[-1.8302,52.69322],[-1.82715,52.69454],[-1.82609,52.69356],[-1.82465,52.69367],[-1.82485,52.69425],[-1.82415,52.6946],[-1.82383,52.69446],[-1.82355,52.69498],[-1.82422,52.69536],[-1.82338,52.69573],[-1.81927,52.69476]]]}},{"type":"Feature","properties":{"id":"E01029502","name":"E01029502","parent":"E07000194","type":"LSOA","pop":1669,"r":129,"ff":46,"ffd":2756.1,"ffs":0.4742,"g":31,"co":3,"mo":2,"sa":0,"ic":0},"geometry":{"type":"Polygon","coordinates":[[[-1.72989,52.62043],[-1.72359,52.61927],[-1.72379,52.61886],[-1.72303,52.61852],[-1.72317,52.61796],[-1.72271,52.61791],[-1.72233,52.61846],[-1.71911,52.61785],[-1.7196,52.61734],[-1.72085,52.61677],[-1.72179,52.61716],[-1.72246,52.61678],[-1.72204,52.61627],[-1.72548,52.61637],[-1.72544,52.61664],[-1.72749,52.61656],[-1.72599,52.61223],[-1.72072,52.61327],[-1.71978,52.61094],[-1.7247,52.61019],[-1.72714,52.60952],[-1.72892,52.60991],[-1.73143,52.60976],[-1.73234,52.61045],[-1.73383,52.61072],[-1.73479,52.61031],[-1.73733,52.61023],[-1.74229,52.61303],[-1.7386,52.61566],[-1.7342,52.6177],[-1.73072,52.61998],[-1.73314,52.61972],[-1.73245,52.62089],[-1.73797,52.62201],[-1.73973,52.62273],[-1.73142,52.62228],[-1.7293,52.62139],[-1.72896,52.62082],[-1.72989,52.62043]]]}},{"type":"Feature","properties":{"id":"E01029503","name":"E01029503","parent":"E07000194","type":"LSOA","pop":1616,"r":123,"ff":45,"ffd":2784.7,"ffs":0.4891,"g":30,"co":3,"mo":0,"sa":0,"ic":0},"geometry":{"type":"Polygon","coordinates":[[[-1.73123,52.63273],[-1.73028,52.63243],[-1.72739,52.63248],[-1.72612,52.63216],[-1.72108,52.62861],[-1.71225,52.62568],[-1.7108,52.6241],[-1.70953,52.62133],[-1.70695,52.61877],[-1.70754,52.61782],[-1.70742,52.61629],[-1.70818,52.61601],[-1.71081,52.61638],[-1.71091,52.61593],[-1.71032,52.61591],[-1.71038,52.6156],[-1.70864,52.61544],[-1.7081,52.61495],[-1.71026,52.61479],[-1.71041,52.61439],[-1.71255,52.6142],[-1.71344,52.61358],[-1.71047,52.6127],[-1.70892,52.61285],[-1.71207,52.61181],[-1.71978,52.61094],[-1.72072,52.61327],[-1.72599,52.61223],[-1.72749,52.61656],[-1.72544,52.61664],[-1.72548,52.61637],[-1.72204,52.61627],[-1.72246,52.61678],[-1.72179,52.61716],[-1.72085,52.61677],[-1.7196,52.61734],[-1.71911,52.61785],[-1.72233,52.61846],[-1.72271,52.61791],[-1.72317,52.61796],[-1.72303,52.61852],[-1.72379,52.61886],[-1.72359,52.61927],[-1.72989,52.62043],[-1.72896,52.62082],[-1.7293,52.62139],[-1.73142,52.62228],[-1.73973,52.62273],[-1.73797,52.62201],[-1.73245,52.62089],[-1.73314,52.61972],[-1.73072,52.61998],[-1.7342,52.6177],[-1.7386,52.61566],[-1.74229,52.61303],[-1.7422,52.61412],[-1.7428,52.61551],[-1.74631,52.61616],[-1.74667,52.61651],[-1.74625,52.61744],[-1.74695,52.61777],[-1.74909,52.6173],[-1.75057,52.61744],[-1.75082,52.61832],[-1.75178,52.61895],[-1.75226,52.6197],[-1.75363,52.62017],[-1.75363,52.62066],[-1.75298,52.62111],[-1.7526,52.62246],[-1.75196,52.62269],[-1.75086,52.62456],[-1.75048,52.62637],[-1.75113,52.62801],[-1.74893,52.62759],[-1.74556,52.626],[-1.7426,52.62588],[-1.74118,52.62629],[-1.73765,52.62918],[-1.73502,52.63046],[-1.73409,52.63149],[-1.73123,52.63273]]]}},{"type":"Feature","properties":{"id":"E01029504","name":"E01029504","parent":"E07000194","type":"LSOA","pop":1777,"r":127,"ff":45,"ffd":2532.4,"ffs":0.4737,"g":31,"co":3,"mo":2,"sa":0,"ic":0},"geometry":{"type":"Polygon","coordinates":[[[-1.70279,52.61617],[-1.70124,52.61559],[-1.69856,52.61594],[-1.69145,52.61739],[-1.69061,52.61461],[-1.69088,52.61359],[-1.69356,52.61008],[-1.69398,52.60864],[-1.69454,52.60871],[-1.69526,52.60762],[-1.69955,52.60684],[-1.70049,52.60582],[-1.70618,52.60673],[-1.70652,52.60618],[-1.70711,52.60629],[-1.71167,52.60856],[-1.71226,52.60817],[-1.71486,52.60778],[-1.71703,52.60801],[-1.71769,52.60854],[-1.71742,52.61096],[-1.71898,52.61075],[-1.71978,52.61094],[-1.71207,52.61181],[-1.70892,52.61285],[-1.71047,52.6127],[-1.71344,52.61358],[-1.71255,52.6142],[-1.71041,52.61439],[-1.71026,52.61479],[-1.7081,52.61495],[-1.70864,52.61544],[-1.71038,52.6156],[-1.71032,52.61591],[-1.71091,52.61593],[-1.71081,52.61638],[-1.70818,52.61601],[-1.70742,52.61629],[-1.70754,52.61782],[-1.70695,52.61877],[-1.70279,52.61617]]]}},{"type":"Feature","properties":{"id":"E01029505","name":"E01029505","parent":"E07000194","type":"LSOA","pop":1619,"r":234,"ff":67,"ffd":4138.4,"ffs":0.4437,"g":83,"co":0,"mo":0,"sa":2,"ic":0},"geometry":{"type":"Polygon","coordinates":[[[-1.87639,52.67545],[-1.87257,52.67443],[-1.86965,52.6729],[-1.86287,52.67082],[-1.86574,52.66876],[-1.8703,52.6665],[-1.87596,52.66071],[-1.87927,52.65842],[-1.88102,52.65657],[-1.89383,52.64891],[-1.89877,52.64617],[-1.90508,52.64321],[-1.90905,52.64475],[-1.90974,52.64428],[-1.91235,52.64648],[-1.91526,52.64796],[-1.91802,52.6499],[-1.91587,52.65147],[-1.91658,52.65226],[-1.90866,52.654],[-1.91067,52.65626],[-1.91284,52.65823],[-1.91897,52.65703],[-1.92239,52.65605],[-1.92103,52.66248],[-1.9246,52.66386],[-1.92263,52.66464],[-1.92206,52.66569],[-1.92321,52.66626],[-1.92188,52.66669],[-1.92172,52.66744],[-1.91879,52.66809],[-1.91642,52.67058],[-1.91709,52.67081],[-1.91614,52.67164],[-1.91918,52.67243],[-1.91938,52.67275],[-1.91341,52.67412],[-1.90881,52.67404],[-1.90111,52.67509],[-1.90056,52.6754],[-1.88724,52.67484],[-1.88082,52.67588],[-1.87639,52.67545]]]}},{"type":"Feature","properties":{"id":"E01029506","name":"E01029506","parent":"E07000194","type":"LSOA","pop":1729,"r":266,"ff":75,"ffd":4337.8,"ffs":0.4491,"g":99,"co":0,"mo":0,"sa":2,"ic":0},"geometry":{"type":"Polygon","coordinates":[[[-1.92172,52.66744],[-1.92188,52.66669],[-1.92527,52.66764],[-1.92508,52.66824],[-1.93081,52.66919],[-1.93062,52.67014],[-1.91938,52.67275],[-1.91918,52.67243],[-1.91614,52.67164],[-1.91709,52.67081],[-1.91642,52.67058],[-1.91879,52.66809],[-1.92172,52.66744]]]}},{"type":"Feature","properties":{"id":"E01029507","name":"E01029507","parent":"E07000194","type":"LSOA","pop":1642,"r":217,"ff":66,"ffd":4019.5,"ffs":0.44,"g":67,"co":0,"mo":0,"sa":2,"ic":0},"geometry":{"type":"Polygon","coordinates":[[[-1.91167,52.6952],[-1.90955,52.69472],[-1.90434,52.69502],[-1.90333,52.69471],[-1.90116,52.69467],[-1.8942,52.69257],[-1.89039,52.69209],[-1.89079,52.69182],[-1.8907,52.69112],[-1.88823,52.69048],[-1.88381,52.6883],[-1.89154,52.68728],[-1.89406,52.68651],[-1.8952,52.68675],[-1.89584,52.68609],[-1.90016,52.68396],[-1.90089,52.68316],[-1.8994,52.68156],[-1.89743,52.6806],[-1.89673,52.67961],[-1.89526,52.67987],[-1.89609,52.67889],[-1.89837,52.67965],[-1.89989,52.67919],[-1.90283,52.67934],[-1.90279,52.67897],[-1.90395,52.67865],[-1.9044,52.67779],[-1.90604,52.67815],[-1.90543,52.67874],[-1.90513,52.67981],[-1.90474,52.68031],[-1.90432,52.68032],[-1.90464,52.68108],[-1.9054,52.68099],[-1.90574,52.68206],[-1.90426,52.68277],[-1.90614,52.68276],[-1.90584,52.68228],[-1.91109,52.68268],[-1.91129,52.68229],[-1.9137,52.68254],[-1.91366,52.68288],[-1.91455,52.68295],[-1.91461,52.68264],[-1.91581,52.68272],[-1.91573,52.68304],[-1.91718,52.68312],[-1.91843,52.6843],[-1.92025,52.68716],[-1.91913,52.6871],[-1.91965,52.68848],[-1.9205,52.689],[-1.92132,52.69042],[-1.92213,52.69034],[-1.92354,52.69332],[-1.92243,52.69287],[-1.92114,52.6936],[-1.91392,52.69436],[-1.91167,52.6952]]]}},{"type":"Feature","properties":{"id":"E01029508","name":"E01029508","parent":"E07000194","type":"LSOA","pop":2292,"r":232,"ff":69,"ffd":3010.5,"ffs":0.4313,"g":72,"co":0,"mo":0,"sa":2,"ic":0},"geometry":{"type":"Polygon","coordinates":[[[-1.8517,52.68855],[-1.85204,52.68704],[-1.85142,52.68631],[-1.85043,52.68606],[-1.8503,52.68548],[-1.85057,52.68501],[-1.85328,52.68377],[-1.8527,52.6823],[-1.85351,52.68247],[-1.85489,52.68209],[-1.86127,52.6818],[-1.86384,52.68065],[-1.86597,52.68027],[-1.86574,52.67959],[-1.86636,52.67859],[-1.86784,52.67807],[-1.8674,52.67761],[-1.86941,52.67688],[-1.87131,52.67653],[-1.8717,52.67674],[-1.87241,52.67587],[-1.87172,52.67519],[-1.87257,52.67443],[-1.87639,52.67545],[-1.88082,52.67588],[-1.88724,52.67484],[-1.89928,52.67543],[-1.90557,52.67766],[-1.90705,52.67799],[-1.90675,52.67829],[-1.9044,52.67779],[-1.90395,52.67865],[-1.90279,52.67897],[-1.90283,52.67934],[-1.89989,52.67919],[-1.89837,52.67965],[-1.89609,52.67889],[-1.89526,52.67987],[-1.89673,52.67961],[-1.89743,52.6806],[-1.8994,52.68156],[-1.90089,52.68316],[-1.90016,52.68396],[-1.89584,52.68609],[-1.8952,52.68675],[-1.89406,52.68651],[-1.89154,52.68728],[-1.88381,52.6883],[-1.88212,52.68749],[-1.88082,52.68817],[-1.8787,52.68632],[-1.87623,52.68709],[-1.8745,52.68711],[-1.87294,52.68755],[-1.87046,52.68753],[-1.86948,52.68696],[-1.86823,52.68729],[-1.86762,52.68706],[-1.8621,52.68753],[-1.8571,52.689],[-1.8517,52.68855]]]}},{"type":"Feature","properties":{"id":"E01029509","name":"E01029509","parent":"E07000194","type":"LSOA","pop":1596,"r":5,"ff":3,"ffd":188.0,"ffs":0.6,"g":0,"co":1,"mo":1,"sa":3,"ic":1},"geometry":{"type":"Polygon","coordinates":[[[-1.83815,52.79597],[-1.83726,52.79532],[-1.83511,52.79553],[-1.83213,52.79495],[-1.82755,52.79322],[-1.8233,52.79408],[-1.81803,52.79318],[-1.81653,52.79244],[-1.81408,52.79009],[-1.81016,52.78514],[-1.81,52.78339],[-1.8095,52.78314],[-1.8126,52.77914],[-1.81576,52.77806],[-1.81865,52.77779],[-1.82062,52.77698],[-1.82027,52.77643],[-1.82108,52.77547],[-1.82352,52.77433],[-1.82545,52.77266],[-1.82725,52.77166],[-1.82698,52.77143],[-1.82842,52.76904],[-1.8262,52.76882],[-1.82349,52.76915],[-1.82333,52.76707],[-1.82244,52.76718],[-1.82054,52.76293],[-1.81897,52.75703],[-1.81753,52.75519],[-1.81669,52.75565],[-1.81484,52.75561],[-1.81319,52.75657],[-1.81185,52.75644],[-1.80786,52.7574],[-1.80313,52.75618],[-1.80251,52.75531],[-1.80155,52.75508],[-1.80135,52.75428],[-1.79866,52.75378],[-1.79532,52.75236],[-1.79404,52.75278],[-1.79389,52.75396],[-1.79332,52.75432],[-1.79053,52.75379],[-1.78935,52.75319],[-1.78893,52.7525],[-1.79014,52.7516],[-1.78619,52.74932],[-1.78674,52.7472],[-1.78456,52.74585],[-1.78446,52.74497],[-1.78523,52.74344],[-1.78554,52.74356],[-1.78748,52.74285],[-1.78944,52.74297],[-1.78951,52.7427],[-1.79,52.74275],[-1.79014,52.74312],[-1.79213,52.74357],[-1.7924,52.74291],[-1.7931,52.74281],[-1.79483,52.74146],[-1.79731,52.73629],[-1.80389,52.73613],[-1.81106,52.72633],[-1.80927,52.72631],[-1.80959,52.72453],[-1.8081,52.72449],[-1.80891,52.71597],[-1.80957,52.71603],[-1.81093,52.71437],[-1.81103,52.71337],[-1.80975,52.71273],[-1.81026,52.7125],[-1.80975,52.71189],[-1.81057,52.71102],[-1.81011,52.7108],[-1.8111,52.71045],[-1.81155,52.70982],[-1.81104,52.70986],[-1.81141,52.70913],[-1.8112,52.70865],[-1.8107,52.70857],[-1.81087,52.70756],[-1.81034,52.7076],[-1.81045,52.70686],[-1.80988,52.70663],[-1.81027,52.70638],[-1.80991,52.70625],[-1.8115,52.70472],[-1.81226,52.70442],[-1.8128,52.70458],[-1.81463,52.70282],[-1.81724,52.70121],[-1.82089,52.70327],[-1.82377,52.70146],[-1.82985,52.70036],[-1.83224,52.70084],[-1.83509,52.70206],[-1.83605,52.70189],[-1.84056,52.69961],[-1.84206,52.69928],[-1.84396,52.69809],[-1.84647,52.69723],[-1.84833,52.69881],[-1.84941,52.70067],[-1.85144,52.70019],[-1.85381,52.69862],[-1.85452,52.70013],[-1.8555,52.70106],[-1.86112,52.70344],[-1.86274,52.70529],[-1.86481,52.70648],[-1.86561,52.70772],[-1.86452,52.70862],[-1.86321,52.70899],[-1.86221,52.70975],[-1.86004,52.70985],[-1.85806,52.71053],[-1.85619,52.7104],[-1.85375,52.7113],[-1.85349,52.71194],[-1.85279,52.71217],[-1.85321,52.71275],[-1.85253,52.71307],[-1.85291,52.71321],[-1.8513,52.71413],[-1.85042,52.71529],[-1.85184,52.71825],[-1.85129,52.71912],[-1.85006,52.72045],[-1.84655,52.72127],[-1.84741,52.72232],[-1.85218,52.7241],[-1.85579,52.72588],[-1.85883,52.72975],[-1.86019,52.72987],[-1.86097,52.73142],[-1.86224,52.73257],[-1.86303,52.73444],[-1.85763,52.73567],[-1.85699,52.73926],[-1.85547,52.74059],[-1.85649,52.74322],[-1.85588,52.74546],[-1.85518,52.74551],[-1.85403,52.74664],[-1.85246,52.74689],[-1.84801,52.7491],[-1.84298,52.75039],[-1.8436,52.7527],[-1.84269,52.75265],[-1.84276,52.75332],[-1.84408,52.75341],[-1.84447,52.75423],[-1.85118,52.75464],[-1.85176,52.75943],[-1.85358,52.76402],[-1.85406,52.76393],[-1.85421,52.76417],[-1.85408,52.76584],[-1.85834,52.77011],[-1.86012,52.77107],[-1.86193,52.77265],[-1.8614,52.77356],[-1.86408,52.77434],[-1.86547,52.77539],[-1.86734,52.77882],[-1.86727,52.77945],[-1.86664,52.77966],[-1.86339,52.78006],[-1.8615,52.78071],[-1.85806,52.78093],[-1.85683,52.78269],[-1.85836,52.78309],[-1.85826,52.78377],[-1.85762,52.7838],[-1.8577,52.78405],[-1.85421,52.78317],[-1.8538,52.78234],[-1.85273,52.78248],[-1.85246,52.78322],[-1.8517,52.78319],[-1.84942,52.78506],[-1.84858,52.78501],[-1.847,52.78667],[-1.84494,52.78773],[-1.84438,52.79012],[-1.84515,52.79335],[-1.84466,52.79403],[-1.84236,52.79593],[-1.83815,52.79597]]]}},{"type":"Feature","properties":{"id":"E01029511","name":"E01029511","parent":"E07000194","type":"LSOA","pop":1660,"r":88,"ff":28,"ffd":1686.7,"ffs":0.3889,"g":14,"co":3,"mo":0,"sa":3,"ic":0},"geometry":{"type":"Polygon","coordinates":[[[-1.84333,52.69436],[-1.84225,52.69324],[-1.84169,52.69333],[-1.8417,52.69261],[-1.84118,52.69212],[-1.8407,52.69232],[-1.84032,52.69199],[-1.84075,52.69179],[-1.84029,52.69128],[-1.83976,52.69162],[-1.83907,52.69116],[-1.83999,52.68903],[-1.84016,52.68884],[-1.84057,52.68898],[-1.84233,52.68728],[-1.84484,52.68656],[-1.84547,52.68802],[-1.84884,52.68857],[-1.8517,52.68855],[-1.85107,52.68953],[-1.85229,52.68962],[-1.85302,52.69003],[-1.85098,52.69196],[-1.85159,52.69218],[-1.85078,52.69448],[-1.84885,52.69254],[-1.84281,52.69471],[-1.84263,52.69446],[-1.84333,52.69436]]]}},{"type":"Feature","properties":{"id":"E01029512","name":"E01029512","parent":"E07000194","type":"LSOA","pop":2226,"r":90,"ff":27,"ffd":1212.9,"ffs":0.3649,"g":14,"co":3,"mo":0,"sa":3,"ic":0},"geometry":{"type":"Polygon","coordinates":[[[-1.84042,52.68237],[-1.83798,52.68128],[-1.83785,52.68199],[-1.83596,52.68079],[-1.83488,52.68119],[-1.83481,52.68083],[-1.83639,52.68039],[-1.8354,52.67984],[-1.83635,52.67985],[-1.83639,52.67954],[-1.8378,52.67895],[-1.83777,52.67872],[-1.84166,52.67766],[-1.84155,52.6768],[-1.84311,52.67707],[-1.84347,52.67599],[-1.84118,52.67329],[-1.841,52.67209],[-1.84854,52.6705],[-1.85382,52.66881],[-1.85957,52.66939],[-1.86148,52.67213],[-1.86185,52.67228],[-1.86287,52.67187],[-1.86408,52.67244],[-1.86528,52.67417],[-1.86134,52.6755],[-1.86141,52.67595],[-1.85873,52.67737],[-1.8589,52.67831],[-1.85564,52.67942],[-1.85509,52.67903],[-1.85436,52.67937],[-1.853,52.68076],[-1.8527,52.6823],[-1.85328,52.68377],[-1.85057,52.68501],[-1.8503,52.68548],[-1.85043,52.68606],[-1.85142,52.68631],[-1.85204,52.68704],[-1.8517,52.68855],[-1.84884,52.68857],[-1.84547,52.68802],[-1.84484,52.68656],[-1.84325,52.68436],[-1.84042,52.68237]]]}},{"type":"Feature","properties":{"id":"E01029513","name":"E01029513","parent":"E07000194","type":"LSOA","pop":1394,"r":370,"ff":116,"ffd":8321.4,"ffs":0.4774,"g":124,"co":0,"mo":0,"sa":0,"ic":0},"geometry":{"type":"Polygon","coordinates":[[[-1.84991,52.6134],[-1.8446,52.61117],[-1.83934,52.61123],[-1.83761,52.61078],[-1.83813,52.60675],[-1.83866,52.60687],[-1.84572,52.60495],[-1.84785,52.60479],[-1.85395,52.60193],[-1.85509,52.60086],[-1.86169,52.5933],[-1.8641,52.59095],[-1.86479,52.5913],[-1.86611,52.5907],[-1.86655,52.59118],[-1.86725,52.59102],[-1.86987,52.59146],[-1.87048,52.59081],[-1.87499,52.59144],[-1.87539,52.59166],[-1.87454,52.59276],[-1.87952,52.59402],[-1.87697,52.59673],[-1.87562,52.59615],[-1.87579,52.59685],[-1.87481,52.59737],[-1.87451,52.59798],[-1.87519,52.5984],[-1.87376,52.59991],[-1.87146,52.59902],[-1.87082,52.59991],[-1.8692,52.59919],[-1.86703,52.59874],[-1.86702,52.59809],[-1.86524,52.59812],[-1.86469,52.59847],[-1.86477,52.59901],[-1.86372,52.59884],[-1.86418,52.59845],[-1.86322,52.59799],[-1.86185,52.59793],[-1.86138,52.59839],[-1.86062,52.59844],[-1.86084,52.59943],[-1.86229,52.59961],[-1.86109,52.59995],[-1.86108,52.60032],[-1.86152,52.60125],[-1.86328,52.60254],[-1.86219,52.60281],[-1.86202,52.60246],[-1.86098,52.6022],[-1.85875,52.60279],[-1.85896,52.60605],[-1.85804,52.60715],[-1.85696,52.60752],[-1.85112,52.61372],[-1.84991,52.6134]]]}},{"type":"Feature","properties":{"id":"E01029514","name":"E01029514","parent":"E07000194","type":"LSOA","pop":1628,"r":338,"ff":112,"ffd":6879.6,"ffs":0.5022,"g":112,"co":0,"mo":0,"sa":0,"ic":0},"geometry":{"type":"Polygon","coordinates":[[[-1.85828,52.61589],[-1.85623,52.61462],[-1.85532,52.61463],[-1.85233,52.61328],[-1.85164,52.6138],[-1.85112,52.61372],[-1.85696,52.60752],[-1.85804,52.60715],[-1.85896,52.60605],[-1.85875,52.60279],[-1.86098,52.6022],[-1.86202,52.60246],[-1.86219,52.60281],[-1.86328,52.60254],[-1.86152,52.60125],[-1.86108,52.60032],[-1.86109,52.59995],[-1.86229,52.59961],[-1.86084,52.59943],[-1.86062,52.59844],[-1.86138,52.59839],[-1.86185,52.59793],[-1.86322,52.59799],[-1.86418,52.59845],[-1.86372,52.59884],[-1.86477,52.59901],[-1.86469,52.59847],[-1.86524,52.59812],[-1.86702,52.59809],[-1.86703,52.59874],[-1.8692,52.59919],[-1.87082,52.59991],[-1.87146,52.59902],[-1.87376,52.59991],[-1.87519,52.5984],[-1.87451,52.59798],[-1.87481,52.59737],[-1.87579,52.59685],[-1.87562,52.59615],[-1.87697,52.59673],[-1.87952,52.59402],[-1.87454,52.59276],[-1.87539,52.59166],[-1.87499,52.59144],[-1.87048,52.59081],[-1.86987,52.59146],[-1.86725,52.59102],[-1.86655,52.59118],[-1.86611,52.5907],[-1.86479,52.5913],[-1.8641,52.59095],[-1.86798,52.58855],[-1.8678,52.58833],[-1.87095,52.58676],[-1.87256,52.58494],[-1.87324,52.58491],[-1.87489,52.58557],[-1.87955,52.58889],[-1.88453,52.59453],[-1.88811,52.59699],[-1.89063,52.59806],[-1.89018,52.59847],[-1.89227,52.59915],[-1.89224,52.60006],[-1.88692,52.6071],[-1.88529,52.60671],[-1.88003,52.60674],[-1.87863,52.60611],[-1.87669,52.60673],[-1.87484,52.60783],[-1.87364,52.60812],[-1.87193,52.6097],[-1.87064,52.61034],[-1.86973,52.61033],[-1.86804,52.61301],[-1.86635,52.61371],[-1.86596,52.61419],[-1.86685,52.61422],[-1.86654,52.61446],[-1.86603,52.61433],[-1.86241,52.61805],[-1.86037,52.61872],[-1.85982,52.61833],[-1.86133,52.61761],[-1.85968,52.61666],[-1.85964,52.61612],[-1.85828,52.61589]]]}},{"type":"Feature","properties":{"id":"E01029515","name":"E01029515","parent":"E07000194","type":"LSOA","pop":1880,"r":35,"ff":14,"ffd":744.7,"ffs":0.4,"g":0,"co":3,"mo":1,"sa":3,"ic":1},"geometry":{"type":"Polygon","coordinates":[[[-1.9149,52.74046],[-1.91244,52.73791],[-1.91228,52.73586],[-1.91142,52.73559],[-1.9105,52.73463],[-1.90736,52.73363],[-1.90242,52.73458],[-1.90179,52.73558],[-1.89859,52.73609],[-1.89479,52.73606],[-1.89249,52.73495],[-1.89096,52.73555],[-1.88858,52.73509],[-1.88396,52.7359],[-1.88128,52.73524],[-1.87843,52.73405],[-1.87315,52.73318],[-1.87321,52.73296],[-1.87036,52.73198],[-1.86842,52.73189],[-1.86598,52.73055],[-1.86306,52.7295],[-1.86019,52.72987],[-1.85883,52.72975],[-1.85579,52.72588],[-1.85218,52.7241],[-1.84741,52.72232],[-1.84655,52.72127],[-1.85006,52.72045],[-1.85184,52.71825],[-1.85042,52.71529],[-1.8513,52.71413],[-1.85291,52.71321],[-1.85253,52.71307],[-1.85321,52.71275],[-1.85279,52.71217],[-1.85349,52.71194],[-1.85375,52.7113],[-1.85619,52.7104],[-1.85806,52.71053],[-1.86004,52.70985],[-1.86221,52.70975],[-1.86321,52.70899],[-1.86452,52.70862],[-1.86561,52.70772],[-1.86481,52.70648],[-1.86274,52.70529],[-1.86112,52.70344],[-1.8555,52.70106],[-1.85452,52.70013],[-1.85381,52.69862],[-1.85381,52.69732],[-1.85078,52.69448],[-1.85159,52.69218],[-1.85098,52.69196],[-1.85302,52.69003],[-1.85229,52.68962],[-1.85107,52.68953],[-1.85165,52.68858],[-1.8571,52.689],[-1.8621,52.68753],[-1.86762,52.68706],[-1.86823,52.68729],[-1.86948,52.68696],[-1.87046,52.68753],[-1.87294,52.68755],[-1.8745,52.68711],[-1.87623,52.68709],[-1.8787,52.68632],[-1.88082,52.68817],[-1.88212,52.68749],[-1.88823,52.69048],[-1.8907,52.69112],[-1.89079,52.69182],[-1.89039,52.69209],[-1.8942,52.69257],[-1.90116,52.69467],[-1.90333,52.69471],[-1.90434,52.69502],[-1.90955,52.69472],[-1.91167,52.6952],[-1.91392,52.69436],[-1.92114,52.6936],[-1.92243,52.69287],[-1.92354,52.69332],[-1.9252,52.69324],[-1.92739,52.69393],[-1.92951,52.69415],[-1.93062,52.69455],[-1.93105,52.69546],[-1.93262,52.69631],[-1.93421,52.6978],[-1.93416,52.69817],[-1.93264,52.69927],[-1.9309,52.70224],[-1.93008,52.70304],[-1.93015,52.70435],[-1.92937,52.70504],[-1.92642,52.70652],[-1.92563,52.70761],[-1.92124,52.70792],[-1.9166,52.70932],[-1.91551,52.71064],[-1.91717,52.712],[-1.91902,52.7103],[-1.92406,52.71355],[-1.92742,52.71433],[-1.93054,52.71457],[-1.93247,52.71377],[-1.93421,52.71369],[-1.93739,52.71408],[-1.9377,52.71627],[-1.93583,52.7187],[-1.93554,52.71991],[-1.93586,52.72086],[-1.93342,52.72115],[-1.9345,52.72373],[-1.93393,52.72768],[-1.92716,52.73144],[-1.9271,52.73301],[-1.92584,52.73486],[-1.91989,52.73808],[-1.91949,52.73797],[-1.91857,52.73925],[-1.91619,52.73895],[-1.9149,52.74046]]]}},{"type":"Feature","properties":{"id":"E01029516","name":"E01029516","parent":"E07000194","type":"LSOA","pop":2059,"r":67,"ff":15,"ffd":728.5,"ffs":0.3846,"g":27,"co":3,"mo":2,"sa":2,"ic":0},"geometry":{"type":"Polygon","coordinates":[[[-1.70451,52.73106],[-1.70324,52.72949],[-1.70133,52.72843],[-1.69695,52.72719],[-1.69402,52.72687],[-1.68782,52.72729],[-1.68209,52.72702],[-1.67794,52.7275],[-1.67541,52.72683],[-1.67559,52.72487],[-1.6714,52.72428],[-1.6714,52.72406],[-1.66917,52.72358],[-1.66638,52.72359],[-1.66628,52.72394],[-1.66484,52.72405],[-1.66455,52.7236],[-1.66302,52.72364],[-1.66261,52.72301],[-1.65661,52.72175],[-1.65593,52.71984],[-1.65621,52.7178],[-1.65568,52.71596],[-1.65785,52.71533],[-1.65755,52.71495],[-1.65929,52.71408],[-1.65821,52.71261],[-1.65773,52.71058],[-1.65591,52.71046],[-1.65634,52.70857],[-1.6543,52.70821],[-1.65415,52.70306],[-1.65505,52.70198],[-1.65442,52.69998],[-1.65553,52.69951],[-1.65504,52.6988],[-1.65394,52.6988],[-1.65387,52.69932],[-1.64938,52.69964],[-1.64863,52.69927],[-1.64895,52.69874],[-1.64852,52.69835],[-1.64467,52.69936],[-1.64236,52.70042],[-1.6416,52.7003],[-1.64094,52.69966],[-1.63764,52.69968],[-1.63752,52.70002],[-1.638,52.69985],[-1.63821,52.70024],[-1.6378,52.70125],[-1.63591,52.70249],[-1.63492,52.70242],[-1.63491,52.70195],[-1.63444,52.7022],[-1.6337,52.702],[-1.63428,52.70179],[-1.63414,52.70149],[-1.63328,52.7015],[-1.63231,52.7005],[-1.63031,52.70006],[-1.62945,52.70031],[-1.62629,52.70022],[-1.6273,52.69959],[-1.62503,52.69739],[-1.62323,52.69752],[-1.62237,52.69863],[-1.62091,52.69947],[-1.6184,52.6998],[-1.61805,52.69962],[-1.61661,52.70054],[-1.61538,52.70071],[-1.61255,52.69994],[-1.61214,52.69915],[-1.6114,52.69923],[-1.61141,52.6989],[-1.61068,52.69858],[-1.61014,52.69854],[-1.60986,52.69892],[-1.60779,52.69849],[-1.60789,52.69743],[-1.60664,52.69759],[-1.60681,52.69681],[-1.60588,52.69654],[-1.60521,52.69695],[-1.604,52.69672],[-1.60069,52.69757],[-1.59964,52.69835],[-1.59832,52.69877],[-1.59854,52.69936],[-1.59912,52.69908],[-1.59973,52.69942],[-1.59968,52.69984],[-1.59896,52.69984],[-1.59857,52.70044],[-1.597,52.70045],[-1.59088,52.69806],[-1.58975,52.69606],[-1.58799,52.69553],[-1.58629,52.6945],[-1.58708,52.69429],[-1.58861,52.69278],[-1.58846,52.69069],[-1.58965,52.68726],[-1.6021,52.67962],[-1.60428,52.679],[-1.60391,52.67789],[-1.60621,52.67703],[-1.60507,52.67617],[-1.60393,52.6742],[-1.60427,52.67372],[-1.60608,52.67319],[-1.61554,52.67198],[-1.61559,52.66872],[-1.61939,52.6683],[-1.62104,52.66764],[-1.62569,52.66556],[-1.62814,52.66382],[-1.62798,52.66349],[-1.63125,52.6625],[-1.6392,52.65932],[-1.63941,52.6588],[-1.64494,52.65752],[-1.64726,52.65717],[-1.65047,52.65635],[-1.65158,52.65576],[-1.65612,52.65477],[-1.6584,52.6533],[-1.66269,52.65223],[-1.66539,52.65204],[-1.66647,52.65225],[-1.67075,52.6516],[-1.66989,52.65504],[-1.67033,52.65562],[-1.67047,52.65882],[-1.67158,52.65971],[-1.67307,52.65984],[-1.67387,52.66028],[-1.67548,52.66035],[-1.67697,52.65996],[-1.67898,52.66124],[-1.67999,52.66337],[-1.68154,52.66356],[-1.67987,52.66563],[-1.68055,52.66741],[-1.68347,52.66762],[-1.68569,52.66824],[-1.69108,52.67023],[-1.69173,52.67153],[-1.69654,52.67151],[-1.6953,52.67354],[-1.69462,52.6787],[-1.69662,52.67848],[-1.69811,52.67882],[-1.70168,52.68043],[-1.70241,52.68131],[-1.70568,52.69768],[-1.70588,52.70083],[-1.70543,52.7054],[-1.70693,52.7054],[-1.71373,52.70678],[-1.71747,52.70723],[-1.72017,52.70862],[-1.72993,52.71007],[-1.73003,52.71502],[-1.73094,52.71676],[-1.73064,52.71795],[-1.7292,52.71937],[-1.72453,52.7207],[-1.72313,52.72202],[-1.72424,52.72672],[-1.72602,52.72874],[-1.72272,52.73087],[-1.72207,52.73102],[-1.72003,52.73068],[-1.71861,52.73131],[-1.71764,52.73128],[-1.7143,52.73066],[-1.71199,52.72989],[-1.7108,52.72986],[-1.70728,52.73059],[-1.70416,52.73208],[-1.70451,52.73106]]]}},{"type":"Feature","properties":{"id":"E01029517","name":"E01029517","parent":"E07000194","type":"LSOA","pop":2539,"r":118,"ff":39,"ffd":1536.0,"ffs":0.4535,"g":31,"co":3,"mo":2,"sa":0,"ic":0},"geometry":{"type":"Polygon","coordinates":[[[-1.71373,52.70678],[-1.70693,52.7054],[-1.70543,52.7054],[-1.70588,52.70083],[-1.70568,52.69768],[-1.70241,52.68131],[-1.70168,52.68043],[-1.69811,52.67882],[-1.69662,52.67848],[-1.69462,52.6787],[-1.6953,52.67354],[-1.69654,52.67151],[-1.69173,52.67153],[-1.69108,52.67023],[-1.68569,52.66824],[-1.68347,52.66762],[-1.68055,52.66741],[-1.67987,52.66563],[-1.68154,52.66356],[-1.67999,52.66337],[-1.67898,52.66124],[-1.67697,52.65996],[-1.67548,52.66035],[-1.67387,52.66028],[-1.67307,52.65984],[-1.67158,52.65971],[-1.67047,52.65882],[-1.67033,52.65562],[-1.66989,52.65504],[-1.67075,52.6516],[-1.6732,52.65071],[-1.68017,52.64911],[-1.68241,52.64827],[-1.68435,52.64728],[-1.68966,52.65098],[-1.69664,52.65101],[-1.70154,52.65074],[-1.7044,52.65097],[-1.71143,52.65012],[-1.71409,52.65131],[-1.71797,52.65135],[-1.7205,52.65161],[-1.72244,52.65138],[-1.72143,52.64994],[-1.72289,52.64954],[-1.72141,52.64768],[-1.7245,52.6469],[-1.7247,52.64652],[-1.72568,52.64653],[-1.72571,52.64613],[-1.73447,52.64459],[-1.73379,52.64233],[-1.73415,52.64192],[-1.73345,52.64068],[-1.73362,52.63945],[-1.73263,52.63845],[-1.73294,52.63767],[-1.7358,52.63702],[-1.73574,52.63663],[-1.73496,52.63589],[-1.73313,52.63543],[-1.73212,52.63481],[-1.73123,52.63273],[-1.73409,52.63149],[-1.73502,52.63046],[-1.73765,52.62918],[-1.74118,52.62629],[-1.7426,52.62588],[-1.74556,52.626],[-1.74893,52.62759],[-1.75181,52.62801],[-1.7515,52.63011],[-1.75525,52.6312],[-1.75353,52.63299],[-1.75381,52.63592],[-1.75015,52.63972],[-1.75002,52.64249],[-1.76131,52.64704],[-1.75851,52.64816],[-1.75737,52.65026],[-1.75429,52.65124],[-1.75299,52.65199],[-1.75215,52.65307],[-1.75194,52.65632],[-1.75143,52.65562],[-1.74698,52.65424],[-1.74475,52.65426],[-1.74016,52.65336],[-1.73673,52.65373],[-1.73348,52.65367],[-1.73256,52.65404],[-1.73128,52.65541],[-1.7277,52.658],[-1.72618,52.65993],[-1.7266,52.66091],[-1.72538,52.66216],[-1.72061,52.66379],[-1.72036,52.66496],[-1.71869,52.66736],[-1.71903,52.66902],[-1.72115,52.66922],[-1.72282,52.6714],[-1.72301,52.6729],[-1.72254,52.67404],[-1.72126,52.67517],[-1.72104,52.67661],[-1.71844,52.67638],[-1.71704,52.67588],[-1.71671,52.67647],[-1.71712,52.67755],[-1.71551,52.67774],[-1.71497,52.67866],[-1.71394,52.67927],[-1.71628,52.68101],[-1.71679,52.68332],[-1.71832,52.68459],[-1.71774,52.68718],[-1.72036,52.68968],[-1.72369,52.69093],[-1.72961,52.69221],[-1.73343,52.69237],[-1.7372,52.69159],[-1.73918,52.68999],[-1.74057,52.68953],[-1.74392,52.68915],[-1.74504,52.68992],[-1.74498,52.695],[-1.74579,52.6974],[-1.74408,52.70067],[-1.74224,52.70341],[-1.74011,52.70479],[-1.73491,52.70513],[-1.73255,52.70612],[-1.73166,52.70804],[-1.72993,52.71007],[-1.72017,52.70862],[-1.71747,52.70723],[-1.71373,52.70678]]]}},{"type":"Feature","properties":{"id":"E01029518","name":"E01029518","parent":"E07000194","type":"LSOA","pop":4227,"r":83,"ff":25,"ffd":591.4,"ffs":0.3731,"g":14,"co":3,"mo":0,"sa":3,"ic":0},"geometry":{"type":"Polygon","coordinates":[[[-1.8243,52.67658],[-1.82355,52.67496],[-1.82283,52.67445],[-1.8212,52.67521],[-1.81905,52.67514],[-1.818,52.67558],[-1.81775,52.67476],[-1.81868,52.67407],[-1.81931,52.67413],[-1.81936,52.67313],[-1.81441,52.67299],[-1.81397,52.67277],[-1.8148,52.67249],[-1.81948,52.66864],[-1.81815,52.66683],[-1.81474,52.66793],[-1.81133,52.66809],[-1.81357,52.66576],[-1.81599,52.66203],[-1.81679,52.66407],[-1.8179,52.66487],[-1.81961,52.66316],[-1.82027,52.66298],[-1.8205,52.66318],[-1.82229,52.66222],[-1.82205,52.66201],[-1.82427,52.66165],[-1.82627,52.66236],[-1.82766,52.66249],[-1.83616,52.65792],[-1.83976,52.66016],[-1.84208,52.66106],[-1.84034,52.66363],[-1.84095,52.66463],[-1.84529,52.66476],[-1.84669,52.66504],[-1.84774,52.66566],[-1.85192,52.66567],[-1.85254,52.66835],[-1.85274,52.66865],[-1.85382,52.66881],[-1.84854,52.6705],[-1.841,52.67209],[-1.83734,52.67311],[-1.83378,52.67427],[-1.83149,52.67539],[-1.8305,52.67608],[-1.83018,52.67526],[-1.83027,52.67476],[-1.82933,52.67337],[-1.82702,52.67371],[-1.82581,52.67358],[-1.82411,52.67445],[-1.82461,52.67451],[-1.82525,52.67525],[-1.82574,52.67515],[-1.82628,52.6756],[-1.82674,52.67548],[-1.82702,52.67607],[-1.82445,52.6768],[-1.8243,52.67658]]]}},{"type":"Feature","properties":{"id":"E01029519","name":"E01029519","parent":"E07000194","type":"LSOA","pop":2206,"r":82,"ff":25,"ffd":1133.3,"ffs":0.3788,"g":14,"co":3,"mo":0,"sa":3,"ic":0},"geometry":{"type":"Polygon","coordinates":[[[-1.81669,52.68051],[-1.81705,52.6795],[-1.81854,52.67914],[-1.81696,52.678],[-1.81518,52.67638],[-1.81772,52.6762],[-1.818,52.67558],[-1.81905,52.67514],[-1.8212,52.67521],[-1.82283,52.67445],[-1.82355,52.67496],[-1.82445,52.6768],[-1.82592,52.67649],[-1.82702,52.67607],[-1.82674,52.67548],[-1.82628,52.6756],[-1.82574,52.67515],[-1.82525,52.67525],[-1.82461,52.67451],[-1.82411,52.67445],[-1.82581,52.67358],[-1.82702,52.67371],[-1.82933,52.67337],[-1.83027,52.67476],[-1.83018,52.67526],[-1.8305,52.67608],[-1.82781,52.67877],[-1.82407,52.68072],[-1.82171,52.68166],[-1.81971,52.68036],[-1.81934,52.68084],[-1.81963,52.68124],[-1.81787,52.68194],[-1.81669,52.68051]]]}},{"type":"Feature","properties":{"id":"E01029520","name":"E01029520","parent":"E07000194","type":"LSOA","pop":1540,"r":83,"ff":25,"ffd":1623.4,"ffs":0.3731,"g":14,"co":3,"mo":0,"sa":3,"ic":0},"geometry":{"type":"Polygon","coordinates":[[[-1.81923,52.68225],[-1.81702,52.68179],[-1.81424,52.68051],[-1.81408,52.67997],[-1.81005,52.67643],[-1.80676,52.6742],[-1.80601,52.67299],[-1.80438,52.67289],[-1.81133,52.66809],[-1.81474,52.66793],[-1.81815,52.66683],[-1.81948,52.66864],[-1.8148,52.67249],[-1.81397,52.67277],[-1.81441,52.67299],[-1.81936,52.67313],[-1.81931,52.67413],[-1.81868,52.67407],[-1.81775,52.67476],[-1.818,52.67558],[-1.81772,52.6762],[-1.81518,52.67638],[-1.81696,52.678],[-1.81854,52.67914],[-1.81705,52.6795],[-1.81669,52.68051],[-1.81787,52.68194],[-1.81963,52.68124],[-1.81934,52.68084],[-1.81971,52.68036],[-1.82171,52.68166],[-1.81923,52.68225]]]}},{"type":"Feature","properties":{"id":"E01029521","name":"E01029521","parent":"E07000194","type":"LSOA","pop":1693,"r":83,"ff":26,"ffd":1535.7,"ffs":0.3881,"g":14,"co":3,"mo":0,"sa":3,"ic":0},"geometry":{"type":"Polygon","coordinates":[[[-1.853,52.68076],[-1.85436,52.67937],[-1.85509,52.67903],[-1.85564,52.67942],[-1.8589,52.67831],[-1.85873,52.67737],[-1.86141,52.67595],[-1.86134,52.6755],[-1.86528,52.67417],[-1.86408,52.67244],[-1.86287,52.67187],[-1.86185,52.67228],[-1.86148,52.67213],[-1.85957,52.66939],[-1.85274,52.66865],[-1.85192,52.66567],[-1.84774,52.66566],[-1.84669,52.66504],[-1.84529,52.66476],[-1.84095,52.66463],[-1.84034,52.66363],[-1.84208,52.66106],[-1.83976,52.66016],[-1.83616,52.65792],[-1.83347,52.65942],[-1.83073,52.65765],[-1.82922,52.65518],[-1.82403,52.65458],[-1.8253,52.65229],[-1.81911,52.64944],[-1.80936,52.64654],[-1.81081,52.64571],[-1.81216,52.64388],[-1.81267,52.64261],[-1.81205,52.64208],[-1.81194,52.64037],[-1.81641,52.63947],[-1.81789,52.63851],[-1.81772,52.63816],[-1.81829,52.63781],[-1.82135,52.63669],[-1.82202,52.63689],[-1.82339,52.63958],[-1.82697,52.64456],[-1.83194,52.64327],[-1.83273,52.64232],[-1.83003,52.64145],[-1.82983,52.64034],[-1.83416,52.64094],[-1.83546,52.64038],[-1.83751,52.64022],[-1.83747,52.63822],[-1.83989,52.63901],[-1.83991,52.63944],[-1.84059,52.63961],[-1.83967,52.64112],[-1.83644,52.64145],[-1.835,52.64189],[-1.8351,52.6423],[-1.83776,52.64164],[-1.83869,52.64152],[-1.83911,52.64176],[-1.84066,52.64128],[-1.84189,52.6403],[-1.8416,52.63978],[-1.84399,52.63896],[-1.84263,52.63863],[-1.84238,52.63785],[-1.84121,52.63773],[-1.84113,52.63725],[-1.83991,52.63753],[-1.83922,52.63683],[-1.83732,52.63683],[-1.83675,52.63569],[-1.83793,52.63552],[-1.83738,52.63506],[-1.83846,52.63395],[-1.83896,52.63446],[-1.83857,52.63497],[-1.83898,52.63513],[-1.83937,52.63463],[-1.84187,52.63516],[-1.84324,52.63491],[-1.84041,52.63274],[-1.83967,52.63261],[-1.83844,52.63342],[-1.83689,52.63313],[-1.83711,52.63251],[-1.83931,52.6321],[-1.8387,52.63152],[-1.83925,52.63028],[-1.83984,52.62978],[-1.84123,52.62952],[-1.84149,52.62819],[-1.84262,52.62823],[-1.84318,52.62653],[-1.84435,52.62631],[-1.84635,52.63],[-1.84682,52.63236],[-1.84654,52.63495],[-1.8498,52.63377],[-1.85188,52.63554],[-1.85363,52.63591],[-1.85168,52.63956],[-1.85273,52.64189],[-1.85532,52.64412],[-1.84856,52.64314],[-1.84762,52.64568],[-1.84911,52.64628],[-1.85041,52.64642],[-1.85025,52.64673],[-1.8542,52.64562],[-1.85859,52.64663],[-1.85845,52.64694],[-1.85961,52.64704],[-1.86025,52.64745],[-1.86094,52.64733],[-1.86248,52.64794],[-1.86598,52.64819],[-1.87411,52.64644],[-1.87542,52.6457],[-1.87768,52.64525],[-1.87944,52.64445],[-1.88126,52.64433],[-1.88356,52.64531],[-1.88533,52.64446],[-1.88744,52.64437],[-1.89013,52.64689],[-1.89383,52.64891],[-1.88102,52.65657],[-1.87927,52.65842],[-1.87596,52.66071],[-1.8703,52.6665],[-1.86574,52.66876],[-1.86287,52.67082],[-1.86965,52.6729],[-1.87257,52.67443],[-1.87172,52.67519],[-1.87241,52.67587],[-1.8717,52.67674],[-1.87131,52.67653],[-1.86941,52.67688],[-1.8674,52.67761],[-1.86784,52.67807],[-1.86636,52.67859],[-1.86574,52.67959],[-1.86597,52.68027],[-1.86384,52.68065],[-1.86127,52.6818],[-1.85489,52.68209],[-1.85351,52.68247],[-1.8527,52.6823],[-1.853,52.68076]]]}},{"type":"Feature","properties":{"id":"E01029522","name":"E01029522","parent":"E07000194","type":"LSOA","pop":1614,"r":78,"ff":24,"ffd":1487.0,"ffs":0.3871,"g":14,"co":3,"mo":0,"sa":3,"ic":0},"geometry":{"type":"Polygon","coordinates":[[[-1.86248,52.64794],[-1.86094,52.64733],[-1.86025,52.64745],[-1.85961,52.64704],[-1.85845,52.64694],[-1.85859,52.64663],[-1.8542,52.64562],[-1.85025,52.64673],[-1.85041,52.64642],[-1.84911,52.64628],[-1.84762,52.64568],[-1.84856,52.64314],[-1.85532,52.64412],[-1.85273,52.64189],[-1.85168,52.63956],[-1.85363,52.63591],[-1.85188,52.63554],[-1.8498,52.63377],[-1.84654,52.63495],[-1.84682,52.63236],[-1.84635,52.63],[-1.84435,52.62631],[-1.84318,52.62653],[-1.84262,52.62823],[-1.84149,52.62819],[-1.84123,52.62952],[-1.83984,52.62978],[-1.83925,52.63028],[-1.8387,52.63152],[-1.83931,52.6321],[-1.83711,52.63251],[-1.83689,52.63313],[-1.83844,52.63342],[-1.83967,52.63261],[-1.84041,52.63274],[-1.84324,52.63491],[-1.84187,52.63516],[-1.83937,52.63463],[-1.83898,52.63513],[-1.83857,52.63497],[-1.83896,52.63446],[-1.83846,52.63395],[-1.83738,52.63506],[-1.83793,52.63552],[-1.83675,52.63569],[-1.83732,52.63683],[-1.83922,52.63683],[-1.83991,52.63753],[-1.84113,52.63725],[-1.84121,52.63773],[-1.84238,52.63785],[-1.84263,52.63863],[-1.84399,52.63896],[-1.8416,52.63978],[-1.84189,52.6403],[-1.84066,52.64128],[-1.83911,52.64176],[-1.83869,52.64152],[-1.83776,52.64164],[-1.8351,52.6423],[-1.835,52.64189],[-1.83644,52.64145],[-1.83967,52.64112],[-1.84059,52.63961],[-1.83991,52.63944],[-1.83989,52.63901],[-1.83747,52.63822],[-1.83751,52.64022],[-1.83546,52.64038],[-1.83416,52.64094],[-1.82983,52.64034],[-1.83003,52.64145],[-1.83273,52.64232],[-1.83194,52.64327],[-1.82697,52.64456],[-1.82339,52.63958],[-1.82202,52.63689],[-1.82135,52.63669],[-1.82299,52.63615],[-1.81948,52.63361],[-1.81667,52.63052],[-1.81728,52.62895],[-1.81706,52.62844],[-1.81833,52.62733],[-1.81843,52.62628],[-1.81888,52.62613],[-1.81872,52.6235],[-1.8182,52.62238],[-1.81955,52.61935],[-1.81951,52.61789],[-1.81841,52.61616],[-1.81774,52.61392],[-1.81788,52.61259],[-1.81912,52.60991],[-1.81874,52.60819],[-1.81906,52.60616],[-1.82781,52.60867],[-1.83194,52.60786],[-1.83747,52.60721],[-1.83813,52.60675],[-1.83761,52.61078],[-1.83934,52.61123],[-1.8446,52.61117],[-1.84991,52.6134],[-1.85164,52.6138],[-1.85233,52.61328],[-1.85532,52.61463],[-1.85623,52.61462],[-1.85828,52.61589],[-1.85964,52.61612],[-1.85968,52.61666],[-1.86133,52.61761],[-1.85982,52.61833],[-1.86037,52.61872],[-1.85984,52.62038],[-1.85934,52.62036],[-1.85883,52.62079],[-1.85896,52.62136],[-1.85806,52.62223],[-1.85885,52.62274],[-1.85854,52.62308],[-1.85889,52.62367],[-1.85749,52.6244],[-1.85646,52.62611],[-1.85578,52.62638],[-1.8558,52.62747],[-1.85441,52.62771],[-1.85397,52.62838],[-1.85553,52.62926],[-1.85496,52.63119],[-1.85583,52.63224],[-1.85804,52.63212],[-1.8612,52.63111],[-1.86908,52.63064],[-1.87145,52.63021],[-1.87633,52.63028],[-1.87812,52.63164],[-1.87737,52.6317],[-1.87725,52.63214],[-1.87883,52.63289],[-1.87961,52.63608],[-1.88022,52.64172],[-1.88004,52.64212],[-1.87824,52.64233],[-1.87942,52.64363],[-1.87944,52.64445],[-1.87768,52.64525],[-1.87542,52.6457],[-1.87411,52.64644],[-1.86598,52.64819],[-1.86248,52.64794]]]}},{"type":"Feature","properties":{"id":"E01029523","name":"E01029523","parent":"E07000194","type":"LSOA","pop":1550,"r":324,"ff":109,"ffd":7032.3,"ffs":0.5166,"g":111,"co":0,"mo":0,"sa":2,"ic":0},"geometry":{"type":"Polygon","coordinates":[[[-1.89013,52.64689],[-1.88744,52.64437],[-1.88533,52.64446],[-1.88356,52.64531],[-1.88126,52.64433],[-1.87944,52.64445],[-1.87942,52.64363],[-1.87824,52.64233],[-1.88004,52.64212],[-1.88022,52.64172],[-1.87961,52.63608],[-1.87883,52.63289],[-1.87725,52.63214],[-1.87737,52.6317],[-1.87812,52.63164],[-1.87633,52.63028],[-1.87145,52.63021],[-1.86908,52.63064],[-1.8612,52.63111],[-1.85804,52.63212],[-1.85583,52.63224],[-1.85496,52.63119],[-1.85553,52.62926],[-1.85397,52.62838],[-1.85441,52.62771],[-1.8558,52.62747],[-1.85578,52.62638],[-1.85646,52.62611],[-1.85749,52.6244],[-1.85889,52.62367],[-1.85854,52.62308],[-1.85885,52.62274],[-1.85806,52.62223],[-1.85896,52.62136],[-1.85883,52.62079],[-1.85934,52.62036],[-1.85984,52.62038],[-1.86037,52.61872],[-1.86241,52.61805],[-1.86603,52.61433],[-1.86654,52.61446],[-1.86685,52.61422],[-1.86596,52.61419],[-1.86635,52.61371],[-1.86804,52.61301],[-1.86973,52.61033],[-1.87064,52.61034],[-1.87193,52.6097],[-1.87364,52.60812],[-1.87484,52.60783],[-1.87669,52.60673],[-1.87863,52.60611],[-1.88003,52.60674],[-1.88529,52.60671],[-1.88692,52.6071],[-1.88661,52.60838],[-1.88502,52.61054],[-1.88565,52.61478],[-1.89278,52.62159],[-1.89433,52.62266],[-1.89784,52.62492],[-1.90469,52.62777],[-1.90689,52.62926],[-1.90959,52.63147],[-1.91598,52.63529],[-1.91413,52.63617],[-1.91367,52.63588],[-1.91312,52.63611],[-1.91274,52.63672],[-1.91315,52.63703],[-1.90801,52.64007],[-1.90751,52.63981],[-1.90753,52.6406],[-1.90588,52.64178],[-1.90647,52.64214],[-1.90508,52.64321],[-1.89877,52.64617],[-1.89383,52.64891],[-1.89013,52.64689]]]}},{"type":"Feature","properties":{"id":"E01029524","name":"E01029524","parent":"E07000194","type":"LSOA","pop":1792,"r":82,"ff":25,"ffd":1395.1,"ffs":0.3788,"g":14,"co":3,"mo":0,"sa":3,"ic":0},"geometry":{"type":"Polygon","coordinates":[[[-1.80571,52.6907],[-1.80177,52.68816],[-1.81805,52.68434],[-1.81822,52.68473],[-1.81879,52.6848],[-1.81867,52.68516],[-1.81729,52.68564],[-1.81646,52.6856],[-1.81668,52.68737],[-1.81621,52.68766],[-1.81689,52.68851],[-1.81747,52.68864],[-1.81704,52.68957],[-1.8164,52.68958],[-1.81616,52.69009],[-1.81665,52.69012],[-1.81669,52.69058],[-1.81551,52.69033],[-1.81499,52.69071],[-1.81275,52.69007],[-1.80955,52.68955],[-1.80884,52.68989],[-1.80789,52.68933],[-1.80749,52.68955],[-1.80792,52.69033],[-1.80772,52.69173],[-1.80644,52.69084],[-1.80571,52.6907]]]}},{"type":"Feature","properties":{"id":"E01029525","name":"E01029525","parent":"E07000194","type":"LSOA","pop":2036,"r":84,"ff":26,"ffd":1277.0,"ffs":0.3824,"g":14,"co":3,"mo":0,"sa":3,"ic":0},"geometry":{"type":"Polygon","coordinates":[[[-1.8131,52.6953],[-1.80772,52.69173],[-1.80792,52.69033],[-1.80749,52.68955],[-1.80789,52.68933],[-1.80884,52.68989],[-1.80955,52.68955],[-1.81275,52.69007],[-1.81499,52.69071],[-1.81551,52.69033],[-1.81669,52.69058],[-1.81665,52.69012],[-1.81616,52.69009],[-1.8164,52.68958],[-1.81704,52.68957],[-1.81747,52.68864],[-1.81862,52.68858],[-1.81943,52.68898],[-1.81975,52.68966],[-1.82024,52.68903],[-1.82078,52.68912],[-1.82258,52.69043],[-1.82304,52.69154],[-1.82298,52.69293],[-1.82076,52.6942],[-1.82004,52.69356],[-1.81927,52.69476],[-1.81813,52.69522],[-1.81974,52.69878],[-1.82075,52.69982],[-1.82301,52.7007],[-1.82206,52.70247],[-1.82089,52.70327],[-1.81724,52.70121],[-1.81674,52.70079],[-1.81712,52.70022],[-1.81688,52.69951],[-1.8152,52.69811],[-1.8131,52.6953]]]}},{"type":"Feature","properties":{"id":"E01029526","name":"E01029526","parent":"E07000194","type":"LSOA","pop":1738,"r":80,"ff":24,"ffd":1380.9,"ffs":0.375,"g":14,"co":3,"mo":0,"sa":3,"ic":0},"geometry":{"type":"Polygon","coordinates":[[[-1.81975,52.68966],[-1.81943,52.68898],[-1.81862,52.68858],[-1.81689,52.68851],[-1.81621,52.68766],[-1.81668,52.68737],[-1.81646,52.6856],[-1.81729,52.68564],[-1.81867,52.68516],[-1.81879,52.6848],[-1.81822,52.68473],[-1.81805,52.68434],[-1.82237,52.68356],[-1.81923,52.68225],[-1.82171,52.68166],[-1.8267,52.67947],[-1.8277,52.68062],[-1.83092,52.68335],[-1.8315,52.68366],[-1.83439,52.68644],[-1.83078,52.68801],[-1.82825,52.68559],[-1.82706,52.68662],[-1.82318,52.68911],[-1.82024,52.68903],[-1.81975,52.68966]]]}},{"type":"Feature","properties":{"id":"E01029527","name":"E01029527","parent":"E07000194","type":"LSOA","pop":1229,"r":232,"ff":69,"ffd":5614.3,"ffs":0.4313,"g":72,"co":0,"mo":0,"sa":2,"ic":0},"geometry":{"type":"Polygon","coordinates":[[[-1.92506,52.6785],[-1.92449,52.67838],[-1.92441,52.67885],[-1.92265,52.67882],[-1.92387,52.67706],[-1.92463,52.67716],[-1.92413,52.67662],[-1.92492,52.67557],[-1.92476,52.675],[-1.92429,52.67488],[-1.92385,52.67557],[-1.92316,52.67509],[-1.92265,52.67554],[-1.92074,52.67506],[-1.92098,52.67443],[-1.92143,52.67447],[-1.92159,52.67414],[-1.91963,52.67412],[-1.91731,52.67433],[-1.91384,52.6752],[-1.91341,52.67412],[-1.92024,52.67255],[-1.92082,52.67343],[-1.92467,52.67394],[-1.92658,52.67365],[-1.92681,52.67382],[-1.92563,52.67456],[-1.92712,52.67499],[-1.92647,52.67775],[-1.92717,52.67803],[-1.92595,52.68059],[-1.92553,52.68053],[-1.92555,52.68013],[-1.92487,52.67988],[-1.92594,52.67911],[-1.92493,52.67894],[-1.92506,52.6785]]]}},{"type":"Feature","properties":{"id":"E01029528","name":"E01029528","parent":"E07000194","type":"LSOA","pop":1422,"r":229,"ff":68,"ffd":4782.0,"ffs":0.4331,"g":72,"co":0,"mo":0,"sa":2,"ic":0},"geometry":{"type":"Polygon","coordinates":[[[-1.91532,52.67911],[-1.91384,52.6752],[-1.91731,52.67433],[-1.91963,52.67412],[-1.92159,52.67414],[-1.92143,52.67447],[-1.92098,52.67443],[-1.92074,52.67506],[-1.92265,52.67554],[-1.92316,52.67509],[-1.92385,52.67557],[-1.92429,52.67488],[-1.92476,52.675],[-1.92492,52.67557],[-1.92413,52.67662],[-1.92463,52.67716],[-1.92387,52.67706],[-1.92265,52.67882],[-1.92441,52.67885],[-1.92449,52.67838],[-1.92506,52.6785],[-1.92493,52.67894],[-1.92594,52.67911],[-1.92487,52.67988],[-1.92555,52.68013],[-1.92553,52.68053],[-1.91532,52.67911]]]}},{"type":"Feature","properties":{"id":"E01029529","name":"E01029529","parent":"E07000194","type":"LSOA","pop":1242,"r":232,"ff":69,"ffd":5555.6,"ffs":0.4313,"g":72,"co":0,"mo":0,"sa":2,"ic":0},"geometry":{"type":"Polygon","coordinates":[[[-1.92255,52.6737],[-1.92082,52.67343],[-1.92024,52.67255],[-1.92749,52.67087],[-1.92957,52.6731],[-1.92914,52.67338],[-1.92681,52.67382],[-1.92658,52.67365],[-1.92467,52.67394],[-1.92255,52.6737]]]}},{"type":"Feature","properties":{"id":"E01029531","name":"E01029531","parent":"E07000194","type":"LSOA","pop":1657,"r":82,"ff":23,"ffd":1388.1,"ffs":0.3485,"g":14,"co":3,"mo":0,"sa":3,"ic":0},"geometry":{"type":"Polygon","coordinates":[[[-1.72036,52.68968],[-1.71774,52.68718],[-1.71832,52.68459],[-1.71679,52.68332],[-1.71628,52.68101],[-1.71394,52.67927],[-1.71497,52.67866],[-1.71551,52.67774],[-1.71712,52.67755],[-1.71671,52.67647],[-1.71704,52.67588],[-1.71844,52.67638],[-1.72104,52.67661],[-1.72126,52.67517],[-1.72254,52.67404],[-1.72301,52.6729],[-1.72282,52.6714],[-1.72115,52.66922],[-1.71903,52.66902],[-1.71869,52.66736],[-1.72036,52.66496],[-1.72061,52.66379],[-1.72538,52.66216],[-1.7266,52.66091],[-1.72618,52.65993],[-1.7277,52.658],[-1.73128,52.65541],[-1.73256,52.65404],[-1.73348,52.65367],[-1.73673,52.65373],[-1.74016,52.65336],[-1.74475,52.65426],[-1.74698,52.65424],[-1.75143,52.65562],[-1.75194,52.65632],[-1.75328,52.65667],[-1.75725,52.66004],[-1.76076,52.66153],[-1.75757,52.66303],[-1.76054,52.66761],[-1.76516,52.66893],[-1.76485,52.66947],[-1.76703,52.66923],[-1.7687,52.66951],[-1.76915,52.66941],[-1.77123,52.67008],[-1.7707,52.6719],[-1.77079,52.673],[-1.77121,52.67303],[-1.77522,52.672],[-1.78041,52.6699],[-1.7843,52.66961],[-1.78242,52.67363],[-1.78101,52.67371],[-1.77921,52.67244],[-1.77866,52.67347],[-1.7769,52.67301],[-1.77448,52.67323],[-1.77632,52.67613],[-1.77056,52.67388],[-1.77058,52.67512],[-1.77129,52.67643],[-1.76873,52.67714],[-1.76584,52.67556],[-1.76508,52.67448],[-1.76403,52.67459],[-1.76371,52.6743],[-1.76415,52.67377],[-1.76293,52.67332],[-1.76223,52.67416],[-1.76088,52.67424],[-1.7615,52.6747],[-1.76069,52.67495],[-1.76076,52.67517],[-1.76015,52.67536],[-1.76037,52.67661],[-1.75828,52.67662],[-1.75784,52.67791],[-1.75454,52.67633],[-1.75513,52.67599],[-1.75546,52.67261],[-1.75513,52.67123],[-1.75545,52.67122],[-1.74974,52.67089],[-1.75016,52.67162],[-1.74989,52.6724],[-1.75075,52.67263],[-1.75048,52.67315],[-1.75081,52.6735],[-1.74999,52.67498],[-1.75021,52.67539],[-1.74923,52.67616],[-1.74955,52.67726],[-1.75121,52.67855],[-1.75125,52.67923],[-1.75206,52.6802],[-1.75306,52.68072],[-1.7533,52.68169],[-1.75242,52.68308],[-1.7536,52.68437],[-1.75594,52.68419],[-1.75623,52.68464],[-1.75442,52.68597],[-1.75178,52.68571],[-1.74982,52.68584],[-1.75167,52.68715],[-1.75063,52.6876],[-1.75038,52.68807],[-1.75321,52.6889],[-1.75251,52.69008],[-1.74955,52.69051],[-1.74957,52.691],[-1.74729,52.69151],[-1.74752,52.69192],[-1.74513,52.69234],[-1.74504,52.68992],[-1.74392,52.68915],[-1.74057,52.68953],[-1.73918,52.68999],[-1.7372,52.69159],[-1.73343,52.69237],[-1.72961,52.69221],[-1.72369,52.69093],[-1.72036,52.68968]]]}},{"type":"Feature","properties":{"id":"E01032899","name":"E01032899","parent":"E07000194","type":"LSOA","pop":1844,"r":85,"ff":27,"ffd":1464.2,"ffs":0.3913,"g":14,"co":3,"mo":0,"sa":3,"ic":0},"geometry":{"type":"Polygon","coordinates":[[[-1.83092,52.68335],[-1.8277,52.68062],[-1.8267,52.67947],[-1.82781,52.67877],[-1.8305,52.67608],[-1.83149,52.67539],[-1.83176,52.67566],[-1.83396,52.67472],[-1.83404,52.67503],[-1.83529,52.67581],[-1.83384,52.67624],[-1.83407,52.677],[-1.83437,52.67664],[-1.83522,52.67718],[-1.83513,52.67783],[-1.83626,52.6784],[-1.83687,52.67925],[-1.83639,52.67954],[-1.83635,52.67985],[-1.8354,52.67984],[-1.83639,52.68039],[-1.83481,52.68083],[-1.83488,52.68119],[-1.83596,52.68079],[-1.83785,52.68199],[-1.83798,52.68128],[-1.84042,52.68237],[-1.84323,52.68434],[-1.84484,52.68656],[-1.84233,52.68728],[-1.84057,52.68898],[-1.83669,52.68771],[-1.83439,52.68644],[-1.8315,52.68366],[-1.83092,52.68335]]]}},{"type":"Feature","properties":{"id":"E01032900","name":"E01032900","parent":"E07000194","type":"LSOA","pop":2073,"r":88,"ff":27,"ffd":1302.5,"ffs":0.375,"g":14,"co":3,"mo":0,"sa":3,"ic":0},"geometry":{"type":"Polygon","coordinates":[[[-1.83522,52.67718],[-1.83437,52.67664],[-1.83407,52.677],[-1.83384,52.67624],[-1.83529,52.67581],[-1.83404,52.67503],[-1.83396,52.67472],[-1.83176,52.67566],[-1.83149,52.67539],[-1.83378,52.67427],[-1.841,52.67209],[-1.84118,52.67329],[-1.84347,52.67599],[-1.84311,52.67707],[-1.84155,52.6768],[-1.84166,52.67766],[-1.83777,52.67872],[-1.8378,52.67895],[-1.83687,52.67925],[-1.83626,52.6784],[-1.83513,52.67783],[-1.83522,52.67718]]]}},{"type":"Feature","properties":{"id":"E01034099","name":"E01034099","parent":"E07000194","type":"LSOA","pop":1855,"r":44,"ff":18,"ffd":970.4,"ffs":0.4737,"g":6,"co":0,"mo":0,"sa":3,"ic":1},"geometry":{"type":"Polygon","coordinates":[[[-1.88082,52.74507],[-1.88171,52.74451],[-1.88616,52.74405],[-1.88744,52.74443],[-1.88802,52.74413],[-1.89161,52.745],[-1.89337,52.74497],[-1.89351,52.74457],[-1.89406,52.7445],[-1.89372,52.74497],[-1.89436,52.74501],[-1.897,52.74152],[-1.89732,52.74033],[-1.89805,52.73962],[-1.91133,52.73893],[-1.91412,52.7416],[-1.91314,52.74177],[-1.91234,52.74321],[-1.91387,52.74596],[-1.91335,52.74698],[-1.91384,52.74727],[-1.91153,52.75079],[-1.91081,52.75119],[-1.91234,52.75242],[-1.9172,52.75466],[-1.91463,52.75594],[-1.91175,52.75833],[-1.91138,52.75905],[-1.91075,52.75861],[-1.90936,52.75843],[-1.90648,52.75637],[-1.89965,52.75414],[-1.89847,52.75208],[-1.89589,52.75165],[-1.89388,52.75079],[-1.88786,52.74902],[-1.88668,52.74825],[-1.8863,52.74671],[-1.88127,52.74604],[-1.88131,52.74575],[-1.88041,52.74532],[-1.88082,52.74507]]]}},{"type":"Feature","properties":{"id":"E01034100","name":"E01034100","parent":"E07000194","type":"LSOA","pop":1566,"r":42,"ff":16,"ffd":1021.7,"ffs":0.4444,"g":6,"co":2,"mo":0,"sa":3,"ic":1},"geometry":{"type":"Polygon","coordinates":[[[-1.88082,52.74507],[-1.87651,52.74363],[-1.8774,52.74336],[-1.87703,52.74228],[-1.87618,52.7424],[-1.87639,52.74207],[-1.87596,52.74213],[-1.87565,52.74177],[-1.87692,52.74179],[-1.87693,52.74151],[-1.87601,52.7411],[-1.87649,52.74068],[-1.87692,52.74132],[-1.87776,52.74123],[-1.87732,52.74042],[-1.87609,52.74002],[-1.8774,52.7391],[-1.87697,52.7389],[-1.87588,52.7392],[-1.87477,52.73858],[-1.87414,52.73867],[-1.87403,52.74028],[-1.87271,52.74029],[-1.87143,52.73984],[-1.87097,52.73814],[-1.86989,52.73802],[-1.869,52.73831],[-1.86896,52.7379],[-1.87084,52.7376],[-1.87087,52.73785],[-1.87168,52.73782],[-1.8716,52.73816],[-1.87357,52.73815],[-1.87681,52.73637],[-1.87843,52.73748],[-1.87974,52.73761],[-1.88044,52.7371],[-1.88028,52.73662],[-1.88128,52.73524],[-1.88396,52.7359],[-1.88858,52.73509],[-1.89096,52.73555],[-1.89249,52.73495],[-1.89479,52.73606],[-1.89859,52.73609],[-1.90179,52.73558],[-1.90242,52.73458],[-1.90736,52.73363],[-1.9105,52.73463],[-1.91142,52.73559],[-1.91228,52.73586],[-1.91244,52.73791],[-1.9149,52.74046],[-1.91401,52.74134],[-1.91133,52.73893],[-1.89805,52.73962],[-1.89732,52.74033],[-1.897,52.74152],[-1.89436,52.74501],[-1.89372,52.74497],[-1.89406,52.7445],[-1.89351,52.74457],[-1.89337,52.74497],[-1.89161,52.745],[-1.88802,52.74413],[-1.88744,52.74443],[-1.88616,52.74405],[-1.88171,52.74451],[-1.88082,52.74507]]]}},{"type":"Feature","properties":{"id":"E01034101","name":"E01034101","parent":"E07000194","type":"LSOA","pop":2168,"r":69,"ff":18,"ffd":830.3,"ffs":0.3396,"g":14,"co":3,"mo":0,"sa":3,"ic":0},"geometry":{"type":"Polygon","coordinates":[[[-1.75985,52.72198],[-1.75933,52.72163],[-1.7568,52.72249],[-1.75474,52.72236],[-1.75402,52.72256],[-1.75333,52.72105],[-1.75887,52.71697],[-1.75998,52.71706],[-1.76055,52.71664],[-1.7611,52.71678],[-1.76227,52.71629],[-1.76282,52.71541],[-1.76407,52.71469],[-1.76362,52.71319],[-1.76256,52.71373],[-1.75746,52.71282],[-1.7513,52.71222],[-1.75669,52.70788],[-1.75577,52.70402],[-1.7573,52.7063],[-1.76411,52.70621],[-1.76548,52.70776],[-1.76767,52.70707],[-1.77135,52.70834],[-1.7742,52.70863],[-1.7718,52.71071],[-1.77254,52.71113],[-1.77207,52.71162],[-1.77252,52.71175],[-1.77197,52.71226],[-1.76942,52.71268],[-1.76963,52.71289],[-1.77069,52.71263],[-1.77139,52.71285],[-1.77123,52.71317],[-1.77223,52.71442],[-1.7722,52.715],[-1.77119,52.71586],[-1.76945,52.71569],[-1.76916,52.71617],[-1.77001,52.71783],[-1.76999,52.71828],[-1.7748,52.72107],[-1.77333,52.72197],[-1.77016,52.7258],[-1.76506,52.72501],[-1.76214,52.72318],[-1.76098,52.72285],[-1.76124,52.7221],[-1.75985,52.72198]]]}},{"type":"Feature","properties":{"id":"E01034102","name":"E01034102","parent":"E07000194","type":"LSOA","pop":2174,"r":70,"ff":19,"ffd":874.0,"ffs":0.3519,"g":14,"co":3,"mo":0,"sa":3,"ic":0},"geometry":{"type":"Polygon","coordinates":[[[-1.76916,52.71617],[-1.76945,52.71569],[-1.77119,52.71586],[-1.7722,52.715],[-1.77223,52.71442],[-1.77123,52.71317],[-1.77139,52.71285],[-1.77069,52.71263],[-1.76963,52.71289],[-1.76942,52.71268],[-1.77197,52.71226],[-1.77252,52.71175],[-1.77207,52.71162],[-1.77254,52.71113],[-1.7718,52.71071],[-1.7742,52.70863],[-1.77519,52.71003],[-1.77822,52.71101],[-1.78301,52.70566],[-1.7766,52.70424],[-1.77678,52.70354],[-1.77607,52.70301],[-1.78015,52.69977],[-1.78829,52.70162],[-1.79248,52.70372],[-1.79426,52.70515],[-1.79699,52.70575],[-1.79935,52.70591],[-1.8035,52.70697],[-1.80486,52.70697],[-1.80585,52.70568],[-1.80991,52.70625],[-1.81027,52.70638],[-1.80988,52.70663],[-1.81045,52.70686],[-1.81034,52.7076],[-1.81087,52.70756],[-1.8107,52.70857],[-1.8112,52.70865],[-1.81141,52.70913],[-1.81104,52.70986],[-1.81155,52.70982],[-1.8111,52.71045],[-1.81011,52.7108],[-1.81057,52.71102],[-1.80975,52.71189],[-1.81026,52.7125],[-1.80975,52.71273],[-1.81103,52.71337],[-1.81093,52.71437],[-1.80957,52.71603],[-1.80891,52.71597],[-1.80887,52.71642],[-1.80633,52.71603],[-1.79722,52.71938],[-1.79582,52.71958],[-1.79516,52.7192],[-1.79559,52.71881],[-1.7945,52.71749],[-1.79088,52.71606],[-1.78446,52.72206],[-1.77363,52.71796],[-1.77001,52.71783],[-1.76916,52.71617]]]}},{"type":"Feature","properties":{"id":"E01034103","name":"E01034103","parent":"E07000194","type":"LSOA","pop":1387,"r":238,"ff":72,"ffd":5191.1,"ffs":0.4417,"g":75,"co":0,"mo":0,"sa":2,"ic":0},"geometry":{"type":"Polygon","coordinates":[[[-1.93838,52.67466],[-1.9375,52.67352],[-1.93476,52.67366],[-1.93478,52.67273],[-1.93411,52.67236],[-1.93329,52.67235],[-1.93311,52.67198],[-1.9338,52.67132],[-1.93325,52.67073],[-1.92981,52.6724],[-1.93035,52.67252],[-1.93,52.67291],[-1.9293,52.67294],[-1.92749,52.67087],[-1.93338,52.6695],[-1.93347,52.66975],[-1.93765,52.67017],[-1.93746,52.67063],[-1.93783,52.67107],[-1.93915,52.67171],[-1.94128,52.67199],[-1.94065,52.67279],[-1.94134,52.67433],[-1.94036,52.67511],[-1.93991,52.6747],[-1.93838,52.67466]]]}},{"type":"Feature","properties":{"id":"E01034104","name":"E01034104","parent":"E07000194","type":"LSOA","pop":2173,"r":238,"ff":72,"ffd":3313.4,"ffs":0.4417,"g":75,"co":0,"mo":0,"sa":2,"ic":0},"geometry":{"type":"Polygon","coordinates":[[[-1.94848,52.68188],[-1.94822,52.68162],[-1.94725,52.68172],[-1.94674,52.68081],[-1.94055,52.68256],[-1.92595,52.68059],[-1.92646,52.67931],[-1.92999,52.67991],[-1.92994,52.67929],[-1.92876,52.67907],[-1.92881,52.67872],[-1.92812,52.67843],[-1.92925,52.67844],[-1.92974,52.67775],[-1.93147,52.67744],[-1.93174,52.6765],[-1.93229,52.67617],[-1.93287,52.67598],[-1.93396,52.67625],[-1.93398,52.67744],[-1.93458,52.67743],[-1.9351,52.67716],[-1.9352,52.67529],[-1.93713,52.67532],[-1.93713,52.67465],[-1.93991,52.6747],[-1.94036,52.67511],[-1.94134,52.67433],[-1.94065,52.67279],[-1.94128,52.67199],[-1.93915,52.67171],[-1.93783,52.67107],[-1.93746,52.67063],[-1.93765,52.67017],[-1.93347,52.66975],[-1.93338,52.6695],[-1.93062,52.67014],[-1.93081,52.66919],[-1.92508,52.66824],[-1.92527,52.66764],[-1.92188,52.66669],[-1.92321,52.66626],[-1.92206,52.66569],[-1.92263,52.66464],[-1.9246,52.66386],[-1.92103,52.66248],[-1.92239,52.65605],[-1.92371,52.65554],[-1.92554,52.65595],[-1.92859,52.6586],[-1.93038,52.65941],[-1.93352,52.66153],[-1.93549,52.65972],[-1.93658,52.66005],[-1.9364,52.65905],[-1.93695,52.65912],[-1.93863,52.65733],[-1.94049,52.65693],[-1.94036,52.65632],[-1.9454,52.65631],[-1.94572,52.65711],[-1.94947,52.65991],[-1.95019,52.65961],[-1.95366,52.66273],[-1.95457,52.66264],[-1.96102,52.66788],[-1.95967,52.67059],[-1.95945,52.67136],[-1.96021,52.67287],[-1.96269,52.67378],[-1.96247,52.67443],[-1.96323,52.67463],[-1.96184,52.67824],[-1.95831,52.67683],[-1.95802,52.67928],[-1.95925,52.68415],[-1.95459,52.68453],[-1.95005,52.6839],[-1.95026,52.68331],[-1.94848,52.68188]]]}},{"type":"Feature","properties":{"id":"E01034105","name":"E01034105","parent":"E07000194","type":"LSOA","pop":2063,"r":82,"ff":25,"ffd":1211.8,"ffs":0.3788,"g":14,"co":3,"mo":0,"sa":3,"ic":0},"geometry":{"type":"Polygon","coordinates":[[[-1.79699,52.70575],[-1.79426,52.70515],[-1.79248,52.70372],[-1.78829,52.70162],[-1.78032,52.69983],[-1.78547,52.69569],[-1.78817,52.69245],[-1.78929,52.6922],[-1.7895,52.69237],[-1.79107,52.69126],[-1.79288,52.69183],[-1.79176,52.69201],[-1.79189,52.69274],[-1.79257,52.69296],[-1.79276,52.6927],[-1.79435,52.69206],[-1.79441,52.6916],[-1.79591,52.69086],[-1.79896,52.69051],[-1.80046,52.6899],[-1.7999,52.68863],[-1.79707,52.68936],[-1.79688,52.68887],[-1.79901,52.68749],[-1.7993,52.6868],[-1.80094,52.68748],[-1.80078,52.68779],[-1.80135,52.68821],[-1.80177,52.68816],[-1.80571,52.6907],[-1.80644,52.69084],[-1.8131,52.6953],[-1.8152,52.69811],[-1.81688,52.69951],[-1.81712,52.70022],[-1.81674,52.70079],[-1.81724,52.70121],[-1.81463,52.70282],[-1.8128,52.70458],[-1.81226,52.70442],[-1.8115,52.70472],[-1.80991,52.70625],[-1.80585,52.70568],[-1.80486,52.70697],[-1.8035,52.70697],[-1.79935,52.70591],[-1.79699,52.70575]]]}},{"type":"Feature","properties":{"id":"E01034106","name":"E01034106","parent":"E07000194","type":"LSOA","pop":1973,"r":81,"ff":23,"ffd":1165.7,"ffs":0.3538,"g":14,"co":3,"mo":0,"sa":3,"ic":0},"geometry":{"type":"Polygon","coordinates":[[[-1.75234,52.70289],[-1.75227,52.70253],[-1.75077,52.70236],[-1.75058,52.70194],[-1.74895,52.70162],[-1.74703,52.70068],[-1.74549,52.70047],[-1.74408,52.70067],[-1.74579,52.6974],[-1.74498,52.695],[-1.74513,52.69234],[-1.74752,52.69192],[-1.74729,52.69151],[-1.74957,52.691],[-1.74955,52.69051],[-1.75251,52.69008],[-1.75321,52.6889],[-1.75038,52.68807],[-1.75063,52.6876],[-1.75167,52.68715],[-1.74982,52.68584],[-1.75178,52.68571],[-1.75442,52.68597],[-1.75623,52.68464],[-1.75594,52.68419],[-1.7536,52.68437],[-1.75242,52.68308],[-1.7533,52.68169],[-1.75306,52.68072],[-1.75206,52.6802],[-1.75125,52.67923],[-1.75121,52.67855],[-1.74955,52.67726],[-1.74923,52.67616],[-1.75021,52.67539],[-1.74999,52.67498],[-1.75081,52.6735],[-1.75048,52.67315],[-1.75075,52.67263],[-1.74989,52.6724],[-1.75016,52.67162],[-1.74974,52.67089],[-1.75545,52.67122],[-1.75513,52.67123],[-1.75546,52.67261],[-1.75513,52.67599],[-1.75454,52.67633],[-1.75784,52.67791],[-1.75828,52.67662],[-1.76037,52.67661],[-1.76015,52.67536],[-1.76076,52.67517],[-1.76069,52.67495],[-1.7615,52.6747],[-1.76088,52.67424],[-1.76223,52.67416],[-1.76293,52.67332],[-1.76415,52.67377],[-1.76371,52.6743],[-1.76403,52.67459],[-1.76508,52.67448],[-1.76584,52.67556],[-1.76873,52.67714],[-1.77129,52.67643],[-1.77058,52.67512],[-1.77056,52.67388],[-1.77632,52.67613],[-1.77448,52.67323],[-1.7769,52.67301],[-1.77866,52.67347],[-1.77921,52.67244],[-1.78101,52.67371],[-1.78242,52.67363],[-1.7843,52.66961],[-1.78041,52.6699],[-1.77522,52.672],[-1.77121,52.67303],[-1.77079,52.673],[-1.7707,52.6719],[-1.77123,52.67008],[-1.76915,52.66941],[-1.7687,52.66951],[-1.76703,52.66923],[-1.76485,52.66947],[-1.76516,52.66893],[-1.76054,52.66761],[-1.75757,52.66303],[-1.76076,52.66153],[-1.76173,52.66049],[-1.76393,52.65918],[-1.76343,52.65859],[-1.76378,52.65806],[-1.76422,52.65824],[-1.76569,52.65738],[-1.76655,52.65726],[-1.7668,52.65677],[-1.76893,52.65616],[-1.77371,52.65558],[-1.78125,52.66082],[-1.78398,52.66249],[-1.78741,52.66383],[-1.79268,52.66859],[-1.79445,52.66977],[-1.80114,52.67192],[-1.80349,52.67177],[-1.80502,52.67248],[-1.8021,52.67458],[-1.7989,52.67731],[-1.79597,52.68033],[-1.79271,52.6847],[-1.79782,52.68604],[-1.7993,52.6868],[-1.79901,52.68749],[-1.79688,52.68887],[-1.79707,52.68936],[-1.7999,52.68863],[-1.80046,52.6899],[-1.79896,52.69051],[-1.79591,52.69086],[-1.79441,52.6916],[-1.79435,52.69206],[-1.79276,52.6927],[-1.79257,52.69296],[-1.79189,52.69274],[-1.79176,52.69201],[-1.79288,52.69183],[-1.79107,52.69126],[-1.7895,52.69237],[-1.78929,52.6922],[-1.78817,52.69245],[-1.78547,52.69569],[-1.78032,52.69983],[-1.78015,52.69977],[-1.78284,52.69741],[-1.77839,52.69581],[-1.77625,52.69548],[-1.77154,52.69756],[-1.77088,52.69857],[-1.76985,52.69917],[-1.76893,52.69918],[-1.76781,52.69983],[-1.76467,52.70048],[-1.76434,52.70105],[-1.76371,52.70096],[-1.76147,52.70211],[-1.7591,52.7026],[-1.75679,52.70256],[-1.7561,52.70284],[-1.75443,52.70281],[-1.75418,52.70316],[-1.75234,52.70289]]]}}]}