{"type":"FeatureCollection","features":[{"type":"Feature","properties":{"id":"E01006412","name":"E01006412","parent":"E08000011","type":"LSOA","pop":1612,"r":411,"ff":122,"ffd":7568.2,"ffs":0.4342,"g":129,"co":2,"mo":2,"sa":0,"ic":0},"geometry":{"type":"Polygon","coordinates":[[[-2.86243,53.44141],[-2.86032,53.44098],[-2.86061,53.44009],[-2.85946,53.43976],[-2.86179,53.43853],[-2.86401,53.43912],[-2.86472,53.43731],[-2.86549,53.43751],[-2.86569,53.43712],[-2.86707,53.43729],[-2.86656,53.43775],[-2.86869,53.43832],[-2.86836,53.43679],[-2.86869,53.43663],[-2.87044,53.43781],[-2.86951,53.43862],[-2.87009,53.43925],[-2.87057,53.43912],[-2.87012,53.4417],[-2.86857,53.44131],[-2.86767,53.44214],[-2.86243,53.44141]]]}},{"type":"Feature","properties":{"id":"E01006413","name":"E01006413","parent":"E08000011","type":"LSOA","pop":1499,"r":436,"ff":130,"ffd":8672.4,"ffs":0.4377,"g":138,"co":2,"mo":2,"sa":0,"ic":0},"geometry":{"type":"Polygon","coordinates":[[[-2.85797,53.44095],[-2.85428,53.43527],[-2.85541,53.43376],[-2.8565,53.43148],[-2.85891,53.43222],[-2.85873,53.4326],[-2.85818,53.43252],[-2.85823,53.43229],[-2.85712,53.43225],[-2.8572,53.43286],[-2.85808,53.43282],[-2.85799,53.43356],[-2.86143,53.43407],[-2.86199,53.43328],[-2.86287,53.43366],[-2.86294,53.43412],[-2.86575,53.43484],[-2.86541,53.43587],[-2.86733,53.43662],[-2.86707,53.43729],[-2.86569,53.43712],[-2.86549,53.43751],[-2.86472,53.43731],[-2.86401,53.43912],[-2.86179,53.43853],[-2.85946,53.43976],[-2.86061,53.44009],[-2.86032,53.44098],[-2.85797,53.44095]]]}},{"type":"Feature","properties":{"id":"E01006414","name":"E01006414","parent":"E08000011","type":"LSOA","pop":1431,"r":457,"ff":143,"ffd":9993.0,"ffs":0.4469,"g":136,"co":2,"mo":0,"sa":0,"ic":0},"geometry":{"type":"Polygon","coordinates":[[[-2.87044,53.43781],[-2.86869,53.43663],[-2.86836,53.43679],[-2.86869,53.43832],[-2.86656,53.43775],[-2.86707,53.43729],[-2.86733,53.43662],[-2.86541,53.43587],[-2.86575,53.43484],[-2.86294,53.43412],[-2.86287,53.43366],[-2.86199,53.43328],[-2.86143,53.43407],[-2.85799,53.43356],[-2.85808,53.43282],[-2.8572,53.43286],[-2.85712,53.43225],[-2.85823,53.43229],[-2.85818,53.43252],[-2.85873,53.4326],[-2.85891,53.43222],[-2.8565,53.43148],[-2.85638,53.43199],[-2.85597,53.42935],[-2.85701,53.42926],[-2.8573,53.42959],[-2.85867,53.42976],[-2.86091,53.4317],[-2.86617,53.43371],[-2.87245,53.437],[-2.87077,53.43833],[-2.87057,53.43912],[-2.87009,53.43925],[-2.86951,53.43862],[-2.87044,53.43781]]]}},{"type":"Feature","properties":{"id":"E01006415","name":"E01006415","parent":"E08000011","type":"LSOA","pop":2052,"r":381,"ff":105,"ffd":5117.0,"ffs":0.4339,"g":136,"co":0,"mo":2,"sa":2,"ic":0},"geometry":{"type":"Polygon","coordinates":[[[-2.88389,53.47316],[-2.88384,53.47292],[-2.88421,53.47288],[-2.88417,53.47125],[-2.88531,53.4715],[-2.88522,53.47213],[-2.88599,53.47205],[-2.88653,53.47094],[-2.88697,53.47091],[-2.88734,53.47095],[-2.88732,53.47303],[-2.88832,53.46965],[-2.8854,53.46835],[-2.88533,53.46767],[-2.89009,53.4684],[-2.89032,53.46717],[-2.88993,53.4668],[-2.88853,53.46615],[-2.88683,53.46666],[-2.88393,53.46628],[-2.88182,53.46383],[-2.89144,53.46312],[-2.89317,53.46352],[-2.89417,53.46439],[-2.89396,53.46467],[-2.89464,53.46495],[-2.89525,53.46592],[-2.89489,53.46603],[-2.89515,53.46714],[-2.90119,53.46942],[-2.90587,53.47017],[-2.90652,53.47109],[-2.90706,53.47123],[-2.90716,53.47196],[-2.90253,53.47302],[-2.90144,53.47275],[-2.90025,53.47319],[-2.90009,53.47361],[-2.89769,53.47478],[-2.89627,53.47597],[-2.89488,53.47761],[-2.89412,53.48048],[-2.88534,53.47868],[-2.88406,53.47789],[-2.88568,53.47555],[-2.88424,53.47482],[-2.88389,53.47316]]]}},{"type":"Feature","properties":{"id":"E01006416","name":"E01006416","parent":"E08000011","type":"LSOA","pop":1512,"r":403,"ff":111,"ffd":7341.3,"ffs":0.437,"g":146,"co":0,"mo":2,"sa":2,"ic":0},"geometry":{"type":"Polygon","coordinates":[[[-2.86023,53.47393],[-2.85346,53.47208],[-2.85094,53.47091],[-2.85067,53.46999],[-2.85209,53.46824],[-2.85183,53.46578],[-2.85129,53.46529],[-2.86873,53.46463],[-2.87411,53.46751],[-2.87521,53.46663],[-2.87592,53.46704],[-2.87629,53.46656],[-2.87724,53.46694],[-2.87701,53.4672],[-2.87641,53.46725],[-2.87601,53.46781],[-2.87619,53.4686],[-2.875,53.46806],[-2.87454,53.46835],[-2.87515,53.46867],[-2.87437,53.4693],[-2.87552,53.47023],[-2.87473,53.4703],[-2.87479,53.47094],[-2.87563,53.47104],[-2.87679,53.47163],[-2.87671,53.47241],[-2.87729,53.4733],[-2.87804,53.47322],[-2.87565,53.47434],[-2.87405,53.47333],[-2.86933,53.47221],[-2.86745,53.4753],[-2.86023,53.47393]]]}},{"type":"Feature","properties":{"id":"E01006417","name":"E01006417","parent":"E08000011","type":"LSOA","pop":1328,"r":407,"ff":116,"ffd":8734.9,"ffs":0.4462,"g":144,"co":0,"mo":2,"sa":2,"ic":0},"geometry":{"type":"Polygon","coordinates":[[[-2.87479,53.47094],[-2.87473,53.4703],[-2.87552,53.47023],[-2.87437,53.4693],[-2.87515,53.46867],[-2.87929,53.46921],[-2.88152,53.46859],[-2.88167,53.46827],[-2.88109,53.46806],[-2.88066,53.46829],[-2.8803,53.468],[-2.88118,53.46774],[-2.88279,53.46836],[-2.88292,53.46874],[-2.88212,53.46957],[-2.88261,53.46985],[-2.88404,53.46993],[-2.88554,53.46894],[-2.88634,53.46908],[-2.88631,53.46863],[-2.88832,53.46965],[-2.88732,53.47303],[-2.88734,53.47095],[-2.88653,53.47094],[-2.88599,53.47205],[-2.88522,53.47213],[-2.88531,53.4715],[-2.88417,53.47125],[-2.88421,53.47288],[-2.88384,53.47292],[-2.88305,53.47123],[-2.8823,53.47063],[-2.87951,53.47217],[-2.87804,53.47322],[-2.87729,53.4733],[-2.87671,53.47241],[-2.87679,53.47163],[-2.87563,53.47104],[-2.87479,53.47094]]]}},{"type":"Feature","properties":{"id":"E01006418","name":"E01006418","parent":"E08000011","type":"LSOA","pop":1312,"r":446,"ff":124,"ffd":9451.2,"ffs":0.4336,"g":157,"co":0,"mo":2,"sa":2,"ic":0},"geometry":{"type":"Polygon","coordinates":[[[-2.88212,53.46957],[-2.88292,53.46874],[-2.88279,53.46836],[-2.88118,53.46774],[-2.8803,53.468],[-2.88066,53.46829],[-2.88109,53.46806],[-2.88167,53.46827],[-2.88152,53.46859],[-2.87929,53.46921],[-2.87515,53.46867],[-2.87454,53.46835],[-2.875,53.46806],[-2.87619,53.4686],[-2.87601,53.46781],[-2.87641,53.46725],[-2.87701,53.4672],[-2.87724,53.46694],[-2.87629,53.46656],[-2.87592,53.46704],[-2.87521,53.46663],[-2.87411,53.46751],[-2.86873,53.46463],[-2.88182,53.46383],[-2.88393,53.46628],[-2.88683,53.46666],[-2.88853,53.46615],[-2.88993,53.4668],[-2.89032,53.46717],[-2.89009,53.4684],[-2.88533,53.46767],[-2.8854,53.46835],[-2.88631,53.46863],[-2.88634,53.46908],[-2.88554,53.46894],[-2.88404,53.46993],[-2.88261,53.46985],[-2.88212,53.46957]]]}},{"type":"Feature","properties":{"id":"E01006419","name":"E01006419","parent":"E08000011","type":"LSOA","pop":1385,"r":238,"ff":77,"ffd":5559.6,"ffs":0.4695,"g":73,"co":2,"mo":0,"sa":0,"ic":1},"geometry":{"type":"Polygon","coordinates":[[[-2.84525,53.37252],[-2.843,53.37022],[-2.84183,53.37034],[-2.84115,53.37009],[-2.84032,53.37049],[-2.83964,53.36992],[-2.83905,53.37041],[-2.83921,53.37083],[-2.83682,53.37082],[-2.83743,53.3696],[-2.83664,53.36974],[-2.83668,53.36929],[-2.83598,53.36874],[-2.83659,53.36841],[-2.83569,53.36773],[-2.8368,53.36703],[-2.83617,53.36647],[-2.83724,53.36571],[-2.8352,53.36517],[-2.83248,53.36488],[-2.83274,53.36448],[-2.83258,53.36413],[-2.84658,53.36206],[-2.84679,53.36256],[-2.84501,53.36363],[-2.84329,53.36545],[-2.84298,53.36628],[-2.84298,53.36848],[-2.84453,53.37067],[-2.84587,53.37194],[-2.8452,53.37221],[-2.84525,53.37252]]]}},{"type":"Feature","properties":{"id":"E01006420","name":"E01006420","parent":"E08000011","type":"LSOA","pop":2977,"r":242,"ff":73,"ffd":2452.1,"ffs":0.4534,"g":80,"co":2,"mo":0,"sa":0,"ic":1},"geometry":{"type":"Polygon","coordinates":[[[-2.78166,53.39585],[-2.78112,53.39548],[-2.77944,53.39535],[-2.7774,53.39444],[-2.77482,53.39394],[-2.775,53.39333],[-2.77707,53.39134],[-2.7779,53.39165],[-2.77857,53.39124],[-2.78284,53.39257],[-2.78431,53.39199],[-2.78496,53.39106],[-2.78842,53.39162],[-2.78842,53.38976],[-2.78688,53.38999],[-2.78775,53.38721],[-2.78632,53.38777],[-2.785,53.38674],[-2.78469,53.38547],[-2.78337,53.38545],[-2.78569,53.38478],[-2.78389,53.38344],[-2.7817,53.38287],[-2.77785,53.38095],[-2.77668,53.38103],[-2.77874,53.37678],[-2.77884,53.37562],[-2.77962,53.37564],[-2.7802,53.37352],[-2.78123,53.37166],[-2.7822,53.3704],[-2.78026,53.36989],[-2.78195,53.36708],[-2.78118,53.36682],[-2.78088,53.36617],[-2.78462,53.36196],[-2.78392,53.36176],[-2.78648,53.35829],[-2.7872,53.35633],[-2.80565,53.35552],[-2.80913,53.35506],[-2.81149,53.35336],[-2.8169,53.35528],[-2.81704,53.35563],[-2.82165,53.35614],[-2.82102,53.35761],[-2.82251,53.35906],[-2.82202,53.36056],[-2.82234,53.3638],[-2.82321,53.3655],[-2.8204,53.36592],[-2.81984,53.36691],[-2.82019,53.3668],[-2.82117,53.36741],[-2.82143,53.36724],[-2.82245,53.36753],[-2.82279,53.36743],[-2.82772,53.3689],[-2.83118,53.37102],[-2.83329,53.3709],[-2.835,53.37154],[-2.83687,53.37256],[-2.83275,53.37448],[-2.83042,53.37401],[-2.82798,53.37414],[-2.82646,53.37313],[-2.82544,53.37356],[-2.82361,53.37314],[-2.82133,53.37422],[-2.82074,53.37396],[-2.82044,53.37414],[-2.82032,53.37553],[-2.82092,53.37617],[-2.82055,53.37637],[-2.82117,53.37714],[-2.82276,53.37728],[-2.82386,53.37784],[-2.82367,53.37829],[-2.82475,53.37939],[-2.82422,53.38005],[-2.82318,53.3801],[-2.82207,53.38062],[-2.82284,53.38227],[-2.82383,53.3828],[-2.82653,53.38523],[-2.82887,53.38598],[-2.82959,53.38688],[-2.83232,53.38796],[-2.83367,53.38906],[-2.83278,53.3899],[-2.83299,53.39051],[-2.83208,53.39194],[-2.83229,53.39288],[-2.82398,53.39038],[-2.82394,53.38869],[-2.82241,53.38807],[-2.8228,53.38786],[-2.81759,53.38574],[-2.81419,53.38407],[-2.81394,53.38368],[-2.81162,53.38387],[-2.809,53.3853],[-2.80898,53.3858],[-2.80511,53.38863],[-2.80494,53.38925],[-2.79569,53.39023],[-2.7947,53.39148],[-2.79394,53.39177],[-2.78849,53.39176],[-2.78834,53.39367],[-2.7866,53.39551],[-2.78532,53.39599],[-2.78495,53.3957],[-2.78412,53.3957],[-2.78131,53.39617],[-2.78166,53.39585]]]}},{"type":"Feature","properties":{"id":"E01006421","name":"E01006421","parent":"E08000011","type":"LSOA","pop":1075,"r":255,"ff":81,"ffd":7534.9,"ffs":0.4576,"g":77,"co":2,"mo":0,"sa":0,"ic":1},"geometry":{"type":"Polygon","coordinates":[[[-2.84386,53.37382],[-2.84373,53.37318],[-2.84261,53.37338],[-2.84242,53.37419],[-2.84133,53.37405],[-2.84181,53.37325],[-2.84146,53.37299],[-2.84064,53.37317],[-2.84025,53.37267],[-2.83963,53.37416],[-2.835,53.37154],[-2.83505,53.37093],[-2.83664,53.36974],[-2.83743,53.3696],[-2.83682,53.37082],[-2.83921,53.37083],[-2.83905,53.37041],[-2.83964,53.36992],[-2.84032,53.37049],[-2.84115,53.37009],[-2.84183,53.37034],[-2.843,53.37022],[-2.84525,53.37252],[-2.8452,53.37221],[-2.84587,53.37194],[-2.84705,53.37308],[-2.84627,53.37378],[-2.8446,53.37439],[-2.84386,53.37382]]]}},{"type":"Feature","properties":{"id":"E01006422","name":"E01006422","parent":"E08000011","type":"LSOA","pop":1231,"r":237,"ff":72,"ffd":5848.9,"ffs":0.45,"g":76,"co":2,"mo":0,"sa":0,"ic":1},"geometry":{"type":"Polygon","coordinates":[[[-2.82891,53.36743],[-2.82924,53.36716],[-2.82634,53.36854],[-2.82279,53.36743],[-2.82245,53.36753],[-2.82143,53.36724],[-2.82117,53.36741],[-2.82019,53.3668],[-2.81984,53.36691],[-2.8204,53.36592],[-2.83258,53.36413],[-2.83274,53.36448],[-2.83248,53.36488],[-2.8352,53.36517],[-2.8322,53.36662],[-2.83296,53.36731],[-2.8296,53.36866],[-2.82891,53.36743]]]}},{"type":"Feature","properties":{"id":"E01006423","name":"E01006423","parent":"E08000011","type":"LSOA","pop":1294,"r":243,"ff":76,"ffd":5873.3,"ffs":0.4551,"g":75,"co":2,"mo":0,"sa":0,"ic":1},"geometry":{"type":"Polygon","coordinates":[[[-2.835,53.37154],[-2.83329,53.3709],[-2.83118,53.37102],[-2.82772,53.3689],[-2.82634,53.36854],[-2.82924,53.36716],[-2.82891,53.36743],[-2.8296,53.36866],[-2.83296,53.36731],[-2.8322,53.36662],[-2.8352,53.36517],[-2.83724,53.36571],[-2.83617,53.36647],[-2.8368,53.36703],[-2.83569,53.36773],[-2.83659,53.36841],[-2.83598,53.36874],[-2.83668,53.36929],[-2.83664,53.36974],[-2.83505,53.37093],[-2.835,53.37154]]]}},{"type":"Feature","properties":{"id":"E01006424","name":"E01006424","parent":"E08000011","type":"LSOA","pop":1914,"r":415,"ff":115,"ffd":6008.4,"ffs":0.4007,"g":126,"co":2,"mo":0,"sa":0,"ic":0},"geometry":{"type":"Polygon","coordinates":[[[-2.82661,53.39981],[-2.82612,53.39975],[-2.82461,53.40083],[-2.81802,53.40233],[-2.8153,53.40328],[-2.81411,53.40245],[-2.81379,53.40162],[-2.81025,53.4005],[-2.80766,53.40019],[-2.80531,53.39886],[-2.80421,53.39778],[-2.80453,53.39591],[-2.80245,53.39525],[-2.80142,53.39517],[-2.7996,53.39565],[-2.79893,53.39649],[-2.7976,53.39677],[-2.79633,53.39641],[-2.79605,53.39667],[-2.79547,53.3964],[-2.79396,53.39638],[-2.79165,53.39581],[-2.7917,53.39606],[-2.79141,53.39592],[-2.79015,53.39636],[-2.78693,53.39591],[-2.78532,53.39599],[-2.7866,53.39551],[-2.78834,53.39367],[-2.78849,53.39176],[-2.79394,53.39177],[-2.7947,53.39148],[-2.79569,53.39023],[-2.80494,53.38925],[-2.80511,53.38863],[-2.80898,53.3858],[-2.809,53.3853],[-2.81162,53.38387],[-2.81394,53.38368],[-2.81419,53.38407],[-2.81759,53.38574],[-2.8228,53.38786],[-2.82241,53.38807],[-2.82394,53.38869],[-2.82398,53.39038],[-2.83229,53.39288],[-2.83326,53.39479],[-2.83366,53.39618],[-2.83399,53.39662],[-2.83457,53.39637],[-2.835,53.39661],[-2.83675,53.3984],[-2.83735,53.39987],[-2.83685,53.40048],[-2.83652,53.40138],[-2.83662,53.40343],[-2.83289,53.40126],[-2.82661,53.39981]]]}},{"type":"Feature","properties":{"id":"E01006425","name":"E01006425","parent":"E08000011","type":"LSOA","pop":1241,"r":285,"ff":94,"ffd":7574.5,"ffs":0.4653,"g":82,"co":2,"mo":0,"sa":0,"ic":1},"geometry":{"type":"Polygon","coordinates":[[[-2.84172,53.38158],[-2.83508,53.38121],[-2.8323,53.3816],[-2.83087,53.38098],[-2.82927,53.38104],[-2.82796,53.38028],[-2.82509,53.38044],[-2.82422,53.38005],[-2.82475,53.37939],[-2.82367,53.37829],[-2.82386,53.37784],[-2.82276,53.37728],[-2.82117,53.37714],[-2.82055,53.37637],[-2.82092,53.37617],[-2.82032,53.37553],[-2.82044,53.37414],[-2.82074,53.37396],[-2.82133,53.37422],[-2.82361,53.37314],[-2.82544,53.37356],[-2.82646,53.37313],[-2.82798,53.37414],[-2.83042,53.37401],[-2.83275,53.37448],[-2.83687,53.37256],[-2.83963,53.37416],[-2.84025,53.37267],[-2.84064,53.37317],[-2.84146,53.37299],[-2.84181,53.37325],[-2.84133,53.37405],[-2.84242,53.37419],[-2.84261,53.37338],[-2.84373,53.37318],[-2.84386,53.37382],[-2.8446,53.37439],[-2.84627,53.37378],[-2.84705,53.37308],[-2.84915,53.3752],[-2.85315,53.37477],[-2.85413,53.37728],[-2.85622,53.37879],[-2.8522,53.38084],[-2.84803,53.38113],[-2.84666,53.38188],[-2.8441,53.38202],[-2.84172,53.38158]]]}},{"type":"Feature","properties":{"id":"E01006426","name":"E01006426","parent":"E08000011","type":"LSOA","pop":1408,"r":242,"ff":74,"ffd":5255.7,"ffs":0.4568,"g":79,"co":2,"mo":0,"sa":0,"ic":1},"geometry":{"type":"Polygon","coordinates":[[[-2.82376,53.36364],[-2.82662,53.36291],[-2.82788,53.36239],[-2.82644,53.36082],[-2.82626,53.36012],[-2.82693,53.36012],[-2.82739,53.35842],[-2.82825,53.35845],[-2.82784,53.35853],[-2.83046,53.35903],[-2.83073,53.35941],[-2.83101,53.35905],[-2.8315,53.35965],[-2.83685,53.36158],[-2.83335,53.36264],[-2.83373,53.36317],[-2.83331,53.3635],[-2.83223,53.36347],[-2.83239,53.36416],[-2.82321,53.3655],[-2.82234,53.3638],[-2.82376,53.36364]]]}},{"type":"Feature","properties":{"id":"E01006427","name":"E01006427","parent":"E08000011","type":"LSOA","pop":1434,"r":248,"ff":77,"ffd":5369.6,"ffs":0.4667,"g":82,"co":2,"mo":0,"sa":0,"ic":1},"geometry":{"type":"Polygon","coordinates":[[[-2.83239,53.36416],[-2.83223,53.36347],[-2.83331,53.3635],[-2.83373,53.36317],[-2.83335,53.36264],[-2.83685,53.36158],[-2.8315,53.35965],[-2.83122,53.35919],[-2.83218,53.35802],[-2.83287,53.35775],[-2.83311,53.3574],[-2.83983,53.35974],[-2.84614,53.3611],[-2.84658,53.36206],[-2.83239,53.36416]]]}},{"type":"Feature","properties":{"id":"E01006428","name":"E01006428","parent":"E08000011","type":"LSOA","pop":1556,"r":248,"ff":75,"ffd":4820.1,"ffs":0.4518,"g":81,"co":2,"mo":0,"sa":0,"ic":1},"geometry":{"type":"Polygon","coordinates":[[[-2.82202,53.36056],[-2.82251,53.35906],[-2.82102,53.35761],[-2.82165,53.35614],[-2.81704,53.35563],[-2.8169,53.35528],[-2.81149,53.35336],[-2.81626,53.35032],[-2.81683,53.349],[-2.81844,53.34801],[-2.8225,53.34777],[-2.82363,53.34797],[-2.8295,53.34686],[-2.82894,53.34714],[-2.82901,53.34759],[-2.82711,53.34806],[-2.82758,53.35113],[-2.82738,53.35288],[-2.82656,53.35289],[-2.82686,53.35406],[-2.82572,53.354],[-2.82503,53.35521],[-2.82358,53.35625],[-2.82454,53.35623],[-2.82452,53.35677],[-2.8249,53.35687],[-2.82802,53.35704],[-2.82795,53.35746],[-2.8265,53.35742],[-2.82701,53.35807],[-2.82611,53.35812],[-2.82556,53.35782],[-2.82484,53.35838],[-2.82739,53.3587],[-2.82693,53.36012],[-2.82626,53.36012],[-2.82644,53.36082],[-2.82788,53.36239],[-2.82445,53.3635],[-2.82234,53.3638],[-2.82202,53.36056]]]}},{"type":"Feature","properties":{"id":"E01006429","name":"E01006429","parent":"E08000011","type":"LSOA","pop":1148,"r":242,"ff":75,"ffd":6533.1,"ffs":0.463,"g":79,"co":2,"mo":0,"sa":0,"ic":1},"geometry":{"type":"Polygon","coordinates":[[[-2.83073,53.35941],[-2.83046,53.35903],[-2.82784,53.35853],[-2.82825,53.35845],[-2.82739,53.35842],[-2.82739,53.3587],[-2.82484,53.35838],[-2.82556,53.35782],[-2.82611,53.35812],[-2.82701,53.35807],[-2.8265,53.35742],[-2.82795,53.35746],[-2.82802,53.35704],[-2.8249,53.35687],[-2.82452,53.35677],[-2.82454,53.35623],[-2.82358,53.35625],[-2.82503,53.35521],[-2.82572,53.354],[-2.82686,53.35406],[-2.82656,53.35289],[-2.82738,53.35288],[-2.82758,53.35113],[-2.82711,53.34806],[-2.82901,53.34759],[-2.82894,53.34714],[-2.8295,53.34686],[-2.83439,53.34668],[-2.84049,53.3474],[-2.84631,53.35401],[-2.83804,53.35425],[-2.83863,53.35469],[-2.83771,53.35524],[-2.83587,53.35511],[-2.83396,53.35571],[-2.83267,53.35686],[-2.83259,53.35721],[-2.83311,53.3574],[-2.83287,53.35775],[-2.83218,53.35802],[-2.83122,53.35919],[-2.83101,53.35905],[-2.83073,53.35941]]]}},{"type":"Feature","properties":{"id":"E01006430","name":"E01006430","parent":"E08000011","type":"LSOA","pop":1548,"r":248,"ff":89,"ffd":5749.4,"ffs":0.4917,"g":66,"co":0,"mo":0,"sa":0,"ic":1},"geometry":{"type":"Polygon","coordinates":[[[-2.84298,53.36848],[-2.84298,53.36628],[-2.84329,53.36545],[-2.84501,53.36363],[-2.84749,53.36523],[-2.85006,53.36522],[-2.84932,53.36448],[-2.85015,53.36359],[-2.85191,53.36518],[-2.85163,53.36566],[-2.85229,53.36551],[-2.85231,53.36497],[-2.8536,53.36494],[-2.85335,53.36668],[-2.85292,53.36759],[-2.85246,53.36749],[-2.85252,53.36716],[-2.85165,53.36704],[-2.85154,53.36733],[-2.85053,53.36746],[-2.84997,53.36659],[-2.84903,53.36646],[-2.84912,53.36779],[-2.84684,53.3681],[-2.84583,53.36964],[-2.84453,53.37067],[-2.84298,53.36848]]]}},{"type":"Feature","properties":{"id":"E01006431","name":"E01006431","parent":"E08000011","type":"LSOA","pop":1901,"r":261,"ff":85,"ffd":4471.3,"ffs":0.4722,"g":80,"co":0,"mo":0,"sa":0,"ic":1},"geometry":{"type":"Polygon","coordinates":[[[-2.85191,53.36518],[-2.85015,53.36359],[-2.84932,53.36448],[-2.85006,53.36522],[-2.84749,53.36523],[-2.84501,53.36363],[-2.84679,53.36256],[-2.84614,53.3611],[-2.8411,53.36004],[-2.84187,53.35828],[-2.84102,53.35732],[-2.8415,53.35716],[-2.84127,53.35671],[-2.8401,53.35618],[-2.84008,53.35581],[-2.8416,53.35626],[-2.84134,53.35593],[-2.84173,53.35586],[-2.8423,53.35629],[-2.84702,53.35482],[-2.85061,53.35957],[-2.85211,53.36127],[-2.85336,53.36329],[-2.8536,53.36494],[-2.85231,53.36497],[-2.85229,53.36551],[-2.85163,53.36566],[-2.85191,53.36518]]]}},{"type":"Feature","properties":{"id":"E01006432","name":"E01006432","parent":"E08000011","type":"LSOA","pop":1584,"r":241,"ff":74,"ffd":4671.7,"ffs":0.4625,"g":80,"co":2,"mo":0,"sa":0,"ic":1},"geometry":{"type":"Polygon","coordinates":[[[-2.83267,53.35686],[-2.83396,53.35571],[-2.83587,53.35511],[-2.83771,53.35524],[-2.83863,53.35469],[-2.83804,53.35425],[-2.84631,53.35401],[-2.84702,53.35482],[-2.8423,53.35629],[-2.84173,53.35586],[-2.84134,53.35593],[-2.8416,53.35626],[-2.84008,53.35581],[-2.8401,53.35618],[-2.84127,53.35671],[-2.8415,53.35716],[-2.84102,53.35732],[-2.84187,53.35828],[-2.8411,53.36004],[-2.83279,53.35732],[-2.83259,53.35721],[-2.83267,53.35686]]]}},{"type":"Feature","properties":{"id":"E01006433","name":"E01006433","parent":"E08000011","type":"LSOA","pop":1595,"r":274,"ff":97,"ffd":6081.5,"ffs":0.4778,"g":70,"co":0,"mo":0,"sa":0,"ic":1},"geometry":{"type":"Polygon","coordinates":[[[-2.84684,53.3681],[-2.84912,53.36779],[-2.84903,53.36646],[-2.84997,53.36659],[-2.85053,53.36746],[-2.85154,53.36733],[-2.85165,53.36704],[-2.85252,53.36716],[-2.85246,53.36749],[-2.85292,53.36759],[-2.85201,53.36949],[-2.85203,53.3698],[-2.85243,53.37223],[-2.85315,53.37477],[-2.84915,53.3752],[-2.84453,53.37067],[-2.84583,53.36964],[-2.84684,53.3681]]]}},{"type":"Feature","properties":{"id":"E01006434","name":"E01006434","parent":"E08000011","type":"LSOA","pop":1571,"r":379,"ff":104,"ffd":6620.0,"ffs":0.4333,"g":136,"co":0,"mo":2,"sa":2,"ic":0},"geometry":{"type":"Polygon","coordinates":[[[-2.87842,53.47771],[-2.87681,53.47707],[-2.87721,53.47675],[-2.87685,53.47562],[-2.87575,53.47556],[-2.87556,53.47588],[-2.87597,53.47669],[-2.87633,53.47665],[-2.8761,53.47702],[-2.87528,53.47714],[-2.8745,53.47673],[-2.87313,53.47753],[-2.87174,53.47668],[-2.87215,53.47634],[-2.87087,53.4761],[-2.87016,53.47699],[-2.86745,53.4753],[-2.86933,53.47221],[-2.87405,53.47333],[-2.87565,53.47434],[-2.87754,53.47353],[-2.87819,53.47439],[-2.87781,53.47521],[-2.8816,53.47588],[-2.88109,53.4761],[-2.88021,53.47765],[-2.87906,53.47742],[-2.87923,53.47844],[-2.87977,53.47856],[-2.8791,53.47904],[-2.87807,53.47823],[-2.87842,53.47771]]]}},{"type":"Feature","properties":{"id":"E01006435","name":"E01006435","parent":"E08000011","type":"LSOA","pop":1499,"r":383,"ff":105,"ffd":7004.7,"ffs":0.4339,"g":139,"co":0,"mo":2,"sa":2,"ic":0},"geometry":{"type":"Polygon","coordinates":[[[-2.87951,53.47217],[-2.8823,53.47063],[-2.88305,53.47123],[-2.88384,53.47292],[-2.88424,53.47482],[-2.88568,53.47555],[-2.88399,53.47822],[-2.88021,53.47765],[-2.88109,53.4761],[-2.8816,53.47588],[-2.87781,53.47521],[-2.87819,53.47439],[-2.87754,53.47353],[-2.87951,53.47217]]]}},{"type":"Feature","properties":{"id":"E01006436","name":"E01006436","parent":"E08000011","type":"LSOA","pop":1480,"r":362,"ff":98,"ffd":6621.6,"ffs":0.4317,"g":133,"co":0,"mo":2,"sa":2,"ic":0},"geometry":{"type":"Polygon","coordinates":[[[-2.87753,53.4812],[-2.87717,53.48061],[-2.87678,53.4809],[-2.87803,53.4815],[-2.8774,53.48197],[-2.87602,53.48156],[-2.87593,53.48109],[-2.87645,53.48069],[-2.87345,53.47934],[-2.87438,53.47888],[-2.87016,53.47699],[-2.87087,53.4761],[-2.87215,53.47634],[-2.87174,53.47668],[-2.87313,53.47753],[-2.8745,53.47673],[-2.87528,53.47714],[-2.8761,53.47702],[-2.87633,53.47665],[-2.87597,53.47669],[-2.87556,53.47588],[-2.87575,53.47556],[-2.87685,53.47562],[-2.87721,53.47675],[-2.87681,53.47707],[-2.87842,53.47771],[-2.87807,53.47823],[-2.8791,53.47904],[-2.87896,53.47998],[-2.88148,53.48054],[-2.88272,53.47994],[-2.88134,53.4794],[-2.88187,53.47892],[-2.88356,53.47974],[-2.88451,53.47976],[-2.88478,53.48003],[-2.88205,53.48103],[-2.88127,53.48214],[-2.88223,53.48243],[-2.88224,53.48276],[-2.87983,53.48234],[-2.87843,53.48169],[-2.87836,53.48126],[-2.87753,53.4812]]]}},{"type":"Feature","properties":{"id":"E01006437","name":"E01006437","parent":"E08000011","type":"LSOA","pop":1471,"r":331,"ff":92,"ffd":6254.2,"ffs":0.434,"g":117,"co":2,"mo":2,"sa":2,"ic":0},"geometry":{"type":"Polygon","coordinates":[[[-2.87471,53.48409],[-2.87478,53.48243],[-2.87593,53.48109],[-2.87602,53.48156],[-2.8774,53.48197],[-2.87803,53.4815],[-2.87678,53.4809],[-2.87717,53.48061],[-2.87753,53.4812],[-2.87836,53.48126],[-2.87843,53.48169],[-2.87983,53.48234],[-2.88224,53.48276],[-2.88223,53.48243],[-2.88127,53.48214],[-2.88205,53.48103],[-2.88478,53.48003],[-2.88451,53.47976],[-2.88356,53.47974],[-2.88187,53.47892],[-2.88134,53.4794],[-2.88272,53.47994],[-2.88148,53.48054],[-2.87896,53.47998],[-2.8791,53.47904],[-2.87977,53.47856],[-2.87923,53.47844],[-2.87906,53.47742],[-2.88399,53.47822],[-2.88406,53.47789],[-2.88534,53.47868],[-2.89412,53.48048],[-2.89303,53.48212],[-2.89103,53.48307],[-2.88931,53.48364],[-2.88472,53.48439],[-2.88307,53.48445],[-2.88003,53.48415],[-2.87471,53.48409]]]}},{"type":"Feature","properties":{"id":"E01006438","name":"E01006438","parent":"E08000011","type":"LSOA","pop":1172,"r":369,"ff":100,"ffd":8532.4,"ffs":0.4132,"g":125,"co":2,"mo":2,"sa":2,"ic":0},"geometry":{"type":"Polygon","coordinates":[[[-2.83639,53.46606],[-2.83719,53.46007],[-2.84055,53.46026],[-2.84468,53.45932],[-2.84454,53.45752],[-2.84259,53.45751],[-2.84198,53.45587],[-2.84484,53.45476],[-2.84272,53.45098],[-2.84495,53.45082],[-2.84467,53.45043],[-2.84548,53.45019],[-2.84655,53.44913],[-2.84882,53.44963],[-2.85064,53.44918],[-2.85132,53.44939],[-2.85103,53.44978],[-2.85263,53.44968],[-2.85267,53.44993],[-2.85141,53.45054],[-2.84832,53.45103],[-2.84903,53.45236],[-2.85102,53.45333],[-2.85076,53.45379],[-2.85121,53.45411],[-2.85224,53.45396],[-2.85394,53.45436],[-2.85283,53.45831],[-2.85391,53.45839],[-2.85387,53.45739],[-2.85488,53.45766],[-2.85449,53.45869],[-2.85515,53.45923],[-2.85747,53.45792],[-2.86018,53.45739],[-2.86292,53.45792],[-2.86315,53.45899],[-2.86465,53.45916],[-2.86364,53.46088],[-2.86589,53.46137],[-2.86664,53.46214],[-2.86841,53.46197],[-2.86857,53.46086],[-2.87296,53.46155],[-2.87404,53.46229],[-2.87293,53.4626],[-2.87309,53.46422],[-2.87004,53.46436],[-2.86989,53.46352],[-2.86901,53.46461],[-2.83639,53.46606]]]}},{"type":"Feature","properties":{"id":"E01006439","name":"E01006439","parent":"E08000011","type":"LSOA","pop":1974,"r":375,"ff":102,"ffd":5167.2,"ffs":0.413,"g":127,"co":2,"mo":2,"sa":2,"ic":0},"geometry":{"type":"Polygon","coordinates":[[[-2.80627,53.46322],[-2.80694,53.45592],[-2.80515,53.45557],[-2.80528,53.45368],[-2.80424,53.45141],[-2.80024,53.4491],[-2.7952,53.44368],[-2.79511,53.44309],[-2.79682,53.44061],[-2.79897,53.44134],[-2.80377,53.44139],[-2.80498,53.441],[-2.80541,53.44006],[-2.80787,53.44142],[-2.80759,53.44184],[-2.81031,53.44105],[-2.8109,53.44134],[-2.81133,53.44027],[-2.81567,53.44123],[-2.81774,53.443],[-2.81924,53.44363],[-2.82194,53.44411],[-2.82346,53.44405],[-2.82535,53.4433],[-2.829,53.43987],[-2.82541,53.43888],[-2.82483,53.43606],[-2.82541,53.43431],[-2.8262,53.43356],[-2.83369,53.43371],[-2.83167,53.43164],[-2.82946,53.43072],[-2.82963,53.43012],[-2.83337,53.43028],[-2.83414,53.4281],[-2.84137,53.42833],[-2.8413,53.4294],[-2.83979,53.42913],[-2.83879,53.42944],[-2.8386,53.43019],[-2.84489,53.43087],[-2.84554,53.43167],[-2.84734,53.43184],[-2.84889,53.43241],[-2.84913,53.43221],[-2.85189,53.43366],[-2.85191,53.4347],[-2.85257,53.43583],[-2.85371,53.43573],[-2.8539,53.43492],[-2.85428,53.43527],[-2.85797,53.44095],[-2.86032,53.44098],[-2.86767,53.44214],[-2.86857,53.44131],[-2.87012,53.4417],[-2.87063,53.44249],[-2.86999,53.44365],[-2.86827,53.44474],[-2.86837,53.44653],[-2.8676,53.44862],[-2.86787,53.44929],[-2.86961,53.45055],[-2.87129,53.45272],[-2.87415,53.45399],[-2.87489,53.45465],[-2.88338,53.45812],[-2.88816,53.46066],[-2.88946,53.46102],[-2.89008,53.4615],[-2.88998,53.46241],[-2.89106,53.46266],[-2.89144,53.46312],[-2.87527,53.46433],[-2.86901,53.46461],[-2.86989,53.46352],[-2.87004,53.46436],[-2.87309,53.46422],[-2.87293,53.4626],[-2.87404,53.46229],[-2.87296,53.46155],[-2.86857,53.46086],[-2.86841,53.46197],[-2.86664,53.46214],[-2.86589,53.46137],[-2.86364,53.46088],[-2.86465,53.45916],[-2.86315,53.45899],[-2.86292,53.45792],[-2.86018,53.45739],[-2.85747,53.45792],[-2.85515,53.45923],[-2.85449,53.45869],[-2.85488,53.45766],[-2.85387,53.45739],[-2.85391,53.45839],[-2.85283,53.45831],[-2.85394,53.45436],[-2.85224,53.45396],[-2.85121,53.45411],[-2.85076,53.45379],[-2.85102,53.45333],[-2.84903,53.45236],[-2.84832,53.45103],[-2.85141,53.45054],[-2.85267,53.44993],[-2.85263,53.44968],[-2.85103,53.44978],[-2.85132,53.44939],[-2.85064,53.44918],[-2.84882,53.44963],[-2.84655,53.44913],[-2.84548,53.45019],[-2.84467,53.45043],[-2.84495,53.45082],[-2.84272,53.45098],[-2.84484,53.45476],[-2.84198,53.45587],[-2.84259,53.45751],[-2.84454,53.45752],[-2.84468,53.45932],[-2.84055,53.46026],[-2.83719,53.46007],[-2.83639,53.46606],[-2.81867,53.4669],[-2.80451,53.46721],[-2.80627,53.46322]]]}},{"type":"Feature","properties":{"id":"E01006440","name":"E01006440","parent":"E08000011","type":"LSOA","pop":1540,"r":455,"ff":136,"ffd":8831.2,"ffs":0.4224,"g":131,"co":0,"mo":0,"sa":0,"ic":0},"geometry":{"type":"Polygon","coordinates":[[[-2.81567,53.44123],[-2.81133,53.44027],[-2.8109,53.44134],[-2.81031,53.44105],[-2.80759,53.44184],[-2.80787,53.44142],[-2.80541,53.44006],[-2.80486,53.43836],[-2.80297,53.43755],[-2.80032,53.43716],[-2.79974,53.43636],[-2.79891,53.43603],[-2.79691,53.43606],[-2.79775,53.43376],[-2.79734,53.43366],[-2.81024,53.43329],[-2.8164,53.43293],[-2.82358,53.43107],[-2.82292,53.42903],[-2.8233,53.42735],[-2.83155,53.42466],[-2.83232,53.42552],[-2.83494,53.42641],[-2.83863,53.42644],[-2.84042,53.42579],[-2.84163,53.42727],[-2.84238,53.4274],[-2.84204,53.42808],[-2.84144,53.42804],[-2.84137,53.42833],[-2.83414,53.4281],[-2.83337,53.43028],[-2.82963,53.43012],[-2.82946,53.43072],[-2.83167,53.43164],[-2.83369,53.43371],[-2.8262,53.43356],[-2.82541,53.43431],[-2.82483,53.43606],[-2.82541,53.43888],[-2.829,53.43987],[-2.82535,53.4433],[-2.82346,53.44405],[-2.82194,53.44411],[-2.81924,53.44363],[-2.81774,53.443],[-2.81567,53.44123]]]}},{"type":"Feature","properties":{"id":"E01006442","name":"E01006442","parent":"E08000011","type":"LSOA","pop":1512,"r":461,"ff":142,"ffd":9391.5,"ffs":0.4356,"g":133,"co":0,"mo":0,"sa":0,"ic":0},"geometry":{"type":"Polygon","coordinates":[[[-2.84556,53.4219],[-2.84485,53.42178],[-2.84238,53.42256],[-2.84247,53.42164],[-2.8445,53.42127],[-2.84411,53.42123],[-2.84371,53.42046],[-2.84428,53.41997],[-2.84413,53.41958],[-2.84543,53.41988],[-2.84589,53.41909],[-2.8479,53.41869],[-2.84865,53.42045],[-2.8485,53.42118],[-2.85037,53.42431],[-2.85278,53.42695],[-2.84815,53.42749],[-2.84803,53.42707],[-2.84713,53.42668],[-2.84726,53.42479],[-2.84703,53.42435],[-2.84544,53.42426],[-2.84538,53.42346],[-2.84587,53.42302],[-2.84537,53.42252],[-2.84556,53.4219]]]}},{"type":"Feature","properties":{"id":"E01006443","name":"E01006443","parent":"E08000011","type":"LSOA","pop":1550,"r":446,"ff":140,"ffd":9032.3,"ffs":0.4375,"g":124,"co":0,"mo":0,"sa":0,"ic":0},"geometry":{"type":"Polygon","coordinates":[[[-2.84247,53.42097],[-2.84211,53.41834],[-2.84102,53.41655],[-2.84045,53.41417],[-2.84201,53.41398],[-2.84363,53.4131],[-2.84401,53.41331],[-2.84458,53.41251],[-2.84548,53.41269],[-2.84514,53.41317],[-2.84617,53.41348],[-2.84626,53.4137],[-2.84569,53.4138],[-2.8479,53.41869],[-2.84589,53.41909],[-2.84543,53.41988],[-2.84413,53.41958],[-2.84428,53.41997],[-2.84371,53.42046],[-2.84411,53.42123],[-2.8445,53.42127],[-2.84247,53.42164],[-2.84247,53.42097]]]}},{"type":"Feature","properties":{"id":"E01006444","name":"E01006444","parent":"E08000011","type":"LSOA","pop":1529,"r":455,"ff":140,"ffd":9156.3,"ffs":0.4348,"g":131,"co":0,"mo":0,"sa":0,"ic":0},"geometry":{"type":"Polygon","coordinates":[[[-2.84163,53.42727],[-2.84042,53.42579],[-2.83863,53.42644],[-2.8375,53.42644],[-2.83736,53.42547],[-2.83783,53.4252],[-2.83847,53.42416],[-2.84031,53.42486],[-2.8405,53.42449],[-2.83981,53.42412],[-2.83987,53.42294],[-2.84073,53.42281],[-2.84099,53.42331],[-2.84158,53.42341],[-2.8417,53.42425],[-2.84218,53.42439],[-2.84236,53.42321],[-2.84307,53.42331],[-2.8433,53.42227],[-2.84485,53.42178],[-2.84556,53.4219],[-2.84537,53.42252],[-2.84587,53.42302],[-2.84538,53.42346],[-2.84544,53.42426],[-2.84703,53.42435],[-2.84726,53.42479],[-2.84713,53.42668],[-2.84504,53.42686],[-2.84238,53.4274],[-2.84163,53.42727]]]}},{"type":"Feature","properties":{"id":"E01006445","name":"E01006445","parent":"E08000011","type":"LSOA","pop":1303,"r":444,"ff":137,"ffd":10514.2,"ffs":0.4322,"g":125,"co":0,"mo":0,"sa":0,"ic":0},"geometry":{"type":"Polygon","coordinates":[[[-2.83147,53.42452],[-2.83368,53.42349],[-2.84247,53.42155],[-2.84238,53.42256],[-2.8433,53.42227],[-2.84307,53.42331],[-2.84236,53.42321],[-2.84218,53.42439],[-2.8417,53.42425],[-2.84158,53.42341],[-2.84099,53.42331],[-2.84073,53.42281],[-2.83987,53.42294],[-2.83981,53.42412],[-2.8405,53.42449],[-2.84031,53.42486],[-2.83847,53.42416],[-2.83783,53.4252],[-2.83736,53.42547],[-2.8375,53.42644],[-2.83494,53.42641],[-2.8338,53.42606],[-2.83232,53.42552],[-2.83147,53.42452]]]}},{"type":"Feature","properties":{"id":"E01006446","name":"E01006446","parent":"E08000011","type":"LSOA","pop":1540,"r":335,"ff":93,"ffd":6039.0,"ffs":0.4408,"g":122,"co":2,"mo":2,"sa":2,"ic":0},"geometry":{"type":"Polygon","coordinates":[[[-2.84805,53.48804],[-2.84963,53.48338],[-2.84812,53.4832],[-2.84839,53.48233],[-2.84653,53.4821],[-2.84623,53.48297],[-2.84465,53.48277],[-2.84451,53.48401],[-2.84349,53.48828],[-2.84442,53.48413],[-2.82557,53.48278],[-2.82496,53.48521],[-2.82295,53.48269],[-2.81679,53.47788],[-2.81864,53.47043],[-2.81867,53.4669],[-2.85129,53.46529],[-2.85183,53.46578],[-2.85209,53.46824],[-2.85067,53.46999],[-2.85094,53.47091],[-2.85346,53.47208],[-2.86023,53.47393],[-2.86745,53.4753],[-2.87016,53.47699],[-2.87438,53.47888],[-2.87345,53.47934],[-2.87645,53.48069],[-2.87553,53.48142],[-2.87478,53.48243],[-2.87471,53.48409],[-2.87377,53.48406],[-2.87245,53.48315],[-2.87188,53.4831],[-2.87091,53.48459],[-2.8719,53.48482],[-2.87201,53.48512],[-2.86922,53.48526],[-2.86918,53.48631],[-2.86859,53.48641],[-2.86875,53.48685],[-2.86836,53.48702],[-2.86864,53.4873],[-2.86819,53.48746],[-2.86897,53.48489],[-2.86589,53.48544],[-2.86186,53.48533],[-2.86121,53.48632],[-2.85457,53.48554],[-2.85326,53.48935],[-2.84859,53.48877],[-2.84805,53.48804]]]}},{"type":"Feature","properties":{"id":"E01006447","name":"E01006447","parent":"E08000011","type":"LSOA","pop":1446,"r":272,"ff":81,"ffd":5601.7,"ffs":0.4655,"g":96,"co":2,"mo":2,"sa":2,"ic":0},"geometry":{"type":"Polygon","coordinates":[[[-2.87552,53.48929],[-2.87377,53.48897],[-2.87493,53.48897],[-2.87521,53.48846],[-2.87485,53.48812],[-2.87422,53.48811],[-2.8752,53.48628],[-2.87481,53.48593],[-2.8755,53.48462],[-2.87467,53.48461],[-2.87471,53.4841],[-2.88207,53.48428],[-2.88015,53.4887],[-2.87865,53.4901],[-2.87552,53.48929]]]}},{"type":"Feature","properties":{"id":"E01006448","name":"E01006448","parent":"E08000011","type":"LSOA","pop":2239,"r":274,"ff":75,"ffd":3349.7,"ffs":0.4335,"g":99,"co":2,"mo":2,"sa":2,"ic":0},"geometry":{"type":"Polygon","coordinates":[[[-2.844,53.49027],[-2.84445,53.48902],[-2.84349,53.48828],[-2.84465,53.48277],[-2.84623,53.48297],[-2.84653,53.4821],[-2.84839,53.48233],[-2.84812,53.4832],[-2.84963,53.48338],[-2.84805,53.48804],[-2.84859,53.48877],[-2.85326,53.48935],[-2.85457,53.48554],[-2.86121,53.48632],[-2.86186,53.48533],[-2.86589,53.48544],[-2.86897,53.48489],[-2.86819,53.48746],[-2.86864,53.4873],[-2.86836,53.48702],[-2.86875,53.48685],[-2.86859,53.48641],[-2.86918,53.48631],[-2.86922,53.48526],[-2.87201,53.48512],[-2.8719,53.48482],[-2.87091,53.48459],[-2.87188,53.4831],[-2.87245,53.48315],[-2.87377,53.48406],[-2.87471,53.48409],[-2.87467,53.48461],[-2.8755,53.48462],[-2.87481,53.48593],[-2.8752,53.48628],[-2.87422,53.48811],[-2.87485,53.48812],[-2.87521,53.48846],[-2.87493,53.48897],[-2.87377,53.48897],[-2.87552,53.48929],[-2.87475,53.49153],[-2.87221,53.49117],[-2.86694,53.48935],[-2.86513,53.4905],[-2.86147,53.49103],[-2.85939,53.49202],[-2.85027,53.49325],[-2.84818,53.49202],[-2.844,53.49027]]]}},{"type":"Feature","properties":{"id":"E01006449","name":"E01006449","parent":"E08000011","type":"LSOA","pop":1727,"r":471,"ff":155,"ffd":8975.1,"ffs":0.4655,"g":136,"co":0,"mo":0,"sa":0,"ic":0},"geometry":{"type":"Polygon","coordinates":[[[-2.85911,53.415],[-2.85883,53.41458],[-2.85531,53.41447],[-2.85481,53.41412],[-2.85568,53.41004],[-2.86219,53.41017],[-2.86273,53.41143],[-2.86162,53.41167],[-2.86353,53.41375],[-2.86512,53.41371],[-2.8645,53.41475],[-2.86269,53.41462],[-2.8626,53.41503],[-2.86117,53.41547],[-2.86118,53.4158],[-2.85954,53.41649],[-2.85952,53.41687],[-2.85904,53.41681],[-2.85855,53.41614],[-2.85957,53.41584],[-2.85903,53.41532],[-2.8596,53.41528],[-2.85961,53.41504],[-2.85911,53.415]]]}},{"type":"Feature","properties":{"id":"E01006450","name":"E01006450","parent":"E08000011","type":"LSOA","pop":1857,"r":469,"ff":151,"ffd":8131.4,"ffs":0.4548,"g":135,"co":0,"mo":0,"sa":0,"ic":0},"geometry":{"type":"Polygon","coordinates":[[[-2.8624,53.42101],[-2.86246,53.42035],[-2.86275,53.41997],[-2.86346,53.42002],[-2.86305,53.41976],[-2.86347,53.41944],[-2.86299,53.41929],[-2.86314,53.41887],[-2.86262,53.41868],[-2.86168,53.4193],[-2.86185,53.41971],[-2.85965,53.4203],[-2.8592,53.42025],[-2.85956,53.41971],[-2.86069,53.41931],[-2.85978,53.4183],[-2.85925,53.41811],[-2.85661,53.41899],[-2.85539,53.41838],[-2.85408,53.4187],[-2.85335,53.4183],[-2.85501,53.41628],[-2.8569,53.41684],[-2.85952,53.41687],[-2.85954,53.41649],[-2.86118,53.4158],[-2.86117,53.41547],[-2.8626,53.41503],[-2.86269,53.41462],[-2.86444,53.41474],[-2.86871,53.41557],[-2.86601,53.4183],[-2.8662,53.41905],[-2.86764,53.41971],[-2.86801,53.42054],[-2.86478,53.42112],[-2.86454,53.42049],[-2.86382,53.42028],[-2.86248,53.42055],[-2.86306,53.42098],[-2.8624,53.42101]]]}},{"type":"Feature","properties":{"id":"E01006451","name":"E01006451","parent":"E08000011","type":"LSOA","pop":1390,"r":443,"ff":143,"ffd":10287.8,"ffs":0.4497,"g":123,"co":0,"mo":0,"sa":0,"ic":0},"geometry":{"type":"Polygon","coordinates":[[[-2.851,53.41816],[-2.84992,53.41619],[-2.84928,53.41612],[-2.84946,53.41468],[-2.84875,53.41448],[-2.84855,53.41628],[-2.84858,53.41562],[-2.84808,53.41559],[-2.84772,53.41469],[-2.84814,53.41431],[-2.84796,53.41366],[-2.84617,53.41348],[-2.84514,53.41317],[-2.84548,53.41269],[-2.85498,53.41413],[-2.85531,53.41447],[-2.85883,53.41458],[-2.85911,53.415],[-2.85961,53.41504],[-2.8596,53.41528],[-2.85903,53.41532],[-2.85957,53.41584],[-2.85855,53.41614],[-2.85904,53.41681],[-2.8569,53.41684],[-2.85501,53.41628],[-2.85374,53.4177],[-2.85212,53.41722],[-2.85207,53.4177],[-2.851,53.41816]]]}},{"type":"Feature","properties":{"id":"E01006452","name":"E01006452","parent":"E08000011","type":"LSOA","pop":1448,"r":456,"ff":148,"ffd":10221.0,"ffs":0.4498,"g":125,"co":0,"mo":0,"sa":0,"ic":0},"geometry":{"type":"Polygon","coordinates":[[[-2.8531,53.42029],[-2.84865,53.42045],[-2.84569,53.4138],[-2.84626,53.4137],[-2.84617,53.41348],[-2.84796,53.41366],[-2.84814,53.41431],[-2.84772,53.41469],[-2.84808,53.41559],[-2.84858,53.41562],[-2.84855,53.41628],[-2.84875,53.41448],[-2.84946,53.41468],[-2.84928,53.41612],[-2.84992,53.41619],[-2.851,53.41816],[-2.85207,53.4177],[-2.85212,53.41722],[-2.85374,53.4177],[-2.85335,53.4183],[-2.85408,53.4187],[-2.85342,53.41962],[-2.8563,53.41993],[-2.85596,53.42018],[-2.85631,53.4203],[-2.85552,53.42074],[-2.8531,53.42029]]]}},{"type":"Feature","properties":{"id":"E01006453","name":"E01006453","parent":"E08000011","type":"LSOA","pop":1240,"r":460,"ff":150,"ffd":12096.8,"ffs":0.4601,"g":132,"co":0,"mo":0,"sa":0,"ic":0},"geometry":{"type":"Polygon","coordinates":[[[-2.86246,53.42035],[-2.8624,53.42101],[-2.86306,53.42098],[-2.86248,53.42055],[-2.86382,53.42028],[-2.86454,53.42049],[-2.86478,53.42112],[-2.86089,53.42186],[-2.85951,53.4218],[-2.85552,53.42074],[-2.85631,53.4203],[-2.85596,53.42018],[-2.8563,53.41993],[-2.85342,53.41962],[-2.85408,53.4187],[-2.85539,53.41838],[-2.85661,53.41899],[-2.85925,53.41811],[-2.85978,53.4183],[-2.86069,53.41931],[-2.85956,53.41971],[-2.8592,53.42025],[-2.85965,53.4203],[-2.86185,53.41971],[-2.86168,53.4193],[-2.86262,53.41868],[-2.86314,53.41887],[-2.86299,53.41929],[-2.86347,53.41944],[-2.86305,53.41976],[-2.86346,53.42002],[-2.86275,53.41997],[-2.86246,53.42035]]]}},{"type":"Feature","properties":{"id":"E01006454","name":"E01006454","parent":"E08000011","type":"LSOA","pop":1646,"r":302,"ff":79,"ffd":4799.5,"ffs":0.4093,"g":106,"co":0,"mo":2,"sa":0,"ic":0},"geometry":{"type":"Polygon","coordinates":[[[-2.89654,53.49347],[-2.89768,53.49231],[-2.89803,53.49253],[-2.89979,53.49113],[-2.90228,53.49112],[-2.90299,53.49078],[-2.90179,53.48992],[-2.90047,53.49016],[-2.90087,53.49011],[-2.90095,53.49046],[-2.89934,53.49062],[-2.89859,53.48911],[-2.89532,53.48929],[-2.89616,53.48849],[-2.89577,53.48782],[-2.89438,53.48799],[-2.89456,53.48635],[-2.89507,53.48621],[-2.8947,53.48696],[-2.89598,53.48747],[-2.8979,53.48698],[-2.89744,53.48659],[-2.89783,53.48608],[-2.8992,53.48649],[-2.90036,53.48602],[-2.9003,53.48647],[-2.89987,53.48654],[-2.90047,53.48705],[-2.89807,53.48776],[-2.90134,53.48869],[-2.90142,53.48906],[-2.90276,53.48928],[-2.90322,53.48907],[-2.90589,53.48985],[-2.90682,53.49032],[-2.90515,53.49203],[-2.90371,53.49172],[-2.89944,53.49176],[-2.89978,53.49239],[-2.89928,53.49375],[-2.89794,53.49446],[-2.89794,53.49486],[-2.89719,53.49502],[-2.89544,53.49454],[-2.89654,53.49347]]]}},{"type":"Feature","properties":{"id":"E01006455","name":"E01006455","parent":"E08000011","type":"LSOA","pop":1843,"r":371,"ff":100,"ffd":5425.9,"ffs":0.4202,"g":130,"co":0,"mo":2,"sa":2,"ic":0},"geometry":{"type":"Polygon","coordinates":[[[-2.8964,53.48657],[-2.89599,53.48524],[-2.89365,53.48476],[-2.89299,53.48409],[-2.8907,53.48343],[-2.89103,53.48307],[-2.89303,53.48212],[-2.89412,53.48048],[-2.89488,53.47761],[-2.89618,53.47608],[-2.89927,53.47703],[-2.89761,53.4801],[-2.90181,53.48093],[-2.89953,53.48511],[-2.90057,53.48532],[-2.90036,53.48602],[-2.8992,53.48649],[-2.89783,53.48608],[-2.8971,53.48678],[-2.8964,53.48657]]]}},{"type":"Feature","properties":{"id":"E01006456","name":"E01006456","parent":"E08000011","type":"LSOA","pop":1549,"r":299,"ff":85,"ffd":5487.4,"ffs":0.4337,"g":101,"co":0,"mo":2,"sa":0,"ic":0},"geometry":{"type":"Polygon","coordinates":[[[-2.90589,53.48985],[-2.90322,53.48907],[-2.90276,53.48928],[-2.90142,53.48906],[-2.90134,53.48869],[-2.89807,53.48776],[-2.90047,53.48705],[-2.89987,53.48654],[-2.9003,53.48647],[-2.90057,53.48532],[-2.90208,53.48597],[-2.90179,53.48668],[-2.90591,53.48547],[-2.91127,53.48323],[-2.91699,53.47974],[-2.91956,53.48207],[-2.91377,53.48267],[-2.91218,53.48366],[-2.91209,53.48449],[-2.91028,53.48719],[-2.90864,53.4891],[-2.90682,53.49032],[-2.90589,53.48985]]]}},{"type":"Feature","properties":{"id":"E01006457","name":"E01006457","parent":"E08000011","type":"LSOA","pop":1292,"r":347,"ff":99,"ffd":7662.5,"ffs":0.448,"g":124,"co":0,"mo":0,"sa":2,"ic":0},"geometry":{"type":"Polygon","coordinates":[[[-2.88941,53.49128],[-2.88694,53.48883],[-2.88472,53.48439],[-2.88931,53.48364],[-2.89103,53.48307],[-2.8907,53.48343],[-2.89299,53.48409],[-2.89365,53.48476],[-2.89599,53.48524],[-2.8964,53.48657],[-2.8971,53.48678],[-2.89744,53.48659],[-2.8979,53.48698],[-2.89598,53.48747],[-2.8947,53.48696],[-2.89507,53.48621],[-2.89456,53.48635],[-2.89438,53.48799],[-2.89577,53.48782],[-2.89616,53.48849],[-2.89532,53.48929],[-2.89371,53.48914],[-2.89241,53.48946],[-2.89186,53.48988],[-2.89223,53.49036],[-2.89152,53.49075],[-2.89099,53.49064],[-2.89127,53.49109],[-2.88996,53.49179],[-2.88941,53.49128]]]}},{"type":"Feature","properties":{"id":"E01006458","name":"E01006458","parent":"E08000011","type":"LSOA","pop":1618,"r":276,"ff":73,"ffd":4511.7,"ffs":0.422,"g":101,"co":0,"mo":2,"sa":0,"ic":0},"geometry":{"type":"Polygon","coordinates":[[[-2.89134,53.49314],[-2.88996,53.49179],[-2.89127,53.49109],[-2.89099,53.49064],[-2.89152,53.49075],[-2.89223,53.49036],[-2.89186,53.48988],[-2.89241,53.48946],[-2.89371,53.48914],[-2.89532,53.48929],[-2.89859,53.48911],[-2.89934,53.49062],[-2.90095,53.49046],[-2.90087,53.49011],[-2.90047,53.49016],[-2.90179,53.48992],[-2.90299,53.49078],[-2.90228,53.49112],[-2.89979,53.49113],[-2.89803,53.49253],[-2.89768,53.49231],[-2.89544,53.49454],[-2.89719,53.49502],[-2.89639,53.4968],[-2.89782,53.4981],[-2.89866,53.49998],[-2.89421,53.49537],[-2.89134,53.49314]]]}},{"type":"Feature","properties":{"id":"E01006459","name":"E01006459","parent":"E08000011","type":"LSOA","pop":1717,"r":13,"ff":12,"ffd":698.9,"ffs":0.9231,"g":0,"co":1,"mo":1,"sa":1,"ic":1},"geometry":{"type":"Polygon","coordinates":[[[-2.79639,53.42637],[-2.79531,53.42578],[-2.79355,53.42621],[-2.7917,53.42585],[-2.79034,53.42373],[-2.78984,53.42357],[-2.79009,53.42324],[-2.79001,53.42099],[-2.78958,53.42082],[-2.79053,53.41922],[-2.79526,53.41932],[-2.7958,53.41985],[-2.79545,53.42032],[-2.79823,53.42091],[-2.79707,53.42109],[-2.79372,53.42059],[-2.79336,53.42121],[-2.79375,53.42259],[-2.79443,53.42209],[-2.79446,53.42254],[-2.79905,53.42418],[-2.79748,53.42568],[-2.79639,53.42637]]]}},{"type":"Feature","properties":{"id":"E01006460","name":"E01006460","parent":"E08000011","type":"LSOA","pop":1500,"r":354,"ff":105,"ffd":7000.0,"ffs":0.4303,"g":109,"co":0,"mo":0,"sa":0,"ic":0},"geometry":{"type":"Polygon","coordinates":[[[-2.79905,53.42418],[-2.79446,53.42254],[-2.79443,53.42209],[-2.79375,53.42259],[-2.79336,53.42121],[-2.79372,53.42059],[-2.79707,53.42109],[-2.79823,53.42091],[-2.79545,53.42032],[-2.7958,53.41985],[-2.79526,53.41932],[-2.79784,53.41896],[-2.79864,53.41971],[-2.80105,53.41953],[-2.80222,53.41904],[-2.80196,53.4195],[-2.80326,53.42079],[-2.80406,53.42062],[-2.80309,53.41922],[-2.80383,53.41928],[-2.80501,53.41984],[-2.80553,53.41939],[-2.80668,53.41952],[-2.80685,53.41908],[-2.80756,53.41921],[-2.80581,53.41993],[-2.80636,53.42022],[-2.80242,53.42186],[-2.80283,53.42302],[-2.80244,53.42322],[-2.80066,53.42283],[-2.79905,53.42418]]]}},{"type":"Feature","properties":{"id":"E01006461","name":"E01006461","parent":"E08000011","type":"LSOA","pop":1400,"r":336,"ff":98,"ffd":7000.0,"ffs":0.4242,"g":103,"co":0,"mo":0,"sa":0,"ic":0},"geometry":{"type":"Polygon","coordinates":[[[-2.80196,53.4195],[-2.80222,53.41904],[-2.80105,53.41953],[-2.79864,53.41971],[-2.79784,53.41896],[-2.80123,53.41764],[-2.80151,53.41734],[-2.80463,53.41646],[-2.80598,53.41656],[-2.81757,53.41518],[-2.81767,53.41553],[-2.80636,53.42022],[-2.80581,53.41993],[-2.80756,53.41921],[-2.80685,53.41908],[-2.80668,53.41952],[-2.80553,53.41939],[-2.80501,53.41984],[-2.80383,53.41928],[-2.80309,53.41922],[-2.80406,53.42062],[-2.80326,53.42079],[-2.80196,53.4195]]]}},{"type":"Feature","properties":{"id":"E01006462","name":"E01006462","parent":"E08000011","type":"LSOA","pop":1745,"r":320,"ff":96,"ffd":5501.4,"ffs":0.4465,"g":104,"co":0,"mo":0,"sa":0,"ic":0},"geometry":{"type":"Polygon","coordinates":[[[-2.78882,53.42655],[-2.78984,53.42357],[-2.79034,53.42373],[-2.7917,53.42585],[-2.79355,53.42621],[-2.79531,53.42578],[-2.79639,53.42637],[-2.7956,53.42733],[-2.7954,53.42903],[-2.79482,53.43009],[-2.79267,53.43106],[-2.78791,53.43033],[-2.78794,53.42989],[-2.78736,53.42901],[-2.78822,53.42873],[-2.78882,53.42655]]]}},{"type":"Feature","properties":{"id":"E01006464","name":"E01006464","parent":"E08000011","type":"LSOA","pop":3566,"r":439,"ff":132,"ffd":3701.6,"ffs":0.4328,"g":132,"co":2,"mo":0,"sa":0,"ic":0},"geometry":{"type":"Polygon","coordinates":[[[-2.80653,53.42812],[-2.80753,53.42705],[-2.8102,53.42707],[-2.81034,53.42683],[-2.81056,53.42718],[-2.8115,53.42726],[-2.81153,53.427],[-2.81058,53.42684],[-2.8107,53.42657],[-2.80872,53.42627],[-2.8069,53.42558],[-2.80488,53.42545],[-2.80455,53.42573],[-2.80346,53.42361],[-2.80246,53.42322],[-2.80283,53.42302],[-2.80242,53.42186],[-2.81326,53.41734],[-2.81375,53.41916],[-2.81576,53.42292],[-2.8185,53.42589],[-2.82129,53.42792],[-2.8233,53.42735],[-2.82292,53.42903],[-2.82358,53.43107],[-2.8164,53.43293],[-2.80607,53.43344],[-2.80658,53.43089],[-2.80621,53.43057],[-2.80621,53.42944],[-2.8067,53.4294],[-2.8064,53.42868],[-2.80672,53.42849],[-2.80653,53.42812]]]}},{"type":"Feature","properties":{"id":"E01006465","name":"E01006465","parent":"E08000011","type":"LSOA","pop":1624,"r":434,"ff":123,"ffd":7573.9,"ffs":0.4073,"g":130,"co":2,"mo":0,"sa":0,"ic":0},"geometry":{"type":"Polygon","coordinates":[[[-2.81576,53.42292],[-2.81375,53.41916],[-2.81326,53.41734],[-2.81767,53.41553],[-2.81873,53.41656],[-2.81867,53.41714],[-2.81895,53.41792],[-2.82079,53.41903],[-2.82283,53.41913],[-2.8239,53.41991],[-2.82506,53.41976],[-2.82834,53.41787],[-2.8296,53.41852],[-2.83057,53.41801],[-2.83153,53.41851],[-2.83266,53.4178],[-2.83352,53.41829],[-2.83332,53.41907],[-2.83344,53.42066],[-2.83563,53.42308],[-2.83368,53.42349],[-2.83147,53.42452],[-2.83155,53.42466],[-2.8276,53.42606],[-2.82129,53.42792],[-2.8185,53.42589],[-2.81576,53.42292]]]}},{"type":"Feature","properties":{"id":"E01006466","name":"E01006466","parent":"E08000011","type":"LSOA","pop":1701,"r":404,"ff":118,"ffd":6937.1,"ffs":0.4229,"g":124,"co":2,"mo":0,"sa":0,"ic":0},"geometry":{"type":"Polygon","coordinates":[[[-2.79416,53.43377],[-2.79329,53.43283],[-2.79379,53.43279],[-2.79334,53.43104],[-2.79267,53.43106],[-2.79482,53.43009],[-2.7954,53.42903],[-2.79549,53.42822],[-2.79611,53.4282],[-2.79618,53.42858],[-2.79794,53.42879],[-2.79787,53.429],[-2.79879,53.42923],[-2.79941,53.42912],[-2.79918,53.42959],[-2.79937,53.43067],[-2.80013,53.43068],[-2.80042,53.43141],[-2.79939,53.4315],[-2.79984,53.43182],[-2.80081,53.43147],[-2.80162,53.43168],[-2.80203,53.43138],[-2.8027,53.43145],[-2.80266,53.43117],[-2.80217,53.43114],[-2.80264,53.43052],[-2.80336,53.43057],[-2.80411,53.43118],[-2.80491,53.43114],[-2.80506,53.43066],[-2.80534,53.43094],[-2.80621,53.43057],[-2.80658,53.43089],[-2.80607,53.43344],[-2.79416,53.43377]]]}},{"type":"Feature","properties":{"id":"E01006467","name":"E01006467","parent":"E08000011","type":"LSOA","pop":1399,"r":471,"ff":157,"ffd":11222.3,"ffs":0.4673,"g":133,"co":0,"mo":0,"sa":0,"ic":0},"geometry":{"type":"Polygon","coordinates":[[[-2.86135,53.43038],[-2.8573,53.42959],[-2.85701,53.42926],[-2.85697,53.42733],[-2.85812,53.42727],[-2.85916,53.4278],[-2.86196,53.42757],[-2.86135,53.42716],[-2.86314,53.42595],[-2.86376,53.42628],[-2.8642,53.42554],[-2.86489,53.42513],[-2.86584,53.425],[-2.86579,53.4245],[-2.86674,53.42387],[-2.86831,53.4239],[-2.86991,53.42478],[-2.86964,53.42498],[-2.87016,53.42515],[-2.8693,53.42623],[-2.86846,53.42641],[-2.86818,53.42679],[-2.86644,53.42773],[-2.86618,53.42802],[-2.86689,53.42826],[-2.86666,53.42887],[-2.86532,53.42875],[-2.86414,53.43018],[-2.86357,53.42973],[-2.86135,53.43038]]]}},{"type":"Feature","properties":{"id":"E01006470","name":"E01006470","parent":"E08000011","type":"LSOA","pop":1426,"r":460,"ff":145,"ffd":10168.3,"ffs":0.4475,"g":134,"co":0,"mo":0,"sa":0,"ic":0},"geometry":{"type":"Polygon","coordinates":[[[-2.85702,53.42499],[-2.85576,53.42328],[-2.8554,53.42349],[-2.8537,53.42326],[-2.8528,53.42335],[-2.85187,53.42379],[-2.85225,53.4239],[-2.85208,53.42415],[-2.85037,53.42431],[-2.8485,53.42118],[-2.84865,53.42045],[-2.8531,53.42029],[-2.85951,53.4218],[-2.86089,53.42186],[-2.8596,53.42277],[-2.85871,53.42376],[-2.85879,53.42514],[-2.85702,53.42499]]]}},{"type":"Feature","properties":{"id":"E01006471","name":"E01006471","parent":"E08000011","type":"LSOA","pop":1483,"r":417,"ff":132,"ffd":8900.9,"ffs":0.4475,"g":120,"co":0,"mo":0,"sa":0,"ic":0},"geometry":{"type":"Polygon","coordinates":[[[-2.84686,53.40468],[-2.84678,53.40431],[-2.84434,53.40438],[-2.84454,53.40578],[-2.84369,53.40554],[-2.84303,53.40568],[-2.84284,53.40451],[-2.84147,53.40425],[-2.84089,53.40469],[-2.83949,53.40426],[-2.83925,53.40457],[-2.83662,53.40343],[-2.83652,53.40138],[-2.83685,53.40048],[-2.83735,53.39987],[-2.84521,53.39797],[-2.84799,53.39697],[-2.84974,53.39732],[-2.85559,53.39506],[-2.85644,53.39506],[-2.85815,53.3957],[-2.85773,53.39752],[-2.85621,53.39927],[-2.85528,53.39917],[-2.85519,53.40003],[-2.85269,53.40048],[-2.85297,53.40162],[-2.85366,53.4018],[-2.85338,53.40223],[-2.84773,53.40129],[-2.844,53.40107],[-2.84479,53.402],[-2.84446,53.40225],[-2.84498,53.40231],[-2.84523,53.40287],[-2.8472,53.40316],[-2.8467,53.404],[-2.84798,53.40441],[-2.84964,53.40425],[-2.84909,53.40527],[-2.84895,53.40691],[-2.84746,53.40623],[-2.84555,53.4062],[-2.84686,53.40468]]]}},{"type":"Feature","properties":{"id":"E01006472","name":"E01006472","parent":"E08000011","type":"LSOA","pop":1584,"r":40,"ff":25,"ffd":1578.3,"ffs":0.7353,"g":6,"co":0,"mo":1,"sa":0,"ic":0},"geometry":{"type":"Polygon","coordinates":[[[-2.86592,53.40859],[-2.86608,53.40803],[-2.86726,53.40832],[-2.86812,53.40768],[-2.86975,53.40816],[-2.87273,53.40844],[-2.87252,53.40792],[-2.87147,53.4075],[-2.86816,53.40418],[-2.86956,53.40343],[-2.86938,53.40278],[-2.87018,53.40222],[-2.87025,53.40087],[-2.87229,53.40098],[-2.87277,53.40168],[-2.87536,53.40099],[-2.88123,53.40699],[-2.88177,53.40801],[-2.8734,53.4092],[-2.8656,53.41],[-2.86639,53.40919],[-2.86592,53.40859]]]}},{"type":"Feature","properties":{"id":"E01006473","name":"E01006473","parent":"E08000011","type":"LSOA","pop":1957,"r":501,"ff":163,"ffd":8329.1,"ffs":0.4579,"g":143,"co":0,"mo":0,"sa":0,"ic":0},"geometry":{"type":"Polygon","coordinates":[[[-2.85405,53.41015],[-2.85433,53.40947],[-2.85341,53.40891],[-2.85252,53.40948],[-2.85263,53.41028],[-2.85215,53.41054],[-2.85062,53.41039],[-2.85139,53.40785],[-2.85062,53.40721],[-2.85115,53.40633],[-2.85248,53.40614],[-2.85258,53.40641],[-2.85381,53.40637],[-2.85392,53.40606],[-2.85447,53.40602],[-2.85397,53.40484],[-2.85411,53.40321],[-2.85333,53.40279],[-2.85338,53.40223],[-2.85366,53.4018],[-2.85297,53.40162],[-2.85269,53.40048],[-2.85519,53.40003],[-2.85528,53.39917],[-2.85621,53.39927],[-2.85773,53.39752],[-2.85815,53.3957],[-2.86783,53.39887],[-2.87046,53.39932],[-2.87229,53.40098],[-2.87025,53.40087],[-2.87018,53.40222],[-2.86938,53.40278],[-2.86956,53.40343],[-2.86816,53.40418],[-2.87147,53.4075],[-2.87252,53.40792],[-2.87273,53.40844],[-2.86975,53.40816],[-2.86812,53.40768],[-2.86726,53.40832],[-2.86608,53.40803],[-2.86592,53.40859],[-2.86639,53.40919],[-2.8656,53.41],[-2.86219,53.41017],[-2.85568,53.41004],[-2.85525,53.41181],[-2.85443,53.41174],[-2.85468,53.41062],[-2.85405,53.41015]]]}},{"type":"Feature","properties":{"id":"E01006474","name":"E01006474","parent":"E08000011","type":"LSOA","pop":2032,"r":430,"ff":138,"ffd":6791.3,"ffs":0.4495,"g":121,"co":0,"mo":0,"sa":0,"ic":0},"geometry":{"type":"Polygon","coordinates":[[[-2.84548,53.41269],[-2.84458,53.41251],[-2.84401,53.41331],[-2.84363,53.4131],[-2.84201,53.41398],[-2.84045,53.41417],[-2.8397,53.41334],[-2.83941,53.41059],[-2.84102,53.40995],[-2.84158,53.41029],[-2.8442,53.41012],[-2.84577,53.40901],[-2.84808,53.40865],[-2.85102,53.4087],[-2.85062,53.41039],[-2.85215,53.41054],[-2.85263,53.41028],[-2.85252,53.40948],[-2.85341,53.40891],[-2.85433,53.40947],[-2.85405,53.41015],[-2.85468,53.41062],[-2.85443,53.41174],[-2.85525,53.41181],[-2.85481,53.41412],[-2.84548,53.41269]]]}},{"type":"Feature","properties":{"id":"E01006475","name":"E01006475","parent":"E08000011","type":"LSOA","pop":1532,"r":423,"ff":136,"ffd":8877.3,"ffs":0.4518,"g":120,"co":0,"mo":0,"sa":0,"ic":0},"geometry":{"type":"Polygon","coordinates":[[[-2.84102,53.40995],[-2.8415,53.40957],[-2.83394,53.4099],[-2.8348,53.40885],[-2.83547,53.40873],[-2.83757,53.40718],[-2.8416,53.40527],[-2.83925,53.40457],[-2.83949,53.40426],[-2.84089,53.40469],[-2.84147,53.40425],[-2.84284,53.40451],[-2.84303,53.40568],[-2.84369,53.40554],[-2.84454,53.40578],[-2.84434,53.40438],[-2.84678,53.40431],[-2.84686,53.40468],[-2.84555,53.4062],[-2.84746,53.40623],[-2.84895,53.40691],[-2.84876,53.40768],[-2.84721,53.4078],[-2.84808,53.40865],[-2.84577,53.40901],[-2.8442,53.41012],[-2.84158,53.41029],[-2.84102,53.40995]]]}},{"type":"Feature","properties":{"id":"E01006476","name":"E01006476","parent":"E08000011","type":"LSOA","pop":1422,"r":443,"ff":146,"ffd":10267.2,"ffs":0.4665,"g":128,"co":0,"mo":0,"sa":0,"ic":0},"geometry":{"type":"Polygon","coordinates":[[[-2.84895,53.40691],[-2.84909,53.40527],[-2.84964,53.40425],[-2.84798,53.40441],[-2.8467,53.404],[-2.8472,53.40316],[-2.84523,53.40287],[-2.84498,53.40231],[-2.84446,53.40225],[-2.84479,53.402],[-2.844,53.40107],[-2.84773,53.40129],[-2.85338,53.40223],[-2.85333,53.40279],[-2.85411,53.40321],[-2.85397,53.40484],[-2.85447,53.40602],[-2.85392,53.40606],[-2.85381,53.40637],[-2.85258,53.40641],[-2.85248,53.40614],[-2.85115,53.40633],[-2.85062,53.40721],[-2.85139,53.40785],[-2.85102,53.4087],[-2.84808,53.40865],[-2.84721,53.4078],[-2.84876,53.40768],[-2.84895,53.40691]]]}},{"type":"Feature","properties":{"id":"E01006477","name":"E01006477","parent":"E08000011","type":"LSOA","pop":1498,"r":407,"ff":126,"ffd":8411.2,"ffs":0.4421,"g":120,"co":0,"mo":0,"sa":2,"ic":0},"geometry":{"type":"Polygon","coordinates":[[[-2.81655,53.4119],[-2.81602,53.41027],[-2.81562,53.40963],[-2.81328,53.40844],[-2.81293,53.40749],[-2.8133,53.40685],[-2.8156,53.40617],[-2.82286,53.40806],[-2.82481,53.40912],[-2.82428,53.4092],[-2.82449,53.40999],[-2.82525,53.41028],[-2.82231,53.41087],[-2.82217,53.41117],[-2.82313,53.41137],[-2.82546,53.41085],[-2.82824,53.41116],[-2.81767,53.41553],[-2.81757,53.41518],[-2.81822,53.41428],[-2.81733,53.41311],[-2.81673,53.41295],[-2.81655,53.4119]]]}},{"type":"Feature","properties":{"id":"E01006478","name":"E01006478","parent":"E08000011","type":"LSOA","pop":1903,"r":416,"ff":127,"ffd":6673.7,"ffs":0.4349,"g":122,"co":0,"mo":0,"sa":0,"ic":0},"geometry":{"type":"Polygon","coordinates":[[[-2.82217,53.41117],[-2.82231,53.41087],[-2.82525,53.41028],[-2.82449,53.40999],[-2.82428,53.4092],[-2.82481,53.40912],[-2.82286,53.40806],[-2.8156,53.40617],[-2.81708,53.40551],[-2.8173,53.40489],[-2.8168,53.40384],[-2.81561,53.40316],[-2.81802,53.40233],[-2.82461,53.40083],[-2.82612,53.39975],[-2.82661,53.39981],[-2.82687,53.40036],[-2.82504,53.40211],[-2.82546,53.40236],[-2.82468,53.40248],[-2.82459,53.40292],[-2.82393,53.40299],[-2.82425,53.40371],[-2.82754,53.40532],[-2.82818,53.4053],[-2.82778,53.40504],[-2.82879,53.40476],[-2.83116,53.4055],[-2.8315,53.40612],[-2.8344,53.40644],[-2.83469,53.40599],[-2.83564,53.40596],[-2.83602,53.40648],[-2.83601,53.40709],[-2.8343,53.40742],[-2.83547,53.40873],[-2.8348,53.40885],[-2.83394,53.4099],[-2.83074,53.41025],[-2.82824,53.41116],[-2.82546,53.41085],[-2.82313,53.41137],[-2.82217,53.41117]]]}},{"type":"Feature","properties":{"id":"E01006479","name":"E01006479","parent":"E08000011","type":"LSOA","pop":1483,"r":414,"ff":129,"ffd":8698.6,"ffs":0.4403,"g":119,"co":0,"mo":0,"sa":0,"ic":0},"geometry":{"type":"Polygon","coordinates":[[[-2.83602,53.40648],[-2.83564,53.40596],[-2.83469,53.40599],[-2.8344,53.40644],[-2.83192,53.40611],[-2.83381,53.40558],[-2.83289,53.40511],[-2.83319,53.40487],[-2.83265,53.40462],[-2.83273,53.40427],[-2.83217,53.40399],[-2.83166,53.40437],[-2.83098,53.40384],[-2.83079,53.40343],[-2.83208,53.40143],[-2.83177,53.40098],[-2.83289,53.40126],[-2.83745,53.4039],[-2.8416,53.40527],[-2.83757,53.40718],[-2.83547,53.40873],[-2.8343,53.40742],[-2.83601,53.40709],[-2.83602,53.40648]]]}},{"type":"Feature","properties":{"id":"E01006480","name":"E01006480","parent":"E08000011","type":"LSOA","pop":1474,"r":405,"ff":124,"ffd":8412.5,"ffs":0.4397,"g":121,"co":0,"mo":0,"sa":0,"ic":0},"geometry":{"type":"Polygon","coordinates":[[[-2.83116,53.4055],[-2.82879,53.40476],[-2.82778,53.40504],[-2.82818,53.4053],[-2.82754,53.40532],[-2.82425,53.40371],[-2.82393,53.40299],[-2.82459,53.40292],[-2.82468,53.40248],[-2.82546,53.40236],[-2.82504,53.40211],[-2.82687,53.40036],[-2.82661,53.39981],[-2.83177,53.40098],[-2.83208,53.40143],[-2.83079,53.40343],[-2.83098,53.40384],[-2.83166,53.40437],[-2.83217,53.40399],[-2.83273,53.40427],[-2.83265,53.40462],[-2.83319,53.40487],[-2.83289,53.40511],[-2.83381,53.40558],[-2.8315,53.40612],[-2.83116,53.4055]]]}},{"type":"Feature","properties":{"id":"E01006481","name":"E01006481","parent":"E08000011","type":"LSOA","pop":1363,"r":401,"ff":125,"ffd":9170.9,"ffs":0.4448,"g":118,"co":0,"mo":0,"sa":0,"ic":0},"geometry":{"type":"Polygon","coordinates":[[[-2.82343,53.41748],[-2.82298,53.41716],[-2.82248,53.41738],[-2.82195,53.41641],[-2.82278,53.41601],[-2.82122,53.41552],[-2.82122,53.41627],[-2.82078,53.41645],[-2.81986,53.41463],[-2.83074,53.41025],[-2.83394,53.4099],[-2.8415,53.40957],[-2.84102,53.40995],[-2.83941,53.41059],[-2.8397,53.41334],[-2.84016,53.41378],[-2.83972,53.4147],[-2.83858,53.41502],[-2.83867,53.41427],[-2.83831,53.41423],[-2.83456,53.41639],[-2.8336,53.41592],[-2.83216,53.41606],[-2.83071,53.41582],[-2.83061,53.41458],[-2.82954,53.41492],[-2.8282,53.41492],[-2.82651,53.41584],[-2.82517,53.41687],[-2.82493,53.41643],[-2.82543,53.41587],[-2.82505,53.41567],[-2.82422,53.41606],[-2.8237,53.41588],[-2.82336,53.41633],[-2.82288,53.41635],[-2.82343,53.41748]]]}},{"type":"Feature","properties":{"id":"E01006482","name":"E01006482","parent":"E08000011","type":"LSOA","pop":1514,"r":437,"ff":136,"ffd":8982.8,"ffs":0.4387,"g":125,"co":0,"mo":0,"sa":0,"ic":0},"geometry":{"type":"Polygon","coordinates":[[[-2.83529,53.42022],[-2.83558,53.41949],[-2.83484,53.41904],[-2.835,53.41837],[-2.83451,53.41817],[-2.8344,53.41896],[-2.83332,53.41907],[-2.83352,53.41829],[-2.83266,53.4178],[-2.83153,53.41851],[-2.83057,53.41801],[-2.8296,53.41852],[-2.82736,53.41739],[-2.82499,53.41714],[-2.82651,53.41584],[-2.8282,53.41492],[-2.82954,53.41492],[-2.83061,53.41458],[-2.83071,53.41582],[-2.83216,53.41606],[-2.8336,53.41592],[-2.83456,53.41639],[-2.83831,53.41423],[-2.83867,53.41427],[-2.83858,53.41502],[-2.83972,53.4147],[-2.84016,53.41378],[-2.84045,53.41417],[-2.84102,53.41655],[-2.83881,53.41692],[-2.83819,53.41971],[-2.83687,53.41967],[-2.83529,53.42022]]]}},{"type":"Feature","properties":{"id":"E01006483","name":"E01006483","parent":"E08000011","type":"LSOA","pop":1501,"r":428,"ff":133,"ffd":8860.8,"ffs":0.4404,"g":124,"co":0,"mo":0,"sa":2,"ic":0},"geometry":{"type":"Polygon","coordinates":[[[-2.81895,53.41792],[-2.81867,53.41714],[-2.81873,53.41656],[-2.81767,53.41553],[-2.81986,53.41463],[-2.82078,53.41645],[-2.82122,53.41627],[-2.82122,53.41552],[-2.82278,53.41601],[-2.82195,53.41641],[-2.82248,53.41738],[-2.82298,53.41716],[-2.82343,53.41748],[-2.82288,53.41635],[-2.82336,53.41633],[-2.8237,53.41588],[-2.82422,53.41606],[-2.82505,53.41567],[-2.82543,53.41587],[-2.82493,53.41643],[-2.82517,53.41687],[-2.82499,53.41714],[-2.82736,53.41739],[-2.82834,53.41787],[-2.82506,53.41976],[-2.8239,53.41991],[-2.82283,53.41913],[-2.82079,53.41903],[-2.81895,53.41792]]]}},{"type":"Feature","properties":{"id":"E01006484","name":"E01006484","parent":"E08000011","type":"LSOA","pop":1278,"r":433,"ff":138,"ffd":10798.1,"ffs":0.4466,"g":122,"co":0,"mo":0,"sa":0,"ic":0},"geometry":{"type":"Polygon","coordinates":[[[-2.83344,53.42066],[-2.83332,53.41907],[-2.8344,53.41896],[-2.83451,53.41817],[-2.835,53.41837],[-2.83484,53.41904],[-2.83558,53.41949],[-2.83529,53.42022],[-2.83687,53.41967],[-2.83819,53.41971],[-2.83881,53.41692],[-2.84102,53.41655],[-2.84211,53.41834],[-2.84247,53.42155],[-2.83563,53.42308],[-2.83344,53.42066]]]}},{"type":"Feature","properties":{"id":"E01006485","name":"E01006485","parent":"E08000011","type":"LSOA","pop":1923,"r":479,"ff":174,"ffd":9048.4,"ffs":0.4957,"g":126,"co":0,"mo":0,"sa":0,"ic":1},"geometry":{"type":"Polygon","coordinates":[[[-2.87642,53.4122],[-2.87702,53.41184],[-2.8771,53.41157],[-2.88176,53.41175],[-2.88191,53.41088],[-2.88249,53.41089],[-2.88257,53.4106],[-2.88013,53.41036],[-2.87833,53.40911],[-2.87808,53.40853],[-2.88379,53.40785],[-2.88515,53.40804],[-2.88748,53.40932],[-2.88802,53.4105],[-2.88624,53.4108],[-2.88585,53.4114],[-2.88392,53.41187],[-2.88231,53.41186],[-2.88227,53.41214],[-2.88416,53.41223],[-2.88169,53.4145],[-2.88017,53.41508],[-2.88103,53.41567],[-2.88083,53.41593],[-2.87509,53.41372],[-2.87642,53.4122]]]}},{"type":"Feature","properties":{"id":"E01006486","name":"E01006486","parent":"E08000011","type":"LSOA","pop":1144,"r":488,"ff":160,"ffd":13986.0,"ffs":0.4624,"g":140,"co":0,"mo":0,"sa":0,"ic":0},"geometry":{"type":"Polygon","coordinates":[[[-2.86679,53.41456],[-2.86783,53.41298],[-2.8687,53.4133],[-2.86941,53.41304],[-2.86695,53.41198],[-2.86757,53.40984],[-2.8734,53.4092],[-2.87272,53.40982],[-2.87319,53.41001],[-2.87245,53.41176],[-2.87197,53.41225],[-2.8723,53.41269],[-2.87108,53.41243],[-2.86941,53.41453],[-2.8692,53.41448],[-2.86842,53.41521],[-2.86753,53.41507],[-2.86763,53.41461],[-2.86679,53.41456]]]}},{"type":"Feature","properties":{"id":"E01006487","name":"E01006487","parent":"E08000011","type":"LSOA","pop":1518,"r":473,"ff":164,"ffd":10803.7,"ffs":0.4852,"g":133,"co":0,"mo":0,"sa":0,"ic":1},"geometry":{"type":"Polygon","coordinates":[[[-2.87245,53.41176],[-2.87319,53.41001],[-2.87272,53.40982],[-2.8734,53.4092],[-2.87808,53.40853],[-2.87833,53.40911],[-2.88013,53.41036],[-2.88257,53.4106],[-2.88249,53.41089],[-2.88191,53.41088],[-2.88176,53.41175],[-2.8771,53.41157],[-2.87702,53.41184],[-2.87642,53.4122],[-2.87509,53.41372],[-2.8723,53.41269],[-2.87197,53.41225],[-2.87245,53.41176]]]}},{"type":"Feature","properties":{"id":"E01006488","name":"E01006488","parent":"E08000011","type":"LSOA","pop":2582,"r":479,"ff":175,"ffd":6777.7,"ffs":0.5014,"g":128,"co":0,"mo":0,"sa":0,"ic":1},"geometry":{"type":"Polygon","coordinates":[[[-2.88263,53.41366],[-2.88416,53.41223],[-2.88227,53.41214],[-2.88231,53.41186],[-2.88392,53.41187],[-2.88585,53.4114],[-2.88624,53.4108],[-2.88802,53.4105],[-2.88748,53.40932],[-2.88515,53.40804],[-2.88379,53.40785],[-2.89054,53.40691],[-2.891,53.40825],[-2.89231,53.41081],[-2.89227,53.41179],[-2.88974,53.41351],[-2.88929,53.41341],[-2.88689,53.41531],[-2.88404,53.4168],[-2.88083,53.41593],[-2.88103,53.41567],[-2.88017,53.41508],[-2.88169,53.4145],[-2.88263,53.41366]]]}},{"type":"Feature","properties":{"id":"E01006489","name":"E01006489","parent":"E08000011","type":"LSOA","pop":1314,"r":484,"ff":159,"ffd":12100.5,"ffs":0.4636,"g":139,"co":0,"mo":0,"sa":0,"ic":0},"geometry":{"type":"Polygon","coordinates":[[[-2.86871,53.41557],[-2.8645,53.41475],[-2.86512,53.41371],[-2.86353,53.41375],[-2.86162,53.41167],[-2.86273,53.41143],[-2.86219,53.41017],[-2.86757,53.40984],[-2.86695,53.41198],[-2.86941,53.41304],[-2.8687,53.4133],[-2.86783,53.41298],[-2.86679,53.41456],[-2.86763,53.41461],[-2.86753,53.41507],[-2.86842,53.41521],[-2.8692,53.41448],[-2.86941,53.41453],[-2.86871,53.41557]]]}},{"type":"Feature","properties":{"id":"E01006490","name":"E01006490","parent":"E08000011","type":"LSOA","pop":2759,"r":234,"ff":60,"ffd":2174.7,"ffs":0.4082,"g":85,"co":2,"mo":2,"sa":0,"ic":0},"geometry":{"type":"Polygon","coordinates":[[[-2.88167,53.50276],[-2.88125,53.5016],[-2.88025,53.50005],[-2.87952,53.49992],[-2.87973,53.49967],[-2.87886,53.49913],[-2.87905,53.4986],[-2.88028,53.49875],[-2.88033,53.49893],[-2.88573,53.49821],[-2.88789,53.49751],[-2.88844,53.49716],[-2.88756,53.49673],[-2.88854,53.49631],[-2.88906,53.49667],[-2.8916,53.49594],[-2.89206,53.49688],[-2.89253,53.49694],[-2.89198,53.49799],[-2.89469,53.49734],[-2.8949,53.49797],[-2.89131,53.49918],[-2.89174,53.49963],[-2.89094,53.4999],[-2.88957,53.49976],[-2.88719,53.49991],[-2.88665,53.50088],[-2.88512,53.50095],[-2.88438,53.50142],[-2.88606,53.50215],[-2.88754,53.50215],[-2.88846,53.50183],[-2.88958,53.50286],[-2.88799,53.50383],[-2.88167,53.50276]]]}},{"type":"Feature","properties":{"id":"E01006491","name":"E01006491","parent":"E08000011","type":"LSOA","pop":2060,"r":257,"ff":65,"ffd":3155.3,"ffs":0.3963,"g":91,"co":2,"mo":2,"sa":0,"ic":0},"geometry":{"type":"Polygon","coordinates":[[[-2.88872,53.50207],[-2.88846,53.50183],[-2.88754,53.50215],[-2.88606,53.50215],[-2.88438,53.50142],[-2.88512,53.50095],[-2.88665,53.50088],[-2.88719,53.49991],[-2.88957,53.49976],[-2.89094,53.4999],[-2.89174,53.49963],[-2.89131,53.49918],[-2.8949,53.49797],[-2.89469,53.49734],[-2.89198,53.49799],[-2.89253,53.49694],[-2.89206,53.49688],[-2.8916,53.496],[-2.89421,53.49537],[-2.89866,53.49998],[-2.89774,53.5014],[-2.89531,53.50238],[-2.89236,53.50318],[-2.88958,53.50286],[-2.88872,53.50207]]]}},{"type":"Feature","properties":{"id":"E01006492","name":"E01006492","parent":"E08000011","type":"LSOA","pop":1273,"r":235,"ff":63,"ffd":4948.9,"ffs":0.4172,"g":82,"co":2,"mo":2,"sa":0,"ic":0},"geometry":{"type":"Polygon","coordinates":[[[-2.87333,53.50004],[-2.87202,53.49623],[-2.87292,53.49633],[-2.87383,53.49608],[-2.8728,53.49591],[-2.87293,53.49546],[-2.87341,53.49535],[-2.87357,53.49556],[-2.87428,53.49545],[-2.87424,53.49569],[-2.87514,53.49556],[-2.87556,53.4961],[-2.87601,53.49608],[-2.87657,53.4969],[-2.87775,53.49715],[-2.87681,53.49763],[-2.87664,53.49725],[-2.87527,53.49726],[-2.87562,53.49765],[-2.87397,53.49864],[-2.87605,53.49873],[-2.87774,53.49831],[-2.87792,53.49858],[-2.87728,53.4988],[-2.87754,53.49944],[-2.87886,53.49913],[-2.87973,53.49967],[-2.87952,53.49992],[-2.88025,53.50005],[-2.88125,53.5016],[-2.88167,53.50276],[-2.87333,53.50004]]]}},{"type":"Feature","properties":{"id":"E01006493","name":"E01006493","parent":"E08000011","type":"LSOA","pop":2065,"r":246,"ff":67,"ffd":3244.6,"ffs":0.4188,"g":84,"co":2,"mo":2,"sa":0,"ic":0},"geometry":{"type":"Polygon","coordinates":[[[-2.87728,53.4988],[-2.87792,53.49858],[-2.87774,53.49831],[-2.87605,53.49873],[-2.87397,53.49864],[-2.87562,53.49765],[-2.87527,53.49726],[-2.87664,53.49725],[-2.87681,53.49763],[-2.87775,53.49715],[-2.87843,53.49724],[-2.87837,53.49608],[-2.88064,53.49507],[-2.88052,53.494],[-2.87985,53.49365],[-2.87918,53.4937],[-2.87933,53.4946],[-2.87755,53.49456],[-2.87719,53.49382],[-2.87758,53.49345],[-2.88283,53.49218],[-2.88582,53.49253],[-2.8873,53.49217],[-2.88727,53.49293],[-2.88799,53.49391],[-2.88629,53.49488],[-2.88733,53.49555],[-2.88583,53.49643],[-2.88684,53.49648],[-2.88763,53.4961],[-2.88854,53.49631],[-2.88756,53.49673],[-2.88844,53.49716],[-2.88789,53.49751],[-2.88573,53.49821],[-2.88033,53.49893],[-2.88028,53.49875],[-2.87905,53.4986],[-2.87886,53.49913],[-2.87754,53.49944],[-2.87728,53.4988]]]}},{"type":"Feature","properties":{"id":"E01006494","name":"E01006494","parent":"E08000011","type":"LSOA","pop":1931,"r":244,"ff":66,"ffd":3417.9,"ffs":0.4258,"g":87,"co":2,"mo":2,"sa":2,"ic":0},"geometry":{"type":"Polygon","coordinates":[[[-2.87657,53.4969],[-2.87601,53.49608],[-2.87556,53.4961],[-2.87514,53.49556],[-2.87424,53.49569],[-2.87428,53.49545],[-2.87357,53.49556],[-2.87341,53.49535],[-2.87293,53.49546],[-2.8728,53.49591],[-2.87383,53.49608],[-2.87292,53.49633],[-2.87202,53.49623],[-2.87005,53.49418],[-2.8671,53.49283],[-2.86147,53.49103],[-2.86513,53.4905],[-2.86694,53.48935],[-2.87221,53.49117],[-2.87475,53.49153],[-2.87552,53.48929],[-2.87865,53.4901],[-2.87904,53.4898],[-2.87832,53.49044],[-2.87697,53.49114],[-2.87892,53.49293],[-2.87758,53.49345],[-2.87719,53.49382],[-2.87755,53.49456],[-2.87933,53.4946],[-2.87918,53.4937],[-2.87985,53.49365],[-2.88052,53.494],[-2.88064,53.49507],[-2.87837,53.49608],[-2.87843,53.49724],[-2.87657,53.4969]]]}},{"type":"Feature","properties":{"id":"E01006495","name":"E01006495","parent":"E08000011","type":"LSOA","pop":2513,"r":276,"ff":78,"ffd":3103.9,"ffs":0.4333,"g":94,"co":0,"mo":2,"sa":0,"ic":0},"geometry":{"type":"Polygon","coordinates":[[[-2.88854,53.49631],[-2.88763,53.4961],[-2.88684,53.49648],[-2.88583,53.49643],[-2.88733,53.49555],[-2.88629,53.49488],[-2.88799,53.49391],[-2.88727,53.49293],[-2.8873,53.49217],[-2.88582,53.49253],[-2.88283,53.49218],[-2.87758,53.49345],[-2.87892,53.49293],[-2.87697,53.49114],[-2.87832,53.49044],[-2.88015,53.4887],[-2.88207,53.48428],[-2.88307,53.48445],[-2.88472,53.48439],[-2.88694,53.48883],[-2.89223,53.49398],[-2.89421,53.49537],[-2.88906,53.49667],[-2.88854,53.49631]]]}},{"type":"Feature","properties":{"id":"E01006496","name":"E01006496","parent":"E08000011","type":"LSOA","pop":1391,"r":334,"ff":102,"ffd":7332.9,"ffs":0.434,"g":97,"co":0,"mo":0,"sa":0,"ic":1},"geometry":{"type":"Polygon","coordinates":[[[-2.78832,53.41937],[-2.78768,53.41923],[-2.78774,53.41962],[-2.78707,53.41914],[-2.78242,53.41874],[-2.77817,53.41622],[-2.77867,53.41581],[-2.79482,53.41408],[-2.79495,53.41477],[-2.79313,53.41478],[-2.79335,53.41501],[-2.79267,53.416],[-2.79433,53.41646],[-2.79404,53.41682],[-2.79279,53.41649],[-2.79255,53.41689],[-2.79293,53.41723],[-2.7924,53.41754],[-2.79282,53.41781],[-2.79092,53.4185],[-2.79119,53.41879],[-2.79096,53.41926],[-2.79053,53.41922],[-2.78958,53.42082],[-2.78916,53.42091],[-2.78877,53.42041],[-2.7889,53.41994],[-2.78832,53.41937]]]}},{"type":"Feature","properties":{"id":"E01006497","name":"E01006497","parent":"E08000011","type":"LSOA","pop":1165,"r":376,"ff":117,"ffd":10042.9,"ffs":0.4382,"g":107,"co":0,"mo":0,"sa":0,"ic":0},"geometry":{"type":"Polygon","coordinates":[[[-2.80139,53.41656],[-2.79826,53.41529],[-2.79806,53.41562],[-2.79914,53.416],[-2.79932,53.4164],[-2.79718,53.41668],[-2.79743,53.41536],[-2.79626,53.41526],[-2.79534,53.41565],[-2.7949,53.41652],[-2.79267,53.416],[-2.79335,53.41501],[-2.79313,53.41478],[-2.79495,53.41477],[-2.79482,53.41408],[-2.7997,53.41362],[-2.80059,53.41231],[-2.80122,53.4121],[-2.80357,53.41262],[-2.80419,53.4132],[-2.81655,53.4119],[-2.81673,53.41295],[-2.81733,53.41311],[-2.81822,53.41428],[-2.81757,53.41518],[-2.80598,53.41656],[-2.80463,53.41646],[-2.80151,53.41734],[-2.80097,53.41686],[-2.80139,53.41656]]]}},{"type":"Feature","properties":{"id":"E01006498","name":"E01006498","parent":"E08000011","type":"LSOA","pop":1558,"r":294,"ff":87,"ffd":5584.1,"ffs":0.4394,"g":95,"co":0,"mo":0,"sa":0,"ic":0},"geometry":{"type":"Polygon","coordinates":[[[-2.78174,53.42851],[-2.77956,53.42769],[-2.77882,53.42775],[-2.77621,53.42667],[-2.77701,53.42521],[-2.77884,53.42271],[-2.78125,53.42341],[-2.78222,53.42292],[-2.78474,53.42412],[-2.78459,53.42609],[-2.78333,53.42541],[-2.78236,53.42551],[-2.78255,53.42612],[-2.78496,53.42646],[-2.78454,53.42757],[-2.7874,53.42819],[-2.78765,53.42791],[-2.78841,53.4281],[-2.78822,53.42873],[-2.78736,53.42901],[-2.78794,53.42989],[-2.78791,53.43033],[-2.78706,53.43045],[-2.78571,53.42927],[-2.78363,53.42865],[-2.78174,53.42851]]]}},{"type":"Feature","properties":{"id":"E01006499","name":"E01006499","parent":"E08000011","type":"LSOA","pop":2140,"r":301,"ff":92,"ffd":4299.1,"ffs":0.4488,"g":95,"co":0,"mo":0,"sa":0,"ic":0},"geometry":{"type":"Polygon","coordinates":[[[-2.7874,53.42819],[-2.78454,53.42757],[-2.78496,53.42646],[-2.78255,53.42612],[-2.78236,53.42551],[-2.78333,53.42541],[-2.78459,53.42609],[-2.78474,53.42412],[-2.78222,53.42292],[-2.78125,53.42341],[-2.77884,53.42271],[-2.7803,53.42059],[-2.78162,53.42094],[-2.7818,53.42065],[-2.78128,53.42049],[-2.78246,53.41932],[-2.78212,53.41922],[-2.78242,53.41874],[-2.78707,53.41914],[-2.78774,53.41962],[-2.78768,53.41923],[-2.78832,53.41937],[-2.7889,53.41994],[-2.78877,53.42041],[-2.78916,53.42091],[-2.78958,53.42082],[-2.79001,53.42099],[-2.79009,53.42324],[-2.78958,53.42416],[-2.78841,53.4281],[-2.78765,53.42791],[-2.7874,53.42819]]]}},{"type":"Feature","properties":{"id":"E01006500","name":"E01006500","parent":"E08000011","type":"LSOA","pop":1014,"r":370,"ff":115,"ffd":11341.2,"ffs":0.4373,"g":105,"co":0,"mo":0,"sa":0,"ic":0},"geometry":{"type":"Polygon","coordinates":[[[-2.79255,53.41689],[-2.79279,53.41649],[-2.79404,53.41682],[-2.79433,53.41646],[-2.7949,53.41652],[-2.79534,53.41565],[-2.79626,53.41526],[-2.79743,53.41536],[-2.79718,53.41668],[-2.79932,53.4164],[-2.79914,53.416],[-2.79806,53.41562],[-2.79826,53.41529],[-2.80139,53.41656],[-2.80097,53.41686],[-2.80151,53.41734],[-2.80123,53.41764],[-2.79784,53.41896],[-2.79526,53.41932],[-2.79096,53.41926],[-2.79119,53.41879],[-2.79092,53.4185],[-2.79282,53.41781],[-2.7924,53.41754],[-2.79293,53.41723],[-2.79255,53.41689]]]}},{"type":"Feature","properties":{"id":"E01006501","name":"E01006501","parent":"E08000011","type":"LSOA","pop":1408,"r":365,"ff":115,"ffd":8167.6,"ffs":0.444,"g":104,"co":0,"mo":0,"sa":0,"ic":0},"geometry":{"type":"Polygon","coordinates":[[[-2.79162,53.41439],[-2.79136,53.41389],[-2.79051,53.414],[-2.79058,53.41371],[-2.79152,53.41327],[-2.79249,53.41331],[-2.79255,53.41292],[-2.79196,53.41281],[-2.79235,53.41239],[-2.79204,53.41218],[-2.79035,53.41229],[-2.79018,53.41252],[-2.78961,53.41202],[-2.78976,53.41175],[-2.78875,53.41111],[-2.78878,53.41014],[-2.78803,53.40934],[-2.78503,53.40958],[-2.78426,53.4076],[-2.79086,53.40688],[-2.78947,53.4063],[-2.78934,53.40588],[-2.78986,53.40392],[-2.79111,53.40268],[-2.79332,53.40236],[-2.79414,53.40379],[-2.79394,53.40427],[-2.79473,53.40422],[-2.79534,53.40473],[-2.79712,53.40484],[-2.7994,53.40405],[-2.79921,53.40535],[-2.7985,53.40568],[-2.79905,53.40605],[-2.79917,53.40675],[-2.80017,53.40691],[-2.79962,53.40751],[-2.80015,53.40846],[-2.80096,53.40876],[-2.80082,53.409],[-2.79902,53.40879],[-2.79552,53.40877],[-2.79284,53.40921],[-2.79296,53.40973],[-2.79399,53.40985],[-2.79496,53.40954],[-2.79554,53.40982],[-2.79459,53.40984],[-2.7947,53.41045],[-2.7969,53.41043],[-2.79648,53.41083],[-2.79468,53.4109],[-2.79481,53.41282],[-2.79735,53.41283],[-2.79654,53.41348],[-2.79656,53.41392],[-2.79162,53.41439]]]}},{"type":"Feature","properties":{"id":"E01006502","name":"E01006502","parent":"E08000011","type":"LSOA","pop":1867,"r":453,"ff":130,"ffd":6963.0,"ffs":0.4088,"g":133,"co":0,"mo":0,"sa":2,"ic":0},"geometry":{"type":"Polygon","coordinates":[[[-2.81352,53.41226],[-2.81382,53.41105],[-2.80643,53.4111],[-2.80486,53.40942],[-2.80436,53.40973],[-2.80411,53.40944],[-2.80305,53.41011],[-2.80252,53.4101],[-2.80095,53.40874],[-2.80015,53.40846],[-2.79962,53.40751],[-2.80017,53.40691],[-2.79917,53.40675],[-2.79905,53.40605],[-2.7985,53.40568],[-2.79921,53.40535],[-2.7994,53.40405],[-2.79712,53.40484],[-2.79534,53.40473],[-2.79473,53.40422],[-2.79394,53.40427],[-2.79414,53.40379],[-2.79332,53.40236],[-2.79111,53.40268],[-2.78986,53.40392],[-2.78934,53.40588],[-2.78947,53.4063],[-2.79086,53.40688],[-2.78426,53.4076],[-2.78422,53.40677],[-2.78669,53.40209],[-2.78678,53.40119],[-2.78619,53.40117],[-2.78639,53.39944],[-2.78606,53.39902],[-2.78424,53.39768],[-2.78338,53.39769],[-2.78313,53.39717],[-2.78224,53.3969],[-2.78188,53.3961],[-2.78495,53.3957],[-2.78532,53.39599],[-2.78693,53.39591],[-2.79015,53.39636],[-2.79141,53.39592],[-2.7917,53.39606],[-2.79165,53.39581],[-2.79396,53.39638],[-2.79547,53.3964],[-2.79605,53.39667],[-2.79633,53.39641],[-2.7976,53.39677],[-2.79893,53.39649],[-2.7996,53.39565],[-2.80142,53.39517],[-2.80245,53.39525],[-2.80453,53.39591],[-2.80421,53.39778],[-2.80531,53.39886],[-2.80766,53.40019],[-2.81025,53.4005],[-2.81379,53.40162],[-2.81411,53.40245],[-2.8153,53.40328],[-2.81561,53.40316],[-2.8168,53.40384],[-2.8173,53.40489],[-2.81708,53.40551],[-2.8156,53.40617],[-2.8133,53.40685],[-2.81293,53.40749],[-2.81328,53.40844],[-2.81562,53.40963],[-2.81602,53.41027],[-2.81655,53.4119],[-2.81352,53.41226]]]}},{"type":"Feature","properties":{"id":"E01006503","name":"E01006503","parent":"E08000011","type":"LSOA","pop":1239,"r":105,"ff":52,"ffd":4196.9,"ffs":0.5977,"g":17,"co":0,"mo":0,"sa":3,"ic":1},"geometry":{"type":"Polygon","coordinates":[[[-2.74518,53.40159],[-2.74626,53.39896],[-2.74532,53.3972],[-2.7434,53.39529],[-2.74432,53.39526],[-2.74412,53.39484],[-2.74477,53.3947],[-2.75065,53.39379],[-2.75005,53.39238],[-2.74711,53.39239],[-2.74789,53.38877],[-2.75044,53.3876],[-2.75257,53.38593],[-2.76027,53.38434],[-2.75878,53.38375],[-2.75777,53.38288],[-2.75765,53.38074],[-2.75866,53.381],[-2.76028,53.38214],[-2.76463,53.38279],[-2.76732,53.38365],[-2.76905,53.3839],[-2.77002,53.38361],[-2.77078,53.38313],[-2.77214,53.38293],[-2.77313,53.38108],[-2.77562,53.38073],[-2.77668,53.38103],[-2.77785,53.38095],[-2.7817,53.38287],[-2.78389,53.38344],[-2.78569,53.38478],[-2.78337,53.38545],[-2.78469,53.38547],[-2.785,53.38674],[-2.78632,53.38777],[-2.78775,53.38721],[-2.78688,53.38999],[-2.78842,53.38976],[-2.78842,53.39162],[-2.78496,53.39106],[-2.78431,53.39199],[-2.78284,53.39257],[-2.77857,53.39124],[-2.7779,53.39165],[-2.77707,53.39134],[-2.775,53.39333],[-2.77482,53.39394],[-2.7774,53.39444],[-2.77944,53.39535],[-2.78112,53.39548],[-2.78166,53.39585],[-2.78131,53.39617],[-2.78188,53.3961],[-2.78224,53.3969],[-2.78313,53.39717],[-2.78338,53.39769],[-2.78424,53.39768],[-2.78606,53.39902],[-2.78639,53.39944],[-2.78619,53.40117],[-2.7682,53.4],[-2.75898,53.40044],[-2.74745,53.40228],[-2.7452,53.40193],[-2.74518,53.40159]]]}},{"type":"Feature","properties":{"id":"E01006504","name":"E01006504","parent":"E08000011","type":"LSOA","pop":1186,"r":361,"ff":113,"ffd":9527.8,"ffs":0.4397,"g":102,"co":0,"mo":0,"sa":0,"ic":1},"geometry":{"type":"Polygon","coordinates":[[[-2.78567,53.41496],[-2.78559,53.41191],[-2.78503,53.40958],[-2.78803,53.40934],[-2.78878,53.41014],[-2.78875,53.41111],[-2.78976,53.41175],[-2.78961,53.41202],[-2.79018,53.41252],[-2.79035,53.41229],[-2.79204,53.41218],[-2.79235,53.41239],[-2.79196,53.41281],[-2.79255,53.41292],[-2.79249,53.41331],[-2.79152,53.41327],[-2.79058,53.41371],[-2.79051,53.414],[-2.79136,53.41389],[-2.79162,53.41439],[-2.78567,53.41496]]]}},{"type":"Feature","properties":{"id":"E01006505","name":"E01006505","parent":"E08000011","type":"LSOA","pop":1700,"r":74,"ff":48,"ffd":2823.5,"ffs":0.6486,"g":0,"co":1,"mo":1,"sa":3,"ic":1},"geometry":{"type":"Polygon","coordinates":[[[-2.79481,53.41282],[-2.79468,53.4109],[-2.79648,53.41083],[-2.7969,53.41043],[-2.7947,53.41045],[-2.79459,53.40984],[-2.79554,53.40982],[-2.79496,53.40954],[-2.79399,53.40985],[-2.79296,53.40973],[-2.79284,53.40921],[-2.79552,53.40877],[-2.79902,53.40879],[-2.80082,53.409],[-2.80096,53.40876],[-2.80252,53.4101],[-2.80305,53.41011],[-2.80411,53.40944],[-2.80436,53.40973],[-2.80486,53.40942],[-2.80643,53.4111],[-2.81382,53.41105],[-2.81352,53.41226],[-2.80419,53.4132],[-2.80357,53.41262],[-2.80122,53.4121],[-2.80059,53.41231],[-2.7997,53.41362],[-2.79656,53.41392],[-2.79654,53.41348],[-2.79735,53.41283],[-2.79481,53.41282]]]}},{"type":"Feature","properties":{"id":"E01006506","name":"E01006506","parent":"E08000011","type":"LSOA","pop":1304,"r":464,"ff":153,"ffd":11733.1,"ffs":0.4826,"g":145,"co":0,"mo":2,"sa":0,"ic":0},"geometry":{"type":"Polygon","coordinates":[[[-2.9078,53.46845],[-2.90701,53.46782],[-2.90654,53.46802],[-2.90565,53.46767],[-2.90463,53.46807],[-2.90395,53.4673],[-2.90525,53.46511],[-2.90842,53.46524],[-2.90959,53.46503],[-2.9125,53.46526],[-2.91377,53.46487],[-2.9139,53.46498],[-2.91283,53.46592],[-2.91192,53.46715],[-2.91125,53.46685],[-2.91161,53.46652],[-2.91111,53.46599],[-2.91073,53.4658],[-2.91063,53.46611],[-2.90984,53.46544],[-2.90804,53.46561],[-2.90917,53.46675],[-2.90874,53.46693],[-2.90957,53.46791],[-2.90993,53.46749],[-2.91101,53.46792],[-2.9109,53.46844],[-2.91064,53.4686],[-2.91012,53.46835],[-2.90891,53.4689],[-2.90977,53.46962],[-2.91071,53.46971],[-2.91047,53.47003],[-2.90919,53.46977],[-2.9078,53.46845]]]}},{"type":"Feature","properties":{"id":"E01006507","name":"E01006507","parent":"E08000011","type":"LSOA","pop":1540,"r":352,"ff":94,"ffd":6103.9,"ffs":0.4215,"g":126,"co":0,"mo":2,"sa":0,"ic":0},"geometry":{"type":"Polygon","coordinates":[[[-2.89983,53.48459],[-2.90181,53.48093],[-2.90597,53.48175],[-2.90526,53.48278],[-2.90664,53.48305],[-2.90653,53.48332],[-2.90773,53.4836],[-2.90807,53.484],[-2.90897,53.48374],[-2.90878,53.4832],[-2.90972,53.48312],[-2.91016,53.48253],[-2.91127,53.48323],[-2.90591,53.48547],[-2.90179,53.48668],[-2.90208,53.48597],[-2.90057,53.48532],[-2.89953,53.48511],[-2.89983,53.48459]]]}},{"type":"Feature","properties":{"id":"E01006508","name":"E01006508","parent":"E08000011","type":"LSOA","pop":1424,"r":453,"ff":147,"ffd":10323.0,"ffs":0.4851,"g":147,"co":0,"mo":2,"sa":0,"ic":0},"geometry":{"type":"Polygon","coordinates":[[[-2.90526,53.48278],[-2.90597,53.48175],[-2.90443,53.48144],[-2.90517,53.48009],[-2.90569,53.47996],[-2.9054,53.47959],[-2.90643,53.47929],[-2.90721,53.478],[-2.90559,53.47668],[-2.90759,53.47587],[-2.90765,53.47467],[-2.90645,53.47317],[-2.90686,53.47257],[-2.90662,53.47208],[-2.90716,53.47196],[-2.90706,53.47123],[-2.90652,53.47109],[-2.90463,53.46807],[-2.90565,53.46767],[-2.90654,53.46802],[-2.90701,53.46782],[-2.90919,53.46977],[-2.91047,53.47003],[-2.91087,53.47035],[-2.91322,53.47004],[-2.91332,53.46976],[-2.912,53.46986],[-2.91218,53.46902],[-2.91415,53.46843],[-2.91496,53.46966],[-2.91549,53.4694],[-2.91603,53.47017],[-2.91913,53.47335],[-2.92186,53.47528],[-2.91906,53.47685],[-2.91908,53.47807],[-2.91792,53.47835],[-2.91684,53.47924],[-2.91699,53.47974],[-2.91127,53.48323],[-2.91016,53.48253],[-2.90972,53.48312],[-2.90878,53.4832],[-2.90897,53.48374],[-2.90807,53.484],[-2.90773,53.4836],[-2.90653,53.48332],[-2.90664,53.48305],[-2.90526,53.48278]]]}},{"type":"Feature","properties":{"id":"E01006509","name":"E01006509","parent":"E08000011","type":"LSOA","pop":2233,"r":395,"ff":110,"ffd":4926.1,"ffs":0.4331,"g":138,"co":0,"mo":2,"sa":2,"ic":0},"geometry":{"type":"Polygon","coordinates":[[[-2.90025,53.47319],[-2.90144,53.47275],[-2.90253,53.47302],[-2.90662,53.47208],[-2.90686,53.47257],[-2.90645,53.47317],[-2.90765,53.47467],[-2.90759,53.47587],[-2.90559,53.47668],[-2.90721,53.478],[-2.90643,53.47929],[-2.9054,53.47959],[-2.90569,53.47996],[-2.90517,53.48009],[-2.90443,53.48144],[-2.89761,53.4801],[-2.89927,53.47703],[-2.89618,53.47608],[-2.89769,53.47478],[-2.90009,53.47361],[-2.90025,53.47319]]]}},{"type":"Feature","properties":{"id":"E01006510","name":"E01006510","parent":"E08000011","type":"LSOA","pop":1305,"r":501,"ff":166,"ffd":12720.3,"ffs":0.4868,"g":157,"co":0,"mo":2,"sa":0,"ic":0},"geometry":{"type":"Polygon","coordinates":[[[-2.91603,53.47017],[-2.91549,53.4694],[-2.91496,53.46966],[-2.91415,53.46843],[-2.91218,53.46902],[-2.912,53.46986],[-2.91332,53.46976],[-2.91322,53.47004],[-2.91087,53.47035],[-2.91047,53.47003],[-2.91071,53.46971],[-2.90977,53.46962],[-2.90891,53.4689],[-2.91012,53.46835],[-2.91064,53.4686],[-2.9109,53.46844],[-2.91101,53.46792],[-2.90993,53.46749],[-2.90957,53.46791],[-2.90874,53.46693],[-2.90917,53.46675],[-2.90804,53.46561],[-2.90984,53.46544],[-2.91063,53.46611],[-2.91073,53.4658],[-2.91111,53.46599],[-2.91161,53.46652],[-2.91125,53.46685],[-2.91192,53.46715],[-2.91283,53.46592],[-2.9139,53.46498],[-2.91442,53.465],[-2.91524,53.46678],[-2.91582,53.46884],[-2.91866,53.46831],[-2.921,53.47262],[-2.92,53.47329],[-2.92257,53.475],[-2.92186,53.47528],[-2.91913,53.47335],[-2.91603,53.47017]]]}},{"type":"Feature","properties":{"id":"E01033228","name":"E01033228","parent":"E08000011","type":"LSOA","pop":3409,"r":471,"ff":154,"ffd":4517.5,"ffs":0.4611,"g":135,"co":0,"mo":0,"sa":0,"ic":0},"geometry":{"type":"Polygon","coordinates":[[[-2.85321,53.42767],[-2.85278,53.42695],[-2.85037,53.42431],[-2.85208,53.42415],[-2.85225,53.4239],[-2.85187,53.42379],[-2.8528,53.42335],[-2.8537,53.42326],[-2.8554,53.42349],[-2.85576,53.42328],[-2.85702,53.42499],[-2.85879,53.42514],[-2.85871,53.42376],[-2.8596,53.42277],[-2.86089,53.42186],[-2.86801,53.42054],[-2.86877,53.4228],[-2.86831,53.4239],[-2.86674,53.42387],[-2.86579,53.4245],[-2.86584,53.425],[-2.86489,53.42513],[-2.8642,53.42554],[-2.86376,53.42628],[-2.86314,53.42595],[-2.86135,53.42716],[-2.86196,53.42757],[-2.85916,53.4278],[-2.85812,53.42727],[-2.85697,53.42733],[-2.85701,53.42925],[-2.85657,53.42846],[-2.85321,53.42767]]]}},{"type":"Feature","properties":{"id":"E01034832","name":"E01034832","parent":"E08000011","type":"LSOA","pop":1112,"r":460,"ff":140,"ffd":12589.9,"ffs":0.4389,"g":140,"co":2,"mo":2,"sa":0,"ic":0},"geometry":{"type":"Polygon","coordinates":[[[-2.85993,53.43083],[-2.85867,53.42976],[-2.86135,53.43038],[-2.86357,53.42973],[-2.86414,53.43018],[-2.86532,53.42875],[-2.86666,53.42887],[-2.86689,53.42826],[-2.8693,53.43128],[-2.86891,53.43153],[-2.86938,53.43272],[-2.86879,53.43296],[-2.87266,53.43522],[-2.87196,53.43552],[-2.87326,53.43641],[-2.87245,53.437],[-2.86617,53.43371],[-2.86091,53.4317],[-2.85993,53.43083]]]}},{"type":"Feature","properties":{"id":"E01034833","name":"E01034833","parent":"E08000011","type":"LSOA","pop":2405,"r":482,"ff":144,"ffd":5987.5,"ffs":0.4337,"g":149,"co":0,"mo":0,"sa":0,"ic":0},"geometry":{"type":"Polygon","coordinates":[[[-2.85257,53.43583],[-2.85191,53.4347],[-2.85189,53.43366],[-2.84913,53.43221],[-2.84889,53.43241],[-2.84734,53.43184],[-2.84554,53.43167],[-2.84489,53.43087],[-2.8386,53.43019],[-2.83879,53.42944],[-2.83979,53.42913],[-2.8413,53.4294],[-2.84144,53.42804],[-2.84204,53.42808],[-2.84238,53.4274],[-2.84504,53.42686],[-2.84713,53.42668],[-2.84803,53.42707],[-2.84815,53.42749],[-2.85278,53.42695],[-2.85321,53.42767],[-2.85657,53.42846],[-2.85701,53.42926],[-2.85597,53.42935],[-2.85638,53.43199],[-2.85541,53.43376],[-2.85428,53.43527],[-2.8539,53.43492],[-2.85371,53.43573],[-2.85257,53.43583]]]}},{"type":"Feature","properties":{"id":"E01034834","name":"E01034834","parent":"E08000011","type":"LSOA","pop":1369,"r":350,"ff":102,"ffd":7450.7,"ffs":0.4268,"g":110,"co":0,"mo":0,"sa":0,"ic":0},"geometry":{"type":"Polygon","coordinates":[[[-2.79939,53.4315],[-2.80042,53.43141],[-2.80013,53.43068],[-2.79937,53.43067],[-2.79918,53.42959],[-2.79941,53.42912],[-2.79879,53.42923],[-2.79787,53.429],[-2.79794,53.42879],[-2.79618,53.42858],[-2.79611,53.4282],[-2.79549,53.42822],[-2.7956,53.42733],[-2.79639,53.42637],[-2.79765,53.42684],[-2.79965,53.42575],[-2.80243,53.42533],[-2.80232,53.42617],[-2.80287,53.42605],[-2.80333,53.42791],[-2.80299,53.42792],[-2.80368,53.42841],[-2.80517,53.42875],[-2.80531,53.4285],[-2.80572,53.42861],[-2.80621,53.42944],[-2.80621,53.43057],[-2.80534,53.43094],[-2.80506,53.43066],[-2.80491,53.43114],[-2.80411,53.43118],[-2.80336,53.43057],[-2.80264,53.43052],[-2.80217,53.43114],[-2.80266,53.43117],[-2.8027,53.43145],[-2.80203,53.43138],[-2.80162,53.43168],[-2.80081,53.43147],[-2.79984,53.43182],[-2.79939,53.4315]]]}},{"type":"Feature","properties":{"id":"E01034835","name":"E01034835","parent":"E08000011","type":"LSOA","pop":1139,"r":374,"ff":110,"ffd":9657.6,"ffs":0.4247,"g":114,"co":0,"mo":0,"sa":0,"ic":0},"geometry":{"type":"Polygon","coordinates":[[[-2.80572,53.42861],[-2.80531,53.4285],[-2.80517,53.42875],[-2.80368,53.42841],[-2.80299,53.42792],[-2.80333,53.42791],[-2.80287,53.42605],[-2.80232,53.42617],[-2.80243,53.42533],[-2.79965,53.42575],[-2.79765,53.42684],[-2.79639,53.42637],[-2.79748,53.42568],[-2.80066,53.42283],[-2.80346,53.42361],[-2.80455,53.42573],[-2.80488,53.42545],[-2.8069,53.42558],[-2.80872,53.42627],[-2.8107,53.42657],[-2.81058,53.42684],[-2.81153,53.427],[-2.8115,53.42726],[-2.81056,53.42718],[-2.81034,53.42683],[-2.8102,53.42707],[-2.80753,53.42705],[-2.80653,53.42812],[-2.80672,53.42849],[-2.8064,53.42868],[-2.8067,53.4294],[-2.80621,53.42944],[-2.80572,53.42861]]]}}]}