{"type":"FeatureCollection","features":[{"type":"Feature","properties":{"id":"E01001851","name":"E01001851","parent":"E09000013","type":"LSOA","pop":1460,"r":911,"ff":297,"ffd":20342.5,"ffs":0.4003,"g":166,"co":0,"mo":2,"sa":0,"ic":0},"geometry":{"type":"Polygon","coordinates":[[[-0.21734,51.49952],[-0.21741,51.49927],[-0.2172,51.49949],[-0.21598,51.49917],[-0.21562,51.4997],[-0.21541,51.49931],[-0.21597,51.49855],[-0.21559,51.49843],[-0.21666,51.4975],[-0.21753,51.49754],[-0.21801,51.49716],[-0.21984,51.49761],[-0.21942,51.49811],[-0.21901,51.49805],[-0.21936,51.49819],[-0.22178,51.49864],[-0.22154,51.49961],[-0.22052,51.49972],[-0.21786,51.50109],[-0.21747,51.50099],[-0.2175,51.50072],[-0.21792,51.50033],[-0.21736,51.50014],[-0.21791,51.49968],[-0.21734,51.49952]]]}},{"type":"Feature","properties":{"id":"E01001852","name":"E01001852","parent":"E09000013","type":"LSOA","pop":1645,"r":892,"ff":298,"ffd":18115.5,"ffs":0.4082,"g":159,"co":0,"mo":2,"sa":0,"ic":0},"geometry":{"type":"Polygon","coordinates":[[[-0.21682,51.50423],[-0.21531,51.50252],[-0.21407,51.50068],[-0.21501,51.50034],[-0.21561,51.5012],[-0.21754,51.50018],[-0.21792,51.50033],[-0.2175,51.50072],[-0.21765,51.50182],[-0.21859,51.50132],[-0.21897,51.50148],[-0.21796,51.502],[-0.21955,51.50158],[-0.21998,51.50237],[-0.21954,51.50236],[-0.21941,51.50292],[-0.21678,51.50267],[-0.21746,51.5043],[-0.21682,51.50423]]]}},{"type":"Feature","properties":{"id":"E01001853","name":"E01001853","parent":"E09000013","type":"LSOA","pop":1513,"r":918,"ff":302,"ffd":19960.3,"ffs":0.3995,"g":158,"co":0,"mo":2,"sa":0,"ic":0},"geometry":{"type":"Polygon","coordinates":[[[-0.22261,51.50129],[-0.22263,51.49914],[-0.22313,51.49879],[-0.225,51.49908],[-0.22508,51.49846],[-0.22547,51.49882],[-0.226,51.49879],[-0.22654,51.50124],[-0.22502,51.50157],[-0.22399,51.50212],[-0.2229,51.50205],[-0.22261,51.50129]]]}},{"type":"Feature","properties":{"id":"E01001854","name":"E01001854","parent":"E09000013","type":"LSOA","pop":1768,"r":909,"ff":304,"ffd":17194.6,"ffs":0.407,"g":158,"co":0,"mo":2,"sa":0,"ic":0},"geometry":{"type":"Polygon","coordinates":[[[-0.21998,51.50237],[-0.21955,51.50158],[-0.21796,51.502],[-0.21897,51.50148],[-0.21859,51.50132],[-0.21765,51.50182],[-0.21747,51.50099],[-0.21786,51.50109],[-0.21936,51.50034],[-0.22001,51.50062],[-0.22139,51.49982],[-0.22263,51.50005],[-0.22261,51.50129],[-0.22211,51.5013],[-0.22212,51.5016],[-0.22121,51.50169],[-0.22128,51.50225],[-0.22195,51.5022],[-0.22214,51.50251],[-0.22258,51.50268],[-0.21986,51.50295],[-0.21998,51.50237]]]}},{"type":"Feature","properties":{"id":"E01001855","name":"E01001855","parent":"E09000013","type":"LSOA","pop":1721,"r":886,"ff":279,"ffd":16211.5,"ffs":0.3864,"g":161,"co":0,"mo":2,"sa":0,"ic":0},"geometry":{"type":"Polygon","coordinates":[[[-0.21561,51.5012],[-0.21501,51.50034],[-0.21407,51.50068],[-0.2099,51.49778],[-0.21161,51.49759],[-0.21229,51.49818],[-0.21307,51.49809],[-0.21337,51.4985],[-0.21414,51.49854],[-0.21489,51.49931],[-0.21541,51.49931],[-0.21562,51.4997],[-0.21598,51.49917],[-0.2172,51.49949],[-0.21741,51.49927],[-0.21734,51.49952],[-0.21791,51.49968],[-0.21736,51.50014],[-0.21754,51.50018],[-0.21561,51.5012]]]}},{"type":"Feature","properties":{"id":"E01001856","name":"E01001856","parent":"E09000013","type":"LSOA","pop":1625,"r":916,"ff":303,"ffd":18646.2,"ffs":0.4035,"g":162,"co":0,"mo":2,"sa":0,"ic":0},"geometry":{"type":"Polygon","coordinates":[[[-0.21936,51.50034],[-0.22052,51.49972],[-0.22154,51.49961],[-0.22178,51.49864],[-0.21901,51.49805],[-0.21942,51.49811],[-0.21984,51.49761],[-0.21827,51.49723],[-0.21914,51.49668],[-0.22183,51.49734],[-0.2216,51.49787],[-0.2219,51.49792],[-0.22234,51.49724],[-0.22478,51.49728],[-0.22508,51.49846],[-0.225,51.49908],[-0.22313,51.49879],[-0.22263,51.49914],[-0.22263,51.50005],[-0.22139,51.49982],[-0.22001,51.50062],[-0.21936,51.50034]]]}},{"type":"Feature","properties":{"id":"E01001857","name":"E01001857","parent":"E09000013","type":"LSOA","pop":1621,"r":1000,"ff":337,"ffd":20789.6,"ffs":0.408,"g":170,"co":0,"mo":0,"sa":0,"ic":0},"geometry":{"type":"Polygon","coordinates":[[[-0.21702,51.5045],[-0.21682,51.50423],[-0.21746,51.5043],[-0.21678,51.50267],[-0.21941,51.50292],[-0.21954,51.50236],[-0.21998,51.50237],[-0.21986,51.50295],[-0.22258,51.50268],[-0.22214,51.50251],[-0.22195,51.5022],[-0.22128,51.50225],[-0.22121,51.50169],[-0.22212,51.5016],[-0.22211,51.5013],[-0.22261,51.50129],[-0.2229,51.50205],[-0.22399,51.50212],[-0.22363,51.50284],[-0.22307,51.50302],[-0.22327,51.5033],[-0.21702,51.5045]]]}},{"type":"Feature","properties":{"id":"E01001858","name":"E01001858","parent":"E09000013","type":"LSOA","pop":1838,"r":830,"ff":277,"ffd":15070.7,"ffs":0.4086,"g":149,"co":0,"mo":0,"sa":0,"ic":0},"geometry":{"type":"Polygon","coordinates":[[[-0.23545,51.50156],[-0.23506,51.50144],[-0.23531,51.50192],[-0.23501,51.50201],[-0.23407,51.50115],[-0.23394,51.50135],[-0.23351,51.50139],[-0.23253,51.5014],[-0.2324,51.50124],[-0.23596,51.50032],[-0.23994,51.49958],[-0.24084,51.50003],[-0.24188,51.50184],[-0.24,51.50131],[-0.23981,51.50143],[-0.23857,51.50011],[-0.23752,51.50264],[-0.23751,51.5029],[-0.2381,51.50311],[-0.23704,51.50453],[-0.23566,51.50468],[-0.23553,51.50373],[-0.23591,51.50368],[-0.2355,51.50288],[-0.23626,51.50224],[-0.23545,51.50156]]]}},{"type":"Feature","properties":{"id":"E01001859","name":"E01001859","parent":"E09000013","type":"LSOA","pop":2658,"r":690,"ff":266,"ffd":10007.5,"ffs":0.4594,"g":110,"co":0,"mo":0,"sa":0,"ic":0},"geometry":{"type":"Polygon","coordinates":[[[-0.25267,51.50471],[-0.2526,51.50448],[-0.25083,51.50456],[-0.25051,51.50322],[-0.25212,51.50292],[-0.25203,51.50262],[-0.24983,51.50293],[-0.24998,51.5035],[-0.24961,51.50354],[-0.24882,51.50306],[-0.24917,51.50148],[-0.24964,51.50133],[-0.24936,51.50099],[-0.25074,51.50061],[-0.25105,51.50096],[-0.25217,51.50064],[-0.25306,51.5014],[-0.25317,51.50254],[-0.25395,51.50345],[-0.25505,51.5043],[-0.25371,51.50429],[-0.25369,51.50457],[-0.25267,51.50471]]]}},{"type":"Feature","properties":{"id":"E01001860","name":"E01001860","parent":"E09000013","type":"LSOA","pop":1758,"r":878,"ff":302,"ffd":17178.6,"ffs":0.4183,"g":153,"co":0,"mo":0,"sa":0,"ic":0},"geometry":{"type":"Polygon","coordinates":[[[-0.2403,51.50655],[-0.23542,51.50645],[-0.23528,51.50595],[-0.23615,51.50585],[-0.23756,51.50605],[-0.23771,51.50531],[-0.23849,51.50472],[-0.2392,51.50456],[-0.2393,51.50537],[-0.24122,51.5053],[-0.24242,51.50442],[-0.24223,51.50419],[-0.24289,51.50426],[-0.24314,51.50385],[-0.24352,51.50383],[-0.24337,51.5034],[-0.24271,51.50361],[-0.2417,51.50331],[-0.24275,51.50278],[-0.24178,51.50216],[-0.24157,51.50173],[-0.24222,51.50203],[-0.24305,51.50181],[-0.24398,51.50396],[-0.24321,51.50462],[-0.24315,51.50512],[-0.24208,51.50542],[-0.24244,51.50583],[-0.24283,51.50578],[-0.24202,51.50668],[-0.2403,51.50655]]]}},{"type":"Feature","properties":{"id":"E01001861","name":"E01001861","parent":"E09000013","type":"LSOA","pop":1362,"r":827,"ff":281,"ffd":20631.4,"ffs":0.4151,"g":147,"co":0,"mo":0,"sa":0,"ic":0},"geometry":{"type":"Polygon","coordinates":[[[-0.24202,51.50668],[-0.24283,51.50578],[-0.24244,51.50583],[-0.24208,51.50542],[-0.24315,51.50512],[-0.24321,51.50462],[-0.24398,51.50396],[-0.24672,51.50357],[-0.24731,51.50323],[-0.24697,51.50375],[-0.24536,51.50403],[-0.24608,51.50459],[-0.2457,51.50467],[-0.24649,51.50673],[-0.24202,51.50668]]]}},{"type":"Feature","properties":{"id":"E01001862","name":"E01001862","parent":"E09000013","type":"LSOA","pop":1850,"r":891,"ff":301,"ffd":16270.3,"ffs":0.4095,"g":153,"co":0,"mo":0,"sa":0,"ic":0},"geometry":{"type":"Polygon","coordinates":[[[-0.23421,51.50607],[-0.23368,51.50435],[-0.23332,51.50445],[-0.23316,51.50404],[-0.23273,51.50283],[-0.23253,51.5014],[-0.23394,51.50135],[-0.23407,51.50115],[-0.23501,51.50201],[-0.23531,51.50192],[-0.23506,51.50144],[-0.23626,51.50224],[-0.2355,51.50288],[-0.23591,51.50368],[-0.23553,51.50373],[-0.23556,51.50535],[-0.23611,51.50549],[-0.23615,51.50585],[-0.23528,51.50595],[-0.23542,51.50645],[-0.23457,51.50644],[-0.23421,51.50607]]]}},{"type":"Feature","properties":{"id":"E01001863","name":"E01001863","parent":"E09000013","type":"LSOA","pop":1367,"r":866,"ff":294,"ffd":21506.9,"ffs":0.4147,"g":154,"co":0,"mo":0,"sa":0,"ic":0},"geometry":{"type":"Polygon","coordinates":[[[-0.23752,51.50264],[-0.23857,51.50011],[-0.23981,51.50143],[-0.23968,51.50162],[-0.24051,51.50181],[-0.2392,51.50456],[-0.23849,51.50472],[-0.23771,51.50531],[-0.23756,51.50605],[-0.23615,51.50585],[-0.23611,51.50549],[-0.23556,51.50535],[-0.23566,51.50468],[-0.23704,51.50453],[-0.2381,51.50311],[-0.23751,51.5029],[-0.23752,51.50264]]]}},{"type":"Feature","properties":{"id":"E01001864","name":"E01001864","parent":"E09000013","type":"LSOA","pop":1514,"r":852,"ff":288,"ffd":19022.5,"ffs":0.412,"g":150,"co":0,"mo":0,"sa":0,"ic":0},"geometry":{"type":"Polygon","coordinates":[[[-0.2392,51.50456],[-0.24051,51.50181],[-0.23968,51.50162],[-0.24,51.50131],[-0.24157,51.50173],[-0.24178,51.50216],[-0.24275,51.50278],[-0.2417,51.50331],[-0.24271,51.50361],[-0.24337,51.5034],[-0.24352,51.50383],[-0.24314,51.50385],[-0.24289,51.50426],[-0.24223,51.50419],[-0.24242,51.50442],[-0.24122,51.5053],[-0.2393,51.50537],[-0.2392,51.50456]]]}},{"type":"Feature","properties":{"id":"E01001865","name":"E01001865","parent":"E09000013","type":"LSOA","pop":1576,"r":803,"ff":272,"ffd":17258.9,"ffs":0.4153,"g":145,"co":0,"mo":0,"sa":0,"ic":0},"geometry":{"type":"Polygon","coordinates":[[[-0.24925,51.5044],[-0.24802,51.50435],[-0.24608,51.50459],[-0.24536,51.50403],[-0.24697,51.50375],[-0.24731,51.50323],[-0.24672,51.50357],[-0.24398,51.50396],[-0.24347,51.50252],[-0.24433,51.5022],[-0.24487,51.50235],[-0.24474,51.50212],[-0.24698,51.50165],[-0.24715,51.50183],[-0.24764,51.50142],[-0.2489,51.50116],[-0.24917,51.50148],[-0.24882,51.50306],[-0.24961,51.50354],[-0.24998,51.5035],[-0.24983,51.50293],[-0.25203,51.50262],[-0.25212,51.50292],[-0.25051,51.50322],[-0.25083,51.50456],[-0.24988,51.50439],[-0.24942,51.50466],[-0.24925,51.5044]]]}},{"type":"Feature","properties":{"id":"E01001866","name":"E01001866","parent":"E09000013","type":"LSOA","pop":1573,"r":999,"ff":335,"ffd":21296.9,"ffs":0.4095,"g":177,"co":0,"mo":2,"sa":0,"ic":0},"geometry":{"type":"Polygon","coordinates":[[[-0.2099,51.49778],[-0.20798,51.49602],[-0.20736,51.49615],[-0.20578,51.49519],[-0.20716,51.49419],[-0.20758,51.49435],[-0.20733,51.49455],[-0.20806,51.495],[-0.20844,51.49482],[-0.2091,51.49543],[-0.20966,51.4952],[-0.20906,51.49469],[-0.20921,51.49436],[-0.20982,51.49393],[-0.20811,51.49297],[-0.20764,51.49247],[-0.20898,51.49261],[-0.2087,51.49277],[-0.20944,51.49321],[-0.20985,51.49291],[-0.21088,51.49321],[-0.21079,51.49377],[-0.21155,51.4936],[-0.21136,51.4942],[-0.21213,51.49422],[-0.21241,51.49466],[-0.21275,51.49453],[-0.21315,51.49492],[-0.21237,51.49549],[-0.21267,51.49629],[-0.2142,51.49647],[-0.21495,51.49604],[-0.21526,51.49625],[-0.21458,51.49695],[-0.21324,51.49715],[-0.21202,51.49687],[-0.21161,51.49759],[-0.2099,51.49778]]]}},{"type":"Feature","properties":{"id":"E01001867","name":"E01001867","parent":"E09000013","type":"LSOA","pop":1256,"r":859,"ff":280,"ffd":22293.0,"ffs":0.4011,"g":159,"co":0,"mo":2,"sa":0,"ic":0},"geometry":{"type":"Polygon","coordinates":[[[-0.21694,51.49387],[-0.21686,51.49335],[-0.21645,51.49342],[-0.21655,51.49274],[-0.21528,51.49286],[-0.21532,51.49223],[-0.21452,51.49115],[-0.21467,51.4908],[-0.21648,51.49076],[-0.21929,51.49136],[-0.21938,51.49322],[-0.21999,51.49322],[-0.22007,51.49377],[-0.21694,51.49387]]]}},{"type":"Feature","properties":{"id":"E01001868","name":"E01001868","parent":"E09000013","type":"LSOA","pop":1316,"r":950,"ff":314,"ffd":23860.2,"ffs":0.4031,"g":168,"co":0,"mo":2,"sa":0,"ic":0},"geometry":{"type":"Polygon","coordinates":[[[-0.2091,51.49543],[-0.20844,51.49482],[-0.20806,51.495],[-0.20733,51.49455],[-0.20758,51.49435],[-0.20599,51.49366],[-0.20679,51.49335],[-0.20722,51.49289],[-0.20675,51.49266],[-0.20506,51.49394],[-0.20471,51.49375],[-0.20573,51.493],[-0.20415,51.49219],[-0.20531,51.49243],[-0.20595,51.49206],[-0.20509,51.49167],[-0.2058,51.49135],[-0.20633,51.49157],[-0.20618,51.4921],[-0.2073,51.49202],[-0.20811,51.49297],[-0.20982,51.49393],[-0.20921,51.49436],[-0.20906,51.49469],[-0.20966,51.4952],[-0.2091,51.49543]]]}},{"type":"Feature","properties":{"id":"E01001869","name":"E01001869","parent":"E09000013","type":"LSOA","pop":1472,"r":911,"ff":289,"ffd":19633.2,"ffs":0.3884,"g":164,"co":0,"mo":2,"sa":0,"ic":0},"geometry":{"type":"Polygon","coordinates":[[[-0.22334,51.4972],[-0.22234,51.49724],[-0.2219,51.49792],[-0.2216,51.49787],[-0.22183,51.49734],[-0.21914,51.49668],[-0.21753,51.49754],[-0.21666,51.4975],[-0.21569,51.4966],[-0.21681,51.49568],[-0.21526,51.49625],[-0.21386,51.49569],[-0.21545,51.49491],[-0.21488,51.49427],[-0.21529,51.49399],[-0.21564,51.4943],[-0.21619,51.49412],[-0.21645,51.49342],[-0.21686,51.49335],[-0.21694,51.49387],[-0.22007,51.49377],[-0.21999,51.49322],[-0.22043,51.49315],[-0.22029,51.49486],[-0.22118,51.4949],[-0.22121,51.49467],[-0.2217,51.49471],[-0.22166,51.49495],[-0.22395,51.49495],[-0.22392,51.49541],[-0.22532,51.4954],[-0.226,51.49879],[-0.22547,51.49882],[-0.22505,51.49845],[-0.22478,51.49728],[-0.22334,51.4972]]]}},{"type":"Feature","properties":{"id":"E01001870","name":"E01001870","parent":"E09000013","type":"LSOA","pop":1745,"r":959,"ff":319,"ffd":18280.8,"ffs":0.4059,"g":169,"co":0,"mo":2,"sa":0,"ic":0},"geometry":{"type":"Polygon","coordinates":[[[-0.20398,51.49406],[-0.20186,51.49188],[-0.20872,51.49062],[-0.20899,51.49108],[-0.20937,51.49102],[-0.2092,51.49195],[-0.20739,51.49172],[-0.2073,51.49202],[-0.20618,51.4921],[-0.20633,51.49157],[-0.2058,51.49135],[-0.20509,51.49167],[-0.20595,51.49206],[-0.20531,51.49243],[-0.20415,51.49219],[-0.20573,51.493],[-0.20471,51.49375],[-0.20506,51.49394],[-0.20675,51.49266],[-0.20722,51.49289],[-0.20679,51.49335],[-0.20599,51.49366],[-0.20716,51.49419],[-0.20578,51.49519],[-0.20499,51.49484],[-0.20398,51.49406]]]}},{"type":"Feature","properties":{"id":"E01001871","name":"E01001871","parent":"E09000013","type":"LSOA","pop":1572,"r":971,"ff":318,"ffd":20229.0,"ffs":0.4036,"g":179,"co":0,"mo":2,"sa":0,"ic":0},"geometry":{"type":"Polygon","coordinates":[[[-0.21315,51.49492],[-0.21275,51.49453],[-0.21241,51.49466],[-0.21213,51.49422],[-0.21136,51.4942],[-0.21155,51.4936],[-0.21079,51.49377],[-0.21088,51.49321],[-0.21059,51.49323],[-0.21056,51.4928],[-0.21134,51.49285],[-0.21147,51.4925],[-0.21331,51.49277],[-0.21311,51.4916],[-0.21163,51.49148],[-0.21175,51.49059],[-0.21467,51.4908],[-0.21452,51.49115],[-0.21532,51.49223],[-0.21528,51.49286],[-0.21655,51.49274],[-0.21619,51.49412],[-0.21564,51.4943],[-0.21529,51.49399],[-0.21488,51.49427],[-0.21545,51.49491],[-0.21386,51.49569],[-0.21495,51.49604],[-0.2142,51.49647],[-0.21267,51.49629],[-0.21237,51.49549],[-0.21315,51.49492]]]}},{"type":"Feature","properties":{"id":"E01001872","name":"E01001872","parent":"E09000013","type":"LSOA","pop":1306,"r":941,"ff":311,"ffd":23813.2,"ffs":0.4065,"g":173,"co":0,"mo":2,"sa":0,"ic":0},"geometry":{"type":"Polygon","coordinates":[[[-0.21059,51.49323],[-0.20985,51.49291],[-0.20944,51.49321],[-0.2087,51.49277],[-0.20898,51.49261],[-0.20764,51.49247],[-0.2073,51.49202],[-0.20739,51.49172],[-0.2092,51.49195],[-0.20937,51.49102],[-0.20899,51.49108],[-0.20872,51.49062],[-0.21022,51.49051],[-0.21175,51.49059],[-0.21163,51.49148],[-0.21311,51.4916],[-0.21326,51.49178],[-0.21331,51.49277],[-0.21147,51.4925],[-0.21134,51.49285],[-0.21056,51.4928],[-0.21059,51.49323]]]}},{"type":"Feature","properties":{"id":"E01001873","name":"E01001873","parent":"E09000013","type":"LSOA","pop":1502,"r":889,"ff":281,"ffd":18708.4,"ffs":0.3876,"g":161,"co":0,"mo":2,"sa":0,"ic":0},"geometry":{"type":"Polygon","coordinates":[[[-0.21414,51.49854],[-0.21337,51.4985],[-0.21307,51.49809],[-0.21229,51.49818],[-0.21161,51.49759],[-0.21202,51.49687],[-0.21324,51.49715],[-0.21458,51.49695],[-0.21526,51.49625],[-0.21681,51.49568],[-0.21569,51.4966],[-0.21666,51.4975],[-0.21559,51.49843],[-0.21597,51.49855],[-0.21541,51.49931],[-0.21489,51.49931],[-0.21414,51.49854]]]}},{"type":"Feature","properties":{"id":"E01001875","name":"E01001875","parent":"E09000013","type":"LSOA","pop":1734,"r":911,"ff":332,"ffd":19146.5,"ffs":0.4415,"g":155,"co":0,"mo":0,"sa":0,"ic":0},"geometry":{"type":"Polygon","coordinates":[[[-0.24286,51.51793],[-0.24254,51.5156],[-0.24293,51.51474],[-0.24192,51.51456],[-0.23949,51.51476],[-0.23877,51.51464],[-0.23879,51.51424],[-0.2424,51.51428],[-0.24897,51.51388],[-0.24917,51.51413],[-0.24971,51.51575],[-0.24926,51.5157],[-0.24664,51.51751],[-0.2454,51.51737],[-0.24441,51.51784],[-0.24323,51.51748],[-0.24332,51.51795],[-0.24286,51.51793]]]}},{"type":"Feature","properties":{"id":"E01001876","name":"E01001876","parent":"E09000013","type":"LSOA","pop":2319,"r":1016,"ff":360,"ffd":15523.9,"ffs":0.425,"g":165,"co":0,"mo":0,"sa":0,"ic":0},"geometry":{"type":"Polygon","coordinates":[[[-0.24227,51.52452],[-0.23831,51.52207],[-0.2359,51.52204],[-0.23425,51.52088],[-0.23236,51.51862],[-0.23125,51.51797],[-0.2317,51.51626],[-0.23085,51.51567],[-0.23124,51.51515],[-0.23067,51.51479],[-0.23879,51.51424],[-0.23877,51.51464],[-0.23949,51.51476],[-0.24192,51.51456],[-0.24293,51.51474],[-0.24254,51.5156],[-0.24286,51.51793],[-0.24332,51.51795],[-0.24629,51.51985],[-0.24964,51.51982],[-0.25038,51.52004],[-0.25132,51.52148],[-0.25137,51.52191],[-0.247,51.52342],[-0.24686,51.52377],[-0.24227,51.52452]]]}},{"type":"Feature","properties":{"id":"E01001877","name":"E01001877","parent":"E09000013","type":"LSOA","pop":2250,"r":816,"ff":315,"ffd":14000.0,"ffs":0.4701,"g":141,"co":0,"mo":0,"sa":0,"ic":0},"geometry":{"type":"Polygon","coordinates":[[[-0.2339,51.53235],[-0.23143,51.53112],[-0.22848,51.53035],[-0.22862,51.53006],[-0.22743,51.52805],[-0.22718,51.52485],[-0.22882,51.52504],[-0.23275,51.52483],[-0.23375,51.52546],[-0.23441,51.5255],[-0.24686,51.52377],[-0.247,51.52342],[-0.25137,51.52191],[-0.25132,51.52148],[-0.25191,51.52226],[-0.25267,51.52451],[-0.25247,51.52521],[-0.25023,51.52722],[-0.25053,51.52781],[-0.24964,51.52913],[-0.24695,51.5308],[-0.24542,51.53111],[-0.24527,51.53129],[-0.24692,51.53185],[-0.24637,51.5328],[-0.24387,51.53191],[-0.23729,51.53203],[-0.23449,51.5327],[-0.2339,51.53235]]]}},{"type":"Feature","properties":{"id":"E01001878","name":"E01001878","parent":"E09000013","type":"LSOA","pop":1552,"r":874,"ff":318,"ffd":20489.7,"ffs":0.4417,"g":150,"co":0,"mo":0,"sa":0,"ic":0},"geometry":{"type":"Polygon","coordinates":[[[-0.25038,51.52004],[-0.24964,51.51982],[-0.24629,51.51985],[-0.24332,51.51795],[-0.24323,51.51748],[-0.24441,51.51784],[-0.2454,51.51737],[-0.24664,51.51751],[-0.24926,51.5157],[-0.24971,51.51575],[-0.25033,51.51776],[-0.25064,51.51963],[-0.25038,51.52004]]]}},{"type":"Feature","properties":{"id":"E01001879","name":"E01001879","parent":"E09000013","type":"LSOA","pop":1498,"r":830,"ff":271,"ffd":18090.8,"ffs":0.4033,"g":156,"co":0,"mo":2,"sa":0,"ic":0},"geometry":{"type":"Polygon","coordinates":[[[-0.20594,51.48326],[-0.20523,51.4826],[-0.20481,51.4828],[-0.20429,51.48213],[-0.20532,51.48177],[-0.20589,51.48212],[-0.2074,51.48165],[-0.20721,51.48085],[-0.20987,51.48126],[-0.20942,51.48142],[-0.21061,51.48284],[-0.21045,51.48288],[-0.21059,51.48309],[-0.20708,51.48401],[-0.20683,51.48341],[-0.20594,51.48326]]]}},{"type":"Feature","properties":{"id":"E01001880","name":"E01001880","parent":"E09000013","type":"LSOA","pop":1426,"r":775,"ff":238,"ffd":16690.0,"ffs":0.3839,"g":152,"co":0,"mo":2,"sa":0,"ic":0},"geometry":{"type":"Polygon","coordinates":[[[-0.19077,51.48317],[-0.19325,51.48171],[-0.19532,51.48005],[-0.1958,51.48],[-0.19837,51.4807],[-0.19766,51.48098],[-0.19813,51.48122],[-0.19768,51.48143],[-0.19721,51.48127],[-0.19766,51.48199],[-0.1968,51.48187],[-0.19579,51.48238],[-0.19635,51.48293],[-0.19737,51.48321],[-0.19711,51.48371],[-0.19607,51.48404],[-0.19642,51.48439],[-0.19589,51.48456],[-0.19535,51.48387],[-0.19577,51.48372],[-0.19456,51.48241],[-0.19424,51.48236],[-0.1939,51.483],[-0.19318,51.4831],[-0.19396,51.4841],[-0.19327,51.48433],[-0.19397,51.48493],[-0.1938,51.48559],[-0.19356,51.48579],[-0.19077,51.48317]]]}},{"type":"Feature","properties":{"id":"E01001881","name":"E01001881","parent":"E09000013","type":"LSOA","pop":1842,"r":793,"ff":254,"ffd":13789.4,"ffs":0.3956,"g":148,"co":0,"mo":2,"sa":0,"ic":0},"geometry":{"type":"Polygon","coordinates":[[[-0.20032,51.48263],[-0.20022,51.48252],[-0.19866,51.48358],[-0.19775,51.48305],[-0.19737,51.48321],[-0.19635,51.48293],[-0.19579,51.48238],[-0.1968,51.48187],[-0.19766,51.48199],[-0.19721,51.48127],[-0.19768,51.48143],[-0.19813,51.48122],[-0.19766,51.48098],[-0.19837,51.4807],[-0.19907,51.48082],[-0.19914,51.48106],[-0.19944,51.48087],[-0.19995,51.48123],[-0.20153,51.4808],[-0.2019,51.48038],[-0.20248,51.48099],[-0.20333,51.48246],[-0.20234,51.48307],[-0.2023,51.48368],[-0.20173,51.48438],[-0.20032,51.48263]]]}},{"type":"Feature","properties":{"id":"E01001882","name":"E01001882","parent":"E09000013","type":"LSOA","pop":1656,"r":804,"ff":258,"ffd":15579.7,"ffs":0.3963,"g":151,"co":0,"mo":2,"sa":0,"ic":0},"geometry":{"type":"Polygon","coordinates":[[[-0.20279,51.48175],[-0.20248,51.48099],[-0.2019,51.48038],[-0.20153,51.4808],[-0.19995,51.48123],[-0.19944,51.48087],[-0.19914,51.48106],[-0.19908,51.48073],[-0.20224,51.48006],[-0.20369,51.47926],[-0.20532,51.48064],[-0.20721,51.48085],[-0.2074,51.48165],[-0.20589,51.48212],[-0.20532,51.48177],[-0.20333,51.48246],[-0.20279,51.48175]]]}},{"type":"Feature","properties":{"id":"E01001883","name":"E01001883","parent":"E09000013","type":"LSOA","pop":2104,"r":843,"ff":261,"ffd":12404.9,"ffs":0.3838,"g":160,"co":0,"mo":2,"sa":0,"ic":0},"geometry":{"type":"Polygon","coordinates":[[[-0.1938,51.48559],[-0.19397,51.48493],[-0.19327,51.48433],[-0.19396,51.4841],[-0.19318,51.4831],[-0.1939,51.483],[-0.19424,51.48236],[-0.19456,51.48241],[-0.19577,51.48372],[-0.19535,51.48387],[-0.19589,51.48456],[-0.19642,51.48439],[-0.19607,51.48404],[-0.19711,51.48371],[-0.19737,51.48321],[-0.19775,51.48305],[-0.19886,51.48378],[-0.19788,51.48411],[-0.19883,51.48523],[-0.19984,51.48496],[-0.19997,51.48521],[-0.19865,51.48555],[-0.19878,51.48599],[-0.1992,51.48623],[-0.19596,51.48737],[-0.19356,51.48579],[-0.1938,51.48559]]]}},{"type":"Feature","properties":{"id":"E01001884","name":"E01001884","parent":"E09000013","type":"LSOA","pop":1778,"r":838,"ff":253,"ffd":14229.5,"ffs":0.3776,"g":165,"co":0,"mo":2,"sa":0,"ic":0},"geometry":{"type":"Polygon","coordinates":[[[-0.19997,51.48521],[-0.19984,51.48496],[-0.19883,51.48523],[-0.19788,51.48411],[-0.19886,51.48378],[-0.19866,51.48358],[-0.20022,51.48252],[-0.20173,51.48438],[-0.2023,51.48368],[-0.20295,51.48365],[-0.20364,51.48417],[-0.20236,51.48465],[-0.20324,51.48505],[-0.20254,51.4855],[-0.1992,51.48623],[-0.19878,51.48599],[-0.19865,51.48555],[-0.19997,51.48521]]]}},{"type":"Feature","properties":{"id":"E01001885","name":"E01001885","parent":"E09000013","type":"LSOA","pop":1313,"r":842,"ff":269,"ffd":20487.4,"ffs":0.3973,"g":162,"co":0,"mo":2,"sa":0,"ic":0},"geometry":{"type":"Polygon","coordinates":[[[-0.20364,51.48417],[-0.20295,51.48365],[-0.2023,51.48368],[-0.20234,51.48307],[-0.20429,51.48213],[-0.20481,51.4828],[-0.20523,51.4826],[-0.20594,51.48326],[-0.20683,51.48341],[-0.20708,51.48401],[-0.20496,51.48444],[-0.20324,51.48505],[-0.20236,51.48465],[-0.20364,51.48417]]]}},{"type":"Feature","properties":{"id":"E01001886","name":"E01001886","parent":"E09000013","type":"LSOA","pop":1619,"r":790,"ff":249,"ffd":15379.9,"ffs":0.394,"g":156,"co":0,"mo":2,"sa":0,"ic":0},"geometry":{"type":"Polygon","coordinates":[[[-0.21403,51.48586],[-0.21385,51.48538],[-0.21339,51.48546],[-0.21242,51.48421],[-0.21094,51.4847],[-0.21071,51.48421],[-0.21007,51.48462],[-0.20879,51.48387],[-0.20799,51.48377],[-0.21507,51.4822],[-0.21582,51.48316],[-0.2173,51.48239],[-0.2183,51.48308],[-0.21818,51.48349],[-0.2172,51.48338],[-0.21676,51.4836],[-0.21702,51.48411],[-0.21668,51.4843],[-0.21637,51.48345],[-0.2157,51.48384],[-0.21525,51.48334],[-0.21483,51.48382],[-0.21333,51.48412],[-0.21311,51.48429],[-0.21369,51.48469],[-0.2134,51.4849],[-0.21479,51.48559],[-0.21403,51.48586]]]}},{"type":"Feature","properties":{"id":"E01001887","name":"E01001887","parent":"E09000013","type":"LSOA","pop":1481,"r":786,"ff":253,"ffd":17083.1,"ffs":0.4003,"g":152,"co":0,"mo":2,"sa":0,"ic":0},"geometry":{"type":"Polygon","coordinates":[[[-0.21479,51.48559],[-0.2134,51.4849],[-0.21369,51.48469],[-0.21311,51.48429],[-0.21362,51.48396],[-0.21483,51.48382],[-0.21525,51.48334],[-0.2157,51.48384],[-0.21637,51.48345],[-0.21668,51.4843],[-0.21702,51.48411],[-0.21676,51.4836],[-0.2172,51.48338],[-0.21818,51.48349],[-0.2183,51.48308],[-0.2173,51.48239],[-0.21582,51.48316],[-0.21507,51.4822],[-0.21808,51.48137],[-0.21844,51.48211],[-0.21893,51.48203],[-0.21952,51.48226],[-0.2199,51.48279],[-0.21902,51.48306],[-0.2197,51.48316],[-0.21971,51.48344],[-0.21934,51.48353],[-0.21914,51.48393],[-0.21954,51.48464],[-0.21653,51.48519],[-0.21653,51.48556],[-0.21539,51.48541],[-0.21479,51.48559]]]}},{"type":"Feature","properties":{"id":"E01001888","name":"E01001888","parent":"E09000013","type":"LSOA","pop":1609,"r":689,"ff":224,"ffd":13921.7,"ffs":0.4014,"g":129,"co":0,"mo":2,"sa":0,"ic":0},"geometry":{"type":"Polygon","coordinates":[[[-0.22347,51.48505],[-0.2233,51.48484],[-0.22246,51.485],[-0.22184,51.48422],[-0.22055,51.48462],[-0.21971,51.48344],[-0.2197,51.48316],[-0.21902,51.48306],[-0.2199,51.48279],[-0.21952,51.48226],[-0.21969,51.48242],[-0.22212,51.48146],[-0.22323,51.48144],[-0.22354,51.48192],[-0.22315,51.48221],[-0.22334,51.48259],[-0.22408,51.48244],[-0.22496,51.48421],[-0.22462,51.48441],[-0.22429,51.4843],[-0.22457,51.48469],[-0.22347,51.48505]]]}},{"type":"Feature","properties":{"id":"E01001889","name":"E01001889","parent":"E09000013","type":"LSOA","pop":1381,"r":846,"ff":270,"ffd":19551.0,"ffs":0.393,"g":156,"co":0,"mo":2,"sa":0,"ic":0},"geometry":{"type":"Polygon","coordinates":[[[-0.21752,51.49089],[-0.21325,51.49075],[-0.21323,51.49021],[-0.21372,51.49022],[-0.21298,51.4891],[-0.21415,51.48903],[-0.21446,51.4884],[-0.21525,51.48815],[-0.21435,51.48757],[-0.21612,51.48703],[-0.21566,51.48674],[-0.2164,51.48657],[-0.21786,51.48714],[-0.21755,51.48835],[-0.21883,51.48828],[-0.21942,51.48862],[-0.22184,51.48784],[-0.22222,51.48849],[-0.21944,51.48937],[-0.21962,51.48957],[-0.21892,51.48983],[-0.21871,51.48962],[-0.2187,51.48993],[-0.21753,51.49016],[-0.21752,51.49089]]]}},{"type":"Feature","properties":{"id":"E01001890","name":"E01001890","parent":"E09000013","type":"LSOA","pop":1826,"r":812,"ff":255,"ffd":13965.0,"ffs":0.3899,"g":155,"co":0,"mo":2,"sa":0,"ic":0},"geometry":{"type":"Polygon","coordinates":[[[-0.21942,51.48862],[-0.21883,51.48828],[-0.21755,51.48835],[-0.21786,51.48714],[-0.2164,51.48657],[-0.21566,51.48674],[-0.21417,51.48615],[-0.21308,51.48611],[-0.21192,51.48469],[-0.21263,51.48447],[-0.21339,51.48546],[-0.21385,51.48538],[-0.21403,51.48586],[-0.21539,51.48541],[-0.21653,51.48556],[-0.21653,51.48519],[-0.21729,51.48515],[-0.2174,51.48535],[-0.21961,51.4849],[-0.21968,51.48532],[-0.22013,51.48522],[-0.2204,51.48587],[-0.22148,51.48601],[-0.22148,51.48629],[-0.2208,51.48646],[-0.22211,51.48773],[-0.21942,51.48862]]]}},{"type":"Feature","properties":{"id":"E01001891","name":"E01001891","parent":"E09000013","type":"LSOA","pop":2926,"r":698,"ff":229,"ffd":7826.4,"ffs":0.4018,"g":126,"co":0,"mo":2,"sa":0,"ic":0},"geometry":{"type":"Polygon","coordinates":[[[-0.22323,51.48913],[-0.22278,51.48865],[-0.22242,51.48872],[-0.22184,51.48784],[-0.22211,51.48773],[-0.2208,51.48646],[-0.22148,51.48629],[-0.22148,51.48601],[-0.2204,51.48587],[-0.22013,51.48522],[-0.21968,51.48532],[-0.21961,51.4849],[-0.2174,51.48535],[-0.21729,51.48515],[-0.21954,51.48464],[-0.21914,51.48393],[-0.21934,51.48353],[-0.21971,51.48344],[-0.22055,51.48462],[-0.22184,51.48422],[-0.22246,51.485],[-0.2233,51.48484],[-0.22347,51.48505],[-0.22457,51.48469],[-0.22429,51.4843],[-0.22462,51.48441],[-0.22496,51.48421],[-0.22756,51.48738],[-0.22323,51.48913]]]}},{"type":"Feature","properties":{"id":"E01001892","name":"E01001892","parent":"E09000013","type":"LSOA","pop":1365,"r":803,"ff":253,"ffd":18534.8,"ffs":0.391,"g":153,"co":0,"mo":2,"sa":0,"ic":0},"geometry":{"type":"Polygon","coordinates":[[[-0.21366,51.48734],[-0.21348,51.48698],[-0.2128,51.48701],[-0.2124,51.48619],[-0.21172,51.48631],[-0.21158,51.48611],[-0.21113,51.48615],[-0.21007,51.48462],[-0.21071,51.48421],[-0.21094,51.4847],[-0.21242,51.48421],[-0.21263,51.48447],[-0.21192,51.48469],[-0.21308,51.48611],[-0.21417,51.48615],[-0.21612,51.48703],[-0.21435,51.48757],[-0.21525,51.48815],[-0.21446,51.4884],[-0.21415,51.48903],[-0.21298,51.4891],[-0.21235,51.48814],[-0.21325,51.48799],[-0.213,51.4875],[-0.21366,51.48734]]]}},{"type":"Feature","properties":{"id":"E01001893","name":"E01001893","parent":"E09000013","type":"LSOA","pop":1491,"r":685,"ff":224,"ffd":15023.5,"ffs":0.4058,"g":132,"co":0,"mo":2,"sa":0,"ic":0},"geometry":{"type":"Polygon","coordinates":[[[-0.22596,51.48994],[-0.22567,51.48963],[-0.22498,51.48972],[-0.22421,51.489],[-0.22542,51.48878],[-0.22602,51.4894],[-0.22625,51.48934],[-0.22592,51.48903],[-0.22693,51.48837],[-0.22636,51.48787],[-0.22756,51.48738],[-0.22867,51.48883],[-0.22949,51.4891],[-0.22736,51.49118],[-0.22486,51.49127],[-0.22548,51.49045],[-0.22435,51.49008],[-0.22596,51.48994]]]}},{"type":"Feature","properties":{"id":"E01001894","name":"E01001894","parent":"E09000013","type":"LSOA","pop":1362,"r":823,"ff":276,"ffd":20264.3,"ffs":0.4157,"g":156,"co":0,"mo":2,"sa":0,"ic":0},"geometry":{"type":"Polygon","coordinates":[[[-0.23065,51.49296],[-0.23054,51.49256],[-0.22899,51.49252],[-0.22932,51.4919],[-0.23035,51.49205],[-0.23113,51.49104],[-0.22733,51.49124],[-0.22949,51.4891],[-0.23278,51.49019],[-0.23459,51.4904],[-0.23464,51.49129],[-0.23429,51.49281],[-0.23496,51.49289],[-0.2346,51.49443],[-0.23355,51.49441],[-0.23298,51.49388],[-0.23159,51.49374],[-0.23157,51.49309],[-0.23065,51.49296]]]}},{"type":"Feature","properties":{"id":"E01001895","name":"E01001895","parent":"E09000013","type":"LSOA","pop":1460,"r":864,"ff":276,"ffd":18904.1,"ffs":0.3966,"g":165,"co":0,"mo":0,"sa":0,"ic":0},"geometry":{"type":"Polygon","coordinates":[[[-0.23022,51.50132],[-0.23042,51.50036],[-0.2299,51.5007],[-0.2291,51.50058],[-0.22873,51.49995],[-0.23138,51.49955],[-0.23112,51.49865],[-0.23077,51.49869],[-0.23069,51.49703],[-0.23184,51.49716],[-0.23193,51.49691],[-0.23263,51.49692],[-0.23261,51.49842],[-0.23365,51.50023],[-0.23241,51.50065],[-0.23269,51.50114],[-0.22881,51.50194],[-0.23022,51.50132]]]}},{"type":"Feature","properties":{"id":"E01001896","name":"E01001896","parent":"E09000013","type":"LSOA","pop":1352,"r":890,"ff":285,"ffd":21079.9,"ffs":0.3942,"g":164,"co":0,"mo":2,"sa":0,"ic":0},"geometry":{"type":"Polygon","coordinates":[[[-0.22654,51.50124],[-0.22578,51.4978],[-0.22746,51.49804],[-0.22754,51.49828],[-0.22798,51.49821],[-0.22853,51.49968],[-0.22805,51.49974],[-0.22815,51.49998],[-0.22873,51.49995],[-0.2291,51.50058],[-0.2299,51.5007],[-0.23042,51.50036],[-0.23022,51.50132],[-0.22884,51.502],[-0.22675,51.50239],[-0.22654,51.50124]]]}},{"type":"Feature","properties":{"id":"E01001897","name":"E01001897","parent":"E09000013","type":"LSOA","pop":1330,"r":886,"ff":284,"ffd":21353.4,"ffs":0.3961,"g":165,"co":0,"mo":0,"sa":0,"ic":0},"geometry":{"type":"Polygon","coordinates":[[[-0.22846,51.49938],[-0.22756,51.49719],[-0.22922,51.49695],[-0.22891,51.49574],[-0.22815,51.4944],[-0.23029,51.49447],[-0.23005,51.49492],[-0.23057,51.49551],[-0.23043,51.49584],[-0.22997,51.49585],[-0.23023,51.49623],[-0.23118,51.49675],[-0.23191,51.49675],[-0.23184,51.49716],[-0.23069,51.49703],[-0.23077,51.49869],[-0.23112,51.49865],[-0.23138,51.49955],[-0.22815,51.49998],[-0.22805,51.49974],[-0.22853,51.49968],[-0.22846,51.49938]]]}},{"type":"Feature","properties":{"id":"E01001898","name":"E01001898","parent":"E09000013","type":"LSOA","pop":2687,"r":883,"ff":286,"ffd":10643.8,"ffs":0.4006,"g":165,"co":0,"mo":0,"sa":0,"ic":0},"geometry":{"type":"Polygon","coordinates":[[[-0.22554,51.49664],[-0.22532,51.4954],[-0.22392,51.49541],[-0.22395,51.49495],[-0.22166,51.49495],[-0.2217,51.49471],[-0.22121,51.49467],[-0.22118,51.4949],[-0.22029,51.49486],[-0.22043,51.49315],[-0.21938,51.49322],[-0.21929,51.49136],[-0.22736,51.49118],[-0.22628,51.49188],[-0.22651,51.49281],[-0.22579,51.49289],[-0.22598,51.49355],[-0.22962,51.49364],[-0.22976,51.49446],[-0.22815,51.4944],[-0.22891,51.49574],[-0.22922,51.49695],[-0.22756,51.49719],[-0.22798,51.49821],[-0.22754,51.49828],[-0.22746,51.49804],[-0.22578,51.4978],[-0.22554,51.49664]]]}},{"type":"Feature","properties":{"id":"E01001899","name":"E01001899","parent":"E09000013","type":"LSOA","pop":1582,"r":803,"ff":262,"ffd":16561.3,"ffs":0.4075,"g":157,"co":0,"mo":0,"sa":0,"ic":0},"geometry":{"type":"Polygon","coordinates":[[[-0.23005,51.49492],[-0.23029,51.49447],[-0.22976,51.49446],[-0.22962,51.49364],[-0.22598,51.49355],[-0.22579,51.49289],[-0.22651,51.49281],[-0.22628,51.49188],[-0.22733,51.49124],[-0.23113,51.49104],[-0.23035,51.49205],[-0.22932,51.4919],[-0.22899,51.49252],[-0.23054,51.49256],[-0.23065,51.49296],[-0.23157,51.49309],[-0.23159,51.49374],[-0.23298,51.49388],[-0.23355,51.49441],[-0.23142,51.49446],[-0.23191,51.49675],[-0.23118,51.49675],[-0.23023,51.49623],[-0.22997,51.49585],[-0.23043,51.49584],[-0.23057,51.49551],[-0.23005,51.49492]]]}},{"type":"Feature","properties":{"id":"E01001900","name":"E01001900","parent":"E09000013","type":"LSOA","pop":1689,"r":747,"ff":241,"ffd":14268.8,"ffs":0.403,"g":146,"co":0,"mo":2,"sa":0,"ic":0},"geometry":{"type":"Polygon","coordinates":[[[-0.2187,51.48993],[-0.21871,51.48962],[-0.21892,51.48983],[-0.21962,51.48957],[-0.21944,51.48937],[-0.22222,51.48849],[-0.22242,51.48872],[-0.22278,51.48865],[-0.22323,51.48913],[-0.22636,51.48787],[-0.22693,51.48837],[-0.22592,51.48903],[-0.22625,51.48934],[-0.22602,51.4894],[-0.22542,51.48878],[-0.22421,51.489],[-0.22498,51.48972],[-0.22567,51.48963],[-0.22596,51.48994],[-0.22435,51.49008],[-0.22548,51.49045],[-0.22486,51.49127],[-0.21929,51.49136],[-0.21752,51.49089],[-0.21753,51.49016],[-0.2187,51.48993]]]}},{"type":"Feature","properties":{"id":"E01001901","name":"E01001901","parent":"E09000013","type":"LSOA","pop":1599,"r":781,"ff":253,"ffd":15822.4,"ffs":0.4003,"g":147,"co":0,"mo":2,"sa":0,"ic":0},"geometry":{"type":"Polygon","coordinates":[[[-0.20532,51.48064],[-0.20369,51.47926],[-0.2053,51.47855],[-0.20962,51.47722],[-0.20968,51.47754],[-0.21052,51.47832],[-0.21083,51.47824],[-0.21086,51.4787],[-0.20886,51.4792],[-0.20943,51.4788],[-0.20867,51.4786],[-0.20865,51.47892],[-0.20781,51.47908],[-0.20809,51.47952],[-0.20717,51.48059],[-0.20672,51.48048],[-0.20701,51.48005],[-0.20532,51.48064]]]}},{"type":"Feature","properties":{"id":"E01001902","name":"E01001902","parent":"E09000013","type":"LSOA","pop":1697,"r":777,"ff":253,"ffd":14908.7,"ffs":0.401,"g":144,"co":0,"mo":2,"sa":0,"ic":0},"geometry":{"type":"Polygon","coordinates":[[[-0.20561,51.48066],[-0.20548,51.48053],[-0.20701,51.48005],[-0.20672,51.48048],[-0.20717,51.48059],[-0.20809,51.47952],[-0.20781,51.47908],[-0.20865,51.47892],[-0.20867,51.4786],[-0.20943,51.4788],[-0.20886,51.4792],[-0.21086,51.4787],[-0.21083,51.47824],[-0.21119,51.47812],[-0.21177,51.47843],[-0.21339,51.47817],[-0.21412,51.47862],[-0.21424,51.47892],[-0.2121,51.47949],[-0.2119,51.47981],[-0.21167,51.47942],[-0.21145,51.47974],[-0.20876,51.48046],[-0.20906,51.48115],[-0.20561,51.48066]]]}},{"type":"Feature","properties":{"id":"E01001903","name":"E01001903","parent":"E09000013","type":"LSOA","pop":1431,"r":809,"ff":266,"ffd":18588.4,"ffs":0.4043,"g":149,"co":0,"mo":2,"sa":0,"ic":0},"geometry":{"type":"Polygon","coordinates":[[[-0.20942,51.48142],[-0.20987,51.48126],[-0.20906,51.48115],[-0.20876,51.48046],[-0.21145,51.47974],[-0.21179,51.48016],[-0.21249,51.48014],[-0.21285,51.48055],[-0.21254,51.48074],[-0.21296,51.48076],[-0.21359,51.48138],[-0.21629,51.48079],[-0.21761,51.48151],[-0.21164,51.48301],[-0.21059,51.48309],[-0.21045,51.48288],[-0.21061,51.48284],[-0.20942,51.48142]]]}},{"type":"Feature","properties":{"id":"E01001904","name":"E01001904","parent":"E09000013","type":"LSOA","pop":1556,"r":747,"ff":246,"ffd":15809.8,"ffs":0.4046,"g":137,"co":0,"mo":2,"sa":0,"ic":0},"geometry":{"type":"Polygon","coordinates":[[[-0.21761,51.48151],[-0.21629,51.48079],[-0.21359,51.48138],[-0.21296,51.48076],[-0.21254,51.48074],[-0.21285,51.48055],[-0.21249,51.48014],[-0.21179,51.48016],[-0.21145,51.47974],[-0.21167,51.47942],[-0.2119,51.47981],[-0.2121,51.47949],[-0.21424,51.47892],[-0.21412,51.47862],[-0.21339,51.47817],[-0.21177,51.47843],[-0.21119,51.47812],[-0.21365,51.47725],[-0.21383,51.47749],[-0.2149,51.47744],[-0.21594,51.47684],[-0.21721,51.47848],[-0.21808,51.48137],[-0.21761,51.48151]]]}},{"type":"Feature","properties":{"id":"E01001905","name":"E01001905","parent":"E09000013","type":"LSOA","pop":1678,"r":781,"ff":257,"ffd":15315.9,"ffs":0.4041,"g":143,"co":0,"mo":2,"sa":0,"ic":0},"geometry":{"type":"Polygon","coordinates":[[[-0.20962,51.47722],[-0.21025,51.4771],[-0.21009,51.47684],[-0.21125,51.47644],[-0.21077,51.47602],[-0.21217,51.47532],[-0.21274,51.47592],[-0.21308,51.47579],[-0.21268,51.47538],[-0.21299,51.47517],[-0.21428,51.47493],[-0.21594,51.47684],[-0.2149,51.47744],[-0.21383,51.47749],[-0.21365,51.47725],[-0.21052,51.47832],[-0.20968,51.47754],[-0.20962,51.47722]]]}},{"type":"Feature","properties":{"id":"E01001906","name":"E01001906","parent":"E09000013","type":"LSOA","pop":1478,"r":781,"ff":257,"ffd":17388.4,"ffs":0.4041,"g":143,"co":0,"mo":2,"sa":0,"ic":0},"geometry":{"type":"Polygon","coordinates":[[[-0.20924,51.47586],[-0.20886,51.4752],[-0.2111,51.4742],[-0.21156,51.4745],[-0.21228,51.47431],[-0.21201,51.47407],[-0.21254,51.47377],[-0.21234,51.47356],[-0.21266,51.47342],[-0.21428,51.47493],[-0.21299,51.47517],[-0.21268,51.47538],[-0.21308,51.47579],[-0.21274,51.47592],[-0.21217,51.47532],[-0.21077,51.47602],[-0.21125,51.47644],[-0.21009,51.47684],[-0.21025,51.4771],[-0.20988,51.47713],[-0.20894,51.47596],[-0.20924,51.47586]]]}},{"type":"Feature","properties":{"id":"E01001907","name":"E01001907","parent":"E09000013","type":"LSOA","pop":1264,"r":731,"ff":244,"ffd":19303.8,"ffs":0.4094,"g":133,"co":0,"mo":2,"sa":0,"ic":0},"geometry":{"type":"Polygon","coordinates":[[[-0.20756,51.4745],[-0.20828,51.47365],[-0.20845,51.47376],[-0.21004,51.47254],[-0.21139,51.47191],[-0.21266,51.47342],[-0.21234,51.47356],[-0.21254,51.47377],[-0.21201,51.47407],[-0.21228,51.47431],[-0.21156,51.4745],[-0.2111,51.4742],[-0.20886,51.4752],[-0.20924,51.47586],[-0.20894,51.47596],[-0.20756,51.4745]]]}},{"type":"Feature","properties":{"id":"E01001908","name":"E01001908","parent":"E09000013","type":"LSOA","pop":1389,"r":950,"ff":314,"ffd":22606.2,"ffs":0.4031,"g":168,"co":0,"mo":2,"sa":0,"ic":0},"geometry":{"type":"Polygon","coordinates":[[[-0.20553,51.48887],[-0.20406,51.48827],[-0.20577,51.48824],[-0.20959,51.48749],[-0.20991,51.48797],[-0.20894,51.48822],[-0.20904,51.48841],[-0.21003,51.48816],[-0.21041,51.48874],[-0.20906,51.48908],[-0.20883,51.48873],[-0.20612,51.48946],[-0.20553,51.48887]]]}},{"type":"Feature","properties":{"id":"E01001909","name":"E01001909","parent":"E09000013","type":"LSOA","pop":1797,"r":859,"ff":278,"ffd":15470.2,"ffs":0.4029,"g":166,"co":0,"mo":2,"sa":0,"ic":0},"geometry":{"type":"Polygon","coordinates":[[[-0.20584,51.4872],[-0.20536,51.4868],[-0.20575,51.48636],[-0.20559,51.48611],[-0.20347,51.48647],[-0.20335,51.48624],[-0.20293,51.48631],[-0.20332,51.48593],[-0.20242,51.48553],[-0.20496,51.48444],[-0.20548,51.48544],[-0.20682,51.48525],[-0.20774,51.48629],[-0.20814,51.48619],[-0.20834,51.4865],[-0.20918,51.48625],[-0.21016,51.48659],[-0.21003,51.48697],[-0.2086,51.48729],[-0.20846,51.48685],[-0.20796,51.48739],[-0.20818,51.48772],[-0.20577,51.48824],[-0.20536,51.48786],[-0.20596,51.48747],[-0.20584,51.4872]]]}},{"type":"Feature","properties":{"id":"E01001910","name":"E01001910","parent":"E09000013","type":"LSOA","pop":1269,"r":959,"ff":319,"ffd":25137.9,"ffs":0.4079,"g":173,"co":0,"mo":2,"sa":0,"ic":0},"geometry":{"type":"Polygon","coordinates":[[[-0.21175,51.49059],[-0.21017,51.49051],[-0.21036,51.49008],[-0.20947,51.49006],[-0.20906,51.48908],[-0.21041,51.48874],[-0.21103,51.48825],[-0.21031,51.4885],[-0.21025,51.48828],[-0.21112,51.4881],[-0.21159,51.48746],[-0.21236,51.48723],[-0.21112,51.48643],[-0.2124,51.48619],[-0.2128,51.48701],[-0.21348,51.48698],[-0.21366,51.48734],[-0.213,51.4875],[-0.21325,51.48799],[-0.21235,51.48814],[-0.21372,51.49022],[-0.21323,51.49021],[-0.21325,51.49075],[-0.21175,51.49059]]]}},{"type":"Feature","properties":{"id":"E01001911","name":"E01001911","parent":"E09000013","type":"LSOA","pop":1783,"r":866,"ff":282,"ffd":15816.0,"ffs":0.4023,"g":162,"co":0,"mo":2,"sa":0,"ic":0},"geometry":{"type":"Polygon","coordinates":[[[-0.19969,51.48941],[-0.19898,51.48884],[-0.19948,51.487],[-0.19997,51.48683],[-0.20248,51.48944],[-0.203,51.48921],[-0.20293,51.48893],[-0.20223,51.48891],[-0.20245,51.48796],[-0.20323,51.48791],[-0.20332,51.48766],[-0.20412,51.4874],[-0.20347,51.48647],[-0.20559,51.48611],[-0.20575,51.48636],[-0.20536,51.4868],[-0.20596,51.48747],[-0.20536,51.48786],[-0.20577,51.48824],[-0.20406,51.48827],[-0.20553,51.48887],[-0.20535,51.48908],[-0.2045,51.48893],[-0.20546,51.49041],[-0.20483,51.49061],[-0.20466,51.49136],[-0.20238,51.49169],[-0.19969,51.48941]]]}},{"type":"Feature","properties":{"id":"E01001912","name":"E01001912","parent":"E09000013","type":"LSOA","pop":1418,"r":830,"ff":266,"ffd":18758.8,"ffs":0.3994,"g":161,"co":0,"mo":2,"sa":0,"ic":0},"geometry":{"type":"Polygon","coordinates":[[[-0.20029,51.48717],[-0.19997,51.48683],[-0.19948,51.487],[-0.19898,51.48884],[-0.19869,51.48848],[-0.19643,51.48721],[-0.1992,51.48623],[-0.20242,51.48553],[-0.20332,51.48593],[-0.20293,51.48631],[-0.20335,51.48624],[-0.20412,51.4874],[-0.20332,51.48766],[-0.20323,51.48791],[-0.20245,51.48796],[-0.20223,51.48891],[-0.20293,51.48893],[-0.203,51.48921],[-0.20248,51.48944],[-0.20029,51.48717]]]}},{"type":"Feature","properties":{"id":"E01001913","name":"E01001913","parent":"E09000013","type":"LSOA","pop":1313,"r":815,"ff":266,"ffd":20258.9,"ffs":0.4036,"g":153,"co":0,"mo":2,"sa":0,"ic":0},"geometry":{"type":"Polygon","coordinates":[[[-0.21041,51.48874],[-0.21003,51.48816],[-0.20904,51.48841],[-0.20894,51.48822],[-0.20991,51.48797],[-0.20959,51.48749],[-0.20818,51.48773],[-0.20796,51.48739],[-0.20846,51.48685],[-0.2086,51.48729],[-0.21003,51.48697],[-0.21016,51.48659],[-0.20918,51.48625],[-0.20834,51.4865],[-0.20814,51.48619],[-0.20774,51.48629],[-0.20682,51.48525],[-0.20548,51.48544],[-0.20496,51.48444],[-0.20799,51.48377],[-0.20879,51.48387],[-0.21007,51.48462],[-0.21113,51.48615],[-0.21158,51.48611],[-0.21172,51.48631],[-0.21112,51.48643],[-0.21236,51.48723],[-0.21159,51.48746],[-0.21112,51.4881],[-0.21025,51.48828],[-0.21031,51.4885],[-0.21103,51.48825],[-0.21041,51.48874]]]}},{"type":"Feature","properties":{"id":"E01001914","name":"E01001914","parent":"E09000013","type":"LSOA","pop":1551,"r":945,"ff":314,"ffd":20245.0,"ffs":0.4078,"g":171,"co":0,"mo":2,"sa":0,"ic":0},"geometry":{"type":"Polygon","coordinates":[[[-0.20511,51.48979],[-0.2045,51.48893],[-0.20535,51.48908],[-0.20553,51.48887],[-0.20612,51.48946],[-0.20883,51.48873],[-0.20935,51.48952],[-0.20947,51.49006],[-0.21036,51.49008],[-0.21017,51.49051],[-0.20466,51.49136],[-0.20483,51.49061],[-0.20546,51.49041],[-0.20511,51.48979]]]}},{"type":"Feature","properties":{"id":"E01001915","name":"E01001915","parent":"E09000013","type":"LSOA","pop":1440,"r":690,"ff":233,"ffd":16180.6,"ffs":0.4168,"g":129,"co":0,"mo":2,"sa":0,"ic":0},"geometry":{"type":"Polygon","coordinates":[[[-0.21605,51.47614],[-0.21564,51.47589],[-0.21535,51.47604],[-0.2117,51.47236],[-0.21051,51.47031],[-0.21019,51.46933],[-0.20812,51.46947],[-0.20883,51.46846],[-0.21029,51.46836],[-0.21111,51.46735],[-0.21678,51.46961],[-0.2215,51.47348],[-0.22258,51.47481],[-0.22118,51.47575],[-0.21855,51.47271],[-0.21814,51.4729],[-0.21836,51.47325],[-0.21659,51.47405],[-0.21692,51.47434],[-0.21868,51.47354],[-0.21953,51.47456],[-0.21605,51.47614]]]}},{"type":"Feature","properties":{"id":"E01001916","name":"E01001916","parent":"E09000013","type":"LSOA","pop":1333,"r":689,"ff":233,"ffd":17479.4,"ffs":0.4198,"g":132,"co":0,"mo":2,"sa":0,"ic":0},"geometry":{"type":"Polygon","coordinates":[[[-0.19856,51.4676],[-0.19738,51.46521],[-0.19755,51.46499],[-0.20276,51.46534],[-0.21053,51.46714],[-0.21051,51.46774],[-0.21111,51.46735],[-0.21029,51.46836],[-0.20883,51.46846],[-0.20812,51.46947],[-0.20051,51.47084],[-0.20019,51.46993],[-0.19856,51.4676]]]}},{"type":"Feature","properties":{"id":"E01001917","name":"E01001917","parent":"E09000013","type":"LSOA","pop":1557,"r":693,"ff":224,"ffd":14386.6,"ffs":0.3993,"g":130,"co":0,"mo":2,"sa":0,"ic":0},"geometry":{"type":"Polygon","coordinates":[[[-0.22354,51.48192],[-0.22323,51.48144],[-0.22212,51.48146],[-0.21969,51.48242],[-0.21893,51.48203],[-0.21844,51.48211],[-0.21782,51.48056],[-0.21834,51.48054],[-0.21855,51.4809],[-0.22123,51.48005],[-0.22082,51.47935],[-0.22307,51.47864],[-0.22254,51.47749],[-0.22346,51.47716],[-0.22402,51.4817],[-0.22362,51.48189],[-0.22408,51.48244],[-0.22334,51.48259],[-0.22315,51.48221],[-0.22354,51.48192]]]}},{"type":"Feature","properties":{"id":"E01001918","name":"E01001918","parent":"E09000013","type":"LSOA","pop":1521,"r":721,"ff":232,"ffd":15253.1,"ffs":0.3973,"g":135,"co":0,"mo":2,"sa":0,"ic":0},"geometry":{"type":"Polygon","coordinates":[[[-0.21855,51.4809],[-0.21834,51.48054],[-0.21782,51.48056],[-0.21721,51.47848],[-0.21535,51.47604],[-0.21564,51.47589],[-0.21605,51.47614],[-0.21663,51.47684],[-0.21763,51.47655],[-0.21849,51.47597],[-0.21959,51.47732],[-0.22123,51.48005],[-0.21855,51.4809]]]}},{"type":"Feature","properties":{"id":"E01001919","name":"E01001919","parent":"E09000013","type":"LSOA","pop":1502,"r":686,"ff":217,"ffd":14447.4,"ffs":0.3931,"g":132,"co":0,"mo":2,"sa":0,"ic":0},"geometry":{"type":"Polygon","coordinates":[[[-0.21882,51.47628],[-0.21849,51.47597],[-0.21763,51.47655],[-0.21663,51.47684],[-0.21605,51.47614],[-0.21953,51.47456],[-0.21868,51.47354],[-0.21692,51.47434],[-0.21659,51.47405],[-0.21836,51.47325],[-0.21814,51.4729],[-0.21855,51.47271],[-0.22118,51.47575],[-0.22258,51.47481],[-0.22346,51.47716],[-0.22254,51.47749],[-0.22307,51.47864],[-0.22082,51.47935],[-0.21882,51.47628]]]}},{"type":"Feature","properties":{"id":"E01001920","name":"E01001920","parent":"E09000013","type":"LSOA","pop":1470,"r":825,"ff":266,"ffd":18095.2,"ffs":0.3941,"g":148,"co":0,"mo":2,"sa":0,"ic":0},"geometry":{"type":"Polygon","coordinates":[[[-0.18798,51.48074],[-0.18653,51.47987],[-0.18535,51.4786],[-0.18679,51.47828],[-0.18701,51.47913],[-0.18761,51.47843],[-0.18829,51.47879],[-0.18764,51.47919],[-0.18925,51.48015],[-0.18997,51.47933],[-0.1905,51.47919],[-0.19119,51.47986],[-0.19327,51.48001],[-0.19265,51.47899],[-0.19472,51.47872],[-0.19557,51.47931],[-0.19593,51.47934],[-0.1956,51.47988],[-0.1958,51.48],[-0.19532,51.48005],[-0.19325,51.48171],[-0.19077,51.48317],[-0.18798,51.48074]]]}},{"type":"Feature","properties":{"id":"E01001921","name":"E01001921","parent":"E09000013","type":"LSOA","pop":1467,"r":786,"ff":255,"ffd":17382.4,"ffs":0.3935,"g":137,"co":0,"mo":2,"sa":0,"ic":0},"geometry":{"type":"Polygon","coordinates":[[[-0.18764,51.47919],[-0.18829,51.47879],[-0.18761,51.47843],[-0.18701,51.47913],[-0.18679,51.47828],[-0.18917,51.47738],[-0.18969,51.47796],[-0.18925,51.47822],[-0.18958,51.47848],[-0.18977,51.47827],[-0.19095,51.47847],[-0.19045,51.47778],[-0.19195,51.47732],[-0.19281,51.47739],[-0.1924,51.47762],[-0.19305,51.47806],[-0.1935,51.47782],[-0.19387,51.47807],[-0.19429,51.47737],[-0.19513,51.47785],[-0.19557,51.47931],[-0.19472,51.47872],[-0.19265,51.47899],[-0.19327,51.48001],[-0.19119,51.47986],[-0.1905,51.47919],[-0.18997,51.47933],[-0.18925,51.48015],[-0.18764,51.47919]]]}},{"type":"Feature","properties":{"id":"E01001922","name":"E01001922","parent":"E09000013","type":"LSOA","pop":1620,"r":769,"ff":252,"ffd":15555.6,"ffs":0.4051,"g":145,"co":0,"mo":2,"sa":0,"ic":0},"geometry":{"type":"Polygon","coordinates":[[[-0.19354,51.47588],[-0.19515,51.47463],[-0.19598,51.47465],[-0.19686,51.47407],[-0.19627,51.47353],[-0.19735,51.47297],[-0.19612,51.47148],[-0.19698,51.47111],[-0.19803,51.47264],[-0.19761,51.47274],[-0.20061,51.47424],[-0.2007,51.47552],[-0.19724,51.47734],[-0.19657,51.47804],[-0.19593,51.47934],[-0.19557,51.47931],[-0.19513,51.47785],[-0.19429,51.47737],[-0.19228,51.47674],[-0.19354,51.47588]]]}},{"type":"Feature","properties":{"id":"E01001923","name":"E01001923","parent":"E09000013","type":"LSOA","pop":1468,"r":808,"ff":268,"ffd":18256.1,"ffs":0.4036,"g":143,"co":0,"mo":2,"sa":0,"ic":0},"geometry":{"type":"Polygon","coordinates":[[[-0.18958,51.47848],[-0.18925,51.47822],[-0.18969,51.47796],[-0.18917,51.47738],[-0.18943,51.47718],[-0.18819,51.47669],[-0.18893,51.47584],[-0.18584,51.47468],[-0.1866,51.47377],[-0.18831,51.47454],[-0.18861,51.47431],[-0.18916,51.47458],[-0.18867,51.47486],[-0.189,51.4751],[-0.18969,51.47504],[-0.18998,51.4747],[-0.19147,51.47405],[-0.192,51.47543],[-0.1909,51.47589],[-0.19228,51.47674],[-0.19429,51.47737],[-0.19387,51.47807],[-0.1935,51.47782],[-0.19305,51.47806],[-0.1924,51.47762],[-0.19281,51.47739],[-0.19195,51.47732],[-0.19045,51.47778],[-0.19095,51.47847],[-0.18977,51.47827],[-0.18958,51.47848]]]}},{"type":"Feature","properties":{"id":"E01001924","name":"E01001924","parent":"E09000013","type":"LSOA","pop":1498,"r":774,"ff":252,"ffd":16822.4,"ffs":0.4013,"g":144,"co":0,"mo":2,"sa":0,"ic":0},"geometry":{"type":"Polygon","coordinates":[[[-0.192,51.47543],[-0.19147,51.47405],[-0.18998,51.4747],[-0.19145,51.4737],[-0.1919,51.47363],[-0.1921,51.47429],[-0.19354,51.47387],[-0.19284,51.47265],[-0.19485,51.47201],[-0.1965,51.4739],[-0.19686,51.47407],[-0.19598,51.47465],[-0.19515,51.47463],[-0.19228,51.47674],[-0.1909,51.47589],[-0.192,51.47543]]]}},{"type":"Feature","properties":{"id":"E01001925","name":"E01001925","parent":"E09000013","type":"LSOA","pop":1563,"r":817,"ff":274,"ffd":17530.4,"ffs":0.4158,"g":156,"co":0,"mo":2,"sa":0,"ic":0},"geometry":{"type":"Polygon","coordinates":[[[-0.19161,51.47259],[-0.19146,51.47196],[-0.19416,51.47133],[-0.19727,51.46997],[-0.19863,51.47097],[-0.20021,51.4709],[-0.20075,51.47258],[-0.20061,51.47424],[-0.19761,51.47274],[-0.19803,51.47264],[-0.19698,51.47111],[-0.19612,51.47148],[-0.19735,51.47297],[-0.19627,51.47353],[-0.19485,51.47201],[-0.19284,51.47265],[-0.19354,51.47387],[-0.1921,51.47429],[-0.19161,51.47259]]]}},{"type":"Feature","properties":{"id":"E01001926","name":"E01001926","parent":"E09000013","type":"LSOA","pop":1391,"r":765,"ff":259,"ffd":18619.7,"ffs":0.4198,"g":146,"co":0,"mo":2,"sa":0,"ic":0},"geometry":{"type":"Polygon","coordinates":[[[-0.20812,51.46947],[-0.20851,51.46947],[-0.20592,51.47154],[-0.20311,51.47222],[-0.20075,51.47258],[-0.20021,51.4709],[-0.20812,51.46947]]]}},{"type":"Feature","properties":{"id":"E01001927","name":"E01001927","parent":"E09000013","type":"LSOA","pop":1314,"r":766,"ff":263,"ffd":20015.2,"ffs":0.4256,"g":145,"co":0,"mo":0,"sa":0,"ic":0},"geometry":{"type":"Polygon","coordinates":[[[-0.24433,51.5022],[-0.245,51.50127],[-0.24463,51.5009],[-0.24355,51.50112],[-0.24264,51.49955],[-0.24446,51.49935],[-0.24432,51.49919],[-0.24487,51.49855],[-0.24501,51.49881],[-0.24577,51.49883],[-0.24629,51.49851],[-0.24603,51.49815],[-0.24866,51.49712],[-0.24934,51.497],[-0.25217,51.50064],[-0.25105,51.50096],[-0.25074,51.50061],[-0.24936,51.50099],[-0.24964,51.50133],[-0.24917,51.50148],[-0.2489,51.50116],[-0.24764,51.50142],[-0.24715,51.50183],[-0.24698,51.50165],[-0.24543,51.50195],[-0.24474,51.50212],[-0.24487,51.50235],[-0.24433,51.5022]]]}},{"type":"Feature","properties":{"id":"E01001928","name":"E01001928","parent":"E09000013","type":"LSOA","pop":1897,"r":842,"ff":278,"ffd":14654.7,"ffs":0.4088,"g":158,"co":0,"mo":0,"sa":0,"ic":0},"geometry":{"type":"Polygon","coordinates":[[[-0.23424,51.49793],[-0.23424,51.49771],[-0.23464,51.49778],[-0.23481,51.49635],[-0.23456,51.49597],[-0.23548,51.49581],[-0.23554,51.49516],[-0.23511,51.49482],[-0.23606,51.49413],[-0.23599,51.49346],[-0.23732,51.49375],[-0.23724,51.49421],[-0.23786,51.49437],[-0.23773,51.49724],[-0.23854,51.49711],[-0.23944,51.49809],[-0.2387,51.49941],[-0.23781,51.49957],[-0.23797,51.49998],[-0.23269,51.50114],[-0.23241,51.50065],[-0.23365,51.50023],[-0.23307,51.49926],[-0.23377,51.4991],[-0.23469,51.4985],[-0.23424,51.49793]]]}},{"type":"Feature","properties":{"id":"E01001929","name":"E01001929","parent":"E09000013","type":"LSOA","pop":1411,"r":843,"ff":277,"ffd":19631.5,"ffs":0.4086,"g":161,"co":0,"mo":0,"sa":0,"ic":0},"geometry":{"type":"Polygon","coordinates":[[[-0.23261,51.49842],[-0.23263,51.49692],[-0.23193,51.49691],[-0.23142,51.49446],[-0.2346,51.49443],[-0.23449,51.49558],[-0.23481,51.49635],[-0.23464,51.49778],[-0.23424,51.49771],[-0.23424,51.49793],[-0.23469,51.4985],[-0.23377,51.4991],[-0.23307,51.49926],[-0.23261,51.49842]]]}},{"type":"Feature","properties":{"id":"E01001930","name":"E01001930","parent":"E09000013","type":"LSOA","pop":1803,"r":744,"ff":250,"ffd":13865.8,"ffs":0.4237,"g":150,"co":0,"mo":0,"sa":0,"ic":0},"geometry":{"type":"Polygon","coordinates":[[[-0.24347,51.50252],[-0.24305,51.50181],[-0.24222,51.50203],[-0.24188,51.50184],[-0.24084,51.50003],[-0.23994,51.49958],[-0.23797,51.49998],[-0.23781,51.49957],[-0.2387,51.49941],[-0.23944,51.49809],[-0.23854,51.49711],[-0.23773,51.49724],[-0.23781,51.49527],[-0.23835,51.4953],[-0.23874,51.49452],[-0.2397,51.49466],[-0.23967,51.49435],[-0.24025,51.49445],[-0.24014,51.49485],[-0.24063,51.49498],[-0.24037,51.4954],[-0.24074,51.4959],[-0.24211,51.49602],[-0.2425,51.4967],[-0.24323,51.49635],[-0.24319,51.49577],[-0.24386,51.49538],[-0.24468,51.49573],[-0.24468,51.49707],[-0.24446,51.49795],[-0.24536,51.49837],[-0.24603,51.49815],[-0.24629,51.49851],[-0.24577,51.49883],[-0.24501,51.49881],[-0.24487,51.49855],[-0.24432,51.49919],[-0.24446,51.49935],[-0.24264,51.49955],[-0.24355,51.50112],[-0.24463,51.5009],[-0.245,51.50127],[-0.24433,51.5022],[-0.24347,51.50252]]]}},{"type":"Feature","properties":{"id":"E01001931","name":"E01001931","parent":"E09000013","type":"LSOA","pop":1342,"r":700,"ff":234,"ffd":17436.7,"ffs":0.4224,"g":143,"co":0,"mo":0,"sa":0,"ic":0},"geometry":{"type":"Polygon","coordinates":[[[-0.24037,51.4954],[-0.24063,51.49498],[-0.24014,51.49485],[-0.24025,51.49445],[-0.23967,51.49435],[-0.23943,51.4939],[-0.24031,51.49397],[-0.24065,51.49352],[-0.24098,51.49353],[-0.24102,51.494],[-0.24244,51.49418],[-0.24246,51.49375],[-0.24326,51.49377],[-0.24353,51.49347],[-0.24442,51.49396],[-0.24442,51.49493],[-0.24394,51.49494],[-0.24415,51.4952],[-0.24487,51.49515],[-0.24468,51.49573],[-0.24386,51.49538],[-0.24319,51.49577],[-0.24323,51.49635],[-0.2425,51.4967],[-0.24211,51.49602],[-0.24074,51.4959],[-0.24037,51.4954]]]}},{"type":"Feature","properties":{"id":"E01001932","name":"E01001932","parent":"E09000013","type":"LSOA","pop":1608,"r":836,"ff":277,"ffd":17226.4,"ffs":0.411,"g":159,"co":0,"mo":2,"sa":0,"ic":0},"geometry":{"type":"Polygon","coordinates":[[[-0.2346,51.49443],[-0.23496,51.49289],[-0.23429,51.49281],[-0.23464,51.49129],[-0.23459,51.4904],[-0.24072,51.49004],[-0.24075,51.4913],[-0.2393,51.49138],[-0.23966,51.49171],[-0.23931,51.49197],[-0.23935,51.49245],[-0.23877,51.49218],[-0.23827,51.49256],[-0.23838,51.49287],[-0.24124,51.4932],[-0.24124,51.49247],[-0.24083,51.49221],[-0.24195,51.49202],[-0.24189,51.49316],[-0.24255,51.49321],[-0.24256,51.49351],[-0.24065,51.49352],[-0.24031,51.49397],[-0.23943,51.4939],[-0.2397,51.49466],[-0.23874,51.49452],[-0.23835,51.4953],[-0.23781,51.49527],[-0.23786,51.49437],[-0.23724,51.49421],[-0.23732,51.49375],[-0.23599,51.49346],[-0.23606,51.49413],[-0.23511,51.49482],[-0.23554,51.49516],[-0.23548,51.49581],[-0.23456,51.49597],[-0.2346,51.49443]]]}},{"type":"Feature","properties":{"id":"E01001933","name":"E01001933","parent":"E09000013","type":"LSOA","pop":1515,"r":655,"ff":221,"ffd":14587.5,"ffs":0.421,"g":128,"co":0,"mo":2,"sa":0,"ic":0},"geometry":{"type":"Polygon","coordinates":[[[-0.24442,51.49396],[-0.24353,51.49347],[-0.24326,51.49377],[-0.24246,51.49375],[-0.24244,51.49418],[-0.24102,51.494],[-0.24098,51.49353],[-0.24256,51.49351],[-0.24255,51.49321],[-0.24189,51.49316],[-0.24195,51.49202],[-0.24083,51.49221],[-0.24124,51.49247],[-0.24124,51.4932],[-0.23838,51.49287],[-0.23827,51.49256],[-0.23877,51.49218],[-0.23935,51.49245],[-0.23931,51.49197],[-0.23966,51.49171],[-0.2393,51.49138],[-0.24075,51.4913],[-0.24072,51.49004],[-0.24306,51.48943],[-0.2445,51.48871],[-0.24519,51.48922],[-0.24553,51.48993],[-0.24534,51.4927],[-0.24487,51.49515],[-0.24415,51.4952],[-0.24394,51.49494],[-0.24442,51.49493],[-0.24442,51.49396]]]}},{"type":"Feature","properties":{"id":"E01001934","name":"E01001934","parent":"E09000013","type":"LSOA","pop":1974,"r":836,"ff":281,"ffd":14235.1,"ffs":0.4157,"g":159,"co":0,"mo":2,"sa":0,"ic":0},"geometry":{"type":"Polygon","coordinates":[[[-0.19727,51.46997],[-0.19603,51.46885],[-0.19637,51.46867],[-0.19577,51.46761],[-0.19463,51.46737],[-0.19425,51.46751],[-0.19358,51.46699],[-0.19291,51.46726],[-0.19198,51.46655],[-0.19275,51.46622],[-0.19217,51.46565],[-0.19198,51.46509],[-0.19416,51.46484],[-0.19714,51.46498],[-0.19856,51.4676],[-0.20019,51.46993],[-0.20051,51.47084],[-0.19863,51.47097],[-0.19727,51.46997]]]}},{"type":"Feature","properties":{"id":"E01001935","name":"E01001935","parent":"E09000013","type":"LSOA","pop":2076,"r":856,"ff":285,"ffd":13728.3,"ffs":0.4095,"g":159,"co":0,"mo":2,"sa":0,"ic":0},"geometry":{"type":"Polygon","coordinates":[[[-0.18616,51.47259],[-0.1863,51.47209],[-0.18478,51.47159],[-0.18508,51.47084],[-0.1866,51.47131],[-0.18661,51.47104],[-0.18756,51.47101],[-0.18754,51.47066],[-0.18784,51.47037],[-0.18973,51.46909],[-0.19017,51.46925],[-0.18978,51.4695],[-0.19005,51.46967],[-0.19043,51.46949],[-0.19093,51.47169],[-0.19015,51.47178],[-0.19161,51.47259],[-0.1919,51.47363],[-0.19145,51.4737],[-0.1909,51.4729],[-0.18992,51.47238],[-0.1892,51.47304],[-0.18853,51.47284],[-0.18799,51.47198],[-0.18771,51.4723],[-0.18728,51.47219],[-0.1873,51.47269],[-0.18905,51.47343],[-0.18835,51.47369],[-0.18773,51.47317],[-0.18616,51.47259]]]}},{"type":"Feature","properties":{"id":"E01001937","name":"E01001937","parent":"E09000013","type":"LSOA","pop":1846,"r":839,"ff":281,"ffd":15222.1,"ffs":0.4126,"g":157,"co":0,"mo":2,"sa":0,"ic":0},"geometry":{"type":"Polygon","coordinates":[[[-0.19061,51.46999],[-0.19043,51.46949],[-0.19005,51.46967],[-0.18978,51.4695],[-0.19017,51.46925],[-0.18973,51.46909],[-0.18784,51.47037],[-0.18752,51.47017],[-0.18966,51.4686],[-0.19085,51.4681],[-0.19075,51.4678],[-0.19193,51.4673],[-0.19247,51.46686],[-0.19291,51.46726],[-0.19358,51.46699],[-0.19425,51.46751],[-0.19463,51.46737],[-0.19577,51.46761],[-0.19637,51.46867],[-0.19603,51.46885],[-0.19727,51.46997],[-0.19416,51.47133],[-0.19146,51.47196],[-0.19161,51.47259],[-0.19015,51.47178],[-0.19093,51.47169],[-0.19061,51.46999]]]}},{"type":"Feature","properties":{"id":"E01001938","name":"E01001938","parent":"E09000013","type":"LSOA","pop":1520,"r":922,"ff":308,"ffd":20263.2,"ffs":0.4107,"g":169,"co":0,"mo":2,"sa":0,"ic":0},"geometry":{"type":"Polygon","coordinates":[[[-0.19044,51.46526],[-0.19198,51.46509],[-0.19217,51.46565],[-0.19275,51.46622],[-0.19198,51.46655],[-0.19247,51.46686],[-0.19193,51.4673],[-0.19075,51.4678],[-0.19085,51.4681],[-0.18966,51.4686],[-0.18853,51.46943],[-0.18813,51.46922],[-0.18849,51.46904],[-0.18731,51.46838],[-0.18761,51.46813],[-0.18724,51.46789],[-0.18808,51.4673],[-0.18705,51.4663],[-0.19044,51.46526]]]}},{"type":"Feature","properties":{"id":"E01001940","name":"E01001940","parent":"E09000013","type":"LSOA","pop":1568,"r":986,"ff":338,"ffd":21556.1,"ffs":0.4132,"g":164,"co":0,"mo":0,"sa":0,"ic":0},"geometry":{"type":"Polygon","coordinates":[[[-0.23055,51.50441],[-0.22961,51.50421],[-0.22905,51.50435],[-0.22889,51.50378],[-0.22777,51.50319],[-0.22774,51.50254],[-0.22661,51.50282],[-0.2265,51.50243],[-0.2324,51.50124],[-0.23273,51.50283],[-0.2319,51.50297],[-0.23229,51.50373],[-0.23207,51.50406],[-0.2314,51.50411],[-0.23131,51.50386],[-0.23055,51.50441]]]}},{"type":"Feature","properties":{"id":"E01001941","name":"E01001941","parent":"E09000013","type":"LSOA","pop":1490,"r":878,"ff":286,"ffd":19194.6,"ffs":0.3972,"g":155,"co":0,"mo":0,"sa":0,"ic":0},"geometry":{"type":"Polygon","coordinates":[[[-0.22881,51.50657],[-0.22825,51.50615],[-0.22745,51.50614],[-0.22727,51.50589],[-0.22628,51.50592],[-0.22466,51.50543],[-0.22468,51.50488],[-0.22375,51.50329],[-0.22512,51.50271],[-0.22492,51.50239],[-0.22363,51.50284],[-0.22399,51.50212],[-0.22502,51.50157],[-0.22654,51.50124],[-0.22675,51.50239],[-0.2265,51.50243],[-0.22661,51.50282],[-0.22774,51.50254],[-0.22777,51.50319],[-0.22889,51.50378],[-0.22905,51.50435],[-0.22961,51.50421],[-0.2298,51.50574],[-0.22935,51.50577],[-0.22937,51.50603],[-0.23071,51.50618],[-0.23061,51.50656],[-0.23,51.50651],[-0.22913,51.50604],[-0.22881,51.50657]]]}},{"type":"Feature","properties":{"id":"E01001942","name":"E01001942","parent":"E09000013","type":"LSOA","pop":1864,"r":986,"ff":338,"ffd":18133.0,"ffs":0.4132,"g":164,"co":0,"mo":0,"sa":0,"ic":0},"geometry":{"type":"Polygon","coordinates":[[[-0.23266,51.50756],[-0.23269,51.5067],[-0.23061,51.50656],[-0.23071,51.50618],[-0.22937,51.50603],[-0.22935,51.50577],[-0.2298,51.50574],[-0.22961,51.50421],[-0.23055,51.50441],[-0.23131,51.50386],[-0.2314,51.50411],[-0.23207,51.50406],[-0.23229,51.50373],[-0.2319,51.50297],[-0.23273,51.50283],[-0.23332,51.50445],[-0.23368,51.50435],[-0.23421,51.50607],[-0.23457,51.50644],[-0.23456,51.50691],[-0.23313,51.50676],[-0.23311,51.50759],[-0.23266,51.50756]]]}},{"type":"Feature","properties":{"id":"E01001943","name":"E01001943","parent":"E09000013","type":"LSOA","pop":2353,"r":911,"ff":304,"ffd":12919.7,"ffs":0.4016,"g":150,"co":0,"mo":0,"sa":0,"ic":0},"geometry":{"type":"Polygon","coordinates":[[[-0.21919,51.50959],[-0.21832,51.50766],[-0.21795,51.5077],[-0.21746,51.50694],[-0.21723,51.50624],[-0.21789,51.5061],[-0.21702,51.5045],[-0.22327,51.5033],[-0.22307,51.50302],[-0.22492,51.50239],[-0.22512,51.50271],[-0.22375,51.50329],[-0.22468,51.50488],[-0.22466,51.50543],[-0.22628,51.50592],[-0.22727,51.50589],[-0.22745,51.50614],[-0.22758,51.50695],[-0.22691,51.5071],[-0.22656,51.50788],[-0.22727,51.50893],[-0.22772,51.50928],[-0.22719,51.50991],[-0.22467,51.51132],[-0.22457,51.50949],[-0.22025,51.51173],[-0.21919,51.50959]]]}},{"type":"Feature","properties":{"id":"E01001944","name":"E01001944","parent":"E09000013","type":"LSOA","pop":1692,"r":1099,"ff":373,"ffd":22044.9,"ffs":0.4059,"g":176,"co":0,"mo":2,"sa":0,"ic":0},"geometry":{"type":"Polygon","coordinates":[[[-0.2156,51.50867],[-0.21518,51.50765],[-0.21613,51.50747],[-0.21592,51.50639],[-0.21723,51.50624],[-0.21795,51.5077],[-0.21832,51.50766],[-0.21919,51.50959],[-0.21786,51.50976],[-0.21803,51.51023],[-0.2172,51.51039],[-0.21686,51.50947],[-0.21578,51.50912],[-0.2156,51.50867]]]}},{"type":"Feature","properties":{"id":"E01001945","name":"E01001945","parent":"E09000013","type":"LSOA","pop":1696,"r":906,"ff":302,"ffd":17806.6,"ffs":0.4021,"g":151,"co":0,"mo":0,"sa":0,"ic":0},"geometry":{"type":"Polygon","coordinates":[[[-0.22984,51.50839],[-0.22961,51.50792],[-0.22873,51.50791],[-0.22864,51.50813],[-0.22827,51.5079],[-0.22866,51.50769],[-0.22881,51.50657],[-0.22913,51.50604],[-0.23,51.50651],[-0.23269,51.5067],[-0.23266,51.50756],[-0.23311,51.50759],[-0.23313,51.50676],[-0.23456,51.50691],[-0.23455,51.50975],[-0.23173,51.50997],[-0.23091,51.5096],[-0.23102,51.50842],[-0.22984,51.50839]]]}},{"type":"Feature","properties":{"id":"E01001946","name":"E01001946","parent":"E09000013","type":"LSOA","pop":1898,"r":877,"ff":294,"ffd":15490.0,"ffs":0.4061,"g":149,"co":0,"mo":0,"sa":0,"ic":0},"geometry":{"type":"Polygon","coordinates":[[[-0.22467,51.51132],[-0.22719,51.50991],[-0.22772,51.50928],[-0.22727,51.50893],[-0.22656,51.50788],[-0.22691,51.5071],[-0.22758,51.50695],[-0.22745,51.50614],[-0.22825,51.50615],[-0.22881,51.50657],[-0.22866,51.50769],[-0.22827,51.5079],[-0.22864,51.50813],[-0.22873,51.50791],[-0.22961,51.50792],[-0.22984,51.50839],[-0.23102,51.50842],[-0.23091,51.5096],[-0.23173,51.50997],[-0.22831,51.51175],[-0.22682,51.51069],[-0.2248,51.51188],[-0.22467,51.51132]]]}},{"type":"Feature","properties":{"id":"E01001947","name":"E01001947","parent":"E09000013","type":"LSOA","pop":1406,"r":766,"ff":254,"ffd":18065.4,"ffs":0.4077,"g":141,"co":0,"mo":2,"sa":0,"ic":0},"geometry":{"type":"Polygon","coordinates":[[[-0.19712,51.47746],[-0.1976,51.47708],[-0.19814,51.47735],[-0.19916,51.47703],[-0.20028,51.47774],[-0.20038,51.47821],[-0.20144,51.47773],[-0.20245,51.4782],[-0.20335,51.47802],[-0.20401,51.47873],[-0.20344,51.47904],[-0.2028,51.47864],[-0.20204,51.47884],[-0.2014,51.47845],[-0.20047,51.47919],[-0.19987,51.47899],[-0.19894,51.47802],[-0.1996,51.47767],[-0.19844,51.47748],[-0.19839,51.47797],[-0.19886,51.47877],[-0.19834,51.47892],[-0.19888,51.47925],[-0.19825,51.47938],[-0.19657,51.47804],[-0.19712,51.47746]]]}},{"type":"Feature","properties":{"id":"E01001948","name":"E01001948","parent":"E09000013","type":"LSOA","pop":1868,"r":778,"ff":258,"ffd":13811.6,"ffs":0.4076,"g":143,"co":0,"mo":2,"sa":0,"ic":0},"geometry":{"type":"Polygon","coordinates":[[[-0.2028,51.47647],[-0.20168,51.47556],[-0.20074,51.47578],[-0.20056,51.47369],[-0.20121,51.47332],[-0.20265,51.47327],[-0.20281,51.47349],[-0.20438,51.47321],[-0.20437,51.47362],[-0.20539,51.47364],[-0.20499,51.47397],[-0.20643,51.47482],[-0.20521,51.47634],[-0.2035,51.47706],[-0.20278,51.47684],[-0.2028,51.47647]]]}},{"type":"Feature","properties":{"id":"E01001949","name":"E01001949","parent":"E09000013","type":"LSOA","pop":1443,"r":770,"ff":251,"ffd":17394.3,"ffs":0.399,"g":139,"co":0,"mo":2,"sa":0,"ic":0},"geometry":{"type":"Polygon","coordinates":[[[-0.20568,51.47576],[-0.20736,51.47443],[-0.20834,51.47515],[-0.20988,51.47713],[-0.2062,51.47829],[-0.20485,51.4765],[-0.20568,51.47576]]]}},{"type":"Feature","properties":{"id":"E01001950","name":"E01001950","parent":"E09000013","type":"LSOA","pop":1526,"r":781,"ff":257,"ffd":16841.4,"ffs":0.4041,"g":143,"co":0,"mo":2,"sa":0,"ic":0},"geometry":{"type":"Polygon","coordinates":[[[-0.20122,51.47954],[-0.2028,51.47864],[-0.20344,51.47904],[-0.20401,51.47873],[-0.20335,51.47802],[-0.20245,51.4782],[-0.20144,51.47773],[-0.20038,51.47821],[-0.20028,51.47774],[-0.19916,51.47703],[-0.19814,51.47735],[-0.1976,51.47708],[-0.2007,51.47552],[-0.20074,51.47578],[-0.20168,51.47556],[-0.2028,51.47647],[-0.20278,51.47684],[-0.2035,51.47706],[-0.20485,51.4765],[-0.2062,51.47829],[-0.20258,51.47981],[-0.20309,51.47911],[-0.20135,51.47982],[-0.20122,51.47954]]]}},{"type":"Feature","properties":{"id":"E01001951","name":"E01001951","parent":"E09000013","type":"LSOA","pop":1533,"r":781,"ff":257,"ffd":16764.5,"ffs":0.4041,"g":143,"co":0,"mo":2,"sa":0,"ic":0},"geometry":{"type":"Polygon","coordinates":[[[-0.20607,51.47466],[-0.20499,51.47397],[-0.20539,51.47364],[-0.20437,51.47362],[-0.20438,51.47321],[-0.20281,51.47349],[-0.20265,51.47327],[-0.20121,51.47332],[-0.20056,51.47369],[-0.20075,51.47258],[-0.20592,51.47154],[-0.20586,51.47203],[-0.20688,51.47123],[-0.20765,51.47101],[-0.208,51.4712],[-0.20762,51.47149],[-0.20742,51.47304],[-0.20828,51.47365],[-0.20756,51.4745],[-0.20736,51.47443],[-0.20624,51.47524],[-0.20643,51.47482],[-0.20607,51.47466]]]}},{"type":"Feature","properties":{"id":"E01001952","name":"E01001952","parent":"E09000013","type":"LSOA","pop":1759,"r":690,"ff":233,"ffd":13246.2,"ffs":0.4168,"g":129,"co":0,"mo":2,"sa":0,"ic":0},"geometry":{"type":"Polygon","coordinates":[[[-0.208,51.4712],[-0.20765,51.47101],[-0.20688,51.47123],[-0.20586,51.47203],[-0.20608,51.4713],[-0.20851,51.46947],[-0.21019,51.46933],[-0.21139,51.47191],[-0.21004,51.47254],[-0.20845,51.47376],[-0.20742,51.47304],[-0.20762,51.47149],[-0.208,51.4712]]]}},{"type":"Feature","properties":{"id":"E01001953","name":"E01001953","parent":"E09000013","type":"LSOA","pop":1462,"r":746,"ff":244,"ffd":16689.5,"ffs":0.4026,"g":138,"co":0,"mo":2,"sa":0,"ic":0},"geometry":{"type":"Polygon","coordinates":[[[-0.1956,51.47988],[-0.19657,51.47804],[-0.19825,51.47938],[-0.19888,51.47925],[-0.19834,51.47892],[-0.19886,51.47877],[-0.19839,51.47797],[-0.19844,51.47748],[-0.1996,51.47767],[-0.19894,51.47802],[-0.19987,51.47899],[-0.20047,51.47919],[-0.2014,51.47845],[-0.20204,51.47884],[-0.2028,51.47864],[-0.20122,51.47954],[-0.20135,51.47982],[-0.20309,51.47911],[-0.20224,51.48006],[-0.19907,51.48082],[-0.1956,51.47988]]]}},{"type":"Feature","properties":{"id":"E01001954","name":"E01001954","parent":"E09000013","type":"LSOA","pop":1562,"r":931,"ff":319,"ffd":20422.5,"ffs":0.4154,"g":159,"co":0,"mo":0,"sa":0,"ic":0},"geometry":{"type":"Polygon","coordinates":[[[-0.23909,51.50976],[-0.23926,51.50944],[-0.23868,51.50946],[-0.23857,51.50686],[-0.23826,51.50679],[-0.23833,51.50947],[-0.23793,51.5095],[-0.23806,51.50848],[-0.23744,51.50824],[-0.23725,51.50672],[-0.23661,51.50643],[-0.24235,51.50671],[-0.24168,51.50755],[-0.24091,51.50701],[-0.23986,51.50729],[-0.24011,51.50889],[-0.24194,51.50888],[-0.24226,51.50922],[-0.24199,51.50987],[-0.24105,51.50994],[-0.24131,51.51123],[-0.24036,51.51049],[-0.24043,51.51],[-0.23909,51.50976]]]}},{"type":"Feature","properties":{"id":"E01001955","name":"E01001955","parent":"E09000013","type":"LSOA","pop":2112,"r":952,"ff":327,"ffd":15483.0,"ffs":0.416,"g":162,"co":0,"mo":0,"sa":0,"ic":0},"geometry":{"type":"Polygon","coordinates":[[[-0.23615,51.51433],[-0.23622,51.51378],[-0.23489,51.51342],[-0.23419,51.51288],[-0.23417,51.51238],[-0.23355,51.51242],[-0.23345,51.51187],[-0.23481,51.512],[-0.23457,51.5109],[-0.23378,51.51096],[-0.23361,51.50981],[-0.23754,51.51003],[-0.23803,51.50982],[-0.23793,51.5095],[-0.23833,51.50947],[-0.23826,51.50679],[-0.23857,51.50686],[-0.23868,51.50946],[-0.23926,51.50944],[-0.23909,51.50976],[-0.23959,51.50996],[-0.24043,51.51],[-0.24036,51.51049],[-0.24131,51.51123],[-0.24142,51.51215],[-0.24032,51.51257],[-0.24118,51.513],[-0.23981,51.51407],[-0.23903,51.51427],[-0.23615,51.51433]]]}},{"type":"Feature","properties":{"id":"E01001956","name":"E01001956","parent":"E09000013","type":"LSOA","pop":1587,"r":933,"ff":321,"ffd":20226.8,"ffs":0.4169,"g":159,"co":0,"mo":0,"sa":0,"ic":0},"geometry":{"type":"Polygon","coordinates":[[[-0.24226,51.50922],[-0.24194,51.50888],[-0.24011,51.50889],[-0.23986,51.50729],[-0.24091,51.50701],[-0.24168,51.50755],[-0.24235,51.50671],[-0.24506,51.50674],[-0.24549,51.50791],[-0.24483,51.50798],[-0.24514,51.51046],[-0.24316,51.51073],[-0.24356,51.51093],[-0.24281,51.51107],[-0.24289,51.51152],[-0.24132,51.51168],[-0.24105,51.50994],[-0.24199,51.50987],[-0.24226,51.50922]]]}},{"type":"Feature","properties":{"id":"E01001957","name":"E01001957","parent":"E09000013","type":"LSOA","pop":1680,"r":946,"ff":331,"ffd":19702.4,"ffs":0.4211,"g":156,"co":0,"mo":0,"sa":0,"ic":0},"geometry":{"type":"Polygon","coordinates":[[[-0.23002,51.51395],[-0.22736,51.51228],[-0.23112,51.51022],[-0.23141,51.5115],[-0.23009,51.51221],[-0.23017,51.51267],[-0.2316,51.51256],[-0.2318,51.51365],[-0.23199,51.51363],[-0.23188,51.51469],[-0.23006,51.51485],[-0.23002,51.51395]]]}},{"type":"Feature","properties":{"id":"E01001958","name":"E01001958","parent":"E09000013","type":"LSOA","pop":1686,"r":1031,"ff":353,"ffd":20937.1,"ffs":0.4095,"g":165,"co":0,"mo":0,"sa":0,"ic":0},"geometry":{"type":"Polygon","coordinates":[[[-0.23188,51.51469],[-0.23199,51.51363],[-0.2318,51.51365],[-0.23176,51.51343],[-0.2323,51.5134],[-0.23219,51.51297],[-0.2336,51.51263],[-0.23355,51.51242],[-0.23417,51.51238],[-0.23419,51.51288],[-0.23489,51.51342],[-0.23622,51.51378],[-0.23615,51.51433],[-0.23188,51.51469]]]}},{"type":"Feature","properties":{"id":"E01001959","name":"E01001959","parent":"E09000013","type":"LSOA","pop":2153,"r":875,"ff":300,"ffd":13934.0,"ffs":0.4155,"g":149,"co":0,"mo":0,"sa":0,"ic":0},"geometry":{"type":"Polygon","coordinates":[[[-0.24483,51.50798],[-0.24549,51.50791],[-0.2466,51.5112],[-0.24897,51.51388],[-0.2424,51.51428],[-0.23903,51.51427],[-0.23981,51.51407],[-0.24118,51.513],[-0.24032,51.51257],[-0.24142,51.51215],[-0.24132,51.51168],[-0.24289,51.51152],[-0.24281,51.51107],[-0.24356,51.51093],[-0.24316,51.51073],[-0.24514,51.51046],[-0.24483,51.50798]]]}},{"type":"Feature","properties":{"id":"E01001960","name":"E01001960","parent":"E09000013","type":"LSOA","pop":1718,"r":986,"ff":338,"ffd":19674.0,"ffs":0.4132,"g":164,"co":0,"mo":0,"sa":0,"ic":0},"geometry":{"type":"Polygon","coordinates":[[[-0.23754,51.51003],[-0.23455,51.50975],[-0.23457,51.50644],[-0.23661,51.50643],[-0.23725,51.50672],[-0.23744,51.50824],[-0.23806,51.50848],[-0.23803,51.50982],[-0.23754,51.51003]]]}},{"type":"Feature","properties":{"id":"E01001961","name":"E01001961","parent":"E09000013","type":"LSOA","pop":1603,"r":928,"ff":320,"ffd":19962.6,"ffs":0.4145,"g":152,"co":0,"mo":0,"sa":0,"ic":0},"geometry":{"type":"Polygon","coordinates":[[[-0.23176,51.51343],[-0.2316,51.51256],[-0.23017,51.51267],[-0.23009,51.51221],[-0.23141,51.5115],[-0.23112,51.51022],[-0.23173,51.50997],[-0.23361,51.50981],[-0.23378,51.51096],[-0.23457,51.5109],[-0.23481,51.512],[-0.23345,51.51187],[-0.2336,51.51263],[-0.23219,51.51297],[-0.2323,51.5134],[-0.23176,51.51343]]]}},{"type":"Feature","properties":{"id":"E01032788","name":"E01032788","parent":"E09000013","type":"LSOA","pop":1713,"r":910,"ff":302,"ffd":17629.9,"ffs":0.4065,"g":165,"co":0,"mo":2,"sa":0,"ic":0},"geometry":{"type":"Polygon","coordinates":[[[-0.18345,51.47142],[-0.18479,51.47037],[-0.18445,51.47005],[-0.18363,51.46984],[-0.18439,51.46824],[-0.18573,51.46748],[-0.18529,51.46716],[-0.18629,51.46653],[-0.18705,51.4663],[-0.18808,51.4673],[-0.18724,51.46789],[-0.18761,51.46813],[-0.18731,51.46838],[-0.18849,51.46904],[-0.18813,51.46922],[-0.18853,51.46943],[-0.18752,51.47017],[-0.18784,51.47037],[-0.18754,51.47066],[-0.18756,51.47101],[-0.18661,51.47104],[-0.1866,51.47131],[-0.18508,51.47084],[-0.18462,51.47184],[-0.18365,51.47163],[-0.18345,51.47142]]]}},{"type":"Feature","properties":{"id":"E01032789","name":"E01032789","parent":"E09000013","type":"LSOA","pop":1212,"r":863,"ff":291,"ffd":24009.9,"ffs":0.4099,"g":152,"co":0,"mo":2,"sa":0,"ic":0},"geometry":{"type":"Polygon","coordinates":[[[-0.18168,51.47313],[-0.18187,51.47265],[-0.18269,51.47288],[-0.18295,51.47256],[-0.18404,51.4728],[-0.18368,51.47368],[-0.18257,51.47492],[-0.18096,51.47384],[-0.18168,51.47313]]]}},{"type":"Feature","properties":{"id":"E01032790","name":"E01032790","parent":"E09000013","type":"LSOA","pop":1138,"r":709,"ff":239,"ffd":21001.8,"ffs":0.4114,"g":127,"co":0,"mo":2,"sa":0,"ic":0},"geometry":{"type":"Polygon","coordinates":[[[-0.18063,51.4737],[-0.18099,51.4726],[-0.18306,51.46922],[-0.18447,51.46768],[-0.18529,51.46716],[-0.18573,51.46748],[-0.18439,51.46824],[-0.18363,51.46984],[-0.18445,51.47005],[-0.18479,51.47037],[-0.18345,51.47142],[-0.18365,51.47163],[-0.18462,51.47184],[-0.18404,51.4728],[-0.18295,51.47256],[-0.18269,51.47288],[-0.18187,51.47265],[-0.18168,51.47313],[-0.18096,51.47384],[-0.18063,51.4737]]]}},{"type":"Feature","properties":{"id":"E01035484","name":"E01035484","parent":"E09000013","type":"LSOA","pop":1803,"r":1062,"ff":383,"ffd":21242.4,"ffs":0.4328,"g":173,"co":0,"mo":0,"sa":0,"ic":0},"geometry":{"type":"Polygon","coordinates":[[[-0.23375,51.52546],[-0.23275,51.52483],[-0.22882,51.52504],[-0.2266,51.5248],[-0.22671,51.52198],[-0.22828,51.5211],[-0.22468,51.51792],[-0.22259,51.51552],[-0.22397,51.51541],[-0.22657,51.51669],[-0.22697,51.51657],[-0.22711,51.51683],[-0.22761,51.51646],[-0.22777,51.51688],[-0.22962,51.51626],[-0.22664,51.51602],[-0.2252,51.51289],[-0.22653,51.51254],[-0.22696,51.5122],[-0.22668,51.51193],[-0.22774,51.51134],[-0.22831,51.51175],[-0.22736,51.51228],[-0.23002,51.51395],[-0.23006,51.51485],[-0.23067,51.51479],[-0.23124,51.51515],[-0.23085,51.51567],[-0.2317,51.51626],[-0.23171,51.51646],[-0.23125,51.51797],[-0.23236,51.51862],[-0.23425,51.52088],[-0.2359,51.52204],[-0.23831,51.52207],[-0.24227,51.52452],[-0.23375,51.52546]]]}},{"type":"Feature","properties":{"id":"E01035485","name":"E01035485","parent":"E09000013","type":"LSOA","pop":2014,"r":1009,"ff":355,"ffd":17626.6,"ffs":0.4231,"g":166,"co":0,"mo":0,"sa":0,"ic":0},"geometry":{"type":"Polygon","coordinates":[[[-0.22777,51.51688],[-0.22761,51.51646],[-0.22711,51.51683],[-0.22697,51.51657],[-0.22657,51.51669],[-0.22397,51.51541],[-0.22259,51.51552],[-0.22025,51.51173],[-0.22457,51.50949],[-0.2248,51.51188],[-0.22682,51.51069],[-0.22774,51.51134],[-0.22668,51.51193],[-0.22696,51.5122],[-0.22653,51.51254],[-0.2252,51.51289],[-0.22664,51.51602],[-0.22962,51.51626],[-0.22777,51.51688]]]}},{"type":"Feature","properties":{"id":"E01035486","name":"E01035486","parent":"E09000013","type":"LSOA","pop":2540,"r":846,"ff":284,"ffd":11181.1,"ffs":0.4075,"g":148,"co":0,"mo":2,"sa":0,"ic":0},"geometry":{"type":"MultiPolygon","coordinates":[[[[-0.18172,51.47756],[-0.18216,51.47739],[-0.18251,51.4774],[-0.18172,51.47756]]],[[[-0.18458,51.47805],[-0.18345,51.47742],[-0.18387,51.47744],[-0.18417,51.47718],[-0.18247,51.47711],[-0.18041,51.47771],[-0.17936,51.47762],[-0.18063,51.4737],[-0.18257,51.47492],[-0.18368,51.47368],[-0.1852,51.47444],[-0.18473,51.47493],[-0.18426,51.47466],[-0.1839,51.47504],[-0.18482,51.47544],[-0.18598,51.47473],[-0.18893,51.47584],[-0.18819,51.47669],[-0.18943,51.47718],[-0.18679,51.47828],[-0.18535,51.4786],[-0.18458,51.47805]]]]}},{"type":"Feature","properties":{"id":"E01035487","name":"E01035487","parent":"E09000013","type":"LSOA","pop":1599,"r":835,"ff":279,"ffd":17448.4,"ffs":0.4091,"g":152,"co":0,"mo":2,"sa":0,"ic":0},"geometry":{"type":"Polygon","coordinates":[[[-0.1839,51.47504],[-0.18426,51.47466],[-0.18473,51.47493],[-0.1852,51.47444],[-0.18368,51.47368],[-0.18478,51.47159],[-0.1863,51.47209],[-0.18616,51.47259],[-0.18773,51.47317],[-0.18835,51.47369],[-0.18905,51.47343],[-0.1873,51.47269],[-0.18728,51.47219],[-0.18771,51.4723],[-0.18799,51.47198],[-0.18853,51.47284],[-0.1892,51.47304],[-0.18992,51.47238],[-0.1909,51.4729],[-0.19145,51.4737],[-0.18969,51.47504],[-0.189,51.4751],[-0.18867,51.47486],[-0.18916,51.47458],[-0.18861,51.47431],[-0.18831,51.47454],[-0.1866,51.47377],[-0.18584,51.47468],[-0.18598,51.47473],[-0.18482,51.47544],[-0.1839,51.47504]]]}}]}