{"type":"FeatureCollection","features":[{"type":"Feature","properties":{"id":"E01001714","name":"E01001714","parent":"E09000012","type":"LSOA","pop":2415,"r":1041,"ff":409,"ffd":16935.8,"ffs":0.4575,"g":143,"co":0,"mo":0,"sa":0,"ic":0},"geometry":{"type":"Polygon","coordinates":[[[-0.09552,51.57024],[-0.09487,51.56937],[-0.0941,51.56941],[-0.09364,51.56987],[-0.09278,51.57012],[-0.09133,51.56792],[-0.08817,51.56761],[-0.08921,51.56678],[-0.09073,51.56595],[-0.09209,51.56616],[-0.09264,51.56587],[-0.09325,51.56633],[-0.09368,51.56595],[-0.09394,51.56653],[-0.09523,51.56628],[-0.09469,51.56679],[-0.09403,51.56687],[-0.09406,51.56716],[-0.09455,51.56732],[-0.09513,51.56827],[-0.09574,51.5685],[-0.09643,51.5683],[-0.09722,51.56867],[-0.0982,51.56821],[-0.09764,51.56888],[-0.09815,51.56909],[-0.09609,51.5707],[-0.09588,51.57075],[-0.09552,51.57024]]]}},{"type":"Feature","properties":{"id":"E01001715","name":"E01001715","parent":"E09000012","type":"LSOA","pop":1314,"r":1009,"ff":396,"ffd":30137.0,"ffs":0.4562,"g":137,"co":0,"mo":0,"sa":0,"ic":0},"geometry":{"type":"Polygon","coordinates":[[[-0.09722,51.56867],[-0.09643,51.5683],[-0.09574,51.5685],[-0.09513,51.56827],[-0.09455,51.56732],[-0.09406,51.56716],[-0.09403,51.56687],[-0.09469,51.56679],[-0.09523,51.56628],[-0.09805,51.56575],[-0.09865,51.56573],[-0.09887,51.56606],[-0.10053,51.56576],[-0.10081,51.56613],[-0.10031,51.56589],[-0.09809,51.56696],[-0.09891,51.56741],[-0.0988,51.56783],[-0.09722,51.56867]]]}},{"type":"Feature","properties":{"id":"E01001716","name":"E01001716","parent":"E09000012","type":"LSOA","pop":1978,"r":1032,"ff":406,"ffd":20525.8,"ffs":0.4562,"g":138,"co":0,"mo":0,"sa":0,"ic":0},"geometry":{"type":"Polygon","coordinates":[[[-0.09809,51.56696],[-0.10031,51.56589],[-0.10081,51.56613],[-0.10053,51.56576],[-0.09887,51.56606],[-0.09865,51.56573],[-0.09805,51.56575],[-0.0975,51.56464],[-0.09854,51.56404],[-0.09931,51.56452],[-0.099,51.56471],[-0.09925,51.56532],[-0.1003,51.56461],[-0.10267,51.5653],[-0.10296,51.56566],[-0.09815,51.56909],[-0.09764,51.56888],[-0.0988,51.56783],[-0.09891,51.56741],[-0.09809,51.56696]]]}},{"type":"Feature","properties":{"id":"E01001717","name":"E01001717","parent":"E09000012","type":"LSOA","pop":1044,"r":1059,"ff":409,"ffd":39176.2,"ffs":0.449,"g":144,"co":0,"mo":0,"sa":0,"ic":0},"geometry":{"type":"Polygon","coordinates":[[[-0.09394,51.56653],[-0.09368,51.56595],[-0.09325,51.56633],[-0.09264,51.56587],[-0.09209,51.56616],[-0.09073,51.56595],[-0.09183,51.56529],[-0.09194,51.56455],[-0.09177,51.56408],[-0.09243,51.56391],[-0.0927,51.56467],[-0.0932,51.5641],[-0.0934,51.56433],[-0.09697,51.5636],[-0.09805,51.56575],[-0.09394,51.56653]]]}},{"type":"Feature","properties":{"id":"E01001718","name":"E01001718","parent":"E09000012","type":"LSOA","pop":1854,"r":1059,"ff":400,"ffd":21575.0,"ffs":0.4386,"g":142,"co":0,"mo":0,"sa":0,"ic":0},"geometry":{"type":"Polygon","coordinates":[[[-0.10091,51.56483],[-0.1003,51.56461],[-0.09925,51.56532],[-0.099,51.56471],[-0.09931,51.56452],[-0.0983,51.56385],[-0.09895,51.56345],[-0.09767,51.56273],[-0.09735,51.5623],[-0.09946,51.56149],[-0.10448,51.56471],[-0.10296,51.56566],[-0.10267,51.5653],[-0.10091,51.56483]]]}},{"type":"Feature","properties":{"id":"E01001719","name":"E01001719","parent":"E09000012","type":"LSOA","pop":1716,"r":815,"ff":322,"ffd":18764.6,"ffs":0.4548,"g":104,"co":0,"mo":0,"sa":0,"ic":0},"geometry":{"type":"Polygon","coordinates":[[[-0.09178,51.56215],[-0.09168,51.56022],[-0.09267,51.56042],[-0.09233,51.56096],[-0.09629,51.56266],[-0.09295,51.56374],[-0.0932,51.5641],[-0.0927,51.56467],[-0.09178,51.56215]]]}},{"type":"Feature","properties":{"id":"E01001720","name":"E01001720","parent":"E09000012","type":"LSOA","pop":1793,"r":1155,"ff":439,"ffd":24484.1,"ffs":0.4394,"g":151,"co":0,"mo":0,"sa":0,"ic":0},"geometry":{"type":"Polygon","coordinates":[[[-0.09726,51.56438],[-0.09697,51.5636],[-0.0934,51.56433],[-0.09295,51.56374],[-0.09629,51.56266],[-0.09233,51.56096],[-0.09267,51.56042],[-0.09583,51.5612],[-0.09856,51.56084],[-0.09946,51.56149],[-0.09735,51.5623],[-0.09767,51.56273],[-0.09895,51.56345],[-0.0983,51.56385],[-0.09854,51.56404],[-0.0975,51.56464],[-0.09726,51.56438]]]}},{"type":"Feature","properties":{"id":"E01001722","name":"E01001722","parent":"E09000012","type":"LSOA","pop":2384,"r":803,"ff":323,"ffd":13548.7,"ffs":0.4722,"g":116,"co":0,"mo":0,"sa":0,"ic":0},"geometry":{"type":"Polygon","coordinates":[[[-0.06109,51.56491],[-0.06032,51.56443],[-0.05978,51.56454],[-0.05813,51.56302],[-0.0603,51.56248],[-0.06463,51.56296],[-0.06581,51.56248],[-0.06708,51.56232],[-0.06601,51.5636],[-0.06539,51.56344],[-0.06431,51.56485],[-0.06211,51.56451],[-0.06193,51.56496],[-0.06109,51.56491]]]}},{"type":"Feature","properties":{"id":"E01001723","name":"E01001723","parent":"E09000012","type":"LSOA","pop":1974,"r":873,"ff":337,"ffd":17071.9,"ffs":0.4458,"g":114,"co":0,"mo":0,"sa":0,"ic":0},"geometry":{"type":"Polygon","coordinates":[[[-0.06805,51.56677],[-0.06741,51.5666],[-0.06741,51.56634],[-0.06679,51.56643],[-0.06674,51.56523],[-0.06514,51.56513],[-0.06601,51.5636],[-0.06708,51.56232],[-0.07022,51.56268],[-0.07003,51.56322],[-0.07072,51.56336],[-0.06994,51.56445],[-0.07062,51.56475],[-0.06941,51.5651],[-0.0696,51.56549],[-0.06896,51.56562],[-0.06907,51.56685],[-0.0685,51.56665],[-0.06849,51.56735],[-0.06801,51.56735],[-0.06805,51.56677]]]}},{"type":"Feature","properties":{"id":"E01001724","name":"E01001724","parent":"E09000012","type":"LSOA","pop":2950,"r":950,"ff":369,"ffd":12508.5,"ffs":0.4462,"g":120,"co":0,"mo":0,"sa":0,"ic":0},"geometry":{"type":"Polygon","coordinates":[[[-0.0718,51.56748],[-0.06968,51.56737],[-0.06968,51.56702],[-0.06907,51.56685],[-0.06896,51.56562],[-0.0696,51.56549],[-0.06941,51.5651],[-0.07062,51.56475],[-0.06994,51.56445],[-0.07072,51.56336],[-0.07003,51.56322],[-0.07022,51.56268],[-0.0716,51.56285],[-0.07316,51.56343],[-0.07293,51.56788],[-0.07222,51.5679],[-0.0718,51.56748]]]}},{"type":"Feature","properties":{"id":"E01001725","name":"E01001725","parent":"E09000012","type":"LSOA","pop":1813,"r":820,"ff":330,"ffd":18201.9,"ffs":0.4674,"g":111,"co":0,"mo":0,"sa":0,"ic":0},"geometry":{"type":"Polygon","coordinates":[[[-0.07203,51.57029],[-0.06668,51.57008],[-0.067,51.56992],[-0.0654,51.56895],[-0.06735,51.56782],[-0.06682,51.56769],[-0.06741,51.5666],[-0.06805,51.56677],[-0.06801,51.56735],[-0.06849,51.56735],[-0.0685,51.56665],[-0.06968,51.56702],[-0.06968,51.56737],[-0.0718,51.56748],[-0.0685,51.5676],[-0.06849,51.56785],[-0.0696,51.56787],[-0.06965,51.56897],[-0.07071,51.56926],[-0.07089,51.56895],[-0.07131,51.56905],[-0.07139,51.57019],[-0.07203,51.57029]]]}},{"type":"Feature","properties":{"id":"E01001726","name":"E01001726","parent":"E09000012","type":"LSOA","pop":1306,"r":882,"ff":356,"ffd":27258.8,"ffs":0.4666,"g":116,"co":0,"mo":0,"sa":0,"ic":0},"geometry":{"type":"Polygon","coordinates":[[[-0.07131,51.56905],[-0.07089,51.56895],[-0.07071,51.56926],[-0.06965,51.56897],[-0.0696,51.56787],[-0.06849,51.56785],[-0.0685,51.5676],[-0.0718,51.56748],[-0.07222,51.5679],[-0.07293,51.56788],[-0.07285,51.57029],[-0.07139,51.57019],[-0.07131,51.56905]]]}},{"type":"Feature","properties":{"id":"E01001727","name":"E01001727","parent":"E09000012","type":"LSOA","pop":1873,"r":823,"ff":325,"ffd":17351.8,"ffs":0.4623,"g":117,"co":0,"mo":0,"sa":0,"ic":0},"geometry":{"type":"Polygon","coordinates":[[[-0.06443,51.5695],[-0.06427,51.56893],[-0.06387,51.56916],[-0.0634,51.56879],[-0.06293,51.56896],[-0.06235,51.56853],[-0.06183,51.56872],[-0.06138,51.56814],[-0.06193,51.56786],[-0.06162,51.5675],[-0.0644,51.56665],[-0.06411,51.56611],[-0.06478,51.56608],[-0.06514,51.56513],[-0.06674,51.56523],[-0.06679,51.56643],[-0.06741,51.56634],[-0.06682,51.56769],[-0.06735,51.56782],[-0.06443,51.5695]]]}},{"type":"Feature","properties":{"id":"E01001728","name":"E01001728","parent":"E09000012","type":"LSOA","pop":2004,"r":1036,"ff":387,"ffd":19311.4,"ffs":0.4334,"g":139,"co":0,"mo":0,"sa":0,"ic":0},"geometry":{"type":"Polygon","coordinates":[[[-0.06006,51.56516],[-0.05978,51.56454],[-0.06032,51.56443],[-0.06109,51.56491],[-0.06193,51.56496],[-0.06211,51.56451],[-0.06431,51.56485],[-0.06539,51.56344],[-0.06601,51.5636],[-0.06478,51.56608],[-0.06411,51.56611],[-0.0644,51.56665],[-0.06162,51.5675],[-0.0609,51.56751],[-0.06052,51.56703],[-0.06006,51.56516]]]}},{"type":"Feature","properties":{"id":"E01001729","name":"E01001729","parent":"E09000012","type":"LSOA","pop":2015,"r":1023,"ff":426,"ffd":21141.4,"ffs":0.4814,"g":135,"co":2,"mo":0,"sa":0,"ic":0},"geometry":{"type":"Polygon","coordinates":[[[-0.0437,51.55141],[-0.04302,51.55023],[-0.0443,51.54988],[-0.04404,51.5494],[-0.0441,51.54826],[-0.04097,51.54873],[-0.04022,51.54698],[-0.04197,51.54704],[-0.04193,51.54632],[-0.04257,51.54652],[-0.04279,51.54633],[-0.04349,51.54659],[-0.04286,51.5469],[-0.04327,51.54711],[-0.04576,51.54719],[-0.04598,51.54802],[-0.04696,51.54803],[-0.04709,51.54832],[-0.04592,51.54843],[-0.0463,51.54942],[-0.04688,51.54931],[-0.04732,51.55031],[-0.04677,51.55043],[-0.04675,51.55117],[-0.04637,51.55125],[-0.04472,51.55092],[-0.0437,51.55141]]]}},{"type":"Feature","properties":{"id":"E01001730","name":"E01001730","parent":"E09000012","type":"LSOA","pop":2829,"r":1245,"ff":512,"ffd":18098.3,"ffs":0.4684,"g":150,"co":2,"mo":0,"sa":0,"ic":0},"geometry":{"type":"Polygon","coordinates":[[[-0.04709,51.54832],[-0.04696,51.54803],[-0.04598,51.54802],[-0.04576,51.54719],[-0.04327,51.54711],[-0.04286,51.5469],[-0.04349,51.54659],[-0.04279,51.54633],[-0.04257,51.54652],[-0.04193,51.54632],[-0.04167,51.54526],[-0.04329,51.545],[-0.04598,51.54492],[-0.0468,51.5442],[-0.04727,51.54433],[-0.04695,51.54471],[-0.04725,51.54499],[-0.04673,51.54522],[-0.04691,51.54573],[-0.04774,51.54577],[-0.04818,51.54643],[-0.04733,51.54675],[-0.04782,51.54727],[-0.04933,51.5473],[-0.04932,51.54794],[-0.04832,51.54795],[-0.04905,51.54825],[-0.04803,51.54868],[-0.04825,51.54904],[-0.0463,51.54942],[-0.04592,51.54843],[-0.04709,51.54832]]]}},{"type":"Feature","properties":{"id":"E01001731","name":"E01001731","parent":"E09000012","type":"LSOA","pop":2735,"r":1123,"ff":447,"ffd":16343.7,"ffs":0.4557,"g":140,"co":2,"mo":0,"sa":0,"ic":0},"geometry":{"type":"Polygon","coordinates":[[[-0.04782,51.54727],[-0.04733,51.54675],[-0.04818,51.54643],[-0.04774,51.54577],[-0.04788,51.54536],[-0.04821,51.54532],[-0.0486,51.54614],[-0.0495,51.54619],[-0.04902,51.54549],[-0.04956,51.54526],[-0.0499,51.54523],[-0.05023,51.54579],[-0.05081,51.54579],[-0.05019,51.54364],[-0.05529,51.54315],[-0.05538,51.54424],[-0.05495,51.54711],[-0.05129,51.54733],[-0.05087,51.54727],[-0.05103,51.54705],[-0.04933,51.5473],[-0.04782,51.54727]]]}},{"type":"Feature","properties":{"id":"E01001732","name":"E01001732","parent":"E09000012","type":"LSOA","pop":1888,"r":1326,"ff":539,"ffd":28548.7,"ffs":0.4607,"g":154,"co":2,"mo":0,"sa":0,"ic":0},"geometry":{"type":"Polygon","coordinates":[[[-0.0486,51.54614],[-0.04821,51.54532],[-0.04788,51.54536],[-0.04774,51.54577],[-0.04691,51.54573],[-0.04673,51.54522],[-0.04725,51.54499],[-0.04695,51.54471],[-0.04727,51.54433],[-0.0468,51.5442],[-0.04837,51.54286],[-0.05019,51.54364],[-0.05081,51.54579],[-0.05023,51.54579],[-0.0499,51.54523],[-0.04956,51.54526],[-0.04902,51.54549],[-0.0495,51.54619],[-0.0486,51.54614]]]}},{"type":"Feature","properties":{"id":"E01001733","name":"E01001733","parent":"E09000012","type":"LSOA","pop":1917,"r":1034,"ff":436,"ffd":22743.9,"ffs":0.4866,"g":134,"co":2,"mo":0,"sa":0,"ic":0},"geometry":{"type":"Polygon","coordinates":[[[-0.04106,51.55262],[-0.03975,51.54887],[-0.0441,51.54826],[-0.04404,51.5494],[-0.0443,51.54988],[-0.04302,51.55023],[-0.0437,51.55141],[-0.04472,51.55092],[-0.04637,51.55125],[-0.04673,51.55206],[-0.04672,51.55236],[-0.04579,51.55246],[-0.04565,51.55216],[-0.04472,51.55227],[-0.04485,51.55259],[-0.0439,51.55276],[-0.04404,51.55305],[-0.04153,51.55352],[-0.04106,51.55262]]]}},{"type":"Feature","properties":{"id":"E01001734","name":"E01001734","parent":"E09000012","type":"LSOA","pop":1910,"r":657,"ff":274,"ffd":14345.5,"ffs":0.4858,"g":91,"co":0,"mo":0,"sa":0,"ic":0},"geometry":{"type":"Polygon","coordinates":[[[-0.04889,51.55277],[-0.04865,51.55187],[-0.04673,51.55206],[-0.04637,51.55125],[-0.04675,51.55117],[-0.04785,51.55161],[-0.04906,51.55153],[-0.04885,51.55092],[-0.04987,51.5507],[-0.04978,51.55033],[-0.05035,51.55062],[-0.0515,51.55047],[-0.05204,51.55075],[-0.0519,51.55027],[-0.05347,51.55006],[-0.05272,51.54944],[-0.05339,51.54823],[-0.05437,51.54975],[-0.05493,51.54952],[-0.05602,51.55219],[-0.05295,51.5528],[-0.05222,51.55197],[-0.04889,51.55277]]]}},{"type":"Feature","properties":{"id":"E01001735","name":"E01001735","parent":"E09000012","type":"LSOA","pop":1667,"r":952,"ff":400,"ffd":23995.2,"ffs":0.4908,"g":134,"co":2,"mo":0,"sa":0,"ic":0},"geometry":{"type":"Polygon","coordinates":[[[-0.04732,51.55031],[-0.04688,51.54931],[-0.04825,51.54904],[-0.04803,51.54868],[-0.04905,51.54825],[-0.04832,51.54795],[-0.04932,51.54794],[-0.04933,51.5473],[-0.05103,51.54705],[-0.05087,51.54727],[-0.05129,51.54733],[-0.05183,51.54802],[-0.0532,51.54789],[-0.05339,51.54823],[-0.05272,51.54944],[-0.05347,51.55006],[-0.0519,51.55027],[-0.05204,51.55075],[-0.0515,51.55047],[-0.05035,51.55062],[-0.04978,51.55033],[-0.04987,51.5507],[-0.04885,51.55092],[-0.04906,51.55153],[-0.04785,51.55161],[-0.04675,51.55117],[-0.04677,51.55043],[-0.04732,51.55031]]]}},{"type":"Feature","properties":{"id":"E01001736","name":"E01001736","parent":"E09000012","type":"LSOA","pop":1548,"r":1032,"ff":367,"ffd":23708.0,"ffs":0.4114,"g":137,"co":0,"mo":0,"sa":0,"ic":0},"geometry":{"type":"Polygon","coordinates":[[[-0.07879,51.5579],[-0.07931,51.55412],[-0.08042,51.55425],[-0.08023,51.55471],[-0.08296,51.5545],[-0.08248,51.55675],[-0.08202,51.55657],[-0.08105,51.55691],[-0.08047,51.55748],[-0.08196,51.55762],[-0.08185,51.55784],[-0.08095,51.55778],[-0.0811,51.55915],[-0.08069,51.55934],[-0.08025,51.55928],[-0.0801,51.55799],[-0.07879,51.5579]]]}},{"type":"Feature","properties":{"id":"E01001737","name":"E01001737","parent":"E09000012","type":"LSOA","pop":1632,"r":1114,"ff":395,"ffd":24203.4,"ffs":0.4115,"g":149,"co":0,"mo":0,"sa":0,"ic":0},"geometry":{"type":"Polygon","coordinates":[[[-0.085,51.55914],[-0.08327,51.55809],[-0.08326,51.55724],[-0.08369,51.5574],[-0.08392,51.55677],[-0.08536,51.55654],[-0.08775,51.55684],[-0.08726,51.55652],[-0.08814,51.5557],[-0.08866,51.55598],[-0.08819,51.5565],[-0.08918,51.55689],[-0.09033,51.55681],[-0.09039,51.55767],[-0.08819,51.5588],[-0.08743,51.55836],[-0.08592,51.55848],[-0.08486,51.55885],[-0.085,51.55914]]]}},{"type":"Feature","properties":{"id":"E01001738","name":"E01001738","parent":"E09000012","type":"LSOA","pop":1728,"r":1166,"ff":409,"ffd":23669.0,"ffs":0.4082,"g":159,"co":0,"mo":0,"sa":0,"ic":0},"geometry":{"type":"Polygon","coordinates":[[[-0.08866,51.55598],[-0.08814,51.5557],[-0.08726,51.55652],[-0.08775,51.55684],[-0.08536,51.55654],[-0.08612,51.5557],[-0.08622,51.55404],[-0.08746,51.55349],[-0.08798,51.55375],[-0.08833,51.55363],[-0.08868,51.55388],[-0.08928,51.55377],[-0.09038,51.55415],[-0.09033,51.55681],[-0.08918,51.55689],[-0.08819,51.5565],[-0.08866,51.55598]]]}},{"type":"Feature","properties":{"id":"E01001739","name":"E01001739","parent":"E09000012","type":"LSOA","pop":1982,"r":1246,"ff":431,"ffd":21745.7,"ffs":0.3983,"g":160,"co":0,"mo":0,"sa":0,"ic":0},"geometry":{"type":"Polygon","coordinates":[[[-0.08266,51.55567],[-0.08296,51.5545],[-0.08338,51.55455],[-0.08394,51.55374],[-0.08266,51.55392],[-0.08228,51.55323],[-0.08239,51.55288],[-0.08348,51.55301],[-0.08363,51.55267],[-0.0843,51.55258],[-0.08512,51.55211],[-0.08763,51.55287],[-0.08833,51.55363],[-0.08798,51.55375],[-0.08746,51.55349],[-0.08622,51.55404],[-0.08612,51.5557],[-0.08536,51.55654],[-0.08392,51.55677],[-0.08369,51.5574],[-0.08248,51.55675],[-0.08266,51.55567]]]}},{"type":"Feature","properties":{"id":"E01001740","name":"E01001740","parent":"E09000012","type":"LSOA","pop":1589,"r":1209,"ff":422,"ffd":26557.6,"ffs":0.4034,"g":159,"co":0,"mo":0,"sa":0,"ic":0},"geometry":{"type":"Polygon","coordinates":[[[-0.08023,51.55471],[-0.08042,51.55425],[-0.07931,51.55412],[-0.07941,51.55371],[-0.07901,51.55282],[-0.07903,51.55221],[-0.07942,51.55166],[-0.08243,51.55207],[-0.08512,51.55211],[-0.0843,51.55258],[-0.08363,51.55267],[-0.08348,51.55301],[-0.08239,51.55288],[-0.08228,51.55323],[-0.08266,51.55392],[-0.08394,51.55374],[-0.08338,51.55455],[-0.08023,51.55471]]]}},{"type":"Feature","properties":{"id":"E01001741","name":"E01001741","parent":"E09000012","type":"LSOA","pop":1453,"r":1025,"ff":384,"ffd":26428.1,"ffs":0.4315,"g":131,"co":0,"mo":0,"sa":0,"ic":0},"geometry":{"type":"Polygon","coordinates":[[[-0.07896,51.56167],[-0.07846,51.56044],[-0.07889,51.56032],[-0.07849,51.55807],[-0.07879,51.5579],[-0.0801,51.55799],[-0.08025,51.55928],[-0.08069,51.55934],[-0.08122,51.5599],[-0.08061,51.56014],[-0.08079,51.56084],[-0.08269,51.56088],[-0.08277,51.56043],[-0.08317,51.56033],[-0.08373,51.56094],[-0.08418,51.56033],[-0.08471,51.56032],[-0.08504,51.56089],[-0.08238,51.56133],[-0.08032,51.56212],[-0.07857,51.5622],[-0.0785,51.56168],[-0.07896,51.56167]]]}},{"type":"Feature","properties":{"id":"E01001742","name":"E01001742","parent":"E09000012","type":"LSOA","pop":1789,"r":1094,"ff":392,"ffd":21911.7,"ffs":0.4135,"g":143,"co":0,"mo":0,"sa":0,"ic":0},"geometry":{"type":"Polygon","coordinates":[[[-0.08373,51.56094],[-0.08317,51.56033],[-0.08277,51.56043],[-0.08269,51.56088],[-0.08079,51.56084],[-0.08061,51.56014],[-0.08122,51.5599],[-0.08069,51.55934],[-0.0811,51.55915],[-0.08095,51.55778],[-0.08185,51.55784],[-0.08196,51.55762],[-0.08047,51.55748],[-0.08105,51.55691],[-0.08202,51.55657],[-0.08248,51.55675],[-0.08326,51.55724],[-0.08327,51.55809],[-0.085,51.55914],[-0.08486,51.55885],[-0.08592,51.55848],[-0.08743,51.55836],[-0.08819,51.5588],[-0.08504,51.56089],[-0.08471,51.56032],[-0.08418,51.56033],[-0.08373,51.56094]]]}},{"type":"Feature","properties":{"id":"E01001744","name":"E01001744","parent":"E09000012","type":"LSOA","pop":2041,"r":1437,"ff":510,"ffd":24987.8,"ffs":0.4044,"g":172,"co":2,"mo":0,"sa":0,"ic":0},"geometry":{"type":"Polygon","coordinates":[[[-0.06928,51.546],[-0.0691,51.54506],[-0.06793,51.54515],[-0.06767,51.54481],[-0.06644,51.54491],[-0.06643,51.54444],[-0.06576,51.54436],[-0.0657,51.54364],[-0.06445,51.54357],[-0.06442,51.54327],[-0.07452,51.54288],[-0.07515,51.54356],[-0.07508,51.54408],[-0.07262,51.54398],[-0.07262,51.54433],[-0.07315,51.54444],[-0.07288,51.54483],[-0.07359,51.54511],[-0.07266,51.54542],[-0.07212,51.54507],[-0.07144,51.54538],[-0.07079,51.54477],[-0.07032,51.5449],[-0.07035,51.54584],[-0.07,51.54616],[-0.07042,51.54623],[-0.06958,51.54638],[-0.06966,51.5461],[-0.06928,51.546]]]}},{"type":"Feature","properties":{"id":"E01001745","name":"E01001745","parent":"E09000012","type":"LSOA","pop":2202,"r":1159,"ff":425,"ffd":19300.6,"ffs":0.4212,"g":146,"co":2,"mo":0,"sa":0,"ic":0},"geometry":{"type":"Polygon","coordinates":[[[-0.06623,51.55471],[-0.06728,51.55409],[-0.06756,51.55444],[-0.06803,51.55427],[-0.06727,51.55338],[-0.06809,51.55306],[-0.06704,51.55252],[-0.0674,51.5524],[-0.06703,51.55155],[-0.06849,51.55117],[-0.06877,51.55209],[-0.06956,51.55284],[-0.07018,51.55281],[-0.07289,51.55166],[-0.07323,51.55198],[-0.07396,51.55175],[-0.07502,51.55226],[-0.07484,51.5531],[-0.07346,51.55338],[-0.07129,51.55345],[-0.07111,51.55394],[-0.06996,51.5537],[-0.06936,51.55414],[-0.06857,51.55422],[-0.06812,51.55558],[-0.06666,51.5555],[-0.06623,51.55471]]]}},{"type":"Feature","properties":{"id":"E01001746","name":"E01001746","parent":"E09000012","type":"LSOA","pop":1693,"r":1097,"ff":417,"ffd":24630.8,"ffs":0.4366,"g":138,"co":2,"mo":0,"sa":0,"ic":0},"geometry":{"type":"Polygon","coordinates":[[[-0.06623,51.55471],[-0.06524,51.55311],[-0.0639,51.55191],[-0.06703,51.55155],[-0.0674,51.5524],[-0.06704,51.55252],[-0.06809,51.55306],[-0.06727,51.55338],[-0.06803,51.55427],[-0.06756,51.55444],[-0.06728,51.55409],[-0.06623,51.55471]]]}},{"type":"Feature","properties":{"id":"E01001747","name":"E01001747","parent":"E09000012","type":"LSOA","pop":2398,"r":1209,"ff":436,"ffd":18181.8,"ffs":0.4164,"g":158,"co":0,"mo":0,"sa":0,"ic":0},"geometry":{"type":"Polygon","coordinates":[[[-0.06877,51.55209],[-0.06849,51.55117],[-0.07025,51.55082],[-0.0719,51.55086],[-0.07237,51.55125],[-0.07594,51.55035],[-0.07529,51.54992],[-0.07581,51.54977],[-0.07579,51.54945],[-0.07749,51.54918],[-0.07942,51.55166],[-0.07903,51.55221],[-0.07693,51.55222],[-0.07705,51.55269],[-0.07629,51.55273],[-0.0757,51.55228],[-0.07502,51.55226],[-0.07396,51.55175],[-0.07323,51.55198],[-0.07289,51.55166],[-0.07018,51.55281],[-0.06956,51.55284],[-0.06877,51.55209]]]}},{"type":"Feature","properties":{"id":"E01001749","name":"E01001749","parent":"E09000012","type":"LSOA","pop":1498,"r":1358,"ff":488,"ffd":32576.8,"ffs":0.4125,"g":172,"co":2,"mo":0,"sa":0,"ic":0},"geometry":{"type":"Polygon","coordinates":[[[-0.06463,51.54538],[-0.06445,51.54357],[-0.0657,51.54364],[-0.06576,51.54436],[-0.06643,51.54444],[-0.06644,51.54491],[-0.06767,51.54481],[-0.06793,51.54515],[-0.0691,51.54506],[-0.06928,51.546],[-0.06966,51.5461],[-0.06961,51.54631],[-0.06915,51.54631],[-0.06836,51.54762],[-0.06521,51.54745],[-0.06451,51.54617],[-0.06384,51.54611],[-0.06349,51.54545],[-0.06463,51.54538]]]}},{"type":"Feature","properties":{"id":"E01001750","name":"E01001750","parent":"E09000012","type":"LSOA","pop":2205,"r":1479,"ff":506,"ffd":22947.8,"ffs":0.3889,"g":174,"co":0,"mo":1,"sa":0,"ic":0},"geometry":{"type":"Polygon","coordinates":[[[-0.07923,51.54202],[-0.07793,51.54186],[-0.07775,51.54246],[-0.07631,51.54232],[-0.07672,51.539],[-0.0787,51.53913],[-0.07883,51.5387],[-0.08,51.53841],[-0.08012,51.53733],[-0.07905,51.53706],[-0.08034,51.53642],[-0.08189,51.53657],[-0.08172,51.53741],[-0.08218,51.53753],[-0.0823,51.53788],[-0.08155,51.53789],[-0.08133,51.53853],[-0.0805,51.53844],[-0.08064,51.53924],[-0.0811,51.53926],[-0.08053,51.54135],[-0.08118,51.54145],[-0.08073,51.54277],[-0.07907,51.5426],[-0.07923,51.54202]]]}},{"type":"Feature","properties":{"id":"E01001751","name":"E01001751","parent":"E09000012","type":"LSOA","pop":1488,"r":1471,"ff":502,"ffd":33736.6,"ffs":0.3888,"g":176,"co":0,"mo":1,"sa":0,"ic":0},"geometry":{"type":"Polygon","coordinates":[[[-0.08323,51.54581],[-0.08276,51.54534],[-0.08097,51.54533],[-0.08103,51.54487],[-0.07982,51.54472],[-0.08047,51.5444],[-0.08073,51.54277],[-0.08118,51.54145],[-0.08053,51.54135],[-0.08071,51.54058],[-0.08124,51.54063],[-0.08176,51.53965],[-0.08273,51.5397],[-0.08272,51.54052],[-0.08361,51.53963],[-0.08347,51.54043],[-0.08485,51.54029],[-0.08476,51.54061],[-0.08534,51.54069],[-0.08362,51.54515],[-0.08375,51.54618],[-0.08317,51.5461],[-0.08323,51.54581]]]}},{"type":"Feature","properties":{"id":"E01001753","name":"E01001753","parent":"E09000012","type":"LSOA","pop":1531,"r":1493,"ff":500,"ffd":32658.4,"ffs":0.382,"g":179,"co":0,"mo":1,"sa":0,"ic":0},"geometry":{"type":"Polygon","coordinates":[[[-0.08071,51.54058],[-0.0811,51.53926],[-0.08064,51.53924],[-0.0805,51.53844],[-0.08133,51.53853],[-0.08155,51.53789],[-0.0823,51.53788],[-0.08218,51.53753],[-0.08172,51.53741],[-0.08191,51.53647],[-0.0841,51.5367],[-0.0839,51.53751],[-0.08542,51.53764],[-0.08549,51.53829],[-0.08448,51.53816],[-0.08441,51.53845],[-0.08382,51.53875],[-0.08361,51.53963],[-0.08272,51.54052],[-0.08273,51.5397],[-0.08176,51.53965],[-0.08124,51.54063],[-0.08071,51.54058]]]}},{"type":"Feature","properties":{"id":"E01001755","name":"E01001755","parent":"E09000012","type":"LSOA","pop":1676,"r":1532,"ff":517,"ffd":30847.3,"ffs":0.3847,"g":184,"co":0,"mo":1,"sa":0,"ic":0},"geometry":{"type":"Polygon","coordinates":[[[-0.08034,51.53548],[-0.08019,51.53499],[-0.07873,51.53529],[-0.07838,51.53497],[-0.07774,51.53543],[-0.07692,51.53535],[-0.07712,51.53336],[-0.08008,51.53319],[-0.08015,51.53273],[-0.08304,51.53258],[-0.0828,51.53513],[-0.08186,51.53495],[-0.08165,51.53535],[-0.08092,51.53566],[-0.08034,51.53548]]]}},{"type":"Feature","properties":{"id":"E01001756","name":"E01001756","parent":"E09000012","type":"LSOA","pop":2134,"r":1372,"ff":460,"ffd":21555.8,"ffs":0.3814,"g":163,"co":0,"mo":1,"sa":0,"ic":0},"geometry":{"type":"Polygon","coordinates":[[[-0.07711,51.54611],[-0.07568,51.5462],[-0.07631,51.54232],[-0.07775,51.54246],[-0.07793,51.54186],[-0.07923,51.54202],[-0.07907,51.5426],[-0.08073,51.54277],[-0.08047,51.5444],[-0.07982,51.54472],[-0.08103,51.54487],[-0.08097,51.54533],[-0.08276,51.54534],[-0.08323,51.54581],[-0.08317,51.5461],[-0.08375,51.54618],[-0.08381,51.5466],[-0.07711,51.54611]]]}},{"type":"Feature","properties":{"id":"E01001757","name":"E01001757","parent":"E09000012","type":"LSOA","pop":1580,"r":888,"ff":351,"ffd":22215.2,"ffs":0.4576,"g":119,"co":0,"mo":0,"sa":0,"ic":0},"geometry":{"type":"Polygon","coordinates":[[[-0.05602,51.55219],[-0.05548,51.55091],[-0.05895,51.55058],[-0.05842,51.55174],[-0.05946,51.55159],[-0.05921,51.55201],[-0.05981,51.5522],[-0.0597,51.55248],[-0.05621,51.55297],[-0.05602,51.55219]]]}},{"type":"Feature","properties":{"id":"E01001758","name":"E01001758","parent":"E09000012","type":"LSOA","pop":2713,"r":1048,"ff":411,"ffd":15149.3,"ffs":0.4512,"g":135,"co":0,"mo":0,"sa":0,"ic":0},"geometry":{"type":"Polygon","coordinates":[[[-0.05921,51.55201],[-0.05946,51.55159],[-0.05842,51.55174],[-0.05895,51.55058],[-0.05548,51.55091],[-0.05528,51.55046],[-0.0581,51.55012],[-0.05799,51.54962],[-0.05937,51.54974],[-0.05997,51.54932],[-0.05954,51.54882],[-0.05915,51.54911],[-0.05782,51.54826],[-0.05865,51.54786],[-0.05913,51.54798],[-0.0599,51.54751],[-0.0597,51.54719],[-0.06242,51.54731],[-0.06188,51.54788],[-0.0602,51.54814],[-0.06032,51.54921],[-0.06128,51.54936],[-0.06133,51.54968],[-0.06289,51.55126],[-0.06392,51.55191],[-0.0597,51.55248],[-0.05981,51.5522],[-0.05921,51.55201]]]}},{"type":"Feature","properties":{"id":"E01001759","name":"E01001759","parent":"E09000012","type":"LSOA","pop":1690,"r":1175,"ff":436,"ffd":25798.8,"ffs":0.4262,"g":148,"co":2,"mo":0,"sa":0,"ic":0},"geometry":{"type":"Polygon","coordinates":[[[-0.06289,51.55126],[-0.06143,51.54969],[-0.06344,51.55021],[-0.06354,51.5498],[-0.06396,51.54978],[-0.06369,51.54913],[-0.06416,51.54874],[-0.06461,51.54915],[-0.06528,51.54919],[-0.06768,51.54865],[-0.06801,51.55133],[-0.06392,51.55191],[-0.06289,51.55126]]]}},{"type":"Feature","properties":{"id":"E01001760","name":"E01001760","parent":"E09000012","type":"LSOA","pop":2061,"r":1009,"ff":381,"ffd":18486.2,"ffs":0.4415,"g":144,"co":2,"mo":0,"sa":0,"ic":0},"geometry":{"type":"Polygon","coordinates":[[[-0.05528,51.55046],[-0.05493,51.54952],[-0.05437,51.54975],[-0.0532,51.54789],[-0.05183,51.54802],[-0.05129,51.54733],[-0.05495,51.54711],[-0.05511,51.54666],[-0.05669,51.54624],[-0.05676,51.5466],[-0.05796,51.54655],[-0.05797,51.54699],[-0.05743,51.54708],[-0.0597,51.54719],[-0.0599,51.54751],[-0.05913,51.54798],[-0.05865,51.54786],[-0.05782,51.54826],[-0.05915,51.54911],[-0.05954,51.54882],[-0.05997,51.54932],[-0.05937,51.54974],[-0.05799,51.54962],[-0.0581,51.55012],[-0.05528,51.55046]]]}},{"type":"Feature","properties":{"id":"E01001761","name":"E01001761","parent":"E09000012","type":"LSOA","pop":1831,"r":1232,"ff":463,"ffd":25286.7,"ffs":0.4295,"g":151,"co":2,"mo":0,"sa":0,"ic":0},"geometry":{"type":"Polygon","coordinates":[[[-0.06032,51.54921],[-0.0602,51.54814],[-0.06188,51.54788],[-0.06242,51.54731],[-0.06341,51.54737],[-0.06389,51.54811],[-0.06468,51.5481],[-0.06384,51.54611],[-0.06451,51.54617],[-0.06521,51.54745],[-0.06896,51.54767],[-0.06857,51.54814],[-0.06765,51.54827],[-0.06768,51.54865],[-0.06528,51.54919],[-0.06461,51.54915],[-0.06416,51.54874],[-0.06369,51.54913],[-0.06396,51.54978],[-0.06354,51.5498],[-0.06344,51.55021],[-0.06133,51.54968],[-0.06128,51.54936],[-0.06032,51.54921]]]}},{"type":"Feature","properties":{"id":"E01001762","name":"E01001762","parent":"E09000012","type":"LSOA","pop":1729,"r":1243,"ff":460,"ffd":26605.0,"ffs":0.424,"g":155,"co":2,"mo":0,"sa":0,"ic":0},"geometry":{"type":"Polygon","coordinates":[[[-0.05797,51.54699],[-0.05796,51.54655],[-0.05676,51.5466],[-0.05669,51.54624],[-0.05511,51.54666],[-0.05538,51.54424],[-0.05715,51.54419],[-0.05726,51.54463],[-0.05826,51.54442],[-0.05801,51.54386],[-0.05895,51.54389],[-0.05931,51.5444],[-0.05979,51.54437],[-0.0603,51.5457],[-0.06059,51.54595],[-0.06223,51.54573],[-0.06263,51.54628],[-0.06381,51.54605],[-0.06468,51.5481],[-0.06389,51.54811],[-0.06341,51.54737],[-0.05743,51.54708],[-0.05797,51.54699]]]}},{"type":"Feature","properties":{"id":"E01001763","name":"E01001763","parent":"E09000012","type":"LSOA","pop":1795,"r":1290,"ff":462,"ffd":25738.2,"ffs":0.4114,"g":164,"co":2,"mo":0,"sa":0,"ic":0},"geometry":{"type":"Polygon","coordinates":[[[-0.06263,51.54628],[-0.06223,51.54573],[-0.06059,51.54595],[-0.0603,51.5457],[-0.05979,51.54437],[-0.05931,51.5444],[-0.05895,51.54389],[-0.05801,51.54386],[-0.05826,51.54442],[-0.05726,51.54463],[-0.05715,51.54419],[-0.05538,51.54424],[-0.05537,51.54367],[-0.05785,51.54341],[-0.06018,51.54364],[-0.06442,51.54327],[-0.06463,51.54538],[-0.06349,51.54545],[-0.06381,51.54605],[-0.06263,51.54628]]]}},{"type":"Feature","properties":{"id":"E01001764","name":"E01001764","parent":"E09000012","type":"LSOA","pop":1716,"r":966,"ff":373,"ffd":21736.6,"ffs":0.4483,"g":130,"co":0,"mo":0,"sa":0,"ic":0},"geometry":{"type":"Polygon","coordinates":[[[-0.06435,51.56002],[-0.0641,51.55973],[-0.06281,51.55998],[-0.06295,51.55969],[-0.06272,51.55952],[-0.06367,51.55903],[-0.06376,51.55859],[-0.06198,51.55842],[-0.06288,51.55759],[-0.06402,51.55831],[-0.06447,51.55759],[-0.06538,51.55769],[-0.0649,51.55692],[-0.06614,51.55684],[-0.06657,51.55741],[-0.06753,51.5572],[-0.06795,51.55797],[-0.0691,51.55786],[-0.06925,51.55807],[-0.0687,51.55827],[-0.06871,51.55882],[-0.06772,51.55896],[-0.06843,51.56027],[-0.06783,51.56031],[-0.0672,51.55922],[-0.0666,51.55927],[-0.06607,51.55957],[-0.06659,51.56034],[-0.06527,51.56035],[-0.06476,51.56055],[-0.06394,51.56021],[-0.06435,51.56002]]]}},{"type":"Feature","properties":{"id":"E01001765","name":"E01001765","parent":"E09000012","type":"LSOA","pop":1898,"r":801,"ff":318,"ffd":16754.5,"ffs":0.4589,"g":106,"co":0,"mo":0,"sa":0,"ic":0},"geometry":{"type":"Polygon","coordinates":[[[-0.06288,51.55759],[-0.06208,51.55744],[-0.06182,51.55789],[-0.05949,51.55787],[-0.05916,51.55632],[-0.06103,51.55599],[-0.06315,51.55619],[-0.06395,51.55552],[-0.0641,51.55634],[-0.06489,51.55551],[-0.06515,51.55576],[-0.06543,51.5555],[-0.06812,51.55558],[-0.06822,51.5562],[-0.0691,51.55786],[-0.06795,51.55797],[-0.06753,51.5572],[-0.06657,51.55741],[-0.06614,51.55684],[-0.0649,51.55692],[-0.06538,51.55769],[-0.06447,51.55759],[-0.06402,51.55831],[-0.06288,51.55759]]]}},{"type":"Feature","properties":{"id":"E01001767","name":"E01001767","parent":"E09000012","type":"LSOA","pop":1605,"r":765,"ff":325,"ffd":20249.2,"ffs":0.4932,"g":104,"co":0,"mo":0,"sa":0,"ic":0},"geometry":{"type":"Polygon","coordinates":[[[-0.05654,51.55988],[-0.0602,51.55975],[-0.05978,51.55892],[-0.06138,51.55881],[-0.06234,51.55907],[-0.06329,51.55853],[-0.06376,51.55859],[-0.06367,51.55903],[-0.06272,51.55952],[-0.06295,51.55969],[-0.06281,51.55998],[-0.06214,51.55993],[-0.06147,51.56028],[-0.06185,51.56062],[-0.05892,51.56204],[-0.05979,51.56255],[-0.05813,51.56302],[-0.05759,51.56242],[-0.05654,51.55988]]]}},{"type":"Feature","properties":{"id":"E01001768","name":"E01001768","parent":"E09000012","type":"LSOA","pop":1884,"r":811,"ff":325,"ffd":17250.5,"ffs":0.4683,"g":113,"co":0,"mo":0,"sa":0,"ic":0},"geometry":{"type":"Polygon","coordinates":[[[-0.06117,51.56256],[-0.05979,51.56255],[-0.05892,51.56204],[-0.06185,51.56062],[-0.06147,51.56028],[-0.06214,51.55993],[-0.06281,51.55998],[-0.0641,51.55973],[-0.06435,51.56002],[-0.06394,51.56021],[-0.0649,51.56073],[-0.06432,51.56067],[-0.06421,51.56096],[-0.06501,51.56092],[-0.06672,51.56232],[-0.06463,51.56296],[-0.06117,51.56256]]]}},{"type":"Feature","properties":{"id":"E01001769","name":"E01001769","parent":"E09000012","type":"LSOA","pop":1500,"r":934,"ff":352,"ffd":23466.7,"ffs":0.4356,"g":123,"co":0,"mo":0,"sa":0,"ic":0},"geometry":{"type":"Polygon","coordinates":[[[-0.06727,51.56232],[-0.06672,51.56232],[-0.06501,51.56092],[-0.06421,51.56096],[-0.06432,51.56067],[-0.0649,51.56073],[-0.06476,51.56055],[-0.06527,51.56035],[-0.06659,51.56034],[-0.06607,51.55957],[-0.0666,51.55927],[-0.0672,51.55922],[-0.06783,51.56031],[-0.06843,51.56027],[-0.06772,51.55896],[-0.06871,51.55882],[-0.0687,51.55827],[-0.06925,51.55807],[-0.0703,51.56019],[-0.0708,51.56181],[-0.0716,51.56285],[-0.06727,51.56232]]]}},{"type":"Feature","properties":{"id":"E01001770","name":"E01001770","parent":"E09000012","type":"LSOA","pop":1748,"r":775,"ff":313,"ffd":17906.2,"ffs":0.4714,"g":109,"co":0,"mo":0,"sa":0,"ic":0},"geometry":{"type":"Polygon","coordinates":[[[-0.05647,51.55973],[-0.05596,51.5588],[-0.05588,51.55742],[-0.05558,51.55646],[-0.05614,51.55615],[-0.05872,51.556],[-0.05916,51.55632],[-0.05949,51.55787],[-0.06182,51.55789],[-0.06208,51.55744],[-0.06288,51.55759],[-0.06198,51.55842],[-0.06329,51.55853],[-0.06234,51.55907],[-0.06138,51.55881],[-0.05978,51.55892],[-0.0602,51.55975],[-0.05654,51.55988],[-0.05647,51.55973]]]}},{"type":"Feature","properties":{"id":"E01001772","name":"E01001772","parent":"E09000012","type":"LSOA","pop":1893,"r":1515,"ff":528,"ffd":27892.2,"ffs":0.3958,"g":176,"co":2,"mo":1,"sa":0,"ic":0},"geometry":{"type":"Polygon","coordinates":[[[-0.07024,51.53871],[-0.0702,51.53603],[-0.07193,51.53617],[-0.0717,51.53743],[-0.07115,51.53775],[-0.07216,51.53813],[-0.07198,51.53732],[-0.07218,51.53751],[-0.07302,51.53692],[-0.07352,51.53693],[-0.07365,51.5363],[-0.07396,51.53633],[-0.074,51.5385],[-0.07305,51.53856],[-0.07409,51.53922],[-0.07023,51.53905],[-0.07024,51.53871]]]}},{"type":"Feature","properties":{"id":"E01001773","name":"E01001773","parent":"E09000012","type":"LSOA","pop":2615,"r":1532,"ff":541,"ffd":20688.3,"ffs":0.3993,"g":173,"co":0,"mo":1,"sa":0,"ic":0},"geometry":{"type":"Polygon","coordinates":[[[-0.07396,51.53633],[-0.07365,51.5363],[-0.07352,51.53693],[-0.07302,51.53692],[-0.07218,51.53751],[-0.07198,51.53732],[-0.07216,51.53813],[-0.07115,51.53775],[-0.0717,51.53743],[-0.07193,51.53617],[-0.07191,51.53546],[-0.07152,51.53548],[-0.07172,51.53438],[-0.07244,51.53423],[-0.07231,51.53382],[-0.07276,51.5336],[-0.07394,51.53413],[-0.07395,51.53455],[-0.07337,51.53443],[-0.07312,51.53487],[-0.07363,51.53534],[-0.07694,51.53509],[-0.07674,51.53842],[-0.074,51.5385],[-0.07396,51.53633]]]}},{"type":"Feature","properties":{"id":"E01001774","name":"E01001774","parent":"E09000012","type":"LSOA","pop":2138,"r":1465,"ff":510,"ffd":23854.1,"ffs":0.3941,"g":167,"co":0,"mo":1,"sa":0,"ic":0},"geometry":{"type":"Polygon","coordinates":[[[-0.06803,51.53568],[-0.06813,51.535],[-0.0701,51.535],[-0.07002,51.5343],[-0.06875,51.53421],[-0.06764,51.53301],[-0.06564,51.53239],[-0.06629,51.53123],[-0.07181,51.53089],[-0.07395,51.53025],[-0.07425,51.53043],[-0.0742,51.53067],[-0.07471,51.53067],[-0.07473,51.53142],[-0.0744,51.53142],[-0.07381,51.53092],[-0.07225,51.53102],[-0.07231,51.5327],[-0.07284,51.53305],[-0.0723,51.53305],[-0.07244,51.53423],[-0.07172,51.53438],[-0.07152,51.53548],[-0.07191,51.53546],[-0.07193,51.53617],[-0.06803,51.53568]]]}},{"type":"Feature","properties":{"id":"E01001775","name":"E01001775","parent":"E09000012","type":"LSOA","pop":1718,"r":1443,"ff":504,"ffd":29336.4,"ffs":0.3984,"g":175,"co":0,"mo":0,"sa":0,"ic":0},"geometry":{"type":"Polygon","coordinates":[[[-0.06803,51.53568],[-0.06244,51.53552],[-0.06271,51.53419],[-0.06222,51.53327],[-0.06496,51.5329],[-0.06511,51.53322],[-0.06564,51.53239],[-0.06764,51.53301],[-0.06875,51.53421],[-0.07002,51.5343],[-0.0701,51.535],[-0.06813,51.535],[-0.06803,51.53568]]]}},{"type":"Feature","properties":{"id":"E01001776","name":"E01001776","parent":"E09000012","type":"LSOA","pop":1720,"r":1517,"ff":528,"ffd":30697.7,"ffs":0.394,"g":172,"co":0,"mo":1,"sa":0,"ic":0},"geometry":{"type":"Polygon","coordinates":[[[-0.07312,51.53487],[-0.07337,51.53443],[-0.07395,51.53455],[-0.07394,51.53413],[-0.07276,51.5336],[-0.07231,51.53382],[-0.0723,51.53305],[-0.07284,51.53305],[-0.07231,51.5327],[-0.07231,51.5319],[-0.07589,51.53176],[-0.07591,51.53271],[-0.07715,51.5328],[-0.07694,51.53509],[-0.07363,51.53534],[-0.07312,51.53487]]]}},{"type":"Feature","properties":{"id":"E01001777","name":"E01001777","parent":"E09000012","type":"LSOA","pop":2947,"r":1565,"ff":545,"ffd":18493.4,"ffs":0.3944,"g":178,"co":0,"mo":1,"sa":0,"ic":0},"geometry":{"type":"Polygon","coordinates":[[[-0.07591,51.53271],[-0.07589,51.53176],[-0.07231,51.5319],[-0.07225,51.53102],[-0.07381,51.53092],[-0.0744,51.53142],[-0.07473,51.53142],[-0.07471,51.53067],[-0.0742,51.53067],[-0.07425,51.53043],[-0.07395,51.53025],[-0.07485,51.52949],[-0.07569,51.52836],[-0.07639,51.52853],[-0.07606,51.52936],[-0.07661,51.52946],[-0.07733,51.52869],[-0.07788,51.52877],[-0.0771,51.53116],[-0.07854,51.53118],[-0.07879,51.52949],[-0.07827,51.52946],[-0.07834,51.52905],[-0.07884,51.52879],[-0.07931,51.5295],[-0.08003,51.52945],[-0.08023,51.53008],[-0.08008,51.53319],[-0.07712,51.53336],[-0.07715,51.5328],[-0.07591,51.53271]]]}},{"type":"Feature","properties":{"id":"E01001780","name":"E01001780","parent":"E09000012","type":"LSOA","pop":1937,"r":1638,"ff":548,"ffd":28291.2,"ffs":0.3782,"g":183,"co":0,"mo":2,"sa":0,"ic":0},"geometry":{"type":"Polygon","coordinates":[[[-0.08129,51.5296],[-0.08127,51.52901],[-0.08002,51.52902],[-0.08012,51.52816],[-0.0836,51.52807],[-0.08372,51.52655],[-0.08677,51.52579],[-0.08756,51.52602],[-0.08806,51.52674],[-0.08791,51.52699],[-0.08567,51.5273],[-0.08648,51.52829],[-0.0876,51.52829],[-0.08686,51.52866],[-0.08729,51.52905],[-0.08635,51.52916],[-0.08582,51.52889],[-0.08417,51.52892],[-0.0836,51.52865],[-0.08358,51.52921],[-0.08323,51.52973],[-0.08129,51.5296]]]}},{"type":"Feature","properties":{"id":"E01001781","name":"E01001781","parent":"E09000012","type":"LSOA","pop":1604,"r":1602,"ff":533,"ffd":33229.4,"ffs":0.3791,"g":188,"co":0,"mo":3,"sa":0,"ic":0},"geometry":{"type":"Polygon","coordinates":[[[-0.08656,51.53611],[-0.08641,51.53491],[-0.08289,51.5349],[-0.08299,51.53197],[-0.08345,51.53189],[-0.08385,51.53122],[-0.0843,51.53101],[-0.08541,51.53105],[-0.08558,51.53222],[-0.08624,51.53214],[-0.08597,51.53172],[-0.08655,51.53168],[-0.08681,51.53209],[-0.08797,51.53201],[-0.08786,51.53222],[-0.08704,51.53245],[-0.08722,51.53274],[-0.08907,51.53356],[-0.08936,51.53422],[-0.08852,51.53451],[-0.08913,51.53537],[-0.08656,51.53611]]]}},{"type":"Feature","properties":{"id":"E01001783","name":"E01001783","parent":"E09000012","type":"LSOA","pop":1615,"r":1505,"ff":494,"ffd":30588.2,"ffs":0.374,"g":179,"co":0,"mo":1,"sa":0,"ic":0},"geometry":{"type":"Polygon","coordinates":[[[-0.08722,51.53274],[-0.08704,51.53245],[-0.08786,51.53222],[-0.08819,51.5326],[-0.08859,51.5324],[-0.08846,51.53209],[-0.0889,51.5319],[-0.08852,51.53131],[-0.08804,51.53149],[-0.08782,51.53104],[-0.08656,51.53119],[-0.08675,51.53078],[-0.08819,51.53059],[-0.08775,51.52984],[-0.08882,51.52964],[-0.08932,51.53118],[-0.09023,51.53104],[-0.09076,51.53132],[-0.09055,51.53178],[-0.0913,51.53279],[-0.08907,51.53356],[-0.08722,51.53274]]]}},{"type":"Feature","properties":{"id":"E01001784","name":"E01001784","parent":"E09000012","type":"LSOA","pop":1858,"r":1563,"ff":521,"ffd":28040.9,"ffs":0.3792,"g":183,"co":0,"mo":3,"sa":0,"ic":0},"geometry":{"type":"Polygon","coordinates":[[[-0.08017,51.5321],[-0.08023,51.53008],[-0.08002,51.52902],[-0.08127,51.52901],[-0.08132,51.52972],[-0.08323,51.52973],[-0.08291,51.53086],[-0.08333,51.53072],[-0.08385,51.53122],[-0.08345,51.53189],[-0.08299,51.53197],[-0.08304,51.53258],[-0.08015,51.53273],[-0.08017,51.5321]]]}},{"type":"Feature","properties":{"id":"E01001785","name":"E01001785","parent":"E09000012","type":"LSOA","pop":1616,"r":1213,"ff":513,"ffd":31745.0,"ffs":0.4886,"g":158,"co":0,"mo":0,"sa":0,"ic":0},"geometry":{"type":"Polygon","coordinates":[[[-0.03909,51.55168],[-0.03828,51.55143],[-0.03647,51.55157],[-0.03655,51.55196],[-0.03548,51.55187],[-0.03544,51.55136],[-0.03592,51.55128],[-0.03561,51.55005],[-0.03519,51.55012],[-0.0351,51.54986],[-0.03975,51.54887],[-0.04059,51.55125],[-0.04018,51.55127],[-0.04012,51.55161],[-0.03961,51.55158],[-0.03993,51.55315],[-0.03942,51.55322],[-0.03909,51.55168]]]}},{"type":"Feature","properties":{"id":"E01001786","name":"E01001786","parent":"E09000012","type":"LSOA","pop":2185,"r":1392,"ff":586,"ffd":26819.2,"ffs":0.4827,"g":172,"co":2,"mo":0,"sa":0,"ic":0},"geometry":{"type":"Polygon","coordinates":[[[-0.0346,51.56103],[-0.03328,51.56062],[-0.03009,51.56136],[-0.02775,51.56077],[-0.02573,51.5598],[-0.02435,51.55869],[-0.02389,51.55733],[-0.02311,51.5573],[-0.01846,51.55511],[-0.01788,51.55413],[-0.01716,51.55171],[-0.01806,51.55167],[-0.01989,51.55232],[-0.02057,51.55182],[-0.02163,51.55211],[-0.02972,51.55165],[-0.03325,51.55027],[-0.0351,51.54986],[-0.03519,51.55012],[-0.03561,51.55005],[-0.03592,51.55128],[-0.03544,51.55136],[-0.03548,51.55187],[-0.03601,51.55195],[-0.03594,51.55229],[-0.03502,51.55236],[-0.03431,51.55158],[-0.03347,51.55187],[-0.03318,51.55271],[-0.03235,51.55177],[-0.03215,51.55191],[-0.03255,51.55265],[-0.03164,51.5529],[-0.03277,51.55428],[-0.03841,51.55735],[-0.03893,51.5581],[-0.04086,51.55784],[-0.04116,51.55852],[-0.03896,51.56122],[-0.03639,51.56151],[-0.0346,51.56103]]]}},{"type":"Feature","properties":{"id":"E01001787","name":"E01001787","parent":"E09000012","type":"LSOA","pop":1596,"r":782,"ff":331,"ffd":20739.3,"ffs":0.5,"g":117,"co":0,"mo":0,"sa":0,"ic":0},"geometry":{"type":"Polygon","coordinates":[[[-0.03997,51.56178],[-0.03896,51.56122],[-0.04116,51.55852],[-0.04086,51.55784],[-0.03893,51.5581],[-0.03841,51.55735],[-0.03964,51.55711],[-0.03941,51.55643],[-0.0399,51.55636],[-0.03985,51.55584],[-0.04032,51.55575],[-0.04066,51.5564],[-0.04151,51.5557],[-0.04164,51.55597],[-0.04214,51.55582],[-0.04241,51.55617],[-0.04291,51.55613],[-0.04343,51.5571],[-0.0458,51.5567],[-0.04642,51.557],[-0.0443,51.56104],[-0.04508,51.56176],[-0.04231,51.56139],[-0.03997,51.56178]]]}},{"type":"Feature","properties":{"id":"E01001788","name":"E01001788","parent":"E09000012","type":"LSOA","pop":1584,"r":766,"ff":321,"ffd":20265.2,"ffs":0.4931,"g":112,"co":0,"mo":0,"sa":0,"ic":0},"geometry":{"type":"Polygon","coordinates":[[[-0.03579,51.5558],[-0.03399,51.55483],[-0.03467,51.55461],[-0.03471,51.5543],[-0.03403,51.55374],[-0.03467,51.55353],[-0.03497,51.5539],[-0.03571,51.55364],[-0.03563,51.5532],[-0.03767,51.55428],[-0.03919,51.55397],[-0.03845,51.55445],[-0.03924,51.55495],[-0.04029,51.55476],[-0.04116,51.55497],[-0.04151,51.5557],[-0.04066,51.5564],[-0.04032,51.55575],[-0.03985,51.55584],[-0.0399,51.55636],[-0.03941,51.55643],[-0.03964,51.55711],[-0.03841,51.55735],[-0.03579,51.5558]]]}},{"type":"Feature","properties":{"id":"E01001789","name":"E01001789","parent":"E09000012","type":"LSOA","pop":1795,"r":832,"ff":350,"ffd":19498.6,"ffs":0.493,"g":119,"co":0,"mo":0,"sa":0,"ic":0},"geometry":{"type":"Polygon","coordinates":[[[-0.04303,51.55638],[-0.04291,51.55613],[-0.04241,51.55617],[-0.04214,51.55582],[-0.04164,51.55597],[-0.04052,51.5537],[-0.04404,51.55305],[-0.0458,51.5567],[-0.04343,51.5571],[-0.04303,51.55638]]]}},{"type":"Feature","properties":{"id":"E01001790","name":"E01001790","parent":"E09000012","type":"LSOA","pop":1482,"r":1184,"ff":502,"ffd":33873.1,"ffs":0.4907,"g":156,"co":2,"mo":0,"sa":0,"ic":0},"geometry":{"type":"Polygon","coordinates":[[[-0.03204,51.55349],[-0.03164,51.5529],[-0.03255,51.55265],[-0.03215,51.55191],[-0.03235,51.55177],[-0.03318,51.55271],[-0.03347,51.55187],[-0.03431,51.55158],[-0.03563,51.5532],[-0.03571,51.55364],[-0.03497,51.5539],[-0.03467,51.55353],[-0.03403,51.55374],[-0.03471,51.5543],[-0.03467,51.55461],[-0.03399,51.55483],[-0.03277,51.55428],[-0.03204,51.55349]]]}},{"type":"Feature","properties":{"id":"E01001791","name":"E01001791","parent":"E09000012","type":"LSOA","pop":1481,"r":1128,"ff":474,"ffd":32005.4,"ffs":0.4837,"g":143,"co":0,"mo":0,"sa":0,"ic":0},"geometry":{"type":"Polygon","coordinates":[[[-0.03924,51.55495],[-0.03845,51.55445],[-0.03919,51.55397],[-0.03767,51.55428],[-0.03563,51.5532],[-0.03502,51.55236],[-0.03594,51.55229],[-0.03601,51.55195],[-0.03655,51.55196],[-0.03647,51.55157],[-0.03828,51.55143],[-0.03909,51.55168],[-0.03942,51.55322],[-0.03993,51.55315],[-0.03961,51.55158],[-0.04012,51.55161],[-0.04018,51.55127],[-0.04059,51.55125],[-0.04153,51.55352],[-0.04052,51.5537],[-0.04116,51.55497],[-0.04029,51.55476],[-0.03924,51.55495]]]}},{"type":"Feature","properties":{"id":"E01001792","name":"E01001792","parent":"E09000012","type":"LSOA","pop":1992,"r":757,"ff":307,"ffd":15411.6,"ffs":0.473,"g":106,"co":0,"mo":0,"sa":0,"ic":0},"geometry":{"type":"Polygon","coordinates":[[[-0.05032,51.55846],[-0.05013,51.55824],[-0.05223,51.55771],[-0.05267,51.55829],[-0.05588,51.55742],[-0.05596,51.5588],[-0.05647,51.55973],[-0.05569,51.56008],[-0.05552,51.56048],[-0.05661,51.56122],[-0.05236,51.56199],[-0.05257,51.56226],[-0.05209,51.56237],[-0.05001,51.56158],[-0.05028,51.5606],[-0.04996,51.56031],[-0.05107,51.55984],[-0.04978,51.55871],[-0.05032,51.55846]]]}},{"type":"Feature","properties":{"id":"E01001793","name":"E01001793","parent":"E09000012","type":"LSOA","pop":1530,"r":777,"ff":324,"ffd":21176.5,"ffs":0.488,"g":111,"co":0,"mo":0,"sa":0,"ic":0},"geometry":{"type":"Polygon","coordinates":[[[-0.04552,51.55613],[-0.04545,51.55579],[-0.04588,51.55572],[-0.04668,51.55595],[-0.04697,51.55567],[-0.04751,51.55594],[-0.04871,51.55528],[-0.0491,51.55465],[-0.05033,51.55492],[-0.05132,51.55559],[-0.05194,51.5556],[-0.04952,51.55661],[-0.05032,51.55846],[-0.04978,51.55871],[-0.05107,51.55984],[-0.04897,51.56074],[-0.0474,51.55923],[-0.04526,51.55918],[-0.04642,51.557],[-0.0458,51.5567],[-0.04552,51.55613]]]}},{"type":"Feature","properties":{"id":"E01001794","name":"E01001794","parent":"E09000012","type":"LSOA","pop":1906,"r":739,"ff":302,"ffd":15844.7,"ffs":0.4748,"g":101,"co":0,"mo":0,"sa":0,"ic":0},"geometry":{"type":"Polygon","coordinates":[[[-0.05267,51.55829],[-0.05223,51.55771],[-0.05013,51.55824],[-0.04994,51.55731],[-0.04952,51.55661],[-0.05194,51.5556],[-0.05132,51.55559],[-0.05033,51.55492],[-0.05075,51.55464],[-0.05285,51.55421],[-0.05338,51.55435],[-0.05333,51.55476],[-0.05436,51.5547],[-0.05558,51.55646],[-0.05588,51.55742],[-0.05267,51.55829]]]}},{"type":"Feature","properties":{"id":"E01001795","name":"E01001795","parent":"E09000012","type":"LSOA","pop":1448,"r":799,"ff":333,"ffd":22997.2,"ffs":0.4854,"g":111,"co":0,"mo":0,"sa":0,"ic":0},"geometry":{"type":"Polygon","coordinates":[[[-0.04697,51.55567],[-0.0478,51.55461],[-0.0471,51.5542],[-0.04753,51.55382],[-0.04858,51.5538],[-0.04908,51.55335],[-0.04892,51.55307],[-0.04716,51.55322],[-0.04701,51.55295],[-0.04984,51.55262],[-0.05222,51.55197],[-0.05436,51.5547],[-0.05333,51.55476],[-0.05338,51.55435],[-0.05285,51.55421],[-0.05075,51.55464],[-0.05033,51.55492],[-0.0491,51.55465],[-0.04871,51.55528],[-0.04751,51.55594],[-0.04697,51.55567]]]}},{"type":"Feature","properties":{"id":"E01001796","name":"E01001796","parent":"E09000012","type":"LSOA","pop":1459,"r":876,"ff":368,"ffd":25222.8,"ffs":0.4907,"g":123,"co":0,"mo":0,"sa":0,"ic":0},"geometry":{"type":"Polygon","coordinates":[[[-0.04668,51.55595],[-0.04588,51.55572],[-0.04545,51.55579],[-0.0439,51.55276],[-0.04485,51.55259],[-0.04472,51.55227],[-0.04565,51.55216],[-0.04579,51.55246],[-0.04672,51.55236],[-0.04673,51.55206],[-0.04865,51.55187],[-0.04889,51.55277],[-0.04701,51.55295],[-0.04716,51.55322],[-0.04892,51.55307],[-0.04908,51.55335],[-0.04858,51.5538],[-0.04753,51.55382],[-0.0471,51.5542],[-0.0478,51.55461],[-0.04668,51.55595]]]}},{"type":"Feature","properties":{"id":"E01001798","name":"E01001798","parent":"E09000012","type":"LSOA","pop":2450,"r":713,"ff":297,"ffd":12122.4,"ffs":0.4845,"g":98,"co":0,"mo":0,"sa":0,"ic":0},"geometry":{"type":"Polygon","coordinates":[[[-0.05546,51.56419],[-0.05543,51.56392],[-0.05364,51.56393],[-0.0532,51.56332],[-0.05274,51.56319],[-0.05339,51.56312],[-0.05273,51.5626],[-0.05216,51.56271],[-0.05209,51.56237],[-0.05257,51.56226],[-0.05236,51.56199],[-0.05661,51.56122],[-0.05552,51.56048],[-0.05569,51.56008],[-0.05647,51.55973],[-0.05759,51.56242],[-0.05873,51.56359],[-0.05791,51.56405],[-0.05546,51.56419]]]}},{"type":"Feature","properties":{"id":"E01001799","name":"E01001799","parent":"E09000012","type":"LSOA","pop":1474,"r":917,"ff":371,"ffd":25169.6,"ffs":0.4673,"g":120,"co":0,"mo":0,"sa":0,"ic":0},"geometry":{"type":"Polygon","coordinates":[[[-0.07353,51.57042],[-0.07359,51.56995],[-0.07431,51.56998],[-0.07444,51.56965],[-0.07418,51.56855],[-0.07596,51.56854],[-0.0756,51.56898],[-0.07502,51.56893],[-0.07502,51.56929],[-0.07668,51.56927],[-0.0767,51.56801],[-0.07585,51.56716],[-0.07596,51.56693],[-0.07767,51.56765],[-0.07789,51.56834],[-0.07745,51.56849],[-0.07785,51.56903],[-0.07896,51.56967],[-0.07981,51.56949],[-0.07915,51.56851],[-0.07962,51.5684],[-0.08,51.56872],[-0.08069,51.56853],[-0.0807,51.56809],[-0.08116,51.56798],[-0.08219,51.56987],[-0.0799,51.57049],[-0.07758,51.5706],[-0.07353,51.57042]]]}},{"type":"Feature","properties":{"id":"E01001800","name":"E01001800","parent":"E09000012","type":"LSOA","pop":1786,"r":882,"ff":358,"ffd":20044.8,"ffs":0.4692,"g":116,"co":0,"mo":0,"sa":0,"ic":0},"geometry":{"type":"Polygon","coordinates":[[[-0.07285,51.57029],[-0.07293,51.56788],[-0.07308,51.56542],[-0.07585,51.56716],[-0.0767,51.56801],[-0.07668,51.56927],[-0.07502,51.56929],[-0.07502,51.56893],[-0.0756,51.56898],[-0.07596,51.56854],[-0.07418,51.56855],[-0.07444,51.56965],[-0.07431,51.56998],[-0.07359,51.56995],[-0.07353,51.57042],[-0.07285,51.57029]]]}},{"type":"Feature","properties":{"id":"E01001801","name":"E01001801","parent":"E09000012","type":"LSOA","pop":1785,"r":1044,"ff":416,"ffd":23305.3,"ffs":0.4638,"g":143,"co":0,"mo":0,"sa":0,"ic":0},"geometry":{"type":"Polygon","coordinates":[[[-0.08203,51.56776],[-0.08176,51.56728],[-0.08237,51.56711],[-0.08223,51.56678],[-0.08271,51.56715],[-0.08406,51.56685],[-0.08412,51.56652],[-0.08368,51.56612],[-0.08106,51.5668],[-0.07945,51.56617],[-0.07649,51.56601],[-0.07639,51.56498],[-0.07652,51.56429],[-0.07961,51.56459],[-0.08027,51.56432],[-0.081,51.56562],[-0.08158,51.56546],[-0.08149,51.565],[-0.08216,51.5649],[-0.08253,51.56522],[-0.08418,51.56479],[-0.08436,51.56516],[-0.08491,51.56498],[-0.08559,51.56518],[-0.08546,51.56567],[-0.08568,51.566],[-0.08721,51.56574],[-0.08714,51.56669],[-0.0867,51.56697],[-0.0855,51.56719],[-0.08479,51.56765],[-0.0839,51.5677],[-0.08369,51.56736],[-0.08203,51.56776]]]}},{"type":"Feature","properties":{"id":"E01001802","name":"E01001802","parent":"E09000012","type":"LSOA","pop":1360,"r":1025,"ff":411,"ffd":30220.6,"ffs":0.4649,"g":137,"co":0,"mo":0,"sa":0,"ic":0},"geometry":{"type":"Polygon","coordinates":[[[-0.07745,51.56849],[-0.07789,51.56834],[-0.07767,51.56765],[-0.07669,51.56728],[-0.0768,51.56695],[-0.07727,51.56705],[-0.07759,51.56618],[-0.07945,51.56617],[-0.08106,51.5668],[-0.08368,51.56612],[-0.08412,51.56652],[-0.08406,51.56685],[-0.08271,51.56715],[-0.08223,51.56678],[-0.08237,51.56711],[-0.08176,51.56728],[-0.08203,51.56776],[-0.08369,51.56736],[-0.0839,51.5677],[-0.08215,51.56825],[-0.08215,51.56882],[-0.08161,51.56896],[-0.08116,51.56798],[-0.0807,51.56809],[-0.08069,51.56853],[-0.08,51.56872],[-0.07962,51.5684],[-0.07915,51.56851],[-0.07981,51.56949],[-0.07896,51.56967],[-0.07785,51.56903],[-0.07745,51.56849]]]}},{"type":"Feature","properties":{"id":"E01001803","name":"E01001803","parent":"E09000012","type":"LSOA","pop":1800,"r":1045,"ff":404,"ffd":22444.4,"ffs":0.4499,"g":143,"co":0,"mo":0,"sa":0,"ic":0},"geometry":{"type":"Polygon","coordinates":[[[-0.08792,51.56536],[-0.08808,51.565],[-0.08546,51.56567],[-0.08559,51.56518],[-0.08491,51.56498],[-0.08436,51.56516],[-0.08384,51.5643],[-0.08426,51.56416],[-0.08409,51.56376],[-0.08466,51.56379],[-0.08488,51.56348],[-0.08393,51.56274],[-0.08441,51.56247],[-0.08608,51.56368],[-0.08827,51.56171],[-0.08938,51.56378],[-0.09198,51.56283],[-0.09243,51.56391],[-0.09177,51.56408],[-0.09194,51.56455],[-0.09183,51.56529],[-0.08921,51.56678],[-0.08856,51.56637],[-0.08883,51.56617],[-0.08802,51.56569],[-0.08841,51.56539],[-0.08792,51.56536]]]}},{"type":"Feature","properties":{"id":"E01001804","name":"E01001804","parent":"E09000012","type":"LSOA","pop":1682,"r":1023,"ff":406,"ffd":24137.9,"ffs":0.4614,"g":139,"co":0,"mo":0,"sa":0,"ic":0},"geometry":{"type":"Polygon","coordinates":[[[-0.08215,51.56882],[-0.08215,51.56825],[-0.0839,51.5677],[-0.08479,51.56765],[-0.0855,51.56719],[-0.0867,51.56697],[-0.08714,51.56669],[-0.08721,51.56574],[-0.08568,51.566],[-0.08546,51.56567],[-0.08808,51.565],[-0.08792,51.56536],[-0.08841,51.56539],[-0.08802,51.56569],[-0.08883,51.56617],[-0.08856,51.56637],[-0.08921,51.56678],[-0.08817,51.56761],[-0.08758,51.56933],[-0.08699,51.56874],[-0.08219,51.56987],[-0.08161,51.56896],[-0.08215,51.56882]]]}},{"type":"Feature","properties":{"id":"E01001805","name":"E01001805","parent":"E09000012","type":"LSOA","pop":1241,"r":977,"ff":389,"ffd":31345.7,"ffs":0.4614,"g":130,"co":0,"mo":0,"sa":0,"ic":0},"geometry":{"type":"Polygon","coordinates":[[[-0.07669,51.56728],[-0.07596,51.56693],[-0.07585,51.56716],[-0.07308,51.56542],[-0.07316,51.56343],[-0.07437,51.56362],[-0.07456,51.56271],[-0.07712,51.56273],[-0.07721,51.56222],[-0.07927,51.56214],[-0.08055,51.56405],[-0.07961,51.56459],[-0.07652,51.56429],[-0.07639,51.56498],[-0.07649,51.56601],[-0.07759,51.56618],[-0.07727,51.56705],[-0.0768,51.56695],[-0.07669,51.56728]]]}},{"type":"Feature","properties":{"id":"E01001806","name":"E01001806","parent":"E09000012","type":"LSOA","pop":1432,"r":1125,"ff":434,"ffd":30307.3,"ffs":0.4433,"g":142,"co":0,"mo":0,"sa":0,"ic":0},"geometry":{"type":"Polygon","coordinates":[[[-0.081,51.56562],[-0.08027,51.56432],[-0.08055,51.56405],[-0.07927,51.56214],[-0.08032,51.56212],[-0.08238,51.56133],[-0.08504,51.56089],[-0.08819,51.5588],[-0.09039,51.55767],[-0.09168,51.56022],[-0.09198,51.56283],[-0.08938,51.56378],[-0.08827,51.56171],[-0.08608,51.56368],[-0.08441,51.56247],[-0.08393,51.56274],[-0.08488,51.56348],[-0.08466,51.56379],[-0.08409,51.56376],[-0.08426,51.56416],[-0.08384,51.5643],[-0.08418,51.56479],[-0.08253,51.56522],[-0.08216,51.5649],[-0.08149,51.565],[-0.08158,51.56546],[-0.081,51.56562]]]}},{"type":"Feature","properties":{"id":"E01001807","name":"E01001807","parent":"E09000012","type":"LSOA","pop":1763,"r":930,"ff":373,"ffd":21157.1,"ffs":0.4616,"g":119,"co":0,"mo":0,"sa":0,"ic":0},"geometry":{"type":"Polygon","coordinates":[[[-0.07641,51.57427],[-0.07671,51.57384],[-0.07762,51.57388],[-0.07854,51.57238],[-0.07907,51.57244],[-0.07934,51.57164],[-0.07998,51.5717],[-0.07929,51.57321],[-0.08148,51.57328],[-0.08111,51.57283],[-0.08172,51.57265],[-0.0812,51.57201],[-0.08195,51.57188],[-0.08334,51.57368],[-0.08311,51.5729],[-0.08372,51.57266],[-0.08413,51.57417],[-0.08354,51.57424],[-0.08365,51.5747],[-0.08166,51.57483],[-0.08022,51.57528],[-0.08013,51.57557],[-0.07758,51.57519],[-0.07761,51.57461],[-0.07802,51.57455],[-0.07641,51.57427]]]}},{"type":"Feature","properties":{"id":"E01001808","name":"E01001808","parent":"E09000012","type":"LSOA","pop":1629,"r":1036,"ff":387,"ffd":23756.9,"ffs":0.4334,"g":139,"co":0,"mo":0,"sa":0,"ic":0},"geometry":{"type":"Polygon","coordinates":[[[-0.07385,51.57456],[-0.07253,51.57342],[-0.07233,51.57415],[-0.07101,51.57411],[-0.07192,51.5733],[-0.06939,51.57257],[-0.06924,51.57085],[-0.0697,51.57064],[-0.06967,51.57019],[-0.07586,51.57046],[-0.07577,51.57162],[-0.07359,51.57144],[-0.07363,51.57177],[-0.07267,51.57274],[-0.07463,51.57309],[-0.07447,51.57339],[-0.0752,51.5735],[-0.07503,51.57416],[-0.07385,51.57456]]]}},{"type":"Feature","properties":{"id":"E01001809","name":"E01001809","parent":"E09000012","type":"LSOA","pop":1867,"r":840,"ff":342,"ffd":18318.2,"ffs":0.4704,"g":110,"co":0,"mo":0,"sa":0,"ic":0},"geometry":{"type":"Polygon","coordinates":[[[-0.07342,51.57532],[-0.07385,51.57456],[-0.07503,51.57416],[-0.0752,51.5735],[-0.07447,51.57339],[-0.07463,51.57309],[-0.07267,51.57274],[-0.07363,51.57177],[-0.07359,51.57144],[-0.07577,51.57162],[-0.07586,51.57046],[-0.07758,51.5706],[-0.07743,51.57199],[-0.07796,51.57202],[-0.07641,51.57427],[-0.07802,51.57455],[-0.07761,51.57461],[-0.07758,51.57519],[-0.07625,51.57486],[-0.07567,51.57555],[-0.07538,51.57528],[-0.07515,51.57556],[-0.07337,51.57566],[-0.07342,51.57532]]]}},{"type":"Feature","properties":{"id":"E01001811","name":"E01001811","parent":"E09000012","type":"LSOA","pop":1874,"r":979,"ff":399,"ffd":21291.4,"ffs":0.4689,"g":125,"co":0,"mo":0,"sa":0,"ic":0},"geometry":{"type":"Polygon","coordinates":[[[-0.08389,51.57341],[-0.08376,51.57272],[-0.08459,51.57284],[-0.08589,51.57253],[-0.08596,51.57287],[-0.0875,51.57213],[-0.08798,51.57226],[-0.08837,51.57336],[-0.08661,51.57421],[-0.08724,51.57472],[-0.08541,51.5751],[-0.08013,51.57557],[-0.08022,51.57528],[-0.08166,51.57483],[-0.08365,51.5747],[-0.08354,51.57424],[-0.08413,51.57417],[-0.08389,51.57341]]]}},{"type":"Feature","properties":{"id":"E01001812","name":"E01001812","parent":"E09000012","type":"LSOA","pop":1776,"r":978,"ff":391,"ffd":22015.8,"ffs":0.4644,"g":132,"co":0,"mo":0,"sa":0,"ic":0},"geometry":{"type":"Polygon","coordinates":[[[-0.07741,51.57294],[-0.07796,51.57202],[-0.07743,51.57199],[-0.07758,51.5706],[-0.0799,51.57049],[-0.08699,51.56874],[-0.08911,51.5709],[-0.0881,51.57171],[-0.08855,51.57228],[-0.0875,51.57213],[-0.08596,51.57287],[-0.08589,51.57253],[-0.08459,51.57284],[-0.08372,51.57266],[-0.08311,51.5729],[-0.08334,51.57368],[-0.08195,51.57188],[-0.0812,51.57201],[-0.08172,51.57265],[-0.08111,51.57283],[-0.08148,51.57328],[-0.07929,51.57321],[-0.07998,51.5717],[-0.07934,51.57164],[-0.07907,51.57244],[-0.07854,51.57238],[-0.07762,51.57388],[-0.07671,51.57384],[-0.07741,51.57294]]]}},{"type":"Feature","properties":{"id":"E01001813","name":"E01001813","parent":"E09000012","type":"LSOA","pop":1914,"r":984,"ff":388,"ffd":20271.7,"ffs":0.4586,"g":134,"co":0,"mo":0,"sa":0,"ic":0},"geometry":{"type":"Polygon","coordinates":[[[-0.09401,51.57387],[-0.09325,51.57311],[-0.09153,51.5733],[-0.09071,51.57249],[-0.09609,51.5707],[-0.09782,51.57361],[-0.09643,51.5738],[-0.09491,51.5736],[-0.09401,51.57387]]]}},{"type":"Feature","properties":{"id":"E01001814","name":"E01001814","parent":"E09000012","type":"LSOA","pop":1727,"r":742,"ff":302,"ffd":17487.0,"ffs":0.4697,"g":97,"co":0,"mo":0,"sa":0,"ic":0},"geometry":{"type":"Polygon","coordinates":[[[-0.06673,51.57635],[-0.06659,51.57577],[-0.0659,51.57588],[-0.06576,51.57556],[-0.06881,51.57508],[-0.06872,51.57427],[-0.0683,51.57325],[-0.06875,51.57316],[-0.06891,51.57254],[-0.06996,51.57266],[-0.07192,51.5733],[-0.07101,51.57411],[-0.07233,51.57415],[-0.07253,51.57342],[-0.07385,51.57456],[-0.07337,51.57566],[-0.06673,51.57635]]]}},{"type":"Feature","properties":{"id":"E01001815","name":"E01001815","parent":"E09000012","type":"LSOA","pop":1853,"r":1465,"ff":508,"ffd":27415.0,"ffs":0.3981,"g":185,"co":2,"mo":0,"sa":0,"ic":0},"geometry":{"type":"Polygon","coordinates":[[[-0.06154,51.54104],[-0.06094,51.53888],[-0.06203,51.53861],[-0.06207,51.53835],[-0.06337,51.5376],[-0.06551,51.53734],[-0.06588,51.53764],[-0.06509,51.53779],[-0.06515,51.53808],[-0.06609,51.53835],[-0.06576,51.53885],[-0.06956,51.5387],[-0.06953,51.53905],[-0.06746,51.53912],[-0.06749,51.53945],[-0.06678,51.53983],[-0.06439,51.53992],[-0.06407,51.5407],[-0.06372,51.54032],[-0.06316,51.54032],[-0.06306,51.54017],[-0.06301,51.54077],[-0.06154,51.54104]]]}},{"type":"Feature","properties":{"id":"E01001816","name":"E01001816","parent":"E09000012","type":"LSOA","pop":1555,"r":1426,"ff":497,"ffd":31961.4,"ffs":0.4005,"g":182,"co":2,"mo":0,"sa":0,"ic":0},"geometry":{"type":"Polygon","coordinates":[[[-0.06301,51.54077],[-0.06306,51.54017],[-0.06316,51.54032],[-0.06372,51.54032],[-0.06407,51.5407],[-0.06439,51.53992],[-0.06678,51.53983],[-0.067,51.54037],[-0.06671,51.54277],[-0.06731,51.54282],[-0.06729,51.54317],[-0.06258,51.54335],[-0.06018,51.54364],[-0.06031,51.54227],[-0.06193,51.54212],[-0.06154,51.54104],[-0.06301,51.54077]]]}},{"type":"Feature","properties":{"id":"E01001819","name":"E01001819","parent":"E09000012","type":"LSOA","pop":1633,"r":1476,"ff":515,"ffd":31537.0,"ffs":0.3998,"g":184,"co":2,"mo":0,"sa":0,"ic":0},"geometry":{"type":"Polygon","coordinates":[[[-0.0669,51.54172],[-0.0668,51.54138],[-0.067,51.54037],[-0.06678,51.53983],[-0.06749,51.53945],[-0.06746,51.53912],[-0.06953,51.53905],[-0.06956,51.5387],[-0.07024,51.53871],[-0.07023,51.53905],[-0.07409,51.53922],[-0.07437,51.53953],[-0.07324,51.53957],[-0.07303,51.5402],[-0.07181,51.54013],[-0.07168,51.5405],[-0.07099,51.54046],[-0.07105,51.54096],[-0.07003,51.54109],[-0.07001,51.54167],[-0.07038,51.54168],[-0.0709,51.54212],[-0.06995,51.54233],[-0.06992,51.54306],[-0.06729,51.54317],[-0.06731,51.54282],[-0.06671,51.54277],[-0.0669,51.54172]]]}},{"type":"Feature","properties":{"id":"E01001820","name":"E01001820","parent":"E09000012","type":"LSOA","pop":1480,"r":1510,"ff":521,"ffd":35202.7,"ffs":0.3947,"g":186,"co":2,"mo":0,"sa":0,"ic":0},"geometry":{"type":"Polygon","coordinates":[[[-0.06628,51.53754],[-0.06611,51.5372],[-0.06701,51.53722],[-0.06663,51.53688],[-0.06711,51.53678],[-0.06698,51.53651],[-0.068,51.53642],[-0.06835,51.5357],[-0.0702,51.53603],[-0.07024,51.53871],[-0.06576,51.53885],[-0.06609,51.53835],[-0.06515,51.53808],[-0.06509,51.53779],[-0.06628,51.53754]]]}},{"type":"Feature","properties":{"id":"E01001821","name":"E01001821","parent":"E09000012","type":"LSOA","pop":1377,"r":1486,"ff":513,"ffd":37254.9,"ffs":0.3949,"g":184,"co":2,"mo":0,"sa":0,"ic":0},"geometry":{"type":"Polygon","coordinates":[[[-0.06247,51.53769],[-0.0622,51.53674],[-0.06306,51.5366],[-0.06337,51.53579],[-0.06458,51.53562],[-0.06835,51.5357],[-0.068,51.53642],[-0.06698,51.53651],[-0.06711,51.53678],[-0.06663,51.53688],[-0.06701,51.53722],[-0.06611,51.5372],[-0.06628,51.53754],[-0.06588,51.53764],[-0.06551,51.53734],[-0.06337,51.5376],[-0.06207,51.53835],[-0.06178,51.53808],[-0.06247,51.53769]]]}},{"type":"Feature","properties":{"id":"E01001822","name":"E01001822","parent":"E09000012","type":"LSOA","pop":2055,"r":718,"ff":298,"ffd":14501.2,"ffs":0.4846,"g":101,"co":0,"mo":0,"sa":0,"ic":0},"geometry":{"type":"Polygon","coordinates":[[[-0.05788,51.56604],[-0.0549,51.56615],[-0.05491,51.56537],[-0.0543,51.56537],[-0.05523,51.56469],[-0.05546,51.56419],[-0.05791,51.56405],[-0.05873,51.56359],[-0.05998,51.56477],[-0.06022,51.56617],[-0.05773,51.5665],[-0.05788,51.56604]]]}},{"type":"Feature","properties":{"id":"E01001823","name":"E01001823","parent":"E09000012","type":"LSOA","pop":1684,"r":639,"ff":261,"ffd":15498.8,"ffs":0.4745,"g":87,"co":0,"mo":0,"sa":0,"ic":0},"geometry":{"type":"Polygon","coordinates":[[[-0.06044,51.57641],[-0.05856,51.57318],[-0.06162,51.57177],[-0.06396,51.57341],[-0.06322,51.57405],[-0.06241,51.57405],[-0.0633,51.57575],[-0.06383,51.57565],[-0.0645,51.57705],[-0.06116,51.57779],[-0.06044,51.57641]]]}},{"type":"Feature","properties":{"id":"E01001824","name":"E01001824","parent":"E09000012","type":"LSOA","pop":1743,"r":761,"ff":323,"ffd":18531.3,"ffs":0.4924,"g":103,"co":0,"mo":0,"sa":0,"ic":0},"geometry":{"type":"Polygon","coordinates":[[[-0.06396,51.57341],[-0.06162,51.57177],[-0.05856,51.57318],[-0.05841,51.57253],[-0.05687,51.57145],[-0.05818,51.57102],[-0.05862,51.56966],[-0.06076,51.56851],[-0.06046,51.56818],[-0.06193,51.56786],[-0.06138,51.56814],[-0.06183,51.56872],[-0.06235,51.56853],[-0.06293,51.56896],[-0.0634,51.56879],[-0.06387,51.56916],[-0.06427,51.56893],[-0.06443,51.5695],[-0.06424,51.56968],[-0.0659,51.57042],[-0.06611,51.57081],[-0.06557,51.57125],[-0.0671,51.57203],[-0.0662,51.57252],[-0.06559,51.57218],[-0.06396,51.57341]]]}},{"type":"Feature","properties":{"id":"E01001825","name":"E01001825","parent":"E09000012","type":"LSOA","pop":1344,"r":705,"ff":288,"ffd":21428.6,"ffs":0.4721,"g":93,"co":0,"mo":0,"sa":0,"ic":0},"geometry":{"type":"Polygon","coordinates":[[[-0.0645,51.57705],[-0.06383,51.57565],[-0.0633,51.57575],[-0.06241,51.57405],[-0.06322,51.57405],[-0.06559,51.57218],[-0.0662,51.57252],[-0.06551,51.57284],[-0.06579,51.57305],[-0.06403,51.57431],[-0.06433,51.57455],[-0.06483,51.57456],[-0.0654,51.57373],[-0.06664,51.57396],[-0.06731,51.57366],[-0.06747,51.57399],[-0.06859,51.57385],[-0.06881,51.57508],[-0.06576,51.57556],[-0.0659,51.57588],[-0.06659,51.57577],[-0.06673,51.57635],[-0.06661,51.57663],[-0.0645,51.57705]]]}},{"type":"Feature","properties":{"id":"E01001826","name":"E01001826","parent":"E09000012","type":"LSOA","pop":1750,"r":780,"ff":317,"ffd":18114.3,"ffs":0.4682,"g":101,"co":0,"mo":0,"sa":0,"ic":0},"geometry":{"type":"Polygon","coordinates":[[[-0.06403,51.57431],[-0.06579,51.57305],[-0.06551,51.57284],[-0.0671,51.57203],[-0.06557,51.57125],[-0.06611,51.57081],[-0.0659,51.57042],[-0.06424,51.56968],[-0.06443,51.5695],[-0.0654,51.56895],[-0.067,51.56992],[-0.06668,51.57008],[-0.06967,51.57019],[-0.0697,51.57064],[-0.06924,51.57085],[-0.06939,51.57257],[-0.06891,51.57254],[-0.06875,51.57316],[-0.0683,51.57325],[-0.06859,51.57385],[-0.06747,51.57399],[-0.06731,51.57366],[-0.06664,51.57396],[-0.0654,51.57373],[-0.06483,51.57456],[-0.06433,51.57455],[-0.06403,51.57431]]]}},{"type":"Feature","properties":{"id":"E01001827","name":"E01001827","parent":"E09000012","type":"LSOA","pop":1647,"r":723,"ff":299,"ffd":18154.2,"ffs":0.4799,"g":98,"co":0,"mo":0,"sa":0,"ic":0},"geometry":{"type":"Polygon","coordinates":[[[-0.05475,51.56746],[-0.05565,51.56705],[-0.05668,51.56705],[-0.05668,51.56667],[-0.06022,51.56617],[-0.06052,51.56703],[-0.0609,51.56751],[-0.06162,51.5675],[-0.06193,51.56786],[-0.06046,51.56818],[-0.06076,51.56851],[-0.05862,51.56966],[-0.05818,51.57102],[-0.05687,51.57145],[-0.05615,51.57067],[-0.05427,51.5702],[-0.05362,51.56919],[-0.05515,51.56801],[-0.05475,51.56746]]]}},{"type":"Feature","properties":{"id":"E01001828","name":"E01001828","parent":"E09000012","type":"LSOA","pop":2064,"r":682,"ff":284,"ffd":13759.7,"ffs":0.4846,"g":94,"co":0,"mo":0,"sa":0,"ic":0},"geometry":{"type":"Polygon","coordinates":[[[-0.05163,51.567],[-0.05427,51.56393],[-0.05543,51.56392],[-0.05523,51.56469],[-0.0543,51.56537],[-0.05491,51.56537],[-0.0549,51.56615],[-0.05788,51.56604],[-0.05773,51.5665],[-0.05668,51.56667],[-0.05668,51.56705],[-0.05565,51.56705],[-0.05475,51.56746],[-0.05515,51.56801],[-0.05362,51.56919],[-0.05313,51.56858],[-0.05115,51.56772],[-0.05163,51.567]]]}},{"type":"Feature","properties":{"id":"E01001829","name":"E01001829","parent":"E09000012","type":"LSOA","pop":1720,"r":964,"ff":359,"ffd":20872.1,"ffs":0.4299,"g":125,"co":0,"mo":0,"sa":0,"ic":0},"geometry":{"type":"Polygon","coordinates":[[[-0.07367,51.56179],[-0.0739,51.56072],[-0.07452,51.56074],[-0.07423,51.56026],[-0.07465,51.55981],[-0.0751,51.5598],[-0.07508,51.56017],[-0.07543,51.56008],[-0.07538,51.55975],[-0.07632,51.55951],[-0.07573,51.55901],[-0.07849,51.55807],[-0.07889,51.56032],[-0.07846,51.56044],[-0.07896,51.56167],[-0.0785,51.56168],[-0.07857,51.5622],[-0.07721,51.56222],[-0.07712,51.56273],[-0.07604,51.56283],[-0.07655,51.56219],[-0.07361,51.5621],[-0.07367,51.56179]]]}},{"type":"Feature","properties":{"id":"E01001830","name":"E01001830","parent":"E09000012","type":"LSOA","pop":1898,"r":1036,"ff":387,"ffd":20389.9,"ffs":0.4334,"g":139,"co":0,"mo":0,"sa":0,"ic":0},"geometry":{"type":"Polygon","coordinates":[[[-0.0739,51.56071],[-0.07416,51.55933],[-0.07337,51.55907],[-0.07379,51.55821],[-0.07438,51.55825],[-0.07461,51.55543],[-0.07512,51.55554],[-0.07502,51.55644],[-0.07779,51.5565],[-0.07813,51.55601],[-0.07909,51.5561],[-0.07879,51.5579],[-0.07573,51.55901],[-0.07632,51.55951],[-0.07538,51.55975],[-0.07543,51.56008],[-0.07508,51.56017],[-0.0751,51.5598],[-0.07465,51.55981],[-0.07423,51.56026],[-0.07452,51.56074],[-0.0739,51.56071]]]}},{"type":"Feature","properties":{"id":"E01001831","name":"E01001831","parent":"E09000012","type":"LSOA","pop":1774,"r":1023,"ff":389,"ffd":21927.8,"ffs":0.4395,"g":134,"co":0,"mo":0,"sa":0,"ic":0},"geometry":{"type":"Polygon","coordinates":[[[-0.0716,51.56285],[-0.0708,51.56181],[-0.07031,51.56021],[-0.0707,51.5599],[-0.07196,51.56012],[-0.07197,51.55927],[-0.07298,51.55906],[-0.07299,51.55816],[-0.07337,51.55793],[-0.07379,51.55821],[-0.07337,51.55907],[-0.07416,51.55933],[-0.07361,51.5621],[-0.07655,51.56219],[-0.07604,51.56283],[-0.07456,51.56271],[-0.07437,51.56362],[-0.07316,51.56343],[-0.0716,51.56285]]]}},{"type":"Feature","properties":{"id":"E01001832","name":"E01001832","parent":"E09000012","type":"LSOA","pop":1653,"r":962,"ff":364,"ffd":22020.6,"ffs":0.437,"g":125,"co":0,"mo":0,"sa":0,"ic":0},"geometry":{"type":"Polygon","coordinates":[[[-0.0703,51.56019],[-0.06944,51.55834],[-0.06878,51.55747],[-0.06902,51.55698],[-0.07118,51.55686],[-0.07155,51.55718],[-0.07179,51.55655],[-0.07145,51.55642],[-0.0717,51.55615],[-0.07392,51.55669],[-0.07404,51.5559],[-0.07454,51.55592],[-0.07438,51.55825],[-0.07379,51.55821],[-0.07337,51.55793],[-0.07299,51.55816],[-0.07298,51.55906],[-0.07197,51.55927],[-0.07196,51.56012],[-0.0707,51.5599],[-0.0703,51.56019]]]}},{"type":"Feature","properties":{"id":"E01001833","name":"E01001833","parent":"E09000012","type":"LSOA","pop":2090,"r":1047,"ff":396,"ffd":18947.4,"ffs":0.4352,"g":133,"co":0,"mo":0,"sa":0,"ic":0},"geometry":{"type":"Polygon","coordinates":[[[-0.06878,51.55747],[-0.06812,51.55558],[-0.06857,51.55422],[-0.06936,51.55414],[-0.06996,51.5537],[-0.07111,51.55394],[-0.07129,51.55345],[-0.07314,51.55339],[-0.07268,51.55368],[-0.07175,51.5537],[-0.07169,51.55454],[-0.07187,51.55494],[-0.07448,51.55496],[-0.07454,51.55592],[-0.07404,51.5559],[-0.07392,51.55669],[-0.0717,51.55615],[-0.07145,51.55642],[-0.07179,51.55655],[-0.07155,51.55718],[-0.07118,51.55686],[-0.06902,51.55698],[-0.06878,51.55747]]]}},{"type":"Feature","properties":{"id":"E01001834","name":"E01001834","parent":"E09000012","type":"LSOA","pop":2006,"r":1036,"ff":387,"ffd":19292.1,"ffs":0.4334,"g":139,"co":0,"mo":0,"sa":0,"ic":0},"geometry":{"type":"Polygon","coordinates":[[[-0.07502,51.55644],[-0.07512,51.55554],[-0.07461,51.55543],[-0.07448,51.55496],[-0.07187,51.55494],[-0.07169,51.55454],[-0.07175,51.5537],[-0.07268,51.55368],[-0.07314,51.55339],[-0.07505,51.55298],[-0.07527,51.55343],[-0.0751,51.55436],[-0.07684,51.55445],[-0.0775,51.55496],[-0.07921,51.5551],[-0.07909,51.5561],[-0.07813,51.55601],[-0.07779,51.5565],[-0.07502,51.55644]]]}},{"type":"Feature","properties":{"id":"E01001835","name":"E01001835","parent":"E09000012","type":"LSOA","pop":1201,"r":1027,"ff":375,"ffd":31224.0,"ffs":0.419,"g":128,"co":0,"mo":0,"sa":0,"ic":0},"geometry":{"type":"Polygon","coordinates":[[[-0.07527,51.55343],[-0.07505,51.55298],[-0.07487,51.55298],[-0.07502,51.55226],[-0.0757,51.55228],[-0.07629,51.55273],[-0.07705,51.55269],[-0.07693,51.55222],[-0.07903,51.55221],[-0.07912,51.55331],[-0.07941,51.55371],[-0.07921,51.5551],[-0.0775,51.55496],[-0.07684,51.55445],[-0.0751,51.55436],[-0.07527,51.55343]]]}},{"type":"Feature","properties":{"id":"E01001836","name":"E01001836","parent":"E09000012","type":"LSOA","pop":1886,"r":1456,"ff":580,"ffd":30752.9,"ffs":0.4507,"g":167,"co":2,"mo":0,"sa":0,"ic":0},"geometry":{"type":"Polygon","coordinates":[[[-0.04483,51.53581],[-0.0469,51.53549],[-0.04887,51.53599],[-0.0486,51.53609],[-0.04922,51.53734],[-0.04837,51.5376],[-0.04833,51.53784],[-0.04254,51.53883],[-0.04296,51.53932],[-0.04155,51.53939],[-0.04127,51.53912],[-0.04174,51.53883],[-0.04126,51.53862],[-0.04129,51.53799],[-0.04225,51.53751],[-0.04209,51.53712],[-0.04483,51.53581]]]}},{"type":"Feature","properties":{"id":"E01001837","name":"E01001837","parent":"E09000012","type":"LSOA","pop":1536,"r":1488,"ff":572,"ffd":37239.6,"ffs":0.4383,"g":180,"co":2,"mo":0,"sa":0,"ic":0},"geometry":{"type":"Polygon","coordinates":[[[-0.05627,51.5379],[-0.05638,51.53741],[-0.05505,51.53764],[-0.05501,51.53702],[-0.05435,51.53662],[-0.049,51.53778],[-0.04837,51.5376],[-0.04922,51.53734],[-0.0486,51.53609],[-0.04887,51.53599],[-0.05022,51.53645],[-0.0516,51.53632],[-0.05256,51.53572],[-0.05281,51.53489],[-0.05414,51.53512],[-0.05625,51.5348],[-0.05727,51.53443],[-0.05698,51.53797],[-0.05627,51.5379]]]}},{"type":"Feature","properties":{"id":"E01001838","name":"E01001838","parent":"E09000012","type":"LSOA","pop":1899,"r":1344,"ff":540,"ffd":28436.0,"ffs":0.4553,"g":156,"co":2,"mo":0,"sa":0,"ic":0},"geometry":{"type":"Polygon","coordinates":[[[-0.04837,51.54286],[-0.04889,51.54159],[-0.0493,51.54118],[-0.05088,51.54214],[-0.05182,51.54202],[-0.05164,51.54147],[-0.05191,51.54136],[-0.05222,51.54163],[-0.05296,51.5416],[-0.05385,51.54238],[-0.05376,51.54273],[-0.05467,51.54275],[-0.05488,51.54319],[-0.05019,51.54364],[-0.04837,51.54286]]]}},{"type":"Feature","properties":{"id":"E01001839","name":"E01001839","parent":"E09000012","type":"LSOA","pop":2644,"r":1357,"ff":533,"ffd":20158.9,"ffs":0.4468,"g":162,"co":2,"mo":0,"sa":0,"ic":0},"geometry":{"type":"Polygon","coordinates":[[[-0.05488,51.54319],[-0.05467,51.54275],[-0.05376,51.54273],[-0.05385,51.54238],[-0.05296,51.5416],[-0.05222,51.54163],[-0.05191,51.54136],[-0.05217,51.54101],[-0.05271,51.54102],[-0.05283,51.54128],[-0.05306,51.54112],[-0.05269,51.54024],[-0.05131,51.54051],[-0.05112,51.54023],[-0.05199,51.53964],[-0.05273,51.53961],[-0.05205,51.53925],[-0.05235,51.53888],[-0.05354,51.5388],[-0.05431,51.53848],[-0.05703,51.53824],[-0.05525,51.54085],[-0.05529,51.54315],[-0.05488,51.54319]]]}},{"type":"Feature","properties":{"id":"E01001840","name":"E01001840","parent":"E09000012","type":"LSOA","pop":1627,"r":1360,"ff":543,"ffd":33374.3,"ffs":0.4533,"g":160,"co":2,"mo":0,"sa":0,"ic":0},"geometry":{"type":"Polygon","coordinates":[[[-0.05088,51.54214],[-0.0493,51.54118],[-0.04889,51.54159],[-0.04757,51.54121],[-0.04754,51.5415],[-0.04623,51.54143],[-0.04628,51.54113],[-0.0451,51.5412],[-0.04585,51.54082],[-0.04493,51.54061],[-0.04466,51.54008],[-0.0441,51.53994],[-0.04399,51.53971],[-0.04569,51.5397],[-0.04621,51.5394],[-0.04665,51.54005],[-0.04708,51.53979],[-0.04747,51.54003],[-0.04852,51.53974],[-0.04876,51.53899],[-0.05009,51.5387],[-0.05131,51.54051],[-0.05269,51.54024],[-0.05306,51.54112],[-0.05283,51.54128],[-0.05271,51.54102],[-0.05217,51.54101],[-0.05164,51.54147],[-0.05182,51.54202],[-0.05088,51.54214]]]}},{"type":"Feature","properties":{"id":"E01001841","name":"E01001841","parent":"E09000012","type":"LSOA","pop":1367,"r":1464,"ff":595,"ffd":43526.0,"ffs":0.4584,"g":163,"co":2,"mo":0,"sa":0,"ic":0},"geometry":{"type":"Polygon","coordinates":[[[-0.03734,51.54123],[-0.04071,51.5381],[-0.04209,51.53712],[-0.04225,51.53751],[-0.04129,51.53799],[-0.04126,51.53862],[-0.04174,51.53883],[-0.04127,51.53912],[-0.04155,51.53939],[-0.04296,51.53932],[-0.04254,51.53883],[-0.04564,51.53825],[-0.0461,51.53875],[-0.04577,51.5389],[-0.04621,51.5394],[-0.04569,51.5397],[-0.04399,51.53971],[-0.0441,51.53994],[-0.04466,51.54008],[-0.04493,51.54061],[-0.04585,51.54082],[-0.0451,51.5412],[-0.03818,51.54138],[-0.03734,51.54123]]]}},{"type":"Feature","properties":{"id":"E01001842","name":"E01001842","parent":"E09000012","type":"LSOA","pop":1478,"r":1477,"ff":569,"ffd":38498.0,"ffs":0.4387,"g":177,"co":2,"mo":0,"sa":0,"ic":0},"geometry":{"type":"Polygon","coordinates":[[[-0.052,51.53841],[-0.05216,51.53818],[-0.05232,51.53836],[-0.05256,51.53812],[-0.05253,51.53705],[-0.05435,51.53662],[-0.05501,51.53702],[-0.05505,51.53764],[-0.05638,51.53741],[-0.05627,51.5379],[-0.05698,51.53797],[-0.05703,51.53824],[-0.05431,51.53848],[-0.05354,51.5388],[-0.05235,51.53888],[-0.05205,51.53925],[-0.05273,51.53961],[-0.05199,51.53964],[-0.05112,51.54023],[-0.05009,51.5387],[-0.052,51.53841]]]}},{"type":"Feature","properties":{"id":"E01001843","name":"E01001843","parent":"E09000012","type":"LSOA","pop":1208,"r":1393,"ff":588,"ffd":48675.5,"ffs":0.4777,"g":159,"co":2,"mo":0,"sa":0,"ic":0},"geometry":{"type":"Polygon","coordinates":[[[-0.04665,51.54005],[-0.04577,51.5389],[-0.0461,51.53875],[-0.04564,51.53825],[-0.04833,51.53784],[-0.04837,51.5376],[-0.049,51.53778],[-0.05253,51.53705],[-0.05256,51.53812],[-0.05232,51.53836],[-0.05216,51.53818],[-0.052,51.53841],[-0.04876,51.53899],[-0.04852,51.53974],[-0.04747,51.54003],[-0.04708,51.53979],[-0.04665,51.54005]]]}},{"type":"Feature","properties":{"id":"E01001844","name":"E01001844","parent":"E09000012","type":"LSOA","pop":1910,"r":1376,"ff":557,"ffd":29162.3,"ffs":0.4566,"g":153,"co":2,"mo":0,"sa":0,"ic":0},"geometry":{"type":"Polygon","coordinates":[[[-0.04579,51.54493],[-0.0449,51.54421],[-0.0426,51.54446],[-0.04146,51.54419],[-0.04119,51.54354],[-0.04165,51.54344],[-0.04149,51.54267],[-0.0424,51.54118],[-0.04628,51.54113],[-0.04623,51.54143],[-0.04754,51.5415],[-0.04757,51.54121],[-0.04889,51.54159],[-0.04837,51.54286],[-0.04579,51.54493]]]}},{"type":"Feature","properties":{"id":"E01001845","name":"E01001845","parent":"E09000012","type":"LSOA","pop":1634,"r":1427,"ff":584,"ffd":35740.5,"ffs":0.462,"g":160,"co":2,"mo":0,"sa":0,"ic":0},"geometry":{"type":"Polygon","coordinates":[[[-0.03919,51.54455],[-0.03907,51.54396],[-0.03741,51.54429],[-0.03655,51.54325],[-0.03572,51.54301],[-0.03774,51.5418],[-0.03714,51.54142],[-0.03734,51.54123],[-0.03818,51.54138],[-0.0424,51.54118],[-0.04149,51.54267],[-0.04165,51.54344],[-0.04119,51.54354],[-0.04146,51.54419],[-0.03919,51.54455]]]}},{"type":"Feature","properties":{"id":"E01001846","name":"E01001846","parent":"E09000012","type":"LSOA","pop":1235,"r":1712,"ff":729,"ffd":59028.3,"ffs":0.4809,"g":190,"co":2,"mo":0,"sa":0,"ic":0},"geometry":{"type":"Polygon","coordinates":[[[-0.01989,51.55232],[-0.01806,51.55167],[-0.0191,51.55162],[-0.01898,51.55059],[-0.01734,51.54724],[-0.02002,51.547],[-0.02236,51.548],[-0.02511,51.54693],[-0.02457,51.5465],[-0.02629,51.54595],[-0.02533,51.5446],[-0.02696,51.54435],[-0.02643,51.54521],[-0.02848,51.5451],[-0.02927,51.54566],[-0.03016,51.54555],[-0.03015,51.54623],[-0.02946,51.54688],[-0.0323,51.54916],[-0.03313,51.55031],[-0.02972,51.55165],[-0.02163,51.55211],[-0.02057,51.55182],[-0.01989,51.55232]]]}},{"type":"Feature","properties":{"id":"E01001847","name":"E01001847","parent":"E09000012","type":"LSOA","pop":1426,"r":1442,"ff":599,"ffd":42005.6,"ffs":0.4702,"g":163,"co":2,"mo":0,"sa":0,"ic":0},"geometry":{"type":"Polygon","coordinates":[[[-0.03477,51.54822],[-0.03364,51.54729],[-0.03617,51.54676],[-0.03571,51.54587],[-0.03391,51.54542],[-0.03581,51.54546],[-0.03731,51.54593],[-0.03717,51.54643],[-0.03781,51.54654],[-0.0378,51.54691],[-0.03719,51.54733],[-0.03736,51.54772],[-0.03891,51.54783],[-0.03795,51.54819],[-0.03818,51.54884],[-0.03732,51.54862],[-0.03713,51.54812],[-0.03641,51.54823],[-0.03774,51.54925],[-0.03313,51.55031],[-0.0323,51.54916],[-0.03477,51.54822]]]}},{"type":"Feature","properties":{"id":"E01001848","name":"E01001848","parent":"E09000012","type":"LSOA","pop":2005,"r":1393,"ff":588,"ffd":29326.7,"ffs":0.4777,"g":159,"co":2,"mo":0,"sa":0,"ic":0},"geometry":{"type":"Polygon","coordinates":[[[-0.03774,51.54925],[-0.03641,51.54823],[-0.03713,51.54812],[-0.03732,51.54862],[-0.03818,51.54884],[-0.03795,51.54819],[-0.03891,51.54783],[-0.03736,51.54772],[-0.03719,51.54733],[-0.0378,51.54691],[-0.03781,51.54654],[-0.03717,51.54643],[-0.03731,51.54593],[-0.03581,51.54546],[-0.03391,51.54542],[-0.03343,51.54609],[-0.03288,51.54526],[-0.03338,51.54485],[-0.03304,51.54464],[-0.03572,51.54301],[-0.03655,51.54325],[-0.03755,51.54426],[-0.03803,51.5452],[-0.03916,51.54521],[-0.03918,51.54548],[-0.0382,51.54557],[-0.0386,51.54574],[-0.04093,51.54582],[-0.04094,51.54628],[-0.0404,51.54631],[-0.04028,51.54659],[-0.04159,51.54664],[-0.04154,51.54702],[-0.04022,51.54698],[-0.04097,51.54873],[-0.03774,51.54925]]]}},{"type":"Feature","properties":{"id":"E01001849","name":"E01001849","parent":"E09000012","type":"LSOA","pop":2970,"r":1738,"ff":730,"ffd":24579.1,"ffs":0.4734,"g":191,"co":2,"mo":0,"sa":0,"ic":0},"geometry":{"type":"Polygon","coordinates":[[[-0.03015,51.54623],[-0.03016,51.54555],[-0.02927,51.54566],[-0.02848,51.5451],[-0.02643,51.54521],[-0.02696,51.54435],[-0.02533,51.5446],[-0.02629,51.54595],[-0.02457,51.5465],[-0.02511,51.54693],[-0.02236,51.548],[-0.02002,51.547],[-0.01734,51.54724],[-0.01648,51.54328],[-0.01936,51.54354],[-0.0256,51.54329],[-0.02693,51.54277],[-0.02906,51.54229],[-0.02982,51.54313],[-0.03112,51.54348],[-0.03338,51.54485],[-0.03288,51.54526],[-0.03343,51.54609],[-0.03391,51.54542],[-0.03571,51.54587],[-0.03617,51.54676],[-0.03364,51.54729],[-0.03477,51.54822],[-0.0323,51.54916],[-0.02946,51.54688],[-0.03015,51.54623]]]}},{"type":"Feature","properties":{"id":"E01001850","name":"E01001850","parent":"E09000012","type":"LSOA","pop":1872,"r":1440,"ff":593,"ffd":31677.4,"ffs":0.4651,"g":162,"co":2,"mo":0,"sa":0,"ic":0},"geometry":{"type":"Polygon","coordinates":[[[-0.03918,51.54548],[-0.03916,51.54521],[-0.03803,51.5452],[-0.03755,51.54426],[-0.03907,51.54396],[-0.03919,51.54455],[-0.04146,51.54419],[-0.0426,51.54446],[-0.0449,51.54421],[-0.04579,51.54493],[-0.04329,51.545],[-0.04167,51.54526],[-0.04197,51.54704],[-0.04154,51.54702],[-0.04159,51.54664],[-0.04028,51.54659],[-0.0404,51.54631],[-0.04094,51.54628],[-0.04093,51.54582],[-0.0386,51.54574],[-0.0382,51.54557],[-0.03918,51.54548]]]}},{"type":"Feature","properties":{"id":"E01033699","name":"E01033699","parent":"E09000012","type":"LSOA","pop":1548,"r":1232,"ff":434,"ffd":28036.2,"ffs":0.4056,"g":159,"co":2,"mo":0,"sa":0,"ic":0},"geometry":{"type":"Polygon","coordinates":[[[-0.07222,51.55063],[-0.07163,51.55014],[-0.07106,51.55017],[-0.07102,51.54978],[-0.07156,51.54976],[-0.07163,51.54937],[-0.07308,51.54924],[-0.07292,51.54893],[-0.07462,51.54931],[-0.07469,51.54853],[-0.07539,51.54845],[-0.07543,51.54814],[-0.07351,51.54727],[-0.07454,51.54675],[-0.07598,51.54715],[-0.0763,51.54635],[-0.07552,51.54625],[-0.07681,51.54608],[-0.07635,51.54666],[-0.07661,51.54792],[-0.07749,51.54918],[-0.07579,51.54945],[-0.07581,51.54977],[-0.07529,51.54992],[-0.07594,51.55035],[-0.07523,51.55057],[-0.07237,51.55125],[-0.0719,51.55086],[-0.07222,51.55063]]]}},{"type":"Feature","properties":{"id":"E01033700","name":"E01033700","parent":"E09000012","type":"LSOA","pop":2516,"r":1330,"ff":471,"ffd":18720.2,"ffs":0.4026,"g":157,"co":2,"mo":0,"sa":0,"ic":0},"geometry":{"type":"Polygon","coordinates":[[[-0.07199,51.54703],[-0.07208,51.5465],[-0.0716,51.54646],[-0.07144,51.54626],[-0.07177,51.54627],[-0.07178,51.54603],[-0.07035,51.54584],[-0.07032,51.5449],[-0.07079,51.54477],[-0.07144,51.54538],[-0.07212,51.54507],[-0.07266,51.54542],[-0.07359,51.54511],[-0.07288,51.54483],[-0.07315,51.54444],[-0.07262,51.54433],[-0.07262,51.54398],[-0.07508,51.54408],[-0.07515,51.54356],[-0.07452,51.54288],[-0.07547,51.54283],[-0.07551,51.54241],[-0.0763,51.5424],[-0.07568,51.5462],[-0.07552,51.54625],[-0.0763,51.54635],[-0.07598,51.54715],[-0.07454,51.54675],[-0.07351,51.54727],[-0.07199,51.54703]]]}},{"type":"Feature","properties":{"id":"E01033702","name":"E01033702","parent":"E09000012","type":"LSOA","pop":1406,"r":628,"ff":265,"ffd":18847.8,"ffs":0.4944,"g":90,"co":0,"mo":0,"sa":0,"ic":0},"geometry":{"type":"Polygon","coordinates":[[[-0.04844,51.56491],[-0.04832,51.56429],[-0.04875,51.56422],[-0.04907,51.56491],[-0.05052,51.56472],[-0.05093,51.5638],[-0.05144,51.56396],[-0.05162,51.56373],[-0.05219,51.56379],[-0.05265,51.56322],[-0.0532,51.56332],[-0.05364,51.56393],[-0.05427,51.56393],[-0.05232,51.56609],[-0.05115,51.56772],[-0.04765,51.56533],[-0.04844,51.56491]]]}},{"type":"Feature","properties":{"id":"E01033703","name":"E01033703","parent":"E09000012","type":"LSOA","pop":1409,"r":819,"ff":333,"ffd":23633.8,"ffs":0.4703,"g":109,"co":0,"mo":0,"sa":0,"ic":0},"geometry":{"type":"Polygon","coordinates":[[[-0.05525,51.55598],[-0.05436,51.5547],[-0.05295,51.5528],[-0.05602,51.55219],[-0.05617,51.55319],[-0.05673,51.55327],[-0.05639,51.55584],[-0.05525,51.55598]]]}},{"type":"Feature","properties":{"id":"E01033704","name":"E01033704","parent":"E09000012","type":"LSOA","pop":2518,"r":1270,"ff":476,"ffd":18903.9,"ffs":0.4288,"g":157,"co":2,"mo":0,"sa":0,"ic":0},"geometry":{"type":"Polygon","coordinates":[[[-0.05537,51.54367],[-0.05525,51.54085],[-0.05703,51.53824],[-0.05694,51.53734],[-0.05726,51.53457],[-0.05796,51.53469],[-0.05812,51.53655],[-0.05732,51.53676],[-0.0585,51.53771],[-0.05758,51.53792],[-0.05803,51.53877],[-0.05775,51.54017],[-0.05871,51.54012],[-0.05905,51.53981],[-0.05874,51.53889],[-0.06085,51.53855],[-0.06193,51.54212],[-0.06031,51.54227],[-0.06018,51.54364],[-0.05785,51.54341],[-0.05537,51.54367]]]}},{"type":"Feature","properties":{"id":"E01033705","name":"E01033705","parent":"E09000012","type":"LSOA","pop":1446,"r":639,"ff":269,"ffd":18603.0,"ffs":0.4936,"g":93,"co":0,"mo":0,"sa":0,"ic":0},"geometry":{"type":"Polygon","coordinates":[[[-0.05144,51.56396],[-0.05034,51.56381],[-0.05027,51.56343],[-0.05073,51.56343],[-0.05019,51.56301],[-0.04986,51.56331],[-0.04734,51.56349],[-0.0467,51.56375],[-0.04723,51.5627],[-0.04559,51.56221],[-0.0443,51.56104],[-0.04526,51.55918],[-0.0474,51.55923],[-0.04897,51.56074],[-0.04996,51.56031],[-0.05028,51.5606],[-0.05001,51.56158],[-0.05209,51.56237],[-0.05216,51.56271],[-0.05273,51.5626],[-0.05339,51.56312],[-0.05274,51.56319],[-0.0532,51.56332],[-0.05265,51.56322],[-0.05219,51.56379],[-0.05162,51.56373],[-0.05144,51.56396]]]}},{"type":"Feature","properties":{"id":"E01033706","name":"E01033706","parent":"E09000012","type":"LSOA","pop":1681,"r":1429,"ff":497,"ffd":29565.7,"ffs":0.396,"g":171,"co":0,"mo":2,"sa":0,"ic":0},"geometry":{"type":"Polygon","coordinates":[[[-0.07717,51.5307],[-0.07788,51.52877],[-0.07733,51.52869],[-0.07661,51.52946],[-0.07606,51.52936],[-0.07639,51.52853],[-0.07569,51.52836],[-0.07723,51.5273],[-0.07629,51.52714],[-0.07657,51.52567],[-0.07645,51.52457],[-0.0773,51.52471],[-0.07776,51.52575],[-0.07722,51.52687],[-0.07804,51.52628],[-0.07969,51.52623],[-0.07928,51.52565],[-0.07941,51.52449],[-0.08032,51.52446],[-0.08062,51.52503],[-0.08111,51.52501],[-0.08074,51.52526],[-0.08085,51.52588],[-0.08041,51.52584],[-0.08033,51.52611],[-0.08103,51.52683],[-0.08008,51.52718],[-0.08014,51.52799],[-0.08058,51.52815],[-0.08012,51.52816],[-0.08003,51.52945],[-0.07931,51.5295],[-0.07884,51.52879],[-0.07834,51.52905],[-0.07827,51.52946],[-0.07879,51.52949],[-0.07854,51.53118],[-0.0771,51.53116],[-0.07717,51.5307]]]}},{"type":"Feature","properties":{"id":"E01033708","name":"E01033708","parent":"E09000012","type":"LSOA","pop":2349,"r":1604,"ff":539,"ffd":22945.9,"ffs":0.382,"g":187,"co":0,"mo":3,"sa":0,"ic":0},"geometry":{"type":"Polygon","coordinates":[[[-0.08033,51.52611],[-0.08041,51.52584],[-0.08085,51.52588],[-0.08074,51.52526],[-0.08111,51.52501],[-0.08062,51.52503],[-0.08032,51.52446],[-0.07941,51.52449],[-0.07928,51.52565],[-0.07969,51.52623],[-0.07804,51.52628],[-0.07722,51.52687],[-0.07776,51.52575],[-0.0773,51.52471],[-0.07645,51.52457],[-0.07642,51.52429],[-0.07592,51.52432],[-0.07572,51.52333],[-0.07616,51.52215],[-0.07799,51.52192],[-0.07845,51.52151],[-0.08102,51.52195],[-0.0814,51.52122],[-0.0833,51.51982],[-0.08519,51.52034],[-0.08449,51.5221],[-0.0842,51.5239],[-0.08511,51.52393],[-0.08542,51.52451],[-0.08473,51.52544],[-0.08503,51.52633],[-0.08372,51.52655],[-0.0836,51.52807],[-0.08058,51.52815],[-0.08014,51.52799],[-0.08008,51.52718],[-0.08103,51.52683],[-0.08033,51.52611]]]}},{"type":"Feature","properties":{"id":"E01033709","name":"E01033709","parent":"E09000012","type":"LSOA","pop":2112,"r":1593,"ff":526,"ffd":24905.3,"ffs":0.3763,"g":187,"co":0,"mo":1,"sa":0,"ic":0},"geometry":{"type":"Polygon","coordinates":[[[-0.08786,51.53222],[-0.08797,51.53201],[-0.08681,51.53209],[-0.08655,51.53168],[-0.08597,51.53172],[-0.08624,51.53214],[-0.08558,51.53222],[-0.08541,51.53105],[-0.0843,51.53101],[-0.08385,51.53122],[-0.08333,51.53072],[-0.08291,51.53086],[-0.08321,51.5299],[-0.08462,51.53047],[-0.08513,51.52988],[-0.08633,51.53032],[-0.0877,51.52883],[-0.08787,51.5291],[-0.08843,51.52869],[-0.08952,51.52878],[-0.08944,51.5285],[-0.09026,51.52849],[-0.09038,51.52926],[-0.09102,51.52919],[-0.09119,51.52967],[-0.08895,51.53002],[-0.08882,51.52964],[-0.08775,51.52984],[-0.08819,51.53059],[-0.08675,51.53078],[-0.08656,51.53119],[-0.08782,51.53104],[-0.08804,51.53149],[-0.08852,51.53131],[-0.0889,51.5319],[-0.08846,51.53209],[-0.08859,51.5324],[-0.08819,51.5326],[-0.08786,51.53222]]]}},{"type":"Feature","properties":{"id":"E01033710","name":"E01033710","parent":"E09000012","type":"LSOA","pop":1131,"r":600,"ff":252,"ffd":22281.2,"ffs":0.4893,"g":84,"co":0,"mo":0,"sa":0,"ic":0},"geometry":{"type":"Polygon","coordinates":[[[-0.0467,51.56438],[-0.0467,51.56375],[-0.04734,51.56349],[-0.04986,51.56331],[-0.05019,51.56301],[-0.05073,51.56343],[-0.05027,51.56343],[-0.05034,51.56381],[-0.05093,51.5638],[-0.05052,51.56472],[-0.04907,51.56491],[-0.04875,51.56422],[-0.04832,51.56429],[-0.04844,51.56491],[-0.04765,51.56533],[-0.0467,51.56438]]]}},{"type":"Feature","properties":{"id":"E01033711","name":"E01033711","parent":"E09000012","type":"LSOA","pop":2320,"r":1638,"ff":548,"ffd":23620.7,"ffs":0.3782,"g":183,"co":0,"mo":2,"sa":0,"ic":0},"geometry":{"type":"Polygon","coordinates":[[[-0.08321,51.5299],[-0.08358,51.52921],[-0.0836,51.52865],[-0.08417,51.52892],[-0.08582,51.52889],[-0.08635,51.52916],[-0.08729,51.52905],[-0.08686,51.52866],[-0.0876,51.52829],[-0.08648,51.52829],[-0.08567,51.5273],[-0.08791,51.52699],[-0.08806,51.52674],[-0.089,51.52754],[-0.09064,51.52799],[-0.09026,51.52849],[-0.08944,51.5285],[-0.08952,51.52878],[-0.08843,51.52869],[-0.08787,51.5291],[-0.0877,51.52883],[-0.08633,51.53032],[-0.08513,51.52988],[-0.08462,51.53047],[-0.08321,51.5299]]]}},{"type":"Feature","properties":{"id":"E01033712","name":"E01033712","parent":"E09000012","type":"LSOA","pop":1657,"r":1484,"ff":530,"ffd":31985.5,"ffs":0.408,"g":182,"co":2,"mo":0,"sa":0,"ic":0},"geometry":{"type":"Polygon","coordinates":[[[-0.05803,51.53877],[-0.05758,51.53792],[-0.0585,51.53771],[-0.05732,51.53676],[-0.05812,51.53655],[-0.05796,51.53469],[-0.05726,51.53457],[-0.05727,51.53443],[-0.05937,51.5341],[-0.06043,51.53433],[-0.06244,51.53552],[-0.06458,51.53562],[-0.06337,51.53579],[-0.06306,51.5366],[-0.0622,51.53674],[-0.06247,51.53769],[-0.06178,51.53808],[-0.06207,51.53835],[-0.06203,51.53861],[-0.06094,51.53888],[-0.06085,51.53855],[-0.05874,51.53889],[-0.05905,51.53981],[-0.05871,51.54012],[-0.05775,51.54017],[-0.05803,51.53877]]]}},{"type":"Feature","properties":{"id":"E01033713","name":"E01033713","parent":"E09000012","type":"LSOA","pop":1315,"r":857,"ff":341,"ffd":25931.6,"ffs":0.4621,"g":117,"co":0,"mo":0,"sa":0,"ic":0},"geometry":{"type":"Polygon","coordinates":[[[-0.05525,51.55598],[-0.05639,51.55584],[-0.05673,51.55327],[-0.05617,51.55319],[-0.05621,51.55297],[-0.0639,51.55191],[-0.06524,51.55311],[-0.06666,51.5555],[-0.06543,51.5555],[-0.06515,51.55576],[-0.06489,51.55551],[-0.0641,51.55634],[-0.06395,51.55552],[-0.06315,51.55619],[-0.06103,51.55599],[-0.05916,51.55632],[-0.05872,51.556],[-0.05614,51.55615],[-0.05558,51.55646],[-0.05525,51.55598]]]}},{"type":"Feature","properties":{"id":"E01035638","name":"E01035638","parent":"E09000012","type":"LSOA","pop":1985,"r":1017,"ff":406,"ffd":20453.4,"ffs":0.4629,"g":136,"co":0,"mo":0,"sa":0,"ic":0},"geometry":{"type":"Polygon","coordinates":[[[-0.08837,51.57336],[-0.08798,51.57226],[-0.08855,51.57228],[-0.0881,51.57171],[-0.08911,51.5709],[-0.08934,51.57113],[-0.08971,51.57097],[-0.09058,51.57143],[-0.09113,51.57136],[-0.09146,51.57208],[-0.09217,51.57145],[-0.09283,51.57161],[-0.09296,51.57176],[-0.09071,51.57249],[-0.09153,51.5733],[-0.09325,51.57311],[-0.09401,51.57387],[-0.0916,51.57399],[-0.0899,51.57442],[-0.08696,51.5744],[-0.08661,51.57421],[-0.08837,51.57336]]]}},{"type":"Feature","properties":{"id":"E01035639","name":"E01035639","parent":"E09000012","type":"LSOA","pop":1931,"r":815,"ff":322,"ffd":16675.3,"ffs":0.4548,"g":104,"co":0,"mo":0,"sa":0,"ic":0},"geometry":{"type":"Polygon","coordinates":[[[-0.09146,51.57208],[-0.09113,51.57136],[-0.09058,51.57143],[-0.08971,51.57097],[-0.08934,51.57113],[-0.08758,51.56933],[-0.08817,51.56761],[-0.09133,51.56792],[-0.09278,51.57012],[-0.09364,51.56987],[-0.0941,51.56941],[-0.09487,51.56937],[-0.09588,51.57075],[-0.09296,51.57176],[-0.09217,51.57145],[-0.09146,51.57208]]]}},{"type":"Feature","properties":{"id":"E01035640","name":"E01035640","parent":"E09000012","type":"LSOA","pop":1384,"r":1220,"ff":442,"ffd":31936.4,"ffs":0.4162,"g":155,"co":2,"mo":0,"sa":0,"ic":0},"geometry":{"type":"Polygon","coordinates":[[[-0.06801,51.55133],[-0.06772,51.54994],[-0.06765,51.54827],[-0.06857,51.54814],[-0.06896,51.54767],[-0.06948,51.54752],[-0.06971,51.54807],[-0.07086,51.54808],[-0.07167,51.54851],[-0.07384,51.54861],[-0.07427,51.54823],[-0.07437,51.54866],[-0.07469,51.54853],[-0.07462,51.54931],[-0.07292,51.54893],[-0.07308,51.54924],[-0.07163,51.54937],[-0.07156,51.54976],[-0.07102,51.54978],[-0.07106,51.55017],[-0.07163,51.55014],[-0.07222,51.55063],[-0.0719,51.55086],[-0.07025,51.55082],[-0.06801,51.55133]]]}},{"type":"Feature","properties":{"id":"E01035641","name":"E01035641","parent":"E09000012","type":"LSOA","pop":1494,"r":1269,"ff":461,"ffd":30856.8,"ffs":0.4176,"g":162,"co":2,"mo":0,"sa":0,"ic":0},"geometry":{"type":"Polygon","coordinates":[[[-0.07437,51.54866],[-0.07427,51.54823],[-0.07384,51.54861],[-0.07167,51.54851],[-0.07086,51.54808],[-0.06971,51.54807],[-0.06948,51.54752],[-0.06836,51.54762],[-0.06915,51.54631],[-0.07042,51.54623],[-0.07,51.54616],[-0.07035,51.54584],[-0.07178,51.54603],[-0.07177,51.54627],[-0.07144,51.54626],[-0.0716,51.54646],[-0.07208,51.5465],[-0.07199,51.54703],[-0.07351,51.54727],[-0.07543,51.54814],[-0.07539,51.54845],[-0.07437,51.54866]]]}},{"type":"Feature","properties":{"id":"E01035642","name":"E01035642","parent":"E09000012","type":"LSOA","pop":1906,"r":1439,"ff":487,"ffd":25550.9,"ffs":0.3844,"g":168,"co":0,"mo":1,"sa":0,"ic":0},"geometry":{"type":"Polygon","coordinates":[[[-0.07679,51.53779],[-0.07683,51.53654],[-0.07818,51.53689],[-0.07924,51.53631],[-0.08034,51.53642],[-0.07905,51.53706],[-0.08012,51.53733],[-0.08,51.53841],[-0.07883,51.5387],[-0.0787,51.53913],[-0.07672,51.539],[-0.07679,51.53779]]]}},{"type":"Feature","properties":{"id":"E01035643","name":"E01035643","parent":"E09000012","type":"LSOA","pop":1719,"r":1504,"ff":506,"ffd":29435.7,"ffs":0.3839,"g":181,"co":0,"mo":1,"sa":0,"ic":0},"geometry":{"type":"Polygon","coordinates":[[[-0.08476,51.54061],[-0.08485,51.54029],[-0.08347,51.54043],[-0.08361,51.53963],[-0.08382,51.53875],[-0.08441,51.53845],[-0.08448,51.53816],[-0.08549,51.53829],[-0.08542,51.53764],[-0.0839,51.53751],[-0.0841,51.5367],[-0.08323,51.53664],[-0.08399,51.53611],[-0.08246,51.53558],[-0.08289,51.5349],[-0.08641,51.53491],[-0.08656,51.53611],[-0.08572,51.5361],[-0.08553,51.53649],[-0.08556,51.5368],[-0.08659,51.5371],[-0.08655,51.5374],[-0.08534,51.54069],[-0.08476,51.54061]]]}},{"type":"Feature","properties":{"id":"E01035644","name":"E01035644","parent":"E09000012","type":"LSOA","pop":1212,"r":1535,"ff":515,"ffd":42491.7,"ffs":0.3829,"g":185,"co":0,"mo":1,"sa":0,"ic":0},"geometry":{"type":"Polygon","coordinates":[[[-0.08785,51.53574],[-0.08913,51.53537],[-0.08968,51.536],[-0.08659,51.53726],[-0.08659,51.5371],[-0.08556,51.5368],[-0.08572,51.5361],[-0.08656,51.53611],[-0.08785,51.53574]]]}},{"type":"Feature","properties":{"id":"E01035645","name":"E01035645","parent":"E09000012","type":"LSOA","pop":1387,"r":1638,"ff":548,"ffd":39509.7,"ffs":0.3782,"g":183,"co":0,"mo":0,"sa":0,"ic":0},"geometry":{"type":"Polygon","coordinates":[[[-0.07683,51.53654],[-0.07692,51.53535],[-0.07774,51.53543],[-0.07838,51.53497],[-0.07873,51.53529],[-0.08019,51.53499],[-0.08034,51.53548],[-0.08092,51.53566],[-0.08165,51.53535],[-0.08186,51.53495],[-0.0828,51.53513],[-0.08246,51.53558],[-0.08399,51.53611],[-0.08323,51.53664],[-0.07924,51.53631],[-0.07818,51.53689],[-0.07683,51.53654]]]}},{"type":"Feature","properties":{"id":"E01035646","name":"E01035646","parent":"E09000012","type":"LSOA","pop":1630,"r":1374,"ff":453,"ffd":27791.4,"ffs":0.3738,"g":158,"co":0,"mo":1,"sa":0,"ic":0},"geometry":{"type":"Polygon","coordinates":[[[-0.0913,51.53279],[-0.09256,51.53214],[-0.09247,51.53153],[-0.09283,51.53149],[-0.09296,51.5321],[-0.09329,51.53207],[-0.09367,51.53261],[-0.09436,51.53248],[-0.09525,51.53324],[-0.09427,51.53323],[-0.0938,51.53352],[-0.09418,51.53396],[-0.08968,51.536],[-0.08852,51.53451],[-0.08936,51.53422],[-0.08907,51.53356],[-0.0913,51.53279]]]}},{"type":"Feature","properties":{"id":"E01035647","name":"E01035647","parent":"E09000012","type":"LSOA","pop":1122,"r":1432,"ff":459,"ffd":40909.1,"ffs":0.3611,"g":154,"co":0,"mo":1,"sa":0,"ic":0},"geometry":{"type":"Polygon","coordinates":[[[-0.09479,51.53081],[-0.09541,51.53065],[-0.09701,51.53298],[-0.09418,51.53396],[-0.0938,51.53352],[-0.09427,51.53323],[-0.09525,51.53324],[-0.09436,51.53248],[-0.0945,51.532],[-0.09415,51.53148],[-0.09488,51.53127],[-0.09479,51.53081]]]}},{"type":"Feature","properties":{"id":"E01035648","name":"E01035648","parent":"E09000012","type":"LSOA","pop":1484,"r":1464,"ff":478,"ffd":32210.2,"ffs":0.3711,"g":172,"co":0,"mo":1,"sa":0,"ic":0},"geometry":{"type":"Polygon","coordinates":[[[-0.09027,51.53105],[-0.08932,51.53118],[-0.08895,51.53002],[-0.09068,51.52981],[-0.09104,51.5302],[-0.09248,51.53049],[-0.09228,51.52992],[-0.09318,51.52987],[-0.09328,51.53126],[-0.09247,51.53153],[-0.09256,51.53214],[-0.0913,51.53279],[-0.09055,51.53178],[-0.09076,51.53132],[-0.09027,51.53105]]]}},{"type":"Feature","properties":{"id":"E01035649","name":"E01035649","parent":"E09000012","type":"LSOA","pop":1421,"r":1584,"ff":526,"ffd":37016.2,"ffs":0.3744,"g":171,"co":0,"mo":1,"sa":0,"ic":0},"geometry":{"type":"Polygon","coordinates":[[[-0.09367,51.53261],[-0.09329,51.53207],[-0.09296,51.5321],[-0.09283,51.53149],[-0.09328,51.53126],[-0.09318,51.52987],[-0.09228,51.52992],[-0.09248,51.53049],[-0.09104,51.5302],[-0.09068,51.52981],[-0.09119,51.52967],[-0.09102,51.52919],[-0.09038,51.52926],[-0.09026,51.52849],[-0.09064,51.52799],[-0.09538,51.5292],[-0.09507,51.52999],[-0.09541,51.53065],[-0.09479,51.53081],[-0.09488,51.53127],[-0.09415,51.53148],[-0.0945,51.532],[-0.09436,51.53248],[-0.09367,51.53261]]]}},{"type":"Feature","properties":{"id":"E01035650","name":"E01035650","parent":"E09000012","type":"LSOA","pop":2056,"r":1481,"ff":519,"ffd":25243.2,"ffs":0.3974,"g":172,"co":2,"mo":1,"sa":0,"ic":0},"geometry":{"type":"Polygon","coordinates":[[[-0.0709,51.54212],[-0.07038,51.54168],[-0.07001,51.54167],[-0.07003,51.54109],[-0.07105,51.54096],[-0.07099,51.54046],[-0.07168,51.5405],[-0.07181,51.54013],[-0.07303,51.5402],[-0.07324,51.53957],[-0.07437,51.53953],[-0.07305,51.53856],[-0.07674,51.53842],[-0.0763,51.5424],[-0.07551,51.54241],[-0.07547,51.54283],[-0.06992,51.54306],[-0.06995,51.54233],[-0.0709,51.54212]]]}}]}