{"type":"FeatureCollection","features":[{"type":"Feature","properties":{"id":"E01000006","name":"E01000006","parent":"E09000002","type":"LSOA","pop":1930,"r":660,"ff":319,"ffd":16528.5,"ffs":0.5425,"g":68,"co":0,"mo":0,"sa":0,"ic":0},"geometry":{"type":"Polygon","coordinates":[[[0.09118,51.53909],[0.09363,51.53767],[0.08965,51.53739],[0.08655,51.53759],[0.085,51.5379],[0.08534,51.53836],[0.08495,51.53852],[0.0858,51.53918],[0.08622,51.53902],[0.08681,51.53945],[0.0851,51.54036],[0.08653,51.54125],[0.08615,51.54154],[0.08648,51.54178],[0.09118,51.53909]]]}},{"type":"Feature","properties":{"id":"E01000007","name":"E01000007","parent":"E09000002","type":"LSOA","pop":3080,"r":734,"ff":338,"ffd":10974.0,"ffs":0.5145,"g":73,"co":0,"mo":2,"sa":0,"ic":0},"geometry":{"type":"Polygon","coordinates":[[[0.07777,51.54279],[0.07968,51.54134],[0.08028,51.5417],[0.0807,51.54112],[0.08213,51.54082],[0.08321,51.54109],[0.08305,51.54069],[0.08066,51.53875],[0.07871,51.53961],[0.07805,51.53934],[0.07754,51.53974],[0.07699,51.53953],[0.07773,51.53916],[0.07553,51.5384],[0.07525,51.5395],[0.07364,51.53887],[0.07307,51.53879],[0.073,51.53913],[0.07194,51.53896],[0.0722,51.54003],[0.07298,51.54018],[0.07265,51.54143],[0.07353,51.5419],[0.07388,51.54155],[0.07539,51.54222],[0.07762,51.54123],[0.07786,51.54142],[0.07706,51.54186],[0.07714,51.54257],[0.07777,51.54279]]]}},{"type":"Feature","properties":{"id":"E01000008","name":"E01000008","parent":"E09000002","type":"LSOA","pop":1805,"r":683,"ff":312,"ffd":17285.3,"ffs":0.5106,"g":68,"co":0,"mo":2,"sa":0,"ic":0},"geometry":{"type":"MultiPolygon","coordinates":[[[[0.07138,51.5417],[0.07232,51.54166],[0.07323,51.54221],[0.07353,51.5419],[0.07265,51.54143],[0.07298,51.54018],[0.0722,51.54003],[0.07194,51.53896],[0.07204,51.5384],[0.07256,51.53769],[0.07131,51.53723],[0.07045,51.5391],[0.06968,51.53878],[0.06947,51.53897],[0.06993,51.54085],[0.06924,51.54168],[0.07061,51.54237],[0.07172,51.5418],[0.07138,51.5417]]],[[[0.06942,51.54372],[0.06927,51.54331],[0.06924,51.54356],[0.06942,51.54372]]],[[[0.06861,51.53622],[0.06806,51.53616],[0.06911,51.53734],[0.06696,51.53986],[0.06672,51.54115],[0.06835,51.54442],[0.06934,51.54416],[0.06859,51.54209],[0.06901,51.5414],[0.06845,51.54074],[0.0694,51.54028],[0.06906,51.53884],[0.07049,51.53846],[0.07104,51.53713],[0.06861,51.53622]]]]}},{"type":"Feature","properties":{"id":"E01000009","name":"E01000009","parent":"E09000002","type":"LSOA","pop":1880,"r":678,"ff":323,"ffd":17180.9,"ffs":0.5348,"g":70,"co":0,"mo":0,"sa":0,"ic":0},"geometry":{"type":"Polygon","coordinates":[[[0.08237,51.54275],[0.08421,51.54183],[0.08477,51.5425],[0.08648,51.54178],[0.08615,51.54154],[0.08653,51.54125],[0.0851,51.54036],[0.08681,51.53945],[0.08622,51.53902],[0.0858,51.53918],[0.08495,51.53852],[0.08534,51.53836],[0.085,51.5379],[0.08159,51.53913],[0.08136,51.53931],[0.08305,51.54069],[0.08321,51.54109],[0.08213,51.54082],[0.0807,51.54112],[0.08028,51.5417],[0.08105,51.54224],[0.08139,51.54208],[0.08237,51.54275]]]}},{"type":"Feature","properties":{"id":"E01000011","name":"E01000011","parent":"E09000002","type":"LSOA","pop":1738,"r":721,"ff":343,"ffd":19735.3,"ffs":0.5301,"g":70,"co":0,"mo":2,"sa":0,"ic":0},"geometry":{"type":"Polygon","coordinates":[[[0.08275,51.5435],[0.08477,51.5425],[0.08421,51.54183],[0.08237,51.54275],[0.08139,51.54208],[0.08105,51.54224],[0.07968,51.54134],[0.07777,51.54279],[0.07867,51.54328],[0.07866,51.54357],[0.07797,51.54409],[0.08014,51.5448],[0.08275,51.5435]]]}},{"type":"Feature","properties":{"id":"E01000012","name":"E01000012","parent":"E09000002","type":"LSOA","pop":2474,"r":720,"ff":329,"ffd":13298.3,"ffs":0.5101,"g":71,"co":0,"mo":2,"sa":0,"ic":0},"geometry":{"type":"Polygon","coordinates":[[[0.07866,51.54357],[0.07867,51.54328],[0.07714,51.54257],[0.07706,51.54186],[0.07786,51.54142],[0.07762,51.54123],[0.07539,51.54222],[0.07388,51.54155],[0.07323,51.54221],[0.07232,51.54166],[0.07138,51.5417],[0.07172,51.5418],[0.07061,51.54237],[0.06924,51.54168],[0.06893,51.54206],[0.06934,51.54252],[0.06927,51.54331],[0.06971,51.54407],[0.07148,51.54364],[0.07438,51.5439],[0.07683,51.54459],[0.07755,51.54453],[0.07866,51.54357]]]}},{"type":"Feature","properties":{"id":"E01000013","name":"E01000013","parent":"E09000002","type":"LSOA","pop":1973,"r":612,"ff":289,"ffd":14647.7,"ffs":0.5453,"g":77,"co":0,"mo":0,"sa":0,"ic":0},"geometry":{"type":"Polygon","coordinates":[[[0.15145,51.54399],[0.15163,51.54303],[0.15032,51.54291],[0.14986,51.54173],[0.1406,51.54113],[0.14059,51.54176],[0.1426,51.54231],[0.1426,51.54281],[0.14388,51.54325],[0.14419,51.54385],[0.1432,51.5443],[0.143,51.54477],[0.14379,51.54491],[0.14454,51.54473],[0.14567,51.54569],[0.14622,51.54536],[0.1458,51.54418],[0.14737,51.54363],[0.14731,51.54427],[0.14959,51.54401],[0.15017,51.54418],[0.15013,51.54462],[0.15116,51.5447],[0.15079,51.54553],[0.15137,51.54632],[0.15211,51.54634],[0.15279,51.54588],[0.15211,51.54581],[0.15235,51.54465],[0.15184,51.5445],[0.15195,51.54406],[0.15145,51.54399]]]}},{"type":"Feature","properties":{"id":"E01000014","name":"E01000014","parent":"E09000002","type":"LSOA","pop":1789,"r":614,"ff":287,"ffd":16042.5,"ffs":0.5395,"g":77,"co":0,"mo":0,"sa":0,"ic":0},"geometry":{"type":"Polygon","coordinates":[[[0.14462,51.54637],[0.14604,51.54616],[0.14647,51.54646],[0.14708,51.54588],[0.14795,51.54592],[0.14852,51.54558],[0.14811,51.54512],[0.14864,51.54477],[0.14795,51.54425],[0.14731,51.54427],[0.14737,51.54363],[0.14624,51.54395],[0.1458,51.54418],[0.14622,51.54536],[0.14567,51.54569],[0.14454,51.54473],[0.14379,51.54491],[0.143,51.54477],[0.1432,51.5443],[0.14419,51.54385],[0.14388,51.54325],[0.1426,51.54281],[0.1426,51.54231],[0.14059,51.54176],[0.1406,51.54113],[0.1342,51.54072],[0.13394,51.54162],[0.13422,51.54188],[0.13191,51.54377],[0.13677,51.54423],[0.1386,51.54567],[0.14158,51.54454],[0.14232,51.54533],[0.14193,51.54549],[0.14298,51.54662],[0.14462,51.54637]]]}},{"type":"Feature","properties":{"id":"E01000015","name":"E01000015","parent":"E09000002","type":"LSOA","pop":2501,"r":606,"ff":287,"ffd":11475.4,"ffs":0.5467,"g":77,"co":0,"mo":0,"sa":0,"ic":0},"geometry":{"type":"Polygon","coordinates":[[[0.15725,51.54831],[0.15732,51.54775],[0.15855,51.54777],[0.15879,51.54641],[0.1604,51.54449],[0.16153,51.54388],[0.16154,51.54331],[0.15528,51.54226],[0.14986,51.54173],[0.15032,51.54291],[0.15163,51.54303],[0.15145,51.54399],[0.15195,51.54406],[0.15184,51.5445],[0.15235,51.54465],[0.15211,51.54581],[0.15373,51.54598],[0.15412,51.54563],[0.15474,51.54575],[0.15666,51.54487],[0.15732,51.54536],[0.15765,51.54583],[0.15685,51.54621],[0.15675,51.54701],[0.15613,51.54666],[0.1545,51.54755],[0.15579,51.54828],[0.15725,51.54831]]]}},{"type":"Feature","properties":{"id":"E01000016","name":"E01000016","parent":"E09000002","type":"LSOA","pop":1900,"r":648,"ff":301,"ffd":15842.1,"ffs":0.5365,"g":82,"co":0,"mo":0,"sa":0,"ic":0},"geometry":{"type":"Polygon","coordinates":[[[0.15638,51.55102],[0.15648,51.54871],[0.15673,51.54835],[0.15579,51.54828],[0.1545,51.54755],[0.15383,51.5479],[0.15363,51.54868],[0.15262,51.54856],[0.15238,51.54896],[0.15167,51.54899],[0.14924,51.5474],[0.14842,51.54739],[0.14851,51.54631],[0.14786,51.54593],[0.14771,51.5478],[0.14704,51.54821],[0.14706,51.54928],[0.14755,51.54961],[0.14897,51.55002],[0.14926,51.54967],[0.15029,51.54962],[0.15035,51.55091],[0.14971,51.55128],[0.15261,51.55134],[0.15638,51.55102]]]}},{"type":"Feature","properties":{"id":"E01000017","name":"E01000017","parent":"E09000002","type":"LSOA","pop":1781,"r":645,"ff":304,"ffd":17069.1,"ffs":0.5438,"g":81,"co":0,"mo":0,"sa":0,"ic":0},"geometry":{"type":"Polygon","coordinates":[[[0.15035,51.55091],[0.15029,51.54962],[0.14926,51.54967],[0.14897,51.55002],[0.14755,51.54961],[0.14706,51.54928],[0.14704,51.54821],[0.14771,51.5478],[0.14786,51.54593],[0.14708,51.54588],[0.14553,51.54727],[0.14578,51.54758],[0.14332,51.5484],[0.14292,51.54946],[0.1428,51.55096],[0.14971,51.55128],[0.15035,51.55091]]]}},{"type":"Feature","properties":{"id":"E01000018","name":"E01000018","parent":"E09000002","type":"LSOA","pop":1807,"r":637,"ff":302,"ffd":16712.8,"ffs":0.5481,"g":81,"co":0,"mo":0,"sa":0,"ic":0},"geometry":{"type":"Polygon","coordinates":[[[0.15238,51.54896],[0.15262,51.54856],[0.15363,51.54868],[0.15383,51.5479],[0.15613,51.54666],[0.15675,51.54701],[0.15685,51.54621],[0.15765,51.54583],[0.15666,51.54487],[0.15474,51.54575],[0.15412,51.54563],[0.15373,51.54598],[0.15279,51.54588],[0.15211,51.54634],[0.15137,51.54632],[0.15079,51.54553],[0.15116,51.5447],[0.15013,51.54462],[0.15017,51.54418],[0.14959,51.54401],[0.14795,51.54425],[0.14864,51.54477],[0.14811,51.54512],[0.14852,51.54558],[0.14795,51.54592],[0.14851,51.54631],[0.14842,51.54739],[0.14924,51.5474],[0.15167,51.54899],[0.15238,51.54896]]]}},{"type":"Feature","properties":{"id":"E01000019","name":"E01000019","parent":"E09000002","type":"LSOA","pop":1722,"r":732,"ff":333,"ffd":19338.0,"ffs":0.5219,"g":88,"co":0,"mo":0,"sa":0,"ic":0},"geometry":{"type":"Polygon","coordinates":[[[0.12002,51.56083],[0.1213,51.56036],[0.12179,51.56064],[0.12226,51.56033],[0.12275,51.56055],[0.12311,51.56021],[0.12435,51.56046],[0.12513,51.56015],[0.12483,51.55974],[0.12291,51.55994],[0.12268,51.55928],[0.12439,51.55924],[0.12454,51.55866],[0.12279,51.55846],[0.12248,51.55791],[0.12282,51.55756],[0.12198,51.5567],[0.12272,51.55622],[0.12103,51.55522],[0.12101,51.55565],[0.11931,51.55643],[0.11754,51.55526],[0.11725,51.5559],[0.11623,51.55589],[0.11718,51.55689],[0.11716,51.55739],[0.11896,51.55735],[0.12051,51.55854],[0.11751,51.55916],[0.11862,51.56079],[0.11952,51.56054],[0.12002,51.56083]]]}},{"type":"Feature","properties":{"id":"E01000020","name":"E01000020","parent":"E09000002","type":"LSOA","pop":2225,"r":719,"ff":328,"ffd":14741.6,"ffs":0.524,"g":87,"co":0,"mo":0,"sa":0,"ic":0},"geometry":{"type":"Polygon","coordinates":[[[0.12517,51.56016],[0.12771,51.55675],[0.12705,51.55545],[0.12517,51.55324],[0.12433,51.55144],[0.12411,51.55171],[0.12394,51.55151],[0.12309,51.55162],[0.12332,51.55189],[0.1227,51.55223],[0.12316,51.55254],[0.12238,51.55221],[0.12222,51.55281],[0.12302,51.55333],[0.12393,51.55299],[0.12408,51.55365],[0.12521,51.55402],[0.12518,51.55464],[0.12356,51.55523],[0.1233,51.55561],[0.12272,51.55541],[0.12213,51.55577],[0.12272,51.55622],[0.12198,51.5567],[0.12282,51.55756],[0.12248,51.55791],[0.12279,51.55846],[0.12454,51.55866],[0.12439,51.55924],[0.12268,51.55928],[0.12291,51.55994],[0.12483,51.55974],[0.12517,51.56016]]]}},{"type":"Feature","properties":{"id":"E01000021","name":"E01000021","parent":"E09000002","type":"LSOA","pop":1778,"r":755,"ff":338,"ffd":19010.1,"ffs":0.5121,"g":89,"co":0,"mo":0,"sa":0,"ic":0},"geometry":{"type":"Polygon","coordinates":[[[0.11718,51.55689],[0.11623,51.55589],[0.11725,51.5559],[0.11754,51.55526],[0.11931,51.55643],[0.12044,51.55586],[0.11991,51.55516],[0.11859,51.55446],[0.11642,51.55279],[0.11691,51.55251],[0.11703,51.55194],[0.11618,51.55152],[0.11732,51.55142],[0.11648,51.55093],[0.1145,51.5512],[0.11388,51.55154],[0.11444,51.55276],[0.11498,51.55317],[0.11479,51.55359],[0.11406,51.55355],[0.11404,51.55399],[0.11343,51.5543],[0.11477,51.5553],[0.11275,51.55652],[0.11319,51.55689],[0.11336,51.55732],[0.11718,51.55689]]]}},{"type":"Feature","properties":{"id":"E01000022","name":"E01000022","parent":"E09000002","type":"LSOA","pop":1508,"r":727,"ff":331,"ffd":21949.6,"ffs":0.5204,"g":85,"co":0,"mo":0,"sa":0,"ic":0},"geometry":{"type":"Polygon","coordinates":[[[0.12101,51.55565],[0.12103,51.55522],[0.12213,51.55577],[0.12272,51.55541],[0.1233,51.55561],[0.12356,51.55523],[0.12518,51.55464],[0.12521,51.55402],[0.12408,51.55365],[0.12393,51.55299],[0.12302,51.55333],[0.12222,51.55281],[0.12137,51.55273],[0.12041,51.55275],[0.12033,51.55325],[0.11939,51.55319],[0.11945,51.55257],[0.11691,51.55251],[0.11642,51.55279],[0.11859,51.55446],[0.11991,51.55516],[0.12044,51.55586],[0.12101,51.55565]]]}},{"type":"Feature","properties":{"id":"E01000024","name":"E01000024","parent":"E09000002","type":"LSOA","pop":1531,"r":726,"ff":328,"ffd":21423.9,"ffs":0.5198,"g":89,"co":0,"mo":0,"sa":0,"ic":0},"geometry":{"type":"Polygon","coordinates":[[[0.12041,51.55275],[0.12222,51.55281],[0.12238,51.55221],[0.12316,51.55254],[0.1227,51.55223],[0.12332,51.55189],[0.12309,51.55162],[0.12394,51.55151],[0.12411,51.55171],[0.12433,51.55144],[0.1244,51.5513],[0.12361,51.55123],[0.12256,51.54873],[0.1215,51.54884],[0.12039,51.54986],[0.11995,51.54965],[0.11894,51.55069],[0.1205,51.5511],[0.11618,51.55152],[0.11703,51.55194],[0.11691,51.55251],[0.11945,51.55257],[0.11939,51.55319],[0.12033,51.55325],[0.12041,51.55275]]]}},{"type":"Feature","properties":{"id":"E01000025","name":"E01000025","parent":"E09000002","type":"LSOA","pop":1967,"r":685,"ff":311,"ffd":15810.9,"ffs":0.5227,"g":84,"co":0,"mo":0,"sa":0,"ic":0},"geometry":{"type":"Polygon","coordinates":[[[0.12048,51.55106],[0.11894,51.55069],[0.11995,51.54965],[0.12039,51.54986],[0.1215,51.54884],[0.12256,51.54873],[0.12195,51.54739],[0.11358,51.54889],[0.11402,51.55044],[0.11448,51.55],[0.11609,51.54975],[0.11639,51.55003],[0.11635,51.55037],[0.11444,51.55077],[0.1145,51.5512],[0.11648,51.55093],[0.11732,51.55142],[0.12048,51.55106]]]}},{"type":"Feature","properties":{"id":"E01000027","name":"E01000027","parent":"E09000002","type":"LSOA","pop":2188,"r":741,"ff":324,"ffd":14808.0,"ffs":0.5102,"g":102,"co":0,"mo":0,"sa":0,"ic":0},"geometry":{"type":"Polygon","coordinates":[[[0.14811,51.59678],[0.14809,51.5964],[0.14984,51.59701],[0.15106,51.59555],[0.15063,51.59195],[0.15117,51.5898],[0.15111,51.58708],[0.1416,51.58636],[0.1418,51.58531],[0.13999,51.58521],[0.13939,51.58483],[0.1385,51.58605],[0.13767,51.58588],[0.13781,51.58374],[0.14034,51.58384],[0.14074,51.58316],[0.14023,51.58283],[0.14022,51.58228],[0.13965,51.58227],[0.13965,51.58273],[0.13893,51.58279],[0.13891,51.58258],[0.13828,51.58249],[0.13708,51.58288],[0.1366,51.58366],[0.13687,51.58445],[0.1363,51.58487],[0.13567,51.58476],[0.13523,51.58574],[0.13481,51.58575],[0.13378,51.58679],[0.13172,51.58651],[0.13086,51.58678],[0.13137,51.58689],[0.12956,51.59006],[0.1348,51.59256],[0.14193,51.59658],[0.14659,51.59945],[0.14816,51.59905],[0.1476,51.59681],[0.14811,51.59678]]]}},{"type":"Feature","properties":{"id":"E01000028","name":"E01000028","parent":"E09000002","type":"LSOA","pop":1837,"r":757,"ff":334,"ffd":18181.8,"ffs":0.5107,"g":99,"co":0,"mo":0,"sa":0,"ic":0},"geometry":{"type":"Polygon","coordinates":[[[0.13173,51.58635],[0.1322,51.58524],[0.13278,51.58527],[0.13379,51.58335],[0.13279,51.58331],[0.13244,51.58485],[0.13118,51.58473],[0.13035,51.58499],[0.13018,51.58538],[0.12974,51.58527],[0.13012,51.58446],[0.13065,51.58402],[0.12986,51.58295],[0.12768,51.58171],[0.12806,51.58326],[0.12771,51.58392],[0.1273,51.58393],[0.12643,51.58671],[0.13103,51.58753],[0.13137,51.58689],[0.13086,51.58678],[0.13172,51.58651],[0.13173,51.58635]]]}},{"type":"Feature","properties":{"id":"E01000029","name":"E01000029","parent":"E09000002","type":"LSOA","pop":2079,"r":796,"ff":351,"ffd":16883.1,"ffs":0.5124,"g":107,"co":0,"mo":0,"sa":0,"ic":0},"geometry":{"type":"Polygon","coordinates":[[[0.13132,51.58433],[0.13206,51.58289],[0.13346,51.58289],[0.13345,51.58256],[0.13399,51.58245],[0.1343,51.58142],[0.13556,51.58138],[0.13553,51.58073],[0.13999,51.58053],[0.14021,51.5803],[0.14115,51.58054],[0.141,51.5799],[0.13954,51.57959],[0.13971,51.57895],[0.14028,51.57897],[0.1402,51.57833],[0.13615,51.57796],[0.13573,51.57979],[0.13523,51.57974],[0.13516,51.57857],[0.13535,51.57819],[0.13394,51.57814],[0.13164,51.57713],[0.13073,51.57908],[0.13126,51.57948],[0.13346,51.57995],[0.13259,51.58132],[0.12767,51.58164],[0.12986,51.58295],[0.13065,51.58402],[0.13013,51.58445],[0.13132,51.58433]]]}},{"type":"Feature","properties":{"id":"E01000030","name":"E01000030","parent":"E09000002","type":"LSOA","pop":2716,"r":768,"ff":339,"ffd":12481.6,"ffs":0.5121,"g":102,"co":0,"mo":0,"sa":0,"ic":0},"geometry":{"type":"Polygon","coordinates":[[[0.13415,51.58649],[0.13481,51.58575],[0.13523,51.58574],[0.13567,51.58476],[0.1363,51.58487],[0.13687,51.58445],[0.1366,51.58366],[0.13708,51.58288],[0.13828,51.58249],[0.13891,51.58258],[0.13893,51.58279],[0.13965,51.58273],[0.13965,51.58227],[0.14022,51.58228],[0.14023,51.58283],[0.14074,51.58316],[0.14034,51.58384],[0.13781,51.58374],[0.13767,51.58588],[0.1385,51.58605],[0.13939,51.58483],[0.13999,51.58521],[0.1418,51.58531],[0.14115,51.58054],[0.14021,51.5803],[0.13999,51.58053],[0.13553,51.58073],[0.13556,51.58138],[0.1343,51.58142],[0.13399,51.58245],[0.13345,51.58256],[0.13346,51.58289],[0.13206,51.58289],[0.13132,51.58433],[0.13013,51.58445],[0.12974,51.58527],[0.13018,51.58538],[0.13035,51.58499],[0.13118,51.58473],[0.13244,51.58485],[0.13279,51.58331],[0.13379,51.58335],[0.13278,51.58527],[0.1322,51.58524],[0.13172,51.58651],[0.13378,51.58679],[0.13415,51.58649]]]}},{"type":"Feature","properties":{"id":"E01000031","name":"E01000031","parent":"E09000002","type":"LSOA","pop":1985,"r":765,"ff":340,"ffd":17128.5,"ffs":0.5159,"g":101,"co":0,"mo":0,"sa":0,"ic":0},"geometry":{"type":"Polygon","coordinates":[[[0.15065,51.58306],[0.14841,51.58075],[0.14748,51.58079],[0.14701,51.57568],[0.14402,51.5755],[0.14357,51.57565],[0.14199,51.57531],[0.14184,51.57477],[0.14142,51.57473],[0.14153,51.57426],[0.14117,51.57419],[0.142,51.57225],[0.13954,51.57206],[0.13923,51.57287],[0.1383,51.57311],[0.13825,51.57374],[0.13899,51.57413],[0.1362,51.57382],[0.13566,51.57432],[0.13675,51.5747],[0.1373,51.57534],[0.13705,51.57626],[0.1376,51.57654],[0.13727,51.57725],[0.13791,51.57812],[0.1402,51.57833],[0.14028,51.57897],[0.13971,51.57895],[0.13954,51.57959],[0.141,51.5799],[0.1418,51.58531],[0.1416,51.58636],[0.15111,51.58708],[0.15065,51.58306]]]}},{"type":"Feature","properties":{"id":"E01000032","name":"E01000032","parent":"E09000002","type":"LSOA","pop":2181,"r":733,"ff":327,"ffd":14993.1,"ffs":0.5158,"g":95,"co":0,"mo":0,"sa":0,"ic":0},"geometry":{"type":"Polygon","coordinates":[[[0.13573,51.57979],[0.13615,51.57796],[0.13791,51.57812],[0.13727,51.57725],[0.1376,51.57654],[0.13705,51.57626],[0.1373,51.57534],[0.13675,51.5747],[0.13566,51.57432],[0.1362,51.57382],[0.13899,51.57413],[0.13825,51.57374],[0.1383,51.57311],[0.13923,51.57287],[0.13954,51.57206],[0.13655,51.57184],[0.13005,51.57076],[0.12988,51.5716],[0.13159,51.57184],[0.13094,51.57344],[0.12997,51.57306],[0.12945,51.57398],[0.12926,51.57629],[0.13394,51.57814],[0.13535,51.57819],[0.13516,51.57857],[0.13523,51.57974],[0.13573,51.57979]]]}},{"type":"Feature","properties":{"id":"E01000033","name":"E01000033","parent":"E09000002","type":"LSOA","pop":1568,"r":600,"ff":271,"ffd":17283.2,"ffs":0.5262,"g":81,"co":0,"mo":0,"sa":0,"ic":0},"geometry":{"type":"Polygon","coordinates":[[[0.16785,51.55672],[0.16735,51.55528],[0.16701,51.55623],[0.16659,51.55624],[0.16661,51.55517],[0.1647,51.55527],[0.16429,51.55494],[0.16426,51.55383],[0.16344,51.55406],[0.16315,51.5538],[0.16365,51.55351],[0.16329,51.55329],[0.16393,51.5531],[0.16371,51.55279],[0.16151,51.55239],[0.16063,51.55275],[0.16004,51.55404],[0.15975,51.55661],[0.16105,51.5566],[0.1614,51.55575],[0.16316,51.55581],[0.1632,51.55654],[0.16785,51.55672]]]}},{"type":"Feature","properties":{"id":"E01000034","name":"E01000034","parent":"E09000002","type":"LSOA","pop":1641,"r":592,"ff":266,"ffd":16209.6,"ffs":0.5216,"g":79,"co":0,"mo":0,"sa":0,"ic":0},"geometry":{"type":"Polygon","coordinates":[[[0.17463,51.56105],[0.17382,51.56012],[0.17546,51.56069],[0.17558,51.55925],[0.17648,51.55936],[0.17705,51.56],[0.178,51.56034],[0.17804,51.56094],[0.17932,51.56093],[0.17954,51.56059],[0.17732,51.55936],[0.17804,51.5588],[0.18003,51.55894],[0.18025,51.55849],[0.17738,51.55804],[0.17578,51.55846],[0.17621,51.55667],[0.17711,51.55643],[0.17753,51.55509],[0.17382,51.55413],[0.17272,51.55515],[0.17219,51.55662],[0.16969,51.55652],[0.16974,51.55313],[0.1679,51.55304],[0.16799,51.55193],[0.16609,51.55246],[0.1657,51.55283],[0.1641,51.55253],[0.16371,51.55279],[0.16393,51.5531],[0.16329,51.55329],[0.16365,51.55351],[0.16315,51.5538],[0.16344,51.55406],[0.16426,51.55383],[0.16429,51.55494],[0.1647,51.55527],[0.16661,51.55517],[0.16659,51.55624],[0.16701,51.55623],[0.16735,51.55528],[0.16785,51.55672],[0.16835,51.55716],[0.16868,51.55943],[0.16855,51.56155],[0.17463,51.56105]]]}},{"type":"Feature","properties":{"id":"E01000035","name":"E01000035","parent":"E09000002","type":"LSOA","pop":1925,"r":582,"ff":271,"ffd":14077.9,"ffs":0.5409,"g":77,"co":0,"mo":0,"sa":0,"ic":0},"geometry":{"type":"Polygon","coordinates":[[[0.1657,51.55283],[0.16609,51.55246],[0.16799,51.55193],[0.16974,51.55062],[0.16552,51.55059],[0.16491,51.54953],[0.1656,51.54982],[0.16805,51.54731],[0.16626,51.54615],[0.16672,51.54557],[0.16581,51.54579],[0.16548,51.54567],[0.1657,51.54539],[0.16523,51.5453],[0.16491,51.5461],[0.16415,51.5463],[0.16435,51.54694],[0.1636,51.54699],[0.16318,51.54734],[0.16082,51.5472],[0.15794,51.54885],[0.15648,51.54871],[0.15638,51.55102],[0.16085,51.55155],[0.16063,51.55275],[0.16151,51.55239],[0.16371,51.55279],[0.1641,51.55253],[0.1657,51.55283]]]}},{"type":"Feature","properties":{"id":"E01000036","name":"E01000036","parent":"E09000002","type":"LSOA","pop":1513,"r":595,"ff":280,"ffd":18506.3,"ffs":0.5437,"g":76,"co":0,"mo":0,"sa":0,"ic":0},"geometry":{"type":"Polygon","coordinates":[[[0.15794,51.54885],[0.16082,51.5472],[0.16318,51.54734],[0.1636,51.54699],[0.16435,51.54694],[0.16415,51.5463],[0.16491,51.5461],[0.16523,51.5453],[0.1657,51.54539],[0.16548,51.54567],[0.16581,51.54579],[0.16672,51.54557],[0.16626,51.54615],[0.16893,51.5478],[0.17923,51.54817],[0.17924,51.54636],[0.16154,51.54331],[0.16153,51.54388],[0.1604,51.54449],[0.15879,51.54641],[0.15855,51.54777],[0.15732,51.54775],[0.15725,51.54831],[0.15673,51.54835],[0.15648,51.54871],[0.15794,51.54885]]]}},{"type":"Feature","properties":{"id":"E01000037","name":"E01000037","parent":"E09000002","type":"LSOA","pop":1778,"r":584,"ff":260,"ffd":14623.2,"ffs":0.5159,"g":77,"co":0,"mo":0,"sa":0,"ic":0},"geometry":{"type":"Polygon","coordinates":[[[0.18511,51.5648],[0.18403,51.56391],[0.18273,51.56127],[0.17935,51.56089],[0.17804,51.56094],[0.178,51.56034],[0.17705,51.56],[0.17648,51.55936],[0.17558,51.55925],[0.17546,51.56069],[0.17382,51.56012],[0.17463,51.56105],[0.17494,51.56245],[0.17551,51.56241],[0.17583,51.56186],[0.1766,51.56249],[0.17717,51.56329],[0.17671,51.56392],[0.17808,51.56379],[0.1781,51.56439],[0.17894,51.56445],[0.17905,51.5649],[0.18338,51.56466],[0.18516,51.56552],[0.18511,51.5648]]]}},{"type":"Feature","properties":{"id":"E01000038","name":"E01000038","parent":"E09000002","type":"LSOA","pop":1676,"r":649,"ff":286,"ffd":17064.4,"ffs":0.5107,"g":86,"co":0,"mo":0,"sa":0,"ic":0},"geometry":{"type":"Polygon","coordinates":[[[0.17342,51.5651],[0.17686,51.5648],[0.17905,51.5649],[0.17894,51.56445],[0.1781,51.56439],[0.17808,51.56379],[0.17671,51.56392],[0.17717,51.56329],[0.1766,51.56249],[0.17583,51.56186],[0.17551,51.56241],[0.17494,51.56245],[0.17463,51.56105],[0.16855,51.56155],[0.16835,51.56353],[0.17342,51.5651]]]}},{"type":"Feature","properties":{"id":"E01000039","name":"E01000039","parent":"E09000002","type":"LSOA","pop":1961,"r":584,"ff":259,"ffd":13207.5,"ffs":0.5119,"g":75,"co":0,"mo":0,"sa":0,"ic":0},"geometry":{"type":"Polygon","coordinates":[[[0.1848,51.55929],[0.18443,51.55796],[0.18505,51.55682],[0.18477,51.55643],[0.18571,51.55638],[0.1874,51.55535],[0.18791,51.55408],[0.19021,51.55268],[0.1896,51.55149],[0.18751,51.5502],[0.18602,51.54754],[0.17924,51.54636],[0.17923,51.54817],[0.16893,51.5478],[0.16805,51.54731],[0.1656,51.54982],[0.16491,51.54953],[0.16552,51.55059],[0.16974,51.55062],[0.16799,51.55193],[0.1679,51.55304],[0.16974,51.55313],[0.16969,51.55652],[0.17219,51.55662],[0.17272,51.55515],[0.17382,51.55413],[0.17753,51.55509],[0.17711,51.55643],[0.17621,51.55667],[0.17578,51.55846],[0.17738,51.55804],[0.18025,51.55849],[0.18003,51.55894],[0.17804,51.5588],[0.17732,51.55936],[0.17954,51.56059],[0.17935,51.56089],[0.18273,51.56127],[0.18458,51.5602],[0.1848,51.55929]]]}},{"type":"Feature","properties":{"id":"E01000040","name":"E01000040","parent":"E09000002","type":"LSOA","pop":1929,"r":620,"ff":293,"ffd":15189.2,"ffs":0.5347,"g":68,"co":0,"mo":0,"sa":0,"ic":0},"geometry":{"type":"Polygon","coordinates":[[[0.10092,51.53775],[0.10098,51.5375],[0.10159,51.53753],[0.10241,51.53643],[0.10299,51.53643],[0.10259,51.5357],[0.09946,51.53584],[0.09498,51.53558],[0.09581,51.53509],[0.0954,51.53415],[0.09491,51.53411],[0.09442,51.535],[0.09357,51.53517],[0.09339,51.53585],[0.09298,51.53585],[0.09314,51.53656],[0.09279,51.53667],[0.09377,51.53768],[0.10097,51.53827],[0.10092,51.53775]]]}},{"type":"Feature","properties":{"id":"E01000041","name":"E01000041","parent":"E09000002","type":"LSOA","pop":1888,"r":542,"ff":264,"ffd":13983.1,"ffs":0.5593,"g":66,"co":0,"mo":0,"sa":0,"ic":0},"geometry":{"type":"Polygon","coordinates":[[[0.11842,51.53766],[0.11856,51.5367],[0.11765,51.5363],[0.11716,51.53658],[0.11569,51.5365],[0.11531,51.53697],[0.11459,51.53669],[0.11488,51.53638],[0.11449,51.53605],[0.11322,51.53649],[0.11319,51.53685],[0.11212,51.5366],[0.11269,51.53923],[0.12203,51.53991],[0.12197,51.53922],[0.11954,51.53893],[0.1175,51.53815],[0.1176,51.53785],[0.11842,51.53766]]]}},{"type":"Feature","properties":{"id":"E01000042","name":"E01000042","parent":"E09000002","type":"LSOA","pop":2069,"r":600,"ff":287,"ffd":13871.4,"ffs":0.5415,"g":66,"co":0,"mo":0,"sa":0,"ic":0},"geometry":{"type":"Polygon","coordinates":[[[0.11247,51.53774],[0.1114,51.53725],[0.11124,51.53661],[0.11085,51.53664],[0.1102,51.53714],[0.10888,51.53725],[0.10834,51.53501],[0.10533,51.53474],[0.10423,51.53617],[0.10317,51.53551],[0.10259,51.5357],[0.10299,51.53643],[0.10241,51.53643],[0.10159,51.53753],[0.10098,51.5375],[0.10092,51.53775],[0.10097,51.53827],[0.11269,51.53923],[0.11247,51.53774]]]}},{"type":"Feature","properties":{"id":"E01000043","name":"E01000043","parent":"E09000002","type":"LSOA","pop":1623,"r":586,"ff":279,"ffd":17190.4,"ffs":0.5407,"g":66,"co":0,"mo":0,"sa":0,"ic":0},"geometry":{"type":"Polygon","coordinates":[[[0.10423,51.53617],[0.10533,51.53474],[0.10445,51.53416],[0.10368,51.53205],[0.10065,51.53148],[0.09418,51.53322],[0.09485,51.53348],[0.09491,51.53411],[0.0954,51.53415],[0.09581,51.53509],[0.09498,51.53558],[0.09946,51.53584],[0.10259,51.5357],[0.10317,51.53551],[0.10423,51.53617]]]}},{"type":"Feature","properties":{"id":"E01000044","name":"E01000044","parent":"E09000002","type":"LSOA","pop":2008,"r":629,"ff":294,"ffd":14641.4,"ffs":0.5297,"g":70,"co":0,"mo":2,"sa":0,"ic":0},"geometry":{"type":"Polygon","coordinates":[[[0.08655,51.53759],[0.08965,51.53739],[0.09377,51.53768],[0.09279,51.53667],[0.09314,51.53656],[0.09298,51.53585],[0.09339,51.53585],[0.09357,51.53517],[0.09442,51.535],[0.09491,51.53411],[0.09485,51.53348],[0.09418,51.53322],[0.08922,51.53505],[0.08159,51.53913],[0.085,51.5379],[0.08655,51.53759]]]}},{"type":"Feature","properties":{"id":"E01000045","name":"E01000045","parent":"E09000002","type":"LSOA","pop":1798,"r":538,"ff":263,"ffd":14627.4,"ffs":0.5608,"g":65,"co":0,"mo":0,"sa":0,"ic":0},"geometry":{"type":"Polygon","coordinates":[[[0.11247,51.53771],[0.11212,51.5366],[0.11319,51.53685],[0.11322,51.53649],[0.11449,51.53605],[0.11488,51.53638],[0.11459,51.53669],[0.11531,51.53697],[0.11569,51.5365],[0.11716,51.53658],[0.11765,51.5363],[0.11651,51.53546],[0.11733,51.5347],[0.11778,51.53465],[0.11777,51.5344],[0.11571,51.53427],[0.11568,51.53451],[0.11365,51.53443],[0.11304,51.5327],[0.10859,51.53277],[0.10368,51.53205],[0.10445,51.53416],[0.10533,51.53474],[0.10834,51.53501],[0.10888,51.53725],[0.1102,51.53714],[0.11085,51.53664],[0.11124,51.53661],[0.1114,51.53725],[0.11247,51.53771]]]}},{"type":"Feature","properties":{"id":"E01000046","name":"E01000046","parent":"E09000002","type":"LSOA","pop":2006,"r":499,"ff":238,"ffd":11864.4,"ffs":0.5509,"g":64,"co":0,"mo":0,"sa":0,"ic":0},"geometry":{"type":"Polygon","coordinates":[[[0.12227,51.53438],[0.11777,51.5344],[0.11778,51.53465],[0.11733,51.5347],[0.11651,51.53546],[0.11765,51.5363],[0.11856,51.5367],[0.11842,51.53766],[0.1176,51.53785],[0.1175,51.53815],[0.11954,51.53893],[0.12197,51.53922],[0.12214,51.53851],[0.12227,51.53438]]]}},{"type":"Feature","properties":{"id":"E01000049","name":"E01000049","parent":"E09000002","type":"LSOA","pop":1284,"r":612,"ff":288,"ffd":22429.9,"ffs":0.5373,"g":72,"co":0,"mo":2,"sa":0,"ic":0},"geometry":{"type":"Polygon","coordinates":[[[0.089,51.53248],[0.09068,51.53282],[0.09166,51.5316],[0.09042,51.53121],[0.09095,51.52982],[0.08537,51.52885],[0.08102,51.52777],[0.0806,51.52804],[0.08144,51.53005],[0.08303,51.53093],[0.08352,51.53074],[0.0846,51.53102],[0.08465,51.53131],[0.08525,51.53085],[0.08662,51.53089],[0.08684,51.53119],[0.08592,51.53258],[0.08718,51.53331],[0.089,51.53248]]]}},{"type":"Feature","properties":{"id":"E01000050","name":"E01000050","parent":"E09000002","type":"LSOA","pop":1959,"r":661,"ff":309,"ffd":15773.4,"ffs":0.5318,"g":76,"co":0,"mo":2,"sa":0,"ic":0},"geometry":{"type":"Polygon","coordinates":[[[0.08872,51.53384],[0.08937,51.53294],[0.089,51.53248],[0.08718,51.53331],[0.08592,51.53258],[0.08605,51.53225],[0.08549,51.53236],[0.08393,51.53178],[0.08373,51.53239],[0.08457,51.53251],[0.08379,51.53314],[0.08471,51.53327],[0.08395,51.53422],[0.08378,51.53522],[0.08261,51.53573],[0.08552,51.53704],[0.08922,51.53505],[0.08757,51.53467],[0.08802,51.53386],[0.08872,51.53384]]]}},{"type":"Feature","properties":{"id":"E01000051","name":"E01000051","parent":"E09000002","type":"LSOA","pop":1894,"r":559,"ff":268,"ffd":14149.9,"ffs":0.5481,"g":66,"co":0,"mo":2,"sa":0,"ic":0},"geometry":{"type":"Polygon","coordinates":[[[0.08403,51.53323],[0.08268,51.53273],[0.08218,51.53318],[0.08162,51.53303],[0.0798,51.53489],[0.08124,51.53547],[0.08261,51.53573],[0.08378,51.53522],[0.08395,51.53422],[0.08471,51.53327],[0.08403,51.53323]]]}},{"type":"Feature","properties":{"id":"E01000052","name":"E01000052","parent":"E09000002","type":"LSOA","pop":2564,"r":611,"ff":284,"ffd":11076.4,"ffs":0.5318,"g":73,"co":0,"mo":2,"sa":0,"ic":0},"geometry":{"type":"Polygon","coordinates":[[[0.09462,51.53308],[0.10065,51.53148],[0.09095,51.52982],[0.09042,51.53121],[0.09166,51.5316],[0.09068,51.53282],[0.08906,51.5324],[0.08937,51.53294],[0.08872,51.53384],[0.08802,51.53386],[0.08757,51.53467],[0.08922,51.53505],[0.09462,51.53308]]]}},{"type":"Feature","properties":{"id":"E01000053","name":"E01000053","parent":"E09000002","type":"LSOA","pop":1667,"r":473,"ff":228,"ffd":13677.3,"ffs":0.5588,"g":62,"co":0,"mo":0,"sa":0,"ic":0},"geometry":{"type":"Polygon","coordinates":[[[0.14824,51.53282],[0.14827,51.53222],[0.14782,51.53171],[0.14096,51.53117],[0.13964,51.5306],[0.13948,51.5308],[0.13964,51.53126],[0.14031,51.53127],[0.14021,51.53172],[0.13981,51.53203],[0.13742,51.53219],[0.13843,51.53283],[0.13987,51.53267],[0.14017,51.53345],[0.13926,51.53333],[0.13942,51.53366],[0.13838,51.53378],[0.13959,51.53401],[0.14074,51.53352],[0.14218,51.53399],[0.14227,51.53358],[0.1432,51.53359],[0.1436,51.53304],[0.14446,51.53327],[0.14485,51.53274],[0.1456,51.53299],[0.14564,51.53344],[0.1453,51.53375],[0.14675,51.5352],[0.14817,51.53529],[0.14824,51.53282]]]}},{"type":"Feature","properties":{"id":"E01000054","name":"E01000054","parent":"E09000002","type":"LSOA","pop":1815,"r":533,"ff":258,"ffd":14214.9,"ffs":0.556,"g":66,"co":0,"mo":0,"sa":0,"ic":0},"geometry":{"type":"Polygon","coordinates":[[[0.13249,51.5389],[0.13264,51.53856],[0.13349,51.53866],[0.13433,51.53761],[0.13508,51.53749],[0.13538,51.53786],[0.13481,51.5385],[0.13555,51.53861],[0.13679,51.53836],[0.13645,51.53744],[0.13705,51.53716],[0.1368,51.5368],[0.13603,51.53678],[0.13503,51.53714],[0.13511,51.53656],[0.13464,51.5358],[0.13328,51.53546],[0.13271,51.53571],[0.13219,51.53541],[0.13262,51.53509],[0.13223,51.5345],[0.13422,51.53444],[0.13467,51.53412],[0.12962,51.53426],[0.13013,51.53457],[0.12967,51.53489],[0.13037,51.53529],[0.12984,51.53558],[0.12914,51.53541],[0.12838,51.53587],[0.12952,51.53644],[0.1297,51.53718],[0.13024,51.5375],[0.12996,51.53777],[0.1305,51.53874],[0.13249,51.5389]]]}},{"type":"Feature","properties":{"id":"E01000055","name":"E01000055","parent":"E09000002","type":"LSOA","pop":1662,"r":553,"ff":264,"ffd":15884.5,"ffs":0.55,"g":69,"co":0,"mo":0,"sa":0,"ic":0},"geometry":{"type":"Polygon","coordinates":[[[0.1245,51.53749],[0.12667,51.53775],[0.12671,51.53686],[0.12758,51.53676],[0.12786,51.53712],[0.12932,51.53737],[0.1297,51.53718],[0.12952,51.53644],[0.12838,51.53587],[0.12914,51.53541],[0.12984,51.53558],[0.13037,51.53529],[0.12967,51.53489],[0.13013,51.53457],[0.12962,51.53426],[0.12227,51.53438],[0.12226,51.53465],[0.12273,51.53469],[0.12275,51.53561],[0.12363,51.53531],[0.12461,51.53591],[0.12366,51.53626],[0.1239,51.53672],[0.12347,51.53726],[0.1231,51.5382],[0.12341,51.53828],[0.1246,51.53799],[0.1245,51.53749]]]}},{"type":"Feature","properties":{"id":"E01000056","name":"E01000056","parent":"E09000002","type":"LSOA","pop":1746,"r":505,"ff":241,"ffd":13803.0,"ffs":0.5502,"g":64,"co":0,"mo":0,"sa":0,"ic":0},"geometry":{"type":"Polygon","coordinates":[[[0.13792,51.5371],[0.13928,51.53612],[0.13872,51.53578],[0.14193,51.53479],[0.14218,51.53399],[0.14074,51.53352],[0.13959,51.53401],[0.13838,51.53378],[0.13942,51.53366],[0.13926,51.53333],[0.14017,51.53345],[0.14019,51.53319],[0.13987,51.53267],[0.13843,51.53283],[0.13742,51.53219],[0.13981,51.53203],[0.14021,51.53172],[0.14031,51.53127],[0.13964,51.53126],[0.13948,51.5308],[0.13713,51.53157],[0.1333,51.53184],[0.13477,51.53326],[0.13475,51.53411],[0.13422,51.53444],[0.13223,51.5345],[0.13262,51.53509],[0.13219,51.53541],[0.13271,51.53571],[0.13328,51.53546],[0.13464,51.5358],[0.13511,51.53656],[0.13503,51.53714],[0.13603,51.53678],[0.1368,51.5368],[0.13705,51.53716],[0.13792,51.5371]]]}},{"type":"Feature","properties":{"id":"E01000057","name":"E01000057","parent":"E09000002","type":"LSOA","pop":1638,"r":551,"ff":264,"ffd":16117.2,"ffs":0.5511,"g":68,"co":0,"mo":0,"sa":0,"ic":0},"geometry":{"type":"Polygon","coordinates":[[[0.1305,51.53874],[0.12996,51.53777],[0.13024,51.5375],[0.13001,51.53734],[0.1297,51.53718],[0.12932,51.53737],[0.12786,51.53712],[0.12758,51.53676],[0.12671,51.53686],[0.12667,51.53775],[0.1245,51.53749],[0.1246,51.53799],[0.12341,51.53828],[0.1231,51.5382],[0.12347,51.53726],[0.1239,51.53672],[0.12366,51.53626],[0.12461,51.53591],[0.12363,51.53531],[0.12275,51.53561],[0.12273,51.53469],[0.12226,51.53465],[0.12214,51.53851],[0.12772,51.53883],[0.12766,51.54028],[0.13066,51.54049],[0.13099,51.53885],[0.1305,51.53874]]]}},{"type":"Feature","properties":{"id":"E01000058","name":"E01000058","parent":"E09000002","type":"LSOA","pop":2203,"r":527,"ff":254,"ffd":11529.7,"ffs":0.5558,"g":67,"co":0,"mo":0,"sa":0,"ic":0},"geometry":{"type":"Polygon","coordinates":[[[0.14041,51.53884],[0.13949,51.5386],[0.13849,51.53872],[0.13796,51.53828],[0.13737,51.53825],[0.13705,51.5372],[0.13645,51.53744],[0.13679,51.53836],[0.13555,51.53861],[0.13481,51.5385],[0.13538,51.53786],[0.13508,51.53749],[0.13433,51.53761],[0.13349,51.53866],[0.13264,51.53856],[0.13249,51.5389],[0.13199,51.53894],[0.13099,51.53885],[0.13066,51.54049],[0.14026,51.54112],[0.14118,51.54021],[0.14072,51.53973],[0.14041,51.53884]]]}},{"type":"Feature","properties":{"id":"E01000059","name":"E01000059","parent":"E09000002","type":"LSOA","pop":1775,"r":496,"ff":236,"ffd":13295.8,"ffs":0.5514,"g":65,"co":0,"mo":0,"sa":0,"ic":0},"geometry":{"type":"Polygon","coordinates":[[[0.14246,51.5387],[0.14335,51.53772],[0.14236,51.53598],[0.14549,51.53554],[0.14568,51.53515],[0.14675,51.5352],[0.1453,51.53375],[0.14564,51.53344],[0.1456,51.53299],[0.14485,51.53274],[0.14446,51.53327],[0.1436,51.53304],[0.1432,51.53359],[0.14227,51.53358],[0.14193,51.53479],[0.13872,51.53578],[0.13928,51.53612],[0.13792,51.5371],[0.13705,51.53716],[0.13737,51.53825],[0.13796,51.53828],[0.13849,51.53872],[0.13949,51.5386],[0.14041,51.53884],[0.14072,51.53973],[0.14118,51.54021],[0.14246,51.5387]]]}},{"type":"Feature","properties":{"id":"E01000060","name":"E01000060","parent":"E09000002","type":"LSOA","pop":2348,"r":668,"ff":306,"ffd":13032.4,"ffs":0.5294,"g":85,"co":0,"mo":0,"sa":0,"ic":0},"geometry":{"type":"Polygon","coordinates":[[[0.15002,51.56024],[0.15155,51.55969],[0.15536,51.55996],[0.15824,51.55802],[0.15817,51.55952],[0.1587,51.55994],[0.16868,51.55943],[0.16835,51.55716],[0.16785,51.55672],[0.1632,51.55654],[0.16316,51.55581],[0.1614,51.55575],[0.16105,51.5566],[0.15975,51.55661],[0.15958,51.55708],[0.15813,51.55738],[0.15801,51.55669],[0.15895,51.55649],[0.15888,51.55605],[0.15605,51.55616],[0.15595,51.55653],[0.15504,51.55652],[0.155,51.55563],[0.15406,51.55567],[0.15398,51.55705],[0.15343,51.55728],[0.15319,51.55538],[0.15272,51.55539],[0.15233,51.55631],[0.15158,51.55637],[0.15155,51.55543],[0.15009,51.55547],[0.1502,51.55704],[0.14903,51.55712],[0.14833,51.55673],[0.14785,51.55735],[0.14735,51.55706],[0.147,51.55719],[0.14761,51.55859],[0.1479,51.56109],[0.15023,51.56137],[0.15029,51.56084],[0.15002,51.56024]]]}},{"type":"Feature","properties":{"id":"E01000061","name":"E01000061","parent":"E09000002","type":"LSOA","pop":2070,"r":672,"ff":303,"ffd":14637.7,"ffs":0.5188,"g":83,"co":0,"mo":0,"sa":0,"ic":0},"geometry":{"type":"Polygon","coordinates":[[[0.16004,51.56271],[0.16188,51.5616],[0.16629,51.56321],[0.16835,51.56353],[0.16868,51.55943],[0.1587,51.55994],[0.15817,51.55952],[0.15824,51.55802],[0.15536,51.55996],[0.15155,51.55969],[0.15002,51.56024],[0.15029,51.56084],[0.15023,51.56137],[0.15001,51.56138],[0.15046,51.5656],[0.15441,51.56607],[0.16004,51.56271]]]}},{"type":"Feature","properties":{"id":"E01000062","name":"E01000062","parent":"E09000002","type":"LSOA","pop":2364,"r":661,"ff":301,"ffd":12732.7,"ffs":0.5271,"g":85,"co":0,"mo":0,"sa":0,"ic":0},"geometry":{"type":"Polygon","coordinates":[[[0.15545,51.55555],[0.15545,51.55514],[0.15598,51.55488],[0.156,51.55433],[0.15683,51.55435],[0.1567,51.55323],[0.15581,51.55332],[0.15502,51.55218],[0.15285,51.55261],[0.15272,51.55223],[0.15294,51.55185],[0.15238,51.55172],[0.15261,51.55134],[0.14971,51.55128],[0.14915,51.55164],[0.14802,51.55157],[0.14774,51.55207],[0.14803,51.55259],[0.14903,51.55252],[0.14982,51.55282],[0.14837,51.5538],[0.14858,51.55439],[0.14822,51.55465],[0.14899,51.55556],[0.15155,51.55543],[0.15158,51.55637],[0.15233,51.55631],[0.15272,51.55539],[0.15319,51.55538],[0.15343,51.55728],[0.15398,51.55705],[0.15406,51.55567],[0.15545,51.55555]]]}},{"type":"Feature","properties":{"id":"E01000063","name":"E01000063","parent":"E09000002","type":"LSOA","pop":1838,"r":690,"ff":322,"ffd":17519.0,"ffs":0.5367,"g":85,"co":0,"mo":0,"sa":0,"ic":0},"geometry":{"type":"Polygon","coordinates":[[[0.14584,51.5576],[0.14735,51.55706],[0.14785,51.55735],[0.14833,51.55673],[0.14903,51.55712],[0.1502,51.55704],[0.15009,51.55547],[0.14899,51.55556],[0.14822,51.55465],[0.14712,51.55479],[0.14531,51.55328],[0.14471,51.55344],[0.14403,51.55303],[0.14335,51.55311],[0.1431,51.55348],[0.14382,51.55366],[0.14347,51.55454],[0.14525,51.55581],[0.1424,51.55575],[0.14231,51.55844],[0.14534,51.55852],[0.14584,51.5576]]]}},{"type":"Feature","properties":{"id":"E01000064","name":"E01000064","parent":"E09000002","type":"LSOA","pop":2367,"r":626,"ff":289,"ffd":12209.5,"ffs":0.5332,"g":80,"co":0,"mo":0,"sa":0,"ic":0},"geometry":{"type":"Polygon","coordinates":[[[0.15975,51.55661],[0.16004,51.55404],[0.16063,51.55275],[0.16085,51.55155],[0.15638,51.55102],[0.15261,51.55134],[0.15238,51.55172],[0.15294,51.55185],[0.15272,51.55223],[0.15285,51.55261],[0.15502,51.55218],[0.15581,51.55332],[0.1567,51.55323],[0.15683,51.55435],[0.156,51.55433],[0.15598,51.55488],[0.15545,51.55514],[0.15545,51.55555],[0.155,51.55563],[0.15504,51.55652],[0.15595,51.55653],[0.15605,51.55616],[0.15888,51.55605],[0.15895,51.55649],[0.15801,51.55669],[0.15813,51.55738],[0.15958,51.55708],[0.15975,51.55661]]]}},{"type":"Feature","properties":{"id":"E01000065","name":"E01000065","parent":"E09000002","type":"LSOA","pop":2051,"r":657,"ff":311,"ffd":15163.3,"ffs":0.5456,"g":82,"co":0,"mo":0,"sa":0,"ic":0},"geometry":{"type":"Polygon","coordinates":[[[0.14837,51.5538],[0.14982,51.55282],[0.14903,51.55252],[0.14803,51.55259],[0.14774,51.55207],[0.14802,51.55157],[0.14915,51.55164],[0.14971,51.55128],[0.1414,51.55093],[0.13632,51.55255],[0.13872,51.55344],[0.14347,51.55454],[0.14382,51.55366],[0.1431,51.55348],[0.14335,51.55311],[0.14403,51.55303],[0.14471,51.55344],[0.14531,51.55328],[0.14712,51.55479],[0.14822,51.55465],[0.14858,51.55439],[0.14837,51.5538]]]}},{"type":"Feature","properties":{"id":"E01000066","name":"E01000066","parent":"E09000002","type":"LSOA","pop":2681,"r":641,"ff":299,"ffd":11152.6,"ffs":0.5349,"g":78,"co":0,"mo":0,"sa":0,"ic":0},"geometry":{"type":"Polygon","coordinates":[[[0.10723,51.54447],[0.10603,51.54298],[0.10354,51.54364],[0.10299,51.54313],[0.10137,51.54327],[0.10322,51.54518],[0.10348,51.54586],[0.10406,51.54585],[0.1041,51.54635],[0.10331,51.54818],[0.10536,51.54873],[0.10511,51.54906],[0.10558,51.54928],[0.10472,51.55],[0.10621,51.55096],[0.10694,51.54955],[0.10882,51.54753],[0.10965,51.54585],[0.10965,51.54516],[0.10898,51.54479],[0.10723,51.54447]]]}},{"type":"Feature","properties":{"id":"E01000067","name":"E01000067","parent":"E09000002","type":"LSOA","pop":2334,"r":671,"ff":322,"ffd":13796.1,"ffs":0.5476,"g":79,"co":0,"mo":0,"sa":0,"ic":0},"geometry":{"type":"Polygon","coordinates":[[[0.10331,51.54818],[0.1041,51.54635],[0.10406,51.54585],[0.10348,51.54586],[0.10322,51.54518],[0.10155,51.54534],[0.09984,51.544],[0.09926,51.54463],[0.10034,51.54541],[0.09887,51.54547],[0.09829,51.54573],[0.09842,51.54625],[0.09817,51.54649],[0.09696,51.54602],[0.09658,51.54629],[0.09532,51.54581],[0.09468,51.54626],[0.09999,51.5485],[0.10472,51.55],[0.10558,51.54928],[0.10511,51.54906],[0.10536,51.54873],[0.10331,51.54818]]]}},{"type":"Feature","properties":{"id":"E01000068","name":"E01000068","parent":"E09000002","type":"LSOA","pop":1862,"r":559,"ff":268,"ffd":14393.1,"ffs":0.5481,"g":66,"co":0,"mo":0,"sa":0,"ic":0},"geometry":{"type":"Polygon","coordinates":[[[0.08504,51.54688],[0.08626,51.54559],[0.0867,51.54581],[0.0891,51.54383],[0.08816,51.54348],[0.08866,51.54323],[0.08917,51.54338],[0.09168,51.54191],[0.09244,51.54239],[0.09498,51.54086],[0.09419,51.54047],[0.09449,51.54023],[0.09417,51.54006],[0.09414,51.53964],[0.09487,51.53916],[0.09407,51.53875],[0.09327,51.53874],[0.09328,51.53787],[0.08645,51.5418],[0.08014,51.5448],[0.0816,51.5452],[0.08157,51.54555],[0.08504,51.54688]]]}},{"type":"Feature","properties":{"id":"E01000069","name":"E01000069","parent":"E09000002","type":"LSOA","pop":2313,"r":655,"ff":315,"ffd":13618.7,"ffs":0.5459,"g":74,"co":0,"mo":0,"sa":0,"ic":0},"geometry":{"type":"Polygon","coordinates":[[[0.09926,51.54463],[0.09984,51.544],[0.10155,51.54534],[0.10322,51.54518],[0.10137,51.54327],[0.10299,51.54313],[0.10354,51.54364],[0.10526,51.54316],[0.10408,51.54211],[0.102,51.54149],[0.10068,51.54257],[0.10057,51.54212],[0.10121,51.54166],[0.10033,51.54062],[0.10101,51.53999],[0.10148,51.53998],[0.10059,51.5397],[0.09989,51.5404],[0.0987,51.54045],[0.09781,51.54117],[0.09799,51.54172],[0.0961,51.54364],[0.09578,51.54425],[0.09687,51.5454],[0.0977,51.54517],[0.09812,51.54465],[0.09902,51.545],[0.09887,51.54547],[0.10034,51.54541],[0.09926,51.54463]]]}},{"type":"Feature","properties":{"id":"E01000070","name":"E01000070","parent":"E09000002","type":"LSOA","pop":2174,"r":662,"ff":325,"ffd":14949.4,"ffs":0.5537,"g":71,"co":0,"mo":0,"sa":0,"ic":0},"geometry":{"type":"Polygon","coordinates":[[[0.09307,51.54644],[0.09349,51.54579],[0.09468,51.54626],[0.09532,51.54581],[0.09658,51.54629],[0.09696,51.54602],[0.09817,51.54649],[0.09842,51.54625],[0.09829,51.54573],[0.09887,51.54547],[0.09902,51.545],[0.09812,51.54465],[0.0977,51.54517],[0.09687,51.5454],[0.09578,51.54425],[0.0961,51.54364],[0.09799,51.54172],[0.09784,51.54121],[0.09727,51.54162],[0.09659,51.54162],[0.09498,51.54086],[0.09244,51.54239],[0.09168,51.54191],[0.08917,51.54338],[0.08866,51.54323],[0.08816,51.54348],[0.0891,51.54383],[0.0867,51.54581],[0.08626,51.54559],[0.08504,51.54688],[0.08627,51.54743],[0.0915,51.54826],[0.09172,51.54907],[0.09256,51.54961],[0.09234,51.54856],[0.09307,51.54644]]]}},{"type":"Feature","properties":{"id":"E01000071","name":"E01000071","parent":"E09000002","type":"LSOA","pop":2786,"r":652,"ff":318,"ffd":11414.2,"ffs":0.5502,"g":70,"co":0,"mo":0,"sa":0,"ic":0},"geometry":{"type":"Polygon","coordinates":[[[0.10603,51.54298],[0.10425,51.54122],[0.10434,51.54085],[0.10567,51.53928],[0.10571,51.53868],[0.09363,51.53767],[0.09328,51.53787],[0.09327,51.53874],[0.09407,51.53875],[0.09487,51.53916],[0.09414,51.53964],[0.09417,51.54006],[0.09449,51.54023],[0.09419,51.54047],[0.09659,51.54162],[0.09727,51.54162],[0.0987,51.54045],[0.09989,51.5404],[0.10059,51.5397],[0.10148,51.53998],[0.10101,51.53999],[0.10033,51.54062],[0.10121,51.54166],[0.10057,51.54212],[0.10068,51.54257],[0.102,51.54149],[0.10408,51.54211],[0.10526,51.54316],[0.10603,51.54298]]]}},{"type":"Feature","properties":{"id":"E01000072","name":"E01000072","parent":"E09000002","type":"LSOA","pop":2250,"r":637,"ff":294,"ffd":13066.7,"ffs":0.5288,"g":77,"co":0,"mo":0,"sa":0,"ic":0},"geometry":{"type":"Polygon","coordinates":[[[0.11342,51.54704],[0.11388,51.54675],[0.11438,51.54696],[0.11526,51.54668],[0.1148,51.54533],[0.11536,51.54494],[0.11534,51.5447],[0.11388,51.54448],[0.11472,51.54407],[0.11474,51.54355],[0.11621,51.5429],[0.11587,51.54268],[0.11636,51.54226],[0.11517,51.5417],[0.11513,51.54131],[0.11638,51.54115],[0.1173,51.54136],[0.11799,51.53963],[0.10571,51.53868],[0.10567,51.53928],[0.10434,51.54085],[0.10425,51.54122],[0.10603,51.54298],[0.10723,51.54447],[0.10898,51.54479],[0.10965,51.54516],[0.10965,51.54585],[0.11333,51.54609],[0.11342,51.54704]]]}},{"type":"Feature","properties":{"id":"E01000073","name":"E01000073","parent":"E09000002","type":"LSOA","pop":1862,"r":631,"ff":292,"ffd":15682.1,"ffs":0.529,"g":75,"co":0,"mo":0,"sa":0,"ic":0},"geometry":{"type":"Polygon","coordinates":[[[0.11915,51.54788],[0.11813,51.54678],[0.11807,51.5465],[0.1172,51.54607],[0.1175,51.54556],[0.11673,51.54488],[0.11826,51.54491],[0.11913,51.54412],[0.11864,51.54353],[0.11612,51.54247],[0.11587,51.54268],[0.11621,51.5429],[0.11474,51.54355],[0.11472,51.54407],[0.11388,51.54448],[0.11534,51.5447],[0.11536,51.54494],[0.1148,51.54533],[0.11526,51.54668],[0.11438,51.54696],[0.11388,51.54675],[0.11342,51.54704],[0.11333,51.54609],[0.10965,51.54585],[0.10882,51.54753],[0.10694,51.54955],[0.10921,51.54958],[0.11915,51.54788]]]}},{"type":"Feature","properties":{"id":"E01000074","name":"E01000074","parent":"E09000002","type":"LSOA","pop":1742,"r":646,"ff":298,"ffd":17106.8,"ffs":0.5274,"g":76,"co":0,"mo":0,"sa":0,"ic":0},"geometry":{"type":"Polygon","coordinates":[[[0.12365,51.5478],[0.12338,51.54715],[0.12449,51.547],[0.12476,51.54649],[0.12391,51.54575],[0.12202,51.54492],[0.12225,51.54466],[0.12134,51.54357],[0.12065,51.54333],[0.11864,51.54353],[0.11913,51.54412],[0.11826,51.54491],[0.11673,51.54488],[0.1175,51.54556],[0.1172,51.54607],[0.11807,51.5465],[0.11813,51.54678],[0.11915,51.54788],[0.12195,51.54739],[0.12226,51.54803],[0.12365,51.5478]]]}},{"type":"Feature","properties":{"id":"E01000075","name":"E01000075","parent":"E09000002","type":"LSOA","pop":2165,"r":597,"ff":284,"ffd":13117.8,"ffs":0.5472,"g":75,"co":0,"mo":0,"sa":0,"ic":0},"geometry":{"type":"Polygon","coordinates":[[[0.12548,51.54702],[0.12587,51.54686],[0.12857,51.54715],[0.12893,51.54697],[0.13013,51.54712],[0.1309,51.54506],[0.13191,51.54377],[0.13422,51.54188],[0.13394,51.54162],[0.1342,51.54072],[0.12766,51.54028],[0.12772,51.53883],[0.1258,51.53874],[0.12558,51.53903],[0.12383,51.53936],[0.12345,51.54079],[0.12278,51.54084],[0.12215,51.54319],[0.12134,51.54357],[0.12225,51.54466],[0.12202,51.54492],[0.12391,51.54575],[0.12574,51.54725],[0.12548,51.54702]]]}},{"type":"Feature","properties":{"id":"E01000076","name":"E01000076","parent":"E09000002","type":"LSOA","pop":2263,"r":599,"ff":279,"ffd":12328.8,"ffs":0.5355,"g":75,"co":0,"mo":0,"sa":0,"ic":0},"geometry":{"type":"Polygon","coordinates":[[[0.12134,51.54357],[0.12215,51.54319],[0.12278,51.54084],[0.12345,51.54079],[0.12383,51.53936],[0.12558,51.53903],[0.1258,51.53874],[0.12214,51.53851],[0.12203,51.53991],[0.11799,51.53963],[0.1173,51.54136],[0.11638,51.54115],[0.11513,51.54131],[0.11517,51.5417],[0.11636,51.54226],[0.11612,51.54247],[0.11864,51.54353],[0.12065,51.54333],[0.12134,51.54357]]]}},{"type":"Feature","properties":{"id":"E01000077","name":"E01000077","parent":"E09000002","type":"LSOA","pop":1747,"r":675,"ff":309,"ffd":17687.5,"ffs":0.5273,"g":83,"co":0,"mo":0,"sa":0,"ic":0},"geometry":{"type":"Polygon","coordinates":[[[0.12574,51.54725],[0.12476,51.54649],[0.12449,51.547],[0.12338,51.54715],[0.12365,51.5478],[0.12226,51.54803],[0.12361,51.55123],[0.13031,51.55177],[0.13041,51.55134],[0.12574,51.54725]]]}},{"type":"Feature","properties":{"id":"E01000078","name":"E01000078","parent":"E09000002","type":"LSOA","pop":1990,"r":686,"ff":320,"ffd":16080.4,"ffs":0.5351,"g":83,"co":0,"mo":0,"sa":0,"ic":0},"geometry":{"type":"Polygon","coordinates":[[[0.13379,51.55089],[0.13325,51.55029],[0.13241,51.55085],[0.13176,51.5505],[0.13332,51.54919],[0.13239,51.54917],[0.13178,51.54877],[0.13056,51.54896],[0.13056,51.54961],[0.12994,51.54953],[0.12935,51.54988],[0.12898,51.54968],[0.12868,51.54982],[0.13041,51.55134],[0.13031,51.55177],[0.13104,51.55221],[0.13094,51.55402],[0.13197,51.55407],[0.1325,51.55556],[0.13398,51.55559],[0.13558,51.55412],[0.13411,51.55262],[0.13413,51.55241],[0.13507,51.55159],[0.13458,51.5509],[0.13379,51.55089]]]}},{"type":"Feature","properties":{"id":"E01000079","name":"E01000079","parent":"E09000002","type":"LSOA","pop":1771,"r":626,"ff":295,"ffd":16657.3,"ffs":0.5453,"g":80,"co":0,"mo":0,"sa":0,"ic":0},"geometry":{"type":"Polygon","coordinates":[[[0.14332,51.5484],[0.14578,51.54758],[0.14553,51.54727],[0.14647,51.54646],[0.14604,51.54616],[0.14298,51.54662],[0.14193,51.54549],[0.14232,51.54533],[0.14158,51.54454],[0.1386,51.54567],[0.13677,51.54423],[0.13191,51.54377],[0.1309,51.54506],[0.13348,51.54546],[0.13347,51.54764],[0.13412,51.54857],[0.13576,51.54731],[0.13678,51.5474],[0.13721,51.54801],[0.13769,51.54781],[0.14053,51.54805],[0.14091,51.54865],[0.14019,51.54897],[0.14045,51.54915],[0.14238,51.54906],[0.14332,51.5484]]]}},{"type":"Feature","properties":{"id":"E01000080","name":"E01000080","parent":"E09000002","type":"LSOA","pop":1847,"r":635,"ff":297,"ffd":16080.1,"ffs":0.539,"g":79,"co":0,"mo":0,"sa":0,"ic":0},"geometry":{"type":"Polygon","coordinates":[[[0.13458,51.5509],[0.13468,51.54998],[0.13633,51.54961],[0.13646,51.54839],[0.13598,51.54804],[0.13656,51.54787],[0.13711,51.54837],[0.13841,51.54877],[0.13876,51.54802],[0.13769,51.54781],[0.13721,51.54801],[0.13678,51.5474],[0.13576,51.54731],[0.13412,51.54857],[0.13347,51.54764],[0.13348,51.54546],[0.1309,51.54506],[0.13013,51.54712],[0.12893,51.54697],[0.12857,51.54715],[0.12587,51.54686],[0.12548,51.54702],[0.12868,51.54982],[0.12898,51.54968],[0.12935,51.54988],[0.12994,51.54953],[0.13056,51.54961],[0.13056,51.54896],[0.13178,51.54877],[0.13239,51.54917],[0.13332,51.54919],[0.13176,51.5505],[0.13241,51.55085],[0.13325,51.55029],[0.13379,51.55089],[0.13458,51.5509]]]}},{"type":"Feature","properties":{"id":"E01000081","name":"E01000081","parent":"E09000002","type":"LSOA","pop":2109,"r":651,"ff":309,"ffd":14651.5,"ffs":0.5469,"g":81,"co":0,"mo":0,"sa":0,"ic":0},"geometry":{"type":"Polygon","coordinates":[[[0.13632,51.55255],[0.1414,51.55093],[0.1428,51.55096],[0.14313,51.54864],[0.14238,51.54906],[0.14045,51.54915],[0.14019,51.54897],[0.14091,51.54865],[0.14053,51.54805],[0.13876,51.54802],[0.13841,51.54877],[0.13711,51.54837],[0.13656,51.54787],[0.13598,51.54804],[0.13646,51.54839],[0.13633,51.54961],[0.13468,51.54998],[0.13458,51.5509],[0.13507,51.55159],[0.13462,51.55209],[0.13541,51.55214],[0.13587,51.55249],[0.13631,51.55227],[0.13632,51.55255]]]}},{"type":"Feature","properties":{"id":"E01000082","name":"E01000082","parent":"E09000002","type":"LSOA","pop":1966,"r":685,"ff":321,"ffd":16327.6,"ffs":0.5386,"g":84,"co":0,"mo":0,"sa":0,"ic":0},"geometry":{"type":"Polygon","coordinates":[[[0.13627,51.55255],[0.13631,51.55227],[0.13587,51.55249],[0.13541,51.55214],[0.13462,51.55209],[0.13413,51.55241],[0.13411,51.55262],[0.13558,51.55412],[0.13398,51.55559],[0.14525,51.55581],[0.14347,51.55454],[0.13872,51.55344],[0.13627,51.55255]]]}},{"type":"Feature","properties":{"id":"E01000083","name":"E01000083","parent":"E09000002","type":"LSOA","pop":2070,"r":698,"ff":321,"ffd":15507.2,"ffs":0.5262,"g":83,"co":0,"mo":0,"sa":0,"ic":0},"geometry":{"type":"Polygon","coordinates":[[[0.1325,51.55556],[0.13197,51.55407],[0.13094,51.55402],[0.13104,51.55221],[0.13031,51.55177],[0.1244,51.5513],[0.12433,51.55144],[0.12517,51.55324],[0.12716,51.55561],[0.1325,51.55556]]]}},{"type":"Feature","properties":{"id":"E01000084","name":"E01000084","parent":"E09000002","type":"LSOA","pop":1451,"r":523,"ff":246,"ffd":16953.8,"ffs":0.5479,"g":72,"co":0,"mo":0,"sa":0,"ic":0},"geometry":{"type":"Polygon","coordinates":[[[0.14817,51.54023],[0.14765,51.53949],[0.14821,51.53936],[0.14823,51.53852],[0.14874,51.53814],[0.14827,51.53752],[0.1477,51.53782],[0.14559,51.53757],[0.14568,51.53844],[0.14483,51.53859],[0.1448,51.53934],[0.14402,51.53967],[0.14246,51.5387],[0.14026,51.54112],[0.14793,51.5416],[0.14817,51.54023]]]}},{"type":"Feature","properties":{"id":"E01000085","name":"E01000085","parent":"E09000002","type":"LSOA","pop":1706,"r":535,"ff":249,"ffd":14595.5,"ffs":0.5449,"g":74,"co":0,"mo":0,"sa":0,"ic":0},"geometry":{"type":"Polygon","coordinates":[[[0.1522,51.53597],[0.1518,51.53546],[0.15218,51.53504],[0.15159,51.5344],[0.15063,51.53427],[0.15021,51.5349],[0.15105,51.53543],[0.15052,51.53575],[0.14966,51.53547],[0.1487,51.53581],[0.14873,51.53721],[0.14827,51.53752],[0.14874,51.53814],[0.14823,51.53852],[0.14821,51.53936],[0.14765,51.53949],[0.14817,51.54023],[0.15299,51.54008],[0.15293,51.5389],[0.1523,51.5382],[0.15125,51.53769],[0.15176,51.53712],[0.15116,51.53622],[0.1522,51.53597]]]}},{"type":"Feature","properties":{"id":"E01000086","name":"E01000086","parent":"E09000002","type":"LSOA","pop":1463,"r":499,"ff":238,"ffd":16267.9,"ffs":0.5535,"g":67,"co":0,"mo":0,"sa":0,"ic":0},"geometry":{"type":"Polygon","coordinates":[[[0.14559,51.53757],[0.1477,51.53782],[0.14873,51.53721],[0.1487,51.53581],[0.14966,51.53547],[0.15052,51.53575],[0.15105,51.53543],[0.15021,51.5349],[0.14904,51.53491],[0.14817,51.53545],[0.14817,51.53529],[0.14568,51.53515],[0.14549,51.53554],[0.14236,51.53598],[0.14335,51.53772],[0.14246,51.5387],[0.14402,51.53967],[0.1448,51.53934],[0.14483,51.53859],[0.14568,51.53844],[0.14559,51.53757]]]}},{"type":"Feature","properties":{"id":"E01000087","name":"E01000087","parent":"E09000002","type":"LSOA","pop":1771,"r":491,"ff":234,"ffd":13212.9,"ffs":0.5558,"g":66,"co":0,"mo":0,"sa":0,"ic":0},"geometry":{"type":"Polygon","coordinates":[[[0.14817,51.53545],[0.14904,51.53491],[0.15021,51.5349],[0.15063,51.53427],[0.15159,51.5344],[0.15164,51.53411],[0.15459,51.53375],[0.15463,51.53307],[0.15339,51.53305],[0.1535,51.53264],[0.15303,51.53258],[0.15346,51.53228],[0.1539,51.53044],[0.15434,51.53067],[0.15532,51.52988],[0.15469,51.52932],[0.15332,51.52995],[0.15287,51.52963],[0.1486,51.52408],[0.14647,51.52427],[0.14777,51.52928],[0.14782,51.53171],[0.14827,51.53222],[0.14817,51.53545]]]}},{"type":"Feature","properties":{"id":"E01000088","name":"E01000088","parent":"E09000002","type":"LSOA","pop":2034,"r":586,"ff":274,"ffd":13471.0,"ffs":0.5404,"g":75,"co":0,"mo":0,"sa":0,"ic":0},"geometry":{"type":"Polygon","coordinates":[[[0.16072,51.53308],[0.15955,51.53199],[0.15713,51.53247],[0.15691,51.53209],[0.15638,51.53213],[0.15685,51.53277],[0.15616,51.53279],[0.15532,51.52988],[0.15434,51.53067],[0.1539,51.53044],[0.15346,51.53228],[0.15303,51.53258],[0.1535,51.53264],[0.15339,51.53305],[0.15463,51.53307],[0.15459,51.53375],[0.15164,51.53411],[0.15159,51.5344],[0.15218,51.53504],[0.1518,51.53546],[0.1522,51.53597],[0.15116,51.53622],[0.15176,51.53712],[0.15295,51.53743],[0.15298,51.53632],[0.15428,51.53629],[0.15563,51.53573],[0.15845,51.53515],[0.159,51.5348],[0.15858,51.53452],[0.16072,51.53308]]]}},{"type":"Feature","properties":{"id":"E01000089","name":"E01000089","parent":"E09000002","type":"LSOA","pop":1857,"r":440,"ff":210,"ffd":11308.6,"ffs":0.56,"g":61,"co":0,"mo":0,"sa":0,"ic":0},"geometry":{"type":"Polygon","coordinates":[[[0.16072,51.53308],[0.164,51.53012],[0.16339,51.52995],[0.16388,51.52918],[0.16338,51.5283],[0.1627,51.52833],[0.16291,51.52801],[0.16252,51.52778],[0.16027,51.53024],[0.15904,51.52951],[0.15689,51.53026],[0.15679,51.53136],[0.15625,51.53144],[0.15638,51.53213],[0.15691,51.53209],[0.15713,51.53247],[0.15955,51.53199],[0.16072,51.53308]]]}},{"type":"Feature","properties":{"id":"E01000090","name":"E01000090","parent":"E09000002","type":"LSOA","pop":2087,"r":427,"ff":205,"ffd":9822.7,"ffs":0.5663,"g":61,"co":0,"mo":0,"sa":0,"ic":0},"geometry":{"type":"Polygon","coordinates":[[[0.15689,51.53026],[0.15904,51.52951],[0.16027,51.53024],[0.16252,51.52778],[0.16291,51.52801],[0.1627,51.52833],[0.16338,51.5283],[0.16388,51.52918],[0.16339,51.52995],[0.164,51.53012],[0.16601,51.5288],[0.16456,51.52717],[0.15897,51.51359],[0.15869,51.51224],[0.15808,51.51201],[0.15171,51.51275],[0.14657,51.5141],[0.14649,51.51442],[0.14585,51.51432],[0.14507,51.51462],[0.14577,51.51448],[0.14551,51.51514],[0.14426,51.5155],[0.14374,51.51506],[0.14328,51.51535],[0.14474,51.51676],[0.14647,51.52427],[0.1486,51.52408],[0.15287,51.52963],[0.15332,51.52995],[0.15469,51.52932],[0.15527,51.52973],[0.15616,51.53279],[0.15685,51.53277],[0.15638,51.53213],[0.15625,51.53144],[0.15679,51.53136],[0.15689,51.53026]]]}},{"type":"Feature","properties":{"id":"E01000091","name":"E01000091","parent":"E09000002","type":"LSOA","pop":2159,"r":412,"ff":202,"ffd":9356.2,"ffs":0.569,"g":54,"co":0,"mo":2,"sa":0,"ic":0},"geometry":{"type":"Polygon","coordinates":[[[0.10928,51.52819],[0.1108,51.52785],[0.11125,51.52811],[0.11185,51.52782],[0.11191,51.52752],[0.11354,51.52711],[0.11345,51.52683],[0.11388,51.52674],[0.11408,51.52708],[0.11572,51.52723],[0.11621,51.52665],[0.11579,51.52581],[0.11027,51.52596],[0.10996,51.52502],[0.10393,51.52513],[0.10383,51.52619],[0.10493,51.52614],[0.10592,51.52669],[0.1066,51.5275],[0.10669,51.52847],[0.10532,51.52859],[0.10505,51.52916],[0.10451,51.52924],[0.10459,51.52965],[0.1051,51.52967],[0.10519,51.53063],[0.10677,51.5304],[0.10691,51.53008],[0.10984,51.52974],[0.10961,51.52886],[0.10877,51.52868],[0.10904,51.52861],[0.10928,51.52819]]]}},{"type":"Feature","properties":{"id":"E01000093","name":"E01000093","parent":"E09000002","type":"LSOA","pop":1856,"r":459,"ff":223,"ffd":12015.1,"ffs":0.5603,"g":57,"co":0,"mo":2,"sa":0,"ic":0},"geometry":{"type":"Polygon","coordinates":[[[0.10671,51.5313],[0.10677,51.5304],[0.10519,51.53063],[0.1051,51.52967],[0.10459,51.52965],[0.10451,51.52924],[0.10505,51.52916],[0.10532,51.52859],[0.10669,51.52847],[0.1066,51.5275],[0.10592,51.52669],[0.10493,51.52614],[0.10383,51.52619],[0.10258,51.52743],[0.09928,51.52712],[0.09944,51.52669],[0.09878,51.5263],[0.09815,51.52692],[0.0973,51.52675],[0.0968,51.52712],[0.09713,51.52739],[0.09654,51.52736],[0.09641,51.52768],[0.09725,51.52782],[0.09761,51.52828],[0.09699,51.52852],[0.1017,51.52912],[0.10095,51.53],[0.09975,51.52995],[0.09886,51.53026],[0.09855,51.53112],[0.10859,51.53277],[0.10671,51.5313]]]}},{"type":"Feature","properties":{"id":"E01000094","name":"E01000094","parent":"E09000002","type":"LSOA","pop":3038,"r":559,"ff":268,"ffd":8821.6,"ffs":0.5481,"g":66,"co":0,"mo":2,"sa":0,"ic":0},"geometry":{"type":"Polygon","coordinates":[[[0.11682,51.52814],[0.11701,51.52776],[0.11803,51.52779],[0.11812,51.52732],[0.11811,51.52703],[0.11707,51.52685],[0.11695,51.52646],[0.11923,51.52585],[0.12354,51.52144],[0.11972,51.52069],[0.11868,51.52134],[0.11716,51.52012],[0.11574,51.51994],[0.11469,51.51902],[0.11118,51.51801],[0.11173,51.52291],[0.11133,51.52331],[0.11077,51.52348],[0.11127,51.52368],[0.10677,51.52359],[0.10827,51.52425],[0.10829,51.52499],[0.10996,51.52502],[0.11027,51.52596],[0.11579,51.52581],[0.11621,51.52665],[0.11572,51.52723],[0.11408,51.52708],[0.11422,51.52737],[0.11362,51.52739],[0.11305,51.52808],[0.114,51.52842],[0.11397,51.52953],[0.11846,51.52922],[0.11803,51.52825],[0.11682,51.52814]]]}},{"type":"Feature","properties":{"id":"E01000095","name":"E01000095","parent":"E09000002","type":"LSOA","pop":3320,"r":409,"ff":202,"ffd":6084.3,"ffs":0.5739,"g":54,"co":0,"mo":2,"sa":0,"ic":0},"geometry":{"type":"Polygon","coordinates":[[[0.13948,51.5308],[0.13964,51.5306],[0.14096,51.53117],[0.14782,51.53171],[0.14777,51.52928],[0.14474,51.51676],[0.14328,51.51535],[0.13929,51.51762],[0.13628,51.51856],[0.13364,51.51901],[0.1347,51.52338],[0.13142,51.52421],[0.12774,51.52608],[0.12194,51.527],[0.12171,51.52649],[0.12104,51.52659],[0.12636,51.52124],[0.12439,51.52267],[0.12406,51.52168],[0.12354,51.52144],[0.11923,51.52585],[0.11695,51.52646],[0.11707,51.52685],[0.11811,51.52703],[0.11812,51.52732],[0.11803,51.52779],[0.11701,51.52776],[0.11682,51.52814],[0.11803,51.52825],[0.11846,51.52922],[0.11696,51.52936],[0.11715,51.53032],[0.12146,51.5309],[0.12264,51.53128],[0.12277,51.53176],[0.12743,51.53182],[0.12709,51.53434],[0.13475,51.53411],[0.13477,51.53326],[0.1333,51.53184],[0.13713,51.53157],[0.13948,51.5308]]]}},{"type":"Feature","properties":{"id":"E01000096","name":"E01000096","parent":"E09000002","type":"LSOA","pop":1601,"r":548,"ff":266,"ffd":16614.6,"ffs":0.5588,"g":68,"co":0,"mo":2,"sa":0,"ic":0},"geometry":{"type":"Polygon","coordinates":[[[0.12709,51.53434],[0.12743,51.53182],[0.12277,51.53176],[0.12264,51.53128],[0.12146,51.5309],[0.11715,51.53032],[0.11696,51.52936],[0.11397,51.52953],[0.114,51.52842],[0.11305,51.52808],[0.11362,51.52739],[0.11422,51.52737],[0.11388,51.52674],[0.11345,51.52683],[0.11354,51.52711],[0.11191,51.52752],[0.11185,51.52782],[0.11125,51.52811],[0.1108,51.52785],[0.10928,51.52819],[0.10904,51.52861],[0.10877,51.52868],[0.10961,51.52886],[0.10984,51.52974],[0.10691,51.53008],[0.10677,51.5304],[0.10671,51.5313],[0.10859,51.53277],[0.11304,51.5327],[0.11365,51.53443],[0.11568,51.53451],[0.11571,51.53427],[0.12709,51.53434]]]}},{"type":"Feature","properties":{"id":"E01000097","name":"E01000097","parent":"E09000002","type":"LSOA","pop":2034,"r":765,"ff":350,"ffd":17207.5,"ffs":0.5255,"g":94,"co":0,"mo":0,"sa":0,"ic":0},"geometry":{"type":"Polygon","coordinates":[[[0.13157,51.56268],[0.13211,51.56165],[0.13002,51.56173],[0.12833,51.56112],[0.12731,51.56127],[0.1264,51.56213],[0.1252,51.56175],[0.1258,51.56228],[0.12551,51.56254],[0.12598,51.56359],[0.12743,51.56385],[0.12716,51.56419],[0.12778,51.56451],[0.12775,51.56494],[0.12711,51.56514],[0.12857,51.56639],[0.12939,51.56653],[0.1315,51.56656],[0.13157,51.56268]]]}},{"type":"Feature","properties":{"id":"E01000098","name":"E01000098","parent":"E09000002","type":"LSOA","pop":1964,"r":737,"ff":343,"ffd":17464.4,"ffs":0.5343,"g":90,"co":0,"mo":0,"sa":0,"ic":0},"geometry":{"type":"Polygon","coordinates":[[[0.1258,51.56228],[0.1252,51.56175],[0.1264,51.56213],[0.12731,51.56127],[0.12833,51.56112],[0.12924,51.56155],[0.12937,51.55906],[0.1311,51.55913],[0.13112,51.55843],[0.13072,51.55839],[0.12995,51.5587],[0.12998,51.5582],[0.12947,51.55818],[0.12952,51.55702],[0.128,51.55708],[0.12786,51.55762],[0.1286,51.55743],[0.12897,51.55767],[0.12848,51.55807],[0.12699,51.55787],[0.12517,51.56016],[0.1245,51.5618],[0.12395,51.56192],[0.12481,51.56417],[0.12769,51.56611],[0.12857,51.56639],[0.12711,51.56514],[0.12775,51.56494],[0.12778,51.56451],[0.12716,51.56419],[0.12743,51.56385],[0.12598,51.56359],[0.12551,51.56254],[0.1258,51.56228]]]}},{"type":"Feature","properties":{"id":"E01000099","name":"E01000099","parent":"E09000002","type":"LSOA","pop":2958,"r":730,"ff":340,"ffd":11494.3,"ffs":0.5321,"g":86,"co":0,"mo":0,"sa":0,"ic":0},"geometry":{"type":"Polygon","coordinates":[[[0.13644,51.56278],[0.13622,51.56132],[0.13464,51.56079],[0.13259,51.55951],[0.13286,51.55897],[0.13115,51.55882],[0.1311,51.55913],[0.12937,51.55906],[0.12924,51.56155],[0.13061,51.56178],[0.13211,51.56165],[0.13157,51.56268],[0.1315,51.56656],[0.1356,51.56665],[0.13695,51.56706],[0.13759,51.56321],[0.13668,51.56317],[0.13644,51.56278]]]}},{"type":"Feature","properties":{"id":"E01000100","name":"E01000100","parent":"E09000002","type":"LSOA","pop":1958,"r":717,"ff":334,"ffd":17058.2,"ffs":0.531,"g":83,"co":0,"mo":0,"sa":0,"ic":0},"geometry":{"type":"Polygon","coordinates":[[[0.14278,51.56072],[0.14331,51.56011],[0.14139,51.56017],[0.14077,51.55949],[0.13948,51.55937],[0.1395,51.55884],[0.14023,51.55863],[0.14059,51.55905],[0.1403,51.55911],[0.14127,51.55914],[0.14124,51.55852],[0.14041,51.55842],[0.13955,51.55787],[0.13957,51.55762],[0.14097,51.55761],[0.14137,51.55723],[0.14098,51.55701],[0.14142,51.55679],[0.14189,51.55704],[0.14237,51.55675],[0.1424,51.55575],[0.14038,51.55572],[0.14037,51.55623],[0.13961,51.55683],[0.13551,51.5575],[0.13606,51.55834],[0.13582,51.55903],[0.13447,51.55944],[0.13484,51.56022],[0.13435,51.56048],[0.13464,51.56079],[0.13622,51.56132],[0.13939,51.56133],[0.1433,51.56104],[0.14278,51.56072]]]}},{"type":"Feature","properties":{"id":"E01000101","name":"E01000101","parent":"E09000002","type":"LSOA","pop":1749,"r":696,"ff":324,"ffd":18524.9,"ffs":0.5355,"g":86,"co":0,"mo":0,"sa":0,"ic":0},"geometry":{"type":"Polygon","coordinates":[[[0.1479,51.56109],[0.14761,51.55859],[0.14698,51.55718],[0.14584,51.5576],[0.14534,51.55852],[0.14231,51.55844],[0.14237,51.55675],[0.14189,51.55704],[0.14142,51.55679],[0.14098,51.55701],[0.14137,51.55723],[0.14097,51.55761],[0.13957,51.55762],[0.13955,51.55787],[0.14041,51.55842],[0.14124,51.55852],[0.14127,51.55914],[0.1403,51.55911],[0.14059,51.55905],[0.14023,51.55863],[0.1395,51.55884],[0.13948,51.55937],[0.14077,51.55949],[0.14139,51.56017],[0.14331,51.56011],[0.14278,51.56072],[0.1433,51.56104],[0.1479,51.56109]]]}},{"type":"Feature","properties":{"id":"E01000102","name":"E01000102","parent":"E09000002","type":"LSOA","pop":1903,"r":716,"ff":335,"ffd":17603.8,"ffs":0.5351,"g":85,"co":0,"mo":0,"sa":0,"ic":0},"geometry":{"type":"Polygon","coordinates":[[[0.13606,51.55834],[0.13551,51.5575],[0.13961,51.55683],[0.14037,51.55623],[0.14038,51.55572],[0.12716,51.55561],[0.12771,51.55675],[0.12699,51.55787],[0.12848,51.55807],[0.12897,51.55767],[0.1286,51.55743],[0.12786,51.55762],[0.128,51.55708],[0.12952,51.55702],[0.12947,51.55818],[0.12998,51.5582],[0.12995,51.5587],[0.13072,51.55839],[0.13112,51.55843],[0.13115,51.55882],[0.13286,51.55897],[0.13259,51.55951],[0.13435,51.56048],[0.13484,51.56022],[0.13447,51.55944],[0.13582,51.55903],[0.13606,51.55834]]]}},{"type":"Feature","properties":{"id":"E01000103","name":"E01000103","parent":"E09000002","type":"LSOA","pop":1878,"r":525,"ff":244,"ffd":12992.5,"ffs":0.5374,"g":67,"co":0,"mo":0,"sa":0,"ic":0},"geometry":{"type":"Polygon","coordinates":[[[0.16259,51.53846],[0.16324,51.53744],[0.16422,51.53794],[0.16599,51.53723],[0.16725,51.53737],[0.16795,51.53809],[0.17318,51.53653],[0.17197,51.53494],[0.17174,51.53389],[0.16994,51.53207],[0.16601,51.5288],[0.164,51.53012],[0.16066,51.53319],[0.15858,51.53452],[0.159,51.5348],[0.15845,51.53515],[0.15563,51.53573],[0.15547,51.53826],[0.15815,51.53804],[0.15793,51.53716],[0.15958,51.53703],[0.16028,51.53765],[0.16018,51.53851],[0.16259,51.53846]]]}},{"type":"Feature","properties":{"id":"E01000104","name":"E01000104","parent":"E09000002","type":"LSOA","pop":1966,"r":547,"ff":255,"ffd":12970.5,"ffs":0.5403,"g":71,"co":0,"mo":0,"sa":0,"ic":0},"geometry":{"type":"Polygon","coordinates":[[[0.16901,51.54091],[0.16878,51.53974],[0.16792,51.53956],[0.16767,51.53906],[0.16841,51.53876],[0.16833,51.53838],[0.17001,51.53907],[0.17344,51.53863],[0.17452,51.53814],[0.17318,51.53653],[0.16795,51.53809],[0.16725,51.53737],[0.16599,51.53723],[0.16422,51.53794],[0.16324,51.53744],[0.16259,51.53846],[0.16328,51.53846],[0.16337,51.53879],[0.1632,51.53911],[0.16275,51.53905],[0.16245,51.53995],[0.16301,51.54012],[0.1629,51.54039],[0.16328,51.54066],[0.16538,51.5406],[0.16546,51.54144],[0.16901,51.54091]]]}},{"type":"Feature","properties":{"id":"E01000105","name":"E01000105","parent":"E09000002","type":"LSOA","pop":2407,"r":552,"ff":260,"ffd":10801.8,"ffs":0.5462,"g":72,"co":0,"mo":0,"sa":0,"ic":0},"geometry":{"type":"Polygon","coordinates":[[[0.15681,51.54162],[0.15699,51.5402],[0.1565,51.54019],[0.15642,51.54126],[0.15537,51.54109],[0.15543,51.54037],[0.15487,51.54039],[0.15482,51.54012],[0.15607,51.53989],[0.15592,51.53946],[0.15665,51.53945],[0.1567,51.53839],[0.15618,51.53818],[0.15547,51.53826],[0.15563,51.53573],[0.15428,51.53629],[0.15298,51.53632],[0.15295,51.53743],[0.15176,51.53712],[0.15125,51.53769],[0.1523,51.5382],[0.15293,51.5389],[0.15299,51.54008],[0.14817,51.54023],[0.14793,51.5416],[0.15722,51.54254],[0.15839,51.54221],[0.15831,51.54186],[0.15681,51.54162]]]}},{"type":"Feature","properties":{"id":"E01000106","name":"E01000106","parent":"E09000002","type":"LSOA","pop":2508,"r":531,"ff":249,"ffd":9928.2,"ffs":0.5413,"g":67,"co":0,"mo":0,"sa":0,"ic":0},"geometry":{"type":"Polygon","coordinates":[[[0.16301,51.54012],[0.16245,51.53995],[0.16275,51.53905],[0.1632,51.53911],[0.16337,51.53879],[0.16328,51.53846],[0.16018,51.53851],[0.16028,51.53765],[0.15958,51.53703],[0.15793,51.53716],[0.15815,51.53804],[0.15618,51.53818],[0.1567,51.53839],[0.15665,51.53945],[0.15592,51.53946],[0.15607,51.53989],[0.15482,51.54012],[0.15487,51.54039],[0.15543,51.54037],[0.15537,51.54109],[0.15642,51.54126],[0.1565,51.54019],[0.15699,51.5402],[0.15681,51.54162],[0.15831,51.54186],[0.15839,51.54221],[0.15722,51.54254],[0.16067,51.54314],[0.16126,51.54219],[0.16233,51.54142],[0.16161,51.54109],[0.16326,51.54097],[0.16328,51.54066],[0.1629,51.54039],[0.16301,51.54012]]]}},{"type":"Feature","properties":{"id":"E01000107","name":"E01000107","parent":"E09000002","type":"LSOA","pop":1860,"r":491,"ff":228,"ffd":12258.1,"ffs":0.539,"g":64,"co":0,"mo":0,"sa":0,"ic":0},"geometry":{"type":"Polygon","coordinates":[[[0.17953,51.54096],[0.17898,51.54017],[0.17452,51.53814],[0.17344,51.53863],[0.17001,51.53907],[0.16833,51.53838],[0.16841,51.53876],[0.16767,51.53906],[0.16792,51.53956],[0.16878,51.53974],[0.16901,51.54091],[0.16546,51.54144],[0.16546,51.54166],[0.1663,51.54188],[0.1687,51.54162],[0.16997,51.54103],[0.17065,51.54134],[0.1707,51.54232],[0.17257,51.54237],[0.17215,51.54421],[0.17264,51.54522],[0.18602,51.54754],[0.18561,51.54716],[0.18235,51.54566],[0.18048,51.54412],[0.17967,51.54264],[0.17953,51.54096]]]}},{"type":"Feature","properties":{"id":"E01000108","name":"E01000108","parent":"E09000002","type":"LSOA","pop":2020,"r":586,"ff":274,"ffd":13564.4,"ffs":0.5404,"g":75,"co":0,"mo":0,"sa":0,"ic":0},"geometry":{"type":"Polygon","coordinates":[[[0.1707,51.54232],[0.17065,51.54134],[0.16997,51.54103],[0.1687,51.54162],[0.1663,51.54188],[0.16546,51.54166],[0.16538,51.5406],[0.16328,51.54066],[0.16326,51.54097],[0.16161,51.54109],[0.16233,51.54142],[0.16126,51.54219],[0.16067,51.54314],[0.17264,51.54522],[0.17215,51.54421],[0.17257,51.54237],[0.1707,51.54232]]]}},{"type":"Feature","properties":{"id":"E01000110","name":"E01000110","parent":"E09000002","type":"LSOA","pop":1790,"r":706,"ff":312,"ffd":17430.2,"ffs":0.514,"g":95,"co":0,"mo":0,"sa":0,"ic":0},"geometry":{"type":"Polygon","coordinates":[[[0.14814,51.57562],[0.14793,51.57313],[0.14899,51.57323],[0.14932,51.57027],[0.14978,51.5697],[0.14814,51.56955],[0.14836,51.56998],[0.1453,51.57132],[0.1453,51.57222],[0.1445,51.5726],[0.14483,51.57279],[0.14436,51.57423],[0.14348,51.57448],[0.14253,51.57312],[0.14153,51.57426],[0.14142,51.57473],[0.14184,51.57477],[0.14199,51.57531],[0.14357,51.57565],[0.14402,51.5755],[0.14814,51.57562]]]}},{"type":"Feature","properties":{"id":"E01000111","name":"E01000111","parent":"E09000002","type":"LSOA","pop":2325,"r":749,"ff":332,"ffd":14279.6,"ffs":0.5139,"g":98,"co":0,"mo":0,"sa":0,"ic":0},"geometry":{"type":"Polygon","coordinates":[[[0.14856,51.56695],[0.14777,51.56649],[0.1471,51.56639],[0.1469,51.56668],[0.14603,51.56655],[0.14664,51.56474],[0.14541,51.5647],[0.14481,51.56558],[0.14242,51.56619],[0.14341,51.56752],[0.13995,51.5678],[0.14089,51.56833],[0.14076,51.56952],[0.14189,51.56962],[0.14162,51.57096],[0.1429,51.57105],[0.14289,51.57193],[0.14381,51.57203],[0.14393,51.57234],[0.14349,51.57245],[0.14253,51.57312],[0.14348,51.57448],[0.14436,51.57423],[0.14483,51.57279],[0.1445,51.5726],[0.1453,51.57222],[0.1453,51.57132],[0.14836,51.56998],[0.14814,51.56955],[0.14667,51.56942],[0.14679,51.56877],[0.14877,51.56862],[0.14931,51.56816],[0.14991,51.56807],[0.14926,51.56739],[0.1484,51.56739],[0.14856,51.56695]]]}},{"type":"Feature","properties":{"id":"E01000112","name":"E01000112","parent":"E09000002","type":"LSOA","pop":2190,"r":709,"ff":320,"ffd":14611.9,"ffs":0.5246,"g":94,"co":0,"mo":0,"sa":0,"ic":0},"geometry":{"type":"Polygon","coordinates":[[[0.14189,51.56962],[0.14076,51.56952],[0.14089,51.56833],[0.13995,51.5678],[0.13846,51.56775],[0.1356,51.56665],[0.12939,51.56653],[0.12975,51.56811],[0.13789,51.56872],[0.13753,51.56965],[0.13594,51.56958],[0.13583,51.56985],[0.13681,51.57019],[0.13711,51.57096],[0.13575,51.57172],[0.142,51.57225],[0.14117,51.57419],[0.14153,51.57426],[0.14253,51.57312],[0.14349,51.57245],[0.14393,51.57234],[0.14381,51.57203],[0.14289,51.57193],[0.1429,51.57105],[0.14162,51.57096],[0.14189,51.56962]]]}},{"type":"Feature","properties":{"id":"E01000113","name":"E01000113","parent":"E09000002","type":"LSOA","pop":2184,"r":696,"ff":316,"ffd":14468.9,"ffs":0.5284,"g":93,"co":0,"mo":0,"sa":0,"ic":0},"geometry":{"type":"Polygon","coordinates":[[[0.13583,51.56985],[0.13594,51.56958],[0.13753,51.56965],[0.13789,51.56872],[0.12975,51.56811],[0.12976,51.56792],[0.1297,51.5681],[0.12976,51.5689],[0.13049,51.57049],[0.13005,51.57076],[0.13575,51.57172],[0.13711,51.57096],[0.13681,51.57019],[0.13583,51.56985]]]}},{"type":"Feature","properties":{"id":"E01000114","name":"E01000114","parent":"E09000002","type":"LSOA","pop":2552,"r":682,"ff":307,"ffd":12029.8,"ffs":0.5221,"g":89,"co":0,"mo":0,"sa":0,"ic":0},"geometry":{"type":"Polygon","coordinates":[[[0.14991,51.56807],[0.15078,51.56778],[0.1515,51.56798],[0.15441,51.56607],[0.15046,51.5656],[0.15001,51.56138],[0.1479,51.56109],[0.14385,51.56101],[0.1439,51.56172],[0.14489,51.56163],[0.14543,51.56256],[0.14585,51.56388],[0.14541,51.5647],[0.14664,51.56474],[0.14603,51.56655],[0.1469,51.56668],[0.1471,51.56639],[0.14777,51.56649],[0.14856,51.56695],[0.1484,51.56739],[0.14926,51.56739],[0.14991,51.56807]]]}},{"type":"Feature","properties":{"id":"E01032580","name":"E01032580","parent":"E09000002","type":"LSOA","pop":1727,"r":693,"ff":325,"ffd":18818.8,"ffs":0.5381,"g":84,"co":0,"mo":0,"sa":0,"ic":0},"geometry":{"type":"Polygon","coordinates":[[[0.1245,51.5618],[0.12517,51.56016],[0.12435,51.56046],[0.12311,51.56021],[0.12275,51.56055],[0.12226,51.56033],[0.12179,51.56064],[0.1213,51.56036],[0.12002,51.56083],[0.11952,51.56054],[0.11862,51.56079],[0.11978,51.56249],[0.1189,51.56273],[0.11906,51.56307],[0.12481,51.56417],[0.12395,51.56192],[0.1245,51.5618]]]}},{"type":"Feature","properties":{"id":"E01033587","name":"E01033587","parent":"E09000002","type":"LSOA","pop":4148,"r":721,"ff":329,"ffd":7931.5,"ffs":0.5117,"g":74,"co":0,"mo":2,"sa":0,"ic":0},"geometry":{"type":"MultiPolygon","coordinates":[[[[0.07556,51.53024],[0.07574,51.52972],[0.07541,51.52989],[0.07283,51.52941],[0.07266,51.53123],[0.07138,51.53351],[0.06968,51.53615],[0.06861,51.53622],[0.07104,51.53713],[0.07294,51.53451],[0.07289,51.53349],[0.07534,51.5312],[0.07556,51.53024]]],[[[0.07504,51.534],[0.07619,51.53361],[0.07873,51.53447],[0.07859,51.53304],[0.07895,51.5325],[0.07942,51.53229],[0.07926,51.53188],[0.07729,51.53111],[0.07788,51.53058],[0.07686,51.53032],[0.07693,51.52977],[0.0764,51.52982],[0.07548,51.53191],[0.07396,51.5332],[0.07435,51.53378],[0.07337,51.53426],[0.07131,51.53723],[0.07353,51.53756],[0.07504,51.534]]]]}},{"type":"Feature","properties":{"id":"E01034469","name":"E01034469","parent":"E09000002","type":"LSOA","pop":1921,"r":705,"ff":328,"ffd":17074.4,"ffs":0.5351,"g":87,"co":0,"mo":0,"sa":0,"ic":0},"geometry":{"type":"Polygon","coordinates":[[[0.14541,51.5647],[0.14585,51.56388],[0.14543,51.56256],[0.14489,51.56163],[0.1439,51.56172],[0.14386,51.56151],[0.14274,51.56138],[0.14288,51.56207],[0.14345,51.56217],[0.14323,51.5643],[0.14066,51.56428],[0.14018,51.56322],[0.13923,51.56333],[0.13948,51.56293],[0.13644,51.56278],[0.13668,51.56317],[0.13759,51.56321],[0.13695,51.56706],[0.13846,51.56775],[0.13995,51.5678],[0.14341,51.56752],[0.14242,51.56619],[0.14481,51.56558],[0.14541,51.5647]]]}},{"type":"Feature","properties":{"id":"E01034470","name":"E01034470","parent":"E09000002","type":"LSOA","pop":1612,"r":698,"ff":326,"ffd":20223.3,"ffs":0.5353,"g":84,"co":0,"mo":0,"sa":0,"ic":0},"geometry":{"type":"Polygon","coordinates":[[[0.14318,51.56367],[0.14345,51.56217],[0.14288,51.56207],[0.14274,51.56138],[0.14386,51.56151],[0.14385,51.56101],[0.13939,51.56133],[0.13621,51.56134],[0.13644,51.56278],[0.13948,51.56293],[0.13923,51.56333],[0.14018,51.56322],[0.14066,51.56428],[0.14323,51.5643],[0.14318,51.56367]]]}},{"type":"Feature","properties":{"id":"E01034471","name":"E01034471","parent":"E09000002","type":"LSOA","pop":2663,"r":713,"ff":319,"ffd":11979.0,"ffs":0.5145,"g":87,"co":0,"mo":0,"sa":0,"ic":0},"geometry":{"type":"Polygon","coordinates":[[[0.11404,51.55399],[0.11406,51.55355],[0.11479,51.55359],[0.11498,51.55317],[0.11444,51.55276],[0.11388,51.55154],[0.1145,51.5512],[0.11444,51.55077],[0.11635,51.55037],[0.11639,51.55003],[0.11609,51.54975],[0.11448,51.55],[0.11402,51.55044],[0.11363,51.54926],[0.11087,51.54976],[0.11104,51.55073],[0.11084,51.55069],[0.11065,51.55106],[0.1096,51.55106],[0.10956,51.55085],[0.11021,51.5508],[0.11,51.54983],[0.10925,51.54973],[0.10924,51.55057],[0.10637,51.55108],[0.10742,51.55192],[0.10834,51.55222],[0.10845,51.55268],[0.11189,51.55261],[0.11343,51.5543],[0.11404,51.55399]]]}},{"type":"Feature","properties":{"id":"E01034472","name":"E01034472","parent":"E09000002","type":"LSOA","pop":2017,"r":702,"ff":322,"ffd":15964.3,"ffs":0.5236,"g":83,"co":0,"mo":0,"sa":0,"ic":0},"geometry":{"type":"Polygon","coordinates":[[[0.11065,51.55106],[0.11084,51.55069],[0.11104,51.55073],[0.11087,51.54976],[0.11363,51.54926],[0.11358,51.54889],[0.10921,51.54958],[0.10694,51.54955],[0.10621,51.55096],[0.10637,51.55108],[0.10924,51.55057],[0.10925,51.54973],[0.11,51.54983],[0.11021,51.5508],[0.10956,51.55085],[0.1096,51.55106],[0.11065,51.55106]]]}},{"type":"Feature","properties":{"id":"E01034473","name":"E01034473","parent":"E09000002","type":"LSOA","pop":1573,"r":559,"ff":268,"ffd":17037.5,"ffs":0.5481,"g":66,"co":0,"mo":2,"sa":0,"ic":0},"geometry":{"type":"Polygon","coordinates":[[[0.07754,51.53974],[0.07805,51.53934],[0.07871,51.53961],[0.08066,51.53875],[0.08136,51.53931],[0.08294,51.5383],[0.08552,51.53704],[0.08254,51.5357],[0.08124,51.53547],[0.08053,51.5363],[0.07967,51.53692],[0.0798,51.53716],[0.0786,51.5372],[0.07811,51.53757],[0.07741,51.53745],[0.07699,51.53788],[0.07738,51.53801],[0.07654,51.53864],[0.07773,51.53916],[0.07699,51.53953],[0.07754,51.53974]]]}},{"type":"Feature","properties":{"id":"E01034474","name":"E01034474","parent":"E09000002","type":"LSOA","pop":2374,"r":693,"ff":323,"ffd":13605.7,"ffs":0.5235,"g":72,"co":0,"mo":2,"sa":0,"ic":0},"geometry":{"type":"Polygon","coordinates":[[[0.07525,51.5395],[0.07553,51.5384],[0.07654,51.53864],[0.07738,51.53801],[0.07699,51.53788],[0.07741,51.53745],[0.07811,51.53757],[0.0786,51.5372],[0.0798,51.53716],[0.07967,51.53692],[0.08053,51.5363],[0.08124,51.53547],[0.07619,51.53361],[0.07504,51.534],[0.07353,51.53756],[0.07133,51.53724],[0.07256,51.53769],[0.07204,51.5384],[0.07194,51.53896],[0.073,51.53913],[0.07307,51.53879],[0.07364,51.53887],[0.07525,51.5395]]]}},{"type":"Feature","properties":{"id":"E01034475","name":"E01034475","parent":"E09000002","type":"LSOA","pop":1943,"r":528,"ff":253,"ffd":13021.1,"ffs":0.5512,"g":65,"co":0,"mo":2,"sa":0,"ic":0},"geometry":{"type":"Polygon","coordinates":[[[0.09886,51.53026],[0.09975,51.52995],[0.10095,51.53],[0.1017,51.52912],[0.09699,51.52852],[0.09761,51.52828],[0.09725,51.52782],[0.09641,51.52768],[0.09654,51.52736],[0.09713,51.52739],[0.0968,51.52712],[0.0973,51.52675],[0.09815,51.52692],[0.09878,51.5263],[0.09865,51.52528],[0.09511,51.52506],[0.09638,51.52216],[0.09362,51.52194],[0.09283,51.52263],[0.09328,51.52469],[0.09217,51.52673],[0.09054,51.52609],[0.0898,51.52667],[0.08886,51.52686],[0.08578,51.52599],[0.08335,51.52711],[0.08102,51.52777],[0.08537,51.52885],[0.09855,51.53112],[0.09886,51.53026]]]}},{"type":"Feature","properties":{"id":"E01034476","name":"E01034476","parent":"E09000002","type":"LSOA","pop":1861,"r":383,"ff":187,"ffd":10048.4,"ffs":0.5736,"g":54,"co":0,"mo":2,"sa":0,"ic":0},"geometry":{"type":"Polygon","coordinates":[[[0.10827,51.52425],[0.10677,51.52359],[0.11032,51.52366],[0.11003,51.52313],[0.10847,51.52283],[0.10902,51.522],[0.10843,51.52185],[0.10689,51.52192],[0.10695,51.5226],[0.10583,51.52271],[0.10576,51.52185],[0.10423,51.52166],[0.10437,51.52229],[0.10281,51.52058],[0.10322,51.51957],[0.09834,51.51539],[0.09757,51.51586],[0.09718,51.51566],[0.09751,51.51589],[0.09562,51.51699],[0.09531,51.51891],[0.09574,51.52011],[0.09362,51.52194],[0.09638,51.52216],[0.09511,51.52506],[0.09865,51.52528],[0.09878,51.5263],[0.09944,51.52669],[0.09928,51.52712],[0.10258,51.52743],[0.10383,51.52619],[0.10393,51.52513],[0.10829,51.52499],[0.10827,51.52425]]]}},{"type":"Feature","properties":{"id":"E01034477","name":"E01034477","parent":"E09000002","type":"LSOA","pop":1621,"r":345,"ff":165,"ffd":10178.9,"ffs":0.5651,"g":50,"co":0,"mo":2,"sa":0,"ic":0},"geometry":{"type":"Polygon","coordinates":[[[0.11173,51.52291],[0.11118,51.51801],[0.11088,51.51792],[0.10848,51.51862],[0.10866,51.51904],[0.10801,51.51903],[0.10753,51.51981],[0.10774,51.52009],[0.10667,51.52043],[0.10649,51.52093],[0.10948,51.52102],[0.11013,51.52207],[0.10986,51.52231],[0.10917,51.52181],[0.10847,51.52283],[0.11003,51.52313],[0.11032,51.52366],[0.11127,51.52368],[0.11077,51.52348],[0.11133,51.52331],[0.11173,51.52291]]]}},{"type":"Feature","properties":{"id":"E01034478","name":"E01034478","parent":"E09000002","type":"LSOA","pop":1524,"r":324,"ff":157,"ffd":10301.8,"ffs":0.5772,"g":49,"co":0,"mo":2,"sa":0,"ic":0},"geometry":{"type":"Polygon","coordinates":[[[0.12234,51.52696],[0.12774,51.52608],[0.13142,51.52421],[0.1347,51.52338],[0.13364,51.51901],[0.1332,51.51908],[0.13243,51.51883],[0.12674,51.51957],[0.12265,51.51909],[0.11899,51.51815],[0.11429,51.51598],[0.11446,51.51574],[0.10883,51.51417],[0.10664,51.51395],[0.10179,51.51458],[0.10106,51.51445],[0.09906,51.51495],[0.09834,51.51539],[0.10322,51.51957],[0.10281,51.52058],[0.10437,51.52229],[0.10423,51.52166],[0.10576,51.52185],[0.10583,51.52271],[0.10695,51.5226],[0.10689,51.52192],[0.10843,51.52185],[0.10902,51.522],[0.10882,51.52229],[0.10917,51.52181],[0.10986,51.52231],[0.11013,51.52207],[0.10948,51.52102],[0.10649,51.52093],[0.10667,51.52043],[0.10774,51.52009],[0.10753,51.51981],[0.10801,51.51903],[0.10866,51.51904],[0.10848,51.51862],[0.11088,51.51792],[0.11469,51.51902],[0.11574,51.51994],[0.11716,51.52012],[0.11868,51.52134],[0.11972,51.52069],[0.12354,51.52144],[0.12406,51.52168],[0.12439,51.52267],[0.12636,51.52124],[0.12104,51.52659],[0.12171,51.52649],[0.12194,51.527],[0.12234,51.52696]]]}},{"type":"Feature","properties":{"id":"E01034479","name":"E01034479","parent":"E09000002","type":"LSOA","pop":2239,"r":710,"ff":324,"ffd":14470.7,"ffs":0.5159,"g":78,"co":0,"mo":2,"sa":0,"ic":0},"geometry":{"type":"Polygon","coordinates":[[[0.07998,51.53473],[0.08162,51.53303],[0.08218,51.53318],[0.08268,51.53273],[0.08379,51.53314],[0.08457,51.53251],[0.08373,51.53239],[0.08393,51.53178],[0.08549,51.53236],[0.08605,51.53225],[0.08684,51.53119],[0.08662,51.53089],[0.08525,51.53085],[0.08465,51.53131],[0.0846,51.53102],[0.08352,51.53074],[0.08303,51.53093],[0.08199,51.5304],[0.08144,51.53005],[0.0806,51.52804],[0.07809,51.52967],[0.07693,51.52977],[0.07686,51.53032],[0.07788,51.53058],[0.07729,51.53111],[0.07926,51.53188],[0.07942,51.53229],[0.07895,51.5325],[0.07859,51.53304],[0.07873,51.53447],[0.0798,51.53489],[0.07998,51.53473]]]}}]}