{"type":"FeatureCollection","features":[{"type":"Feature","properties":{"id":"E01000842","name":"E01000842","parent":"E09000007","type":"LSOA","pop":1476,"r":1192,"ff":406,"ffd":27506.8,"ffs":0.4064,"g":185,"co":0,"mo":0,"sa":0,"ic":0},"geometry":{"type":"Polygon","coordinates":[[[-0.16524,51.5473],[-0.16457,51.54709],[-0.16462,51.54609],[-0.16564,51.54627],[-0.16603,51.5459],[-0.16568,51.54515],[-0.16616,51.54509],[-0.16787,51.54554],[-0.16871,51.54528],[-0.16903,51.54617],[-0.17035,51.54662],[-0.17059,51.54622],[-0.17199,51.54657],[-0.17182,51.54736],[-0.17124,51.54776],[-0.16984,51.54738],[-0.16973,51.54785],[-0.16914,51.54769],[-0.16859,51.54797],[-0.16802,51.54782],[-0.16824,51.54744],[-0.16749,51.54716],[-0.16679,51.54807],[-0.16609,51.54817],[-0.16551,51.54894],[-0.16511,51.54884],[-0.16524,51.54838],[-0.16566,51.5479],[-0.16496,51.54768],[-0.16524,51.5473]]]}},{"type":"Feature","properties":{"id":"E01000843","name":"E01000843","parent":"E09000007","type":"LSOA","pop":1216,"r":1198,"ff":407,"ffd":33470.4,"ffs":0.4058,"g":187,"co":0,"mo":0,"sa":0,"ic":0},"geometry":{"type":"Polygon","coordinates":[[[-0.16173,51.54869],[-0.16005,51.54754],[-0.15805,51.54665],[-0.15945,51.54567],[-0.16025,51.5461],[-0.16024,51.54676],[-0.16068,51.5469],[-0.16284,51.54601],[-0.16367,51.54688],[-0.16398,51.54649],[-0.16345,51.546],[-0.16462,51.54682],[-0.16457,51.54709],[-0.16524,51.5473],[-0.16496,51.54768],[-0.16566,51.5479],[-0.16524,51.54838],[-0.164,51.54789],[-0.162,51.54889],[-0.16173,51.54869]]]}},{"type":"Feature","properties":{"id":"E01000844","name":"E01000844","parent":"E09000007","type":"LSOA","pop":1564,"r":1178,"ff":404,"ffd":25831.2,"ffs":0.4093,"g":184,"co":0,"mo":0,"sa":0,"ic":0},"geometry":{"type":"Polygon","coordinates":[[[-0.17199,51.54657],[-0.17059,51.54622],[-0.17035,51.54662],[-0.16903,51.54617],[-0.16871,51.54528],[-0.16787,51.54554],[-0.16616,51.54509],[-0.16699,51.54499],[-0.16689,51.54464],[-0.16745,51.54447],[-0.16985,51.54422],[-0.16973,51.54368],[-0.17184,51.5434],[-0.17196,51.54386],[-0.17127,51.54395],[-0.17144,51.54439],[-0.17221,51.54437],[-0.17257,51.54476],[-0.17324,51.54439],[-0.17305,51.54416],[-0.17489,51.54372],[-0.17493,51.54467],[-0.17331,51.54544],[-0.17271,51.54607],[-0.17249,51.54736],[-0.17195,51.54795],[-0.17124,51.54776],[-0.17182,51.54736],[-0.17199,51.54657]]]}},{"type":"Feature","properties":{"id":"E01000845","name":"E01000845","parent":"E09000007","type":"LSOA","pop":1604,"r":1235,"ff":413,"ffd":25748.1,"ffs":0.3979,"g":189,"co":0,"mo":0,"sa":0,"ic":0},"geometry":{"type":"Polygon","coordinates":[[[-0.16025,51.5461],[-0.15945,51.54567],[-0.16058,51.54487],[-0.15954,51.54381],[-0.16163,51.54371],[-0.16173,51.54404],[-0.16263,51.54417],[-0.1625,51.54331],[-0.16406,51.5431],[-0.16425,51.54438],[-0.16476,51.54432],[-0.16495,51.54481],[-0.16689,51.54464],[-0.16699,51.54499],[-0.16568,51.54515],[-0.16603,51.5459],[-0.16564,51.54627],[-0.16462,51.54609],[-0.16462,51.54682],[-0.16345,51.546],[-0.16398,51.54649],[-0.16367,51.54688],[-0.16284,51.54601],[-0.16068,51.5469],[-0.16024,51.54676],[-0.16025,51.5461]]]}},{"type":"Feature","properties":{"id":"E01000846","name":"E01000846","parent":"E09000007","type":"LSOA","pop":1481,"r":1259,"ff":416,"ffd":28089.1,"ffs":0.3939,"g":195,"co":0,"mo":0,"sa":0,"ic":0},"geometry":{"type":"Polygon","coordinates":[[[-0.16495,51.54481],[-0.16476,51.54432],[-0.16425,51.54438],[-0.16406,51.5431],[-0.1625,51.54331],[-0.16263,51.54417],[-0.16173,51.54404],[-0.16163,51.54371],[-0.16028,51.54378],[-0.16021,51.54282],[-0.16219,51.54235],[-0.16621,51.54205],[-0.16664,51.54365],[-0.16621,51.54371],[-0.16626,51.54412],[-0.16723,51.54404],[-0.16745,51.54447],[-0.16495,51.54481]]]}},{"type":"Feature","properties":{"id":"E01000847","name":"E01000847","parent":"E09000007","type":"LSOA","pop":1611,"r":1022,"ff":359,"ffd":22284.3,"ffs":0.4264,"g":173,"co":0,"mo":0,"sa":0,"ic":0},"geometry":{"type":"Polygon","coordinates":[[[-0.17257,51.54476],[-0.17221,51.54437],[-0.17144,51.54439],[-0.17127,51.54395],[-0.17196,51.54386],[-0.17184,51.5434],[-0.16973,51.54368],[-0.16985,51.54422],[-0.16745,51.54447],[-0.16723,51.54404],[-0.16626,51.54412],[-0.16621,51.54371],[-0.16664,51.54365],[-0.16621,51.54205],[-0.16991,51.5417],[-0.17133,51.54213],[-0.17324,51.54439],[-0.17257,51.54476]]]}},{"type":"Feature","properties":{"id":"E01000848","name":"E01000848","parent":"E09000007","type":"LSOA","pop":1479,"r":1163,"ff":396,"ffd":26774.8,"ffs":0.407,"g":183,"co":0,"mo":0,"sa":0,"ic":0},"geometry":{"type":"Polygon","coordinates":[[[-0.16811,51.55032],[-0.1676,51.55],[-0.16619,51.54972],[-0.16649,51.54953],[-0.1664,51.5493],[-0.16683,51.54937],[-0.16797,51.54873],[-0.1676,51.54853],[-0.16719,51.54877],[-0.16741,51.54843],[-0.16679,51.54807],[-0.16749,51.54716],[-0.16824,51.54744],[-0.16802,51.54782],[-0.16859,51.54797],[-0.16914,51.54769],[-0.16973,51.54785],[-0.16984,51.54738],[-0.17195,51.54795],[-0.17084,51.54867],[-0.17161,51.54925],[-0.17115,51.54964],[-0.16698,51.55197],[-0.16624,51.55145],[-0.16811,51.55032]]]}},{"type":"Feature","properties":{"id":"E01000849","name":"E01000849","parent":"E09000007","type":"LSOA","pop":1354,"r":1022,"ff":359,"ffd":26514.0,"ffs":0.4264,"g":173,"co":0,"mo":0,"sa":0,"ic":0},"geometry":{"type":"Polygon","coordinates":[[[-0.16436,51.55018],[-0.162,51.54889],[-0.164,51.54789],[-0.16524,51.54838],[-0.16511,51.54884],[-0.16551,51.54894],[-0.16609,51.54817],[-0.16661,51.54807],[-0.16741,51.54843],[-0.16719,51.54877],[-0.1676,51.54853],[-0.16797,51.54873],[-0.16683,51.54937],[-0.1664,51.5493],[-0.16649,51.54953],[-0.16619,51.54972],[-0.1676,51.55],[-0.16811,51.55032],[-0.16624,51.55145],[-0.16436,51.55018]]]}},{"type":"Feature","properties":{"id":"E01000850","name":"E01000850","parent":"E09000007","type":"LSOA","pop":1671,"r":1285,"ff":426,"ffd":25493.7,"ffs":0.3814,"g":162,"co":0,"mo":0,"sa":0,"ic":2},"geometry":{"type":"Polygon","coordinates":[[[-0.13123,51.52343],[-0.12924,51.52175],[-0.13017,51.52136],[-0.1289,51.52022],[-0.12729,51.52077],[-0.12716,51.52037],[-0.12787,51.51941],[-0.12867,51.51936],[-0.12908,51.51991],[-0.12959,51.5197],[-0.12921,51.51931],[-0.13024,51.51936],[-0.13133,51.51832],[-0.13163,51.5186],[-0.1321,51.51839],[-0.13082,51.5171],[-0.13245,51.51672],[-0.13266,51.51722],[-0.1336,51.51773],[-0.13403,51.51756],[-0.13523,51.51893],[-0.13583,51.5187],[-0.1361,51.51896],[-0.13553,51.51903],[-0.13591,51.5193],[-0.13519,51.51959],[-0.13544,51.51982],[-0.13472,51.51977],[-0.13506,51.52027],[-0.13418,51.52046],[-0.13458,51.52083],[-0.13426,51.52095],[-0.13303,51.52074],[-0.1325,51.52097],[-0.13367,51.52204],[-0.13323,51.52222],[-0.13364,51.5226],[-0.13409,51.52243],[-0.13485,51.52313],[-0.13428,51.52335],[-0.13396,51.52299],[-0.13346,51.52323],[-0.13294,51.52233],[-0.13176,51.5228],[-0.13123,51.52343]]]}},{"type":"Feature","properties":{"id":"E01000851","name":"E01000851","parent":"E09000007","type":"LSOA","pop":1891,"r":1291,"ff":422,"ffd":22316.2,"ffs":0.3809,"g":177,"co":0,"mo":0,"sa":0,"ic":2},"geometry":{"type":"Polygon","coordinates":[[[-0.14081,51.52439],[-0.13993,51.52407],[-0.13968,51.5243],[-0.13817,51.52429],[-0.1389,51.52385],[-0.13909,51.52404],[-0.14011,51.52367],[-0.13977,51.52334],[-0.1391,51.52352],[-0.13863,51.5231],[-0.13923,51.52284],[-0.1378,51.52283],[-0.13756,51.52262],[-0.13801,51.52242],[-0.1375,51.52196],[-0.13814,51.52176],[-0.13778,51.52142],[-0.13676,51.52187],[-0.13622,51.52135],[-0.13521,51.52152],[-0.13418,51.52046],[-0.13506,51.52027],[-0.13472,51.51977],[-0.13544,51.51982],[-0.13519,51.51959],[-0.13591,51.5193],[-0.13553,51.51903],[-0.13696,51.5189],[-0.14268,51.52372],[-0.1435,51.52395],[-0.14081,51.52439]]]}},{"type":"Feature","properties":{"id":"E01000853","name":"E01000853","parent":"E09000007","type":"LSOA","pop":1421,"r":1499,"ff":486,"ffd":34201.3,"ffs":0.369,"g":178,"co":0,"mo":0,"sa":0,"ic":0},"geometry":{"type":"Polygon","coordinates":[[[-0.12333,51.52544],[-0.12231,51.52376],[-0.12414,51.52327],[-0.12427,51.5235],[-0.12537,51.52357],[-0.12582,51.52412],[-0.12595,51.52491],[-0.12727,51.52464],[-0.12751,51.52486],[-0.12554,51.5257],[-0.12371,51.5261],[-0.12333,51.52544]]]}},{"type":"Feature","properties":{"id":"E01000855","name":"E01000855","parent":"E09000007","type":"LSOA","pop":2008,"r":1627,"ff":512,"ffd":25498.0,"ffs":0.3585,"g":194,"co":0,"mo":0,"sa":0,"ic":0},"geometry":{"type":"Polygon","coordinates":[[[-0.13097,51.52499],[-0.12978,51.5239],[-0.1289,51.52426],[-0.12702,51.52282],[-0.1271,51.52231],[-0.1258,51.52281],[-0.12654,51.5235],[-0.12625,51.52362],[-0.12549,51.52372],[-0.12537,51.52357],[-0.12427,51.5235],[-0.12414,51.52327],[-0.12231,51.52376],[-0.12183,51.52299],[-0.12499,51.52216],[-0.12219,51.51991],[-0.12672,51.518],[-0.12763,51.51779],[-0.12691,51.51691],[-0.13037,51.51638],[-0.13079,51.51708],[-0.1321,51.51839],[-0.13163,51.5186],[-0.13133,51.51832],[-0.13024,51.51936],[-0.12921,51.51931],[-0.12959,51.5197],[-0.12908,51.51991],[-0.12867,51.51936],[-0.12787,51.51941],[-0.12716,51.52037],[-0.12729,51.52077],[-0.1289,51.52022],[-0.13017,51.52136],[-0.12924,51.52175],[-0.13123,51.52343],[-0.13217,51.52356],[-0.1312,51.52393],[-0.13145,51.52417],[-0.13265,51.52362],[-0.13304,51.524],[-0.13206,51.52474],[-0.13097,51.52499]]]}},{"type":"Feature","properties":{"id":"E01000856","name":"E01000856","parent":"E09000007","type":"LSOA","pop":1571,"r":1258,"ff":436,"ffd":27753.0,"ffs":0.406,"g":177,"co":0,"mo":0,"sa":0,"ic":0},"geometry":{"type":"Polygon","coordinates":[[[-0.14153,51.54518],[-0.14161,51.54279],[-0.14108,51.54335],[-0.13996,51.54358],[-0.1392,51.54275],[-0.13949,51.54218],[-0.1403,51.54202],[-0.14027,51.54156],[-0.14067,51.54143],[-0.14013,51.54078],[-0.13915,51.54168],[-0.13857,51.54161],[-0.13906,51.54109],[-0.13869,51.54088],[-0.1406,51.5398],[-0.14147,51.54043],[-0.14222,51.54032],[-0.14209,51.54108],[-0.14332,51.54142],[-0.14328,51.5422],[-0.14419,51.54218],[-0.14389,51.54247],[-0.14421,51.54325],[-0.14329,51.54333],[-0.14271,51.54298],[-0.14232,51.54315],[-0.14256,51.54383],[-0.14367,51.54389],[-0.1441,51.54492],[-0.14453,51.54451],[-0.14484,51.54473],[-0.14537,51.5441],[-0.14526,51.5449],[-0.14417,51.54528],[-0.14153,51.54518]]]}},{"type":"Feature","properties":{"id":"E01000857","name":"E01000857","parent":"E09000007","type":"LSOA","pop":1307,"r":1266,"ff":428,"ffd":32746.7,"ffs":0.3996,"g":187,"co":0,"mo":0,"sa":0,"ic":0},"geometry":{"type":"Polygon","coordinates":[[[-0.15751,51.54029],[-0.15982,51.54029],[-0.1616,51.54144],[-0.16219,51.54235],[-0.16021,51.54282],[-0.15579,51.54282],[-0.15594,51.54245],[-0.15743,51.54199],[-0.1584,51.54101],[-0.15753,51.54059],[-0.15751,51.54029]]]}},{"type":"Feature","properties":{"id":"E01000858","name":"E01000858","parent":"E09000007","type":"LSOA","pop":1887,"r":1186,"ff":411,"ffd":21780.6,"ffs":0.4049,"g":164,"co":0,"mo":0,"sa":0,"ic":0},"geometry":{"type":"Polygon","coordinates":[[[-0.14526,51.5449],[-0.14537,51.5441],[-0.14484,51.54473],[-0.14453,51.54451],[-0.1441,51.54492],[-0.14367,51.54389],[-0.14256,51.54383],[-0.14232,51.54315],[-0.14271,51.54298],[-0.14329,51.54333],[-0.14421,51.54325],[-0.14389,51.54247],[-0.14419,51.54218],[-0.14416,51.54172],[-0.14513,51.54136],[-0.14586,51.54177],[-0.14784,51.54127],[-0.1477,51.54102],[-0.14834,51.54084],[-0.14785,51.53986],[-0.14939,51.53968],[-0.14967,51.53992],[-0.15005,51.53976],[-0.15152,51.54049],[-0.15105,51.54077],[-0.15516,51.54274],[-0.15474,51.54334],[-0.15268,51.54384],[-0.14733,51.54251],[-0.14574,51.5437],[-0.14641,51.54548],[-0.14417,51.54528],[-0.14526,51.5449]]]}},{"type":"Feature","properties":{"id":"E01000859","name":"E01000859","parent":"E09000007","type":"LSOA","pop":1457,"r":1385,"ff":469,"ffd":32189.4,"ffs":0.3908,"g":177,"co":0,"mo":0,"sa":0,"ic":0},"geometry":{"type":"Polygon","coordinates":[[[-0.15283,51.54155],[-0.15105,51.54077],[-0.15248,51.53957],[-0.1534,51.53996],[-0.15404,51.53938],[-0.15378,51.53912],[-0.15315,51.53918],[-0.15336,51.53879],[-0.1549,51.53924],[-0.15412,51.53986],[-0.15524,51.54078],[-0.15478,51.54122],[-0.15523,51.54141],[-0.15609,51.54092],[-0.15606,51.5401],[-0.15678,51.5399],[-0.15705,51.54033],[-0.15751,51.54029],[-0.15753,51.54059],[-0.1584,51.54101],[-0.15743,51.54199],[-0.15594,51.54245],[-0.15579,51.54282],[-0.15516,51.54274],[-0.15283,51.54155]]]}},{"type":"Feature","properties":{"id":"E01000860","name":"E01000860","parent":"E09000007","type":"LSOA","pop":1130,"r":1385,"ff":469,"ffd":41504.4,"ffs":0.3908,"g":177,"co":0,"mo":0,"sa":0,"ic":0},"geometry":{"type":"Polygon","coordinates":[[[-0.15412,51.53986],[-0.1549,51.53924],[-0.15336,51.53879],[-0.15315,51.53918],[-0.15378,51.53912],[-0.15404,51.53938],[-0.1534,51.53996],[-0.15192,51.53932],[-0.15265,51.53819],[-0.15169,51.53858],[-0.15216,51.53754],[-0.15464,51.53736],[-0.15942,51.53636],[-0.16164,51.53823],[-0.15982,51.54029],[-0.15705,51.54033],[-0.15678,51.5399],[-0.15606,51.5401],[-0.15609,51.54092],[-0.15523,51.54141],[-0.15478,51.54122],[-0.15524,51.54078],[-0.15412,51.53986]]]}},{"type":"Feature","properties":{"id":"E01000861","name":"E01000861","parent":"E09000007","type":"LSOA","pop":1483,"r":1243,"ff":427,"ffd":28793.0,"ffs":0.4006,"g":170,"co":0,"mo":0,"sa":0,"ic":0},"geometry":{"type":"Polygon","coordinates":[[[-0.13866,51.54212],[-0.13618,51.53914],[-0.13996,51.53756],[-0.14116,51.53723],[-0.14192,51.53807],[-0.14147,51.53869],[-0.14183,51.53903],[-0.14197,51.53989],[-0.1414,51.53999],[-0.14167,51.53939],[-0.14008,51.53999],[-0.13869,51.54088],[-0.13906,51.54109],[-0.13857,51.54161],[-0.13915,51.54168],[-0.14013,51.54078],[-0.14067,51.54143],[-0.14027,51.54156],[-0.1403,51.54202],[-0.13949,51.54218],[-0.1392,51.54275],[-0.13866,51.54212]]]}},{"type":"Feature","properties":{"id":"E01000862","name":"E01000862","parent":"E09000007","type":"LSOA","pop":1719,"r":1346,"ff":465,"ffd":27050.6,"ffs":0.4019,"g":181,"co":0,"mo":0,"sa":0,"ic":0},"geometry":{"type":"Polygon","coordinates":[[[-0.14594,51.53972],[-0.14549,51.539],[-0.14653,51.53755],[-0.14657,51.53707],[-0.14622,51.53675],[-0.1468,51.53615],[-0.14915,51.5371],[-0.15216,51.53754],[-0.15169,51.53858],[-0.15265,51.53819],[-0.15192,51.53932],[-0.15248,51.53957],[-0.15146,51.54046],[-0.15005,51.53976],[-0.14967,51.53992],[-0.14939,51.53968],[-0.14785,51.53986],[-0.14834,51.54084],[-0.1477,51.54102],[-0.14784,51.54127],[-0.14626,51.54156],[-0.14572,51.54104],[-0.14619,51.54077],[-0.14513,51.54061],[-0.14471,51.54019],[-0.14538,51.54009],[-0.14594,51.53972]]]}},{"type":"Feature","properties":{"id":"E01000863","name":"E01000863","parent":"E09000007","type":"LSOA","pop":1523,"r":1266,"ff":436,"ffd":28627.7,"ffs":0.4004,"g":169,"co":0,"mo":0,"sa":0,"ic":0},"geometry":{"type":"Polygon","coordinates":[[[-0.14332,51.54142],[-0.14209,51.54108],[-0.14222,51.54032],[-0.14147,51.54043],[-0.1406,51.5398],[-0.14167,51.53939],[-0.1414,51.53999],[-0.14197,51.53989],[-0.14183,51.53903],[-0.14147,51.53869],[-0.14192,51.53807],[-0.14116,51.53723],[-0.14368,51.53643],[-0.14622,51.53675],[-0.14657,51.53707],[-0.14653,51.53755],[-0.14549,51.539],[-0.14594,51.53972],[-0.14538,51.54009],[-0.14471,51.54019],[-0.14513,51.54061],[-0.14619,51.54077],[-0.14572,51.54104],[-0.14626,51.54156],[-0.14586,51.54177],[-0.14513,51.54136],[-0.14416,51.54172],[-0.14419,51.54218],[-0.14328,51.5422],[-0.14332,51.54142]]]}},{"type":"Feature","properties":{"id":"E01000866","name":"E01000866","parent":"E09000007","type":"LSOA","pop":2231,"r":1218,"ff":411,"ffd":18422.2,"ffs":0.3967,"g":175,"co":0,"mo":0,"sa":0,"ic":0},"geometry":{"type":"Polygon","coordinates":[[[-0.13811,51.54747],[-0.13808,51.54708],[-0.14012,51.54724],[-0.14025,51.54666],[-0.13546,51.54627],[-0.13541,51.54652],[-0.13498,51.54649],[-0.13536,51.54514],[-0.13601,51.54501],[-0.13588,51.54482],[-0.13688,51.54417],[-0.13768,51.5446],[-0.13857,51.54396],[-0.13798,51.54369],[-0.13809,51.54333],[-0.13922,51.54356],[-0.13979,51.54339],[-0.13996,51.54358],[-0.14108,51.54335],[-0.14161,51.54279],[-0.14153,51.54518],[-0.14171,51.54674],[-0.14144,51.54757],[-0.13811,51.54747]]]}},{"type":"Feature","properties":{"id":"E01000867","name":"E01000867","parent":"E09000007","type":"LSOA","pop":1766,"r":1348,"ff":448,"ffd":25368.1,"ffs":0.3872,"g":183,"co":0,"mo":0,"sa":0,"ic":0},"geometry":{"type":"Polygon","coordinates":[[[-0.13637,51.54419],[-0.1354,51.54372],[-0.13587,51.54332],[-0.1345,51.54265],[-0.13404,51.54297],[-0.13369,51.54262],[-0.13584,51.54199],[-0.1354,51.54161],[-0.13756,51.54089],[-0.13979,51.54339],[-0.13922,51.54356],[-0.13809,51.54333],[-0.13798,51.54369],[-0.13857,51.54396],[-0.13768,51.5446],[-0.13688,51.54417],[-0.13588,51.54482],[-0.13637,51.54419]]]}},{"type":"Feature","properties":{"id":"E01000868","name":"E01000868","parent":"E09000007","type":"LSOA","pop":1775,"r":1279,"ff":427,"ffd":24056.3,"ffs":0.3875,"g":170,"co":0,"mo":0,"sa":0,"ic":0},"geometry":{"type":"Polygon","coordinates":[[[-0.12863,51.54248],[-0.1259,51.54293],[-0.12506,51.54113],[-0.13068,51.54113],[-0.13145,51.54303],[-0.13069,51.54312],[-0.12911,51.54428],[-0.12865,51.5441],[-0.12919,51.54364],[-0.12921,51.54327],[-0.12863,51.54248]]]}},{"type":"Feature","properties":{"id":"E01000869","name":"E01000869","parent":"E09000007","type":"LSOA","pop":1985,"r":1266,"ff":425,"ffd":21410.6,"ffs":0.3935,"g":178,"co":0,"mo":0,"sa":0,"ic":0},"geometry":{"type":"Polygon","coordinates":[[[-0.12902,51.54892],[-0.12699,51.54729],[-0.12777,51.54689],[-0.12734,51.54614],[-0.12754,51.54589],[-0.12916,51.54481],[-0.12956,51.54502],[-0.12925,51.54545],[-0.13003,51.54527],[-0.13029,51.54542],[-0.13092,51.54518],[-0.13149,51.54545],[-0.1319,51.54516],[-0.13223,51.54535],[-0.13166,51.54616],[-0.13301,51.54691],[-0.13252,51.54724],[-0.13311,51.54813],[-0.13131,51.54837],[-0.1305,51.54786],[-0.12902,51.54892]]]}},{"type":"Feature","properties":{"id":"E01000870","name":"E01000870","parent":"E09000007","type":"LSOA","pop":1558,"r":1184,"ff":414,"ffd":26572.5,"ffs":0.4115,"g":170,"co":0,"mo":0,"sa":0,"ic":0},"geometry":{"type":"Polygon","coordinates":[[[-0.13252,51.54724],[-0.13301,51.54691],[-0.13231,51.54654],[-0.13357,51.54564],[-0.13443,51.54644],[-0.13541,51.54652],[-0.13546,51.54627],[-0.14025,51.54666],[-0.14012,51.54724],[-0.13808,51.54708],[-0.13811,51.54747],[-0.14144,51.54757],[-0.14106,51.54883],[-0.13506,51.54843],[-0.13311,51.54813],[-0.13252,51.54724]]]}},{"type":"Feature","properties":{"id":"E01000871","name":"E01000871","parent":"E09000007","type":"LSOA","pop":1550,"r":805,"ff":322,"ffd":20774.2,"ffs":0.4735,"g":122,"co":0,"mo":2,"sa":0,"ic":0},"geometry":{"type":"Polygon","coordinates":[[[-0.19551,51.55723],[-0.19567,51.5565],[-0.19622,51.55665],[-0.19669,51.55526],[-0.19681,51.55407],[-0.1987,51.55482],[-0.2018,51.55416],[-0.20203,51.55352],[-0.2024,51.55344],[-0.20256,51.55372],[-0.2033,51.55354],[-0.20227,51.55148],[-0.20533,51.55278],[-0.20895,51.55529],[-0.20958,51.55505],[-0.2087,51.55428],[-0.21049,51.55345],[-0.21098,51.55376],[-0.21036,51.55406],[-0.21053,51.5544],[-0.21004,51.55447],[-0.21077,51.55512],[-0.21,51.55547],[-0.21082,51.55647],[-0.20994,51.55677],[-0.20885,51.55574],[-0.20598,51.55644],[-0.20575,51.55529],[-0.19939,51.55619],[-0.19964,51.55698],[-0.1982,51.55895],[-0.19679,51.55919],[-0.19551,51.55723]]]}},{"type":"Feature","properties":{"id":"E01000872","name":"E01000872","parent":"E09000007","type":"LSOA","pop":1719,"r":817,"ff":332,"ffd":19313.6,"ffs":0.4826,"g":126,"co":0,"mo":2,"sa":0,"ic":0},"geometry":{"type":"Polygon","coordinates":[[[-0.21098,51.55376],[-0.21049,51.55345],[-0.2087,51.55428],[-0.20958,51.55505],[-0.20895,51.55529],[-0.20533,51.55278],[-0.20622,51.55236],[-0.20537,51.55183],[-0.20535,51.55093],[-0.20589,51.55077],[-0.20611,51.55095],[-0.20675,51.55067],[-0.20726,51.55119],[-0.20824,51.55099],[-0.21224,51.55387],[-0.21344,51.55515],[-0.21082,51.55647],[-0.21,51.55547],[-0.21077,51.55512],[-0.21004,51.55447],[-0.21053,51.5544],[-0.21036,51.55406],[-0.21098,51.55376]]]}},{"type":"Feature","properties":{"id":"E01000873","name":"E01000873","parent":"E09000007","type":"LSOA","pop":1619,"r":838,"ff":329,"ffd":20321.2,"ffs":0.4693,"g":133,"co":0,"mo":0,"sa":0,"ic":0},"geometry":{"type":"Polygon","coordinates":[[[-0.19681,51.55407],[-0.19869,51.55282],[-0.19813,51.55177],[-0.19913,51.55155],[-0.19876,51.55085],[-0.1996,51.55053],[-0.19871,51.54984],[-0.20056,51.55045],[-0.20082,51.55097],[-0.2014,51.55063],[-0.20149,51.55111],[-0.20116,51.55118],[-0.20227,51.55148],[-0.2033,51.55354],[-0.20256,51.55372],[-0.2024,51.55344],[-0.20203,51.55352],[-0.2018,51.55416],[-0.1987,51.55482],[-0.19681,51.55407]]]}},{"type":"Feature","properties":{"id":"E01000874","name":"E01000874","parent":"E09000007","type":"LSOA","pop":1481,"r":928,"ff":358,"ffd":24172.9,"ffs":0.4643,"g":153,"co":0,"mo":0,"sa":0,"ic":0},"geometry":{"type":"Polygon","coordinates":[[[-0.19068,51.55402],[-0.18876,51.55295],[-0.19185,51.5522],[-0.19702,51.55197],[-0.19813,51.55177],[-0.19839,51.55225],[-0.19685,51.55282],[-0.19657,51.55252],[-0.19707,51.55221],[-0.19569,51.55227],[-0.19635,51.55294],[-0.19577,51.553],[-0.19556,51.55368],[-0.19508,51.55344],[-0.19353,51.55334],[-0.19296,51.55398],[-0.19174,51.55414],[-0.1914,51.55442],[-0.19068,51.55402]]]}},{"type":"Feature","properties":{"id":"E01000875","name":"E01000875","parent":"E09000007","type":"LSOA","pop":1586,"r":822,"ff":326,"ffd":20554.9,"ffs":0.4752,"g":133,"co":0,"mo":2,"sa":0,"ic":0},"geometry":{"type":"Polygon","coordinates":[[[-0.20149,51.55111],[-0.2014,51.55063],[-0.20159,51.55041],[-0.20241,51.55051],[-0.20247,51.55015],[-0.20299,51.54972],[-0.20196,51.54825],[-0.20314,51.54842],[-0.20341,51.54889],[-0.20407,51.54876],[-0.20419,51.54842],[-0.20531,51.54848],[-0.20824,51.55099],[-0.20726,51.55119],[-0.20675,51.55067],[-0.20611,51.55095],[-0.20589,51.55077],[-0.20535,51.55093],[-0.20537,51.55183],[-0.20622,51.55236],[-0.20533,51.55278],[-0.20116,51.55118],[-0.20149,51.55111]]]}},{"type":"Feature","properties":{"id":"E01000876","name":"E01000876","parent":"E09000007","type":"LSOA","pop":2010,"r":776,"ff":305,"ffd":15174.1,"ffs":0.47,"g":123,"co":0,"mo":0,"sa":0,"ic":0},"geometry":{"type":"Polygon","coordinates":[[[-0.20056,51.55045],[-0.19871,51.54984],[-0.1996,51.55053],[-0.19876,51.55085],[-0.19808,51.54918],[-0.19762,51.54885],[-0.19808,51.54802],[-0.20111,51.54764],[-0.20372,51.54697],[-0.20531,51.54848],[-0.20419,51.54842],[-0.20407,51.54876],[-0.20341,51.54889],[-0.20314,51.54842],[-0.20196,51.54825],[-0.20299,51.54972],[-0.20247,51.55015],[-0.20241,51.55051],[-0.20159,51.55041],[-0.20082,51.55097],[-0.20056,51.55045]]]}},{"type":"Feature","properties":{"id":"E01000877","name":"E01000877","parent":"E09000007","type":"LSOA","pop":1607,"r":927,"ff":359,"ffd":22339.8,"ffs":0.4681,"g":155,"co":0,"mo":0,"sa":0,"ic":0},"geometry":{"type":"Polygon","coordinates":[[[-0.19551,51.55723],[-0.19301,51.55529],[-0.1914,51.55442],[-0.19174,51.55414],[-0.19296,51.55398],[-0.19353,51.55334],[-0.19508,51.55344],[-0.19556,51.55368],[-0.19577,51.553],[-0.19635,51.55294],[-0.19569,51.55227],[-0.19707,51.55221],[-0.19657,51.55252],[-0.19685,51.55282],[-0.19845,51.55225],[-0.19869,51.55282],[-0.19681,51.55407],[-0.19669,51.55526],[-0.19622,51.55665],[-0.19567,51.5565],[-0.19551,51.55723]]]}},{"type":"Feature","properties":{"id":"E01000878","name":"E01000878","parent":"E09000007","type":"LSOA","pop":1847,"r":938,"ff":353,"ffd":19112.1,"ffs":0.4549,"g":157,"co":0,"mo":0,"sa":0,"ic":0},"geometry":{"type":"Polygon","coordinates":[[[-0.19202,51.55715],[-0.19096,51.55675],[-0.19001,51.55786],[-0.18889,51.55747],[-0.1885,51.55772],[-0.18814,51.55787],[-0.18845,51.55771],[-0.18815,51.55776],[-0.18799,51.55707],[-0.18702,51.55676],[-0.18946,51.55551],[-0.18907,51.55471],[-0.18681,51.5535],[-0.18734,51.55337],[-0.18738,51.5526],[-0.18876,51.55295],[-0.19301,51.55529],[-0.19551,51.55723],[-0.19578,51.5577],[-0.19445,51.55911],[-0.19137,51.55792],[-0.19202,51.55715]]]}},{"type":"Feature","properties":{"id":"E01000879","name":"E01000879","parent":"E09000007","type":"LSOA","pop":1224,"r":949,"ff":340,"ffd":27777.8,"ffs":0.4348,"g":161,"co":0,"mo":0,"sa":0,"ic":0},"geometry":{"type":"Polygon","coordinates":[[[-0.18252,51.5543],[-0.18265,51.55452],[-0.18215,51.55493],[-0.1824,51.55531],[-0.18223,51.55577],[-0.18146,51.5555],[-0.18111,51.5574],[-0.18062,51.55748],[-0.18067,51.55655],[-0.17996,51.55658],[-0.17988,51.55697],[-0.17931,51.55714],[-0.17918,51.5567],[-0.17861,51.55673],[-0.1786,51.55564],[-0.1783,51.55517],[-0.17589,51.55306],[-0.17676,51.55303],[-0.17731,51.55255],[-0.17633,51.55219],[-0.17681,51.55126],[-0.17776,51.55163],[-0.17917,51.55139],[-0.17921,51.55006],[-0.18015,51.55006],[-0.18072,51.55225],[-0.18155,51.55333],[-0.18071,51.55361],[-0.18206,51.55431],[-0.18252,51.5543]]]}},{"type":"Feature","properties":{"id":"E01000880","name":"E01000880","parent":"E09000007","type":"LSOA","pop":1447,"r":990,"ff":372,"ffd":25708.4,"ffs":0.4542,"g":165,"co":0,"mo":0,"sa":0,"ic":0},"geometry":{"type":"Polygon","coordinates":[[[-0.18252,51.5543],[-0.18206,51.55431],[-0.18071,51.55361],[-0.18155,51.55333],[-0.18072,51.55225],[-0.18064,51.55192],[-0.18371,51.55081],[-0.18596,51.55227],[-0.18738,51.5526],[-0.18734,51.55337],[-0.18681,51.5535],[-0.18907,51.55471],[-0.18946,51.55551],[-0.18851,51.55525],[-0.18712,51.55595],[-0.18554,51.55593],[-0.18382,51.55548],[-0.18327,51.55572],[-0.18334,51.55607],[-0.18281,51.55607],[-0.18286,51.55531],[-0.1824,51.55531],[-0.18215,51.55493],[-0.18265,51.55452],[-0.18252,51.5543]]]}},{"type":"Feature","properties":{"id":"E01000881","name":"E01000881","parent":"E09000007","type":"LSOA","pop":1450,"r":964,"ff":338,"ffd":23310.3,"ffs":0.4214,"g":155,"co":0,"mo":0,"sa":0,"ic":0},"geometry":{"type":"Polygon","coordinates":[[[-0.17584,51.55169],[-0.17414,51.55073],[-0.17413,51.55001],[-0.17497,51.55015],[-0.175,51.54972],[-0.17675,51.54937],[-0.1768,51.54889],[-0.1777,51.54922],[-0.17842,51.54911],[-0.17832,51.54872],[-0.17771,51.54864],[-0.17844,51.54861],[-0.1792,51.54898],[-0.1792,51.54814],[-0.17959,51.54792],[-0.18065,51.5494],[-0.18142,51.54913],[-0.18224,51.54992],[-0.18371,51.55081],[-0.18064,51.55192],[-0.18015,51.55006],[-0.17921,51.55006],[-0.17917,51.55139],[-0.17776,51.55163],[-0.17681,51.55126],[-0.17633,51.55219],[-0.17731,51.55255],[-0.17676,51.55303],[-0.17589,51.55306],[-0.17584,51.55169]]]}},{"type":"Feature","properties":{"id":"E01000882","name":"E01000882","parent":"E09000007","type":"LSOA","pop":1401,"r":1137,"ff":398,"ffd":28408.3,"ffs":0.4181,"g":178,"co":0,"mo":0,"sa":0,"ic":0},"geometry":{"type":"Polygon","coordinates":[[[-0.17215,51.55001],[-0.17115,51.54964],[-0.17161,51.54925],[-0.17084,51.54867],[-0.17195,51.54795],[-0.17267,51.54697],[-0.17502,51.54555],[-0.17552,51.54545],[-0.17575,51.54597],[-0.1759,51.54949],[-0.175,51.54972],[-0.17497,51.55015],[-0.17413,51.55001],[-0.17414,51.55073],[-0.17215,51.55001]]]}},{"type":"Feature","properties":{"id":"E01000883","name":"E01000883","parent":"E09000007","type":"LSOA","pop":1701,"r":1022,"ff":359,"ffd":21105.2,"ffs":0.4264,"g":173,"co":0,"mo":0,"sa":0,"ic":0},"geometry":{"type":"Polygon","coordinates":[[[-0.17585,51.54927],[-0.17575,51.54597],[-0.17552,51.54545],[-0.17502,51.54555],[-0.17267,51.54697],[-0.17271,51.54607],[-0.17331,51.54544],[-0.17493,51.54467],[-0.17499,51.54369],[-0.17571,51.54453],[-0.17889,51.54619],[-0.18142,51.54913],[-0.18065,51.5494],[-0.17959,51.54792],[-0.1792,51.54814],[-0.1792,51.54898],[-0.17844,51.54861],[-0.17771,51.54864],[-0.17832,51.54872],[-0.17842,51.54911],[-0.1777,51.54922],[-0.1768,51.54889],[-0.17675,51.54937],[-0.1759,51.54949],[-0.17585,51.54927]]]}},{"type":"Feature","properties":{"id":"E01000884","name":"E01000884","parent":"E09000007","type":"LSOA","pop":1447,"r":940,"ff":354,"ffd":24464.4,"ffs":0.4556,"g":158,"co":0,"mo":0,"sa":0,"ic":0},"geometry":{"type":"Polygon","coordinates":[[[-0.18731,51.56236],[-0.18737,51.56178],[-0.18676,51.56178],[-0.18685,51.56125],[-0.18901,51.55915],[-0.18872,51.55885],[-0.18832,51.5591],[-0.18765,51.55874],[-0.18761,51.55853],[-0.18814,51.55787],[-0.18889,51.55747],[-0.19001,51.55786],[-0.19096,51.55675],[-0.19202,51.55715],[-0.19137,51.55792],[-0.19445,51.55911],[-0.19578,51.5577],[-0.19679,51.55919],[-0.19691,51.5606],[-0.19456,51.56069],[-0.19245,51.56146],[-0.19089,51.56179],[-0.19035,51.56277],[-0.18731,51.56236]]]}},{"type":"Feature","properties":{"id":"E01000885","name":"E01000885","parent":"E09000007","type":"LSOA","pop":1242,"r":931,"ff":343,"ffd":27616.7,"ffs":0.4472,"g":158,"co":0,"mo":0,"sa":0,"ic":0},"geometry":{"type":"Polygon","coordinates":[[[-0.18477,51.5623],[-0.18327,51.56108],[-0.18155,51.559],[-0.17863,51.55674],[-0.17918,51.5567],[-0.17931,51.55714],[-0.17988,51.55697],[-0.17996,51.55658],[-0.18067,51.55655],[-0.18062,51.55748],[-0.18111,51.5574],[-0.18146,51.5555],[-0.18223,51.55577],[-0.1824,51.55531],[-0.18286,51.55531],[-0.18281,51.55607],[-0.18334,51.55607],[-0.18327,51.55572],[-0.18382,51.55548],[-0.18554,51.55593],[-0.18712,51.55595],[-0.18851,51.55525],[-0.18937,51.55555],[-0.18702,51.55676],[-0.18799,51.55707],[-0.18815,51.55776],[-0.18845,51.55771],[-0.18761,51.55853],[-0.18765,51.55874],[-0.18832,51.5591],[-0.18872,51.55885],[-0.18901,51.55915],[-0.18685,51.56125],[-0.18676,51.56178],[-0.18737,51.56178],[-0.18731,51.56236],[-0.18477,51.5623]]]}},{"type":"Feature","properties":{"id":"E01000886","name":"E01000886","parent":"E09000007","type":"LSOA","pop":1356,"r":1067,"ff":376,"ffd":27728.6,"ffs":0.4211,"g":166,"co":0,"mo":0,"sa":0,"ic":0},"geometry":{"type":"Polygon","coordinates":[[[-0.15205,51.55564],[-0.15073,51.55513],[-0.15109,51.55502],[-0.15055,51.55435],[-0.15382,51.55315],[-0.15449,51.55401],[-0.15542,51.5538],[-0.15561,51.55411],[-0.15611,51.55403],[-0.15688,51.55535],[-0.15658,51.55567],[-0.15853,51.55566],[-0.15859,51.55611],[-0.15563,51.55624],[-0.15205,51.55564]]]}},{"type":"Feature","properties":{"id":"E01000887","name":"E01000887","parent":"E09000007","type":"LSOA","pop":1352,"r":1154,"ff":405,"ffd":29955.6,"ffs":0.418,"g":178,"co":0,"mo":0,"sa":0,"ic":0},"geometry":{"type":"Polygon","coordinates":[[[-0.15988,51.55428],[-0.15918,51.55404],[-0.1591,51.55368],[-0.15987,51.55301],[-0.16149,51.55349],[-0.16184,51.55285],[-0.16233,51.55299],[-0.16282,51.55366],[-0.16498,51.55418],[-0.16549,51.55408],[-0.16613,51.55508],[-0.16258,51.55577],[-0.1587,51.5561],[-0.15906,51.55564],[-0.16081,51.55549],[-0.16041,51.55527],[-0.16058,51.55458],[-0.15988,51.55428]]]}},{"type":"Feature","properties":{"id":"E01000888","name":"E01000888","parent":"E09000007","type":"LSOA","pop":1401,"r":1088,"ff":382,"ffd":27266.2,"ffs":0.4184,"g":168,"co":0,"mo":0,"sa":0,"ic":0},"geometry":{"type":"Polygon","coordinates":[[[-0.15859,51.55611],[-0.15853,51.55566],[-0.15658,51.55567],[-0.15688,51.55535],[-0.15611,51.55403],[-0.15561,51.55411],[-0.15542,51.5538],[-0.15449,51.55401],[-0.15398,51.55333],[-0.15562,51.55295],[-0.15627,51.55335],[-0.1577,51.55308],[-0.15753,51.55273],[-0.15784,51.55265],[-0.15803,51.553],[-0.16007,51.55259],[-0.16003,51.55235],[-0.16088,51.55227],[-0.1612,51.55293],[-0.16066,51.55324],[-0.15987,51.55301],[-0.1591,51.55368],[-0.15918,51.55404],[-0.16058,51.55458],[-0.16041,51.55527],[-0.16081,51.55549],[-0.15906,51.55564],[-0.15859,51.55611]]]}},{"type":"Feature","properties":{"id":"E01000889","name":"E01000889","parent":"E09000007","type":"LSOA","pop":1728,"r":1049,"ff":371,"ffd":21469.9,"ffs":0.4216,"g":161,"co":0,"mo":0,"sa":0,"ic":0},"geometry":{"type":"Polygon","coordinates":[[[-0.14823,51.55324],[-0.14748,51.55174],[-0.14719,51.5488],[-0.14765,51.54896],[-0.14908,51.55011],[-0.14966,51.55084],[-0.1488,51.55108],[-0.14818,51.55035],[-0.14818,51.55092],[-0.14993,51.55178],[-0.15054,51.55254],[-0.14999,51.55267],[-0.15166,51.55269],[-0.15341,51.55194],[-0.15426,51.55264],[-0.15392,51.55275],[-0.15411,51.5533],[-0.15382,51.55315],[-0.15055,51.55435],[-0.15109,51.55502],[-0.15073,51.55513],[-0.14823,51.55324]]]}},{"type":"Feature","properties":{"id":"E01000890","name":"E01000890","parent":"E09000007","type":"LSOA","pop":1286,"r":1074,"ff":378,"ffd":29393.5,"ffs":0.4191,"g":165,"co":0,"mo":0,"sa":0,"ic":0},"geometry":{"type":"Polygon","coordinates":[[[-0.15575,51.55313],[-0.15562,51.55295],[-0.15411,51.5533],[-0.15392,51.55275],[-0.15426,51.55264],[-0.15341,51.55194],[-0.15331,51.55111],[-0.15409,51.5511],[-0.15423,51.55043],[-0.15684,51.55106],[-0.15746,51.55202],[-0.15806,51.55234],[-0.1595,51.55211],[-0.15951,51.55267],[-0.15803,51.553],[-0.15784,51.55265],[-0.15753,51.55273],[-0.1577,51.55308],[-0.15627,51.55335],[-0.15575,51.55313]]]}},{"type":"Feature","properties":{"id":"E01000891","name":"E01000891","parent":"E09000007","type":"LSOA","pop":1377,"r":1057,"ff":377,"ffd":27378.4,"ffs":0.4236,"g":160,"co":0,"mo":0,"sa":0,"ic":0},"geometry":{"type":"Polygon","coordinates":[[[-0.14993,51.55178],[-0.14818,51.55092],[-0.14818,51.55035],[-0.1488,51.55108],[-0.15086,51.55034],[-0.153,51.54921],[-0.15356,51.54995],[-0.15423,51.55043],[-0.15409,51.5511],[-0.15331,51.55111],[-0.15341,51.55194],[-0.15166,51.55269],[-0.14999,51.55267],[-0.15054,51.55254],[-0.14993,51.55178]]]}},{"type":"Feature","properties":{"id":"E01000892","name":"E01000892","parent":"E09000007","type":"LSOA","pop":1826,"r":1169,"ff":399,"ffd":21851.0,"ffs":0.408,"g":183,"co":0,"mo":0,"sa":0,"ic":0},"geometry":{"type":"Polygon","coordinates":[[[-0.1612,51.55293],[-0.16088,51.55227],[-0.16003,51.55235],[-0.16007,51.55259],[-0.15951,51.55267],[-0.1595,51.55211],[-0.15806,51.55234],[-0.15746,51.55202],[-0.15684,51.55106],[-0.15877,51.55068],[-0.15953,51.55033],[-0.15999,51.54933],[-0.16111,51.54877],[-0.16173,51.54869],[-0.16356,51.54971],[-0.16313,51.55006],[-0.16372,51.55038],[-0.16296,51.55116],[-0.16205,51.55156],[-0.16244,51.55256],[-0.16233,51.55299],[-0.16184,51.55285],[-0.16149,51.55349],[-0.16066,51.55324],[-0.1612,51.55293]]]}},{"type":"Feature","properties":{"id":"E01000893","name":"E01000893","parent":"E09000007","type":"LSOA","pop":1369,"r":930,"ff":332,"ffd":24251.3,"ffs":0.4306,"g":153,"co":0,"mo":0,"sa":0,"ic":0},"geometry":{"type":"Polygon","coordinates":[[[-0.15948,51.55675],[-0.15859,51.55611],[-0.16258,51.55577],[-0.16559,51.55521],[-0.16607,51.55559],[-0.16564,51.55594],[-0.16613,51.5563],[-0.16663,51.55594],[-0.16676,51.55674],[-0.17119,51.55948],[-0.17054,51.55982],[-0.17186,51.56046],[-0.17011,51.56122],[-0.17463,51.56301],[-0.17531,51.56363],[-0.17217,51.56511],[-0.16979,51.56504],[-0.16843,51.56401],[-0.16591,51.56306],[-0.16319,51.56063],[-0.16277,51.55958],[-0.16101,51.55839],[-0.15948,51.55675]]]}},{"type":"Feature","properties":{"id":"E01000894","name":"E01000894","parent":"E09000007","type":"LSOA","pop":1253,"r":1005,"ff":355,"ffd":28332.0,"ffs":0.4293,"g":171,"co":0,"mo":0,"sa":0,"ic":0},"geometry":{"type":"Polygon","coordinates":[[[-0.17011,51.56122],[-0.17186,51.56046],[-0.17054,51.55982],[-0.17119,51.55948],[-0.16676,51.55674],[-0.16663,51.55594],[-0.16921,51.55697],[-0.1692,51.55733],[-0.16948,51.55705],[-0.16963,51.55736],[-0.17293,51.55754],[-0.17354,51.55648],[-0.17317,51.55643],[-0.17366,51.55539],[-0.17274,51.55537],[-0.17262,51.55514],[-0.17382,51.55476],[-0.1737,51.55444],[-0.17297,51.55463],[-0.17389,51.55392],[-0.17462,51.55384],[-0.17534,51.55437],[-0.17498,51.55483],[-0.1753,51.55536],[-0.17526,51.55609],[-0.17605,51.55583],[-0.17732,51.55642],[-0.17565,51.55754],[-0.17541,51.55791],[-0.17448,51.55804],[-0.17262,51.55984],[-0.17339,51.56009],[-0.173,51.56043],[-0.17444,51.5609],[-0.17693,51.56089],[-0.17626,51.56149],[-0.17275,51.56224],[-0.17011,51.56122]]]}},{"type":"Feature","properties":{"id":"E01000895","name":"E01000895","parent":"E09000007","type":"LSOA","pop":1540,"r":955,"ff":340,"ffd":22077.9,"ffs":0.4315,"g":161,"co":0,"mo":0,"sa":0,"ic":0},"geometry":{"type":"Polygon","coordinates":[[[-0.17381,51.55865],[-0.17448,51.55804],[-0.17541,51.55791],[-0.17565,51.55754],[-0.17732,51.55642],[-0.17605,51.55583],[-0.17526,51.55609],[-0.1753,51.55536],[-0.17498,51.55483],[-0.17534,51.55437],[-0.17614,51.5545],[-0.17677,51.55387],[-0.1783,51.55517],[-0.1786,51.55564],[-0.17861,51.55673],[-0.17971,51.55772],[-0.17907,51.55804],[-0.17912,51.55771],[-0.17822,51.55791],[-0.17784,51.5576],[-0.1769,51.55786],[-0.17683,51.55836],[-0.17638,51.55817],[-0.17629,51.55863],[-0.17677,51.5587],[-0.17669,51.559],[-0.17625,51.55903],[-0.17616,51.55972],[-0.17492,51.55875],[-0.17381,51.55865]]]}},{"type":"Feature","properties":{"id":"E01000896","name":"E01000896","parent":"E09000007","type":"LSOA","pop":1451,"r":1067,"ff":376,"ffd":25913.2,"ffs":0.4249,"g":175,"co":0,"mo":0,"sa":0,"ic":0},"geometry":{"type":"Polygon","coordinates":[[[-0.16963,51.55736],[-0.16948,51.55705],[-0.1692,51.55733],[-0.16921,51.55697],[-0.16672,51.55593],[-0.16613,51.5563],[-0.16564,51.55594],[-0.16607,51.55559],[-0.16559,51.55521],[-0.16613,51.55508],[-0.16549,51.55408],[-0.16605,51.55396],[-0.16613,51.55429],[-0.16768,51.55424],[-0.16866,51.55485],[-0.17003,51.5547],[-0.17024,51.55374],[-0.17073,51.55397],[-0.17029,51.55429],[-0.17079,51.55473],[-0.17057,51.55494],[-0.17093,51.55525],[-0.17316,51.55355],[-0.17389,51.55392],[-0.17297,51.55463],[-0.1737,51.55444],[-0.17382,51.55476],[-0.17262,51.55514],[-0.17274,51.55537],[-0.17366,51.55539],[-0.17317,51.55643],[-0.17354,51.55648],[-0.17293,51.55754],[-0.16963,51.55736]]]}},{"type":"Feature","properties":{"id":"E01000897","name":"E01000897","parent":"E09000007","type":"LSOA","pop":1556,"r":1022,"ff":359,"ffd":23072.0,"ffs":0.4264,"g":173,"co":0,"mo":0,"sa":0,"ic":0},"geometry":{"type":"Polygon","coordinates":[[[-0.17073,51.55397],[-0.17024,51.55374],[-0.17003,51.5547],[-0.16866,51.55485],[-0.16768,51.55424],[-0.16613,51.55429],[-0.16605,51.55396],[-0.17213,51.55274],[-0.17172,51.55223],[-0.17081,51.55231],[-0.17014,51.55172],[-0.16973,51.55179],[-0.16965,51.55035],[-0.17115,51.54964],[-0.17414,51.55073],[-0.17584,51.55169],[-0.17589,51.55306],[-0.17677,51.55387],[-0.17614,51.5545],[-0.17534,51.55437],[-0.17462,51.55384],[-0.17389,51.55392],[-0.17316,51.55355],[-0.17093,51.55525],[-0.17057,51.55494],[-0.17079,51.55473],[-0.17029,51.55429],[-0.17073,51.55397]]]}},{"type":"Feature","properties":{"id":"E01000898","name":"E01000898","parent":"E09000007","type":"LSOA","pop":1710,"r":1057,"ff":369,"ffd":21578.9,"ffs":0.4169,"g":165,"co":0,"mo":0,"sa":0,"ic":0},"geometry":{"type":"Polygon","coordinates":[[[-0.16244,51.55256],[-0.16205,51.55156],[-0.16296,51.55116],[-0.16372,51.55038],[-0.16313,51.55006],[-0.16356,51.54971],[-0.16698,51.55197],[-0.16965,51.55035],[-0.16973,51.55179],[-0.17014,51.55172],[-0.17081,51.55231],[-0.17172,51.55223],[-0.17213,51.55274],[-0.16498,51.55418],[-0.16282,51.55366],[-0.16233,51.55299],[-0.16244,51.55256]]]}},{"type":"Feature","properties":{"id":"E01000899","name":"E01000899","parent":"E09000007","type":"LSOA","pop":1576,"r":960,"ff":352,"ffd":22335.0,"ffs":0.4422,"g":158,"co":0,"mo":0,"sa":0,"ic":0},"geometry":{"type":"Polygon","coordinates":[[[-0.17246,51.57004],[-0.17252,51.56684],[-0.16979,51.56504],[-0.17217,51.56511],[-0.17531,51.56363],[-0.17463,51.56301],[-0.17275,51.56224],[-0.17626,51.56149],[-0.17693,51.56089],[-0.17444,51.5609],[-0.173,51.56043],[-0.17339,51.56009],[-0.17262,51.55984],[-0.17385,51.55867],[-0.17492,51.55875],[-0.17616,51.55972],[-0.17625,51.55903],[-0.17669,51.559],[-0.17677,51.5587],[-0.17629,51.55863],[-0.17638,51.55817],[-0.17683,51.55836],[-0.1769,51.55786],[-0.17784,51.5576],[-0.17822,51.55791],[-0.17912,51.55771],[-0.17907,51.55804],[-0.17971,51.55772],[-0.18155,51.559],[-0.18327,51.56108],[-0.18477,51.5623],[-0.18731,51.56236],[-0.19035,51.56277],[-0.18982,51.56506],[-0.18699,51.56647],[-0.18379,51.5675],[-0.18354,51.56801],[-0.18081,51.56944],[-0.18095,51.56967],[-0.17829,51.57003],[-0.17805,51.57043],[-0.17427,51.5693],[-0.17344,51.5711],[-0.17265,51.57064],[-0.17246,51.57004]]]}},{"type":"Feature","properties":{"id":"E01000900","name":"E01000900","parent":"E09000007","type":"LSOA","pop":1598,"r":1097,"ff":386,"ffd":24155.2,"ffs":0.4187,"g":168,"co":0,"mo":0,"sa":0,"ic":0},"geometry":{"type":"Polygon","coordinates":[[[-0.15352,51.54991],[-0.153,51.54921],[-0.15283,51.54931],[-0.15236,51.54911],[-0.15198,51.54938],[-0.15091,51.54784],[-0.14976,51.54787],[-0.14972,51.54729],[-0.14918,51.54728],[-0.14866,51.54601],[-0.1504,51.54595],[-0.15072,51.54658],[-0.15112,51.54652],[-0.152,51.54776],[-0.15358,51.54754],[-0.15353,51.5471],[-0.15443,51.54707],[-0.15454,51.54662],[-0.15583,51.54629],[-0.15543,51.54751],[-0.15576,51.54756],[-0.15555,51.54884],[-0.1549,51.5489],[-0.15455,51.54983],[-0.15352,51.54991]]]}},{"type":"Feature","properties":{"id":"E01000901","name":"E01000901","parent":"E09000007","type":"LSOA","pop":1796,"r":1154,"ff":408,"ffd":22717.1,"ffs":0.418,"g":171,"co":0,"mo":0,"sa":0,"ic":0},"geometry":{"type":"Polygon","coordinates":[[[-0.14908,51.55011],[-0.14765,51.54896],[-0.14719,51.5488],[-0.14666,51.54639],[-0.14866,51.54601],[-0.14918,51.54728],[-0.14972,51.54729],[-0.14976,51.54787],[-0.15091,51.54784],[-0.15198,51.54938],[-0.15236,51.54911],[-0.15283,51.54931],[-0.14968,51.55086],[-0.14908,51.55011]]]}},{"type":"Feature","properties":{"id":"E01000902","name":"E01000902","parent":"E09000007","type":"LSOA","pop":1540,"r":980,"ff":338,"ffd":21948.1,"ffs":0.4112,"g":151,"co":0,"mo":0,"sa":0,"ic":0},"geometry":{"type":"Polygon","coordinates":[[[-0.15657,51.55003],[-0.15654,51.54961],[-0.15455,51.54983],[-0.1549,51.5489],[-0.15555,51.54884],[-0.15576,51.54756],[-0.15543,51.54751],[-0.15583,51.54629],[-0.15454,51.54662],[-0.15487,51.54579],[-0.15359,51.54584],[-0.15396,51.54448],[-0.15668,51.54618],[-0.15745,51.54647],[-0.15719,51.54708],[-0.15811,51.54753],[-0.15729,51.54756],[-0.15729,51.54791],[-0.15781,51.5479],[-0.15767,51.54994],[-0.15657,51.55003]]]}},{"type":"Feature","properties":{"id":"E01000903","name":"E01000903","parent":"E09000007","type":"LSOA","pop":1402,"r":1113,"ff":385,"ffd":27460.8,"ffs":0.4131,"g":173,"co":0,"mo":0,"sa":0,"ic":0},"geometry":{"type":"Polygon","coordinates":[[[-0.15423,51.55043],[-0.15356,51.54995],[-0.15654,51.54961],[-0.15657,51.55003],[-0.15767,51.54994],[-0.15781,51.5479],[-0.15729,51.54791],[-0.15729,51.54756],[-0.15811,51.54753],[-0.15719,51.54708],[-0.15745,51.54647],[-0.16005,51.54754],[-0.16173,51.54869],[-0.16111,51.54877],[-0.15999,51.54933],[-0.15953,51.55033],[-0.15877,51.55068],[-0.15684,51.55106],[-0.15423,51.55043]]]}},{"type":"Feature","properties":{"id":"E01000904","name":"E01000904","parent":"E09000007","type":"LSOA","pop":2007,"r":1154,"ff":401,"ffd":19980.1,"ffs":0.4084,"g":165,"co":0,"mo":0,"sa":0,"ic":0},"geometry":{"type":"Polygon","coordinates":[[[-0.14624,51.54493],[-0.14574,51.5437],[-0.14733,51.54251],[-0.15268,51.54384],[-0.15203,51.54453],[-0.15192,51.54492],[-0.15103,51.54516],[-0.14924,51.54459],[-0.14927,51.54563],[-0.14983,51.54567],[-0.14981,51.54596],[-0.14793,51.54609],[-0.14666,51.54639],[-0.14624,51.54493]]]}},{"type":"Feature","properties":{"id":"E01000905","name":"E01000905","parent":"E09000007","type":"LSOA","pop":2002,"r":1157,"ff":402,"ffd":20079.9,"ffs":0.4106,"g":170,"co":0,"mo":0,"sa":0,"ic":0},"geometry":{"type":"Polygon","coordinates":[[[-0.15157,51.54719],[-0.15112,51.54652],[-0.15072,51.54658],[-0.1504,51.54595],[-0.14981,51.54596],[-0.14983,51.54567],[-0.14927,51.54563],[-0.14924,51.54459],[-0.15103,51.54516],[-0.15192,51.54492],[-0.15203,51.54453],[-0.15269,51.54393],[-0.15396,51.54448],[-0.15359,51.54584],[-0.15487,51.54579],[-0.15443,51.54707],[-0.15353,51.5471],[-0.15358,51.54754],[-0.152,51.54776],[-0.15157,51.54719]]]}},{"type":"Feature","properties":{"id":"E01000906","name":"E01000906","parent":"E09000007","type":"LSOA","pop":1448,"r":1199,"ff":411,"ffd":28384.0,"ffs":0.4073,"g":182,"co":0,"mo":0,"sa":0,"ic":0},"geometry":{"type":"Polygon","coordinates":[[[-0.15497,51.54312],[-0.15516,51.54274],[-0.16021,51.54282],[-0.16028,51.54378],[-0.15954,51.54381],[-0.16058,51.54487],[-0.15805,51.54665],[-0.15745,51.54647],[-0.15269,51.54393],[-0.15474,51.54334],[-0.15497,51.54312]]]}},{"type":"Feature","properties":{"id":"E01000907","name":"E01000907","parent":"E09000007","type":"LSOA","pop":1399,"r":984,"ff":370,"ffd":26447.5,"ffs":0.4431,"g":142,"co":0,"mo":0,"sa":0,"ic":0},"geometry":{"type":"Polygon","coordinates":[[[-0.14134,51.5664],[-0.14077,51.56476],[-0.14082,51.56182],[-0.1416,51.56183],[-0.14231,51.56133],[-0.14263,51.56006],[-0.1437,51.56058],[-0.14295,51.56166],[-0.14337,51.56249],[-0.1426,51.56328],[-0.14166,51.56287],[-0.14117,51.5631],[-0.14152,51.56343],[-0.1435,51.56421],[-0.14397,51.56398],[-0.14518,51.56465],[-0.14458,51.56612],[-0.14291,51.56607],[-0.14134,51.5664]]]}},{"type":"Feature","properties":{"id":"E01000908","name":"E01000908","parent":"E09000007","type":"LSOA","pop":1541,"r":954,"ff":341,"ffd":22128.5,"ffs":0.4247,"g":143,"co":0,"mo":0,"sa":0,"ic":0},"geometry":{"type":"Polygon","coordinates":[[[-0.14656,51.56637],[-0.14653,51.56599],[-0.14458,51.56612],[-0.14518,51.56465],[-0.14397,51.56398],[-0.1435,51.56421],[-0.14152,51.56343],[-0.14117,51.5631],[-0.14166,51.56287],[-0.1426,51.56328],[-0.14337,51.56249],[-0.14295,51.56166],[-0.14369,51.5606],[-0.14422,51.56114],[-0.14432,51.56197],[-0.14476,51.56222],[-0.14511,51.56201],[-0.14561,51.56238],[-0.14444,51.5627],[-0.14433,51.56291],[-0.14503,51.56299],[-0.14634,51.56248],[-0.14908,51.562],[-0.14901,51.56286],[-0.14829,51.56303],[-0.14822,51.56393],[-0.14904,51.5638],[-0.14938,51.56467],[-0.14859,51.56479],[-0.14931,51.56595],[-0.14844,51.56737],[-0.14755,51.56665],[-0.14656,51.56637]]]}},{"type":"Feature","properties":{"id":"E01000909","name":"E01000909","parent":"E09000007","type":"LSOA","pop":1627,"r":931,"ff":339,"ffd":20835.9,"ffs":0.4352,"g":144,"co":0,"mo":0,"sa":0,"ic":0},"geometry":{"type":"Polygon","coordinates":[[[-0.14938,51.56467],[-0.14904,51.5638],[-0.14822,51.56393],[-0.14829,51.56303],[-0.14901,51.56286],[-0.14908,51.562],[-0.14634,51.56248],[-0.14503,51.56299],[-0.14433,51.56291],[-0.14444,51.5627],[-0.14561,51.56238],[-0.14511,51.56201],[-0.14476,51.56222],[-0.14432,51.56197],[-0.14422,51.56114],[-0.1437,51.56058],[-0.14539,51.56037],[-0.14833,51.55919],[-0.1488,51.55973],[-0.14862,51.56024],[-0.14919,51.56028],[-0.14984,51.56001],[-0.15062,51.56124],[-0.15447,51.561],[-0.15602,51.56178],[-0.15263,51.56209],[-0.15307,51.56277],[-0.15255,51.56336],[-0.15246,51.56323],[-0.15164,51.56338],[-0.15218,51.56418],[-0.15275,51.56413],[-0.15279,51.56459],[-0.15045,51.56496],[-0.1506,51.56541],[-0.14991,51.56555],[-0.14938,51.56467]]]}},{"type":"Feature","properties":{"id":"E01000910","name":"E01000910","parent":"E09000007","type":"LSOA","pop":1277,"r":933,"ff":343,"ffd":26859.8,"ffs":0.4353,"g":138,"co":0,"mo":0,"sa":0,"ic":0},"geometry":{"type":"Polygon","coordinates":[[[-0.14263,51.56006],[-0.14209,51.56002],[-0.14179,51.56043],[-0.14111,51.55957],[-0.14307,51.5588],[-0.14344,51.55843],[-0.14328,51.55827],[-0.14559,51.55693],[-0.14597,51.55701],[-0.14709,51.55638],[-0.14772,51.55658],[-0.14818,51.55617],[-0.14704,51.55718],[-0.14807,51.5582],[-0.14782,51.55833],[-0.14878,51.5588],[-0.14984,51.56001],[-0.14919,51.56028],[-0.14862,51.56024],[-0.1488,51.55973],[-0.14833,51.55919],[-0.14539,51.56037],[-0.1437,51.56058],[-0.14263,51.56006]]]}},{"type":"Feature","properties":{"id":"E01000911","name":"E01000911","parent":"E09000007","type":"LSOA","pop":1495,"r":979,"ff":366,"ffd":24481.6,"ffs":0.4388,"g":138,"co":0,"mo":0,"sa":0,"ic":0},"geometry":{"type":"Polygon","coordinates":[[[-0.14101,51.56043],[-0.13943,51.55826],[-0.14198,51.55754],[-0.14179,51.5573],[-0.14492,51.55622],[-0.14559,51.55693],[-0.14328,51.55827],[-0.14344,51.55843],[-0.14307,51.5588],[-0.14111,51.55957],[-0.14179,51.56043],[-0.14209,51.56002],[-0.14263,51.56006],[-0.14231,51.56133],[-0.1416,51.56183],[-0.14082,51.56182],[-0.14101,51.56043]]]}},{"type":"Feature","properties":{"id":"E01000912","name":"E01000912","parent":"E09000007","type":"LSOA","pop":1541,"r":984,"ff":351,"ffd":22777.4,"ffs":0.428,"g":157,"co":0,"mo":0,"sa":0,"ic":0},"geometry":{"type":"Polygon","coordinates":[[[-0.15602,51.56178],[-0.15447,51.561],[-0.15062,51.56124],[-0.14984,51.56001],[-0.14878,51.5588],[-0.14782,51.55833],[-0.14807,51.5582],[-0.14704,51.55718],[-0.14818,51.55617],[-0.14772,51.55658],[-0.14709,51.55638],[-0.14597,51.55701],[-0.14559,51.55693],[-0.14492,51.55622],[-0.14579,51.55592],[-0.14456,51.55442],[-0.14551,51.55404],[-0.14583,51.55448],[-0.14701,51.55458],[-0.14823,51.55324],[-0.15073,51.55513],[-0.15211,51.55566],[-0.15563,51.55624],[-0.15859,51.55611],[-0.15948,51.55675],[-0.16101,51.55839],[-0.16277,51.55958],[-0.16319,51.56063],[-0.16591,51.56306],[-0.15837,51.56681],[-0.15587,51.56523],[-0.15599,51.56428],[-0.1551,51.56329],[-0.1563,51.56208],[-0.15602,51.56178]]]}},{"type":"Feature","properties":{"id":"E01000913","name":"E01000913","parent":"E09000007","type":"LSOA","pop":1621,"r":955,"ff":341,"ffd":21036.4,"ffs":0.4268,"g":149,"co":0,"mo":0,"sa":0,"ic":0},"geometry":{"type":"Polygon","coordinates":[[[-0.16708,51.57298],[-0.16445,51.57251],[-0.1606,51.5728],[-0.15738,51.57211],[-0.1507,51.5716],[-0.14469,51.57015],[-0.14239,51.56912],[-0.14159,51.56751],[-0.14134,51.5664],[-0.14291,51.56607],[-0.14653,51.56599],[-0.14656,51.56637],[-0.14755,51.56665],[-0.14844,51.56737],[-0.14931,51.56595],[-0.14859,51.56479],[-0.14938,51.56467],[-0.14991,51.56555],[-0.1506,51.56541],[-0.15045,51.56496],[-0.15279,51.56459],[-0.15275,51.56413],[-0.15218,51.56418],[-0.15164,51.56338],[-0.15246,51.56323],[-0.15255,51.56336],[-0.15307,51.56277],[-0.15263,51.56209],[-0.15602,51.56178],[-0.1563,51.56208],[-0.1551,51.56329],[-0.15599,51.56428],[-0.15587,51.56523],[-0.15837,51.56681],[-0.16591,51.56306],[-0.16843,51.56401],[-0.17252,51.56684],[-0.17246,51.57004],[-0.17265,51.57064],[-0.17344,51.5711],[-0.17126,51.57243],[-0.16708,51.57298]]]}},{"type":"Feature","properties":{"id":"E01000914","name":"E01000914","parent":"E09000007","type":"LSOA","pop":1601,"r":1602,"ff":496,"ffd":30980.6,"ffs":0.3503,"g":182,"co":0,"mo":0,"sa":0,"ic":0},"geometry":{"type":"Polygon","coordinates":[[[-0.12137,51.52021],[-0.12098,51.51975],[-0.11902,51.52076],[-0.11861,51.52015],[-0.11704,51.52056],[-0.11721,51.5209],[-0.11651,51.52073],[-0.11252,51.52169],[-0.11255,51.52139],[-0.11146,51.52046],[-0.11248,51.52026],[-0.11219,51.51979],[-0.11251,51.51958],[-0.11128,51.51989],[-0.11107,51.51952],[-0.11046,51.51963],[-0.11025,51.51941],[-0.11056,51.51938],[-0.11065,51.5181],[-0.11382,51.51812],[-0.11153,51.51522],[-0.11379,51.51476],[-0.11466,51.51599],[-0.11854,51.5149],[-0.11956,51.5164],[-0.11829,51.51667],[-0.11828,51.51699],[-0.11981,51.51677],[-0.1204,51.51763],[-0.12126,51.5175],[-0.1223,51.51846],[-0.12277,51.51825],[-0.12383,51.51919],[-0.12219,51.51991],[-0.12499,51.52216],[-0.12077,51.52323],[-0.12044,51.52269],[-0.12092,51.52233],[-0.12086,51.52167],[-0.12175,51.52137],[-0.12078,51.5203],[-0.12137,51.52021]]]}},{"type":"Feature","properties":{"id":"E01000915","name":"E01000915","parent":"E09000007","type":"LSOA","pop":1531,"r":1603,"ff":499,"ffd":32593.1,"ffs":0.3536,"g":188,"co":0,"mo":0,"sa":0,"ic":0},"geometry":{"type":"Polygon","coordinates":[[[-0.11887,51.52113],[-0.11814,51.52125],[-0.11817,51.5219],[-0.11719,51.5221],[-0.11572,51.52092],[-0.11651,51.52073],[-0.11721,51.5209],[-0.11704,51.52056],[-0.11861,51.52015],[-0.11902,51.52076],[-0.12098,51.51975],[-0.12137,51.52021],[-0.12078,51.5203],[-0.12175,51.52137],[-0.12086,51.52167],[-0.12092,51.52233],[-0.12044,51.52269],[-0.12077,51.52323],[-0.11931,51.52357],[-0.11875,51.52236],[-0.11939,51.52216],[-0.11867,51.52148],[-0.11887,51.52113]]]}},{"type":"Feature","properties":{"id":"E01000916","name":"E01000916","parent":"E09000007","type":"LSOA","pop":1980,"r":1731,"ff":550,"ffd":27777.8,"ffs":0.3597,"g":193,"co":0,"mo":0,"sa":0,"ic":0},"geometry":{"type":"Polygon","coordinates":[[[-0.10861,51.52252],[-0.10824,51.52209],[-0.10702,51.52216],[-0.10594,51.52046],[-0.10532,51.51855],[-0.10743,51.51783],[-0.10915,51.51922],[-0.10948,51.52026],[-0.11004,51.52015],[-0.11015,51.52048],[-0.11,51.52048],[-0.10991,51.52125],[-0.11081,51.52128],[-0.1111,51.52168],[-0.1111,51.52122],[-0.11147,51.52116],[-0.1118,51.52183],[-0.11126,51.52193],[-0.11185,51.52241],[-0.11209,51.52216],[-0.11239,51.52228],[-0.11221,51.52365],[-0.10893,51.52299],[-0.10861,51.52252]]]}},{"type":"Feature","properties":{"id":"E01000917","name":"E01000917","parent":"E09000007","type":"LSOA","pop":1582,"r":1759,"ff":557,"ffd":35208.6,"ffs":0.3596,"g":201,"co":0,"mo":0,"sa":0,"ic":0},"geometry":{"type":"Polygon","coordinates":[[[-0.11239,51.52228],[-0.11209,51.52216],[-0.11185,51.52241],[-0.11126,51.52193],[-0.1118,51.52183],[-0.11147,51.52116],[-0.1111,51.52122],[-0.1111,51.52168],[-0.11081,51.52128],[-0.10991,51.52125],[-0.11,51.52048],[-0.11015,51.52048],[-0.11004,51.52015],[-0.10948,51.52026],[-0.10915,51.51922],[-0.10743,51.51783],[-0.11065,51.5181],[-0.11056,51.51938],[-0.11025,51.51941],[-0.11046,51.51963],[-0.11107,51.51952],[-0.11128,51.51989],[-0.11251,51.51958],[-0.11219,51.51979],[-0.11248,51.52026],[-0.11146,51.52046],[-0.11255,51.52139],[-0.11252,51.52169],[-0.11331,51.52152],[-0.11419,51.52266],[-0.11308,51.52298],[-0.11279,51.52268],[-0.11227,51.52253],[-0.11239,51.52228]]]}},{"type":"Feature","properties":{"id":"E01000918","name":"E01000918","parent":"E09000007","type":"LSOA","pop":1933,"r":1457,"ff":457,"ffd":23642.0,"ffs":0.359,"g":180,"co":0,"mo":0,"sa":0,"ic":2},"geometry":{"type":"Polygon","coordinates":[[[-0.12358,51.51897],[-0.12277,51.51825],[-0.1223,51.51846],[-0.12126,51.5175],[-0.1204,51.51763],[-0.11981,51.51677],[-0.11828,51.51699],[-0.11829,51.51667],[-0.11956,51.5164],[-0.11854,51.5149],[-0.11923,51.51452],[-0.12181,51.51481],[-0.12204,51.5146],[-0.12286,51.51511],[-0.12419,51.51427],[-0.12475,51.51495],[-0.12385,51.51543],[-0.12448,51.51567],[-0.12406,51.51598],[-0.12482,51.51683],[-0.12542,51.51663],[-0.12583,51.51705],[-0.12624,51.517],[-0.127,51.51795],[-0.12337,51.51941],[-0.12383,51.51919],[-0.12358,51.51897]]]}},{"type":"Feature","properties":{"id":"E01000919","name":"E01000919","parent":"E09000007","type":"LSOA","pop":1625,"r":1211,"ff":359,"ffd":22092.3,"ffs":0.3387,"g":147,"co":0,"mo":1,"sa":0,"ic":2},"geometry":{"type":"Polygon","coordinates":[[[-0.127,51.51795],[-0.12624,51.517],[-0.12583,51.51705],[-0.12542,51.51663],[-0.12482,51.51683],[-0.12406,51.51598],[-0.12448,51.51567],[-0.12385,51.51543],[-0.12475,51.51495],[-0.12419,51.51427],[-0.12762,51.51266],[-0.12899,51.51344],[-0.13015,51.51532],[-0.13037,51.51638],[-0.12691,51.51691],[-0.12763,51.51779],[-0.127,51.51795]]]}},{"type":"Feature","properties":{"id":"E01000920","name":"E01000920","parent":"E09000007","type":"LSOA","pop":2023,"r":1706,"ff":538,"ffd":26594.2,"ffs":0.3584,"g":201,"co":0,"mo":0,"sa":0,"ic":0},"geometry":{"type":"Polygon","coordinates":[[[-0.11221,51.52365],[-0.11227,51.52253],[-0.11279,51.52268],[-0.11308,51.52298],[-0.11419,51.52266],[-0.11331,51.52152],[-0.11572,51.52092],[-0.11719,51.5221],[-0.11817,51.5219],[-0.11814,51.52125],[-0.11885,51.52109],[-0.11867,51.52148],[-0.11939,51.52216],[-0.11875,51.52236],[-0.11931,51.52357],[-0.11589,51.52437],[-0.11485,51.52487],[-0.11418,51.52546],[-0.11348,51.52443],[-0.11221,51.52365]]]}},{"type":"Feature","properties":{"id":"E01000921","name":"E01000921","parent":"E09000007","type":"LSOA","pop":1847,"r":1053,"ff":380,"ffd":20573.9,"ffs":0.4265,"g":153,"co":0,"mo":0,"sa":0,"ic":0},"geometry":{"type":"Polygon","coordinates":[[[-0.13837,51.55686],[-0.13734,51.55558],[-0.13625,51.55497],[-0.13646,51.55469],[-0.13593,51.55432],[-0.13711,51.55388],[-0.13805,51.55443],[-0.13878,51.55406],[-0.13965,51.55403],[-0.14044,51.55298],[-0.14095,51.553],[-0.14043,51.55217],[-0.14077,51.55171],[-0.14018,51.55111],[-0.14016,51.55088],[-0.13931,51.55009],[-0.13748,51.54987],[-0.13754,51.54944],[-0.14086,51.54967],[-0.14066,51.55107],[-0.14113,51.55187],[-0.14117,51.55164],[-0.14202,51.5519],[-0.14247,51.55144],[-0.1428,51.55153],[-0.14234,51.55183],[-0.14265,51.55221],[-0.14186,51.55242],[-0.14168,51.55327],[-0.14105,51.55367],[-0.14122,51.55483],[-0.14197,51.55526],[-0.1405,51.55563],[-0.13966,51.55683],[-0.13917,51.55659],[-0.13861,51.55717],[-0.13837,51.55686]]]}},{"type":"Feature","properties":{"id":"E01000922","name":"E01000922","parent":"E09000007","type":"LSOA","pop":1846,"r":975,"ff":348,"ffd":18851.6,"ffs":0.4239,"g":146,"co":0,"mo":0,"sa":0,"ic":0},"geometry":{"type":"Polygon","coordinates":[[[-0.14582,51.55181],[-0.14309,51.55089],[-0.14203,51.5513],[-0.14069,51.55088],[-0.14133,51.5507],[-0.14106,51.55027],[-0.14146,51.5499],[-0.14097,51.54894],[-0.14092,51.54949],[-0.14039,51.5495],[-0.14036,51.54963],[-0.1385,51.5495],[-0.13858,51.54908],[-0.1374,51.54917],[-0.13657,51.54884],[-0.135,51.54877],[-0.13506,51.54843],[-0.14106,51.54883],[-0.14137,51.5478],[-0.14203,51.54761],[-0.14297,51.54856],[-0.14422,51.54853],[-0.14495,51.54784],[-0.14429,51.54732],[-0.14465,51.54722],[-0.14593,51.54812],[-0.14635,51.54782],[-0.1455,51.54687],[-0.1468,51.54709],[-0.14719,51.5488],[-0.14752,51.5519],[-0.14582,51.55181]]]}},{"type":"Feature","properties":{"id":"E01000923","name":"E01000923","parent":"E09000007","type":"LSOA","pop":1389,"r":1067,"ff":381,"ffd":27429.8,"ffs":0.4243,"g":160,"co":0,"mo":0,"sa":0,"ic":0},"geometry":{"type":"Polygon","coordinates":[[[-0.13559,51.55311],[-0.13585,51.55204],[-0.13527,51.55206],[-0.13524,51.55175],[-0.13782,51.55189],[-0.13767,51.55276],[-0.13809,51.5528],[-0.13862,51.55139],[-0.13794,51.55118],[-0.138,51.55085],[-0.14016,51.55088],[-0.14018,51.55111],[-0.14077,51.55171],[-0.14043,51.55217],[-0.14095,51.553],[-0.14044,51.55298],[-0.13965,51.55403],[-0.13878,51.55406],[-0.13805,51.55443],[-0.13711,51.55388],[-0.13701,51.55325],[-0.13559,51.55311]]]}},{"type":"Feature","properties":{"id":"E01000924","name":"E01000924","parent":"E09000007","type":"LSOA","pop":1512,"r":1157,"ff":404,"ffd":26719.6,"ffs":0.4114,"g":166,"co":0,"mo":0,"sa":0,"ic":0},"geometry":{"type":"Polygon","coordinates":[[[-0.13236,51.55227],[-0.13232,51.55175],[-0.13303,51.5517],[-0.13298,51.54994],[-0.13317,51.54934],[-0.13355,51.54977],[-0.1348,51.54991],[-0.13476,51.55077],[-0.13555,51.55079],[-0.13536,51.55093],[-0.13591,51.55126],[-0.13784,51.55143],[-0.13782,51.55189],[-0.13524,51.55175],[-0.13527,51.55206],[-0.13585,51.55204],[-0.13559,51.55311],[-0.13701,51.55325],[-0.13711,51.55388],[-0.13593,51.55432],[-0.13646,51.55469],[-0.13625,51.55497],[-0.13236,51.55227]]]}},{"type":"Feature","properties":{"id":"E01000925","name":"E01000925","parent":"E09000007","type":"LSOA","pop":1502,"r":1202,"ff":415,"ffd":27629.8,"ffs":0.4069,"g":173,"co":0,"mo":0,"sa":0,"ic":0},"geometry":{"type":"Polygon","coordinates":[[[-0.13784,51.55143],[-0.13591,51.55126],[-0.13536,51.55093],[-0.13555,51.55079],[-0.13476,51.55077],[-0.1348,51.54991],[-0.13355,51.54977],[-0.13262,51.54866],[-0.13336,51.54858],[-0.13426,51.54966],[-0.13491,51.54924],[-0.135,51.54877],[-0.13657,51.54884],[-0.1374,51.54917],[-0.13858,51.54908],[-0.1385,51.5495],[-0.13754,51.54944],[-0.13748,51.54987],[-0.13931,51.55009],[-0.14016,51.55088],[-0.138,51.55085],[-0.13794,51.55118],[-0.13862,51.55139],[-0.13809,51.5528],[-0.13767,51.55276],[-0.13784,51.55143]]]}},{"type":"Feature","properties":{"id":"E01000926","name":"E01000926","parent":"E09000007","type":"LSOA","pop":1467,"r":1210,"ff":414,"ffd":28220.9,"ffs":0.4031,"g":174,"co":0,"mo":0,"sa":0,"ic":0},"geometry":{"type":"Polygon","coordinates":[[[-0.12902,51.54892],[-0.1305,51.54786],[-0.13131,51.54837],[-0.13311,51.54813],[-0.13506,51.54843],[-0.13491,51.54924],[-0.13426,51.54966],[-0.13336,51.54858],[-0.13262,51.54866],[-0.13317,51.54934],[-0.13298,51.54994],[-0.13309,51.55094],[-0.13303,51.5517],[-0.13232,51.55175],[-0.13236,51.55227],[-0.13098,51.55149],[-0.13061,51.55049],[-0.12944,51.54906],[-0.12902,51.54892]]]}},{"type":"Feature","properties":{"id":"E01000927","name":"E01000927","parent":"E09000007","type":"LSOA","pop":1458,"r":975,"ff":348,"ffd":23868.3,"ffs":0.4239,"g":146,"co":0,"mo":0,"sa":0,"ic":0},"geometry":{"type":"Polygon","coordinates":[[[-0.14297,51.54856],[-0.14203,51.54761],[-0.14137,51.5478],[-0.14171,51.54674],[-0.14153,51.54518],[-0.14641,51.54548],[-0.1468,51.54709],[-0.1455,51.54687],[-0.14635,51.54782],[-0.14593,51.54812],[-0.14465,51.54722],[-0.14429,51.54732],[-0.14495,51.54784],[-0.14422,51.54853],[-0.14297,51.54856]]]}},{"type":"Feature","properties":{"id":"E01000928","name":"E01000928","parent":"E09000007","type":"LSOA","pop":1656,"r":960,"ff":346,"ffd":20893.7,"ffs":0.4261,"g":141,"co":0,"mo":0,"sa":0,"ic":0},"geometry":{"type":"MultiPolygon","coordinates":[[[[-0.14069,51.55088],[-0.14086,51.54967],[-0.14036,51.54963],[-0.14039,51.5495],[-0.14092,51.54949],[-0.14097,51.54894],[-0.14146,51.5499],[-0.14106,51.55027],[-0.14133,51.5507],[-0.14069,51.55088]]],[[[-0.14069,51.55088],[-0.14203,51.5513],[-0.14309,51.55089],[-0.14582,51.55181],[-0.14752,51.5519],[-0.14823,51.55324],[-0.14701,51.55458],[-0.14583,51.55448],[-0.14551,51.55404],[-0.14456,51.55442],[-0.14579,51.55592],[-0.14179,51.5573],[-0.14198,51.55754],[-0.13943,51.55826],[-0.13861,51.55717],[-0.13917,51.55659],[-0.13966,51.55683],[-0.1405,51.55563],[-0.14197,51.55526],[-0.14122,51.55483],[-0.14105,51.55367],[-0.14168,51.55327],[-0.14186,51.55242],[-0.14265,51.55221],[-0.14234,51.55183],[-0.1428,51.55153],[-0.14247,51.55144],[-0.14202,51.5519],[-0.14117,51.55164],[-0.14113,51.55187],[-0.14069,51.55088]]]]}},{"type":"Feature","properties":{"id":"E01000929","name":"E01000929","parent":"E09000007","type":"LSOA","pop":1907,"r":1036,"ff":367,"ffd":19244.9,"ffs":0.417,"g":150,"co":2,"mo":0,"sa":0,"ic":0},"geometry":{"type":"Polygon","coordinates":[[[-0.18816,51.54013],[-0.18787,51.53961],[-0.18731,51.53985],[-0.1865,51.53906],[-0.18543,51.53841],[-0.18439,51.53849],[-0.18413,51.53822],[-0.18465,51.53792],[-0.18761,51.53515],[-0.18829,51.53555],[-0.18776,51.53603],[-0.18891,51.53596],[-0.18887,51.53675],[-0.18949,51.53707],[-0.18912,51.53742],[-0.18785,51.53744],[-0.189,51.53802],[-0.18884,51.53843],[-0.18916,51.53909],[-0.18834,51.53942],[-0.18859,51.53971],[-0.18816,51.54013]]]}},{"type":"Feature","properties":{"id":"E01000930","name":"E01000930","parent":"E09000007","type":"LSOA","pop":2089,"r":1068,"ff":384,"ffd":18382.0,"ffs":0.4215,"g":151,"co":0,"mo":0,"sa":0,"ic":0},"geometry":{"type":"Polygon","coordinates":[[[-0.18916,51.53909],[-0.18884,51.53843],[-0.189,51.53802],[-0.18785,51.53744],[-0.18912,51.53742],[-0.18949,51.53707],[-0.18887,51.53675],[-0.18891,51.53596],[-0.18776,51.53603],[-0.18829,51.53555],[-0.18761,51.53515],[-0.18875,51.53453],[-0.19126,51.53611],[-0.19428,51.53875],[-0.19261,51.53947],[-0.19231,51.53916],[-0.19127,51.53918],[-0.19114,51.5387],[-0.1905,51.53885],[-0.19035,51.53983],[-0.18984,51.53973],[-0.19014,51.53913],[-0.18916,51.53909]]]}},{"type":"Feature","properties":{"id":"E01000931","name":"E01000931","parent":"E09000007","type":"LSOA","pop":2177,"r":889,"ff":343,"ffd":15755.6,"ffs":0.4592,"g":137,"co":0,"mo":0,"sa":0,"ic":0},"geometry":{"type":"Polygon","coordinates":[[[-0.19584,51.54315],[-0.19573,51.54236],[-0.196,51.54284],[-0.19777,51.54219],[-0.19733,51.5418],[-0.19496,51.54212],[-0.19437,51.54019],[-0.19489,51.53995],[-0.195,51.54028],[-0.19554,51.53985],[-0.20192,51.5453],[-0.19808,51.54631],[-0.19782,51.5463],[-0.19776,51.54597],[-0.19671,51.54593],[-0.19703,51.545],[-0.1964,51.54468],[-0.19642,51.54427],[-0.19584,51.54315]]]}},{"type":"Feature","properties":{"id":"E01000932","name":"E01000932","parent":"E09000007","type":"LSOA","pop":1772,"r":1007,"ff":380,"ffd":21444.7,"ffs":0.4476,"g":153,"co":0,"mo":0,"sa":0,"ic":0},"geometry":{"type":"Polygon","coordinates":[[[-0.19266,51.54423],[-0.19318,51.54238],[-0.19242,51.54152],[-0.19289,51.54128],[-0.1936,51.5414],[-0.19413,51.54234],[-0.19515,51.54236],[-0.19496,51.54212],[-0.19733,51.5418],[-0.19777,51.54219],[-0.196,51.54284],[-0.19573,51.54236],[-0.19584,51.54315],[-0.19644,51.54438],[-0.1932,51.54423],[-0.19315,51.54454],[-0.19225,51.54462],[-0.19266,51.54423]]]}},{"type":"Feature","properties":{"id":"E01000933","name":"E01000933","parent":"E09000007","type":"LSOA","pop":1767,"r":1049,"ff":389,"ffd":22014.7,"ffs":0.4376,"g":154,"co":0,"mo":0,"sa":0,"ic":0},"geometry":{"type":"Polygon","coordinates":[[[-0.1936,51.5414],[-0.19289,51.54128],[-0.19242,51.54152],[-0.19228,51.54113],[-0.18975,51.54105],[-0.18923,51.54079],[-0.18885,51.54106],[-0.18818,51.54081],[-0.18895,51.54041],[-0.18816,51.54013],[-0.18859,51.53971],[-0.18834,51.53942],[-0.18916,51.53909],[-0.19014,51.53913],[-0.18984,51.53973],[-0.19035,51.53983],[-0.1905,51.53885],[-0.19114,51.5387],[-0.19127,51.53918],[-0.19231,51.53916],[-0.19261,51.53947],[-0.19428,51.53875],[-0.19554,51.53985],[-0.195,51.54028],[-0.19489,51.53995],[-0.19437,51.54019],[-0.19515,51.54236],[-0.19413,51.54234],[-0.1936,51.5414]]]}},{"type":"Feature","properties":{"id":"E01000934","name":"E01000934","parent":"E09000007","type":"LSOA","pop":1509,"r":1099,"ff":389,"ffd":25778.7,"ffs":0.4187,"g":163,"co":2,"mo":0,"sa":0,"ic":0},"geometry":{"type":"Polygon","coordinates":[[[-0.18156,51.53915],[-0.18413,51.53822],[-0.18439,51.53849],[-0.18543,51.53841],[-0.18596,51.53873],[-0.18257,51.53979],[-0.18288,51.54052],[-0.18324,51.54063],[-0.1827,51.54093],[-0.1829,51.54124],[-0.18087,51.5418],[-0.17947,51.5417],[-0.17833,51.53979],[-0.18014,51.53957],[-0.18156,51.53915]]]}},{"type":"Feature","properties":{"id":"E01000935","name":"E01000935","parent":"E09000007","type":"LSOA","pop":1497,"r":1085,"ff":385,"ffd":25718.1,"ffs":0.4194,"g":161,"co":0,"mo":0,"sa":0,"ic":0},"geometry":{"type":"Polygon","coordinates":[[[-0.18324,51.54063],[-0.18288,51.54052],[-0.18257,51.53979],[-0.18596,51.53873],[-0.18731,51.53985],[-0.18787,51.53961],[-0.18816,51.54013],[-0.18895,51.54041],[-0.18818,51.54081],[-0.18737,51.54065],[-0.18503,51.54071],[-0.1829,51.54124],[-0.1827,51.54093],[-0.18324,51.54063]]]}},{"type":"Feature","properties":{"id":"E01000937","name":"E01000937","parent":"E09000007","type":"LSOA","pop":1300,"r":1571,"ff":510,"ffd":39230.8,"ffs":0.3688,"g":184,"co":0,"mo":0,"sa":0,"ic":0},"geometry":{"type":"Polygon","coordinates":[[[-0.11975,51.527],[-0.11918,51.52628],[-0.12052,51.52527],[-0.11827,51.52579],[-0.11773,51.52482],[-0.11874,51.5245],[-0.11815,51.52383],[-0.12183,51.52299],[-0.12371,51.5261],[-0.12422,51.52599],[-0.12412,51.52678],[-0.12323,51.52688],[-0.12263,51.52601],[-0.12203,51.52653],[-0.12227,51.52698],[-0.12115,51.52717],[-0.12104,51.52695],[-0.12044,51.52768],[-0.1189,51.52712],[-0.11975,51.527]]]}},{"type":"Feature","properties":{"id":"E01000938","name":"E01000938","parent":"E09000007","type":"LSOA","pop":1379,"r":1695,"ff":539,"ffd":39086.3,"ffs":0.362,"g":202,"co":0,"mo":0,"sa":0,"ic":0},"geometry":{"type":"Polygon","coordinates":[[[-0.11613,51.52992],[-0.11591,51.52976],[-0.11531,51.52763],[-0.1161,51.52784],[-0.11632,51.52823],[-0.11837,51.52779],[-0.11845,51.52811],[-0.11923,51.52837],[-0.1195,51.52869],[-0.11759,51.52904],[-0.11875,51.52977],[-0.12008,51.5294],[-0.12047,51.52986],[-0.12106,51.52961],[-0.12177,51.52978],[-0.12161,51.53018],[-0.12253,51.53073],[-0.11987,51.53094],[-0.11613,51.52992]]]}},{"type":"Feature","properties":{"id":"E01000939","name":"E01000939","parent":"E09000007","type":"LSOA","pop":1648,"r":1635,"ff":526,"ffd":31917.5,"ffs":0.3671,"g":198,"co":0,"mo":0,"sa":0,"ic":0},"geometry":{"type":"Polygon","coordinates":[[[-0.12177,51.52978],[-0.12106,51.52961],[-0.12047,51.52986],[-0.12008,51.5294],[-0.11875,51.52977],[-0.11759,51.52904],[-0.1195,51.52869],[-0.11923,51.52837],[-0.11969,51.52828],[-0.11954,51.52746],[-0.12044,51.52768],[-0.12104,51.52695],[-0.12134,51.52753],[-0.12164,51.52748],[-0.12246,51.52832],[-0.12242,51.52861],[-0.12329,51.52915],[-0.12358,51.52904],[-0.12435,51.52979],[-0.12253,51.53073],[-0.12161,51.53018],[-0.12177,51.52978]]]}},{"type":"Feature","properties":{"id":"E01000941","name":"E01000941","parent":"E09000007","type":"LSOA","pop":1203,"r":1587,"ff":520,"ffd":43225.3,"ffs":0.372,"g":185,"co":0,"mo":0,"sa":0,"ic":0},"geometry":{"type":"Polygon","coordinates":[[[-0.12329,51.52915],[-0.12242,51.52861],[-0.12246,51.52832],[-0.12164,51.52748],[-0.12134,51.52753],[-0.12115,51.52717],[-0.12227,51.52698],[-0.12203,51.52653],[-0.12263,51.52601],[-0.12323,51.52688],[-0.12477,51.52669],[-0.12503,51.52702],[-0.12444,51.52723],[-0.12498,51.52782],[-0.12441,51.52777],[-0.12421,51.52802],[-0.12437,51.52863],[-0.12329,51.52915]]]}},{"type":"Feature","properties":{"id":"E01000942","name":"E01000942","parent":"E09000007","type":"LSOA","pop":985,"r":1433,"ff":484,"ffd":49137.1,"ffs":0.3847,"g":171,"co":0,"mo":0,"sa":0,"ic":0},"geometry":{"type":"Polygon","coordinates":[[[-0.12421,51.52802],[-0.12441,51.52777],[-0.12498,51.52782],[-0.12444,51.52723],[-0.12503,51.52702],[-0.12587,51.5275],[-0.12673,51.52714],[-0.1271,51.52754],[-0.12772,51.52714],[-0.12837,51.52728],[-0.12866,51.5269],[-0.13003,51.52665],[-0.13077,51.52732],[-0.12435,51.52979],[-0.12361,51.52907],[-0.12437,51.52863],[-0.12421,51.52802]]]}},{"type":"Feature","properties":{"id":"E01000943","name":"E01000943","parent":"E09000007","type":"LSOA","pop":2055,"r":1367,"ff":457,"ffd":22238.4,"ffs":0.3821,"g":168,"co":0,"mo":0,"sa":0,"ic":0},"geometry":{"type":"Polygon","coordinates":[[[-0.1271,51.52754],[-0.12673,51.52714],[-0.12587,51.5275],[-0.12477,51.52669],[-0.12412,51.52678],[-0.12422,51.52599],[-0.12554,51.5257],[-0.12789,51.5247],[-0.13003,51.52665],[-0.12866,51.5269],[-0.12837,51.52728],[-0.12772,51.52714],[-0.1271,51.52754]]]}},{"type":"Feature","properties":{"id":"E01000944","name":"E01000944","parent":"E09000007","type":"LSOA","pop":1547,"r":1360,"ff":446,"ffd":28830.0,"ffs":0.3786,"g":174,"co":0,"mo":0,"sa":2,"ic":0},"geometry":{"type":"Polygon","coordinates":[[[-0.14383,51.52913],[-0.14381,51.52877],[-0.14308,51.52877],[-0.14293,51.52853],[-0.14242,51.52853],[-0.14149,51.52805],[-0.14153,51.52729],[-0.14214,51.52699],[-0.14153,51.52677],[-0.14154,51.5263],[-0.14247,51.5261],[-0.14245,51.52566],[-0.14425,51.52567],[-0.14429,51.52695],[-0.14472,51.52688],[-0.14471,51.52742],[-0.14458,51.52769],[-0.14386,51.52754],[-0.14371,51.52807],[-0.14433,51.52858],[-0.14435,51.52916],[-0.14383,51.52913]]]}},{"type":"Feature","properties":{"id":"E01000946","name":"E01000946","parent":"E09000007","type":"LSOA","pop":1763,"r":1390,"ff":452,"ffd":25638.1,"ffs":0.3764,"g":181,"co":0,"mo":0,"sa":2,"ic":0},"geometry":{"type":"Polygon","coordinates":[[[-0.14857,51.53579],[-0.14689,51.53242],[-0.14572,51.53271],[-0.14636,51.53322],[-0.1435,51.53342],[-0.14307,51.53278],[-0.14361,51.53265],[-0.14332,51.53194],[-0.14511,51.53135],[-0.14478,51.53091],[-0.1443,51.53102],[-0.14453,51.53063],[-0.14375,51.53061],[-0.14356,51.53017],[-0.14453,51.53],[-0.14437,51.52943],[-0.14383,51.52939],[-0.14383,51.52913],[-0.14435,51.52916],[-0.14433,51.52858],[-0.14371,51.52807],[-0.14386,51.52754],[-0.14458,51.52769],[-0.14471,51.52742],[-0.14472,51.52688],[-0.14429,51.52695],[-0.14425,51.52567],[-0.14184,51.52563],[-0.13948,51.52633],[-0.1395,51.52689],[-0.14012,51.52716],[-0.13862,51.52719],[-0.13822,51.52629],[-0.13718,51.52654],[-0.13652,51.52552],[-0.14081,51.52439],[-0.1435,51.52395],[-0.14339,51.52454],[-0.14397,51.52469],[-0.14413,51.524],[-0.14519,51.52403],[-0.14579,51.52527],[-0.14717,51.52504],[-0.15231,51.5366],[-0.15114,51.53666],[-0.14857,51.53579]]]}},{"type":"Feature","properties":{"id":"E01000947","name":"E01000947","parent":"E09000007","type":"LSOA","pop":1738,"r":1385,"ff":469,"ffd":26985.0,"ffs":0.3908,"g":177,"co":0,"mo":0,"sa":0,"ic":0},"geometry":{"type":"Polygon","coordinates":[[[-0.13996,51.53756],[-0.13736,51.53475],[-0.13546,51.53522],[-0.13562,51.53426],[-0.13617,51.5336],[-0.1375,51.53287],[-0.13928,51.5325],[-0.13911,51.53191],[-0.14009,51.53178],[-0.1409,51.53216],[-0.14361,51.53434],[-0.14293,51.53461],[-0.142,51.5337],[-0.14049,51.53363],[-0.14015,51.53423],[-0.13942,51.5346],[-0.13995,51.5348],[-0.1401,51.53446],[-0.14142,51.5342],[-0.1421,51.53493],[-0.141,51.53526],[-0.14114,51.53543],[-0.14064,51.53558],[-0.14105,51.53638],[-0.14082,51.53689],[-0.14217,51.53687],[-0.13996,51.53756]]]}},{"type":"Feature","properties":{"id":"E01000948","name":"E01000948","parent":"E09000007","type":"LSOA","pop":1550,"r":1375,"ff":466,"ffd":30064.5,"ffs":0.3916,"g":177,"co":0,"mo":0,"sa":0,"ic":0},"geometry":{"type":"Polygon","coordinates":[[[-0.14915,51.5371],[-0.1468,51.53615],[-0.14622,51.53675],[-0.14427,51.5364],[-0.14217,51.53687],[-0.14082,51.53689],[-0.14105,51.53638],[-0.14064,51.53558],[-0.14114,51.53543],[-0.141,51.53526],[-0.1421,51.53493],[-0.14142,51.5342],[-0.1401,51.53446],[-0.13995,51.5348],[-0.13942,51.5346],[-0.14015,51.53423],[-0.14049,51.53363],[-0.142,51.5337],[-0.14293,51.53461],[-0.14389,51.53422],[-0.1435,51.53342],[-0.14636,51.53322],[-0.14572,51.53271],[-0.14689,51.53242],[-0.14857,51.53579],[-0.15114,51.53666],[-0.15231,51.5366],[-0.15271,51.53752],[-0.14915,51.5371]]]}},{"type":"Feature","properties":{"id":"E01000949","name":"E01000949","parent":"E09000007","type":"LSOA","pop":1731,"r":1375,"ff":455,"ffd":26285.4,"ffs":0.382,"g":176,"co":0,"mo":0,"sa":0,"ic":0},"geometry":{"type":"Polygon","coordinates":[[[-0.14127,51.5316],[-0.14078,51.53033],[-0.14129,51.53011],[-0.14178,51.53031],[-0.14189,51.52975],[-0.1433,51.5296],[-0.14337,51.52938],[-0.14437,51.52943],[-0.14453,51.53],[-0.14356,51.53017],[-0.14375,51.53061],[-0.14453,51.53063],[-0.1443,51.53102],[-0.14478,51.53091],[-0.14511,51.53135],[-0.14332,51.53194],[-0.14361,51.53265],[-0.14307,51.53278],[-0.14127,51.5316]]]}},{"type":"Feature","properties":{"id":"E01000951","name":"E01000951","parent":"E09000007","type":"LSOA","pop":1578,"r":1383,"ff":453,"ffd":28707.2,"ffs":0.3784,"g":178,"co":0,"mo":0,"sa":2,"ic":0},"geometry":{"type":"Polygon","coordinates":[[[-0.14078,51.53033],[-0.14072,51.52939],[-0.13971,51.52939],[-0.13969,51.52904],[-0.13915,51.52904],[-0.13914,51.52854],[-0.13956,51.52855],[-0.13918,51.52814],[-0.14004,51.52814],[-0.1402,51.52854],[-0.14079,51.52852],[-0.14084,51.52716],[-0.14153,51.52729],[-0.14149,51.52805],[-0.14242,51.52853],[-0.14293,51.52853],[-0.14308,51.52877],[-0.14381,51.52877],[-0.14383,51.52939],[-0.14189,51.52975],[-0.14178,51.53031],[-0.14129,51.53011],[-0.14078,51.53033]]]}},{"type":"Feature","properties":{"id":"E01000952","name":"E01000952","parent":"E09000007","type":"LSOA","pop":1788,"r":1343,"ff":447,"ffd":25000.0,"ffs":0.3824,"g":167,"co":0,"mo":0,"sa":0,"ic":0},"geometry":{"type":"Polygon","coordinates":[[[-0.13493,51.53531],[-0.13434,51.53449],[-0.13302,51.53518],[-0.13161,51.5345],[-0.13183,51.53433],[-0.13121,51.53384],[-0.13239,51.53353],[-0.13142,51.53253],[-0.13284,51.5323],[-0.13361,51.53304],[-0.13516,51.53263],[-0.13573,51.53301],[-0.13683,51.53245],[-0.1375,51.53287],[-0.13617,51.5336],[-0.13562,51.53426],[-0.13546,51.53522],[-0.13736,51.53475],[-0.13769,51.53509],[-0.13689,51.53516],[-0.13672,51.53548],[-0.13502,51.53563],[-0.13493,51.53531]]]}},{"type":"Feature","properties":{"id":"E01000954","name":"E01000954","parent":"E09000007","type":"LSOA","pop":1853,"r":1275,"ff":420,"ffd":22665.9,"ffs":0.3801,"g":163,"co":0,"mo":0,"sa":0,"ic":0},"geometry":{"type":"Polygon","coordinates":[[[-0.13361,51.53304],[-0.13284,51.5323],[-0.13327,51.53216],[-0.13365,51.53251],[-0.13403,51.53243],[-0.13398,51.53211],[-0.13478,51.53227],[-0.13495,51.5317],[-0.13483,51.53155],[-0.13522,51.53139],[-0.13511,51.53122],[-0.13677,51.53098],[-0.13909,51.53183],[-0.13928,51.5325],[-0.1375,51.53287],[-0.13683,51.53245],[-0.13573,51.53301],[-0.13516,51.53263],[-0.13361,51.53304]]]}},{"type":"Feature","properties":{"id":"E01000955","name":"E01000955","parent":"E09000007","type":"LSOA","pop":1399,"r":1278,"ff":424,"ffd":30307.4,"ffs":0.383,"g":164,"co":0,"mo":0,"sa":0,"ic":0},"geometry":{"type":"Polygon","coordinates":[[[-0.13365,51.53251],[-0.13327,51.53216],[-0.13284,51.5323],[-0.13159,51.53104],[-0.13189,51.53086],[-0.13095,51.52992],[-0.13091,51.52963],[-0.13129,51.52974],[-0.13061,51.52908],[-0.13134,51.52881],[-0.13297,51.52974],[-0.13333,51.52965],[-0.13511,51.53122],[-0.13522,51.53139],[-0.13483,51.53155],[-0.13495,51.5317],[-0.13478,51.53227],[-0.13398,51.53211],[-0.13403,51.53243],[-0.13365,51.53251]]]}},{"type":"Feature","properties":{"id":"E01000956","name":"E01000956","parent":"E09000007","type":"LSOA","pop":1574,"r":1259,"ff":426,"ffd":27064.8,"ffs":0.3894,"g":159,"co":0,"mo":0,"sa":0,"ic":0},"geometry":{"type":"Polygon","coordinates":[[[-0.12772,51.53244],[-0.12676,51.53065],[-0.12491,51.53094],[-0.12379,51.53004],[-0.13077,51.52732],[-0.13333,51.52965],[-0.13297,51.52974],[-0.13134,51.52881],[-0.13061,51.52908],[-0.13129,51.52974],[-0.13091,51.52963],[-0.13095,51.52992],[-0.13186,51.53083],[-0.13147,51.53099],[-0.13108,51.5307],[-0.12989,51.53098],[-0.13032,51.53143],[-0.12772,51.53244]]]}},{"type":"Feature","properties":{"id":"E01000957","name":"E01000957","parent":"E09000007","type":"LSOA","pop":1310,"r":1207,"ff":404,"ffd":30839.7,"ffs":0.3915,"g":167,"co":0,"mo":0,"sa":0,"ic":0},"geometry":{"type":"Polygon","coordinates":[[[-0.13105,51.54041],[-0.13063,51.53974],[-0.13216,51.53919],[-0.13234,51.53942],[-0.13295,51.53958],[-0.13355,51.53915],[-0.13568,51.54024],[-0.13679,51.5399],[-0.13756,51.54089],[-0.1354,51.54161],[-0.13584,51.54199],[-0.13145,51.54303],[-0.13104,51.54212],[-0.13205,51.54197],[-0.13168,51.54182],[-0.13174,51.54054],[-0.13105,51.54041]]]}},{"type":"Feature","properties":{"id":"E01000958","name":"E01000958","parent":"E09000007","type":"LSOA","pop":3477,"r":1396,"ff":462,"ffd":13287.3,"ffs":0.3831,"g":182,"co":0,"mo":0,"sa":0,"ic":0},"geometry":{"type":"Polygon","coordinates":[[[-0.12974,51.54053],[-0.12877,51.538],[-0.12819,51.53719],[-0.12872,51.53694],[-0.13003,51.53733],[-0.12988,51.53556],[-0.13145,51.53567],[-0.13208,51.53535],[-0.13122,51.5349],[-0.13183,51.53462],[-0.13302,51.53518],[-0.13434,51.53449],[-0.13493,51.53531],[-0.13379,51.53547],[-0.13399,51.53576],[-0.13341,51.53583],[-0.13477,51.53746],[-0.13593,51.53709],[-0.13522,51.53629],[-0.13611,51.53611],[-0.13671,51.53683],[-0.13699,51.53674],[-0.13759,51.53705],[-0.13739,51.53761],[-0.13804,51.53836],[-0.13618,51.53914],[-0.13679,51.5399],[-0.13568,51.54024],[-0.13355,51.53915],[-0.13295,51.53958],[-0.13234,51.53942],[-0.13216,51.53919],[-0.13063,51.53974],[-0.13105,51.54041],[-0.12974,51.54053]]]}},{"type":"Feature","properties":{"id":"E01000959","name":"E01000959","parent":"E09000007","type":"LSOA","pop":1739,"r":1372,"ff":458,"ffd":26337.0,"ffs":0.3852,"g":175,"co":0,"mo":0,"sa":0,"ic":0},"geometry":{"type":"Polygon","coordinates":[[[-0.13759,51.53705],[-0.13699,51.53674],[-0.13671,51.53683],[-0.13611,51.53611],[-0.13522,51.53629],[-0.13593,51.53709],[-0.13477,51.53746],[-0.13341,51.53583],[-0.13399,51.53576],[-0.13379,51.53547],[-0.13493,51.53531],[-0.13502,51.53563],[-0.13672,51.53548],[-0.13689,51.53516],[-0.13769,51.53509],[-0.13996,51.53756],[-0.13804,51.53836],[-0.13739,51.53761],[-0.13759,51.53705]]]}},{"type":"Feature","properties":{"id":"E01000960","name":"E01000960","parent":"E09000007","type":"LSOA","pop":1918,"r":1022,"ff":359,"ffd":18717.4,"ffs":0.4264,"g":173,"co":0,"mo":0,"sa":0,"ic":0},"geometry":{"type":"Polygon","coordinates":[[[-0.18164,51.54742],[-0.1801,51.54671],[-0.17952,51.54691],[-0.17889,51.54619],[-0.17571,51.54453],[-0.17631,51.54426],[-0.17717,51.54431],[-0.17743,51.54406],[-0.17837,51.54443],[-0.17892,51.54348],[-0.17937,51.54352],[-0.17903,51.54327],[-0.17927,51.54287],[-0.17999,51.5427],[-0.18028,51.5422],[-0.18061,51.54246],[-0.17992,51.54383],[-0.1812,51.54428],[-0.18059,51.54528],[-0.18109,51.545],[-0.18175,51.5452],[-0.18247,51.54477],[-0.18299,51.54479],[-0.18308,51.54505],[-0.18157,51.54598],[-0.18278,51.54606],[-0.18307,51.54685],[-0.18277,51.54711],[-0.18277,51.54747],[-0.18164,51.54742]]]}},{"type":"Feature","properties":{"id":"E01000961","name":"E01000961","parent":"E09000007","type":"LSOA","pop":1874,"r":1166,"ff":407,"ffd":21718.2,"ffs":0.4153,"g":179,"co":0,"mo":0,"sa":0,"ic":0},"geometry":{"type":"Polygon","coordinates":[[[-0.17837,51.54443],[-0.17743,51.54406],[-0.17717,51.54431],[-0.17631,51.54426],[-0.17579,51.54359],[-0.17644,51.54345],[-0.17648,51.54267],[-0.17512,51.54245],[-0.17491,51.54169],[-0.17534,51.54165],[-0.17584,51.53962],[-0.17833,51.53979],[-0.17947,51.5417],[-0.17995,51.54171],[-0.17976,51.54197],[-0.18028,51.5422],[-0.17999,51.5427],[-0.17927,51.54287],[-0.17903,51.54327],[-0.17937,51.54352],[-0.17892,51.54348],[-0.17837,51.54443]]]}},{"type":"Feature","properties":{"id":"E01000962","name":"E01000962","parent":"E09000007","type":"LSOA","pop":1519,"r":1090,"ff":390,"ffd":25674.8,"ffs":0.4239,"g":163,"co":0,"mo":0,"sa":0,"ic":0},"geometry":{"type":"Polygon","coordinates":[[[-0.18059,51.54528],[-0.1812,51.54428],[-0.17992,51.54383],[-0.18061,51.54246],[-0.17976,51.54197],[-0.17995,51.54171],[-0.18087,51.5418],[-0.18297,51.54121],[-0.18325,51.54163],[-0.18256,51.54185],[-0.1829,51.54224],[-0.18154,51.54268],[-0.18186,51.54308],[-0.18349,51.54256],[-0.18379,51.54298],[-0.18612,51.54259],[-0.18618,51.54305],[-0.18483,51.54319],[-0.18503,51.54358],[-0.18575,51.54351],[-0.18579,51.54404],[-0.1835,51.54479],[-0.1826,51.54406],[-0.18247,51.54477],[-0.18175,51.5452],[-0.18109,51.545],[-0.18059,51.54528]]]}},{"type":"Feature","properties":{"id":"E01000963","name":"E01000963","parent":"E09000007","type":"LSOA","pop":2079,"r":1180,"ff":406,"ffd":19528.6,"ffs":0.4093,"g":181,"co":2,"mo":0,"sa":0,"ic":0},"geometry":{"type":"Polygon","coordinates":[[[-0.17571,51.54453],[-0.17499,51.54369],[-0.17305,51.54416],[-0.17133,51.54213],[-0.16907,51.54124],[-0.16941,51.5403],[-0.17009,51.54023],[-0.17082,51.54056],[-0.17086,51.54018],[-0.16997,51.53962],[-0.1707,51.53917],[-0.17203,51.54045],[-0.17298,51.54012],[-0.17206,51.53907],[-0.17068,51.53858],[-0.1714,51.53808],[-0.17196,51.53838],[-0.17348,51.53763],[-0.17412,51.5382],[-0.17391,51.53948],[-0.17584,51.53962],[-0.17534,51.54165],[-0.17491,51.54169],[-0.17512,51.54245],[-0.17648,51.54267],[-0.17644,51.54345],[-0.17579,51.54359],[-0.17631,51.54426],[-0.17571,51.54453]]]}},{"type":"Feature","properties":{"id":"E01000964","name":"E01000964","parent":"E09000007","type":"LSOA","pop":1722,"r":949,"ff":346,"ffd":20092.9,"ffs":0.4352,"g":148,"co":0,"mo":0,"sa":0,"ic":0},"geometry":{"type":"Polygon","coordinates":[[[-0.18299,51.54479],[-0.18247,51.54477],[-0.1826,51.54406],[-0.1835,51.54479],[-0.18579,51.54404],[-0.18586,51.54456],[-0.18812,51.54458],[-0.18845,51.54511],[-0.18887,51.54512],[-0.18873,51.54686],[-0.18277,51.54747],[-0.18277,51.54711],[-0.18307,51.54685],[-0.18278,51.54606],[-0.18157,51.54598],[-0.18308,51.54505],[-0.18299,51.54479]]]}},{"type":"Feature","properties":{"id":"E01000965","name":"E01000965","parent":"E09000007","type":"LSOA","pop":1719,"r":1056,"ff":388,"ffd":22571.3,"ffs":0.435,"g":158,"co":0,"mo":0,"sa":0,"ic":0},"geometry":{"type":"Polygon","coordinates":[[[-0.18897,51.54413],[-0.18818,51.54355],[-0.18859,51.5431],[-0.18839,51.54254],[-0.18906,51.54115],[-0.18854,51.54138],[-0.18828,51.54083],[-0.18885,51.54106],[-0.18923,51.54079],[-0.18975,51.54105],[-0.19228,51.54113],[-0.19261,51.54191],[-0.19318,51.54238],[-0.19266,51.54423],[-0.19222,51.54422],[-0.19189,51.54366],[-0.18975,51.54365],[-0.18972,51.5439],[-0.18937,51.54397],[-0.18971,51.54415],[-0.18954,51.5463],[-0.18876,51.54648],[-0.18887,51.54512],[-0.18845,51.54511],[-0.18812,51.54458],[-0.18897,51.54413]]]}},{"type":"Feature","properties":{"id":"E01000966","name":"E01000966","parent":"E09000007","type":"LSOA","pop":1564,"r":889,"ff":343,"ffd":21930.9,"ffs":0.4592,"g":137,"co":0,"mo":0,"sa":0,"ic":0},"geometry":{"type":"Polygon","coordinates":[[[-0.18579,51.54404],[-0.18575,51.54351],[-0.18503,51.54358],[-0.18483,51.54319],[-0.18618,51.54305],[-0.18612,51.54259],[-0.18379,51.54298],[-0.18349,51.54256],[-0.18186,51.54308],[-0.18154,51.54268],[-0.1829,51.54224],[-0.18256,51.54185],[-0.18325,51.54163],[-0.18297,51.54121],[-0.18503,51.54071],[-0.18737,51.54065],[-0.18828,51.54083],[-0.18854,51.54138],[-0.18906,51.54115],[-0.18839,51.54254],[-0.18859,51.5431],[-0.18818,51.54355],[-0.18897,51.54413],[-0.18812,51.54458],[-0.18586,51.54456],[-0.18579,51.54404]]]}},{"type":"Feature","properties":{"id":"E01000967","name":"E01000967","parent":"E09000007","type":"LSOA","pop":1601,"r":1203,"ff":407,"ffd":25421.6,"ffs":0.4018,"g":182,"co":2,"mo":0,"sa":0,"ic":0},"geometry":{"type":"Polygon","coordinates":[[[-0.15982,51.54029],[-0.16164,51.53823],[-0.16046,51.53728],[-0.16494,51.53578],[-0.16831,51.53806],[-0.16952,51.5386],[-0.17086,51.5378],[-0.1714,51.53808],[-0.17068,51.53858],[-0.17206,51.53907],[-0.17298,51.54012],[-0.17203,51.54045],[-0.1707,51.53917],[-0.16997,51.53962],[-0.17086,51.54018],[-0.17082,51.54056],[-0.17009,51.54023],[-0.16941,51.5403],[-0.16907,51.54124],[-0.16991,51.5417],[-0.16222,51.5424],[-0.1616,51.54144],[-0.15982,51.54029]]]}},{"type":"Feature","properties":{"id":"E01000968","name":"E01000968","parent":"E09000007","type":"LSOA","pop":1556,"r":1013,"ff":379,"ffd":24357.3,"ffs":0.4417,"g":149,"co":0,"mo":0,"sa":0,"ic":0},"geometry":{"type":"Polygon","coordinates":[[[-0.19054,51.54585],[-0.19064,51.5452],[-0.18964,51.54514],[-0.18971,51.54415],[-0.18937,51.54397],[-0.18972,51.5439],[-0.18975,51.54365],[-0.19189,51.54366],[-0.19222,51.54422],[-0.19266,51.54423],[-0.19225,51.54462],[-0.19315,51.54454],[-0.1932,51.54423],[-0.19644,51.54438],[-0.1964,51.54468],[-0.19577,51.54489],[-0.19538,51.54582],[-0.19293,51.54594],[-0.19298,51.54565],[-0.19228,51.54555],[-0.19188,51.54604],[-0.19054,51.54585]]]}},{"type":"Feature","properties":{"id":"E01000969","name":"E01000969","parent":"E09000007","type":"LSOA","pop":1847,"r":893,"ff":335,"ffd":18137.5,"ffs":0.4509,"g":146,"co":0,"mo":0,"sa":0,"ic":0},"geometry":{"type":"Polygon","coordinates":[[[-0.18596,51.55227],[-0.18385,51.5509],[-0.18794,51.54927],[-0.18907,51.54921],[-0.19137,51.54931],[-0.19143,51.55011],[-0.19191,51.55046],[-0.19142,51.55049],[-0.19179,51.55138],[-0.19204,51.55109],[-0.19338,51.55167],[-0.19345,51.55219],[-0.19185,51.5522],[-0.18876,51.55295],[-0.18596,51.55227]]]}},{"type":"Feature","properties":{"id":"E01000970","name":"E01000970","parent":"E09000007","type":"LSOA","pop":1489,"r":876,"ff":334,"ffd":22431.2,"ffs":0.4569,"g":141,"co":0,"mo":0,"sa":0,"ic":0},"geometry":{"type":"Polygon","coordinates":[[[-0.19338,51.55167],[-0.19204,51.55109],[-0.19179,51.55138],[-0.19142,51.55049],[-0.19191,51.55046],[-0.19143,51.55011],[-0.19147,51.5495],[-0.1919,51.54944],[-0.19254,51.54988],[-0.19265,51.54973],[-0.19233,51.54957],[-0.19319,51.549],[-0.19326,51.54843],[-0.1954,51.54864],[-0.1955,51.54917],[-0.19416,51.55009],[-0.19439,51.55033],[-0.19408,51.55059],[-0.19444,51.55091],[-0.19494,51.55075],[-0.19456,51.551],[-0.19519,51.55203],[-0.19345,51.55219],[-0.19338,51.55167]]]}},{"type":"Feature","properties":{"id":"E01000971","name":"E01000971","parent":"E09000007","type":"LSOA","pop":1326,"r":845,"ff":332,"ffd":25037.7,"ffs":0.4689,"g":133,"co":0,"mo":0,"sa":0,"ic":0},"geometry":{"type":"Polygon","coordinates":[[[-0.19456,51.551],[-0.19494,51.55075],[-0.19444,51.55091],[-0.19408,51.55059],[-0.19439,51.55033],[-0.19416,51.55009],[-0.1955,51.54917],[-0.19685,51.54943],[-0.19738,51.54903],[-0.19808,51.54918],[-0.19913,51.55155],[-0.19702,51.55197],[-0.19519,51.55203],[-0.19456,51.551]]]}},{"type":"Feature","properties":{"id":"E01000972","name":"E01000972","parent":"E09000007","type":"LSOA","pop":1988,"r":1022,"ff":359,"ffd":18058.4,"ffs":0.4264,"g":173,"co":0,"mo":0,"sa":0,"ic":0},"geometry":{"type":"Polygon","coordinates":[[[-0.18142,51.54913],[-0.17952,51.54691],[-0.1801,51.54671],[-0.18164,51.54742],[-0.18388,51.54736],[-0.18418,51.5484],[-0.18678,51.54828],[-0.18661,51.54893],[-0.18836,51.54827],[-0.19102,51.54832],[-0.19137,51.54931],[-0.18794,51.54927],[-0.18385,51.5509],[-0.18224,51.54992],[-0.18142,51.54913]]]}},{"type":"Feature","properties":{"id":"E01000973","name":"E01000973","parent":"E09000007","type":"LSOA","pop":2696,"r":886,"ff":340,"ffd":12611.3,"ffs":0.4595,"g":141,"co":0,"mo":0,"sa":0,"ic":0},"geometry":{"type":"Polygon","coordinates":[[[-0.19254,51.54988],[-0.1919,51.54944],[-0.19147,51.5495],[-0.19102,51.54832],[-0.18836,51.54827],[-0.18661,51.54893],[-0.18678,51.54828],[-0.18418,51.5484],[-0.18388,51.54736],[-0.18873,51.54686],[-0.18876,51.54648],[-0.18954,51.5463],[-0.18964,51.54514],[-0.19064,51.5452],[-0.19054,51.54585],[-0.19188,51.54604],[-0.19228,51.54555],[-0.19298,51.54565],[-0.19293,51.54594],[-0.19538,51.54582],[-0.19577,51.54489],[-0.1964,51.54468],[-0.19703,51.545],[-0.19671,51.54593],[-0.19776,51.54597],[-0.19782,51.5463],[-0.19897,51.54638],[-0.19826,51.54688],[-0.19659,51.54716],[-0.19676,51.54755],[-0.19485,51.54772],[-0.1941,51.54849],[-0.19326,51.54843],[-0.19319,51.549],[-0.19233,51.54957],[-0.19265,51.54973],[-0.19254,51.54988]]]}},{"type":"Feature","properties":{"id":"E01000974","name":"E01000974","parent":"E09000007","type":"LSOA","pop":1578,"r":817,"ff":315,"ffd":19962.0,"ffs":0.4639,"g":134,"co":0,"mo":0,"sa":0,"ic":0},"geometry":{"type":"Polygon","coordinates":[[[-0.1955,51.54917],[-0.1954,51.54864],[-0.1941,51.54849],[-0.19485,51.54772],[-0.19676,51.54755],[-0.19659,51.54716],[-0.19826,51.54688],[-0.19897,51.54638],[-0.19808,51.54631],[-0.20192,51.5453],[-0.20372,51.54697],[-0.20111,51.54764],[-0.19808,51.54802],[-0.19762,51.54885],[-0.19808,51.54918],[-0.19738,51.54903],[-0.19685,51.54943],[-0.1955,51.54917]]]}},{"type":"Feature","properties":{"id":"E01035707","name":"E01035707","parent":"E09000007","type":"LSOA","pop":2440,"r":1273,"ff":433,"ffd":17745.9,"ffs":0.3965,"g":173,"co":0,"mo":0,"sa":0,"ic":0},"geometry":{"type":"Polygon","coordinates":[[[-0.12639,51.54504],[-0.1259,51.54293],[-0.12863,51.54246],[-0.12921,51.54327],[-0.12919,51.54364],[-0.12865,51.5441],[-0.12911,51.54428],[-0.13069,51.54312],[-0.13369,51.54262],[-0.13404,51.54297],[-0.1345,51.54265],[-0.13587,51.54332],[-0.1354,51.54372],[-0.13637,51.54419],[-0.13588,51.54482],[-0.13601,51.54501],[-0.13536,51.54514],[-0.13498,51.54649],[-0.13443,51.54644],[-0.13357,51.54564],[-0.13231,51.54654],[-0.13166,51.54616],[-0.13223,51.54535],[-0.1319,51.54516],[-0.13149,51.54545],[-0.13092,51.54518],[-0.13029,51.54542],[-0.13003,51.54527],[-0.12925,51.54545],[-0.12956,51.54502],[-0.12916,51.54481],[-0.12754,51.54589],[-0.12734,51.54614],[-0.12777,51.54689],[-0.12699,51.54729],[-0.12639,51.54504]]]}},{"type":"Feature","properties":{"id":"E01035708","name":"E01035708","parent":"E09000007","type":"LSOA","pop":2387,"r":1331,"ff":457,"ffd":19145.4,"ffs":0.397,"g":173,"co":0,"mo":0,"sa":0,"ic":0},"geometry":{"type":"Polygon","coordinates":[[[-0.13104,51.54212],[-0.13068,51.54113],[-0.12506,51.54113],[-0.12332,51.53885],[-0.12239,51.53695],[-0.12253,51.53073],[-0.12379,51.53004],[-0.12491,51.53094],[-0.12676,51.53065],[-0.12772,51.53244],[-0.1287,51.53344],[-0.12654,51.53415],[-0.12633,51.53469],[-0.12872,51.53694],[-0.12819,51.53719],[-0.12877,51.538],[-0.12974,51.54053],[-0.13105,51.54041],[-0.13174,51.54054],[-0.13168,51.54182],[-0.13205,51.54197],[-0.13104,51.54212]]]}},{"type":"Feature","properties":{"id":"E01035709","name":"E01035709","parent":"E09000007","type":"LSOA","pop":1539,"r":1260,"ff":413,"ffd":26835.6,"ffs":0.3796,"g":165,"co":0,"mo":0,"sa":0,"ic":0},"geometry":{"type":"Polygon","coordinates":[[[-0.12849,51.53679],[-0.12633,51.53469],[-0.12654,51.53415],[-0.1287,51.53344],[-0.12772,51.53244],[-0.13032,51.53143],[-0.12989,51.53098],[-0.13108,51.5307],[-0.13147,51.53099],[-0.13186,51.53083],[-0.13159,51.53104],[-0.13284,51.5323],[-0.13142,51.53253],[-0.13239,51.53353],[-0.13121,51.53384],[-0.13183,51.53433],[-0.13161,51.5345],[-0.13183,51.53462],[-0.13122,51.5349],[-0.13208,51.53535],[-0.13145,51.53567],[-0.12988,51.53556],[-0.13003,51.53733],[-0.12849,51.53679]]]}},{"type":"Feature","properties":{"id":"E01035710","name":"E01035710","parent":"E09000007","type":"LSOA","pop":2714,"r":1382,"ff":452,"ffd":16654.4,"ffs":0.3776,"g":177,"co":0,"mo":0,"sa":2,"ic":0},"geometry":{"type":"Polygon","coordinates":[[[-0.1409,51.53216],[-0.14009,51.53178],[-0.13911,51.53191],[-0.13677,51.53098],[-0.13511,51.53122],[-0.13077,51.52732],[-0.13652,51.52552],[-0.13718,51.52654],[-0.13822,51.52629],[-0.13862,51.52719],[-0.14012,51.52716],[-0.1395,51.52689],[-0.13948,51.52633],[-0.14184,51.52563],[-0.14245,51.52566],[-0.14247,51.5261],[-0.14154,51.5263],[-0.14153,51.52677],[-0.14214,51.52699],[-0.14153,51.52729],[-0.14084,51.52716],[-0.14079,51.52852],[-0.1402,51.52854],[-0.14004,51.52814],[-0.13918,51.52814],[-0.13956,51.52855],[-0.13914,51.52854],[-0.13915,51.52904],[-0.13969,51.52904],[-0.13971,51.52939],[-0.14072,51.52939],[-0.14078,51.5304],[-0.14127,51.5316],[-0.14307,51.53278],[-0.14389,51.53422],[-0.14361,51.53434],[-0.1409,51.53216]]]}},{"type":"Feature","properties":{"id":"E01035711","name":"E01035711","parent":"E09000007","type":"LSOA","pop":2777,"r":1337,"ff":445,"ffd":16024.5,"ffs":0.3833,"g":171,"co":0,"mo":0,"sa":2,"ic":2},"geometry":{"type":"Polygon","coordinates":[[[-0.1287,51.52543],[-0.12789,51.5247],[-0.12751,51.52486],[-0.12727,51.52464],[-0.12595,51.52491],[-0.12582,51.52412],[-0.12549,51.52372],[-0.12654,51.5235],[-0.1258,51.52281],[-0.1271,51.52231],[-0.12702,51.52282],[-0.1289,51.52426],[-0.12978,51.5239],[-0.13097,51.52499],[-0.13206,51.52474],[-0.13304,51.524],[-0.13265,51.52362],[-0.13145,51.52417],[-0.1312,51.52393],[-0.13217,51.52356],[-0.13123,51.52343],[-0.13176,51.5228],[-0.13294,51.52233],[-0.13346,51.52323],[-0.13396,51.52299],[-0.13428,51.52335],[-0.13485,51.52313],[-0.13409,51.52243],[-0.13364,51.5226],[-0.13323,51.52222],[-0.13367,51.52204],[-0.1325,51.52097],[-0.13303,51.52074],[-0.13426,51.52095],[-0.13458,51.52083],[-0.13521,51.52152],[-0.13622,51.52135],[-0.13676,51.52187],[-0.13778,51.52142],[-0.13814,51.52176],[-0.1375,51.52196],[-0.13801,51.52242],[-0.13756,51.52262],[-0.1378,51.52283],[-0.13923,51.52284],[-0.13863,51.5231],[-0.1391,51.52352],[-0.13977,51.52334],[-0.14011,51.52367],[-0.13909,51.52404],[-0.1389,51.52385],[-0.13817,51.52429],[-0.13968,51.5243],[-0.13993,51.52407],[-0.14081,51.52439],[-0.13077,51.52732],[-0.1287,51.52543]]]}},{"type":"Feature","properties":{"id":"E01035712","name":"E01035712","parent":"E09000007","type":"LSOA","pop":2749,"r":1687,"ff":540,"ffd":19643.5,"ffs":0.3649,"g":203,"co":0,"mo":0,"sa":0,"ic":0},"geometry":{"type":"Polygon","coordinates":[[[-0.11845,51.52811],[-0.11837,51.52779],[-0.11632,51.52823],[-0.1161,51.52784],[-0.11531,51.52763],[-0.11395,51.52677],[-0.11291,51.52641],[-0.11485,51.52487],[-0.11589,51.52437],[-0.11815,51.52383],[-0.11874,51.5245],[-0.11773,51.52482],[-0.11827,51.52579],[-0.12052,51.52527],[-0.11918,51.52628],[-0.11975,51.527],[-0.1189,51.52712],[-0.11954,51.52746],[-0.11969,51.52828],[-0.11923,51.52837],[-0.11845,51.52811]]]}}]}