{"type":"FeatureCollection","features":[{"type":"Feature","properties":{"id":"E01000001","name":"E01000001","parent":"E09000001","type":"LSOA","pop":2172,"r":1453,"ff":777,"ffs":0.5348,"g":178,"schedule_known":1443,"schedule_unknown":10,"co":0,"mo":1,"sa":0,"ic":0},"geometry":{"type":"Polygon","coordinates":[[[-0.09726,51.52157],[-0.09649,51.52028],[-0.09436,51.52066],[-0.09448,51.51976],[-0.09506,51.51929],[-0.09506,51.51824],[-0.09591,51.51675],[-0.09492,51.51659],[-0.09577,51.51497],[-0.09656,51.51484],[-0.09796,51.51554],[-0.09783,51.5166],[-0.09972,51.51677],[-0.09964,51.51745],[-0.09914,51.51776],[-0.09817,51.5179],[-0.09802,51.51755],[-0.09756,51.51768],[-0.09774,51.51967],[-0.09784,51.51992],[-0.09855,51.51974],[-0.0985,51.52054],[-0.09762,51.52069],[-0.09726,51.52157]]]}},{"type":"Feature","properties":{"id":"E01000002","name":"E01000002","parent":"E09000001","type":"LSOA","pop":2044,"r":1417,"ff":765,"ffs":0.5399,"g":174,"schedule_known":1407,"schedule_unknown":10,"co":0,"mo":1,"sa":0,"ic":0},"geometry":{"type":"Polygon","coordinates":[[[-0.08967,51.52069],[-0.08992,51.51998],[-0.0881,51.51941],[-0.08927,51.51752],[-0.09009,51.51748],[-0.09028,51.51708],[-0.09078,51.51726],[-0.09066,51.51754],[-0.09139,51.51765],[-0.09239,51.51583],[-0.09401,51.51409],[-0.09475,51.51424],[-0.09467,51.51453],[-0.0952,51.51459],[-0.09501,51.51528],[-0.09546,51.51544],[-0.09492,51.51659],[-0.09591,51.51675],[-0.09506,51.51824],[-0.09506,51.51929],[-0.09448,51.51976],[-0.09436,51.52066],[-0.09474,51.5206],[-0.0939,51.52078],[-0.09401,51.52103],[-0.0925,51.52143],[-0.09237,51.521],[-0.08967,51.52069]]]}},{"type":"Feature","properties":{"id":"E01000003","name":"E01000003","parent":"E09000001","type":"LSOA","pop":2444,"r":1499,"ff":810,"ffs":0.5404,"g":188,"schedule_known":1489,"schedule_unknown":10,"co":0,"mo":3,"sa":0,"ic":0},"geometry":{"type":"Polygon","coordinates":[[[-0.09676,51.52325],[-0.09644,51.52282],[-0.09507,51.52305],[-0.09431,51.52146],[-0.09274,51.52139],[-0.09401,51.52103],[-0.0939,51.52078],[-0.09649,51.52028],[-0.09727,51.52158],[-0.09769,51.52292],[-0.09676,51.52325]]]}},{"type":"Feature","properties":{"id":"E01000005","name":"E01000005","parent":"E09000001","type":"LSOA","pop":2391,"r":1283,"ff":717,"ffs":0.5588,"g":173,"schedule_known":1271,"schedule_unknown":12,"co":0,"mo":0,"sa":0,"ic":0},"geometry":{"type":"Polygon","coordinates":[[[-0.0732,51.51],[-0.07551,51.50974],[-0.07615,51.51048],[-0.07642,51.51343],[-0.08001,51.51568],[-0.07912,51.51632],[-0.0782,51.51749],[-0.07734,51.5174],[-0.07589,51.5159],[-0.07394,51.51445],[-0.07342,51.51355],[-0.07274,51.51081],[-0.0727,51.51019],[-0.0732,51.51]]]}},{"type":"Feature","properties":{"id":"E01032739","name":"E01032739","parent":"E09000001","type":"LSOA","pop":3679,"r":1322,"ff":713,"ffs":0.5393,"g":185,"schedule_known":1311,"schedule_unknown":11,"co":0,"mo":0,"sa":0,"ic":2},"geometry":{"type":"Polygon","coordinates":[[[-0.07845,51.52151],[-0.0794,51.51885],[-0.07809,51.51897],[-0.07787,51.51819],[-0.07734,51.5174],[-0.0782,51.51749],[-0.07912,51.51632],[-0.08001,51.51568],[-0.07642,51.51343],[-0.07615,51.51048],[-0.07687,51.51047],[-0.07682,51.51016],[-0.07788,51.50999],[-0.07882,51.50941],[-0.07908,51.50904],[-0.07864,51.50879],[-0.07942,51.50781],[-0.08031,51.50808],[-0.08547,51.50861],[-0.08709,51.50899],[-0.08864,51.50897],[-0.09192,51.50942],[-0.09523,51.51018],[-0.09518,51.51062],[-0.09614,51.51027],[-0.09987,51.51083],[-0.10455,51.51085],[-0.10428,51.51359],[-0.1022,51.51376],[-0.10156,51.51625],[-0.09972,51.51677],[-0.09783,51.5166],[-0.09796,51.51554],[-0.09656,51.51484],[-0.09577,51.51497],[-0.09546,51.51544],[-0.09501,51.51528],[-0.0952,51.51459],[-0.09467,51.51453],[-0.09475,51.51424],[-0.09401,51.51409],[-0.09239,51.51583],[-0.09139,51.51765],[-0.09066,51.51754],[-0.09078,51.51726],[-0.09028,51.51708],[-0.09009,51.51748],[-0.08927,51.51752],[-0.0881,51.51941],[-0.08616,51.51874],[-0.08519,51.52034],[-0.0833,51.51982],[-0.0814,51.52122],[-0.08102,51.52195],[-0.07845,51.52151]]]}},{"type":"Feature","properties":{"id":"E01032740","name":"E01032740","parent":"E09000001","type":"LSOA","pop":2381,"r":1540,"ff":804,"ffs":0.5221,"g":197,"schedule_known":1531,"schedule_unknown":9,"co":0,"mo":1,"sa":0,"ic":2},"geometry":{"type":"Polygon","coordinates":[[[-0.0985,51.52054],[-0.09855,51.51974],[-0.09784,51.51992],[-0.09774,51.51967],[-0.09756,51.51768],[-0.09802,51.51755],[-0.09817,51.5179],[-0.09914,51.51776],[-0.09964,51.51745],[-0.09972,51.51677],[-0.10156,51.51625],[-0.1022,51.51376],[-0.10428,51.51359],[-0.10455,51.51085],[-0.11146,51.51083],[-0.11148,51.51166],[-0.11247,51.51265],[-0.1117,51.51316],[-0.1119,51.51366],[-0.11103,51.51383],[-0.11153,51.51522],[-0.11382,51.51812],[-0.1112,51.51815],[-0.10743,51.51783],[-0.0985,51.52054]]]}}]}