{"type":"FeatureCollection","features":[{"type":"Feature","properties":{"id":"E01003355","name":"E01003355","parent":"E09000024","type":"LSOA","pop":1728,"r":692,"ff":254,"ffd":14699.1,"ffs":0.452,"g":126,"co":0,"mo":0,"sa":0,"ic":0},"geometry":{"type":"Polygon","coordinates":[[[-0.19252,51.41711],[-0.19265,51.41372],[-0.19349,51.41413],[-0.194,51.41388],[-0.19426,51.41281],[-0.19507,51.41355],[-0.19562,51.41369],[-0.19629,51.41506],[-0.19693,51.41531],[-0.19804,51.41534],[-0.19861,51.41676],[-0.19793,51.41699],[-0.19666,51.41707],[-0.19643,51.41633],[-0.1957,51.4164],[-0.19602,51.41764],[-0.19275,51.41794],[-0.19324,51.41853],[-0.19276,51.41858],[-0.19219,51.41825],[-0.19198,51.41748],[-0.19252,51.41711]]]}},{"type":"Feature","properties":{"id":"E01003356","name":"E01003356","parent":"E09000024","type":"LSOA","pop":1789,"r":652,"ff":233,"ffd":13024.0,"ffs":0.443,"g":122,"co":0,"mo":0,"sa":0,"ic":0},"geometry":{"type":"Polygon","coordinates":[[[-0.19507,51.41355],[-0.19426,51.41281],[-0.194,51.41388],[-0.19349,51.41413],[-0.19265,51.41372],[-0.19242,51.41281],[-0.19265,51.4127],[-0.19255,51.41136],[-0.19092,51.41114],[-0.18953,51.41137],[-0.18754,51.41095],[-0.1873,51.40947],[-0.18631,51.40956],[-0.18422,51.40885],[-0.18692,51.40593],[-0.19967,51.4123],[-0.20211,51.41445],[-0.19875,51.41535],[-0.19693,51.41531],[-0.19629,51.41506],[-0.19562,51.41369],[-0.19507,51.41355]]]}},{"type":"Feature","properties":{"id":"E01003357","name":"E01003357","parent":"E09000024","type":"LSOA","pop":1959,"r":696,"ff":263,"ffd":13425.2,"ffs":0.4606,"g":121,"co":0,"mo":0,"sa":0,"ic":0},"geometry":{"type":"Polygon","coordinates":[[[-0.18716,51.41592],[-0.18634,51.41532],[-0.18584,51.41553],[-0.18564,51.4153],[-0.18564,51.41482],[-0.18427,51.41489],[-0.18364,51.41459],[-0.18408,51.41213],[-0.18422,51.40885],[-0.18631,51.40956],[-0.1873,51.40947],[-0.18754,51.41095],[-0.18953,51.41137],[-0.19092,51.41114],[-0.19255,51.41136],[-0.19265,51.4127],[-0.19242,51.41281],[-0.19265,51.41372],[-0.19262,51.41507],[-0.192,51.41509],[-0.19111,51.41564],[-0.18716,51.41592]]]}},{"type":"Feature","properties":{"id":"E01003358","name":"E01003358","parent":"E09000024","type":"LSOA","pop":1868,"r":671,"ff":237,"ffd":12687.4,"ffs":0.4373,"g":125,"co":0,"mo":0,"sa":0,"ic":0},"geometry":{"type":"Polygon","coordinates":[[[-0.19413,51.41958],[-0.19275,51.41794],[-0.19602,51.41764],[-0.1957,51.4164],[-0.19643,51.41633],[-0.19666,51.41707],[-0.19793,51.41699],[-0.19861,51.41676],[-0.19804,51.41534],[-0.19978,51.41517],[-0.20193,51.41954],[-0.19862,51.41915],[-0.19413,51.41958]]]}},{"type":"Feature","properties":{"id":"E01003359","name":"E01003359","parent":"E09000024","type":"LSOA","pop":1798,"r":668,"ff":246,"ffd":13681.9,"ffs":0.4547,"g":123,"co":0,"mo":0,"sa":0,"ic":0},"geometry":{"type":"Polygon","coordinates":[[[-0.18227,51.41623],[-0.18364,51.41459],[-0.18427,51.41489],[-0.18564,51.41482],[-0.18564,51.4153],[-0.18584,51.41553],[-0.18634,51.41532],[-0.18716,51.41592],[-0.18783,51.41585],[-0.18788,51.41609],[-0.18671,51.41631],[-0.18692,51.41897],[-0.18134,51.41932],[-0.18081,51.41655],[-0.18227,51.41623]]]}},{"type":"Feature","properties":{"id":"E01003360","name":"E01003360","parent":"E09000024","type":"LSOA","pop":1895,"r":681,"ff":247,"ffd":13034.3,"ffs":0.4499,"g":128,"co":0,"mo":0,"sa":0,"ic":0},"geometry":{"type":"Polygon","coordinates":[[[-0.18733,51.41933],[-0.18734,51.41895],[-0.18692,51.41897],[-0.18679,51.41867],[-0.18671,51.41631],[-0.18788,51.41609],[-0.18783,51.41585],[-0.19111,51.41564],[-0.192,51.41509],[-0.19262,51.41507],[-0.19252,51.41711],[-0.19198,51.41748],[-0.19219,51.41825],[-0.19276,51.41858],[-0.18733,51.41933]]]}},{"type":"Feature","properties":{"id":"E01003361","name":"E01003361","parent":"E09000024","type":"LSOA","pop":1666,"r":608,"ff":226,"ffd":13565.4,"ffs":0.465,"g":118,"co":0,"mo":0,"sa":0,"ic":0},"geometry":{"type":"Polygon","coordinates":[[[-0.2063,51.40382],[-0.20315,51.40161],[-0.20399,51.40125],[-0.2048,51.40187],[-0.2074,51.40182],[-0.20729,51.40274],[-0.20864,51.40274],[-0.20889,51.4022],[-0.20935,51.40251],[-0.21113,51.40244],[-0.21096,51.40297],[-0.21137,51.40309],[-0.21187,51.40265],[-0.21377,51.40326],[-0.21368,51.40376],[-0.21451,51.40406],[-0.21299,51.4055],[-0.21223,51.40704],[-0.21156,51.40734],[-0.2063,51.40382]]]}},{"type":"Feature","properties":{"id":"E01003362","name":"E01003362","parent":"E09000024","type":"LSOA","pop":1407,"r":583,"ff":226,"ffd":16062.5,"ffs":0.4728,"g":102,"co":0,"mo":0,"sa":0,"ic":0},"geometry":{"type":"Polygon","coordinates":[[[-0.21377,51.40326],[-0.21187,51.40265],[-0.21137,51.40309],[-0.21096,51.40297],[-0.21113,51.40244],[-0.21038,51.40242],[-0.21023,51.4],[-0.21121,51.39973],[-0.21177,51.40009],[-0.21225,51.39949],[-0.2132,51.39956],[-0.21325,51.40036],[-0.21387,51.40056],[-0.21383,51.40084],[-0.21576,51.40171],[-0.21645,51.4014],[-0.21545,51.40101],[-0.2156,51.40063],[-0.2147,51.40041],[-0.21456,51.40003],[-0.21549,51.39957],[-0.21605,51.39983],[-0.2166,51.39904],[-0.21769,51.39829],[-0.21797,51.39855],[-0.21869,51.39824],[-0.21843,51.39868],[-0.21901,51.39884],[-0.21995,51.39772],[-0.22348,51.3995],[-0.22393,51.39924],[-0.22352,51.39948],[-0.22534,51.40087],[-0.22473,51.40112],[-0.22509,51.40144],[-0.22491,51.40191],[-0.22205,51.40277],[-0.22066,51.40373],[-0.21947,51.40292],[-0.21829,51.40355],[-0.21492,51.40373],[-0.21451,51.40406],[-0.21368,51.40376],[-0.21377,51.40326]]]}},{"type":"Feature","properties":{"id":"E01003363","name":"E01003363","parent":"E09000024","type":"LSOA","pop":1720,"r":587,"ff":231,"ffd":13430.2,"ffs":0.4813,"g":104,"co":0,"mo":0,"sa":0,"ic":0},"geometry":{"type":"Polygon","coordinates":[[[-0.2132,51.39956],[-0.21225,51.39949],[-0.21194,51.39913],[-0.21039,51.39871],[-0.20917,51.39986],[-0.20823,51.39988],[-0.20879,51.3994],[-0.20854,51.39899],[-0.2066,51.39904],[-0.20755,51.3987],[-0.20807,51.39747],[-0.2035,51.3985],[-0.20458,51.39447],[-0.20748,51.39433],[-0.2109,51.39368],[-0.21265,51.3939],[-0.21411,51.39445],[-0.21386,51.39463],[-0.21431,51.39513],[-0.21503,51.39525],[-0.21372,51.3963],[-0.21482,51.39652],[-0.21651,51.39723],[-0.21895,51.39564],[-0.21875,51.39638],[-0.21678,51.3979],[-0.21769,51.39829],[-0.2166,51.39904],[-0.21605,51.39983],[-0.21549,51.39957],[-0.21456,51.40003],[-0.2147,51.40041],[-0.2156,51.40063],[-0.21545,51.40101],[-0.21645,51.4014],[-0.21576,51.40171],[-0.21383,51.40084],[-0.21387,51.40056],[-0.21325,51.40036],[-0.2132,51.39956]]]}},{"type":"Feature","properties":{"id":"E01003364","name":"E01003364","parent":"E09000024","type":"LSOA","pop":1879,"r":581,"ff":224,"ffd":11921.2,"ffs":0.4716,"g":103,"co":0,"mo":0,"sa":0,"ic":0},"geometry":{"type":"Polygon","coordinates":[[[-0.22348,51.3995],[-0.21995,51.39772],[-0.21901,51.39884],[-0.21843,51.39868],[-0.21869,51.39824],[-0.21797,51.39855],[-0.21678,51.3979],[-0.21875,51.39638],[-0.21895,51.39564],[-0.21651,51.39723],[-0.21482,51.39652],[-0.21372,51.3963],[-0.21503,51.39525],[-0.21431,51.39513],[-0.21386,51.39463],[-0.21552,51.39341],[-0.21629,51.39249],[-0.21745,51.39212],[-0.21784,51.39252],[-0.21683,51.39296],[-0.21754,51.39313],[-0.22056,51.39603],[-0.22131,51.39587],[-0.22111,51.39656],[-0.22087,51.39677],[-0.22478,51.39873],[-0.22348,51.3995]]]}},{"type":"Feature","properties":{"id":"E01003365","name":"E01003365","parent":"E09000024","type":"LSOA","pop":1474,"r":603,"ff":228,"ffd":15468.1,"ffs":0.4682,"g":113,"co":0,"mo":0,"sa":0,"ic":0},"geometry":{"type":"Polygon","coordinates":[[[-0.20729,51.40274],[-0.2074,51.40182],[-0.2048,51.40187],[-0.20399,51.40125],[-0.20315,51.40161],[-0.20288,51.40137],[-0.2015,51.39953],[-0.20015,51.39726],[-0.2007,51.3957],[-0.20326,51.39445],[-0.20458,51.39447],[-0.2035,51.3985],[-0.20807,51.39747],[-0.20755,51.3987],[-0.2066,51.39904],[-0.20854,51.39899],[-0.20879,51.3994],[-0.20823,51.39988],[-0.20917,51.39986],[-0.21039,51.39871],[-0.21194,51.39913],[-0.21225,51.39949],[-0.21177,51.40009],[-0.21121,51.39973],[-0.21023,51.4],[-0.21038,51.40242],[-0.20935,51.40251],[-0.20889,51.4022],[-0.20864,51.40274],[-0.20729,51.40274]]]}},{"type":"Feature","properties":{"id":"E01003366","name":"E01003366","parent":"E09000024","type":"LSOA","pop":1852,"r":625,"ff":230,"ffd":12419.0,"ffs":0.4656,"g":127,"co":0,"mo":0,"sa":0,"ic":0},"geometry":{"type":"Polygon","coordinates":[[[-0.21492,51.40373],[-0.21829,51.40355],[-0.21947,51.40292],[-0.22066,51.40373],[-0.22205,51.40277],[-0.22534,51.4018],[-0.2264,51.40274],[-0.22851,51.40294],[-0.22879,51.40711],[-0.22466,51.40718],[-0.21987,51.40756],[-0.21409,51.4092],[-0.21156,51.40734],[-0.21223,51.40704],[-0.21299,51.4055],[-0.21492,51.40373]]]}},{"type":"Feature","properties":{"id":"E01003368","name":"E01003368","parent":"E09000024","type":"LSOA","pop":1734,"r":684,"ff":273,"ffd":15743.9,"ffs":0.4683,"g":98,"co":0,"mo":0,"sa":0,"ic":0},"geometry":{"type":"Polygon","coordinates":[[[-0.162,51.41798],[-0.16185,51.4162],[-0.1656,51.41602],[-0.17065,51.41496],[-0.17102,51.41631],[-0.17334,51.41545],[-0.17368,51.41586],[-0.17171,51.41659],[-0.17178,51.417],[-0.17126,51.41727],[-0.16897,51.41757],[-0.1688,51.4173],[-0.16528,51.41783],[-0.16539,51.41813],[-0.16481,51.41827],[-0.162,51.41798]]]}},{"type":"Feature","properties":{"id":"E01003369","name":"E01003369","parent":"E09000024","type":"LSOA","pop":1628,"r":639,"ff":244,"ffd":14987.7,"ffs":0.4604,"g":106,"co":0,"mo":0,"sa":0,"ic":0},"geometry":{"type":"Polygon","coordinates":[[[-0.1751,51.42174],[-0.17624,51.42091],[-0.17637,51.42022],[-0.17709,51.41978],[-0.17685,51.41996],[-0.17793,51.42073],[-0.1792,51.4204],[-0.17956,51.42081],[-0.1788,51.42105],[-0.17936,51.42157],[-0.18016,51.42124],[-0.18065,51.42181],[-0.17776,51.42255],[-0.17876,51.42429],[-0.175,51.42352],[-0.17614,51.42247],[-0.17496,51.42206],[-0.1751,51.42174]]]}},{"type":"Feature","properties":{"id":"E01003370","name":"E01003370","parent":"E09000024","type":"LSOA","pop":2042,"r":648,"ff":246,"ffd":12047.0,"ffs":0.4556,"g":104,"co":0,"mo":0,"sa":0,"ic":0},"geometry":{"type":"Polygon","coordinates":[[[-0.17184,51.42238],[-0.16903,51.42117],[-0.16909,51.42033],[-0.17332,51.42126],[-0.17382,51.42101],[-0.17438,51.42035],[-0.17429,51.42003],[-0.17499,51.4202],[-0.17423,51.42101],[-0.17451,51.4211],[-0.17695,51.41891],[-0.17568,51.41893],[-0.17381,51.41963],[-0.17252,51.41896],[-0.17309,51.41825],[-0.17437,51.41803],[-0.17456,51.41759],[-0.17484,51.41757],[-0.17545,51.41843],[-0.17757,51.41867],[-0.17838,51.41798],[-0.17877,51.41814],[-0.17845,51.41907],[-0.17757,51.41929],[-0.1792,51.4204],[-0.17793,51.42073],[-0.17685,51.41996],[-0.17709,51.41978],[-0.17637,51.42022],[-0.17624,51.42091],[-0.1751,51.42174],[-0.17496,51.42206],[-0.17614,51.42247],[-0.175,51.42352],[-0.17355,51.42317],[-0.17184,51.42238]]]}},{"type":"Feature","properties":{"id":"E01003371","name":"E01003371","parent":"E09000024","type":"LSOA","pop":1578,"r":613,"ff":235,"ffd":14892.3,"ffs":0.4617,"g":101,"co":0,"mo":0,"sa":0,"ic":0},"geometry":{"type":"Polygon","coordinates":[[[-0.16909,51.42033],[-0.16721,51.41939],[-0.16943,51.41809],[-0.17069,51.41771],[-0.17136,51.41853],[-0.17264,51.41879],[-0.17252,51.41896],[-0.17381,51.41963],[-0.17568,51.41893],[-0.17695,51.41891],[-0.17451,51.4211],[-0.17423,51.42101],[-0.17499,51.4202],[-0.17429,51.42003],[-0.17438,51.42035],[-0.17382,51.42101],[-0.17332,51.42126],[-0.16909,51.42033]]]}},{"type":"Feature","properties":{"id":"E01003372","name":"E01003372","parent":"E09000024","type":"LSOA","pop":1679,"r":709,"ff":277,"ffd":16497.9,"ffs":0.4648,"g":110,"co":0,"mo":2,"sa":0,"ic":0},"geometry":{"type":"Polygon","coordinates":[[[-0.16204,51.41869],[-0.162,51.41798],[-0.16481,51.41827],[-0.16539,51.41813],[-0.16528,51.41783],[-0.1688,51.4173],[-0.16943,51.41809],[-0.16721,51.41939],[-0.16909,51.42033],[-0.16903,51.42117],[-0.16787,51.42079],[-0.16481,51.42034],[-0.16507,51.42009],[-0.16167,51.41982],[-0.16204,51.41869]]]}},{"type":"Feature","properties":{"id":"E01003373","name":"E01003373","parent":"E09000024","type":"LSOA","pop":1591,"r":667,"ff":266,"ffd":16719.0,"ffs":0.4725,"g":101,"co":0,"mo":0,"sa":0,"ic":0},"geometry":{"type":"Polygon","coordinates":[[[-0.17657,51.4061],[-0.17638,51.40562],[-0.17552,51.40577],[-0.17512,51.40495],[-0.17645,51.4047],[-0.17587,51.4033],[-0.17543,51.40291],[-0.17602,51.40228],[-0.17534,51.39998],[-0.17619,51.3995],[-0.18037,51.40222],[-0.18002,51.40258],[-0.18039,51.40288],[-0.17872,51.40358],[-0.17928,51.40431],[-0.17981,51.40428],[-0.17992,51.4038],[-0.18111,51.40374],[-0.18141,51.40402],[-0.18043,51.4042],[-0.18063,51.40445],[-0.18001,51.40523],[-0.17657,51.4061]]]}},{"type":"Feature","properties":{"id":"E01003374","name":"E01003374","parent":"E09000024","type":"LSOA","pop":1961,"r":734,"ff":309,"ffd":15757.3,"ffs":0.4968,"g":109,"co":0,"mo":2,"sa":0,"ic":0},"geometry":{"type":"Polygon","coordinates":[[[-0.16508,51.4035],[-0.1646,51.40207],[-0.16103,51.40246],[-0.16043,51.4012],[-0.16227,51.4012],[-0.16348,51.40054],[-0.16394,51.40116],[-0.16711,51.40039],[-0.16794,51.40078],[-0.16829,51.39972],[-0.16811,51.39889],[-0.16883,51.39831],[-0.16827,51.39798],[-0.16846,51.39776],[-0.16775,51.39764],[-0.16808,51.39703],[-0.17283,51.39786],[-0.17509,51.39884],[-0.17421,51.40021],[-0.17466,51.40174],[-0.1731,51.40189],[-0.17317,51.40256],[-0.16976,51.40247],[-0.1695,51.40308],[-0.16873,51.4025],[-0.16722,51.40264],[-0.16665,51.40275],[-0.16525,51.40396],[-0.16463,51.40361],[-0.16508,51.4035]]]}},{"type":"Feature","properties":{"id":"E01003375","name":"E01003375","parent":"E09000024","type":"LSOA","pop":1846,"r":720,"ff":303,"ffd":16413.9,"ffs":0.5025,"g":112,"co":0,"mo":2,"sa":0,"ic":0},"geometry":{"type":"Polygon","coordinates":[[[-0.15749,51.40307],[-0.15935,51.39917],[-0.15846,51.3982],[-0.15555,51.39711],[-0.14508,51.39386],[-0.13461,51.39099],[-0.13663,51.3903],[-0.13793,51.39027],[-0.1418,51.38937],[-0.14323,51.39043],[-0.14435,51.39068],[-0.15803,51.38926],[-0.15829,51.38882],[-0.15982,51.3885],[-0.16101,51.38777],[-0.1619,51.38816],[-0.16526,51.38798],[-0.16644,51.38969],[-0.16736,51.38993],[-0.16886,51.39099],[-0.16986,51.3914],[-0.16995,51.39172],[-0.16829,51.39253],[-0.16858,51.39311],[-0.16855,51.39365],[-0.1693,51.39402],[-0.1697,51.39474],[-0.16739,51.39685],[-0.16808,51.39703],[-0.16775,51.39764],[-0.16846,51.39776],[-0.16827,51.39798],[-0.16883,51.39831],[-0.16811,51.39889],[-0.16829,51.39972],[-0.16794,51.40078],[-0.16711,51.40039],[-0.16394,51.40116],[-0.16348,51.40054],[-0.16227,51.4012],[-0.16043,51.4012],[-0.16127,51.40328],[-0.16006,51.40379],[-0.15749,51.40307]]]}},{"type":"Feature","properties":{"id":"E01003376","name":"E01003376","parent":"E09000024","type":"LSOA","pop":1585,"r":636,"ff":247,"ffd":15583.6,"ffs":0.4652,"g":102,"co":0,"mo":0,"sa":0,"ic":0},"geometry":{"type":"Polygon","coordinates":[[[-0.18114,51.40961],[-0.18087,51.40912],[-0.17941,51.40931],[-0.17908,51.40897],[-0.17852,51.40914],[-0.17849,51.40819],[-0.17809,51.40742],[-0.17691,51.4074],[-0.17606,51.40645],[-0.17657,51.4061],[-0.17841,51.40573],[-0.17849,51.4069],[-0.18084,51.40679],[-0.18192,51.40695],[-0.18231,51.40759],[-0.18276,51.40749],[-0.18277,51.40666],[-0.18349,51.40637],[-0.18263,51.40364],[-0.18692,51.40593],[-0.18422,51.40885],[-0.18425,51.40934],[-0.18114,51.40961]]]}},{"type":"Feature","properties":{"id":"E01003377","name":"E01003377","parent":"E09000024","type":"LSOA","pop":1608,"r":615,"ff":243,"ffd":15111.9,"ffs":0.4746,"g":100,"co":0,"mo":0,"sa":0,"ic":0},"geometry":{"type":"Polygon","coordinates":[[[-0.18192,51.40695],[-0.18084,51.40679],[-0.17849,51.4069],[-0.17841,51.40573],[-0.18001,51.40523],[-0.18063,51.40445],[-0.18043,51.4042],[-0.18141,51.40402],[-0.18111,51.40374],[-0.17992,51.4038],[-0.17981,51.40428],[-0.17928,51.40431],[-0.17872,51.40358],[-0.18039,51.40288],[-0.18002,51.40258],[-0.18037,51.40222],[-0.18263,51.40364],[-0.18349,51.40637],[-0.18277,51.40666],[-0.18276,51.40749],[-0.18231,51.40759],[-0.18192,51.40695]]]}},{"type":"Feature","properties":{"id":"E01003378","name":"E01003378","parent":"E09000024","type":"LSOA","pop":2250,"r":680,"ff":272,"ffd":12088.9,"ffs":0.4739,"g":103,"co":0,"mo":0,"sa":0,"ic":0},"geometry":{"type":"Polygon","coordinates":[[[-0.17283,51.40612],[-0.17199,51.40499],[-0.17085,51.40542],[-0.17044,51.40509],[-0.17132,51.40473],[-0.17098,51.40416],[-0.1697,51.40439],[-0.1686,51.4035],[-0.16882,51.40312],[-0.1696,51.40318],[-0.1695,51.40308],[-0.16976,51.40247],[-0.17317,51.40256],[-0.1731,51.40189],[-0.17466,51.40174],[-0.17421,51.40021],[-0.17509,51.39884],[-0.17619,51.3995],[-0.17534,51.39998],[-0.17602,51.40228],[-0.17543,51.40291],[-0.17587,51.4033],[-0.17645,51.4047],[-0.17512,51.40495],[-0.17552,51.40577],[-0.17638,51.40562],[-0.17657,51.4061],[-0.17606,51.40645],[-0.17691,51.4074],[-0.17345,51.40745],[-0.17283,51.40612]]]}},{"type":"Feature","properties":{"id":"E01003379","name":"E01003379","parent":"E09000024","type":"LSOA","pop":2069,"r":714,"ff":285,"ffd":13774.8,"ffs":0.4711,"g":105,"co":0,"mo":0,"sa":0,"ic":0},"geometry":{"type":"Polygon","coordinates":[[[-0.16407,51.40542],[-0.16525,51.40396],[-0.16665,51.40275],[-0.16722,51.40264],[-0.16873,51.4025],[-0.1696,51.40318],[-0.16882,51.40312],[-0.1686,51.4035],[-0.1697,51.40439],[-0.17098,51.40416],[-0.17132,51.40473],[-0.17044,51.40509],[-0.17085,51.40542],[-0.1679,51.40685],[-0.16688,51.40632],[-0.16407,51.40542]]]}},{"type":"Feature","properties":{"id":"E01003380","name":"E01003380","parent":"E09000024","type":"LSOA","pop":1731,"r":643,"ff":236,"ffd":13633.7,"ffs":0.4655,"g":132,"co":0,"mo":0,"sa":0,"ic":0},"geometry":{"type":"Polygon","coordinates":[[[-0.21427,51.41429],[-0.21353,51.41326],[-0.21264,51.41358],[-0.21181,51.41339],[-0.21139,51.41356],[-0.21019,51.41221],[-0.21491,51.41134],[-0.21409,51.4092],[-0.21884,51.40774],[-0.21904,51.40817],[-0.21843,51.40809],[-0.21807,51.40841],[-0.21927,51.41037],[-0.21818,51.41038],[-0.21754,51.4094],[-0.21696,51.40959],[-0.2179,51.41082],[-0.21777,51.41094],[-0.21796,51.4122],[-0.21889,51.413],[-0.21512,51.41545],[-0.21396,51.41494],[-0.21386,51.41445],[-0.21427,51.41429]]]}},{"type":"Feature","properties":{"id":"E01003381","name":"E01003381","parent":"E09000024","type":"LSOA","pop":1670,"r":601,"ff":218,"ffd":13053.9,"ffs":0.4609,"g":123,"co":0,"mo":0,"sa":0,"ic":0},"geometry":{"type":"Polygon","coordinates":[[[-0.22944,51.40708],[-0.23011,51.40908],[-0.22734,51.40969],[-0.2233,51.41096],[-0.22143,51.41093],[-0.22097,51.41027],[-0.22394,51.40972],[-0.22244,51.40731],[-0.22944,51.40708]]]}},{"type":"Feature","properties":{"id":"E01003382","name":"E01003382","parent":"E09000024","type":"LSOA","pop":1905,"r":613,"ff":227,"ffd":11916.0,"ffs":0.469,"g":125,"co":0,"mo":0,"sa":0,"ic":0},"geometry":{"type":"Polygon","coordinates":[[[-0.21777,51.41094],[-0.2179,51.41082],[-0.21696,51.40959],[-0.21754,51.4094],[-0.21818,51.41038],[-0.21927,51.41037],[-0.21807,51.40841],[-0.21843,51.40809],[-0.21904,51.40817],[-0.21884,51.40774],[-0.21922,51.40766],[-0.22244,51.40731],[-0.22394,51.40972],[-0.22097,51.41027],[-0.22143,51.41093],[-0.2233,51.41096],[-0.21889,51.413],[-0.21796,51.4122],[-0.21777,51.41094]]]}},{"type":"Feature","properties":{"id":"E01003383","name":"E01003383","parent":"E09000024","type":"LSOA","pop":1619,"r":633,"ff":219,"ffd":13526.9,"ffs":0.4269,"g":116,"co":0,"mo":0,"sa":0,"ic":0},"geometry":{"type":"Polygon","coordinates":[[[-0.20213,51.41899],[-0.20138,51.4174],[-0.20175,51.41698],[-0.20165,51.41667],[-0.2022,51.41642],[-0.20291,51.41634],[-0.20398,51.41855],[-0.20454,51.41887],[-0.2048,51.41867],[-0.20516,51.41771],[-0.20441,51.41632],[-0.20502,51.41658],[-0.20537,51.41624],[-0.20658,51.41674],[-0.20724,51.41645],[-0.20802,51.41665],[-0.20927,51.41531],[-0.21035,51.41506],[-0.21135,51.41577],[-0.20995,51.41627],[-0.21023,51.41651],[-0.20982,51.41661],[-0.21048,51.41715],[-0.21347,51.41617],[-0.21412,51.41613],[-0.20693,51.42099],[-0.20449,51.42009],[-0.20193,51.41954],[-0.20169,51.41921],[-0.20213,51.41899]]]}},{"type":"Feature","properties":{"id":"E01003384","name":"E01003384","parent":"E09000024","type":"LSOA","pop":1648,"r":699,"ff":243,"ffd":14745.1,"ffs":0.4332,"g":135,"co":0,"mo":0,"sa":0,"ic":0},"geometry":{"type":"Polygon","coordinates":[[[-0.20072,51.41731],[-0.19978,51.41517],[-0.20621,51.41331],[-0.20679,51.41463],[-0.206,51.41542],[-0.2059,51.41643],[-0.20537,51.41624],[-0.20502,51.41658],[-0.20441,51.41632],[-0.20516,51.41771],[-0.2048,51.41867],[-0.20454,51.41887],[-0.20398,51.41855],[-0.20291,51.41634],[-0.20165,51.41667],[-0.20175,51.41698],[-0.20138,51.4174],[-0.20213,51.41899],[-0.20169,51.41921],[-0.20072,51.41731]]]}},{"type":"Feature","properties":{"id":"E01003385","name":"E01003385","parent":"E09000024","type":"LSOA","pop":1629,"r":678,"ff":243,"ffd":14917.1,"ffs":0.4467,"g":130,"co":0,"mo":0,"sa":0,"ic":0},"geometry":{"type":"Polygon","coordinates":[[[-0.21135,51.41577],[-0.21035,51.41506],[-0.20927,51.41531],[-0.20802,51.41665],[-0.20724,51.41645],[-0.20658,51.41674],[-0.2059,51.41643],[-0.206,51.41542],[-0.20679,51.41463],[-0.20621,51.41331],[-0.21019,51.41221],[-0.21139,51.41356],[-0.21181,51.41339],[-0.21264,51.41358],[-0.21353,51.41326],[-0.21427,51.41429],[-0.21386,51.41445],[-0.21396,51.41494],[-0.21512,51.41545],[-0.21412,51.41613],[-0.21347,51.41617],[-0.21048,51.41715],[-0.20982,51.41661],[-0.21023,51.41651],[-0.20995,51.41627],[-0.21135,51.41577]]]}},{"type":"Feature","properties":{"id":"E01003386","name":"E01003386","parent":"E09000024","type":"LSOA","pop":2330,"r":772,"ff":325,"ffd":13948.5,"ffs":0.4977,"g":116,"co":0,"mo":0,"sa":0,"ic":0},"geometry":{"type":"Polygon","coordinates":[[[-0.15581,51.41119],[-0.15555,51.41098],[-0.15377,51.41176],[-0.15299,51.41102],[-0.15369,51.41068],[-0.15333,51.41041],[-0.15412,51.41],[-0.15309,51.40949],[-0.15413,51.40772],[-0.15471,51.40762],[-0.15519,51.40801],[-0.15655,51.4071],[-0.15849,51.40664],[-0.15864,51.40721],[-0.15796,51.40814],[-0.15844,51.40835],[-0.15829,51.40872],[-0.15933,51.40932],[-0.15888,51.40982],[-0.16082,51.41096],[-0.15953,51.41138],[-0.15776,51.4101],[-0.15678,51.41026],[-0.15662,51.41077],[-0.15733,51.41133],[-0.15698,51.41179],[-0.15762,51.41221],[-0.15722,51.41246],[-0.15581,51.41119]]]}},{"type":"Feature","properties":{"id":"E01003387","name":"E01003387","parent":"E09000024","type":"LSOA","pop":2051,"r":710,"ff":301,"ffd":14675.8,"ffs":0.4983,"g":103,"co":0,"mo":2,"sa":0,"ic":0},"geometry":{"type":"Polygon","coordinates":[[[-0.15033,51.40767],[-0.15341,51.40646],[-0.15083,51.4041],[-0.15135,51.40389],[-0.15105,51.40362],[-0.15264,51.40203],[-0.15391,51.40239],[-0.15427,51.40214],[-0.15613,51.40268],[-0.15628,51.40325],[-0.15541,51.40435],[-0.15596,51.40442],[-0.15543,51.40535],[-0.15605,51.40569],[-0.15618,51.40549],[-0.15705,51.40522],[-0.15849,51.40664],[-0.15655,51.4071],[-0.15519,51.40801],[-0.15471,51.40762],[-0.15413,51.40772],[-0.15372,51.40843],[-0.1516,51.40966],[-0.15026,51.40846],[-0.15033,51.40767]]]}},{"type":"Feature","properties":{"id":"E01003388","name":"E01003388","parent":"E09000024","type":"LSOA","pop":1728,"r":724,"ff":299,"ffd":17303.2,"ffs":0.4854,"g":105,"co":0,"mo":0,"sa":0,"ic":0},"geometry":{"type":"Polygon","coordinates":[[[-0.16025,51.41076],[-0.15888,51.40982],[-0.15933,51.40932],[-0.15829,51.40872],[-0.15844,51.40835],[-0.15796,51.40814],[-0.15864,51.40721],[-0.15836,51.40636],[-0.15921,51.40625],[-0.15857,51.40542],[-0.15893,51.40523],[-0.15875,51.4049],[-0.15929,51.40445],[-0.16077,51.40447],[-0.16124,51.40491],[-0.16203,51.4049],[-0.16166,51.40532],[-0.16208,51.40577],[-0.16286,51.40554],[-0.16255,51.40611],[-0.16292,51.40659],[-0.16154,51.40723],[-0.16028,51.40745],[-0.16093,51.40843],[-0.1616,51.40842],[-0.16161,51.40896],[-0.16331,51.4091],[-0.16281,51.40976],[-0.1622,51.40967],[-0.16156,51.41076],[-0.16075,51.41033],[-0.16025,51.41076]]]}},{"type":"Feature","properties":{"id":"E01003389","name":"E01003389","parent":"E09000024","type":"LSOA","pop":1828,"r":785,"ff":325,"ffd":17779.0,"ffs":0.4858,"g":111,"co":0,"mo":0,"sa":0,"ic":0},"geometry":{"type":"Polygon","coordinates":[[[-0.16515,51.40675],[-0.16456,51.4061],[-0.16383,51.40609],[-0.16292,51.40659],[-0.16255,51.40611],[-0.16286,51.40554],[-0.16208,51.40577],[-0.16166,51.40532],[-0.16203,51.4049],[-0.16124,51.40491],[-0.16077,51.40447],[-0.15929,51.40445],[-0.15875,51.4049],[-0.15893,51.40523],[-0.15857,51.40542],[-0.15921,51.40625],[-0.15836,51.40636],[-0.15705,51.40522],[-0.15618,51.40549],[-0.15605,51.40569],[-0.15567,51.40561],[-0.15543,51.40535],[-0.15596,51.40442],[-0.15541,51.40435],[-0.15628,51.40325],[-0.15613,51.40268],[-0.16006,51.40379],[-0.16127,51.40328],[-0.16103,51.40246],[-0.1646,51.40207],[-0.16508,51.4035],[-0.16463,51.40361],[-0.16525,51.40396],[-0.16407,51.40542],[-0.16566,51.40603],[-0.16515,51.40675]]]}},{"type":"Feature","properties":{"id":"E01003390","name":"E01003390","parent":"E09000024","type":"LSOA","pop":1871,"r":716,"ff":292,"ffd":15606.6,"ffs":0.4803,"g":104,"co":0,"mo":0,"sa":0,"ic":0},"geometry":{"type":"Polygon","coordinates":[[[-0.16161,51.40896],[-0.1616,51.40842],[-0.16093,51.40843],[-0.16028,51.40745],[-0.16154,51.40723],[-0.16383,51.40609],[-0.16456,51.4061],[-0.16515,51.40675],[-0.16566,51.40603],[-0.16688,51.40632],[-0.16813,51.40699],[-0.16626,51.40798],[-0.16542,51.40746],[-0.16471,51.40815],[-0.16398,51.40802],[-0.16331,51.4091],[-0.16161,51.40896]]]}},{"type":"Feature","properties":{"id":"E01003391","name":"E01003391","parent":"E09000024","type":"LSOA","pop":1179,"r":712,"ff":306,"ffd":25954.2,"ffs":0.5075,"g":105,"co":0,"mo":2,"sa":0,"ic":0},"geometry":{"type":"Polygon","coordinates":[[[-0.1502,51.40414],[-0.15061,51.40393],[-0.15341,51.40646],[-0.14814,51.40845],[-0.14743,51.40789],[-0.14688,51.40704],[-0.15102,51.4054],[-0.1502,51.40414]]]}},{"type":"Feature","properties":{"id":"E01003392","name":"E01003392","parent":"E09000024","type":"LSOA","pop":1464,"r":469,"ff":211,"ffd":14412.6,"ffs":0.5328,"g":71,"co":0,"mo":0,"sa":0,"ic":0},"geometry":{"type":"Polygon","coordinates":[[[-0.16073,51.41754],[-0.15989,51.4152],[-0.15938,51.41617],[-0.15886,51.41598],[-0.15881,51.41553],[-0.15554,51.41426],[-0.15523,51.41453],[-0.15479,51.41437],[-0.15578,51.41342],[-0.15567,51.41288],[-0.15377,51.41176],[-0.15555,51.41098],[-0.15722,51.41246],[-0.15762,51.41221],[-0.15698,51.41179],[-0.15733,51.41133],[-0.15662,51.41077],[-0.15678,51.41026],[-0.15776,51.4101],[-0.15953,51.41138],[-0.16082,51.41096],[-0.16025,51.41076],[-0.16075,51.41033],[-0.16156,51.41076],[-0.162,51.41806],[-0.16073,51.41754]]]}},{"type":"Feature","properties":{"id":"E01003393","name":"E01003393","parent":"E09000024","type":"LSOA","pop":1681,"r":715,"ff":298,"ffd":17727.5,"ffs":0.4926,"g":107,"co":0,"mo":0,"sa":0,"ic":0},"geometry":{"type":"Polygon","coordinates":[[[-0.15978,51.42032],[-0.15944,51.42019],[-0.15958,51.42],[-0.16093,51.42026],[-0.1609,51.41983],[-0.15893,51.41953],[-0.15897,51.41917],[-0.15755,51.41859],[-0.15879,51.41706],[-0.15915,51.41719],[-0.15935,51.41697],[-0.162,51.41806],[-0.16204,51.41869],[-0.16167,51.41982],[-0.16047,51.42173],[-0.15985,51.42154],[-0.16064,51.42049],[-0.15978,51.42032]]]}},{"type":"Feature","properties":{"id":"E01003394","name":"E01003394","parent":"E09000024","type":"LSOA","pop":2094,"r":718,"ff":300,"ffd":14326.6,"ffs":0.495,"g":109,"co":0,"mo":0,"sa":0,"ic":0},"geometry":{"type":"Polygon","coordinates":[[[-0.15479,51.41777],[-0.153,51.41724],[-0.1516,51.41727],[-0.15289,51.41641],[-0.15252,51.41618],[-0.15382,51.41468],[-0.1547,51.41509],[-0.15554,51.41426],[-0.15881,51.41553],[-0.15886,51.41598],[-0.15938,51.41617],[-0.15989,51.4152],[-0.16073,51.41754],[-0.15935,51.41697],[-0.15915,51.41719],[-0.15879,51.41706],[-0.15755,51.41859],[-0.15613,51.41831],[-0.15579,51.41794],[-0.15479,51.41777]]]}},{"type":"Feature","properties":{"id":"E01003395","name":"E01003395","parent":"E09000024","type":"LSOA","pop":1725,"r":469,"ff":211,"ffd":12231.9,"ffs":0.5328,"g":71,"co":0,"mo":0,"sa":0,"ic":0},"geometry":{"type":"Polygon","coordinates":[[[-0.14667,51.41547],[-0.14839,51.41425],[-0.14876,51.41443],[-0.14937,51.41393],[-0.14852,51.41356],[-0.15065,51.41185],[-0.15309,51.40949],[-0.15412,51.41],[-0.15333,51.41041],[-0.15369,51.41068],[-0.15299,51.41102],[-0.15377,51.41176],[-0.15567,51.41288],[-0.15578,51.41342],[-0.15479,51.41437],[-0.15523,51.41453],[-0.1547,51.41509],[-0.15382,51.41468],[-0.15252,51.41618],[-0.14941,51.41528],[-0.14877,51.41578],[-0.14999,51.41611],[-0.14979,51.41641],[-0.14667,51.41547]]]}},{"type":"Feature","properties":{"id":"E01003396","name":"E01003396","parent":"E09000024","type":"LSOA","pop":1477,"r":739,"ff":298,"ffd":20176.0,"ffs":0.4877,"g":125,"co":0,"mo":2,"sa":0,"ic":0},"geometry":{"type":"Polygon","coordinates":[[[-0.15583,51.42063],[-0.15654,51.4197],[-0.15776,51.41992],[-0.15795,51.4197],[-0.15703,51.41953],[-0.15716,51.41917],[-0.15587,51.41891],[-0.15593,51.41851],[-0.15467,51.41822],[-0.15493,51.4179],[-0.15579,51.41794],[-0.15613,51.41831],[-0.15832,51.41878],[-0.15897,51.41917],[-0.15893,51.41953],[-0.1609,51.41983],[-0.16093,51.42026],[-0.15958,51.42],[-0.15944,51.42019],[-0.16064,51.42049],[-0.15985,51.42154],[-0.16047,51.42173],[-0.16009,51.42181],[-0.16001,51.42267],[-0.1558,51.42125],[-0.15603,51.42097],[-0.15583,51.42063]]]}},{"type":"Feature","properties":{"id":"E01003397","name":"E01003397","parent":"E09000024","type":"LSOA","pop":1530,"r":726,"ff":300,"ffd":19607.8,"ffs":0.4983,"g":121,"co":0,"mo":2,"sa":0,"ic":0},"geometry":{"type":"Polygon","coordinates":[[[-0.15217,51.42012],[-0.1513,51.41985],[-0.15009,51.42009],[-0.15016,51.4197],[-0.15099,51.41954],[-0.15088,51.41909],[-0.15207,51.41942],[-0.15236,51.41922],[-0.14964,51.4184],[-0.14987,51.41812],[-0.1516,51.41727],[-0.153,51.41724],[-0.15479,51.41777],[-0.15493,51.4179],[-0.15467,51.41822],[-0.15593,51.41851],[-0.15587,51.41891],[-0.15716,51.41917],[-0.15703,51.41953],[-0.15795,51.4197],[-0.15776,51.41992],[-0.15654,51.4197],[-0.15583,51.42063],[-0.15603,51.42097],[-0.1558,51.42125],[-0.15217,51.42012]]]}},{"type":"Feature","properties":{"id":"E01003398","name":"E01003398","parent":"E09000024","type":"LSOA","pop":1983,"r":736,"ff":314,"ffd":15834.6,"ffs":0.5081,"g":115,"co":0,"mo":0,"sa":0,"ic":0},"geometry":{"type":"Polygon","coordinates":[[[-0.14828,51.41935],[-0.14454,51.41774],[-0.14306,51.41813],[-0.14038,51.41925],[-0.14852,51.41356],[-0.14937,51.41393],[-0.14876,51.41443],[-0.14839,51.41425],[-0.14667,51.41547],[-0.14979,51.41641],[-0.14999,51.41611],[-0.14877,51.41578],[-0.14941,51.41528],[-0.15289,51.41641],[-0.14964,51.4184],[-0.15236,51.41922],[-0.15207,51.41942],[-0.15088,51.41909],[-0.15099,51.41954],[-0.15016,51.4197],[-0.15009,51.42009],[-0.14828,51.41935]]]}},{"type":"Feature","properties":{"id":"E01003399","name":"E01003399","parent":"E09000024","type":"LSOA","pop":1420,"r":669,"ff":238,"ffd":16760.6,"ffs":0.4508,"g":136,"co":0,"mo":0,"sa":0,"ic":0},"geometry":{"type":"Polygon","coordinates":[[[-0.21876,51.41553],[-0.21839,51.41523],[-0.21743,51.41546],[-0.21574,51.41503],[-0.21935,51.41273],[-0.22206,51.41145],[-0.2234,51.41275],[-0.2231,51.4129],[-0.22337,51.41347],[-0.22023,51.41537],[-0.22077,51.4159],[-0.22001,51.41649],[-0.21911,51.41599],[-0.21948,51.41562],[-0.21876,51.41553]]]}},{"type":"Feature","properties":{"id":"E01003400","name":"E01003400","parent":"E09000024","type":"LSOA","pop":1365,"r":719,"ff":253,"ffd":18534.8,"ffs":0.4347,"g":134,"co":0,"mo":0,"sa":0,"ic":0},"geometry":{"type":"Polygon","coordinates":[[[-0.20226,51.42725],[-0.19909,51.42731],[-0.20091,51.42513],[-0.204,51.42265],[-0.20692,51.42099],[-0.20766,51.42143],[-0.20728,51.42168],[-0.20769,51.42204],[-0.20699,51.42253],[-0.20765,51.42269],[-0.20482,51.42391],[-0.20609,51.42502],[-0.20436,51.4258],[-0.20504,51.42635],[-0.20454,51.42657],[-0.20495,51.42685],[-0.20437,51.42797],[-0.20373,51.42809],[-0.20348,51.42755],[-0.20226,51.42725]]]}},{"type":"Feature","properties":{"id":"E01003401","name":"E01003401","parent":"E09000024","type":"LSOA","pop":1322,"r":708,"ff":246,"ffd":18608.2,"ffs":0.4286,"g":131,"co":0,"mo":0,"sa":0,"ic":0},"geometry":{"type":"Polygon","coordinates":[[[-0.20504,51.42635],[-0.20436,51.4258],[-0.20609,51.42502],[-0.20482,51.42391],[-0.20765,51.42269],[-0.20699,51.42253],[-0.20769,51.42204],[-0.20728,51.42168],[-0.20766,51.42143],[-0.20863,51.42103],[-0.21022,51.42261],[-0.21082,51.42225],[-0.21178,51.42259],[-0.21065,51.42339],[-0.21058,51.42389],[-0.20995,51.42377],[-0.20954,51.42407],[-0.21005,51.42471],[-0.20957,51.42491],[-0.21013,51.42535],[-0.21025,51.42595],[-0.20973,51.4264],[-0.20743,51.42616],[-0.20397,51.42862],[-0.20373,51.42809],[-0.20437,51.42797],[-0.20495,51.42685],[-0.20454,51.42657],[-0.20504,51.42635]]]}},{"type":"Feature","properties":{"id":"E01003402","name":"E01003402","parent":"E09000024","type":"LSOA","pop":1410,"r":675,"ff":237,"ffd":16808.5,"ffs":0.4349,"g":127,"co":0,"mo":0,"sa":0,"ic":0},"geometry":{"type":"Polygon","coordinates":[[[-0.20954,51.42407],[-0.20995,51.42377],[-0.21058,51.42389],[-0.21065,51.42339],[-0.21178,51.42259],[-0.21082,51.42225],[-0.21022,51.42261],[-0.20863,51.42103],[-0.20766,51.42143],[-0.20692,51.42099],[-0.21124,51.41803],[-0.21198,51.41889],[-0.21299,51.41896],[-0.21341,51.41966],[-0.21609,51.42098],[-0.21507,51.42147],[-0.21421,51.42122],[-0.21388,51.42165],[-0.21477,51.42217],[-0.21296,51.42415],[-0.2133,51.42421],[-0.21346,51.42445],[-0.21025,51.42595],[-0.21013,51.42535],[-0.20957,51.42491],[-0.21005,51.42471],[-0.20954,51.42407]]]}},{"type":"Feature","properties":{"id":"E01003403","name":"E01003403","parent":"E09000024","type":"LSOA","pop":1436,"r":699,"ff":243,"ffd":16922.0,"ffs":0.4332,"g":135,"co":0,"mo":0,"sa":0,"ic":0},"geometry":{"type":"Polygon","coordinates":[[[-0.21304,51.41901],[-0.21198,51.41889],[-0.21124,51.41803],[-0.21321,51.41673],[-0.21469,51.41719],[-0.21417,51.41752],[-0.21473,51.41785],[-0.21451,51.41799],[-0.21666,51.41904],[-0.21703,51.41867],[-0.21776,51.4189],[-0.21781,51.4184],[-0.21869,51.41835],[-0.22085,51.41763],[-0.22195,51.4181],[-0.22365,51.41968],[-0.21752,51.4225],[-0.21507,51.42147],[-0.21609,51.42098],[-0.21341,51.41966],[-0.21304,51.41901]]]}},{"type":"Feature","properties":{"id":"E01003404","name":"E01003404","parent":"E09000024","type":"LSOA","pop":1890,"r":699,"ff":243,"ffd":12857.1,"ffs":0.4332,"g":135,"co":0,"mo":0,"sa":0,"ic":0},"geometry":{"type":"Polygon","coordinates":[[[-0.22195,51.4181],[-0.22085,51.41763],[-0.21869,51.41835],[-0.21781,51.4184],[-0.21776,51.4189],[-0.21703,51.41867],[-0.21666,51.41904],[-0.21451,51.41799],[-0.21473,51.41785],[-0.21417,51.41752],[-0.21469,51.41719],[-0.21321,51.41673],[-0.21574,51.41503],[-0.21743,51.41546],[-0.21839,51.41523],[-0.21876,51.41553],[-0.21948,51.41562],[-0.21911,51.41599],[-0.22001,51.41649],[-0.22077,51.4159],[-0.22023,51.41537],[-0.2211,51.41495],[-0.22299,51.41634],[-0.22496,51.4191],[-0.22365,51.41968],[-0.22195,51.4181]]]}},{"type":"Feature","properties":{"id":"E01003405","name":"E01003405","parent":"E09000024","type":"LSOA","pop":2503,"r":693,"ff":277,"ffd":11066.7,"ffs":0.4703,"g":100,"co":0,"mo":0,"sa":0,"ic":0},"geometry":{"type":"Polygon","coordinates":[[[-0.16743,51.40908],[-0.16722,51.40879],[-0.16369,51.40991],[-0.16281,51.40976],[-0.16398,51.40802],[-0.16471,51.40815],[-0.16542,51.40746],[-0.16626,51.40798],[-0.16755,51.40736],[-0.16813,51.40699],[-0.1679,51.40685],[-0.16928,51.40613],[-0.17199,51.40499],[-0.17283,51.40612],[-0.17345,51.40745],[-0.17468,51.40746],[-0.17464,51.40781],[-0.17539,51.40918],[-0.17443,51.40927],[-0.17394,51.40895],[-0.17328,51.40921],[-0.17317,51.40833],[-0.17101,51.40924],[-0.17222,51.41029],[-0.16927,51.41127],[-0.16745,51.41135],[-0.1673,51.41104],[-0.16639,51.4109],[-0.16712,51.41067],[-0.16698,51.41039],[-0.16598,51.40971],[-0.16743,51.40908]]]}},{"type":"Feature","properties":{"id":"E01003406","name":"E01003406","parent":"E09000024","type":"LSOA","pop":1667,"r":655,"ff":264,"ffd":15836.8,"ffs":0.4723,"g":93,"co":0,"mo":0,"sa":0,"ic":0},"geometry":{"type":"Polygon","coordinates":[[[-0.16283,51.41572],[-0.1635,51.41466],[-0.16808,51.41396],[-0.1674,51.41373],[-0.16771,51.41338],[-0.16714,51.41309],[-0.16727,51.41276],[-0.16817,51.41264],[-0.16768,51.41132],[-0.16927,51.41127],[-0.16997,51.41216],[-0.1703,51.41219],[-0.17088,51.41333],[-0.17187,51.41385],[-0.17187,51.41419],[-0.1724,51.41435],[-0.17253,51.41401],[-0.17338,51.414],[-0.174,51.41525],[-0.17102,51.41631],[-0.17065,51.41496],[-0.1656,51.41602],[-0.16185,51.4162],[-0.16183,51.41591],[-0.16283,51.41572]]]}},{"type":"Feature","properties":{"id":"E01003407","name":"E01003407","parent":"E09000024","type":"LSOA","pop":1934,"r":665,"ff":264,"ffd":13650.5,"ffs":0.4731,"g":103,"co":0,"mo":0,"sa":0,"ic":0},"geometry":{"type":"Polygon","coordinates":[[[-0.16997,51.41216],[-0.16927,51.41127],[-0.17259,51.41014],[-0.1725,51.41049],[-0.17604,51.41101],[-0.17653,51.41027],[-0.17789,51.41071],[-0.17811,51.41022],[-0.17893,51.41036],[-0.17897,51.41147],[-0.17836,51.41162],[-0.17815,51.41222],[-0.17847,51.41219],[-0.17857,51.41296],[-0.17338,51.414],[-0.17253,51.41401],[-0.1724,51.41435],[-0.17187,51.41419],[-0.17187,51.41385],[-0.17088,51.41333],[-0.1703,51.41219],[-0.16997,51.41216]]]}},{"type":"Feature","properties":{"id":"E01003408","name":"E01003408","parent":"E09000024","type":"LSOA","pop":1899,"r":700,"ff":265,"ffd":13954.7,"ffs":0.453,"g":112,"co":0,"mo":0,"sa":0,"ic":0},"geometry":{"type":"Polygon","coordinates":[[[-0.17853,51.41256],[-0.17847,51.41219],[-0.17815,51.41222],[-0.17836,51.41162],[-0.17897,51.41147],[-0.17893,51.41036],[-0.17811,51.41022],[-0.17795,51.40927],[-0.17908,51.40897],[-0.17941,51.40931],[-0.18087,51.40912],[-0.18114,51.40961],[-0.18425,51.40934],[-0.18408,51.41213],[-0.18229,51.41261],[-0.17904,51.41405],[-0.17853,51.41256]]]}},{"type":"Feature","properties":{"id":"E01003409","name":"E01003409","parent":"E09000024","type":"LSOA","pop":1850,"r":708,"ff":288,"ffd":15567.6,"ffs":0.4776,"g":102,"co":0,"mo":0,"sa":0,"ic":0},"geometry":{"type":"Polygon","coordinates":[[[-0.16152,51.41159],[-0.16156,51.41076],[-0.1622,51.40967],[-0.16369,51.40991],[-0.16722,51.40879],[-0.16743,51.40908],[-0.16598,51.40971],[-0.16698,51.41039],[-0.16712,51.41067],[-0.16639,51.4109],[-0.1673,51.41104],[-0.16745,51.41135],[-0.16768,51.41132],[-0.16817,51.41264],[-0.16727,51.41276],[-0.16714,51.41309],[-0.16771,51.41338],[-0.1674,51.41373],[-0.16808,51.41396],[-0.1635,51.41466],[-0.16283,51.41572],[-0.16183,51.41591],[-0.16152,51.41159]]]}},{"type":"Feature","properties":{"id":"E01003410","name":"E01003410","parent":"E09000024","type":"LSOA","pop":1762,"r":640,"ff":253,"ffd":14358.7,"ffs":0.4711,"g":100,"co":0,"mo":0,"sa":0,"ic":0},"geometry":{"type":"Polygon","coordinates":[[[-0.1725,51.41049],[-0.17259,51.41014],[-0.17222,51.41029],[-0.17101,51.40924],[-0.17317,51.40833],[-0.17328,51.40921],[-0.17394,51.40895],[-0.17443,51.40927],[-0.17539,51.40918],[-0.17464,51.40781],[-0.17468,51.40746],[-0.17809,51.40742],[-0.17849,51.40819],[-0.17852,51.40914],[-0.17795,51.40927],[-0.17811,51.41022],[-0.17789,51.41071],[-0.17653,51.41027],[-0.17604,51.41101],[-0.1725,51.41049]]]}},{"type":"Feature","properties":{"id":"E01003411","name":"E01003411","parent":"E09000024","type":"LSOA","pop":2088,"r":730,"ff":298,"ffd":14272.0,"ffs":0.4934,"g":122,"co":0,"mo":2,"sa":0,"ic":0},"geometry":{"type":"Polygon","coordinates":[[[-0.14205,51.41308],[-0.13964,51.41221],[-0.14049,51.41179],[-0.14058,51.4115],[-0.14186,51.41014],[-0.14247,51.40981],[-0.14262,51.40919],[-0.14227,51.40851],[-0.14356,51.40814],[-0.14523,51.40703],[-0.14478,51.40671],[-0.14493,51.40629],[-0.1464,51.40617],[-0.14743,51.40789],[-0.14682,51.40822],[-0.14667,51.40917],[-0.14618,51.4093],[-0.14675,51.40966],[-0.14639,51.40995],[-0.14683,51.41037],[-0.14585,51.41093],[-0.14671,51.41128],[-0.14582,51.41253],[-0.14507,51.41257],[-0.14469,51.41234],[-0.14262,51.41332],[-0.14205,51.41308]]]}},{"type":"Feature","properties":{"id":"E01003412","name":"E01003412","parent":"E09000024","type":"LSOA","pop":1759,"r":746,"ff":313,"ffd":17794.2,"ffs":0.4984,"g":114,"co":0,"mo":2,"sa":0,"ic":0},"geometry":{"type":"Polygon","coordinates":[[[-0.14675,51.40966],[-0.14618,51.4093],[-0.14667,51.40917],[-0.14682,51.40822],[-0.14743,51.40789],[-0.14814,51.40845],[-0.15033,51.40767],[-0.15026,51.40846],[-0.1516,51.40966],[-0.15372,51.40843],[-0.15309,51.40949],[-0.15065,51.41185],[-0.14852,51.41356],[-0.14324,51.41726],[-0.14319,51.41713],[-0.14495,51.41589],[-0.14411,51.41546],[-0.14705,51.41385],[-0.14803,51.41287],[-0.14582,51.41253],[-0.14671,51.41128],[-0.14585,51.41093],[-0.14683,51.41037],[-0.14639,51.40995],[-0.14675,51.40966]]]}},{"type":"Feature","properties":{"id":"E01003413","name":"E01003413","parent":"E09000024","type":"LSOA","pop":2043,"r":693,"ff":288,"ffd":14096.9,"ffs":0.4957,"g":109,"co":0,"mo":2,"sa":0,"ic":0},"geometry":{"type":"Polygon","coordinates":[[[-0.13271,51.41234],[-0.12791,51.41198],[-0.12778,51.41232],[-0.1277,51.41207],[-0.12784,51.41174],[-0.13155,51.41106],[-0.13167,51.40959],[-0.13376,51.40931],[-0.13435,51.40967],[-0.13618,51.40911],[-0.13672,51.40925],[-0.13737,51.40903],[-0.1378,51.40835],[-0.13824,51.40849],[-0.13849,51.40821],[-0.13915,51.40845],[-0.14007,51.40813],[-0.14099,51.40821],[-0.14114,51.40715],[-0.14333,51.40599],[-0.14493,51.40629],[-0.14478,51.40671],[-0.14523,51.40703],[-0.14356,51.40814],[-0.14227,51.40851],[-0.14262,51.40919],[-0.14247,51.40981],[-0.14186,51.41014],[-0.14058,51.4115],[-0.14049,51.41179],[-0.13964,51.41221],[-0.13421,51.41105],[-0.13346,51.4129],[-0.13355,51.41258],[-0.13271,51.41234]]]}},{"type":"Feature","properties":{"id":"E01003414","name":"E01003414","parent":"E09000024","type":"LSOA","pop":1819,"r":675,"ff":281,"ffd":15448.0,"ffs":0.4938,"g":103,"co":0,"mo":0,"sa":0,"ic":0},"geometry":{"type":"Polygon","coordinates":[[[-0.13123,51.4095],[-0.13139,51.40921],[-0.13206,51.40917],[-0.13194,51.4085],[-0.13245,51.40841],[-0.13215,51.40658],[-0.13139,51.40506],[-0.13151,51.40493],[-0.13647,51.40366],[-0.13679,51.40393],[-0.13703,51.40419],[-0.13575,51.40453],[-0.13548,51.40494],[-0.13691,51.40695],[-0.13648,51.4077],[-0.1378,51.40835],[-0.13737,51.40903],[-0.13672,51.40925],[-0.13618,51.40911],[-0.13435,51.40967],[-0.13376,51.40931],[-0.13167,51.40959],[-0.13155,51.41106],[-0.12784,51.41174],[-0.12945,51.40957],[-0.13123,51.4095]]]}},{"type":"Feature","properties":{"id":"E01003415","name":"E01003415","parent":"E09000024","type":"LSOA","pop":2431,"r":699,"ff":301,"ffd":12381.7,"ffs":0.5067,"g":102,"co":0,"mo":2,"sa":0,"ic":0},"geometry":{"type":"Polygon","coordinates":[[[-0.1378,51.40835],[-0.13648,51.4077],[-0.13691,51.40695],[-0.13548,51.40494],[-0.13575,51.40453],[-0.13703,51.40419],[-0.13679,51.40393],[-0.13871,51.40308],[-0.13907,51.4034],[-0.13981,51.40308],[-0.14054,51.40367],[-0.14121,51.40335],[-0.14243,51.40457],[-0.144,51.40547],[-0.14114,51.40715],[-0.14099,51.40821],[-0.14007,51.40813],[-0.13915,51.40845],[-0.13849,51.40821],[-0.13824,51.40849],[-0.1378,51.40835]]]}},{"type":"Feature","properties":{"id":"E01003416","name":"E01003416","parent":"E09000024","type":"LSOA","pop":1668,"r":689,"ff":308,"ffd":18465.2,"ffs":0.5292,"g":103,"co":0,"mo":2,"sa":0,"ic":0},"geometry":{"type":"Polygon","coordinates":[[[-0.14688,51.40704],[-0.1464,51.40617],[-0.14493,51.40629],[-0.14333,51.40599],[-0.144,51.40547],[-0.14243,51.40457],[-0.14121,51.40335],[-0.14054,51.40367],[-0.13981,51.40308],[-0.13907,51.4034],[-0.13871,51.40308],[-0.14453,51.40015],[-0.14722,51.40157],[-0.15061,51.40393],[-0.1502,51.40414],[-0.15102,51.4054],[-0.14688,51.40704]]]}},{"type":"Feature","properties":{"id":"E01003417","name":"E01003417","parent":"E09000024","type":"LSOA","pop":1621,"r":606,"ff":238,"ffd":14682.3,"ffs":0.4798,"g":107,"co":0,"mo":0,"sa":0,"ic":0},"geometry":{"type":"Polygon","coordinates":[[[-0.20662,51.3897],[-0.20881,51.38785],[-0.20977,51.38825],[-0.21537,51.38265],[-0.21641,51.38305],[-0.21524,51.38407],[-0.21575,51.38426],[-0.21695,51.38366],[-0.21934,51.38536],[-0.21692,51.38628],[-0.21625,51.38823],[-0.21646,51.38914],[-0.21457,51.38892],[-0.21349,51.39009],[-0.21217,51.38969],[-0.20838,51.39004],[-0.20662,51.3897]]]}},{"type":"Feature","properties":{"id":"E01003418","name":"E01003418","parent":"E09000024","type":"LSOA","pop":1394,"r":567,"ff":224,"ffd":16068.9,"ffs":0.4838,"g":101,"co":0,"mo":0,"sa":0,"ic":0},"geometry":{"type":"Polygon","coordinates":[[[-0.22199,51.39027],[-0.21984,51.38934],[-0.22073,51.38867],[-0.21882,51.38554],[-0.21934,51.38536],[-0.21695,51.38366],[-0.21575,51.38426],[-0.21524,51.38407],[-0.21731,51.38228],[-0.21981,51.38384],[-0.22029,51.38357],[-0.2215,51.38461],[-0.22233,51.38601],[-0.22176,51.38614],[-0.22215,51.38669],[-0.2216,51.38682],[-0.22196,51.38739],[-0.22144,51.38763],[-0.22277,51.38875],[-0.22161,51.3891],[-0.22316,51.38952],[-0.22388,51.38904],[-0.22429,51.38928],[-0.22301,51.39022],[-0.22239,51.39],[-0.22199,51.39027]]]}},{"type":"Feature","properties":{"id":"E01003419","name":"E01003419","parent":"E09000024","type":"LSOA","pop":1874,"r":554,"ff":213,"ffd":11366.1,"ffs":0.4744,"g":102,"co":0,"mo":0,"sa":0,"ic":0},"geometry":{"type":"Polygon","coordinates":[[[-0.22429,51.38928],[-0.22388,51.38904],[-0.22316,51.38952],[-0.22161,51.3891],[-0.22277,51.38875],[-0.22144,51.38763],[-0.22196,51.38739],[-0.2216,51.38682],[-0.22215,51.38669],[-0.22176,51.38614],[-0.22361,51.38586],[-0.22421,51.38506],[-0.22396,51.38433],[-0.22597,51.38322],[-0.22779,51.38399],[-0.2339,51.38771],[-0.2349,51.39175],[-0.23222,51.3926],[-0.22864,51.39226],[-0.22765,51.39189],[-0.2274,51.39131],[-0.22384,51.39108],[-0.22392,51.39068],[-0.22333,51.39061],[-0.22301,51.39022],[-0.22429,51.38928]]]}},{"type":"Feature","properties":{"id":"E01003420","name":"E01003420","parent":"E09000024","type":"LSOA","pop":1525,"r":581,"ff":231,"ffd":15147.5,"ffs":0.4884,"g":104,"co":0,"mo":0,"sa":0,"ic":0},"geometry":{"type":"Polygon","coordinates":[[[-0.2215,51.38461],[-0.22029,51.38357],[-0.21981,51.38384],[-0.21731,51.38228],[-0.21641,51.38305],[-0.21537,51.38265],[-0.21811,51.38015],[-0.22001,51.38075],[-0.22597,51.38322],[-0.22396,51.38433],[-0.22421,51.38506],[-0.22361,51.38586],[-0.22233,51.38601],[-0.2215,51.38461]]]}},{"type":"Feature","properties":{"id":"E01003421","name":"E01003421","parent":"E09000024","type":"LSOA","pop":1590,"r":582,"ff":218,"ffd":13710.7,"ffs":0.4648,"g":110,"co":0,"mo":0,"sa":0,"ic":0},"geometry":{"type":"Polygon","coordinates":[[[-0.22111,51.39656],[-0.22131,51.39587],[-0.22056,51.39603],[-0.21834,51.3939],[-0.21895,51.39362],[-0.21844,51.39325],[-0.22004,51.39275],[-0.22172,51.39266],[-0.22142,51.39212],[-0.2221,51.39199],[-0.22271,51.39294],[-0.22344,51.39275],[-0.22267,51.39126],[-0.22334,51.39104],[-0.22333,51.39061],[-0.22392,51.39068],[-0.22384,51.39108],[-0.2274,51.39131],[-0.22765,51.39189],[-0.22864,51.39226],[-0.23222,51.3926],[-0.23266,51.39313],[-0.2268,51.39279],[-0.22632,51.39327],[-0.22752,51.39446],[-0.22599,51.39512],[-0.2263,51.39541],[-0.22111,51.39656]]]}},{"type":"Feature","properties":{"id":"E01003422","name":"E01003422","parent":"E09000024","type":"LSOA","pop":1492,"r":592,"ff":226,"ffd":15147.5,"ffs":0.4699,"g":108,"co":0,"mo":0,"sa":0,"ic":0},"geometry":{"type":"Polygon","coordinates":[[[-0.21784,51.39252],[-0.21745,51.39212],[-0.21629,51.39249],[-0.21697,51.39151],[-0.21611,51.3914],[-0.21349,51.39009],[-0.21457,51.38892],[-0.21646,51.38914],[-0.21625,51.38823],[-0.21692,51.38628],[-0.21882,51.38554],[-0.22073,51.38867],[-0.21984,51.38934],[-0.22199,51.39027],[-0.22239,51.39],[-0.22301,51.39022],[-0.22333,51.39061],[-0.22334,51.39104],[-0.22267,51.39126],[-0.22344,51.39275],[-0.22271,51.39294],[-0.2221,51.39199],[-0.22142,51.39212],[-0.22172,51.39266],[-0.22004,51.39275],[-0.21844,51.39325],[-0.21895,51.39362],[-0.21834,51.3939],[-0.21754,51.39313],[-0.21683,51.39296],[-0.21784,51.39252]]]}},{"type":"Feature","properties":{"id":"E01003423","name":"E01003423","parent":"E09000024","type":"LSOA","pop":1749,"r":638,"ff":229,"ffd":13093.2,"ffs":0.4544,"g":130,"co":0,"mo":0,"sa":0,"ic":0},"geometry":{"type":"Polygon","coordinates":[[[-0.20987,51.41106],[-0.20958,51.41077],[-0.20838,51.41088],[-0.20811,51.41162],[-0.20775,51.41139],[-0.20791,51.41068],[-0.20718,51.41052],[-0.20731,51.40906],[-0.20685,51.40862],[-0.2074,51.40697],[-0.20715,51.40663],[-0.20731,51.40615],[-0.20861,51.40687],[-0.20878,51.40788],[-0.21098,51.40784],[-0.21101,51.40844],[-0.21156,51.40837],[-0.21157,51.40798],[-0.21219,51.40777],[-0.21409,51.4092],[-0.21491,51.41134],[-0.2107,51.4121],[-0.20987,51.41106]]]}},{"type":"Feature","properties":{"id":"E01003424","name":"E01003424","parent":"E09000024","type":"LSOA","pop":1523,"r":692,"ff":259,"ffd":17005.9,"ffs":0.4592,"g":124,"co":0,"mo":0,"sa":0,"ic":0},"geometry":{"type":"Polygon","coordinates":[[[-0.20259,51.4127],[-0.20165,51.41204],[-0.19978,51.41238],[-0.19494,51.40987],[-0.19501,51.40951],[-0.19575,51.40931],[-0.19569,51.40738],[-0.19623,51.40731],[-0.1966,51.40673],[-0.19652,51.40566],[-0.19799,51.40602],[-0.19819,51.40583],[-0.19736,51.40534],[-0.19762,51.40501],[-0.20016,51.40509],[-0.20097,51.40597],[-0.20064,51.40638],[-0.20174,51.40671],[-0.20148,51.40704],[-0.20231,51.40753],[-0.20272,51.40877],[-0.20193,51.40884],[-0.202,51.41044],[-0.20323,51.41267],[-0.20259,51.4127]]]}},{"type":"Feature","properties":{"id":"E01003425","name":"E01003425","parent":"E09000024","type":"LSOA","pop":1457,"r":661,"ff":241,"ffd":16540.8,"ffs":0.4573,"g":130,"co":0,"mo":0,"sa":0,"ic":0},"geometry":{"type":"Polygon","coordinates":[[[-0.21101,51.40844],[-0.21098,51.40784],[-0.20878,51.40788],[-0.20861,51.40687],[-0.20731,51.40615],[-0.20715,51.40663],[-0.20492,51.40692],[-0.20508,51.40771],[-0.2048,51.40764],[-0.20417,51.40814],[-0.2036,51.40764],[-0.20231,51.40753],[-0.20148,51.40704],[-0.20174,51.40671],[-0.20064,51.40638],[-0.20097,51.40597],[-0.20016,51.40509],[-0.19857,51.40512],[-0.19843,51.40215],[-0.19928,51.40194],[-0.20256,51.40346],[-0.20339,51.40426],[-0.20474,51.4044],[-0.20476,51.40473],[-0.2055,51.40446],[-0.20558,51.40397],[-0.2063,51.40382],[-0.21219,51.40777],[-0.21157,51.40798],[-0.21156,51.40837],[-0.21101,51.40844]]]}},{"type":"Feature","properties":{"id":"E01003426","name":"E01003426","parent":"E09000024","type":"LSOA","pop":1727,"r":680,"ff":258,"ffd":14939.2,"ffs":0.4674,"g":125,"co":0,"mo":0,"sa":0,"ic":0},"geometry":{"type":"Polygon","coordinates":[[[-0.18692,51.40593],[-0.18908,51.40393],[-0.19457,51.40343],[-0.19558,51.40204],[-0.19681,51.40231],[-0.19761,51.4021],[-0.19744,51.40099],[-0.19845,51.40076],[-0.19758,51.39975],[-0.19853,51.39941],[-0.19911,51.40096],[-0.19958,51.40135],[-0.19928,51.40194],[-0.19843,51.40215],[-0.19857,51.40512],[-0.19762,51.40501],[-0.19736,51.40534],[-0.19819,51.40583],[-0.19799,51.40602],[-0.19652,51.40566],[-0.1966,51.40673],[-0.19623,51.40731],[-0.19569,51.40738],[-0.19575,51.40931],[-0.19501,51.40951],[-0.19494,51.40987],[-0.18692,51.40593]]]}},{"type":"Feature","properties":{"id":"E01003427","name":"E01003427","parent":"E09000024","type":"LSOA","pop":2007,"r":673,"ff":257,"ffd":12805.2,"ffs":0.4631,"g":115,"co":0,"mo":0,"sa":0,"ic":0},"geometry":{"type":"Polygon","coordinates":[[[-0.19911,51.40096],[-0.19853,51.39941],[-0.19758,51.39975],[-0.19845,51.40076],[-0.19744,51.40099],[-0.19761,51.4021],[-0.19681,51.40231],[-0.19558,51.40204],[-0.19457,51.40343],[-0.19159,51.40362],[-0.19374,51.40261],[-0.19459,51.40179],[-0.19583,51.39723],[-0.19818,51.3949],[-0.19824,51.39511],[-0.19899,51.39502],[-0.2015,51.39953],[-0.20288,51.40137],[-0.2063,51.40382],[-0.20558,51.40397],[-0.2055,51.40446],[-0.20476,51.40473],[-0.20474,51.4044],[-0.20339,51.40426],[-0.20256,51.40346],[-0.19928,51.40194],[-0.19958,51.40135],[-0.19911,51.40096]]]}},{"type":"Feature","properties":{"id":"E01003428","name":"E01003428","parent":"E09000024","type":"LSOA","pop":1546,"r":704,"ff":253,"ffd":16364.8,"ffs":0.4446,"g":131,"co":0,"mo":0,"sa":0,"ic":0},"geometry":{"type":"Polygon","coordinates":[[[-0.20061,51.41303],[-0.19978,51.41238],[-0.20165,51.41204],[-0.20259,51.4127],[-0.20323,51.41267],[-0.202,51.41044],[-0.20193,51.40884],[-0.20272,51.40877],[-0.20231,51.40753],[-0.2036,51.40764],[-0.20417,51.40814],[-0.2048,51.40764],[-0.20508,51.40771],[-0.20492,51.40692],[-0.20715,51.40663],[-0.2074,51.40697],[-0.20685,51.40862],[-0.20731,51.40906],[-0.20718,51.41052],[-0.20791,51.41068],[-0.20775,51.41139],[-0.20811,51.41162],[-0.20838,51.41088],[-0.20958,51.41077],[-0.2107,51.4121],[-0.20211,51.41445],[-0.20061,51.41303]]]}},{"type":"Feature","properties":{"id":"E01003429","name":"E01003429","parent":"E09000024","type":"LSOA","pop":1726,"r":599,"ff":271,"ffd":15701.0,"ffs":0.5283,"g":83,"co":0,"mo":2,"sa":0,"ic":0},"geometry":{"type":"Polygon","coordinates":[[[-0.13245,51.39956],[-0.13112,51.39901],[-0.13296,51.39764],[-0.13314,51.39809],[-0.13358,51.39812],[-0.13367,51.39769],[-0.13412,51.3977],[-0.13433,51.39735],[-0.13528,51.39712],[-0.13642,51.39591],[-0.13545,51.39571],[-0.13464,51.39623],[-0.13467,51.3951],[-0.13817,51.39603],[-0.13993,51.3967],[-0.13978,51.39832],[-0.13824,51.3985],[-0.13749,51.3978],[-0.13686,51.39819],[-0.13827,51.3991],[-0.13511,51.39954],[-0.13405,51.39901],[-0.13372,51.39927],[-0.13342,51.39911],[-0.13331,51.39984],[-0.13245,51.39956]]]}},{"type":"Feature","properties":{"id":"E01003430","name":"E01003430","parent":"E09000024","type":"LSOA","pop":1771,"r":640,"ff":295,"ffd":16657.3,"ffs":0.5354,"g":86,"co":0,"mo":2,"sa":0,"ic":0},"geometry":{"type":"Polygon","coordinates":[[[-0.12686,51.40054],[-0.12584,51.39951],[-0.12547,51.39872],[-0.12567,51.39836],[-0.12533,51.39831],[-0.1258,51.39778],[-0.12678,51.39758],[-0.12759,51.39801],[-0.12706,51.39851],[-0.12924,51.39928],[-0.12972,51.39897],[-0.12955,51.39937],[-0.13061,51.39961],[-0.13112,51.39901],[-0.13245,51.39956],[-0.13212,51.40036],[-0.13121,51.39989],[-0.13,51.4009],[-0.13144,51.40152],[-0.13138,51.40175],[-0.12923,51.40258],[-0.12824,51.40192],[-0.12686,51.40054]]]}},{"type":"Feature","properties":{"id":"E01003431","name":"E01003431","parent":"E09000024","type":"LSOA","pop":1773,"r":650,"ff":298,"ffd":16807.7,"ffs":0.536,"g":91,"co":0,"mo":2,"sa":0,"ic":0},"geometry":{"type":"Polygon","coordinates":[[[-0.12759,51.39801],[-0.12678,51.39758],[-0.1258,51.39778],[-0.12533,51.39831],[-0.12444,51.39796],[-0.1242,51.3976],[-0.12861,51.39435],[-0.12906,51.39455],[-0.12853,51.39489],[-0.12887,51.39526],[-0.13005,51.39449],[-0.13057,51.3949],[-0.13012,51.39559],[-0.12906,51.39552],[-0.1296,51.39598],[-0.12904,51.39621],[-0.12881,51.3966],[-0.12993,51.39715],[-0.13178,51.3956],[-0.13224,51.39578],[-0.13207,51.39619],[-0.13096,51.39685],[-0.13169,51.39791],[-0.13094,51.39795],[-0.13058,51.39767],[-0.12877,51.3991],[-0.12706,51.39851],[-0.12759,51.39801]]]}},{"type":"Feature","properties":{"id":"E01003432","name":"E01003432","parent":"E09000024","type":"LSOA","pop":1737,"r":623,"ff":285,"ffd":16407.6,"ffs":0.5337,"g":86,"co":0,"mo":2,"sa":0,"ic":0},"geometry":{"type":"Polygon","coordinates":[[[-0.12955,51.39937],[-0.12972,51.39897],[-0.12924,51.39928],[-0.12877,51.3991],[-0.13058,51.39767],[-0.13094,51.39795],[-0.13169,51.39791],[-0.13096,51.39685],[-0.13207,51.39619],[-0.13224,51.39578],[-0.13178,51.3956],[-0.12993,51.39715],[-0.12881,51.3966],[-0.12904,51.39621],[-0.1296,51.39598],[-0.12906,51.39552],[-0.13012,51.39559],[-0.13057,51.3949],[-0.13005,51.39449],[-0.12887,51.39526],[-0.12853,51.39489],[-0.12906,51.39455],[-0.12861,51.39435],[-0.12973,51.39367],[-0.12892,51.39344],[-0.13435,51.39089],[-0.14042,51.39259],[-0.14172,51.39501],[-0.14365,51.39634],[-0.14239,51.39764],[-0.13817,51.39603],[-0.13467,51.3951],[-0.13464,51.39623],[-0.13545,51.39571],[-0.13642,51.39591],[-0.13528,51.39712],[-0.13433,51.39735],[-0.13412,51.3977],[-0.13367,51.39769],[-0.13358,51.39812],[-0.13314,51.39809],[-0.13296,51.39764],[-0.13112,51.39901],[-0.13061,51.39961],[-0.12955,51.39937]]]}},{"type":"Feature","properties":{"id":"E01003433","name":"E01003433","parent":"E09000024","type":"LSOA","pop":1731,"r":680,"ff":303,"ffd":17504.3,"ffs":0.5215,"g":96,"co":0,"mo":2,"sa":0,"ic":0},"geometry":{"type":"Polygon","coordinates":[[[-0.13151,51.40493],[-0.13047,51.40327],[-0.12923,51.40258],[-0.13138,51.40175],[-0.13144,51.40152],[-0.13,51.4009],[-0.13121,51.39989],[-0.13212,51.40036],[-0.13245,51.39956],[-0.13331,51.39984],[-0.13342,51.39911],[-0.13372,51.39927],[-0.13405,51.39901],[-0.13511,51.39954],[-0.13827,51.3991],[-0.13844,51.39945],[-0.13832,51.39979],[-0.1351,51.40001],[-0.13877,51.40172],[-0.13938,51.40221],[-0.1401,51.40204],[-0.14042,51.40231],[-0.13679,51.40393],[-0.13647,51.40366],[-0.13151,51.40493]]]}},{"type":"Feature","properties":{"id":"E01003434","name":"E01003434","parent":"E09000024","type":"LSOA","pop":1584,"r":652,"ff":291,"ffd":18371.2,"ffs":0.5215,"g":90,"co":0,"mo":2,"sa":0,"ic":0},"geometry":{"type":"Polygon","coordinates":[[[-0.14042,51.40231],[-0.1401,51.40204],[-0.13938,51.40221],[-0.13877,51.40172],[-0.1351,51.40001],[-0.13832,51.39979],[-0.13844,51.39945],[-0.13827,51.3991],[-0.13686,51.39819],[-0.13749,51.3978],[-0.13824,51.3985],[-0.13978,51.39832],[-0.13993,51.3967],[-0.14419,51.39831],[-0.14339,51.39942],[-0.14122,51.39882],[-0.1411,51.39948],[-0.14248,51.39944],[-0.14189,51.40003],[-0.14253,51.40033],[-0.14365,51.39982],[-0.14369,51.40021],[-0.14453,51.40015],[-0.14042,51.40231]]]}},{"type":"Feature","properties":{"id":"E01003435","name":"E01003435","parent":"E09000024","type":"LSOA","pop":2160,"r":755,"ff":325,"ffd":15046.3,"ffs":0.507,"g":110,"co":0,"mo":2,"sa":0,"ic":0},"geometry":{"type":"Polygon","coordinates":[[[-0.15061,51.40393],[-0.14722,51.40157],[-0.14453,51.40015],[-0.14369,51.40021],[-0.14365,51.39982],[-0.14253,51.40033],[-0.14189,51.40003],[-0.14248,51.39944],[-0.1411,51.39948],[-0.14122,51.39882],[-0.14339,51.39942],[-0.14419,51.39831],[-0.14239,51.39764],[-0.14365,51.39634],[-0.14172,51.39501],[-0.14042,51.39259],[-0.14508,51.39386],[-0.15555,51.39711],[-0.15846,51.3982],[-0.15935,51.39917],[-0.15749,51.40307],[-0.15427,51.40214],[-0.15391,51.40239],[-0.15264,51.40203],[-0.15105,51.40362],[-0.15135,51.40389],[-0.15083,51.4041],[-0.15061,51.40393]]]}},{"type":"Feature","properties":{"id":"E01003436","name":"E01003436","parent":"E09000024","type":"LSOA","pop":1791,"r":633,"ff":252,"ffd":14070.4,"ffs":0.4846,"g":110,"co":0,"mo":0,"sa":0,"ic":0},"geometry":{"type":"Polygon","coordinates":[[[-0.18443,51.39553],[-0.18468,51.39517],[-0.18523,51.39519],[-0.18544,51.39411],[-0.18305,51.39393],[-0.18151,51.39296],[-0.18174,51.39139],[-0.18213,51.39039],[-0.18383,51.38925],[-0.18671,51.38958],[-0.18647,51.39046],[-0.18772,51.39089],[-0.18831,51.39069],[-0.18786,51.39006],[-0.18865,51.38978],[-0.18739,51.3946],[-0.18584,51.39515],[-0.18527,51.39574],[-0.18443,51.39553]]]}},{"type":"Feature","properties":{"id":"E01003437","name":"E01003437","parent":"E09000024","type":"LSOA","pop":2073,"r":655,"ff":261,"ffd":12590.4,"ffs":0.4824,"g":111,"co":0,"mo":0,"sa":0,"ic":0},"geometry":{"type":"Polygon","coordinates":[[[-0.18674,51.39696],[-0.18302,51.39586],[-0.18301,51.39627],[-0.18238,51.39614],[-0.18249,51.39523],[-0.18207,51.39483],[-0.18158,51.39583],[-0.18099,51.39581],[-0.18085,51.39611],[-0.17929,51.39572],[-0.17893,51.39638],[-0.1753,51.39503],[-0.17342,51.39539],[-0.17366,51.39469],[-0.17091,51.39367],[-0.1687,51.39233],[-0.16995,51.39172],[-0.17125,51.39255],[-0.17287,51.39264],[-0.17484,51.39342],[-0.17924,51.38984],[-0.18174,51.39139],[-0.18151,51.39296],[-0.18305,51.39393],[-0.18544,51.39411],[-0.18523,51.39519],[-0.18468,51.39517],[-0.18443,51.39553],[-0.18527,51.39574],[-0.18584,51.39515],[-0.18739,51.3946],[-0.18674,51.39696]]]}},{"type":"Feature","properties":{"id":"E01003438","name":"E01003438","parent":"E09000024","type":"LSOA","pop":1871,"r":641,"ff":256,"ffd":13682.5,"ffs":0.4876,"g":113,"co":0,"mo":0,"sa":0,"ic":0},"geometry":{"type":"Polygon","coordinates":[[[-0.18026,51.38954],[-0.18221,51.38831],[-0.18423,51.38769],[-0.18836,51.38549],[-0.18971,51.38613],[-0.18865,51.38978],[-0.18786,51.39006],[-0.18831,51.39069],[-0.18772,51.39089],[-0.18647,51.39046],[-0.18671,51.38958],[-0.18383,51.38925],[-0.18213,51.39039],[-0.18174,51.39139],[-0.17924,51.38984],[-0.18026,51.38954]]]}},{"type":"Feature","properties":{"id":"E01003439","name":"E01003439","parent":"E09000024","type":"LSOA","pop":1569,"r":648,"ff":257,"ffd":16379.9,"ffs":0.4822,"g":112,"co":0,"mo":0,"sa":0,"ic":0},"geometry":{"type":"Polygon","coordinates":[[[-0.18383,51.40434],[-0.18445,51.40235],[-0.18476,51.40336],[-0.18594,51.40359],[-0.18642,51.40336],[-0.18655,51.40234],[-0.18743,51.40206],[-0.18558,51.401],[-0.1846,51.39956],[-0.18546,51.39955],[-0.18599,51.39876],[-0.18587,51.39769],[-0.18524,51.39789],[-0.18435,51.39727],[-0.18369,51.3973],[-0.18301,51.39627],[-0.18302,51.39586],[-0.18674,51.39696],[-0.18714,51.39875],[-0.18768,51.39883],[-0.18986,51.39808],[-0.1921,51.40008],[-0.19307,51.40038],[-0.19369,51.40083],[-0.19318,51.40159],[-0.19459,51.40179],[-0.19374,51.40261],[-0.19159,51.40362],[-0.18908,51.40393],[-0.18692,51.40593],[-0.18383,51.40434]]]}},{"type":"Feature","properties":{"id":"E01003440","name":"E01003440","parent":"E09000024","type":"LSOA","pop":1647,"r":660,"ff":268,"ffd":16272.0,"ffs":0.4891,"g":109,"co":0,"mo":2,"sa":0,"ic":0},"geometry":{"type":"Polygon","coordinates":[[[-0.18207,51.40331],[-0.17446,51.3985],[-0.17485,51.39848],[-0.17552,51.39704],[-0.1765,51.39726],[-0.17803,51.39616],[-0.17893,51.39638],[-0.17929,51.39572],[-0.18085,51.39611],[-0.18099,51.39581],[-0.18158,51.39583],[-0.18207,51.39483],[-0.18249,51.39523],[-0.18238,51.39614],[-0.18301,51.39627],[-0.18369,51.3973],[-0.18435,51.39727],[-0.18524,51.39789],[-0.18587,51.39769],[-0.18599,51.39876],[-0.18546,51.39955],[-0.1846,51.39956],[-0.18558,51.401],[-0.18743,51.40206],[-0.18655,51.40234],[-0.18642,51.40336],[-0.18594,51.40359],[-0.18476,51.40336],[-0.18445,51.40235],[-0.18383,51.40434],[-0.18207,51.40331]]]}},{"type":"Feature","properties":{"id":"E01003441","name":"E01003441","parent":"E09000024","type":"LSOA","pop":1969,"r":702,"ff":291,"ffd":14779.1,"ffs":0.4966,"g":113,"co":0,"mo":2,"sa":0,"ic":0},"geometry":{"type":"Polygon","coordinates":[[[-0.16808,51.39703],[-0.16739,51.39685],[-0.1697,51.39474],[-0.1693,51.39402],[-0.16855,51.39365],[-0.16858,51.39311],[-0.16829,51.39253],[-0.1687,51.39233],[-0.17091,51.39367],[-0.17366,51.39469],[-0.17342,51.39539],[-0.1753,51.39503],[-0.17803,51.39616],[-0.1765,51.39726],[-0.17552,51.39704],[-0.17485,51.39848],[-0.17218,51.39771],[-0.16808,51.39703]]]}},{"type":"Feature","properties":{"id":"E01003442","name":"E01003442","parent":"E09000024","type":"LSOA","pop":1671,"r":657,"ff":229,"ffd":13704.4,"ffs":0.4438,"g":137,"co":0,"mo":0,"sa":0,"ic":0},"geometry":{"type":"Polygon","coordinates":[[[-0.22299,51.41634],[-0.2211,51.41495],[-0.22337,51.41347],[-0.2231,51.4129],[-0.22572,51.4113],[-0.22688,51.41238],[-0.22501,51.41343],[-0.22421,51.41289],[-0.22379,51.41306],[-0.22555,51.41488],[-0.22644,51.41492],[-0.22776,51.41578],[-0.22776,51.41539],[-0.23001,51.41484],[-0.23036,51.41515],[-0.23096,51.41627],[-0.22978,51.41679],[-0.2299,51.41826],[-0.22636,51.41869],[-0.22496,51.4191],[-0.22299,51.41634]]]}},{"type":"Feature","properties":{"id":"E01003443","name":"E01003443","parent":"E09000024","type":"LSOA","pop":1562,"r":621,"ff":225,"ffd":14404.6,"ffs":0.4649,"g":132,"co":0,"mo":0,"sa":0,"ic":0},"geometry":{"type":"Polygon","coordinates":[[[-0.22555,51.41488],[-0.22379,51.41306],[-0.22421,51.41289],[-0.22501,51.41343],[-0.22688,51.41238],[-0.22834,51.41331],[-0.22669,51.41107],[-0.22753,51.41086],[-0.22812,51.41108],[-0.22853,51.41098],[-0.22833,51.41066],[-0.22895,51.41051],[-0.22933,51.41088],[-0.2298,51.41069],[-0.22958,51.41036],[-0.23024,51.41029],[-0.23126,51.40977],[-0.23211,51.40988],[-0.23277,51.41161],[-0.23296,51.41291],[-0.23225,51.41298],[-0.23157,51.41337],[-0.23171,51.414],[-0.23092,51.41472],[-0.23036,51.41515],[-0.23001,51.41484],[-0.22776,51.41539],[-0.22776,51.41578],[-0.22644,51.41492],[-0.22555,51.41488]]]}},{"type":"Feature","properties":{"id":"E01003444","name":"E01003444","parent":"E09000024","type":"LSOA","pop":1623,"r":626,"ff":221,"ffd":13616.8,"ffs":0.4538,"g":134,"co":0,"mo":0,"sa":0,"ic":0},"geometry":{"type":"Polygon","coordinates":[[[-0.23036,51.41515],[-0.23171,51.414],[-0.23157,51.41337],[-0.23225,51.41298],[-0.23296,51.41291],[-0.23277,51.41161],[-0.23642,51.41141],[-0.23447,51.41093],[-0.23469,51.41031],[-0.23618,51.41063],[-0.23612,51.41013],[-0.23455,51.40978],[-0.2347,51.40891],[-0.23535,51.4089],[-0.23538,51.40937],[-0.23901,51.41041],[-0.23864,51.41083],[-0.23717,51.41037],[-0.23699,51.41062],[-0.23831,51.4114],[-0.24036,51.41221],[-0.24026,51.41281],[-0.23841,51.413],[-0.23852,51.41341],[-0.23915,51.41337],[-0.23939,51.41415],[-0.23762,51.41429],[-0.23837,51.41491],[-0.23653,51.41487],[-0.23647,51.41528],[-0.23096,51.41627],[-0.23036,51.41515]]]}},{"type":"Feature","properties":{"id":"E01003445","name":"E01003445","parent":"E09000024","type":"LSOA","pop":1825,"r":636,"ff":226,"ffd":12383.6,"ffs":0.4575,"g":138,"co":0,"mo":0,"sa":0,"ic":0},"geometry":{"type":"Polygon","coordinates":[[[-0.23647,51.41528],[-0.23653,51.41487],[-0.23837,51.41491],[-0.23762,51.41429],[-0.23939,51.41415],[-0.23915,51.41337],[-0.23852,51.41341],[-0.23841,51.413],[-0.24026,51.41281],[-0.24036,51.41221],[-0.23831,51.4114],[-0.23699,51.41062],[-0.23717,51.41037],[-0.23864,51.41083],[-0.23901,51.41041],[-0.23538,51.40937],[-0.23558,51.40806],[-0.23519,51.40798],[-0.24202,51.4067],[-0.2442,51.40934],[-0.24514,51.4098],[-0.2458,51.40937],[-0.24632,51.40964],[-0.24734,51.40833],[-0.24754,51.40905],[-0.2471,51.40953],[-0.24947,51.41487],[-0.24651,51.41355],[-0.24236,51.41228],[-0.2428,51.41347],[-0.24264,51.41474],[-0.24089,51.41511],[-0.23647,51.41528]]]}},{"type":"Feature","properties":{"id":"E01003446","name":"E01003446","parent":"E09000024","type":"LSOA","pop":2078,"r":626,"ff":233,"ffd":11212.7,"ffs":0.4755,"g":131,"co":0,"mo":0,"sa":0,"ic":0},"geometry":{"type":"Polygon","coordinates":[[[-0.22688,51.41238],[-0.22572,51.4113],[-0.2234,51.41275],[-0.22206,51.41145],[-0.22521,51.41028],[-0.23011,51.40908],[-0.22945,51.40708],[-0.23178,51.4069],[-0.23274,51.40648],[-0.2334,51.40749],[-0.23409,51.40782],[-0.23394,51.40834],[-0.23519,51.40798],[-0.23558,51.40806],[-0.23535,51.4089],[-0.2347,51.40891],[-0.23455,51.40978],[-0.23612,51.41013],[-0.23618,51.41063],[-0.23469,51.41031],[-0.23447,51.41093],[-0.23642,51.41141],[-0.23277,51.41161],[-0.23211,51.40988],[-0.23126,51.40977],[-0.23024,51.41029],[-0.22958,51.41036],[-0.2298,51.41069],[-0.22933,51.41088],[-0.22895,51.41051],[-0.22833,51.41066],[-0.22853,51.41098],[-0.22812,51.41108],[-0.22753,51.41086],[-0.22669,51.41107],[-0.22834,51.41331],[-0.22688,51.41238]]]}},{"type":"Feature","properties":{"id":"E01003447","name":"E01003447","parent":"E09000024","type":"LSOA","pop":1656,"r":618,"ff":227,"ffd":13707.7,"ffs":0.4739,"g":134,"co":0,"mo":0,"sa":0,"ic":0},"geometry":{"type":"Polygon","coordinates":[[[-0.24514,51.4098],[-0.2442,51.40934],[-0.24202,51.4067],[-0.23394,51.40834],[-0.23409,51.40782],[-0.2334,51.40749],[-0.23274,51.40648],[-0.2353,51.40521],[-0.23686,51.40223],[-0.24074,51.40322],[-0.24176,51.40368],[-0.24463,51.40386],[-0.24546,51.40655],[-0.24548,51.40735],[-0.24695,51.40784],[-0.24734,51.40833],[-0.24632,51.40964],[-0.2458,51.40937],[-0.24514,51.4098]]]}},{"type":"Feature","properties":{"id":"E01003448","name":"E01003448","parent":"E09000024","type":"LSOA","pop":2384,"r":630,"ff":247,"ffd":10360.7,"ffs":0.4768,"g":109,"co":0,"mo":0,"sa":0,"ic":0},"geometry":{"type":"Polygon","coordinates":[[[-0.18766,51.39823],[-0.1871,51.3965],[-0.18683,51.3965],[-0.18865,51.38978],[-0.18937,51.39033],[-0.18852,51.3907],[-0.18892,51.39098],[-0.18946,51.39084],[-0.19017,51.39172],[-0.19084,51.39005],[-0.19178,51.39052],[-0.19187,51.39173],[-0.19157,51.39201],[-0.19195,51.3923],[-0.19153,51.39257],[-0.19197,51.39345],[-0.19057,51.39469],[-0.19114,51.39602],[-0.19142,51.39614],[-0.1895,51.39749],[-0.18909,51.39739],[-0.18862,51.39808],[-0.18766,51.39823]]]}},{"type":"Feature","properties":{"id":"E01003449","name":"E01003449","parent":"E09000024","type":"LSOA","pop":1906,"r":642,"ff":253,"ffd":13273.9,"ffs":0.4801,"g":112,"co":0,"mo":0,"sa":0,"ic":0},"geometry":{"type":"Polygon","coordinates":[[[-0.19108,51.39691],[-0.19167,51.39666],[-0.19132,51.39676],[-0.1909,51.39644],[-0.19142,51.39614],[-0.19114,51.39602],[-0.19057,51.39469],[-0.19197,51.39345],[-0.19153,51.39257],[-0.19195,51.3923],[-0.19157,51.39201],[-0.19187,51.39173],[-0.19319,51.39141],[-0.1953,51.39204],[-0.1963,51.3917],[-0.19807,51.39189],[-0.19836,51.39352],[-0.20084,51.39265],[-0.20164,51.39315],[-0.20164,51.39352],[-0.20219,51.39369],[-0.20205,51.39427],[-0.20271,51.39407],[-0.20302,51.39425],[-0.20229,51.39451],[-0.20268,51.39483],[-0.2007,51.3957],[-0.20015,51.39726],[-0.19899,51.39502],[-0.19824,51.39511],[-0.19818,51.3949],[-0.19769,51.39539],[-0.19428,51.39479],[-0.19255,51.39552],[-0.19287,51.39589],[-0.19385,51.39537],[-0.19462,51.39569],[-0.19475,51.39664],[-0.19399,51.39665],[-0.1941,51.39728],[-0.19338,51.39734],[-0.19335,51.3969],[-0.19282,51.39683],[-0.19189,51.3974],[-0.19128,51.39738],[-0.19108,51.39691]]]}},{"type":"Feature","properties":{"id":"E01003450","name":"E01003450","parent":"E09000024","type":"LSOA","pop":1718,"r":624,"ff":246,"ffd":14319.0,"ffs":0.4824,"g":111,"co":0,"mo":0,"sa":0,"ic":0},"geometry":{"type":"Polygon","coordinates":[[[-0.1953,51.39204],[-0.19319,51.39141],[-0.19187,51.39173],[-0.19178,51.39052],[-0.19084,51.39005],[-0.19017,51.39172],[-0.18946,51.39084],[-0.18892,51.39098],[-0.18852,51.3907],[-0.18937,51.39033],[-0.18865,51.38978],[-0.18971,51.38613],[-0.19045,51.3862],[-0.19117,51.38686],[-0.19159,51.38705],[-0.19184,51.38693],[-0.1932,51.38785],[-0.19447,51.38756],[-0.19624,51.38849],[-0.1963,51.38918],[-0.19725,51.38961],[-0.19559,51.38997],[-0.19636,51.39079],[-0.1963,51.3917],[-0.1953,51.39204]]]}},{"type":"Feature","properties":{"id":"E01003451","name":"E01003451","parent":"E09000024","type":"LSOA","pop":2011,"r":602,"ff":243,"ffd":12083.5,"ffs":0.4939,"g":107,"co":0,"mo":0,"sa":0,"ic":0},"geometry":{"type":"Polygon","coordinates":[[[-0.20239,51.39114],[-0.20171,51.39063],[-0.20118,51.39105],[-0.20006,51.39019],[-0.19848,51.39021],[-0.2003,51.387],[-0.20055,51.38494],[-0.2035,51.38722],[-0.205,51.38609],[-0.20881,51.38785],[-0.20662,51.3897],[-0.20838,51.39004],[-0.21217,51.38969],[-0.21349,51.39009],[-0.21611,51.3914],[-0.21697,51.39151],[-0.21552,51.39341],[-0.20411,51.3932],[-0.2036,51.39305],[-0.20332,51.39206],[-0.20185,51.39204],[-0.20249,51.39172],[-0.20239,51.39114]]]}},{"type":"Feature","properties":{"id":"E01003452","name":"E01003452","parent":"E09000024","type":"LSOA","pop":2171,"r":615,"ff":244,"ffd":11239.1,"ffs":0.4832,"g":107,"co":0,"mo":0,"sa":0,"ic":0},"geometry":{"type":"Polygon","coordinates":[[[-0.20229,51.39451],[-0.20302,51.39425],[-0.20271,51.39407],[-0.20205,51.39427],[-0.20219,51.39369],[-0.20164,51.39352],[-0.20164,51.39315],[-0.20084,51.39265],[-0.19836,51.39352],[-0.19807,51.39189],[-0.1963,51.3917],[-0.19636,51.39079],[-0.19559,51.38997],[-0.19725,51.38961],[-0.1963,51.38918],[-0.19624,51.38849],[-0.19447,51.38756],[-0.20055,51.38494],[-0.2003,51.387],[-0.19848,51.39021],[-0.20006,51.39019],[-0.20118,51.39105],[-0.20171,51.39063],[-0.20239,51.39114],[-0.20249,51.39172],[-0.20185,51.39204],[-0.20332,51.39206],[-0.2036,51.39305],[-0.20411,51.3932],[-0.21552,51.39341],[-0.21411,51.39445],[-0.21265,51.3939],[-0.2109,51.39368],[-0.20748,51.39433],[-0.20326,51.39445],[-0.20268,51.39483],[-0.20229,51.39451]]]}},{"type":"Feature","properties":{"id":"E01003453","name":"E01003453","parent":"E09000024","type":"LSOA","pop":1857,"r":652,"ff":254,"ffd":13678.0,"ffs":0.4739,"g":113,"co":0,"mo":0,"sa":0,"ic":0},"geometry":{"type":"Polygon","coordinates":[[[-0.1921,51.40008],[-0.18986,51.39808],[-0.18768,51.39883],[-0.18714,51.39875],[-0.18674,51.39696],[-0.18683,51.3965],[-0.1871,51.3965],[-0.18766,51.39823],[-0.18862,51.39808],[-0.18909,51.39739],[-0.1895,51.39749],[-0.1909,51.39644],[-0.19132,51.39676],[-0.19167,51.39666],[-0.19108,51.39691],[-0.19128,51.39738],[-0.19189,51.3974],[-0.19282,51.39683],[-0.19335,51.3969],[-0.19338,51.39734],[-0.1941,51.39728],[-0.19399,51.39665],[-0.19475,51.39664],[-0.19462,51.39569],[-0.19385,51.39537],[-0.19287,51.39589],[-0.19255,51.39552],[-0.19428,51.39479],[-0.19766,51.39531],[-0.19583,51.39723],[-0.19459,51.40179],[-0.19318,51.40159],[-0.19369,51.40083],[-0.19307,51.40038],[-0.1921,51.40008]]]}},{"type":"Feature","properties":{"id":"E01003454","name":"E01003454","parent":"E09000024","type":"LSOA","pop":1337,"r":708,"ff":255,"ffd":19072.6,"ffs":0.4458,"g":132,"co":0,"mo":0,"sa":0,"ic":0},"geometry":{"type":"Polygon","coordinates":[[[-0.18969,51.42438],[-0.18937,51.42357],[-0.19002,51.42329],[-0.19071,51.42336],[-0.19009,51.42357],[-0.19024,51.42408],[-0.19114,51.42426],[-0.19391,51.42423],[-0.19495,51.42384],[-0.19657,51.42358],[-0.19688,51.42319],[-0.19648,51.42259],[-0.19678,51.4223],[-0.19721,51.42243],[-0.19761,51.42348],[-0.20014,51.42288],[-0.20047,51.42326],[-0.20244,51.42212],[-0.20325,51.42282],[-0.20099,51.42401],[-0.19847,51.4248],[-0.19441,51.42548],[-0.1895,51.42548],[-0.18873,51.42487],[-0.18902,51.42449],[-0.18969,51.42438]]]}},{"type":"Feature","properties":{"id":"E01003455","name":"E01003455","parent":"E09000024","type":"LSOA","pop":1729,"r":664,"ff":245,"ffd":14170.0,"ffs":0.4537,"g":120,"co":0,"mo":0,"sa":0,"ic":0},"geometry":{"type":"Polygon","coordinates":[[[-0.17776,51.42255],[-0.18065,51.42181],[-0.1809,51.42236],[-0.18413,51.42123],[-0.18545,51.42099],[-0.18608,51.42131],[-0.18493,51.4218],[-0.18519,51.42228],[-0.18719,51.42186],[-0.18737,51.42212],[-0.18779,51.42204],[-0.18798,51.42264],[-0.18559,51.42303],[-0.18638,51.42362],[-0.18783,51.42365],[-0.18873,51.42487],[-0.1895,51.42548],[-0.17876,51.42429],[-0.17776,51.42255]]]}},{"type":"Feature","properties":{"id":"E01003456","name":"E01003456","parent":"E09000024","type":"LSOA","pop":1574,"r":692,"ff":245,"ffd":15565.4,"ffs":0.4414,"g":133,"co":0,"mo":0,"sa":0,"ic":0},"geometry":{"type":"Polygon","coordinates":[[[-0.19761,51.42348],[-0.19711,51.42204],[-0.19673,51.42209],[-0.19586,51.41983],[-0.19405,51.41999],[-0.19413,51.41958],[-0.19862,51.41915],[-0.20138,51.41944],[-0.20449,51.42009],[-0.20693,51.42099],[-0.204,51.42265],[-0.20376,51.4225],[-0.20325,51.42282],[-0.20244,51.42212],[-0.20047,51.42326],[-0.20014,51.42288],[-0.19761,51.42348]]]}},{"type":"Feature","properties":{"id":"E01003457","name":"E01003457","parent":"E09000024","type":"LSOA","pop":1622,"r":688,"ff":246,"ffd":15166.5,"ffs":0.4424,"g":128,"co":0,"mo":0,"sa":0,"ic":0},"geometry":{"type":"Polygon","coordinates":[[[-0.19323,51.42228],[-0.19287,51.4217],[-0.19305,51.42063],[-0.19422,51.42045],[-0.19405,51.41999],[-0.19586,51.41983],[-0.19673,51.42209],[-0.19711,51.42204],[-0.19721,51.42243],[-0.19678,51.4223],[-0.19648,51.42259],[-0.19688,51.42319],[-0.19657,51.42358],[-0.19495,51.42384],[-0.19391,51.42423],[-0.19114,51.42426],[-0.19024,51.42408],[-0.19009,51.42357],[-0.19071,51.42336],[-0.19002,51.42329],[-0.1897,51.42281],[-0.19323,51.42228]]]}},{"type":"Feature","properties":{"id":"E01003458","name":"E01003458","parent":"E09000024","type":"LSOA","pop":1723,"r":705,"ff":259,"ffd":15031.9,"ffs":0.4512,"g":127,"co":0,"mo":0,"sa":0,"ic":0},"geometry":{"type":"Polygon","coordinates":[[[-0.19089,51.42058],[-0.19074,51.41912],[-0.1912,51.41909],[-0.19129,51.41966],[-0.1931,51.41952],[-0.19331,51.41923],[-0.19282,51.41858],[-0.19324,51.41853],[-0.19413,51.41958],[-0.19405,51.41999],[-0.19422,51.42045],[-0.19305,51.42063],[-0.19287,51.4217],[-0.19323,51.42228],[-0.1897,51.42281],[-0.19002,51.42329],[-0.18937,51.42357],[-0.18969,51.42438],[-0.18902,51.42449],[-0.18873,51.42487],[-0.18783,51.42365],[-0.18638,51.42362],[-0.18559,51.42303],[-0.18798,51.42264],[-0.1876,51.4214],[-0.19101,51.42091],[-0.19089,51.42058]]]}},{"type":"Feature","properties":{"id":"E01003459","name":"E01003459","parent":"E09000024","type":"LSOA","pop":2213,"r":692,"ff":253,"ffd":11432.4,"ffs":0.451,"g":127,"co":0,"mo":0,"sa":0,"ic":0},"geometry":{"type":"Polygon","coordinates":[[[-0.18519,51.42228],[-0.18493,51.4218],[-0.18608,51.42131],[-0.18545,51.42099],[-0.18242,51.42178],[-0.18134,51.42009],[-0.18067,51.42005],[-0.18053,51.41946],[-0.18734,51.41895],[-0.18733,51.41933],[-0.19282,51.41858],[-0.19331,51.41923],[-0.1931,51.41952],[-0.19129,51.41966],[-0.1912,51.41909],[-0.19074,51.41912],[-0.19101,51.42091],[-0.1876,51.4214],[-0.18779,51.42204],[-0.18737,51.42212],[-0.18719,51.42186],[-0.18519,51.42228]]]}},{"type":"Feature","properties":{"id":"E01003460","name":"E01003460","parent":"E09000024","type":"LSOA","pop":1309,"r":661,"ff":228,"ffd":17417.9,"ffs":0.4351,"g":133,"co":0,"mo":0,"sa":0,"ic":0},"geometry":{"type":"Polygon","coordinates":[[[-0.22462,51.43673],[-0.22336,51.42766],[-0.22184,51.4273],[-0.22099,51.42594],[-0.22077,51.42616],[-0.22014,51.42597],[-0.21892,51.42703],[-0.21829,51.42687],[-0.21789,51.42715],[-0.21739,51.42693],[-0.2192,51.42542],[-0.21805,51.42508],[-0.21851,51.42439],[-0.21817,51.42418],[-0.21892,51.42354],[-0.21752,51.4225],[-0.22077,51.42089],[-0.22496,51.4191],[-0.22636,51.41869],[-0.2298,51.41827],[-0.23092,51.41887],[-0.2302,51.41921],[-0.23029,51.4196],[-0.22962,51.41977],[-0.23002,51.42012],[-0.22948,51.42045],[-0.22881,51.42033],[-0.22839,51.4199],[-0.22632,51.41982],[-0.22565,51.42026],[-0.22555,51.42094],[-0.22676,51.42148],[-0.22645,51.42179],[-0.2269,51.42298],[-0.22863,51.42282],[-0.2288,51.42313],[-0.22988,51.423],[-0.23023,51.42235],[-0.2308,51.42264],[-0.23245,51.4225],[-0.23299,51.42274],[-0.23399,51.42191],[-0.23539,51.42298],[-0.23658,51.42252],[-0.23699,51.42157],[-0.23576,51.4206],[-0.23611,51.41975],[-0.23837,51.41982],[-0.24098,51.42026],[-0.24339,51.42014],[-0.24986,51.41906],[-0.25121,51.42247],[-0.25294,51.42333],[-0.25231,51.42595],[-0.25333,51.42774],[-0.25417,51.42981],[-0.25333,51.43092],[-0.25106,51.43256],[-0.23421,51.43721],[-0.23183,51.43681],[-0.2298,51.43747],[-0.22462,51.43673]]]}},{"type":"Feature","properties":{"id":"E01003461","name":"E01003461","parent":"E09000024","type":"LSOA","pop":1429,"r":699,"ff":243,"ffd":17004.9,"ffs":0.4332,"g":135,"co":0,"mo":0,"sa":0,"ic":0},"geometry":{"type":"Polygon","coordinates":[[[-0.2125,51.42763],[-0.21246,51.42738],[-0.2114,51.42773],[-0.20982,51.42658],[-0.21072,51.4263],[-0.21031,51.42591],[-0.21346,51.42445],[-0.2133,51.42421],[-0.21296,51.42415],[-0.21477,51.42217],[-0.21388,51.42165],[-0.21421,51.42122],[-0.21752,51.4225],[-0.21892,51.42354],[-0.21817,51.42418],[-0.21851,51.42439],[-0.21805,51.42508],[-0.2192,51.42542],[-0.21739,51.42693],[-0.21789,51.42715],[-0.21749,51.42768],[-0.21678,51.42731],[-0.21552,51.42764],[-0.21444,51.42869],[-0.21312,51.42845],[-0.21312,51.42768],[-0.2125,51.42763]]]}},{"type":"Feature","properties":{"id":"E01003462","name":"E01003462","parent":"E09000024","type":"LSOA","pop":1383,"r":661,"ff":234,"ffd":16919.7,"ffs":0.4491,"g":136,"co":0,"mo":0,"sa":0,"ic":0},"geometry":{"type":"Polygon","coordinates":[[[-0.2288,51.42313],[-0.22863,51.42282],[-0.2269,51.42298],[-0.22645,51.42179],[-0.22676,51.42148],[-0.22555,51.42094],[-0.22565,51.42026],[-0.22632,51.41982],[-0.22839,51.4199],[-0.22881,51.42033],[-0.22948,51.42045],[-0.23002,51.42012],[-0.22962,51.41977],[-0.23029,51.4196],[-0.2302,51.41921],[-0.23092,51.41887],[-0.2298,51.41827],[-0.22978,51.41679],[-0.23096,51.41627],[-0.23647,51.41528],[-0.23769,51.41531],[-0.23808,51.41685],[-0.23504,51.41707],[-0.23505,51.4183],[-0.23642,51.41827],[-0.23689,51.41858],[-0.237,51.41827],[-0.23824,51.41831],[-0.23821,51.41866],[-0.23765,51.41878],[-0.23822,51.41883],[-0.23837,51.41982],[-0.23611,51.41975],[-0.23576,51.4206],[-0.23699,51.42157],[-0.23658,51.42252],[-0.23539,51.42298],[-0.23399,51.42191],[-0.23299,51.42274],[-0.23245,51.4225],[-0.2308,51.42264],[-0.23023,51.42235],[-0.22988,51.423],[-0.2288,51.42313]]]}},{"type":"Feature","properties":{"id":"E01003463","name":"E01003463","parent":"E09000024","type":"LSOA","pop":1571,"r":620,"ff":218,"ffd":13876.5,"ffs":0.4551,"g":137,"co":0,"mo":0,"sa":0,"ic":0},"geometry":{"type":"Polygon","coordinates":[[[-0.23824,51.41831],[-0.237,51.41827],[-0.23689,51.41858],[-0.23642,51.41827],[-0.23505,51.4183],[-0.23504,51.41707],[-0.23808,51.41685],[-0.23769,51.41531],[-0.24089,51.41511],[-0.24264,51.41474],[-0.2428,51.41347],[-0.24236,51.41228],[-0.24651,51.41355],[-0.24947,51.41487],[-0.24984,51.41691],[-0.24953,51.41814],[-0.24986,51.41906],[-0.24339,51.42014],[-0.24098,51.42026],[-0.23837,51.41982],[-0.23822,51.41883],[-0.23765,51.41878],[-0.23821,51.41866],[-0.23824,51.41831]]]}},{"type":"Feature","properties":{"id":"E01003464","name":"E01003464","parent":"E09000024","type":"LSOA","pop":1415,"r":660,"ff":222,"ffd":15689.0,"ffs":0.4286,"g":138,"co":0,"mo":0,"sa":0,"ic":0},"geometry":{"type":"Polygon","coordinates":[[[-0.22366,51.43879],[-0.21986,51.4385],[-0.21803,51.43869],[-0.21685,51.43846],[-0.21566,51.43773],[-0.2131,51.43781],[-0.20907,51.43828],[-0.20774,51.43733],[-0.20973,51.43755],[-0.21049,51.4371],[-0.20862,51.43594],[-0.20837,51.43511],[-0.20896,51.43421],[-0.21229,51.43349],[-0.21221,51.43014],[-0.21223,51.43068],[-0.21257,51.43061],[-0.21342,51.43152],[-0.21386,51.43079],[-0.21543,51.43061],[-0.21591,51.43025],[-0.21717,51.43168],[-0.21928,51.43308],[-0.2205,51.43242],[-0.2227,51.43314],[-0.22303,51.43373],[-0.22427,51.43348],[-0.22462,51.43673],[-0.2298,51.43747],[-0.23183,51.43681],[-0.23421,51.43721],[-0.23105,51.43818],[-0.22548,51.43874],[-0.22448,51.43858],[-0.22425,51.43886],[-0.22366,51.43879]]]}},{"type":"Feature","properties":{"id":"E01003465","name":"E01003465","parent":"E09000024","type":"LSOA","pop":1313,"r":665,"ff":224,"ffd":17060.2,"ffs":0.4211,"g":130,"co":0,"mo":0,"sa":0,"ic":0},"geometry":{"type":"Polygon","coordinates":[[[-0.2227,51.43314],[-0.2205,51.43242],[-0.21928,51.43308],[-0.21717,51.43168],[-0.21591,51.43025],[-0.21543,51.43061],[-0.21386,51.43079],[-0.21342,51.43152],[-0.21257,51.43061],[-0.21223,51.43068],[-0.21232,51.43014],[-0.21073,51.42977],[-0.20999,51.43125],[-0.20869,51.43106],[-0.20881,51.42923],[-0.20769,51.43001],[-0.20539,51.43067],[-0.20397,51.42862],[-0.20743,51.42616],[-0.20973,51.4264],[-0.21031,51.42591],[-0.21072,51.4263],[-0.20982,51.42658],[-0.21015,51.42694],[-0.2114,51.42773],[-0.21246,51.42738],[-0.2125,51.42763],[-0.21312,51.42768],[-0.21312,51.42845],[-0.21444,51.42869],[-0.21552,51.42764],[-0.21678,51.42731],[-0.21749,51.42768],[-0.21829,51.42687],[-0.21892,51.42703],[-0.22014,51.42597],[-0.22077,51.42616],[-0.22099,51.42594],[-0.22184,51.4273],[-0.22336,51.42766],[-0.22351,51.42797],[-0.22427,51.43348],[-0.22303,51.43373],[-0.2227,51.43314]]]}},{"type":"Feature","properties":{"id":"E01003466","name":"E01003466","parent":"E09000024","type":"LSOA","pop":1722,"r":625,"ff":236,"ffd":13705.0,"ffs":0.4777,"g":126,"co":0,"mo":0,"sa":0,"ic":0},"geometry":{"type":"Polygon","coordinates":[[[-0.23358,51.40299],[-0.23329,51.40255],[-0.22916,51.40295],[-0.22898,51.3991],[-0.22982,51.39887],[-0.22944,51.39816],[-0.22876,51.39795],[-0.22927,51.39755],[-0.23095,51.39828],[-0.23162,51.39824],[-0.23109,51.39752],[-0.23149,51.39728],[-0.23211,51.39768],[-0.2344,51.39619],[-0.23548,51.39766],[-0.23373,51.39893],[-0.23518,51.39989],[-0.23465,51.40039],[-0.23484,51.40071],[-0.23436,51.4009],[-0.23471,51.40152],[-0.23439,51.40231],[-0.23488,51.40312],[-0.23391,51.40331],[-0.23358,51.40299]]]}},{"type":"Feature","properties":{"id":"E01003467","name":"E01003467","parent":"E09000024","type":"LSOA","pop":1717,"r":590,"ff":219,"ffd":12754.8,"ffs":0.466,"g":117,"co":0,"mo":0,"sa":0,"ic":0},"geometry":{"type":"Polygon","coordinates":[[[-0.2264,51.40274],[-0.22534,51.4018],[-0.22491,51.40191],[-0.22509,51.40144],[-0.22473,51.40112],[-0.22534,51.40087],[-0.22352,51.39948],[-0.22478,51.39873],[-0.22087,51.39677],[-0.22111,51.39656],[-0.2263,51.39541],[-0.22599,51.39512],[-0.22752,51.39446],[-0.22632,51.39327],[-0.2268,51.39279],[-0.22934,51.39294],[-0.23009,51.39478],[-0.23129,51.39621],[-0.23149,51.39728],[-0.23109,51.39752],[-0.23162,51.39824],[-0.23095,51.39828],[-0.22927,51.39755],[-0.22876,51.39795],[-0.22944,51.39816],[-0.22982,51.39887],[-0.22898,51.3991],[-0.22913,51.40268],[-0.22807,51.4029],[-0.2264,51.40274]]]}},{"type":"Feature","properties":{"id":"E01003468","name":"E01003468","parent":"E09000024","type":"LSOA","pop":1738,"r":625,"ff":237,"ffd":13636.4,"ffs":0.4817,"g":128,"co":0,"mo":0,"sa":0,"ic":0},"geometry":{"type":"Polygon","coordinates":[[[-0.23373,51.39893],[-0.23548,51.39766],[-0.2344,51.39619],[-0.23211,51.39768],[-0.23149,51.39728],[-0.23129,51.39621],[-0.23009,51.39478],[-0.22934,51.39294],[-0.23266,51.39313],[-0.23222,51.3926],[-0.2349,51.39175],[-0.23463,51.39054],[-0.23967,51.3893],[-0.24091,51.39217],[-0.24024,51.39371],[-0.2391,51.39371],[-0.23684,51.39497],[-0.2375,51.39541],[-0.23963,51.39538],[-0.23835,51.3983],[-0.23749,51.39816],[-0.23716,51.39893],[-0.23674,51.39878],[-0.23649,51.3991],[-0.23607,51.39883],[-0.23518,51.39989],[-0.23373,51.39893]]]}},{"type":"Feature","properties":{"id":"E01003469","name":"E01003469","parent":"E09000024","type":"LSOA","pop":1712,"r":659,"ff":258,"ffd":15070.1,"ffs":0.4943,"g":132,"co":0,"mo":0,"sa":0,"ic":0},"geometry":{"type":"Polygon","coordinates":[[[-0.24126,51.39939],[-0.24215,51.39735],[-0.24262,51.39773],[-0.24342,51.39735],[-0.24309,51.39699],[-0.24387,51.39654],[-0.24144,51.3945],[-0.24095,51.39484],[-0.23954,51.39461],[-0.23952,51.3941],[-0.24024,51.39371],[-0.24091,51.39217],[-0.2418,51.39397],[-0.24472,51.39479],[-0.24747,51.39765],[-0.2467,51.39921],[-0.24683,51.40055],[-0.24519,51.40187],[-0.24463,51.40386],[-0.24176,51.40368],[-0.24191,51.40123],[-0.24316,51.39978],[-0.24126,51.39939]]]}},{"type":"Feature","properties":{"id":"E01003470","name":"E01003470","parent":"E09000024","type":"LSOA","pop":2127,"r":637,"ff":239,"ffd":11236.5,"ffs":0.4761,"g":130,"co":0,"mo":0,"sa":0,"ic":0},"geometry":{"type":"Polygon","coordinates":[[[-0.24137,51.40134],[-0.2398,51.40103],[-0.23918,51.40181],[-0.23737,51.40136],[-0.23744,51.40002],[-0.23674,51.39988],[-0.23749,51.39816],[-0.23835,51.3983],[-0.23963,51.39538],[-0.2375,51.39541],[-0.23684,51.39497],[-0.2391,51.39371],[-0.24024,51.39371],[-0.23952,51.3941],[-0.23954,51.39461],[-0.24095,51.39484],[-0.24144,51.3945],[-0.24387,51.39654],[-0.24309,51.39699],[-0.24342,51.39735],[-0.24262,51.39773],[-0.24215,51.39735],[-0.24126,51.39939],[-0.24316,51.39978],[-0.24191,51.40123],[-0.24176,51.40368],[-0.24074,51.40322],[-0.24137,51.40134]]]}},{"type":"Feature","properties":{"id":"E01003471","name":"E01003471","parent":"E09000024","type":"LSOA","pop":1742,"r":619,"ff":229,"ffd":13145.8,"ffs":0.4712,"g":128,"co":0,"mo":0,"sa":0,"ic":0},"geometry":{"type":"Polygon","coordinates":[[[-0.22879,51.40711],[-0.22851,51.40294],[-0.22807,51.4029],[-0.22913,51.40268],[-0.22916,51.40295],[-0.22969,51.40299],[-0.23329,51.40255],[-0.23391,51.40331],[-0.23488,51.40312],[-0.23439,51.40231],[-0.23471,51.40152],[-0.23436,51.4009],[-0.23484,51.40071],[-0.23465,51.40039],[-0.23607,51.39883],[-0.23649,51.3991],[-0.23674,51.39878],[-0.23716,51.39893],[-0.23674,51.39988],[-0.23744,51.40002],[-0.23737,51.40136],[-0.23918,51.40181],[-0.2398,51.40103],[-0.24137,51.40134],[-0.24074,51.40322],[-0.23686,51.40223],[-0.2353,51.40521],[-0.23178,51.4069],[-0.22879,51.40711]]]}},{"type":"Feature","properties":{"id":"E01003472","name":"E01003472","parent":"E09000024","type":"LSOA","pop":1246,"r":734,"ff":252,"ffd":20224.7,"ffs":0.4308,"g":146,"co":0,"mo":0,"sa":0,"ic":0},"geometry":{"type":"Polygon","coordinates":[[[-0.19885,51.43834],[-0.19864,51.4381],[-0.19787,51.43837],[-0.19782,51.43774],[-0.20077,51.43668],[-0.2013,51.43713],[-0.20217,51.43668],[-0.20447,51.43887],[-0.19998,51.43972],[-0.19885,51.43834]]]}},{"type":"Feature","properties":{"id":"E01003473","name":"E01003473","parent":"E09000024","type":"LSOA","pop":1422,"r":699,"ff":243,"ffd":17088.6,"ffs":0.4332,"g":135,"co":0,"mo":0,"sa":0,"ic":0},"geometry":{"type":"Polygon","coordinates":[[[-0.20447,51.43887],[-0.20217,51.43668],[-0.2013,51.43713],[-0.20077,51.43668],[-0.19782,51.43774],[-0.1973,51.43777],[-0.19725,51.43722],[-0.1977,51.43715],[-0.19749,51.43656],[-0.19707,51.43664],[-0.19618,51.43503],[-0.19671,51.43475],[-0.19849,51.4347],[-0.19844,51.43449],[-0.19933,51.4343],[-0.19858,51.43346],[-0.19781,51.43344],[-0.19679,51.43248],[-0.19672,51.43226],[-0.19725,51.43108],[-0.19802,51.43098],[-0.19832,51.43173],[-0.19891,51.43175],[-0.19878,51.43208],[-0.19849,51.43197],[-0.19905,51.43275],[-0.19957,51.43272],[-0.1993,51.43314],[-0.19969,51.4337],[-0.20064,51.43471],[-0.20223,51.43526],[-0.20291,51.43606],[-0.20363,51.43618],[-0.2064,51.43558],[-0.20535,51.43831],[-0.20603,51.43867],[-0.20447,51.43887]]]}},{"type":"Feature","properties":{"id":"E01003474","name":"E01003474","parent":"E09000024","type":"LSOA","pop":1294,"r":703,"ff":239,"ffd":18469.9,"ffs":0.4208,"g":132,"co":0,"mo":0,"sa":0,"ic":0},"geometry":{"type":"Polygon","coordinates":[[[-0.20535,51.43831],[-0.2064,51.43558],[-0.20363,51.43618],[-0.20291,51.43606],[-0.20223,51.43526],[-0.20064,51.43471],[-0.1993,51.43314],[-0.19957,51.43272],[-0.19905,51.43275],[-0.19849,51.43197],[-0.19878,51.43208],[-0.20053,51.42964],[-0.20247,51.42774],[-0.20348,51.42755],[-0.20397,51.42862],[-0.20539,51.43067],[-0.20769,51.43001],[-0.20881,51.42923],[-0.20869,51.43106],[-0.20999,51.43125],[-0.21073,51.42977],[-0.21221,51.43014],[-0.21229,51.43349],[-0.20896,51.43421],[-0.20837,51.43511],[-0.20862,51.43594],[-0.21049,51.4371],[-0.20973,51.43755],[-0.20774,51.43733],[-0.20907,51.43828],[-0.20603,51.43867],[-0.20535,51.43831]]]}},{"type":"Feature","properties":{"id":"E01003476","name":"E01003476","parent":"E09000024","type":"LSOA","pop":1304,"r":735,"ff":264,"ffd":20245.4,"ffs":0.4452,"g":139,"co":0,"mo":0,"sa":0,"ic":0},"geometry":{"type":"Polygon","coordinates":[[[-0.19895,51.42851],[-0.19862,51.42846],[-0.1983,51.42899],[-0.19664,51.42912],[-0.19643,51.42759],[-0.19612,51.42687],[-0.19775,51.42671],[-0.19798,51.42631],[-0.19743,51.42594],[-0.19828,51.42566],[-0.19847,51.4248],[-0.20099,51.42401],[-0.20376,51.4225],[-0.204,51.42265],[-0.20091,51.42513],[-0.19909,51.42731],[-0.20172,51.4272],[-0.20348,51.42755],[-0.20247,51.42774],[-0.20053,51.42964],[-0.19891,51.43175],[-0.19832,51.43173],[-0.19802,51.43098],[-0.19962,51.42891],[-0.19895,51.42851]]]}},{"type":"Feature","properties":{"id":"E01003477","name":"E01003477","parent":"E09000024","type":"LSOA","pop":1550,"r":731,"ff":263,"ffd":16967.7,"ffs":0.442,"g":132,"co":0,"mo":0,"sa":0,"ic":0},"geometry":{"type":"Polygon","coordinates":[[[-0.19081,51.42758],[-0.19,51.42673],[-0.18821,51.42735],[-0.18737,51.42579],[-0.18885,51.42601],[-0.18939,51.42661],[-0.19025,51.42633],[-0.18937,51.42547],[-0.19097,51.4256],[-0.19441,51.42548],[-0.19847,51.4248],[-0.19828,51.42566],[-0.19743,51.42594],[-0.19798,51.42631],[-0.19775,51.42671],[-0.19612,51.42687],[-0.19643,51.42759],[-0.19574,51.42766],[-0.19543,51.4285],[-0.19488,51.42856],[-0.1948,51.42933],[-0.19412,51.4294],[-0.19256,51.42891],[-0.19084,51.42779],[-0.19081,51.42758]]]}},{"type":"Feature","properties":{"id":"E01003478","name":"E01003478","parent":"E09000024","type":"LSOA","pop":1976,"r":790,"ff":276,"ffd":13967.6,"ffs":0.436,"g":153,"co":0,"mo":0,"sa":0,"ic":0},"geometry":{"type":"Polygon","coordinates":[[[-0.18927,51.43851],[-0.19008,51.43528],[-0.19118,51.43325],[-0.19185,51.43298],[-0.19199,51.43374],[-0.19323,51.43395],[-0.19392,51.43467],[-0.19185,51.43758],[-0.19749,51.43656],[-0.1977,51.43715],[-0.19725,51.43722],[-0.1973,51.43777],[-0.19782,51.43774],[-0.19787,51.43837],[-0.19864,51.4381],[-0.19998,51.43972],[-0.19457,51.44081],[-0.19006,51.44145],[-0.18988,51.44026],[-0.19072,51.43896],[-0.18927,51.43851]]]}},{"type":"Feature","properties":{"id":"E01034578","name":"E01034578","parent":"E09000024","type":"LSOA","pop":1013,"r":699,"ff":243,"ffd":23988.2,"ffs":0.4332,"g":135,"co":0,"mo":0,"sa":0,"ic":0},"geometry":{"type":"Polygon","coordinates":[[[-0.19125,51.42983],[-0.19073,51.42899],[-0.19084,51.42779],[-0.19256,51.42891],[-0.19412,51.4294],[-0.1948,51.42933],[-0.19488,51.42856],[-0.19543,51.4285],[-0.19574,51.42766],[-0.19641,51.4276],[-0.19664,51.42912],[-0.1983,51.42899],[-0.19862,51.42846],[-0.19895,51.42851],[-0.19962,51.42891],[-0.19802,51.43098],[-0.19725,51.43108],[-0.19672,51.43226],[-0.19781,51.43344],[-0.19858,51.43346],[-0.19933,51.4343],[-0.19844,51.43449],[-0.19849,51.4347],[-0.19671,51.43475],[-0.19618,51.43503],[-0.19707,51.43664],[-0.19185,51.43758],[-0.19392,51.43467],[-0.19323,51.43395],[-0.19199,51.43374],[-0.19172,51.43268],[-0.19027,51.43061],[-0.19125,51.42983]]]}},{"type":"Feature","properties":{"id":"E01034579","name":"E01034579","parent":"E09000024","type":"LSOA","pop":2672,"r":774,"ff":283,"ffd":10591.3,"ffs":0.4471,"g":137,"co":0,"mo":0,"sa":0,"ic":0},"geometry":{"type":"Polygon","coordinates":[[[-0.19118,51.43325],[-0.18976,51.43133],[-0.18907,51.43156],[-0.18926,51.43181],[-0.18743,51.43206],[-0.18734,51.43291],[-0.18578,51.43309],[-0.1843,51.43123],[-0.18464,51.42766],[-0.18413,51.42637],[-0.18198,51.42469],[-0.18937,51.42547],[-0.19025,51.42633],[-0.18939,51.42661],[-0.18885,51.42601],[-0.18737,51.42579],[-0.18821,51.42735],[-0.19,51.42673],[-0.19081,51.42758],[-0.19073,51.42899],[-0.19125,51.42983],[-0.19027,51.43061],[-0.19185,51.43298],[-0.19118,51.43325]]]}},{"type":"Feature","properties":{"id":"E01034580","name":"E01034580","parent":"E09000024","type":"LSOA","pop":1731,"r":668,"ff":259,"ffd":14962.4,"ffs":0.4701,"g":112,"co":0,"mo":0,"sa":0,"ic":0},"geometry":{"type":"Polygon","coordinates":[[[-0.18065,51.42181],[-0.18016,51.42124],[-0.17936,51.42157],[-0.1788,51.42105],[-0.17956,51.42081],[-0.17945,51.4206],[-0.17757,51.41929],[-0.17845,51.41907],[-0.17877,51.41814],[-0.17838,51.41798],[-0.17757,51.41867],[-0.17545,51.41843],[-0.17484,51.41757],[-0.17456,51.41759],[-0.17418,51.41682],[-0.17426,51.41604],[-0.17411,51.41575],[-0.17707,51.41556],[-0.17816,51.41568],[-0.17821,51.41652],[-0.17948,51.41707],[-0.18081,51.41655],[-0.18134,51.41932],[-0.18053,51.41946],[-0.18067,51.42005],[-0.18134,51.42009],[-0.18242,51.42178],[-0.1809,51.42236],[-0.18065,51.42181]]]}},{"type":"Feature","properties":{"id":"E01034581","name":"E01034581","parent":"E09000024","type":"LSOA","pop":1571,"r":627,"ff":244,"ffd":15531.5,"ffs":0.4701,"g":105,"co":0,"mo":0,"sa":0,"ic":0},"geometry":{"type":"Polygon","coordinates":[[[-0.17136,51.41853],[-0.17069,51.41771],[-0.16943,51.41809],[-0.16897,51.41757],[-0.17126,51.41727],[-0.17178,51.417],[-0.17171,51.41659],[-0.17368,51.41586],[-0.17334,51.41545],[-0.174,51.41525],[-0.17338,51.414],[-0.17857,51.41296],[-0.17904,51.41405],[-0.18229,51.41261],[-0.18408,51.41213],[-0.18364,51.41459],[-0.18227,51.41623],[-0.17948,51.41707],[-0.17821,51.41652],[-0.17816,51.41568],[-0.17707,51.41556],[-0.17411,51.41575],[-0.17426,51.41604],[-0.17418,51.41682],[-0.17456,51.41759],[-0.17437,51.41803],[-0.17309,51.41825],[-0.17264,51.41879],[-0.17136,51.41853]]]}}]}