{"type":"FeatureCollection","features":[{"type":"Feature","properties":{"id":"E01002812","name":"E01002812","parent":"E09000020","type":"LSOA","pop":1540,"r":966,"ff":306,"ffd":19870.1,"ffs":0.3844,"g":166,"co":0,"mo":2,"sa":0,"ic":0},"geometry":{"type":"Polygon","coordinates":[[[-0.18911,51.49662],[-0.18902,51.4963],[-0.18862,51.49635],[-0.18878,51.49575],[-0.1899,51.49474],[-0.1931,51.49474],[-0.19315,51.49538],[-0.1934,51.49583],[-0.19373,51.49581],[-0.19384,51.49608],[-0.19272,51.49614],[-0.19271,51.49586],[-0.19228,51.49589],[-0.19246,51.49762],[-0.19108,51.49814],[-0.1894,51.49816],[-0.18911,51.49662]]]}},{"type":"Feature","properties":{"id":"E01002813","name":"E01002813","parent":"E09000020","type":"LSOA","pop":1438,"r":988,"ff":311,"ffd":21627.3,"ffs":0.3863,"g":178,"co":0,"mo":2,"sa":0,"ic":0},"geometry":{"type":"Polygon","coordinates":[[[-0.19501,51.49826],[-0.19467,51.49772],[-0.19283,51.49839],[-0.19201,51.49806],[-0.19132,51.49842],[-0.19108,51.49814],[-0.19246,51.49762],[-0.19228,51.49589],[-0.19271,51.49586],[-0.19272,51.49614],[-0.19384,51.49608],[-0.19373,51.49581],[-0.19545,51.49551],[-0.19528,51.49519],[-0.19585,51.49503],[-0.1965,51.49573],[-0.1971,51.49568],[-0.19734,51.49617],[-0.19693,51.49637],[-0.1975,51.49653],[-0.19878,51.49624],[-0.19894,51.49651],[-0.19724,51.49688],[-0.1977,51.49762],[-0.19869,51.49757],[-0.19851,51.49821],[-0.19822,51.49838],[-0.1981,51.4978],[-0.1965,51.49841],[-0.19524,51.49862],[-0.19501,51.49826]]]}},{"type":"Feature","properties":{"id":"E01002814","name":"E01002814","parent":"E09000020","type":"LSOA","pop":2525,"r":985,"ff":318,"ffd":12594.1,"ffs":0.395,"g":176,"co":0,"mo":2,"sa":0,"ic":0},"geometry":{"type":"Polygon","coordinates":[[[-0.2022,51.49582],[-0.20308,51.49543],[-0.20226,51.49484],[-0.20249,51.49453],[-0.20221,51.49428],[-0.20141,51.49466],[-0.20044,51.49455],[-0.20005,51.49377],[-0.19888,51.4939],[-0.19915,51.49423],[-0.19753,51.49435],[-0.19696,51.49401],[-0.2004,51.49277],[-0.20186,51.49188],[-0.20398,51.49406],[-0.20499,51.49484],[-0.20736,51.49615],[-0.2026,51.49782],[-0.20233,51.49753],[-0.20262,51.49729],[-0.20192,51.49661],[-0.20267,51.49635],[-0.2022,51.49582]]]}},{"type":"Feature","properties":{"id":"E01002815","name":"E01002815","parent":"E09000020","type":"LSOA","pop":1198,"r":1008,"ff":325,"ffd":27128.5,"ffs":0.3949,"g":181,"co":0,"mo":2,"sa":0,"ic":0},"geometry":{"type":"Polygon","coordinates":[[[-0.1934,51.49583],[-0.19315,51.49538],[-0.1931,51.49474],[-0.19545,51.49454],[-0.19696,51.49401],[-0.19753,51.49435],[-0.19915,51.49423],[-0.19888,51.4939],[-0.20005,51.49377],[-0.20044,51.49455],[-0.19987,51.49491],[-0.19996,51.49512],[-0.19852,51.49567],[-0.19813,51.49534],[-0.1965,51.49573],[-0.19585,51.49503],[-0.19528,51.49519],[-0.19545,51.49551],[-0.1934,51.49583]]]}},{"type":"Feature","properties":{"id":"E01002816","name":"E01002816","parent":"E09000020","type":"LSOA","pop":1106,"r":973,"ff":308,"ffd":27848.1,"ffs":0.3864,"g":172,"co":0,"mo":2,"sa":0,"ic":0},"geometry":{"type":"Polygon","coordinates":[[[-0.19263,51.4995],[-0.19229,51.4989],[-0.19179,51.49897],[-0.19132,51.49842],[-0.19201,51.49806],[-0.19283,51.49839],[-0.19337,51.49829],[-0.19467,51.49772],[-0.19607,51.49998],[-0.19346,51.50091],[-0.19263,51.4995]]]}},{"type":"Feature","properties":{"id":"E01002817","name":"E01002817","parent":"E09000020","type":"LSOA","pop":1410,"r":992,"ff":317,"ffd":22482.3,"ffs":0.3914,"g":177,"co":0,"mo":2,"sa":0,"ic":0},"geometry":{"type":"Polygon","coordinates":[[[-0.1965,51.49841],[-0.1981,51.4978],[-0.19822,51.49838],[-0.19851,51.49821],[-0.19869,51.49757],[-0.1977,51.49762],[-0.19724,51.49688],[-0.19894,51.49651],[-0.19878,51.49624],[-0.1975,51.49653],[-0.19693,51.49637],[-0.19734,51.49617],[-0.1971,51.49568],[-0.19813,51.49534],[-0.19852,51.49567],[-0.19996,51.49512],[-0.19987,51.49491],[-0.20044,51.49455],[-0.20141,51.49466],[-0.20221,51.49428],[-0.20249,51.49453],[-0.20226,51.49484],[-0.20308,51.49543],[-0.2022,51.49582],[-0.20267,51.49635],[-0.20192,51.49661],[-0.20262,51.49729],[-0.20233,51.49753],[-0.2026,51.49782],[-0.19607,51.49998],[-0.19524,51.49862],[-0.1965,51.49841]]]}},{"type":"Feature","properties":{"id":"E01002818","name":"E01002818","parent":"E09000020","type":"LSOA","pop":1296,"r":1020,"ff":304,"ffd":23456.8,"ffs":0.3523,"g":155,"co":0,"mo":2,"sa":0,"ic":2},"geometry":{"type":"Polygon","coordinates":[[[-0.15785,51.49902],[-0.15602,51.49751],[-0.16282,51.49679],[-0.16342,51.49627],[-0.16541,51.49735],[-0.16524,51.49781],[-0.16445,51.49758],[-0.16363,51.49824],[-0.16257,51.49782],[-0.16177,51.49896],[-0.16173,51.49941],[-0.16292,51.50008],[-0.16121,51.50147],[-0.15847,51.50225],[-0.15848,51.50152],[-0.15785,51.49902]]]}},{"type":"Feature","properties":{"id":"E01002819","name":"E01002819","parent":"E09000020","type":"LSOA","pop":1123,"r":1045,"ff":303,"ffd":26981.3,"ffs":0.3479,"g":172,"co":0,"mo":2,"sa":0,"ic":0},"geometry":{"type":"Polygon","coordinates":[[[-0.16177,51.49896],[-0.16257,51.49782],[-0.16363,51.49824],[-0.16445,51.49758],[-0.16524,51.49781],[-0.16541,51.49735],[-0.16415,51.49655],[-0.16591,51.49545],[-0.16666,51.49612],[-0.16704,51.49594],[-0.16673,51.4955],[-0.16701,51.49518],[-0.16796,51.49568],[-0.16753,51.49625],[-0.168,51.49638],[-0.16883,51.49583],[-0.16926,51.49662],[-0.17027,51.4963],[-0.17187,51.49679],[-0.17279,51.49649],[-0.1738,51.49654],[-0.17409,51.49818],[-0.16877,51.49899],[-0.16809,51.49893],[-0.16775,51.4984],[-0.16578,51.49924],[-0.16556,51.49884],[-0.16292,51.50008],[-0.16173,51.49941],[-0.16177,51.49896]]]}},{"type":"Feature","properties":{"id":"E01002821","name":"E01002821","parent":"E09000020","type":"LSOA","pop":1214,"r":967,"ff":286,"ffd":23558.5,"ffs":0.3571,"g":164,"co":0,"mo":2,"sa":0,"ic":0},"geometry":{"type":"Polygon","coordinates":[[[-0.1738,51.49654],[-0.17279,51.49649],[-0.17187,51.49679],[-0.17027,51.4963],[-0.16926,51.49662],[-0.16883,51.49583],[-0.168,51.49638],[-0.16753,51.49625],[-0.16796,51.49568],[-0.16701,51.49518],[-0.16673,51.4955],[-0.16704,51.49594],[-0.16666,51.49612],[-0.16591,51.49545],[-0.16831,51.49367],[-0.16894,51.49362],[-0.16932,51.49325],[-0.16962,51.49359],[-0.17044,51.49365],[-0.17013,51.49394],[-0.17109,51.4949],[-0.17172,51.49498],[-0.17335,51.49452],[-0.17306,51.49354],[-0.17218,51.49324],[-0.17166,51.49246],[-0.17204,51.4922],[-0.17379,51.49386],[-0.17495,51.49367],[-0.1759,51.49326],[-0.17621,51.49383],[-0.17579,51.49407],[-0.17588,51.49453],[-0.1765,51.49455],[-0.17616,51.49683],[-0.17388,51.49711],[-0.1738,51.49654]]]}},{"type":"Feature","properties":{"id":"E01002823","name":"E01002823","parent":"E09000020","type":"LSOA","pop":1222,"r":960,"ff":283,"ffd":23158.8,"ffs":0.3578,"g":167,"co":0,"mo":2,"sa":0,"ic":0},"geometry":{"type":"Polygon","coordinates":[[[-0.16975,51.49034],[-0.17009,51.49025],[-0.17174,51.49183],[-0.17128,51.4921],[-0.17218,51.49324],[-0.17306,51.49354],[-0.17335,51.49452],[-0.17172,51.49498],[-0.17109,51.4949],[-0.17013,51.49394],[-0.17044,51.49365],[-0.16962,51.49359],[-0.16932,51.49325],[-0.16967,51.49301],[-0.16847,51.49221],[-0.16959,51.49085],[-0.16975,51.49034]]]}},{"type":"Feature","properties":{"id":"E01002824","name":"E01002824","parent":"E09000020","type":"LSOA","pop":1204,"r":994,"ff":316,"ffd":26245.8,"ffs":0.3807,"g":160,"co":0,"mo":2,"sa":0,"ic":0},"geometry":{"type":"Polygon","coordinates":[[[-0.18627,51.50644],[-0.18864,51.50538],[-0.18822,51.50507],[-0.18841,51.50413],[-0.1896,51.50404],[-0.19049,51.50577],[-0.19135,51.50565],[-0.19139,51.50478],[-0.19249,51.50458],[-0.19276,51.50499],[-0.19369,51.50472],[-0.19384,51.505],[-0.19438,51.50506],[-0.19392,51.50434],[-0.19301,51.50445],[-0.19329,51.50402],[-0.19407,51.50397],[-0.19372,51.5037],[-0.19434,51.50352],[-0.19437,51.50313],[-0.19489,51.50272],[-0.19551,51.50275],[-0.19604,51.50376],[-0.19555,51.50387],[-0.19633,51.50499],[-0.1958,51.50513],[-0.19601,51.50543],[-0.19425,51.50584],[-0.19443,51.50651],[-0.19353,51.50637],[-0.19314,51.50565],[-0.1926,51.50568],[-0.19305,51.50648],[-0.19127,51.50651],[-0.19089,51.50628],[-0.18973,51.50659],[-0.18816,51.50821],[-0.18702,51.50814],[-0.18627,51.50644]]]}},{"type":"Feature","properties":{"id":"E01002825","name":"E01002825","parent":"E09000020","type":"LSOA","pop":1850,"r":1017,"ff":328,"ffd":17729.7,"ffs":0.3863,"g":164,"co":0,"mo":2,"sa":0,"ic":0},"geometry":{"type":"Polygon","coordinates":[[[-0.19749,51.50567],[-0.19714,51.50545],[-0.19513,51.506],[-0.1951,51.50623],[-0.19434,51.50609],[-0.19425,51.50584],[-0.19601,51.50543],[-0.1958,51.50513],[-0.19633,51.50499],[-0.19555,51.50387],[-0.19604,51.50376],[-0.19551,51.50275],[-0.19489,51.50272],[-0.19437,51.50313],[-0.19389,51.50284],[-0.19438,51.50216],[-0.19368,51.50142],[-0.19324,51.50156],[-0.19267,51.50123],[-0.19438,51.50057],[-0.19644,51.50275],[-0.19725,51.50288],[-0.2008,51.50251],[-0.20279,51.50575],[-0.20019,51.50649],[-0.1991,51.50697],[-0.19899,51.50668],[-0.19848,51.50644],[-0.1986,51.5058],[-0.19749,51.50567]]]}},{"type":"Feature","properties":{"id":"E01002826","name":"E01002826","parent":"E09000020","type":"LSOA","pop":1311,"r":960,"ff":307,"ffd":23417.2,"ffs":0.3809,"g":150,"co":0,"mo":2,"sa":0,"ic":0},"geometry":{"type":"Polygon","coordinates":[[[-0.18627,51.50644],[-0.18424,51.50179],[-0.18861,51.5024],[-0.19015,51.50216],[-0.19267,51.50123],[-0.19324,51.50156],[-0.19368,51.50142],[-0.19438,51.50216],[-0.19389,51.50284],[-0.19437,51.50313],[-0.19434,51.50352],[-0.19372,51.5037],[-0.19407,51.50397],[-0.19329,51.50402],[-0.19301,51.50445],[-0.19392,51.50434],[-0.19438,51.50506],[-0.19384,51.505],[-0.19369,51.50472],[-0.19276,51.50499],[-0.19249,51.50458],[-0.19139,51.50478],[-0.19135,51.50565],[-0.19049,51.50577],[-0.1896,51.50404],[-0.18841,51.50413],[-0.18822,51.50507],[-0.18864,51.50538],[-0.18627,51.50644]]]}},{"type":"Feature","properties":{"id":"E01002827","name":"E01002827","parent":"E09000020","type":"LSOA","pop":1746,"r":1018,"ff":335,"ffd":19186.7,"ffs":0.3941,"g":164,"co":0,"mo":2,"sa":0,"ic":0},"geometry":{"type":"Polygon","coordinates":[[[-0.18791,51.51018],[-0.18702,51.50814],[-0.18816,51.50821],[-0.18973,51.50659],[-0.19089,51.50628],[-0.19127,51.50651],[-0.19305,51.50648],[-0.1926,51.50568],[-0.19314,51.50565],[-0.19353,51.50637],[-0.19443,51.50651],[-0.19434,51.50609],[-0.1951,51.50623],[-0.19513,51.506],[-0.19714,51.50545],[-0.19749,51.50567],[-0.1986,51.5058],[-0.19848,51.50644],[-0.19722,51.50675],[-0.19683,51.50704],[-0.1971,51.50698],[-0.19697,51.50746],[-0.19731,51.50767],[-0.19776,51.50882],[-0.19212,51.50987],[-0.18791,51.51018]]]}},{"type":"Feature","properties":{"id":"E01002828","name":"E01002828","parent":"E09000020","type":"LSOA","pop":1201,"r":1034,"ff":342,"ffd":28476.3,"ffs":0.3945,"g":163,"co":0,"mo":2,"sa":0,"ic":0},"geometry":{"type":"Polygon","coordinates":[[[-0.19697,51.50746],[-0.1971,51.50698],[-0.19683,51.50704],[-0.19722,51.50675],[-0.19848,51.50644],[-0.19899,51.50668],[-0.1991,51.50697],[-0.20019,51.50649],[-0.20279,51.50575],[-0.20374,51.50768],[-0.20056,51.50858],[-0.19776,51.50882],[-0.19731,51.50767],[-0.19697,51.50746]]]}},{"type":"Feature","properties":{"id":"E01002829","name":"E01002829","parent":"E09000020","type":"LSOA","pop":1250,"r":1084,"ff":361,"ffd":28880.0,"ffs":0.3963,"g":167,"co":0,"mo":2,"sa":0,"ic":0},"geometry":{"type":"Polygon","coordinates":[[[-0.20168,51.51806],[-0.20146,51.5178],[-0.20075,51.51797],[-0.19991,51.51684],[-0.19961,51.51593],[-0.20137,51.51564],[-0.20183,51.51652],[-0.20301,51.51683],[-0.20293,51.51745],[-0.20335,51.51734],[-0.20385,51.51811],[-0.20355,51.51818],[-0.20412,51.51845],[-0.204,51.51885],[-0.2026,51.5191],[-0.20168,51.51806]]]}},{"type":"Feature","properties":{"id":"E01002830","name":"E01002830","parent":"E09000020","type":"LSOA","pop":1623,"r":1041,"ff":345,"ffd":21256.9,"ffs":0.3956,"g":163,"co":0,"mo":2,"sa":0,"ic":0},"geometry":{"type":"Polygon","coordinates":[[[-0.20385,51.51811],[-0.20335,51.51734],[-0.20293,51.51745],[-0.20301,51.51683],[-0.20213,51.51672],[-0.20211,51.51649],[-0.20395,51.5161],[-0.20488,51.5163],[-0.2049,51.51655],[-0.20514,51.51654],[-0.20532,51.51686],[-0.20473,51.517],[-0.2049,51.51755],[-0.20401,51.5178],[-0.20424,51.51802],[-0.20624,51.51751],[-0.20708,51.51845],[-0.2044,51.52035],[-0.20365,51.52059],[-0.2026,51.5191],[-0.204,51.51885],[-0.20412,51.51845],[-0.20355,51.51818],[-0.20385,51.51811]]]}},{"type":"Feature","properties":{"id":"E01002831","name":"E01002831","parent":"E09000020","type":"LSOA","pop":1694,"r":1027,"ff":348,"ffd":20543.1,"ffs":0.4056,"g":164,"co":0,"mo":2,"sa":0,"ic":0},"geometry":{"type":"Polygon","coordinates":[[[-0.20674,51.51805],[-0.20624,51.51751],[-0.20424,51.51802],[-0.20401,51.5178],[-0.2049,51.51755],[-0.20473,51.517],[-0.20532,51.51686],[-0.20514,51.51654],[-0.20518,51.51586],[-0.20629,51.51559],[-0.20609,51.5154],[-0.20751,51.51471],[-0.20693,51.51448],[-0.20769,51.51425],[-0.2096,51.51687],[-0.21258,51.51602],[-0.21343,51.51652],[-0.20708,51.51845],[-0.20674,51.51805]]]}},{"type":"Feature","properties":{"id":"E01002832","name":"E01002832","parent":"E09000020","type":"LSOA","pop":1537,"r":1058,"ff":353,"ffd":22966.8,"ffs":0.3966,"g":162,"co":0,"mo":2,"sa":0,"ic":0},"geometry":{"type":"Polygon","coordinates":[[[-0.20183,51.51652],[-0.20137,51.51564],[-0.19961,51.51593],[-0.19919,51.51455],[-0.20414,51.51321],[-0.20437,51.51423],[-0.20479,51.51506],[-0.20452,51.51509],[-0.20416,51.51446],[-0.20314,51.51495],[-0.2024,51.51472],[-0.20298,51.51534],[-0.20375,51.51521],[-0.20395,51.5161],[-0.20183,51.51652]]]}},{"type":"Feature","properties":{"id":"E01002833","name":"E01002833","parent":"E09000020","type":"LSOA","pop":1132,"r":1037,"ff":351,"ffd":31007.1,"ffs":0.403,"g":162,"co":0,"mo":2,"sa":0,"ic":0},"geometry":{"type":"Polygon","coordinates":[[[-0.20395,51.5161],[-0.20375,51.51521],[-0.20298,51.51534],[-0.2024,51.51472],[-0.20314,51.51495],[-0.20416,51.51446],[-0.20452,51.51509],[-0.20479,51.51506],[-0.20437,51.51423],[-0.20414,51.51321],[-0.20647,51.51256],[-0.20769,51.51425],[-0.20693,51.51448],[-0.20751,51.51471],[-0.20609,51.5154],[-0.20629,51.51559],[-0.20518,51.51586],[-0.20514,51.51654],[-0.2049,51.51655],[-0.20488,51.5163],[-0.20395,51.5161]]]}},{"type":"Feature","properties":{"id":"E01002834","name":"E01002834","parent":"E09000020","type":"LSOA","pop":1315,"r":985,"ff":306,"ffd":23270.0,"ffs":0.3801,"g":176,"co":0,"mo":2,"sa":0,"ic":0},"geometry":{"type":"Polygon","coordinates":[[[-0.18684,51.4936],[-0.18642,51.49298],[-0.18699,51.49279],[-0.18705,51.49328],[-0.18761,51.49337],[-0.18794,51.49318],[-0.18663,51.49131],[-0.18796,51.49093],[-0.18855,51.49164],[-0.19117,51.49081],[-0.19171,51.49129],[-0.19027,51.49214],[-0.19041,51.49263],[-0.18836,51.49369],[-0.18698,51.4939],[-0.18684,51.4936]]]}},{"type":"Feature","properties":{"id":"E01002835","name":"E01002835","parent":"E09000020","type":"LSOA","pop":1538,"r":1002,"ff":303,"ffd":19700.9,"ffs":0.3673,"g":174,"co":0,"mo":2,"sa":0,"ic":0},"geometry":{"type":"Polygon","coordinates":[[[-0.17882,51.4943],[-0.1784,51.49206],[-0.18008,51.49128],[-0.18082,51.49208],[-0.18096,51.49174],[-0.18126,51.49193],[-0.18181,51.49165],[-0.18214,51.49187],[-0.18244,51.49295],[-0.18391,51.49308],[-0.1841,51.49341],[-0.18494,51.49301],[-0.18548,51.49352],[-0.18641,51.49349],[-0.1859,51.49361],[-0.18621,51.49439],[-0.1858,51.49438],[-0.18594,51.49484],[-0.17904,51.49534],[-0.17882,51.4943]]]}},{"type":"Feature","properties":{"id":"E01002836","name":"E01002836","parent":"E09000020","type":"LSOA","pop":1307,"r":993,"ff":309,"ffd":23641.9,"ffs":0.3773,"g":171,"co":0,"mo":2,"sa":0,"ic":0},"geometry":{"type":"Polygon","coordinates":[[[-0.18195,51.49092],[-0.18306,51.49072],[-0.18428,51.4909],[-0.18602,51.49066],[-0.18729,51.49228],[-0.18391,51.49308],[-0.18244,51.49295],[-0.18214,51.49187],[-0.18181,51.49165],[-0.18228,51.49145],[-0.18195,51.49092]]]}},{"type":"Feature","properties":{"id":"E01002837","name":"E01002837","parent":"E09000020","type":"LSOA","pop":1047,"r":958,"ff":293,"ffd":27984.7,"ffs":0.3732,"g":170,"co":0,"mo":2,"sa":0,"ic":0},"geometry":{"type":"Polygon","coordinates":[[[-0.18082,51.49208],[-0.17892,51.48984],[-0.17936,51.48969],[-0.17904,51.48932],[-0.17829,51.48929],[-0.17939,51.48857],[-0.17993,51.48912],[-0.18103,51.48854],[-0.18306,51.49072],[-0.18195,51.49092],[-0.18228,51.49145],[-0.18126,51.49193],[-0.18096,51.49174],[-0.18082,51.49208]]]}},{"type":"Feature","properties":{"id":"E01002839","name":"E01002839","parent":"E09000020","type":"LSOA","pop":1558,"r":950,"ff":294,"ffd":18870.3,"ffs":0.3774,"g":168,"co":0,"mo":2,"sa":0,"ic":0},"geometry":{"type":"Polygon","coordinates":[[[-0.18594,51.49484],[-0.1858,51.49438],[-0.18621,51.49439],[-0.1859,51.49361],[-0.18641,51.49349],[-0.18548,51.49352],[-0.18494,51.49301],[-0.1841,51.49341],[-0.18391,51.49308],[-0.18729,51.49228],[-0.18794,51.49318],[-0.18761,51.49337],[-0.18705,51.49328],[-0.18699,51.49279],[-0.18642,51.49298],[-0.18698,51.4939],[-0.18836,51.49369],[-0.18973,51.49292],[-0.19107,51.49416],[-0.1911,51.49476],[-0.18594,51.49484]]]}},{"type":"Feature","properties":{"id":"E01002840","name":"E01002840","parent":"E09000020","type":"LSOA","pop":1069,"r":861,"ff":271,"ffd":25350.8,"ffs":0.3839,"g":153,"co":0,"mo":2,"sa":0,"ic":0},"geometry":{"type":"Polygon","coordinates":[[[-0.17599,51.48379],[-0.17557,51.48315],[-0.17448,51.4832],[-0.17344,51.48215],[-0.17123,51.48264],[-0.17116,51.48239],[-0.17576,51.48162],[-0.17768,51.48035],[-0.17751,51.4801],[-0.17828,51.47918],[-0.17863,51.47941],[-0.17849,51.48028],[-0.17891,51.48041],[-0.17873,51.48081],[-0.17833,51.48077],[-0.178,51.48037],[-0.17723,51.4808],[-0.17772,51.4811],[-0.17747,51.48143],[-0.17806,51.48164],[-0.17916,51.48095],[-0.18036,51.48196],[-0.17599,51.48379]]]}},{"type":"Feature","properties":{"id":"E01002841","name":"E01002841","parent":"E09000020","type":"LSOA","pop":1193,"r":878,"ff":277,"ffd":23218.8,"ffs":0.3853,"g":157,"co":0,"mo":2,"sa":0,"ic":0},"geometry":{"type":"Polygon","coordinates":[[[-0.18026,51.48043],[-0.18004,51.48026],[-0.17849,51.48028],[-0.17863,51.47941],[-0.17828,51.47918],[-0.17926,51.47799],[-0.18082,51.47792],[-0.18251,51.4774],[-0.18345,51.47742],[-0.18458,51.47805],[-0.18408,51.4783],[-0.18493,51.47944],[-0.18202,51.48035],[-0.18135,51.48004],[-0.18053,51.48008],[-0.18139,51.481],[-0.18105,51.48113],[-0.18026,51.48043]]]}},{"type":"Feature","properties":{"id":"E01002842","name":"E01002842","parent":"E09000020","type":"LSOA","pop":1022,"r":850,"ff":271,"ffd":26516.6,"ffs":0.3877,"g":149,"co":0,"mo":2,"sa":0,"ic":0},"geometry":{"type":"Polygon","coordinates":[[[-0.17723,51.4808],[-0.178,51.48037],[-0.17833,51.48077],[-0.17873,51.48081],[-0.17891,51.48041],[-0.17849,51.48028],[-0.18004,51.48026],[-0.18098,51.48108],[-0.18046,51.48122],[-0.17987,51.48063],[-0.17884,51.48106],[-0.17806,51.48164],[-0.17747,51.48143],[-0.17772,51.4811],[-0.17723,51.4808]]]}},{"type":"Feature","properties":{"id":"E01002843","name":"E01002843","parent":"E09000020","type":"LSOA","pop":1396,"r":910,"ff":286,"ffd":20487.1,"ffs":0.3844,"g":164,"co":0,"mo":2,"sa":0,"ic":0},"geometry":{"type":"Polygon","coordinates":[[[-0.18036,51.48196],[-0.17916,51.48095],[-0.17987,51.48063],[-0.18046,51.48122],[-0.18105,51.48113],[-0.18139,51.481],[-0.18053,51.48008],[-0.18135,51.48004],[-0.18202,51.48035],[-0.18493,51.47944],[-0.18408,51.4783],[-0.18458,51.47805],[-0.18535,51.4786],[-0.18653,51.47987],[-0.18418,51.48089],[-0.18036,51.48196]]]}},{"type":"Feature","properties":{"id":"E01002844","name":"E01002844","parent":"E09000020","type":"LSOA","pop":1170,"r":891,"ff":277,"ffd":23675.2,"ffs":0.3821,"g":164,"co":0,"mo":2,"sa":0,"ic":0},"geometry":{"type":"Polygon","coordinates":[[[-0.1694,51.48622],[-0.168,51.48445],[-0.16717,51.48307],[-0.17116,51.48239],[-0.17123,51.48264],[-0.17157,51.48257],[-0.17207,51.4831],[-0.1716,51.48344],[-0.17195,51.48392],[-0.17238,51.48346],[-0.17279,51.48372],[-0.17205,51.48403],[-0.17236,51.48466],[-0.17294,51.48455],[-0.1724,51.48473],[-0.17265,51.48512],[-0.17394,51.48504],[-0.17418,51.48529],[-0.17011,51.48696],[-0.1694,51.48622]]]}},{"type":"Feature","properties":{"id":"E01002845","name":"E01002845","parent":"E09000020","type":"LSOA","pop":1250,"r":838,"ff":257,"ffd":20560.0,"ffs":0.3774,"g":155,"co":0,"mo":2,"sa":0,"ic":0},"geometry":{"type":"Polygon","coordinates":[[[-0.17418,51.48529],[-0.17394,51.48504],[-0.17265,51.48512],[-0.1724,51.48473],[-0.17294,51.48455],[-0.17236,51.48466],[-0.17205,51.48403],[-0.17279,51.48372],[-0.17238,51.48346],[-0.17195,51.48392],[-0.1716,51.48344],[-0.17207,51.4831],[-0.17157,51.48257],[-0.17344,51.48215],[-0.17448,51.4832],[-0.17557,51.48315],[-0.17599,51.48379],[-0.17694,51.48347],[-0.17712,51.48386],[-0.17418,51.48529]]]}},{"type":"Feature","properties":{"id":"E01002846","name":"E01002846","parent":"E09000020","type":"LSOA","pop":1338,"r":854,"ff":270,"ffd":20179.4,"ffs":0.3907,"g":160,"co":0,"mo":2,"sa":0,"ic":0},"geometry":{"type":"Polygon","coordinates":[[[-0.19371,51.49044],[-0.19455,51.48959],[-0.19437,51.48952],[-0.19391,51.48986],[-0.19282,51.48854],[-0.19643,51.48721],[-0.19869,51.48848],[-0.19969,51.48941],[-0.19891,51.49002],[-0.19764,51.49002],[-0.19615,51.49046],[-0.19563,51.49017],[-0.19519,51.4905],[-0.19514,51.48995],[-0.19402,51.4906],[-0.19371,51.49044]]]}},{"type":"Feature","properties":{"id":"E01002847","name":"E01002847","parent":"E09000020","type":"LSOA","pop":1393,"r":845,"ff":263,"ffd":18880.1,"ffs":0.3834,"g":156,"co":0,"mo":2,"sa":0,"ic":0},"geometry":{"type":"Polygon","coordinates":[[[-0.19584,51.49292],[-0.19549,51.49265],[-0.19648,51.49222],[-0.19552,51.49146],[-0.19561,51.49175],[-0.19514,51.49159],[-0.19466,51.49201],[-0.19427,51.49156],[-0.19283,51.49197],[-0.19293,51.49141],[-0.19242,51.49096],[-0.19293,51.49073],[-0.19345,51.49094],[-0.19305,51.49067],[-0.19371,51.49044],[-0.19402,51.4906],[-0.19514,51.48995],[-0.19519,51.4905],[-0.19563,51.49017],[-0.19615,51.49046],[-0.19764,51.49002],[-0.19891,51.49002],[-0.19883,51.49043],[-0.19707,51.4906],[-0.19833,51.49122],[-0.19801,51.49144],[-0.19744,51.49151],[-0.19696,51.4913],[-0.19663,51.49156],[-0.1979,51.4922],[-0.19752,51.49233],[-0.19806,51.49293],[-0.19756,51.4931],[-0.19739,51.4928],[-0.19622,51.49321],[-0.19584,51.49292]]]}},{"type":"Feature","properties":{"id":"E01002848","name":"E01002848","parent":"E09000020","type":"LSOA","pop":1237,"r":816,"ff":251,"ffd":20291.0,"ffs":0.3809,"g":154,"co":0,"mo":2,"sa":0,"ic":0},"geometry":{"type":"Polygon","coordinates":[[[-0.19924,51.4932],[-0.1983,51.49245],[-0.19774,51.49258],[-0.19752,51.49233],[-0.1979,51.4922],[-0.19663,51.49156],[-0.19696,51.4913],[-0.19744,51.49151],[-0.19833,51.49122],[-0.19707,51.4906],[-0.19883,51.49043],[-0.19891,51.49002],[-0.19969,51.48941],[-0.20238,51.49169],[-0.19924,51.4932]]]}},{"type":"Feature","properties":{"id":"E01002849","name":"E01002849","parent":"E09000020","type":"LSOA","pop":1525,"r":905,"ff":287,"ffd":18819.7,"ffs":0.3878,"g":162,"co":0,"mo":2,"sa":0,"ic":0},"geometry":{"type":"Polygon","coordinates":[[[-0.19027,51.49214],[-0.19171,51.49129],[-0.19022,51.48949],[-0.19282,51.48854],[-0.19391,51.48986],[-0.19437,51.48952],[-0.19455,51.48959],[-0.19371,51.49044],[-0.19305,51.49067],[-0.19345,51.49094],[-0.19293,51.49073],[-0.19242,51.49096],[-0.19293,51.49141],[-0.19283,51.49197],[-0.19177,51.49182],[-0.1919,51.49227],[-0.19058,51.49295],[-0.19027,51.49214]]]}},{"type":"Feature","properties":{"id":"E01002850","name":"E01002850","parent":"E09000020","type":"LSOA","pop":1511,"r":942,"ff":290,"ffd":19192.6,"ffs":0.3771,"g":169,"co":0,"mo":2,"sa":0,"ic":0},"geometry":{"type":"Polygon","coordinates":[[[-0.19004,51.49321],[-0.18974,51.49293],[-0.19041,51.49263],[-0.19058,51.49295],[-0.1919,51.49227],[-0.19177,51.49182],[-0.19283,51.49197],[-0.1939,51.49177],[-0.19369,51.49249],[-0.19412,51.49227],[-0.19442,51.49258],[-0.19404,51.49332],[-0.19458,51.49387],[-0.19506,51.49405],[-0.19451,51.49417],[-0.1944,51.49472],[-0.1911,51.49476],[-0.19107,51.49416],[-0.19004,51.49321]]]}},{"type":"Feature","properties":{"id":"E01002851","name":"E01002851","parent":"E09000020","type":"LSOA","pop":1275,"r":952,"ff":298,"ffd":23372.5,"ffs":0.385,"g":174,"co":0,"mo":2,"sa":0,"ic":0},"geometry":{"type":"Polygon","coordinates":[[[-0.19404,51.49332],[-0.19442,51.49258],[-0.19412,51.49227],[-0.19369,51.49249],[-0.1939,51.49177],[-0.19427,51.49156],[-0.19466,51.49201],[-0.19514,51.49159],[-0.19561,51.49175],[-0.19552,51.49146],[-0.19648,51.49222],[-0.19549,51.49265],[-0.19622,51.49321],[-0.19739,51.4928],[-0.19759,51.4931],[-0.19806,51.49293],[-0.19774,51.49258],[-0.1983,51.49245],[-0.19924,51.4932],[-0.19545,51.49454],[-0.1944,51.49472],[-0.19451,51.49417],[-0.19506,51.49405],[-0.19458,51.49387],[-0.19404,51.49332]]]}},{"type":"Feature","properties":{"id":"E01002852","name":"E01002852","parent":"E09000020","type":"LSOA","pop":2479,"r":911,"ff":330,"ffd":13311.8,"ffs":0.4331,"g":145,"co":0,"mo":2,"sa":0,"ic":0},"geometry":{"type":"Polygon","coordinates":[[[-0.22776,51.53017],[-0.22767,51.52993],[-0.22542,51.53017],[-0.22364,51.52995],[-0.21601,51.52793],[-0.21549,51.52674],[-0.21233,51.52687],[-0.20729,51.52627],[-0.20745,51.5257],[-0.20819,51.52583],[-0.20962,51.52356],[-0.21212,51.52415],[-0.21231,51.52381],[-0.21169,51.52364],[-0.21344,51.52336],[-0.21414,51.52454],[-0.21974,51.52533],[-0.22735,51.52584],[-0.22743,51.52805],[-0.22862,51.53006],[-0.22848,51.53035],[-0.22776,51.53017]]]}},{"type":"Feature","properties":{"id":"E01002853","name":"E01002853","parent":"E09000020","type":"LSOA","pop":1365,"r":962,"ff":347,"ffd":25421.2,"ffs":0.4289,"g":149,"co":0,"mo":2,"sa":0,"ic":0},"geometry":{"type":"Polygon","coordinates":[[[-0.20982,51.5232],[-0.20847,51.52329],[-0.2083,51.52245],[-0.20973,51.52147],[-0.2105,51.52148],[-0.21108,51.52189],[-0.21242,51.52159],[-0.21344,51.52336],[-0.21169,51.52364],[-0.21231,51.52381],[-0.21212,51.52415],[-0.21086,51.52387],[-0.21111,51.52353],[-0.20982,51.5232]]]}},{"type":"Feature","properties":{"id":"E01002854","name":"E01002854","parent":"E09000020","type":"LSOA","pop":1092,"r":979,"ff":346,"ffd":31685.0,"ffs":0.4199,"g":150,"co":0,"mo":2,"sa":0,"ic":0},"geometry":{"type":"Polygon","coordinates":[[[-0.20422,51.52379],[-0.20357,51.52337],[-0.20156,51.52275],[-0.20149,51.52215],[-0.20057,51.52065],[-0.20104,51.5208],[-0.20365,51.52059],[-0.2044,51.52035],[-0.20504,51.52046],[-0.20397,51.5213],[-0.2043,51.52141],[-0.2051,51.52086],[-0.20485,51.5211],[-0.20586,51.52147],[-0.20558,51.52174],[-0.20633,51.52212],[-0.20735,51.52261],[-0.20792,51.52226],[-0.2083,51.52245],[-0.20849,51.5241],[-0.20657,51.52358],[-0.20533,51.52424],[-0.20591,51.52501],[-0.2052,51.52505],[-0.20422,51.52379]]]}},{"type":"Feature","properties":{"id":"E01002855","name":"E01002855","parent":"E09000020","type":"LSOA","pop":1532,"r":1007,"ff":360,"ffd":23498.7,"ffs":0.4255,"g":156,"co":0,"mo":2,"sa":0,"ic":0},"geometry":{"type":"Polygon","coordinates":[[[-0.20735,51.52261],[-0.20558,51.52174],[-0.20586,51.52147],[-0.20485,51.5211],[-0.2051,51.52086],[-0.2043,51.52141],[-0.20397,51.5213],[-0.20504,51.52046],[-0.2044,51.52035],[-0.20597,51.51918],[-0.20653,51.51902],[-0.2071,51.51929],[-0.20687,51.5195],[-0.20625,51.51938],[-0.20681,51.5199],[-0.20779,51.5196],[-0.20735,51.51895],[-0.20766,51.51888],[-0.20817,51.51951],[-0.20984,51.51913],[-0.21056,51.52036],[-0.2095,51.52029],[-0.20991,51.52085],[-0.20965,51.52105],[-0.2105,51.52148],[-0.20973,51.52147],[-0.2083,51.52245],[-0.20792,51.52226],[-0.20735,51.52261]]]}},{"type":"Feature","properties":{"id":"E01002856","name":"E01002856","parent":"E09000020","type":"LSOA","pop":1346,"r":1003,"ff":357,"ffd":26523.0,"ffs":0.4255,"g":160,"co":0,"mo":2,"sa":0,"ic":0},"geometry":{"type":"Polygon","coordinates":[[[-0.20991,51.52085],[-0.2095,51.52029],[-0.21056,51.52036],[-0.20984,51.51913],[-0.20817,51.51951],[-0.20766,51.51888],[-0.20735,51.51895],[-0.20779,51.5196],[-0.20681,51.5199],[-0.20625,51.51938],[-0.20687,51.5195],[-0.2071,51.51929],[-0.20653,51.51902],[-0.20597,51.51918],[-0.20708,51.51845],[-0.21004,51.51751],[-0.21242,51.52159],[-0.21108,51.52189],[-0.20965,51.52105],[-0.20991,51.52085]]]}},{"type":"Feature","properties":{"id":"E01002857","name":"E01002857","parent":"E09000020","type":"LSOA","pop":1397,"r":959,"ff":342,"ffd":24481.0,"ffs":0.4254,"g":150,"co":0,"mo":2,"sa":0,"ic":0},"geometry":{"type":"Polygon","coordinates":[[[-0.20582,51.52572],[-0.2052,51.52505],[-0.20591,51.52501],[-0.20533,51.52424],[-0.20657,51.52358],[-0.20849,51.5241],[-0.20847,51.52329],[-0.20968,51.52313],[-0.21111,51.52353],[-0.21086,51.52387],[-0.20962,51.52356],[-0.20819,51.52583],[-0.20745,51.5257],[-0.20729,51.52627],[-0.20582,51.52572]]]}},{"type":"Feature","properties":{"id":"E01002858","name":"E01002858","parent":"E09000020","type":"LSOA","pop":1356,"r":1013,"ff":297,"ffd":21902.7,"ffs":0.3536,"g":171,"co":0,"mo":2,"sa":0,"ic":0},"geometry":{"type":"Polygon","coordinates":[[[-0.16509,51.49406],[-0.16514,51.49378],[-0.16444,51.49398],[-0.16331,51.49316],[-0.16451,51.4924],[-0.1644,51.49197],[-0.16385,51.49211],[-0.164,51.49154],[-0.16492,51.49197],[-0.16569,51.49199],[-0.16514,51.49153],[-0.16575,51.49116],[-0.16663,51.49162],[-0.1664,51.49179],[-0.16748,51.49225],[-0.16735,51.4924],[-0.16764,51.49234],[-0.16863,51.49297],[-0.16814,51.49355],[-0.16762,51.49322],[-0.1671,51.49336],[-0.16649,51.49317],[-0.16592,51.4937],[-0.16509,51.49406]]]}},{"type":"Feature","properties":{"id":"E01002859","name":"E01002859","parent":"E09000020","type":"LSOA","pop":1226,"r":1041,"ff":314,"ffd":25611.7,"ffs":0.3626,"g":172,"co":0,"mo":2,"sa":0,"ic":0},"geometry":{"type":"Polygon","coordinates":[[[-0.16021,51.49585],[-0.16003,51.49518],[-0.15956,51.49522],[-0.15934,51.49449],[-0.15883,51.49468],[-0.15795,51.49462],[-0.15788,51.49428],[-0.15707,51.49432],[-0.15642,51.4947],[-0.15581,51.49474],[-0.15599,51.4945],[-0.155,51.49386],[-0.15597,51.4932],[-0.15819,51.49265],[-0.15839,51.49223],[-0.1609,51.49102],[-0.16148,51.49144],[-0.16252,51.49149],[-0.1626,51.49194],[-0.16199,51.49215],[-0.16188,51.49269],[-0.1609,51.49295],[-0.16159,51.49377],[-0.16101,51.49401],[-0.16134,51.49398],[-0.16184,51.49486],[-0.16107,51.49494],[-0.1613,51.49576],[-0.16021,51.49585]]]}},{"type":"Feature","properties":{"id":"E01002860","name":"E01002860","parent":"E09000020","type":"LSOA","pop":1113,"r":989,"ff":287,"ffd":25786.2,"ffs":0.3496,"g":166,"co":0,"mo":2,"sa":0,"ic":0},"geometry":{"type":"Polygon","coordinates":[[[-0.16342,51.49627],[-0.16273,51.49537],[-0.16225,51.49546],[-0.16217,51.49487],[-0.16185,51.49491],[-0.16134,51.49398],[-0.16101,51.49401],[-0.16159,51.49377],[-0.1609,51.49295],[-0.16188,51.49269],[-0.16245,51.49306],[-0.16288,51.49289],[-0.16316,51.49305],[-0.16397,51.49246],[-0.1642,51.4926],[-0.16331,51.49316],[-0.16444,51.49398],[-0.16514,51.49378],[-0.16509,51.49406],[-0.16592,51.4937],[-0.16649,51.49317],[-0.1671,51.49336],[-0.16762,51.49322],[-0.16814,51.49355],[-0.16838,51.49331],[-0.16897,51.49354],[-0.16831,51.49367],[-0.16625,51.49526],[-0.16415,51.49655],[-0.16342,51.49627]]]}},{"type":"Feature","properties":{"id":"E01002861","name":"E01002861","parent":"E09000020","type":"LSOA","pop":1281,"r":1004,"ff":302,"ffd":23575.3,"ffs":0.3625,"g":169,"co":0,"mo":2,"sa":0,"ic":0},"geometry":{"type":"Polygon","coordinates":[[[-0.16245,51.49306],[-0.16188,51.49269],[-0.16199,51.49215],[-0.1626,51.49194],[-0.16252,51.49149],[-0.16148,51.49144],[-0.1609,51.49102],[-0.16363,51.48953],[-0.16501,51.489],[-0.16576,51.4904],[-0.16676,51.49056],[-0.16619,51.49141],[-0.16575,51.49116],[-0.16514,51.49153],[-0.16569,51.49199],[-0.16492,51.49197],[-0.164,51.49154],[-0.16385,51.49211],[-0.1644,51.49197],[-0.16451,51.4924],[-0.1642,51.4926],[-0.16397,51.49246],[-0.16316,51.49305],[-0.16288,51.49289],[-0.16245,51.49306]]]}},{"type":"Feature","properties":{"id":"E01002862","name":"E01002862","parent":"E09000020","type":"LSOA","pop":1095,"r":1005,"ff":294,"ffd":26849.3,"ffs":0.3542,"g":173,"co":0,"mo":2,"sa":0,"ic":0},"geometry":{"type":"Polygon","coordinates":[[[-0.16863,51.49297],[-0.1664,51.49179],[-0.16663,51.49162],[-0.16619,51.49141],[-0.16676,51.49056],[-0.16975,51.49034],[-0.16959,51.49085],[-0.16847,51.49221],[-0.16967,51.49301],[-0.16897,51.49354],[-0.16838,51.49331],[-0.16863,51.49297]]]}},{"type":"Feature","properties":{"id":"E01002863","name":"E01002863","parent":"E09000020","type":"LSOA","pop":1102,"r":992,"ff":301,"ffd":27314.0,"ffs":0.3622,"g":159,"co":0,"mo":2,"sa":0,"ic":2},"geometry":{"type":"Polygon","coordinates":[[[-0.15595,51.49711],[-0.15568,51.49577],[-0.1553,51.49506],[-0.15707,51.49432],[-0.15788,51.49428],[-0.15795,51.49462],[-0.15883,51.49468],[-0.15934,51.49449],[-0.15956,51.49522],[-0.16003,51.49518],[-0.16021,51.49585],[-0.1613,51.49576],[-0.16107,51.49494],[-0.16217,51.49487],[-0.16225,51.49546],[-0.16273,51.49537],[-0.16342,51.49627],[-0.16282,51.49679],[-0.15602,51.49751],[-0.15595,51.49711]]]}},{"type":"Feature","properties":{"id":"E01002864","name":"E01002864","parent":"E09000020","type":"LSOA","pop":1468,"r":1040,"ff":351,"ffd":23910.1,"ffs":0.4062,"g":172,"co":0,"mo":2,"sa":0,"ic":0},"geometry":{"type":"Polygon","coordinates":[[[-0.20173,51.50392],[-0.19956,51.50054],[-0.20034,51.50035],[-0.19994,51.49969],[-0.20142,51.49861],[-0.20121,51.49835],[-0.20424,51.49723],[-0.20497,51.4986],[-0.20522,51.49842],[-0.20557,51.49874],[-0.20655,51.49846],[-0.20797,51.49873],[-0.20909,51.49958],[-0.20954,51.49931],[-0.20991,51.49959],[-0.20883,51.50008],[-0.2087,51.50057],[-0.20742,51.5007],[-0.20741,51.50029],[-0.20651,51.50045],[-0.20571,51.50101],[-0.20755,51.50335],[-0.20656,51.50314],[-0.20242,51.50436],[-0.20173,51.50392]]]}},{"type":"Feature","properties":{"id":"E01002865","name":"E01002865","parent":"E09000020","type":"LSOA","pop":1536,"r":981,"ff":314,"ffd":20442.7,"ffs":0.3867,"g":165,"co":0,"mo":2,"sa":0,"ic":0},"geometry":{"type":"Polygon","coordinates":[[[-0.19871,51.49903],[-0.20121,51.49835],[-0.20142,51.49861],[-0.19994,51.49969],[-0.20034,51.50035],[-0.19956,51.50054],[-0.2008,51.50251],[-0.19725,51.50288],[-0.19644,51.50275],[-0.19438,51.50057],[-0.19871,51.49903]]]}},{"type":"Feature","properties":{"id":"E01002866","name":"E01002866","parent":"E09000020","type":"LSOA","pop":1765,"r":1102,"ff":369,"ffd":20906.5,"ffs":0.4033,"g":183,"co":0,"mo":2,"sa":0,"ic":0},"geometry":{"type":"Polygon","coordinates":[[[-0.20925,51.5024],[-0.20813,51.50062],[-0.2087,51.50057],[-0.20883,51.50008],[-0.2103,51.49936],[-0.20988,51.49903],[-0.21027,51.49882],[-0.21183,51.49987],[-0.21235,51.49966],[-0.21191,51.49911],[-0.21259,51.49952],[-0.21407,51.50068],[-0.21523,51.50241],[-0.2148,51.50271],[-0.21444,51.50245],[-0.21224,51.50346],[-0.21137,51.5036],[-0.21119,51.5043],[-0.21078,51.50423],[-0.20925,51.5024]]]}},{"type":"Feature","properties":{"id":"E01002867","name":"E01002867","parent":"E09000020","type":"LSOA","pop":1722,"r":950,"ff":314,"ffd":18234.6,"ffs":0.4031,"g":168,"co":0,"mo":2,"sa":0,"ic":0},"geometry":{"type":"Polygon","coordinates":[[[-0.21183,51.49987],[-0.21027,51.49882],[-0.20988,51.49903],[-0.2103,51.49936],[-0.20991,51.49959],[-0.20954,51.49931],[-0.20909,51.49958],[-0.20797,51.49873],[-0.20655,51.49846],[-0.20557,51.49874],[-0.20522,51.49842],[-0.20497,51.4986],[-0.20424,51.49723],[-0.20798,51.49602],[-0.2099,51.49778],[-0.21191,51.49911],[-0.21235,51.49966],[-0.21183,51.49987]]]}},{"type":"Feature","properties":{"id":"E01002868","name":"E01002868","parent":"E09000020","type":"LSOA","pop":1328,"r":1073,"ff":357,"ffd":26882.5,"ffs":0.3998,"g":176,"co":0,"mo":2,"sa":0,"ic":0},"geometry":{"type":"Polygon","coordinates":[[[-0.20279,51.50575],[-0.20173,51.50392],[-0.20242,51.50436],[-0.20656,51.50314],[-0.20755,51.50335],[-0.20571,51.50101],[-0.20651,51.50045],[-0.20741,51.50029],[-0.20742,51.5007],[-0.20813,51.50062],[-0.20925,51.5024],[-0.21103,51.50455],[-0.20949,51.50554],[-0.20962,51.50609],[-0.20374,51.50768],[-0.20279,51.50575]]]}},{"type":"Feature","properties":{"id":"E01002869","name":"E01002869","parent":"E09000020","type":"LSOA","pop":1646,"r":1140,"ff":382,"ffd":23207.8,"ffs":0.4021,"g":185,"co":0,"mo":2,"sa":0,"ic":0},"geometry":{"type":"Polygon","coordinates":[[[-0.21103,51.50455],[-0.21078,51.50423],[-0.21119,51.5043],[-0.21137,51.5036],[-0.21224,51.50346],[-0.21444,51.50245],[-0.2148,51.50271],[-0.21523,51.50241],[-0.21702,51.5045],[-0.20962,51.50609],[-0.20949,51.50554],[-0.21103,51.50455]]]}},{"type":"Feature","properties":{"id":"E01002870","name":"E01002870","parent":"E09000020","type":"LSOA","pop":1598,"r":1089,"ff":368,"ffd":23028.8,"ffs":0.4048,"g":176,"co":0,"mo":2,"sa":0,"ic":0},"geometry":{"type":"Polygon","coordinates":[[[-0.21775,51.51342],[-0.21777,51.51233],[-0.21642,51.51266],[-0.21607,51.5122],[-0.2165,51.51192],[-0.2159,51.51108],[-0.21398,51.51124],[-0.21314,51.51158],[-0.21335,51.51207],[-0.2124,51.51221],[-0.2121,51.51114],[-0.21272,51.51051],[-0.21394,51.51041],[-0.21455,51.50993],[-0.21511,51.50993],[-0.2148,51.50885],[-0.2156,51.50867],[-0.21578,51.50912],[-0.21686,51.50947],[-0.2172,51.51039],[-0.21803,51.51023],[-0.21786,51.50976],[-0.21919,51.50959],[-0.22025,51.51173],[-0.21775,51.51342]]]}},{"type":"Feature","properties":{"id":"E01002871","name":"E01002871","parent":"E09000020","type":"LSOA","pop":1435,"r":1032,"ff":341,"ffd":23763.1,"ffs":0.3942,"g":163,"co":0,"mo":2,"sa":0,"ic":0},"geometry":{"type":"Polygon","coordinates":[[[-0.20974,51.51001],[-0.20858,51.50855],[-0.20763,51.50876],[-0.20667,51.50805],[-0.20535,51.50825],[-0.20564,51.50863],[-0.20533,51.50888],[-0.20492,51.50838],[-0.20427,51.50853],[-0.20486,51.50901],[-0.20407,51.5093],[-0.20306,51.50787],[-0.21063,51.50587],[-0.21205,51.50702],[-0.21144,51.50729],[-0.21153,51.50758],[-0.2099,51.50788],[-0.21043,51.50822],[-0.21021,51.50866],[-0.21138,51.50988],[-0.21108,51.50999],[-0.21074,51.50975],[-0.21094,51.51028],[-0.21031,51.51032],[-0.21026,51.51069],[-0.2096,51.51052],[-0.20974,51.51001]]]}},{"type":"Feature","properties":{"id":"E01002872","name":"E01002872","parent":"E09000020","type":"LSOA","pop":1289,"r":1083,"ff":358,"ffd":27773.5,"ffs":0.3956,"g":174,"co":0,"mo":2,"sa":0,"ic":0},"geometry":{"type":"Polygon","coordinates":[[[-0.21149,51.51225],[-0.21055,51.51136],[-0.21023,51.51145],[-0.20992,51.51107],[-0.21026,51.51069],[-0.21031,51.51032],[-0.21094,51.51028],[-0.21074,51.50975],[-0.21108,51.50999],[-0.21138,51.50988],[-0.21021,51.50866],[-0.21043,51.50822],[-0.2099,51.50788],[-0.21153,51.50758],[-0.21144,51.50729],[-0.21188,51.5072],[-0.21234,51.50788],[-0.21313,51.50807],[-0.21321,51.50881],[-0.21247,51.50897],[-0.21272,51.50925],[-0.2148,51.50885],[-0.21511,51.50993],[-0.21455,51.50993],[-0.21394,51.51041],[-0.21272,51.51051],[-0.2121,51.51114],[-0.21241,51.5126],[-0.21144,51.51268],[-0.21149,51.51225]]]}},{"type":"Feature","properties":{"id":"E01002873","name":"E01002873","parent":"E09000020","type":"LSOA","pop":1311,"r":1155,"ff":390,"ffd":29748.3,"ffs":0.4033,"g":183,"co":0,"mo":2,"sa":0,"ic":0},"geometry":{"type":"Polygon","coordinates":[[[-0.21592,51.50473],[-0.21702,51.5045],[-0.21789,51.5061],[-0.21592,51.50639],[-0.21613,51.50747],[-0.21518,51.50765],[-0.2156,51.50867],[-0.21272,51.50925],[-0.21247,51.50897],[-0.21321,51.50881],[-0.21313,51.50807],[-0.21234,51.50788],[-0.21188,51.5072],[-0.21205,51.50702],[-0.21063,51.50587],[-0.21592,51.50473]]]}},{"type":"Feature","properties":{"id":"E01002874","name":"E01002874","parent":"E09000020","type":"LSOA","pop":1068,"r":1038,"ff":354,"ffd":33146.1,"ffs":0.4069,"g":164,"co":0,"mo":2,"sa":0,"ic":0},"geometry":{"type":"Polygon","coordinates":[[[-0.2074,51.51384],[-0.20676,51.51295],[-0.20793,51.51229],[-0.20963,51.5126],[-0.21047,51.51256],[-0.21058,51.51306],[-0.21127,51.51333],[-0.21142,51.51311],[-0.21183,51.51367],[-0.21079,51.51499],[-0.20898,51.51603],[-0.2074,51.51384]]]}},{"type":"Feature","properties":{"id":"E01002875","name":"E01002875","parent":"E09000020","type":"LSOA","pop":1202,"r":1018,"ff":337,"ffd":28036.6,"ffs":0.3951,"g":161,"co":0,"mo":2,"sa":0,"ic":0},"geometry":{"type":"Polygon","coordinates":[[[-0.21058,51.51306],[-0.21047,51.51256],[-0.20963,51.5126],[-0.20793,51.51229],[-0.20676,51.51295],[-0.20407,51.5093],[-0.20486,51.50901],[-0.20427,51.50853],[-0.20492,51.50838],[-0.20533,51.50888],[-0.20564,51.50863],[-0.20535,51.50825],[-0.20667,51.50805],[-0.20763,51.50876],[-0.20858,51.50855],[-0.20974,51.51001],[-0.2096,51.51052],[-0.21026,51.51069],[-0.20992,51.51107],[-0.21023,51.51145],[-0.21055,51.51136],[-0.21149,51.51225],[-0.21127,51.51333],[-0.21058,51.51306]]]}},{"type":"Feature","properties":{"id":"E01002876","name":"E01002876","parent":"E09000020","type":"LSOA","pop":1766,"r":982,"ff":354,"ffd":20045.3,"ffs":0.4333,"g":161,"co":0,"mo":2,"sa":0,"ic":0},"geometry":{"type":"Polygon","coordinates":[[[-0.21901,51.51842],[-0.21845,51.51734],[-0.22201,51.51638],[-0.22215,51.51666],[-0.22163,51.51683],[-0.22223,51.51772],[-0.22325,51.51753],[-0.22371,51.51815],[-0.22468,51.51792],[-0.22661,51.51955],[-0.22512,51.52017],[-0.22393,51.52001],[-0.21884,51.51921],[-0.21847,51.51856],[-0.21901,51.51842]]]}},{"type":"Feature","properties":{"id":"E01002877","name":"E01002877","parent":"E09000020","type":"LSOA","pop":2183,"r":1218,"ff":419,"ffd":19193.8,"ffs":0.4084,"g":186,"co":0,"mo":2,"sa":0,"ic":0},"geometry":{"type":"Polygon","coordinates":[[[-0.21641,51.51632],[-0.21636,51.51588],[-0.21865,51.51579],[-0.21868,51.51525],[-0.21814,51.51512],[-0.2183,51.51454],[-0.21857,51.51428],[-0.21815,51.51373],[-0.21772,51.51375],[-0.21795,51.51335],[-0.22025,51.51173],[-0.22235,51.51521],[-0.22468,51.51792],[-0.22371,51.51815],[-0.22325,51.51753],[-0.22223,51.51772],[-0.22163,51.51683],[-0.22215,51.51666],[-0.22201,51.51638],[-0.21845,51.51734],[-0.21901,51.51842],[-0.21847,51.51856],[-0.21778,51.51735],[-0.21641,51.51632]]]}},{"type":"Feature","properties":{"id":"E01002878","name":"E01002878","parent":"E09000020","type":"LSOA","pop":1409,"r":945,"ff":344,"ffd":24414.5,"ffs":0.4332,"g":147,"co":0,"mo":2,"sa":0,"ic":0},"geometry":{"type":"Polygon","coordinates":[[[-0.21258,51.51517],[-0.21277,51.51489],[-0.2132,51.51504],[-0.21406,51.51478],[-0.21694,51.51498],[-0.21526,51.51537],[-0.21636,51.51588],[-0.21636,51.51628],[-0.21778,51.51735],[-0.21087,51.5189],[-0.21004,51.51751],[-0.21214,51.51702],[-0.21343,51.51652],[-0.21258,51.51602],[-0.21327,51.51542],[-0.21258,51.51517]]]}},{"type":"Feature","properties":{"id":"E01002879","name":"E01002879","parent":"E09000020","type":"LSOA","pop":1893,"r":1024,"ff":351,"ffd":18542.0,"ffs":0.4086,"g":161,"co":0,"mo":2,"sa":0,"ic":0},"geometry":{"type":"Polygon","coordinates":[[[-0.21079,51.51499],[-0.21183,51.51367],[-0.21156,51.51329],[-0.21218,51.51336],[-0.2127,51.51382],[-0.21303,51.51365],[-0.21281,51.51321],[-0.21382,51.51318],[-0.21406,51.51282],[-0.21446,51.51295],[-0.21436,51.51254],[-0.21474,51.51248],[-0.21532,51.51479],[-0.21406,51.51478],[-0.2132,51.51504],[-0.21277,51.51489],[-0.21258,51.51517],[-0.21327,51.51542],[-0.21258,51.51602],[-0.2096,51.51687],[-0.20898,51.51603],[-0.21079,51.51499]]]}},{"type":"Feature","properties":{"id":"E01002880","name":"E01002880","parent":"E09000020","type":"LSOA","pop":1013,"r":1051,"ff":364,"ffd":35932.9,"ffs":0.4132,"g":165,"co":0,"mo":2,"sa":0,"ic":0},"geometry":{"type":"Polygon","coordinates":[[[-0.21532,51.51479],[-0.21499,51.51357],[-0.21579,51.51343],[-0.21642,51.51266],[-0.21777,51.51233],[-0.21775,51.51342],[-0.21795,51.51335],[-0.21772,51.51375],[-0.21815,51.51373],[-0.21857,51.51428],[-0.2183,51.51454],[-0.21814,51.51512],[-0.21868,51.51525],[-0.21865,51.51579],[-0.21636,51.51588],[-0.21526,51.51537],[-0.21694,51.51498],[-0.21532,51.51479]]]}},{"type":"Feature","properties":{"id":"E01002881","name":"E01002881","parent":"E09000020","type":"LSOA","pop":1397,"r":1020,"ff":337,"ffd":24123.1,"ffs":0.396,"g":165,"co":0,"mo":2,"sa":0,"ic":0},"geometry":{"type":"Polygon","coordinates":[[[-0.21142,51.51311],[-0.21144,51.51268],[-0.21241,51.5126],[-0.2124,51.51221],[-0.21335,51.51207],[-0.21314,51.51158],[-0.21398,51.51124],[-0.2159,51.51108],[-0.2165,51.51192],[-0.21607,51.5122],[-0.21642,51.51266],[-0.21579,51.51343],[-0.21499,51.51357],[-0.21474,51.51248],[-0.21436,51.51254],[-0.21446,51.51295],[-0.21406,51.51282],[-0.21382,51.51318],[-0.21281,51.51321],[-0.21303,51.51365],[-0.2127,51.51382],[-0.21218,51.51336],[-0.21156,51.51329],[-0.21142,51.51311]]]}},{"type":"Feature","properties":{"id":"E01002882","name":"E01002882","parent":"E09000020","type":"LSOA","pop":947,"r":1038,"ff":350,"ffd":36958.8,"ffs":0.4018,"g":163,"co":0,"mo":2,"sa":0,"ic":0},"geometry":{"type":"Polygon","coordinates":[[[-0.20202,51.51305],[-0.20145,51.51245],[-0.20093,51.51255],[-0.2008,51.51219],[-0.20114,51.51203],[-0.20071,51.51182],[-0.20097,51.51158],[-0.20005,51.51115],[-0.20077,51.51067],[-0.20432,51.50966],[-0.20647,51.51256],[-0.20143,51.51402],[-0.20093,51.51356],[-0.20202,51.51305]]]}},{"type":"Feature","properties":{"id":"E01002883","name":"E01002883","parent":"E09000020","type":"LSOA","pop":1613,"r":1049,"ff":346,"ffd":21450.7,"ffs":0.3941,"g":167,"co":0,"mo":2,"sa":0,"ic":0},"geometry":{"type":"Polygon","coordinates":[[[-0.19743,51.51052],[-0.19728,51.50971],[-0.1988,51.50983],[-0.19885,51.50926],[-0.19792,51.50925],[-0.19751,51.50886],[-0.20056,51.50858],[-0.20306,51.50787],[-0.20432,51.50966],[-0.20077,51.51067],[-0.20005,51.51115],[-0.20097,51.51158],[-0.20071,51.51182],[-0.20114,51.51203],[-0.20031,51.51245],[-0.19914,51.51168],[-0.19934,51.51152],[-0.19849,51.51113],[-0.1976,51.5111],[-0.19743,51.51052]]]}},{"type":"Feature","properties":{"id":"E01002884","name":"E01002884","parent":"E09000020","type":"LSOA","pop":1330,"r":1030,"ff":342,"ffd":25714.3,"ffs":0.394,"g":157,"co":0,"mo":2,"sa":0,"ic":0},"geometry":{"type":"Polygon","coordinates":[[[-0.19946,51.51223],[-0.19835,51.51175],[-0.19817,51.51243],[-0.1976,51.51253],[-0.1977,51.5122],[-0.19556,51.51251],[-0.19535,51.51185],[-0.1964,51.5117],[-0.19629,51.51136],[-0.19582,51.51143],[-0.19593,51.511],[-0.19576,51.5103],[-0.19538,51.51043],[-0.19527,51.51013],[-0.19451,51.51015],[-0.1948,51.50969],[-0.19428,51.5099],[-0.19408,51.50948],[-0.19751,51.50886],[-0.19792,51.50925],[-0.19885,51.50926],[-0.1988,51.50983],[-0.19728,51.50971],[-0.19743,51.51052],[-0.1976,51.5111],[-0.19849,51.51113],[-0.19934,51.51152],[-0.19914,51.51168],[-0.20031,51.51245],[-0.19912,51.5129],[-0.19946,51.51223]]]}},{"type":"Feature","properties":{"id":"E01002885","name":"E01002885","parent":"E09000020","type":"LSOA","pop":1248,"r":995,"ff":318,"ffd":25480.8,"ffs":0.3818,"g":156,"co":0,"mo":2,"sa":0,"ic":0},"geometry":{"type":"Polygon","coordinates":[[[-0.19404,51.51176],[-0.19308,51.51179],[-0.19212,51.50987],[-0.19408,51.50948],[-0.19428,51.5099],[-0.1948,51.50969],[-0.19451,51.51015],[-0.19527,51.51013],[-0.19538,51.51043],[-0.19576,51.5103],[-0.19593,51.511],[-0.19582,51.51143],[-0.19629,51.51136],[-0.1964,51.5117],[-0.19535,51.51185],[-0.19422,51.51233],[-0.19404,51.51176]]]}},{"type":"Feature","properties":{"id":"E01002886","name":"E01002886","parent":"E09000020","type":"LSOA","pop":1268,"r":1050,"ff":345,"ffd":27208.2,"ffs":0.3916,"g":163,"co":0,"mo":2,"sa":0,"ic":0},"geometry":{"type":"Polygon","coordinates":[[[-0.19442,51.51298],[-0.19422,51.51233],[-0.19535,51.51185],[-0.19556,51.51251],[-0.1977,51.5122],[-0.1976,51.51253],[-0.19817,51.51243],[-0.19835,51.51175],[-0.19946,51.51223],[-0.19912,51.5129],[-0.2008,51.51219],[-0.20093,51.51255],[-0.20145,51.51245],[-0.20202,51.51305],[-0.20093,51.51356],[-0.20143,51.51402],[-0.19919,51.51455],[-0.19505,51.51503],[-0.19442,51.51298]]]}},{"type":"Feature","properties":{"id":"E01002887","name":"E01002887","parent":"E09000020","type":"LSOA","pop":1051,"r":1049,"ff":318,"ffd":30256.9,"ffs":0.3618,"g":166,"co":0,"mo":2,"sa":0,"ic":0},"geometry":{"type":"Polygon","coordinates":[[[-0.18369,51.49856],[-0.18285,51.49827],[-0.18256,51.49847],[-0.18125,51.49836],[-0.18323,51.4981],[-0.18308,51.49737],[-0.1818,51.49751],[-0.18175,51.4972],[-0.18214,51.49716],[-0.18207,51.49684],[-0.18135,51.49689],[-0.18119,51.49623],[-0.18069,51.49636],[-0.18076,51.49578],[-0.18021,51.49526],[-0.18378,51.49499],[-0.18333,51.49589],[-0.18406,51.49588],[-0.18409,51.49543],[-0.18439,51.49587],[-0.18502,51.49587],[-0.18557,51.49555],[-0.18612,51.49583],[-0.18559,51.49625],[-0.18606,51.49635],[-0.18583,51.49664],[-0.18512,51.4966],[-0.18499,51.497],[-0.18442,51.49705],[-0.18478,51.49729],[-0.18379,51.49743],[-0.18369,51.49856]]]}},{"type":"Feature","properties":{"id":"E01002888","name":"E01002888","parent":"E09000020","type":"LSOA","pop":1752,"r":1042,"ff":309,"ffd":17637.0,"ffs":0.3568,"g":172,"co":0,"mo":2,"sa":0,"ic":0},"geometry":{"type":"Polygon","coordinates":[[[-0.18825,51.49751],[-0.18507,51.49739],[-0.18442,51.49705],[-0.18499,51.497],[-0.18512,51.4966],[-0.18583,51.49664],[-0.18606,51.49635],[-0.18559,51.49625],[-0.18612,51.49583],[-0.18557,51.49555],[-0.18502,51.49587],[-0.18439,51.49587],[-0.18409,51.49543],[-0.18406,51.49588],[-0.18333,51.49589],[-0.18378,51.49499],[-0.1899,51.49474],[-0.18878,51.49575],[-0.18862,51.49635],[-0.18802,51.49661],[-0.18879,51.49672],[-0.18871,51.49735],[-0.18825,51.49751]]]}},{"type":"Feature","properties":{"id":"E01002889","name":"E01002889","parent":"E09000020","type":"LSOA","pop":1660,"r":873,"ff":271,"ffd":16325.3,"ffs":0.3733,"g":144,"co":0,"mo":2,"sa":0,"ic":0},"geometry":{"type":"Polygon","coordinates":[[[-0.18505,51.50195],[-0.185,51.50123],[-0.18578,51.50141],[-0.18578,51.50115],[-0.1866,51.50121],[-0.18701,51.50084],[-0.18743,51.50106],[-0.18744,51.50022],[-0.18853,51.5004],[-0.1886,51.49996],[-0.18922,51.50044],[-0.1897,51.49988],[-0.19084,51.49965],[-0.19074,51.49924],[-0.19229,51.4989],[-0.19346,51.50091],[-0.19015,51.50216],[-0.18861,51.5024],[-0.18505,51.50195]]]}},{"type":"Feature","properties":{"id":"E01002890","name":"E01002890","parent":"E09000020","type":"LSOA","pop":1353,"r":883,"ff":268,"ffd":19807.8,"ffs":0.3691,"g":153,"co":0,"mo":2,"sa":0,"ic":0},"geometry":{"type":"Polygon","coordinates":[[[-0.18578,51.50115],[-0.18553,51.50066],[-0.18494,51.50052],[-0.18485,51.49956],[-0.18415,51.49956],[-0.18418,51.4993],[-0.18475,51.49931],[-0.18369,51.49856],[-0.18379,51.49743],[-0.18478,51.49729],[-0.18825,51.49751],[-0.18871,51.49735],[-0.18879,51.49672],[-0.18802,51.49661],[-0.18902,51.4963],[-0.1894,51.49816],[-0.19108,51.49814],[-0.19179,51.49897],[-0.19074,51.49924],[-0.19084,51.49965],[-0.1897,51.49988],[-0.18922,51.50044],[-0.1886,51.49996],[-0.18853,51.5004],[-0.18744,51.50022],[-0.18743,51.50106],[-0.18701,51.50084],[-0.1866,51.50121],[-0.18578,51.50115]]]}},{"type":"Feature","properties":{"id":"E01002891","name":"E01002891","parent":"E09000020","type":"LSOA","pop":1167,"r":1042,"ff":309,"ffd":26478.1,"ffs":0.3568,"g":172,"co":0,"mo":2,"sa":0,"ic":0},"geometry":{"type":"Polygon","coordinates":[[[-0.18305,51.50157],[-0.18031,51.50146],[-0.17976,51.49887],[-0.18178,51.49871],[-0.18178,51.49908],[-0.18329,51.49892],[-0.18368,51.49957],[-0.18485,51.49956],[-0.18494,51.50052],[-0.18553,51.50066],[-0.18578,51.50115],[-0.18578,51.50141],[-0.185,51.50123],[-0.18505,51.50195],[-0.18305,51.50157]]]}},{"type":"Feature","properties":{"id":"E01002892","name":"E01002892","parent":"E09000020","type":"LSOA","pop":1366,"r":1046,"ff":317,"ffd":23206.4,"ffs":0.3615,"g":165,"co":0,"mo":2,"sa":0,"ic":0},"geometry":{"type":"Polygon","coordinates":[[[-0.18368,51.49957],[-0.18329,51.49892],[-0.18178,51.49908],[-0.18178,51.49871],[-0.17976,51.49887],[-0.17904,51.49534],[-0.18021,51.49526],[-0.18076,51.49578],[-0.18069,51.49636],[-0.18119,51.49623],[-0.18135,51.49689],[-0.18207,51.49684],[-0.18214,51.49716],[-0.18175,51.4972],[-0.1818,51.49751],[-0.18308,51.49737],[-0.18323,51.4981],[-0.18125,51.49836],[-0.18256,51.49847],[-0.18285,51.49827],[-0.18369,51.49856],[-0.18475,51.49931],[-0.18418,51.4993],[-0.18415,51.49956],[-0.18368,51.49957]]]}},{"type":"Feature","properties":{"id":"E01002893","name":"E01002893","parent":"E09000020","type":"LSOA","pop":1531,"r":913,"ff":294,"ffd":19203.1,"ffs":0.3957,"g":167,"co":0,"mo":2,"sa":0,"ic":0},"geometry":{"type":"Polygon","coordinates":[[[-0.18822,51.48736],[-0.18756,51.48673],[-0.18778,51.48605],[-0.18667,51.48539],[-0.18625,51.4856],[-0.18551,51.48503],[-0.18595,51.48476],[-0.18764,51.48476],[-0.18731,51.48495],[-0.18777,51.48525],[-0.18807,51.48503],[-0.18864,51.4853],[-0.18906,51.48503],[-0.19006,51.4858],[-0.19255,51.48483],[-0.19393,51.48608],[-0.19093,51.48721],[-0.19065,51.487],[-0.1903,51.48721],[-0.19063,51.48782],[-0.18907,51.48819],[-0.18822,51.48736]]]}},{"type":"Feature","properties":{"id":"E01002894","name":"E01002894","parent":"E09000020","type":"LSOA","pop":1406,"r":931,"ff":293,"ffd":20839.3,"ffs":0.3865,"g":170,"co":0,"mo":2,"sa":0,"ic":0},"geometry":{"type":"Polygon","coordinates":[[[-0.19068,51.49096],[-0.19026,51.49021],[-0.1899,51.49028],[-0.18941,51.49003],[-0.18931,51.48925],[-0.18884,51.48881],[-0.18832,51.48893],[-0.18822,51.48858],[-0.19012,51.48782],[-0.19063,51.48782],[-0.1903,51.48721],[-0.19065,51.487],[-0.19093,51.48721],[-0.19393,51.48608],[-0.19596,51.48737],[-0.19022,51.48949],[-0.19117,51.49081],[-0.19068,51.49096]]]}},{"type":"Feature","properties":{"id":"E01002896","name":"E01002896","parent":"E09000020","type":"LSOA","pop":1598,"r":942,"ff":293,"ffd":18335.4,"ffs":0.3795,"g":167,"co":0,"mo":2,"sa":0,"ic":0},"geometry":{"type":"Polygon","coordinates":[[[-0.18343,51.48812],[-0.18317,51.48765],[-0.1853,51.48667],[-0.18267,51.48501],[-0.1843,51.48411],[-0.18492,51.48459],[-0.18538,51.48429],[-0.18595,51.48476],[-0.18551,51.48503],[-0.18625,51.4856],[-0.18667,51.48539],[-0.18778,51.48605],[-0.18756,51.48673],[-0.18907,51.48819],[-0.18822,51.48858],[-0.1876,51.48817],[-0.18643,51.48869],[-0.18691,51.48914],[-0.18574,51.48903],[-0.18477,51.48818],[-0.18343,51.48812]]]}},{"type":"Feature","properties":{"id":"E01002897","name":"E01002897","parent":"E09000020","type":"LSOA","pop":1560,"r":894,"ff":278,"ffd":17820.5,"ffs":0.3834,"g":166,"co":0,"mo":2,"sa":0,"ic":0},"geometry":{"type":"Polygon","coordinates":[[[-0.1896,51.48532],[-0.18906,51.48503],[-0.18864,51.4853],[-0.18807,51.48503],[-0.18777,51.48525],[-0.18731,51.48495],[-0.18764,51.48476],[-0.18595,51.48476],[-0.18538,51.48429],[-0.18492,51.48459],[-0.1843,51.48411],[-0.18641,51.48272],[-0.18826,51.48096],[-0.19255,51.48483],[-0.19006,51.4858],[-0.1896,51.48532]]]}},{"type":"Feature","properties":{"id":"E01002898","name":"E01002898","parent":"E09000020","type":"LSOA","pop":1712,"r":973,"ff":304,"ffd":17757.0,"ffs":0.3814,"g":173,"co":0,"mo":2,"sa":0,"ic":0},"geometry":{"type":"Polygon","coordinates":[[[-0.18855,51.49164],[-0.18796,51.49093],[-0.18663,51.49131],[-0.18602,51.49066],[-0.18428,51.4909],[-0.18306,51.49072],[-0.18209,51.48965],[-0.18263,51.48951],[-0.18304,51.49011],[-0.18349,51.49005],[-0.18316,51.48946],[-0.18363,51.48924],[-0.18306,51.48831],[-0.18343,51.48812],[-0.18477,51.48818],[-0.18574,51.48903],[-0.18691,51.48914],[-0.18643,51.48869],[-0.1876,51.48817],[-0.18822,51.48858],[-0.18832,51.48893],[-0.18884,51.48881],[-0.18931,51.48925],[-0.18941,51.49003],[-0.1899,51.49028],[-0.19026,51.49021],[-0.19068,51.49096],[-0.18855,51.49164]]]}},{"type":"Feature","properties":{"id":"E01002899","name":"E01002899","parent":"E09000020","type":"LSOA","pop":1322,"r":956,"ff":308,"ffd":23298.0,"ffs":0.3919,"g":169,"co":0,"mo":2,"sa":0,"ic":0},"geometry":{"type":"Polygon","coordinates":[[[-0.16551,51.48698],[-0.16463,51.48607],[-0.16491,51.48592],[-0.16395,51.48543],[-0.1659,51.48493],[-0.16605,51.48517],[-0.1669,51.485],[-0.16711,51.48519],[-0.16634,51.48562],[-0.16669,51.48574],[-0.16767,51.48547],[-0.16814,51.48617],[-0.1687,51.48652],[-0.16844,51.48662],[-0.16954,51.48682],[-0.1694,51.48622],[-0.17011,51.48696],[-0.16633,51.48847],[-0.16656,51.48793],[-0.16551,51.48698]]]}},{"type":"Feature","properties":{"id":"E01002900","name":"E01002900","parent":"E09000020","type":"LSOA","pop":1739,"r":1016,"ff":329,"ffd":18918.9,"ffs":0.3907,"g":172,"co":0,"mo":2,"sa":0,"ic":0},"geometry":{"type":"Polygon","coordinates":[[[-0.16814,51.48617],[-0.16767,51.48547],[-0.16669,51.48574],[-0.16634,51.48562],[-0.16711,51.48519],[-0.1669,51.485],[-0.16605,51.48517],[-0.1659,51.48493],[-0.16395,51.48543],[-0.1635,51.48514],[-0.16318,51.48554],[-0.16238,51.48537],[-0.16201,51.48566],[-0.16134,51.48578],[-0.16138,51.48614],[-0.16009,51.48523],[-0.15977,51.48542],[-0.15897,51.48485],[-0.15874,51.48498],[-0.15853,51.48443],[-0.15607,51.48466],[-0.16717,51.48307],[-0.168,51.48445],[-0.1694,51.48622],[-0.16954,51.48682],[-0.16844,51.48662],[-0.1687,51.48652],[-0.16814,51.48617]]]}},{"type":"Feature","properties":{"id":"E01002901","name":"E01002901","parent":"E09000020","type":"LSOA","pop":1171,"r":1022,"ff":328,"ffd":28010.2,"ffs":0.3877,"g":174,"co":0,"mo":2,"sa":0,"ic":0},"geometry":{"type":"Polygon","coordinates":[[[-0.15734,51.48863],[-0.15658,51.48806],[-0.15614,51.48864],[-0.15498,51.48909],[-0.15005,51.48584],[-0.14944,51.48579],[-0.14922,51.48552],[-0.15853,51.48443],[-0.15874,51.48498],[-0.15897,51.48485],[-0.15977,51.48542],[-0.16009,51.48523],[-0.16138,51.48614],[-0.16134,51.48578],[-0.16201,51.48566],[-0.16238,51.48537],[-0.16318,51.48554],[-0.1635,51.48514],[-0.16395,51.48543],[-0.16315,51.48606],[-0.16235,51.48612],[-0.16277,51.48645],[-0.16249,51.48684],[-0.16311,51.4869],[-0.16399,51.48736],[-0.16235,51.48829],[-0.162,51.48808],[-0.15957,51.48967],[-0.15734,51.48863]]]}},{"type":"Feature","properties":{"id":"E01002902","name":"E01002902","parent":"E09000020","type":"LSOA","pop":1222,"r":1067,"ff":346,"ffd":28314.2,"ffs":0.3896,"g":176,"co":0,"mo":3,"sa":0,"ic":2},"geometry":{"type":"Polygon","coordinates":[[[-0.15549,51.49056],[-0.15518,51.49005],[-0.15585,51.4896],[-0.15498,51.48909],[-0.15614,51.48864],[-0.15658,51.48806],[-0.16077,51.49046],[-0.16152,51.49005],[-0.16237,51.49021],[-0.15839,51.49223],[-0.15819,51.49265],[-0.15597,51.4932],[-0.15479,51.49196],[-0.15578,51.49146],[-0.15549,51.49056]]]}},{"type":"Feature","properties":{"id":"E01002903","name":"E01002903","parent":"E09000020","type":"LSOA","pop":1343,"r":1003,"ff":319,"ffd":23752.8,"ffs":0.3839,"g":171,"co":0,"mo":2,"sa":0,"ic":0},"geometry":{"type":"Polygon","coordinates":[[[-0.16077,51.49046],[-0.15957,51.48967],[-0.162,51.48808],[-0.16235,51.48829],[-0.16399,51.48736],[-0.16311,51.4869],[-0.16249,51.48684],[-0.16277,51.48645],[-0.16235,51.48612],[-0.16315,51.48606],[-0.164,51.48554],[-0.16491,51.48592],[-0.16463,51.48607],[-0.16656,51.48793],[-0.16633,51.48847],[-0.16237,51.49021],[-0.16152,51.49005],[-0.16077,51.49046]]]}},{"type":"Feature","properties":{"id":"E01002904","name":"E01002904","parent":"E09000020","type":"LSOA","pop":1291,"r":929,"ff":340,"ffd":26336.2,"ffs":0.4393,"g":151,"co":0,"mo":2,"sa":0,"ic":0},"geometry":{"type":"Polygon","coordinates":[[[-0.21977,51.52481],[-0.21953,51.52395],[-0.2198,51.52383],[-0.22068,51.52432],[-0.22199,51.52406],[-0.22165,51.52343],[-0.22262,51.52323],[-0.22248,51.52299],[-0.22331,51.52266],[-0.22386,51.52279],[-0.22352,51.52307],[-0.22446,51.52323],[-0.22479,51.52354],[-0.22476,51.52389],[-0.22531,51.52486],[-0.22718,51.52485],[-0.22735,51.52584],[-0.21974,51.52533],[-0.21977,51.52481]]]}},{"type":"Feature","properties":{"id":"E01002905","name":"E01002905","parent":"E09000020","type":"LSOA","pop":1700,"r":959,"ff":345,"ffd":20294.1,"ffs":0.4302,"g":153,"co":0,"mo":2,"sa":0,"ic":0},"geometry":{"type":"Polygon","coordinates":[[[-0.21732,51.51905],[-0.2179,51.51904],[-0.21864,51.52028],[-0.21816,51.52044],[-0.21851,51.52105],[-0.21702,51.52118],[-0.21722,51.5217],[-0.2159,51.52198],[-0.21694,51.52382],[-0.21567,51.5241],[-0.21581,51.52429],[-0.21977,51.52481],[-0.21974,51.52533],[-0.21414,51.52454],[-0.21187,51.52063],[-0.21744,51.51938],[-0.21732,51.51905]]]}},{"type":"Feature","properties":{"id":"E01002906","name":"E01002906","parent":"E09000020","type":"LSOA","pop":1753,"r":945,"ff":344,"ffd":19623.5,"ffs":0.4332,"g":147,"co":0,"mo":2,"sa":0,"ic":0},"geometry":{"type":"Polygon","coordinates":[[[-0.21694,51.52382],[-0.2159,51.52198],[-0.21722,51.5217],[-0.21702,51.52118],[-0.21851,51.52105],[-0.21816,51.52044],[-0.21864,51.52028],[-0.2179,51.51904],[-0.21788,51.51869],[-0.21847,51.51856],[-0.21884,51.51921],[-0.22144,51.51961],[-0.2217,51.52007],[-0.22098,51.5201],[-0.22147,51.52092],[-0.22205,51.5208],[-0.22299,51.52199],[-0.22218,51.52253],[-0.22262,51.52323],[-0.22165,51.52343],[-0.22199,51.52406],[-0.22068,51.52432],[-0.2198,51.52383],[-0.21953,51.52395],[-0.21977,51.52481],[-0.21581,51.52429],[-0.21567,51.5241],[-0.21694,51.52382]]]}},{"type":"Feature","properties":{"id":"E01002907","name":"E01002907","parent":"E09000020","type":"LSOA","pop":1228,"r":938,"ff":340,"ffd":27687.3,"ffs":0.4342,"g":151,"co":0,"mo":2,"sa":0,"ic":0},"geometry":{"type":"Polygon","coordinates":[[[-0.22386,51.52279],[-0.22331,51.52266],[-0.22451,51.52227],[-0.2248,51.52276],[-0.22543,51.52259],[-0.2248,51.52221],[-0.22528,51.52213],[-0.22515,51.52189],[-0.22569,51.522],[-0.22594,51.52131],[-0.22665,51.52146],[-0.22707,51.52125],[-0.22751,51.52161],[-0.22671,51.52198],[-0.2266,51.5248],[-0.22531,51.52486],[-0.22476,51.52389],[-0.22479,51.52354],[-0.22446,51.52323],[-0.22352,51.52307],[-0.22386,51.52279]]]}},{"type":"Feature","properties":{"id":"E01002908","name":"E01002908","parent":"E09000020","type":"LSOA","pop":1415,"r":985,"ff":358,"ffd":25300.4,"ffs":0.4366,"g":161,"co":0,"mo":2,"sa":0,"ic":0},"geometry":{"type":"Polygon","coordinates":[[[-0.22218,51.52253],[-0.22299,51.52199],[-0.22205,51.5208],[-0.22147,51.52092],[-0.22098,51.5201],[-0.2217,51.52007],[-0.22144,51.51961],[-0.22512,51.52017],[-0.22661,51.51955],[-0.22828,51.5211],[-0.22751,51.52161],[-0.22707,51.52125],[-0.22665,51.52146],[-0.22594,51.52131],[-0.22569,51.522],[-0.22515,51.52189],[-0.22528,51.52213],[-0.2248,51.52221],[-0.22543,51.52259],[-0.2248,51.52276],[-0.22451,51.52227],[-0.22248,51.52299],[-0.22218,51.52253]]]}},{"type":"Feature","properties":{"id":"E01002909","name":"E01002909","parent":"E09000020","type":"LSOA","pop":2051,"r":1013,"ff":361,"ffd":17601.2,"ffs":0.4282,"g":166,"co":0,"mo":2,"sa":0,"ic":0},"geometry":{"type":"Polygon","coordinates":[[[-0.21545,51.51787],[-0.21778,51.51735],[-0.21847,51.51856],[-0.21788,51.51869],[-0.2179,51.51904],[-0.21732,51.51905],[-0.21744,51.51938],[-0.21187,51.52063],[-0.21087,51.5189],[-0.21545,51.51787]]]}},{"type":"Feature","properties":{"id":"E01002910","name":"E01002910","parent":"E09000020","type":"LSOA","pop":1442,"r":949,"ff":286,"ffd":19833.6,"ffs":0.3671,"g":168,"co":0,"mo":2,"sa":0,"ic":0},"geometry":{"type":"Polygon","coordinates":[[[-0.17078,51.48672],[-0.17306,51.4858],[-0.17355,51.48593],[-0.17324,51.48617],[-0.17363,51.4867],[-0.17519,51.48584],[-0.17568,51.48637],[-0.1761,51.48623],[-0.17643,51.48654],[-0.17683,51.48639],[-0.17738,51.48683],[-0.17709,51.487],[-0.17811,51.48774],[-0.17374,51.49064],[-0.17288,51.48996],[-0.17344,51.48973],[-0.17078,51.48672]]]}},{"type":"Feature","properties":{"id":"E01002911","name":"E01002911","parent":"E09000020","type":"LSOA","pop":1304,"r":919,"ff":274,"ffd":21012.3,"ffs":0.3639,"g":164,"co":0,"mo":2,"sa":0,"ic":0},"geometry":{"type":"Polygon","coordinates":[[[-0.17738,51.48683],[-0.17683,51.48639],[-0.17643,51.48654],[-0.1761,51.48623],[-0.17568,51.48637],[-0.17519,51.48584],[-0.17363,51.4867],[-0.17324,51.48617],[-0.17355,51.48593],[-0.17306,51.4858],[-0.17712,51.48386],[-0.17694,51.48347],[-0.17708,51.48331],[-0.17944,51.4823],[-0.17967,51.48251],[-0.18046,51.48223],[-0.1814,51.48315],[-0.18081,51.48309],[-0.18039,51.48349],[-0.17918,51.4837],[-0.17905,51.48413],[-0.17858,51.48363],[-0.17754,51.48405],[-0.17857,51.48484],[-0.1782,51.48501],[-0.17837,51.4854],[-0.17864,51.48522],[-0.17925,51.48569],[-0.17875,51.4859],[-0.17983,51.48626],[-0.17943,51.48639],[-0.17956,51.48682],[-0.17811,51.48774],[-0.17709,51.487],[-0.17738,51.48683]]]}},{"type":"Feature","properties":{"id":"E01002912","name":"E01002912","parent":"E09000020","type":"LSOA","pop":1577,"r":838,"ff":263,"ffd":16677.2,"ffs":0.3817,"g":147,"co":0,"mo":2,"sa":0,"ic":0},"geometry":{"type":"Polygon","coordinates":[[[-0.17925,51.48569],[-0.17864,51.48522],[-0.17837,51.4854],[-0.1782,51.48501],[-0.17857,51.48484],[-0.17754,51.48405],[-0.17858,51.48363],[-0.17905,51.48413],[-0.17918,51.4837],[-0.18039,51.48349],[-0.18081,51.48309],[-0.18171,51.48302],[-0.18208,51.48343],[-0.18214,51.48312],[-0.18241,51.4832],[-0.1833,51.48402],[-0.18367,51.48399],[-0.18306,51.48317],[-0.18341,51.48294],[-0.18391,51.48339],[-0.18463,51.48302],[-0.18596,51.4827],[-0.18517,51.48246],[-0.18491,51.48188],[-0.18397,51.48135],[-0.18463,51.48127],[-0.18641,51.48272],[-0.17956,51.48682],[-0.17943,51.48639],[-0.17983,51.48626],[-0.17875,51.4859],[-0.17925,51.48569]]]}},{"type":"Feature","properties":{"id":"E01002913","name":"E01002913","parent":"E09000020","type":"LSOA","pop":1714,"r":888,"ff":274,"ffd":15986.0,"ffs":0.3774,"g":160,"co":0,"mo":2,"sa":0,"ic":0},"geometry":{"type":"Polygon","coordinates":[[[-0.18241,51.4832],[-0.18214,51.48312],[-0.18208,51.48343],[-0.18171,51.48302],[-0.1814,51.48315],[-0.18046,51.48223],[-0.17967,51.48251],[-0.17944,51.4823],[-0.18418,51.48089],[-0.18653,51.47987],[-0.18826,51.48096],[-0.18641,51.48272],[-0.18463,51.48127],[-0.18397,51.48135],[-0.18491,51.48188],[-0.18517,51.48246],[-0.18596,51.4827],[-0.18463,51.48302],[-0.18391,51.48339],[-0.18341,51.48294],[-0.18306,51.48317],[-0.18367,51.48399],[-0.1833,51.48402],[-0.18241,51.4832]]]}},{"type":"Feature","properties":{"id":"E01002914","name":"E01002914","parent":"E09000020","type":"LSOA","pop":1250,"r":970,"ff":288,"ffd":23040.0,"ffs":0.3605,"g":169,"co":0,"mo":2,"sa":0,"ic":0},"geometry":{"type":"Polygon","coordinates":[[[-0.17063,51.49079],[-0.17009,51.49025],[-0.16726,51.49055],[-0.16576,51.4904],[-0.16501,51.489],[-0.17078,51.48672],[-0.17344,51.48973],[-0.17288,51.48996],[-0.17374,51.49064],[-0.17174,51.49183],[-0.17063,51.49079]]]}},{"type":"Feature","properties":{"id":"E01035713","name":"E01035713","parent":"E09000020","type":"LSOA","pop":2097,"r":975,"ff":293,"ffd":13972.3,"ffs":0.3663,"g":173,"co":0,"mo":2,"sa":0,"ic":0},"geometry":{"type":"Polygon","coordinates":[[[-0.17621,51.49383],[-0.1759,51.49326],[-0.17495,51.49367],[-0.17379,51.49386],[-0.17204,51.4922],[-0.17166,51.49246],[-0.17128,51.4921],[-0.17564,51.48938],[-0.17751,51.49099],[-0.17919,51.49017],[-0.18008,51.49128],[-0.1784,51.49206],[-0.17955,51.49778],[-0.17409,51.49818],[-0.17388,51.49711],[-0.17616,51.49683],[-0.1765,51.49455],[-0.17588,51.49453],[-0.17579,51.49407],[-0.17621,51.49383]]]}},{"type":"Feature","properties":{"id":"E01035714","name":"E01035714","parent":"E09000020","type":"LSOA","pop":2160,"r":949,"ff":291,"ffd":13472.2,"ffs":0.3745,"g":169,"co":0,"mo":2,"sa":0,"ic":0},"geometry":{"type":"Polygon","coordinates":[[[-0.17564,51.48938],[-0.18267,51.48501],[-0.1853,51.48667],[-0.18317,51.48765],[-0.18343,51.48812],[-0.18306,51.48831],[-0.18363,51.48924],[-0.18316,51.48946],[-0.18349,51.49005],[-0.18304,51.49011],[-0.18263,51.48951],[-0.18209,51.48965],[-0.18103,51.48854],[-0.17993,51.48912],[-0.17939,51.48857],[-0.17829,51.48929],[-0.17904,51.48932],[-0.17936,51.48969],[-0.17892,51.48984],[-0.17919,51.49017],[-0.17751,51.49099],[-0.17564,51.48938]]]}}]}