{"type":"FeatureCollection","features":[{"type":"Feature","properties":{"id":"E01003797","name":"E01003797","parent":"E09000027","type":"LSOA","pop":1329,"r":346,"ff":110,"ffd":8276.9,"ffs":0.4167,"g":80,"co":0,"mo":2,"sa":0,"ic":0},"geometry":{"type":"Polygon","coordinates":[[[-0.24452,51.4822],[-0.24335,51.48136],[-0.24232,51.48148],[-0.24206,51.48069],[-0.23962,51.48043],[-0.24006,51.47903],[-0.23949,51.47894],[-0.23986,51.47839],[-0.23817,51.47794],[-0.23908,51.47582],[-0.2396,51.47595],[-0.24042,51.4754],[-0.24032,51.47513],[-0.24106,51.4754],[-0.24204,51.4752],[-0.24252,51.47596],[-0.24359,51.47585],[-0.24368,51.47547],[-0.24434,51.47543],[-0.24427,51.47624],[-0.24587,51.47619],[-0.24585,51.47666],[-0.24465,51.47943],[-0.24556,51.47961],[-0.24626,51.47941],[-0.2472,51.47953],[-0.24769,51.48001],[-0.24924,51.47679],[-0.24956,51.47679],[-0.24922,51.47922],[-0.24938,51.48206],[-0.2484,51.48383],[-0.24576,51.48544],[-0.2444,51.48471],[-0.24596,51.48356],[-0.24661,51.48248],[-0.24452,51.4822]]]}},{"type":"Feature","properties":{"id":"E01003798","name":"E01003798","parent":"E09000027","type":"LSOA","pop":1347,"r":373,"ff":114,"ffd":8463.3,"ffs":0.4028,"g":88,"co":0,"mo":2,"sa":0,"ic":0},"geometry":{"type":"Polygon","coordinates":[[[-0.2472,51.47953],[-0.24626,51.47941],[-0.24556,51.47961],[-0.24465,51.47943],[-0.24585,51.47666],[-0.24587,51.47619],[-0.24427,51.47624],[-0.24434,51.47543],[-0.24368,51.47547],[-0.24337,51.47473],[-0.24279,51.47464],[-0.24323,51.47436],[-0.24606,51.47381],[-0.24757,51.4733],[-0.24952,51.47375],[-0.25148,51.47363],[-0.24966,51.47608],[-0.24956,51.47679],[-0.24924,51.47679],[-0.24769,51.48001],[-0.2472,51.47953]]]}},{"type":"Feature","properties":{"id":"E01003799","name":"E01003799","parent":"E09000027","type":"LSOA","pop":1586,"r":360,"ff":113,"ffd":7124.8,"ffs":0.4154,"g":86,"co":0,"mo":2,"sa":0,"ic":0},"geometry":{"type":"Polygon","coordinates":[[[-0.23236,51.47857],[-0.22811,51.47791],[-0.22668,51.4775],[-0.22662,51.47619],[-0.22487,51.47368],[-0.22292,51.47184],[-0.22371,51.47159],[-0.22322,51.47158],[-0.2235,51.47143],[-0.22349,51.47078],[-0.22553,51.47109],[-0.23109,51.47283],[-0.23259,51.47261],[-0.23292,51.47168],[-0.23704,51.47185],[-0.24155,51.47154],[-0.24323,51.47436],[-0.24279,51.47464],[-0.24337,51.47473],[-0.24368,51.47547],[-0.24359,51.47585],[-0.24252,51.47596],[-0.24204,51.4752],[-0.24106,51.4754],[-0.24032,51.47513],[-0.24042,51.4754],[-0.2396,51.47595],[-0.23908,51.47582],[-0.23781,51.47874],[-0.23681,51.47845],[-0.2358,51.4807],[-0.23438,51.48034],[-0.23236,51.47857]]]}},{"type":"Feature","properties":{"id":"E01003800","name":"E01003800","parent":"E09000027","type":"LSOA","pop":1483,"r":313,"ff":98,"ffd":6608.2,"ffs":0.4135,"g":74,"co":0,"mo":2,"sa":0,"ic":0},"geometry":{"type":"Polygon","coordinates":[[[-0.23335,51.48483],[-0.23306,51.4845],[-0.23508,51.48243],[-0.23681,51.47845],[-0.23781,51.47874],[-0.23817,51.47794],[-0.23986,51.47839],[-0.23949,51.47894],[-0.24006,51.47903],[-0.23962,51.48043],[-0.24206,51.48069],[-0.24232,51.48148],[-0.24188,51.48188],[-0.2418,51.48272],[-0.24314,51.48317],[-0.24146,51.48309],[-0.24228,51.48353],[-0.24246,51.48401],[-0.24169,51.48424],[-0.24005,51.48351],[-0.23847,51.48385],[-0.23807,51.48446],[-0.23717,51.48443],[-0.23734,51.48394],[-0.23669,51.48336],[-0.23559,51.48429],[-0.23466,51.48464],[-0.23481,51.48492],[-0.23437,51.48462],[-0.23375,51.485],[-0.23335,51.48483]]]}},{"type":"Feature","properties":{"id":"E01003801","name":"E01003801","parent":"E09000027","type":"LSOA","pop":1236,"r":289,"ff":91,"ffd":7362.5,"ffs":0.4062,"g":63,"co":0,"mo":2,"sa":0,"ic":0},"geometry":{"type":"Polygon","coordinates":[[[-0.23101,51.48762],[-0.22872,51.48571],[-0.23015,51.48508],[-0.23187,51.48621],[-0.23212,51.48601],[-0.23142,51.48568],[-0.23188,51.48553],[-0.23233,51.48578],[-0.23335,51.48483],[-0.23375,51.485],[-0.23437,51.48462],[-0.23481,51.48492],[-0.23466,51.48464],[-0.23559,51.48429],[-0.23474,51.48544],[-0.23529,51.48577],[-0.23506,51.48604],[-0.23819,51.48621],[-0.2415,51.48567],[-0.2444,51.48471],[-0.24576,51.48544],[-0.24108,51.48828],[-0.239,51.48886],[-0.23564,51.489],[-0.23315,51.48856],[-0.23101,51.48762]]]}},{"type":"Feature","properties":{"id":"E01003802","name":"E01003802","parent":"E09000027","type":"LSOA","pop":1387,"r":265,"ff":84,"ffd":6056.2,"ffs":0.4,"g":53,"co":0,"mo":2,"sa":0,"ic":0},"geometry":{"type":"Polygon","coordinates":[[[-0.23187,51.48621],[-0.23015,51.48508],[-0.22872,51.48571],[-0.22802,51.48512],[-0.22684,51.48097],[-0.22668,51.4775],[-0.22811,51.47791],[-0.23236,51.47857],[-0.23438,51.48034],[-0.2358,51.4807],[-0.23508,51.48243],[-0.23306,51.4845],[-0.23335,51.48483],[-0.23233,51.48578],[-0.23188,51.48553],[-0.23142,51.48568],[-0.23212,51.48601],[-0.23187,51.48621]]]}},{"type":"Feature","properties":{"id":"E01003803","name":"E01003803","parent":"E09000027","type":"LSOA","pop":1534,"r":294,"ff":93,"ffd":6062.6,"ffs":0.4079,"g":64,"co":0,"mo":2,"sa":0,"ic":0},"geometry":{"type":"Polygon","coordinates":[[[-0.23474,51.48544],[-0.23559,51.48429],[-0.23669,51.48336],[-0.23734,51.48394],[-0.23717,51.48443],[-0.23807,51.48446],[-0.23847,51.48385],[-0.24005,51.48351],[-0.24169,51.48424],[-0.24246,51.48401],[-0.24228,51.48353],[-0.24146,51.48309],[-0.24314,51.48317],[-0.2418,51.48272],[-0.24188,51.48188],[-0.24232,51.48148],[-0.24335,51.48136],[-0.24452,51.4822],[-0.24661,51.48248],[-0.24596,51.48356],[-0.2444,51.48471],[-0.2415,51.48567],[-0.23819,51.48621],[-0.23506,51.48604],[-0.23529,51.48577],[-0.23474,51.48544]]]}},{"type":"Feature","properties":{"id":"E01003804","name":"E01003804","parent":"E09000027","type":"LSOA","pop":1918,"r":421,"ff":133,"ffd":6934.3,"ffs":0.4222,"g":103,"co":0,"mo":0,"sa":0,"ic":0},"geometry":{"type":"Polygon","coordinates":[[[-0.26964,51.46445],[-0.26953,51.46416],[-0.26902,51.46423],[-0.26867,51.46398],[-0.26775,51.46409],[-0.2682,51.46334],[-0.2677,51.46271],[-0.26851,51.46161],[-0.26889,51.46176],[-0.26881,51.4621],[-0.27147,51.46322],[-0.27232,51.46248],[-0.27267,51.46267],[-0.27397,51.46179],[-0.27389,51.46152],[-0.27491,51.46119],[-0.27548,51.46181],[-0.27592,51.46181],[-0.2758,51.46155],[-0.27654,51.461],[-0.27805,51.4612],[-0.27763,51.46157],[-0.2782,51.4618],[-0.27814,51.46428],[-0.27171,51.46416],[-0.27175,51.46452],[-0.26964,51.46445]]]}},{"type":"Feature","properties":{"id":"E01003805","name":"E01003805","parent":"E09000027","type":"LSOA","pop":1663,"r":417,"ff":133,"ffd":7997.6,"ffs":0.429,"g":104,"co":0,"mo":0,"sa":0,"ic":0},"geometry":{"type":"Polygon","coordinates":[[[-0.27082,51.46306],[-0.26881,51.4621],[-0.26889,51.46176],[-0.26851,51.46161],[-0.26848,51.46019],[-0.26808,51.45991],[-0.2674,51.45993],[-0.26698,51.45757],[-0.26772,51.4574],[-0.26762,51.45702],[-0.27195,51.45693],[-0.27061,51.45422],[-0.27089,51.45179],[-0.27761,51.45076],[-0.28267,51.44938],[-0.28219,51.45169],[-0.2778,51.45222],[-0.27762,51.4527],[-0.27762,51.45669],[-0.28076,51.45909],[-0.28042,51.4598],[-0.27895,51.45914],[-0.2788,51.46035],[-0.27808,51.46031],[-0.27805,51.4612],[-0.27654,51.461],[-0.2758,51.46155],[-0.27592,51.46181],[-0.27548,51.46181],[-0.27491,51.46119],[-0.27389,51.46152],[-0.27397,51.46179],[-0.27267,51.46267],[-0.27232,51.46248],[-0.27147,51.46322],[-0.27082,51.46306]]]}},{"type":"Feature","properties":{"id":"E01003806","name":"E01003806","parent":"E09000027","type":"LSOA","pop":1487,"r":377,"ff":118,"ffd":7935.4,"ffs":0.4199,"g":93,"co":0,"mo":2,"sa":0,"ic":0},"geometry":{"type":"Polygon","coordinates":[[[-0.26716,51.46387],[-0.26684,51.46361],[-0.2666,51.4639],[-0.2658,51.46389],[-0.26583,51.46272],[-0.26479,51.46228],[-0.26452,51.46304],[-0.26376,51.46295],[-0.26381,51.46257],[-0.26315,51.46239],[-0.26441,51.46081],[-0.26395,51.46019],[-0.26312,51.46014],[-0.2623,51.46073],[-0.26144,51.4604],[-0.26122,51.46068],[-0.26065,51.45847],[-0.25841,51.45698],[-0.25909,51.45493],[-0.2473,51.44918],[-0.24163,51.44308],[-0.24306,51.44175],[-0.25401,51.43724],[-0.2562,51.43661],[-0.25626,51.43632],[-0.26125,51.43718],[-0.26598,51.43748],[-0.26822,51.4392],[-0.26829,51.44046],[-0.27968,51.44493],[-0.28301,51.44668],[-0.28267,51.44938],[-0.27761,51.45076],[-0.27089,51.45179],[-0.27061,51.45422],[-0.27195,51.45693],[-0.26762,51.45702],[-0.26772,51.4574],[-0.26698,51.45757],[-0.2674,51.45993],[-0.26808,51.45991],[-0.26848,51.46019],[-0.26851,51.46161],[-0.2677,51.46271],[-0.2682,51.46334],[-0.26775,51.46409],[-0.26716,51.46387]]]}},{"type":"Feature","properties":{"id":"E01003807","name":"E01003807","parent":"E09000027","type":"LSOA","pop":2004,"r":402,"ff":137,"ffd":6836.3,"ffs":0.4419,"g":90,"co":0,"mo":0,"sa":0,"ic":0},"geometry":{"type":"Polygon","coordinates":[[[-0.26353,51.46765],[-0.2637,51.46741],[-0.26503,51.46751],[-0.26508,51.46707],[-0.26572,51.46678],[-0.26641,51.46686],[-0.26624,51.46516],[-0.2655,51.46486],[-0.26526,51.46526],[-0.26412,51.46524],[-0.26363,51.46464],[-0.26546,51.46456],[-0.2658,51.46389],[-0.2666,51.4639],[-0.26684,51.46361],[-0.26775,51.46409],[-0.26867,51.46398],[-0.26902,51.46423],[-0.26953,51.46416],[-0.26964,51.46445],[-0.27175,51.46452],[-0.27198,51.46605],[-0.27149,51.46608],[-0.27156,51.46643],[-0.27196,51.4664],[-0.27189,51.46681],[-0.27148,51.46681],[-0.27151,51.46759],[-0.26728,51.46805],[-0.26346,51.4678],[-0.26353,51.46765]]]}},{"type":"Feature","properties":{"id":"E01003808","name":"E01003808","parent":"E09000027","type":"LSOA","pop":1860,"r":408,"ff":138,"ffd":7419.4,"ffs":0.4452,"g":96,"co":0,"mo":2,"sa":0,"ic":0},"geometry":{"type":"Polygon","coordinates":[[[-0.25959,51.46763],[-0.25905,51.46651],[-0.25892,51.46545],[-0.26047,51.46546],[-0.26079,51.46514],[-0.26127,51.46514],[-0.26126,51.46547],[-0.26164,51.46542],[-0.26185,51.46479],[-0.26286,51.46453],[-0.26363,51.46464],[-0.26412,51.46524],[-0.26526,51.46526],[-0.2655,51.46486],[-0.26624,51.46516],[-0.26641,51.46686],[-0.26572,51.46678],[-0.26508,51.46707],[-0.26503,51.46751],[-0.2637,51.46741],[-0.26346,51.4678],[-0.25959,51.46763]]]}},{"type":"Feature","properties":{"id":"E01003809","name":"E01003809","parent":"E09000027","type":"LSOA","pop":1653,"r":349,"ff":107,"ffd":6473.1,"ffs":0.41,"g":86,"co":0,"mo":2,"sa":0,"ic":0},"geometry":{"type":"Polygon","coordinates":[[[-0.2584,51.46657],[-0.2581,51.46511],[-0.25289,51.46522],[-0.25501,51.46383],[-0.25627,51.46273],[-0.25775,51.46069],[-0.258,51.4603],[-0.25678,51.45988],[-0.25841,51.45698],[-0.26065,51.45847],[-0.26122,51.46068],[-0.26144,51.4604],[-0.2623,51.46073],[-0.26312,51.46014],[-0.26395,51.46019],[-0.26441,51.46081],[-0.26315,51.46239],[-0.26381,51.46257],[-0.26376,51.46295],[-0.26452,51.46304],[-0.26479,51.46228],[-0.26583,51.46272],[-0.2658,51.46389],[-0.26546,51.46456],[-0.26286,51.46453],[-0.26185,51.46479],[-0.26164,51.46542],[-0.26126,51.46547],[-0.26127,51.46514],[-0.26079,51.46514],[-0.26047,51.46546],[-0.25892,51.46545],[-0.25912,51.4664],[-0.2584,51.46657]]]}},{"type":"Feature","properties":{"id":"E01003810","name":"E01003810","parent":"E09000027","type":"LSOA","pop":1608,"r":495,"ff":195,"ffd":12126.9,"ffs":0.4779,"g":84,"co":0,"mo":2,"sa":0,"ic":0},"geometry":{"type":"Polygon","coordinates":[[[-0.34877,51.43148],[-0.34887,51.43116],[-0.34956,51.43122],[-0.34916,51.43092],[-0.34971,51.4307],[-0.34693,51.43043],[-0.34671,51.43095],[-0.34582,51.43051],[-0.34579,51.42961],[-0.34488,51.42953],[-0.34417,51.42978],[-0.34459,51.42806],[-0.34519,51.42797],[-0.34518,51.42877],[-0.34637,51.42907],[-0.34676,51.42866],[-0.34828,51.42914],[-0.34813,51.42946],[-0.34957,51.42963],[-0.35204,51.42989],[-0.35216,51.42939],[-0.35369,51.42921],[-0.35371,51.42896],[-0.35464,51.42916],[-0.35504,51.42978],[-0.35437,51.42993],[-0.35405,51.43041],[-0.35558,51.43121],[-0.35202,51.43313],[-0.35164,51.43285],[-0.34933,51.43274],[-0.34944,51.43165],[-0.34877,51.43148]]]}},{"type":"Feature","properties":{"id":"E01003811","name":"E01003811","parent":"E09000027","type":"LSOA","pop":1828,"r":495,"ff":195,"ffd":10667.4,"ffs":0.4779,"g":84,"co":0,"mo":2,"sa":0,"ic":0},"geometry":{"type":"Polygon","coordinates":[[[-0.33974,51.43358],[-0.33901,51.43149],[-0.33714,51.42928],[-0.33846,51.42898],[-0.33936,51.4299],[-0.34232,51.42856],[-0.34423,51.42982],[-0.34383,51.43016],[-0.34474,51.43037],[-0.34486,51.43118],[-0.34237,51.4312],[-0.34227,51.43156],[-0.34516,51.43155],[-0.34528,51.43212],[-0.34402,51.43207],[-0.34404,51.43234],[-0.34261,51.43263],[-0.34072,51.43453],[-0.33974,51.43358]]]}},{"type":"Feature","properties":{"id":"E01003812","name":"E01003812","parent":"E09000027","type":"LSOA","pop":1883,"r":580,"ff":223,"ffd":11842.8,"ffs":0.4617,"g":93,"co":0,"mo":2,"sa":0,"ic":0},"geometry":{"type":"Polygon","coordinates":[[[-0.34721,51.4354],[-0.3466,51.43452],[-0.34345,51.43515],[-0.34211,51.43505],[-0.34072,51.43453],[-0.34261,51.43263],[-0.34404,51.43234],[-0.34402,51.43207],[-0.34528,51.43212],[-0.34516,51.43155],[-0.34227,51.43156],[-0.34237,51.4312],[-0.34486,51.43118],[-0.34474,51.43037],[-0.34383,51.43016],[-0.34488,51.42953],[-0.34579,51.42961],[-0.34582,51.43051],[-0.34671,51.43095],[-0.34693,51.43043],[-0.34971,51.4307],[-0.34916,51.43092],[-0.34956,51.43122],[-0.34887,51.43116],[-0.34877,51.43148],[-0.34944,51.43165],[-0.34933,51.43274],[-0.35164,51.43285],[-0.35202,51.43313],[-0.35073,51.43609],[-0.34721,51.4354]]]}},{"type":"Feature","properties":{"id":"E01003813","name":"E01003813","parent":"E09000027","type":"LSOA","pop":1605,"r":570,"ff":212,"ffd":13208.7,"ffs":0.4454,"g":90,"co":0,"mo":2,"sa":0,"ic":0},"geometry":{"type":"Polygon","coordinates":[[[-0.36353,51.43257],[-0.35617,51.43072],[-0.35558,51.43121],[-0.35405,51.43041],[-0.35437,51.42993],[-0.35504,51.42978],[-0.35464,51.42916],[-0.35528,51.42857],[-0.35638,51.42925],[-0.35729,51.4292],[-0.35829,51.42773],[-0.35878,51.42731],[-0.35994,51.4275],[-0.35976,51.42678],[-0.36202,51.42759],[-0.36218,51.42741],[-0.36403,51.42819],[-0.3637,51.4285],[-0.36419,51.42903],[-0.36493,51.42921],[-0.36451,51.42959],[-0.36664,51.43229],[-0.36698,51.43226],[-0.36699,51.43281],[-0.36807,51.4332],[-0.36795,51.4334],[-0.36353,51.43257]]]}},{"type":"Feature","properties":{"id":"E01003814","name":"E01003814","parent":"E09000027","type":"LSOA","pop":1847,"r":547,"ff":217,"ffd":11748.8,"ffs":0.479,"g":90,"co":0,"mo":2,"sa":0,"ic":0},"geometry":{"type":"Polygon","coordinates":[[[-0.34232,51.42856],[-0.3399,51.42628],[-0.34529,51.42729],[-0.3461,51.42525],[-0.34526,51.42268],[-0.34766,51.4213],[-0.34846,51.4215],[-0.34991,51.42372],[-0.35117,51.42458],[-0.35302,51.42528],[-0.35272,51.42707],[-0.35197,51.42723],[-0.35166,51.42819],[-0.3523,51.42834],[-0.35274,51.42777],[-0.35379,51.42759],[-0.35469,51.42834],[-0.35438,51.42858],[-0.35335,51.42865],[-0.35301,51.42832],[-0.35278,51.42852],[-0.35371,51.42896],[-0.35369,51.42921],[-0.35216,51.42939],[-0.35204,51.42989],[-0.34813,51.42946],[-0.34828,51.42914],[-0.34676,51.42866],[-0.34637,51.42907],[-0.34518,51.42877],[-0.34519,51.42797],[-0.34459,51.42806],[-0.34417,51.42978],[-0.34232,51.42856]]]}},{"type":"Feature","properties":{"id":"E01003815","name":"E01003815","parent":"E09000027","type":"LSOA","pop":2079,"r":510,"ff":196,"ffd":9427.6,"ffs":0.4623,"g":82,"co":0,"mo":3,"sa":0,"ic":0},"geometry":{"type":"Polygon","coordinates":[[[-0.35638,51.42925],[-0.35528,51.42857],[-0.35464,51.42916],[-0.35278,51.42852],[-0.35301,51.42832],[-0.35335,51.42865],[-0.35438,51.42858],[-0.35469,51.42834],[-0.35379,51.42759],[-0.35274,51.42777],[-0.3523,51.42834],[-0.35166,51.42819],[-0.35197,51.42723],[-0.35272,51.42707],[-0.35302,51.42528],[-0.35117,51.42458],[-0.34991,51.42372],[-0.34846,51.4215],[-0.34995,51.42169],[-0.35249,51.42052],[-0.3529,51.42162],[-0.35472,51.42132],[-0.35538,51.42235],[-0.35894,51.42174],[-0.36013,51.42209],[-0.36135,51.42333],[-0.36154,51.42443],[-0.36241,51.42541],[-0.36183,51.42717],[-0.36218,51.42741],[-0.36202,51.42759],[-0.35976,51.42678],[-0.35994,51.4275],[-0.35878,51.42731],[-0.35829,51.42773],[-0.35729,51.4292],[-0.35638,51.42925]]]}},{"type":"Feature","properties":{"id":"E01003816","name":"E01003816","parent":"E09000027","type":"LSOA","pop":1751,"r":398,"ff":145,"ffd":8281.0,"ffs":0.4633,"g":83,"co":0,"mo":2,"sa":0,"ic":0},"geometry":{"type":"Polygon","coordinates":[[[-0.30187,51.45163],[-0.30053,51.45031],[-0.29907,51.45096],[-0.29728,51.44972],[-0.29655,51.44993],[-0.29656,51.44895],[-0.2972,51.4482],[-0.29468,51.44705],[-0.29487,51.44865],[-0.29609,51.45013],[-0.29062,51.44899],[-0.28552,51.44879],[-0.28269,51.44945],[-0.28301,51.44668],[-0.27968,51.44493],[-0.26829,51.44046],[-0.26822,51.4392],[-0.27364,51.43898],[-0.27866,51.43745],[-0.28145,51.43626],[-0.28703,51.43299],[-0.29092,51.43732],[-0.29101,51.43915],[-0.29186,51.43862],[-0.29293,51.44007],[-0.2976,51.44183],[-0.29958,51.44068],[-0.30082,51.43948],[-0.30095,51.43865],[-0.30449,51.43818],[-0.30556,51.43774],[-0.3063,51.43787],[-0.30665,51.43754],[-0.30649,51.4366],[-0.308,51.43701],[-0.30896,51.43687],[-0.31109,51.44003],[-0.31158,51.43998],[-0.31168,51.44051],[-0.31169,51.44215],[-0.31075,51.44364],[-0.3093,51.44503],[-0.31042,51.44708],[-0.30576,51.4486],[-0.30282,51.45131],[-0.30275,51.45163],[-0.30187,51.45163]]]}},{"type":"Feature","properties":{"id":"E01003817","name":"E01003817","parent":"E09000027","type":"LSOA","pop":1977,"r":417,"ff":154,"ffd":7789.6,"ffs":0.4667,"g":85,"co":0,"mo":2,"sa":0,"ic":0},"geometry":{"type":"Polygon","coordinates":[[[-0.31168,51.44051],[-0.31158,51.43998],[-0.31109,51.44003],[-0.30896,51.43687],[-0.308,51.43701],[-0.30649,51.4366],[-0.30665,51.43754],[-0.3063,51.43787],[-0.30556,51.43774],[-0.30449,51.43818],[-0.30095,51.43865],[-0.30082,51.43948],[-0.29958,51.44068],[-0.2976,51.44183],[-0.29293,51.44007],[-0.29186,51.43862],[-0.29101,51.43915],[-0.29092,51.43732],[-0.28703,51.43299],[-0.28145,51.43626],[-0.27866,51.43745],[-0.27364,51.43898],[-0.26822,51.4392],[-0.26598,51.43748],[-0.26125,51.43718],[-0.25626,51.43632],[-0.26631,51.432],[-0.2709,51.42948],[-0.28076,51.42177],[-0.2866,51.42017],[-0.29068,51.42899],[-0.29295,51.42896],[-0.29342,51.42647],[-0.29485,51.42639],[-0.29475,51.42695],[-0.2953,51.42698],[-0.29544,51.42764],[-0.29762,51.42873],[-0.3016,51.43143],[-0.30205,51.43115],[-0.30146,51.43055],[-0.30178,51.43043],[-0.30581,51.43136],[-0.30638,51.43112],[-0.30641,51.43015],[-0.30853,51.43082],[-0.30808,51.43109],[-0.30974,51.43215],[-0.31064,51.43223],[-0.31098,51.43194],[-0.31173,51.43215],[-0.31129,51.4328],[-0.31217,51.43306],[-0.31304,51.43407],[-0.31264,51.43436],[-0.31219,51.43397],[-0.31125,51.43452],[-0.31126,51.43485],[-0.31053,51.43454],[-0.31094,51.43568],[-0.31313,51.43818],[-0.31531,51.43741],[-0.31566,51.43779],[-0.31484,51.43807],[-0.31571,51.4385],[-0.31477,51.4388],[-0.31442,51.43929],[-0.31463,51.43966],[-0.31535,51.4395],[-0.31558,51.43972],[-0.31421,51.44018],[-0.31445,51.44082],[-0.31614,51.44279],[-0.31484,51.44336],[-0.31075,51.44364],[-0.31169,51.44215],[-0.31168,51.44051]]]}},{"type":"Feature","properties":{"id":"E01003818","name":"E01003818","parent":"E09000027","type":"LSOA","pop":1671,"r":354,"ff":133,"ffd":7959.3,"ffs":0.475,"g":72,"co":0,"mo":2,"sa":0,"ic":0},"geometry":{"type":"Polygon","coordinates":[[[-0.31951,51.43996],[-0.3198,51.43933],[-0.31917,51.43932],[-0.31916,51.43973],[-0.31871,51.43984],[-0.31809,51.4388],[-0.31833,51.43839],[-0.31986,51.43794],[-0.31969,51.43757],[-0.32112,51.43671],[-0.32051,51.43601],[-0.31998,51.43621],[-0.31964,51.43589],[-0.31716,51.43674],[-0.31597,51.43675],[-0.31555,51.43603],[-0.31496,51.4359],[-0.31455,51.43618],[-0.31384,51.43585],[-0.31455,51.4354],[-0.31593,51.43391],[-0.31666,51.43457],[-0.31632,51.4349],[-0.31678,51.43537],[-0.31835,51.43375],[-0.31855,51.43407],[-0.31906,51.43365],[-0.31884,51.43327],[-0.31777,51.43271],[-0.31762,51.432],[-0.31691,51.43178],[-0.3192,51.43004],[-0.32335,51.43087],[-0.32585,51.43232],[-0.32566,51.43257],[-0.32695,51.43339],[-0.32763,51.43457],[-0.32553,51.43498],[-0.32498,51.43599],[-0.3222,51.43677],[-0.32268,51.43835],[-0.32223,51.43938],[-0.32139,51.44012],[-0.32099,51.43972],[-0.31989,51.44013],[-0.32063,51.44053],[-0.31955,51.44087],[-0.31889,51.44012],[-0.31951,51.43996]]]}},{"type":"Feature","properties":{"id":"E01003819","name":"E01003819","parent":"E09000027","type":"LSOA","pop":1750,"r":356,"ff":132,"ffd":7542.9,"ffs":0.4681,"g":72,"co":0,"mo":2,"sa":0,"ic":0},"geometry":{"type":"Polygon","coordinates":[[[-0.31445,51.44082],[-0.31421,51.44018],[-0.31558,51.43972],[-0.31535,51.4395],[-0.31463,51.43966],[-0.31442,51.43929],[-0.31477,51.4388],[-0.31571,51.4385],[-0.31484,51.43807],[-0.31566,51.43779],[-0.31531,51.43741],[-0.31313,51.43818],[-0.31094,51.43568],[-0.31164,51.43566],[-0.31277,51.43701],[-0.31242,51.43634],[-0.31384,51.43585],[-0.31455,51.43618],[-0.31496,51.4359],[-0.31555,51.43603],[-0.31597,51.43675],[-0.31716,51.43674],[-0.31964,51.43589],[-0.31998,51.43621],[-0.32051,51.43601],[-0.32112,51.43671],[-0.31969,51.43757],[-0.31986,51.43794],[-0.31833,51.43839],[-0.31809,51.4388],[-0.31871,51.43984],[-0.31916,51.43973],[-0.31917,51.43932],[-0.3198,51.43933],[-0.31951,51.43996],[-0.31889,51.44012],[-0.31955,51.44087],[-0.32063,51.44053],[-0.31989,51.44013],[-0.32099,51.43972],[-0.32139,51.44012],[-0.32223,51.43938],[-0.32268,51.43835],[-0.3222,51.43677],[-0.32498,51.43599],[-0.32553,51.43498],[-0.32763,51.43457],[-0.32802,51.4367],[-0.32907,51.43805],[-0.32851,51.438],[-0.32915,51.43819],[-0.33008,51.43966],[-0.33008,51.44159],[-0.32914,51.44269],[-0.32779,51.44344],[-0.32171,51.44537],[-0.31706,51.44576],[-0.31042,51.44708],[-0.3093,51.44503],[-0.31075,51.44364],[-0.31484,51.44336],[-0.31614,51.44279],[-0.31445,51.44082]]]}},{"type":"Feature","properties":{"id":"E01003820","name":"E01003820","parent":"E09000027","type":"LSOA","pop":2092,"r":383,"ff":143,"ffd":6835.6,"ffs":0.4719,"g":78,"co":0,"mo":2,"sa":0,"ic":0},"geometry":{"type":"Polygon","coordinates":[[[-0.31094,51.43568],[-0.31053,51.43454],[-0.31126,51.43485],[-0.31125,51.43452],[-0.31219,51.43397],[-0.31264,51.43436],[-0.31304,51.43407],[-0.31217,51.43306],[-0.31129,51.4328],[-0.31173,51.43215],[-0.31098,51.43194],[-0.31294,51.43018],[-0.31445,51.42826],[-0.31687,51.42923],[-0.31835,51.42947],[-0.3192,51.43004],[-0.31691,51.43178],[-0.31762,51.432],[-0.31777,51.43271],[-0.31884,51.43327],[-0.31906,51.43365],[-0.31855,51.43407],[-0.31835,51.43375],[-0.31678,51.43537],[-0.31632,51.4349],[-0.31666,51.43457],[-0.31593,51.43391],[-0.31455,51.4354],[-0.31384,51.43585],[-0.31242,51.43634],[-0.31277,51.43701],[-0.31164,51.43566],[-0.31094,51.43568]]]}},{"type":"Feature","properties":{"id":"E01003821","name":"E01003821","parent":"E09000027","type":"LSOA","pop":1612,"r":445,"ff":167,"ffd":10359.8,"ffs":0.4813,"g":95,"co":0,"mo":0,"sa":0,"ic":0},"geometry":{"type":"Polygon","coordinates":[[[-0.30191,51.45676],[-0.30176,51.45628],[-0.30142,51.45618],[-0.3008,51.45659],[-0.29806,51.45474],[-0.29916,51.45432],[-0.29608,51.45154],[-0.2956,51.45175],[-0.29493,51.45135],[-0.29609,51.45013],[-0.29487,51.44865],[-0.29468,51.44705],[-0.2972,51.4482],[-0.29656,51.44895],[-0.29655,51.44993],[-0.29728,51.44972],[-0.29907,51.45096],[-0.30053,51.45031],[-0.30187,51.45163],[-0.30275,51.45163],[-0.30261,51.45223],[-0.3028,51.4534],[-0.30504,51.45646],[-0.30446,51.45671],[-0.30469,51.45705],[-0.3043,51.45724],[-0.30369,51.45668],[-0.30307,51.45755],[-0.30191,51.45676]]]}},{"type":"Feature","properties":{"id":"E01003822","name":"E01003822","parent":"E09000027","type":"LSOA","pop":1461,"r":480,"ff":183,"ffd":12525.7,"ffs":0.4716,"g":88,"co":0,"mo":2,"sa":0,"ic":0},"geometry":{"type":"Polygon","coordinates":[[[-0.35942,51.42187],[-0.35989,51.42139],[-0.36069,51.42168],[-0.36145,51.4201],[-0.36333,51.4185],[-0.3621,51.41845],[-0.36193,51.4188],[-0.35966,51.41876],[-0.3602,51.41584],[-0.36126,51.41587],[-0.36038,51.41496],[-0.36072,51.41486],[-0.36182,51.41519],[-0.36186,51.41576],[-0.36245,51.41603],[-0.36381,51.41562],[-0.36596,51.41578],[-0.36689,51.41535],[-0.36806,51.41581],[-0.36874,51.41557],[-0.36852,51.4161],[-0.36901,51.41613],[-0.36933,51.41571],[-0.36999,51.41657],[-0.37009,51.41696],[-0.36851,51.41746],[-0.36813,51.41822],[-0.36825,51.41904],[-0.36759,51.41923],[-0.36724,51.42082],[-0.36622,51.42147],[-0.36419,51.42131],[-0.36378,51.42172],[-0.36372,51.4223],[-0.36673,51.42263],[-0.36692,51.42304],[-0.36208,51.42272],[-0.35942,51.42187]]]}},{"type":"Feature","properties":{"id":"E01003823","name":"E01003823","parent":"E09000027","type":"LSOA","pop":1687,"r":448,"ff":173,"ffd":10254.9,"ffs":0.4819,"g":87,"co":0,"mo":2,"sa":0,"ic":0},"geometry":{"type":"Polygon","coordinates":[[[-0.35538,51.42235],[-0.35472,51.42132],[-0.3529,51.42162],[-0.35249,51.42052],[-0.35211,51.41731],[-0.35339,51.41702],[-0.35353,51.41601],[-0.35204,51.4154],[-0.35281,51.41306],[-0.35104,51.41258],[-0.35146,51.41169],[-0.34654,51.4112],[-0.34609,51.41216],[-0.34259,51.41128],[-0.34177,51.41181],[-0.34021,51.41161],[-0.33731,51.41045],[-0.33589,51.41101],[-0.33501,51.41042],[-0.33477,51.40977],[-0.3365,51.40863],[-0.33542,51.40848],[-0.31865,51.41076],[-0.31763,51.40935],[-0.31263,51.41084],[-0.31217,51.41034],[-0.31297,51.40937],[-0.31707,51.40609],[-0.3185,51.40089],[-0.3151,51.39984],[-0.31593,51.39883],[-0.31213,51.39814],[-0.31219,51.39802],[-0.31296,51.39711],[-0.3177,51.39367],[-0.31937,51.39278],[-0.3251,51.39146],[-0.32648,51.39152],[-0.32862,51.39228],[-0.33079,51.39409],[-0.3321,51.39577],[-0.33558,51.39829],[-0.34064,51.40309],[-0.34379,51.40398],[-0.34658,51.40563],[-0.3492,51.40662],[-0.35479,51.40964],[-0.35536,51.41075],[-0.35977,51.41202],[-0.36349,51.41183],[-0.36806,51.41048],[-0.36781,51.41312],[-0.36708,51.41327],[-0.36769,51.41337],[-0.36766,51.41361],[-0.36662,51.41364],[-0.36515,51.41309],[-0.36516,51.41355],[-0.36461,51.41384],[-0.36252,51.41341],[-0.36038,51.41496],[-0.36126,51.41587],[-0.3602,51.41584],[-0.35966,51.41876],[-0.36193,51.4188],[-0.3621,51.41845],[-0.36333,51.4185],[-0.36145,51.4201],[-0.36069,51.42168],[-0.35989,51.42139],[-0.35942,51.42187],[-0.35894,51.42174],[-0.35538,51.42235]]]}},{"type":"Feature","properties":{"id":"E01003824","name":"E01003824","parent":"E09000027","type":"LSOA","pop":1617,"r":449,"ff":172,"ffd":10637.0,"ffs":0.4738,"g":82,"co":0,"mo":2,"sa":0,"ic":0},"geometry":{"type":"Polygon","coordinates":[[[-0.36378,51.42172],[-0.36419,51.42131],[-0.36622,51.42147],[-0.36724,51.42082],[-0.36759,51.41923],[-0.36825,51.41904],[-0.36813,51.41822],[-0.36851,51.41746],[-0.37009,51.41696],[-0.37063,51.41741],[-0.37024,51.41774],[-0.37037,51.41859],[-0.37137,51.41843],[-0.37143,51.4165],[-0.37276,51.41651],[-0.37259,51.41807],[-0.37314,51.41802],[-0.37364,51.41747],[-0.37388,51.4185],[-0.37714,51.41839],[-0.37719,51.41856],[-0.37623,51.41908],[-0.37629,51.42008],[-0.37512,51.42006],[-0.37458,51.42024],[-0.37487,51.42088],[-0.37429,51.42099],[-0.37473,51.42199],[-0.37415,51.42205],[-0.37358,51.42099],[-0.37232,51.42117],[-0.37275,51.42264],[-0.36968,51.42317],[-0.36692,51.42304],[-0.36673,51.42263],[-0.36372,51.4223],[-0.36378,51.42172]]]}},{"type":"Feature","properties":{"id":"E01003825","name":"E01003825","parent":"E09000027","type":"LSOA","pop":1715,"r":464,"ff":176,"ffd":10262.4,"ffs":0.4644,"g":81,"co":0,"mo":3,"sa":0,"ic":0},"geometry":{"type":"Polygon","coordinates":[[[-0.39184,51.42328],[-0.3855,51.42075],[-0.38491,51.42127],[-0.38183,51.42184],[-0.37275,51.42264],[-0.37232,51.42117],[-0.37358,51.42099],[-0.37415,51.42205],[-0.37473,51.42199],[-0.37429,51.42099],[-0.37487,51.42088],[-0.37458,51.42024],[-0.37512,51.42006],[-0.37629,51.42008],[-0.37623,51.41908],[-0.37719,51.41856],[-0.37714,51.41839],[-0.37956,51.41846],[-0.37944,51.41814],[-0.38207,51.41775],[-0.39135,51.42233],[-0.39289,51.42328],[-0.39275,51.42347],[-0.39184,51.42328]]]}},{"type":"Feature","properties":{"id":"E01003826","name":"E01003826","parent":"E09000027","type":"LSOA","pop":1774,"r":427,"ff":174,"ffd":9808.3,"ffs":0.5043,"g":79,"co":0,"mo":2,"sa":0,"ic":0},"geometry":{"type":"Polygon","coordinates":[[[-0.38668,51.42005],[-0.38207,51.41775],[-0.37944,51.41814],[-0.37956,51.41846],[-0.37388,51.4185],[-0.37323,51.41527],[-0.37373,51.41527],[-0.37371,51.41407],[-0.37304,51.41405],[-0.37352,51.4127],[-0.37214,51.41285],[-0.37198,51.41208],[-0.37441,51.41181],[-0.37519,51.40834],[-0.37943,51.40783],[-0.38335,51.40854],[-0.38378,51.41012],[-0.38664,51.41041],[-0.38918,51.41032],[-0.38965,51.41071],[-0.39022,51.41434],[-0.38619,51.41435],[-0.38676,51.41765],[-0.3877,51.41933],[-0.38668,51.42005]]]}},{"type":"Feature","properties":{"id":"E01003827","name":"E01003827","parent":"E09000027","type":"LSOA","pop":2020,"r":461,"ff":183,"ffd":9059.4,"ffs":0.4906,"g":86,"co":0,"mo":2,"sa":0,"ic":0},"geometry":{"type":"Polygon","coordinates":[[[-0.36999,51.41657],[-0.36933,51.41571],[-0.36901,51.41613],[-0.36852,51.4161],[-0.36874,51.41557],[-0.36806,51.41581],[-0.36689,51.41535],[-0.36596,51.41578],[-0.36381,51.41562],[-0.36245,51.41603],[-0.36186,51.41576],[-0.36182,51.41519],[-0.36072,51.41486],[-0.36252,51.41341],[-0.36461,51.41384],[-0.36516,51.41355],[-0.36515,51.41309],[-0.36662,51.41364],[-0.36766,51.41361],[-0.36769,51.41337],[-0.36708,51.41327],[-0.36781,51.41312],[-0.36806,51.41048],[-0.37417,51.40844],[-0.37519,51.40834],[-0.37441,51.41181],[-0.37198,51.41208],[-0.37214,51.41285],[-0.37352,51.4127],[-0.37304,51.41405],[-0.37371,51.41407],[-0.37373,51.41527],[-0.37323,51.41527],[-0.37364,51.41747],[-0.37314,51.41802],[-0.37259,51.41807],[-0.37276,51.41651],[-0.37143,51.4165],[-0.37137,51.41843],[-0.37037,51.41859],[-0.37024,51.41774],[-0.37063,51.41741],[-0.37009,51.41696],[-0.36999,51.41657]]]}},{"type":"Feature","properties":{"id":"E01003828","name":"E01003828","parent":"E09000027","type":"LSOA","pop":1545,"r":467,"ff":177,"ffd":11456.3,"ffs":0.4609,"g":79,"co":0,"mo":3,"sa":0,"ic":0},"geometry":{"type":"Polygon","coordinates":[[[-0.37434,51.42719],[-0.37391,51.42685],[-0.37276,51.4271],[-0.37224,51.42589],[-0.37089,51.42582],[-0.37045,51.42531],[-0.36891,51.42535],[-0.36841,51.42485],[-0.36795,51.42492],[-0.36814,51.42431],[-0.3676,51.42412],[-0.36747,51.42343],[-0.36969,51.42369],[-0.36968,51.42317],[-0.37047,51.42292],[-0.38091,51.42195],[-0.38491,51.42127],[-0.38409,51.42267],[-0.38516,51.42392],[-0.38401,51.42471],[-0.3838,51.42449],[-0.3844,51.42403],[-0.38416,51.4233],[-0.38312,51.42345],[-0.38218,51.42407],[-0.38118,51.42305],[-0.38082,51.42308],[-0.38083,51.42352],[-0.37739,51.42363],[-0.37696,51.42404],[-0.37712,51.42425],[-0.37622,51.42469],[-0.37598,51.42413],[-0.37471,51.42433],[-0.37579,51.42596],[-0.37452,51.42677],[-0.37636,51.42777],[-0.37557,51.42788],[-0.37434,51.42719]]]}},{"type":"Feature","properties":{"id":"E01003829","name":"E01003829","parent":"E09000027","type":"LSOA","pop":1775,"r":487,"ff":182,"ffd":10253.5,"ffs":0.4516,"g":80,"co":0,"mo":3,"sa":0,"ic":0},"geometry":{"type":"Polygon","coordinates":[[[-0.36859,51.43196],[-0.36988,51.42979],[-0.37066,51.42965],[-0.37088,51.42823],[-0.3715,51.42759],[-0.37542,51.42895],[-0.37565,51.42865],[-0.37718,51.42949],[-0.3789,51.42965],[-0.38034,51.43092],[-0.38023,51.43138],[-0.37894,51.43149],[-0.37843,51.43113],[-0.37872,51.43071],[-0.37757,51.43118],[-0.37768,51.43129],[-0.37717,51.43196],[-0.37533,51.43317],[-0.37636,51.43382],[-0.37887,51.43439],[-0.37612,51.43554],[-0.36956,51.4336],[-0.3674,51.43216],[-0.36859,51.43196]]]}},{"type":"Feature","properties":{"id":"E01003830","name":"E01003830","parent":"E09000027","type":"LSOA","pop":1948,"r":491,"ff":190,"ffd":9753.6,"ffs":0.468,"g":81,"co":0,"mo":3,"sa":0,"ic":0},"geometry":{"type":"Polygon","coordinates":[[[-0.36699,51.43281],[-0.36698,51.43226],[-0.36664,51.43229],[-0.36451,51.42959],[-0.36493,51.42921],[-0.36419,51.42903],[-0.3637,51.4285],[-0.36403,51.42819],[-0.36183,51.42717],[-0.36241,51.42541],[-0.36154,51.42443],[-0.36135,51.42333],[-0.36013,51.42209],[-0.36208,51.42272],[-0.36968,51.42317],[-0.36969,51.42369],[-0.36747,51.42343],[-0.3676,51.42412],[-0.36814,51.42431],[-0.36795,51.42492],[-0.36841,51.42485],[-0.36891,51.42535],[-0.37045,51.42531],[-0.37089,51.42582],[-0.37224,51.42589],[-0.37276,51.4271],[-0.37391,51.42685],[-0.37434,51.42719],[-0.37413,51.42813],[-0.3725,51.4275],[-0.37199,51.42746],[-0.37195,51.42776],[-0.3715,51.42759],[-0.37088,51.42823],[-0.37066,51.42965],[-0.36988,51.42979],[-0.36859,51.43196],[-0.3674,51.43216],[-0.36956,51.4336],[-0.36795,51.4334],[-0.36807,51.4332],[-0.36699,51.43281]]]}},{"type":"Feature","properties":{"id":"E01003831","name":"E01003831","parent":"E09000027","type":"LSOA","pop":1756,"r":539,"ff":200,"ffd":11389.5,"ffs":0.4464,"g":87,"co":0,"mo":3,"sa":0,"ic":0},"geometry":{"type":"Polygon","coordinates":[[[-0.37717,51.43196],[-0.37768,51.43129],[-0.37757,51.43118],[-0.37872,51.43071],[-0.37843,51.43113],[-0.37894,51.43149],[-0.38023,51.43138],[-0.38034,51.43092],[-0.3789,51.42965],[-0.37718,51.42949],[-0.37565,51.42865],[-0.37542,51.42895],[-0.37195,51.42776],[-0.37199,51.42746],[-0.37413,51.42813],[-0.37434,51.42719],[-0.37557,51.42788],[-0.37636,51.42777],[-0.37452,51.42677],[-0.37579,51.42596],[-0.37712,51.42702],[-0.3771,51.42783],[-0.37824,51.42807],[-0.3787,51.42856],[-0.37917,51.42798],[-0.37887,51.42709],[-0.37951,51.4269],[-0.3794,51.42736],[-0.38045,51.42705],[-0.38111,51.42732],[-0.38258,51.42719],[-0.38359,51.42802],[-0.3826,51.42864],[-0.38302,51.42963],[-0.38209,51.42994],[-0.38213,51.43028],[-0.38472,51.43115],[-0.38327,51.43214],[-0.37887,51.43439],[-0.37636,51.43382],[-0.37533,51.43317],[-0.37717,51.43196]]]}},{"type":"Feature","properties":{"id":"E01003832","name":"E01003832","parent":"E09000027","type":"LSOA","pop":1544,"r":465,"ff":182,"ffd":11787.6,"ffs":0.4777,"g":80,"co":0,"mo":3,"sa":0,"ic":0},"geometry":{"type":"Polygon","coordinates":[[[-0.3841,51.4268],[-0.38348,51.42603],[-0.3803,51.42625],[-0.38025,51.42546],[-0.38038,51.4252],[-0.38113,51.42488],[-0.38306,51.42448],[-0.38358,51.42486],[-0.38516,51.42392],[-0.38836,51.428],[-0.38713,51.42818],[-0.38796,51.42864],[-0.38682,51.42971],[-0.38472,51.43115],[-0.38213,51.43028],[-0.38209,51.42994],[-0.38302,51.42963],[-0.3826,51.42864],[-0.38359,51.42802],[-0.38258,51.42719],[-0.3841,51.4268]]]}},{"type":"Feature","properties":{"id":"E01003833","name":"E01003833","parent":"E09000027","type":"LSOA","pop":1483,"r":479,"ff":176,"ffd":11867.8,"ffs":0.4467,"g":81,"co":0,"mo":3,"sa":0,"ic":0},"geometry":{"type":"Polygon","coordinates":[[[-0.37712,51.42702],[-0.37579,51.42596],[-0.37471,51.42433],[-0.37598,51.42413],[-0.37622,51.42469],[-0.37712,51.42425],[-0.37696,51.42404],[-0.37739,51.42363],[-0.38083,51.42352],[-0.38082,51.42308],[-0.38118,51.42305],[-0.38218,51.42407],[-0.38312,51.42345],[-0.38416,51.4233],[-0.3844,51.42403],[-0.3838,51.42449],[-0.38401,51.42471],[-0.38358,51.42486],[-0.38306,51.42448],[-0.38113,51.42488],[-0.38038,51.4252],[-0.38025,51.42546],[-0.3803,51.42625],[-0.38348,51.42603],[-0.3841,51.4268],[-0.38258,51.42719],[-0.38111,51.42732],[-0.38045,51.42705],[-0.3794,51.42736],[-0.37951,51.4269],[-0.37887,51.42709],[-0.37917,51.42798],[-0.3787,51.42856],[-0.37824,51.42807],[-0.3771,51.42783],[-0.37712,51.42702]]]}},{"type":"Feature","properties":{"id":"E01003834","name":"E01003834","parent":"E09000027","type":"LSOA","pop":1559,"r":448,"ff":181,"ffd":11610.0,"ffs":0.4973,"g":83,"co":0,"mo":2,"sa":0,"ic":0},"geometry":{"type":"Polygon","coordinates":[[[-0.31025,51.41891],[-0.31001,51.41837],[-0.30855,51.41862],[-0.30683,51.41844],[-0.30842,51.41467],[-0.30907,51.40926],[-0.30869,51.40296],[-0.30923,51.40063],[-0.31213,51.39814],[-0.31593,51.39883],[-0.3151,51.39984],[-0.3185,51.40089],[-0.31707,51.40609],[-0.31297,51.40937],[-0.31217,51.41034],[-0.31263,51.41084],[-0.31763,51.40935],[-0.31865,51.41076],[-0.31693,51.41105],[-0.31767,51.41435],[-0.3142,51.41346],[-0.31352,51.41291],[-0.314,51.4125],[-0.31379,51.41229],[-0.31115,51.41282],[-0.31181,51.41353],[-0.31255,51.4132],[-0.31444,51.41408],[-0.31588,51.41414],[-0.3147,51.41476],[-0.31441,51.41413],[-0.31369,51.41422],[-0.31432,51.41487],[-0.31382,51.41468],[-0.31264,51.4151],[-0.31263,51.4161],[-0.3122,51.41627],[-0.3123,51.41647],[-0.31285,51.41631],[-0.31282,51.41696],[-0.3135,51.4169],[-0.31456,51.41803],[-0.31025,51.41891]]]}},{"type":"Feature","properties":{"id":"E01003835","name":"E01003835","parent":"E09000027","type":"LSOA","pop":1609,"r":431,"ff":167,"ffd":10379.1,"ffs":0.4718,"g":75,"co":0,"mo":2,"sa":0,"ic":0},"geometry":{"type":"Polygon","coordinates":[[[-0.31687,51.42923],[-0.31343,51.42783],[-0.31619,51.42578],[-0.31382,51.42422],[-0.31424,51.42406],[-0.31396,51.42337],[-0.31459,51.42299],[-0.31455,51.42247],[-0.3156,51.42207],[-0.31448,51.42081],[-0.31489,51.42038],[-0.31857,51.4209],[-0.31816,51.42107],[-0.31812,51.42166],[-0.31862,51.42165],[-0.31916,51.42219],[-0.31946,51.42283],[-0.31879,51.42272],[-0.31772,51.42313],[-0.31794,51.42341],[-0.31743,51.4236],[-0.31814,51.4243],[-0.32015,51.42359],[-0.32081,51.4238],[-0.32124,51.42364],[-0.32303,51.42585],[-0.32125,51.426],[-0.32104,51.42701],[-0.32014,51.4276],[-0.32162,51.42831],[-0.32123,51.42814],[-0.31999,51.4294],[-0.31849,51.42909],[-0.31835,51.42947],[-0.31687,51.42923]]]}},{"type":"Feature","properties":{"id":"E01003836","name":"E01003836","parent":"E09000027","type":"LSOA","pop":1372,"r":461,"ff":185,"ffd":13484.0,"ffs":0.4843,"g":77,"co":0,"mo":2,"sa":0,"ic":0},"geometry":{"type":"Polygon","coordinates":[[[-0.32104,51.42701],[-0.32125,51.426],[-0.32303,51.42585],[-0.32124,51.42364],[-0.32081,51.4238],[-0.32015,51.42359],[-0.31814,51.4243],[-0.31743,51.4236],[-0.31794,51.42341],[-0.31772,51.42313],[-0.31879,51.42272],[-0.31946,51.42283],[-0.32029,51.42262],[-0.32091,51.42324],[-0.3216,51.423],[-0.3202,51.42159],[-0.3204,51.42114],[-0.32063,51.42135],[-0.32219,51.42088],[-0.32329,51.42296],[-0.32367,51.42274],[-0.3256,51.42528],[-0.32646,51.42498],[-0.32651,51.42407],[-0.32771,51.42364],[-0.32837,51.42371],[-0.3283,51.42703],[-0.327,51.42721],[-0.32665,51.42669],[-0.3256,51.42695],[-0.32578,51.42725],[-0.32524,51.42741],[-0.32488,51.42683],[-0.32344,51.4272],[-0.32361,51.42847],[-0.3227,51.42895],[-0.32014,51.4276],[-0.32104,51.42701]]]}},{"type":"Feature","properties":{"id":"E01003837","name":"E01003837","parent":"E09000027","type":"LSOA","pop":2069,"r":414,"ff":158,"ffd":7636.5,"ffs":0.4716,"g":77,"co":0,"mo":2,"sa":0,"ic":0},"geometry":{"type":"Polygon","coordinates":[[[-0.30663,51.4199],[-0.30683,51.41844],[-0.30855,51.41862],[-0.31001,51.41837],[-0.31025,51.41891],[-0.31565,51.41795],[-0.31666,51.419],[-0.31501,51.41962],[-0.31489,51.42038],[-0.31448,51.42081],[-0.3156,51.42207],[-0.31455,51.42247],[-0.31459,51.42299],[-0.31396,51.42337],[-0.31424,51.42406],[-0.31382,51.42422],[-0.31619,51.42578],[-0.31343,51.42783],[-0.30975,51.42602],[-0.30798,51.42463],[-0.30624,51.42218],[-0.30601,51.42123],[-0.30663,51.4199]]]}},{"type":"Feature","properties":{"id":"E01003838","name":"E01003838","parent":"E09000027","type":"LSOA","pop":1654,"r":433,"ff":168,"ffd":10157.2,"ffs":0.48,"g":81,"co":0,"mo":2,"sa":0,"ic":0},"geometry":{"type":"Polygon","coordinates":[[[-0.3256,51.42528],[-0.32367,51.42274],[-0.32329,51.42296],[-0.32219,51.42088],[-0.32063,51.42135],[-0.3204,51.42114],[-0.3202,51.42159],[-0.3216,51.423],[-0.32091,51.42324],[-0.32029,51.42262],[-0.31946,51.42283],[-0.31916,51.42219],[-0.31862,51.42165],[-0.31812,51.42166],[-0.31816,51.42107],[-0.31857,51.4209],[-0.31489,51.42038],[-0.31501,51.41962],[-0.31666,51.419],[-0.31727,51.4196],[-0.31779,51.4194],[-0.31761,51.41906],[-0.3185,51.41871],[-0.31964,51.41885],[-0.31974,51.41791],[-0.32939,51.4223],[-0.32946,51.42296],[-0.32854,51.42308],[-0.32837,51.42371],[-0.32771,51.42364],[-0.32651,51.42407],[-0.32646,51.42498],[-0.3256,51.42528]]]}},{"type":"Feature","properties":{"id":"E01003839","name":"E01003839","parent":"E09000027","type":"LSOA","pop":2241,"r":439,"ff":172,"ffd":7675.1,"ffs":0.4873,"g":84,"co":0,"mo":2,"sa":0,"ic":0},"geometry":{"type":"Polygon","coordinates":[[[-0.31666,51.419],[-0.31565,51.41795],[-0.31456,51.41803],[-0.3135,51.4169],[-0.31282,51.41696],[-0.31285,51.41631],[-0.3123,51.41647],[-0.3122,51.41627],[-0.31263,51.4161],[-0.31264,51.4151],[-0.31382,51.41468],[-0.31432,51.41487],[-0.31369,51.41422],[-0.31441,51.41413],[-0.3147,51.41476],[-0.31588,51.41414],[-0.31444,51.41408],[-0.31255,51.4132],[-0.31181,51.41353],[-0.31115,51.41282],[-0.31379,51.41229],[-0.314,51.4125],[-0.31352,51.41291],[-0.3142,51.41346],[-0.3185,51.41466],[-0.31883,51.41578],[-0.31968,51.41664],[-0.32109,51.41737],[-0.32028,51.41815],[-0.31974,51.41791],[-0.31964,51.41885],[-0.3185,51.41871],[-0.31761,51.41906],[-0.31779,51.4194],[-0.31727,51.4196],[-0.31666,51.419]]]}},{"type":"Feature","properties":{"id":"E01003840","name":"E01003840","parent":"E09000027","type":"LSOA","pop":1899,"r":632,"ff":237,"ffd":12480.3,"ffs":0.4389,"g":89,"co":0,"mo":2,"sa":0,"ic":0},"geometry":{"type":"Polygon","coordinates":[[[-0.37303,51.45744],[-0.37272,51.457],[-0.37235,51.4572],[-0.36859,51.45687],[-0.36811,51.45717],[-0.36792,51.45607],[-0.36792,51.45408],[-0.36767,51.45287],[-0.37052,51.45425],[-0.37135,51.45528],[-0.37334,51.45342],[-0.37507,51.45244],[-0.37749,51.45213],[-0.37439,51.45521],[-0.37531,51.45616],[-0.37303,51.45744]]]}},{"type":"Feature","properties":{"id":"E01003841","name":"E01003841","parent":"E09000027","type":"LSOA","pop":2295,"r":568,"ff":210,"ffd":9150.3,"ffs":0.4375,"g":85,"co":0,"mo":2,"sa":0,"ic":0},"geometry":{"type":"Polygon","coordinates":[[[-0.37183,51.4498],[-0.37334,51.44897],[-0.3729,51.44856],[-0.37558,51.44825],[-0.37429,51.44772],[-0.3746,51.44741],[-0.37954,51.44932],[-0.38055,51.44841],[-0.38105,51.44861],[-0.37943,51.45023],[-0.38008,51.45155],[-0.38081,51.45183],[-0.37531,51.45616],[-0.37439,51.45521],[-0.37749,51.45213],[-0.36843,51.451],[-0.37208,51.45057],[-0.37183,51.4498]]]}},{"type":"Feature","properties":{"id":"E01003842","name":"E01003842","parent":"E09000027","type":"LSOA","pop":1751,"r":616,"ff":225,"ffd":12849.8,"ffs":0.4335,"g":93,"co":0,"mo":2,"sa":0,"ic":0},"geometry":{"type":"Polygon","coordinates":[[[-0.36355,51.44465],[-0.36539,51.44427],[-0.36545,51.44455],[-0.36616,51.44406],[-0.3675,51.4446],[-0.36721,51.44489],[-0.37558,51.44825],[-0.3729,51.44856],[-0.37334,51.44897],[-0.37183,51.4498],[-0.37208,51.45057],[-0.36843,51.451],[-0.36278,51.45019],[-0.36299,51.44967],[-0.3631,51.44794],[-0.36435,51.44679],[-0.36407,51.44569],[-0.36355,51.44465]]]}},{"type":"Feature","properties":{"id":"E01003843","name":"E01003843","parent":"E09000027","type":"LSOA","pop":2235,"r":583,"ff":217,"ffd":9709.2,"ffs":0.4438,"g":91,"co":0,"mo":2,"sa":0,"ic":0},"geometry":{"type":"Polygon","coordinates":[[[-0.37943,51.45023],[-0.38105,51.44861],[-0.38055,51.44841],[-0.37954,51.44932],[-0.3746,51.44741],[-0.37563,51.44642],[-0.37654,51.44677],[-0.37679,51.44653],[-0.37725,51.44666],[-0.37847,51.4455],[-0.38073,51.44637],[-0.381,51.44611],[-0.38009,51.44575],[-0.3814,51.4448],[-0.38285,51.44505],[-0.38625,51.44673],[-0.38633,51.44825],[-0.38778,51.44943],[-0.38455,51.44989],[-0.38377,51.44951],[-0.38081,51.45183],[-0.38008,51.45155],[-0.37943,51.45023]]]}},{"type":"Feature","properties":{"id":"E01003844","name":"E01003844","parent":"E09000027","type":"LSOA","pop":1487,"r":642,"ff":234,"ffd":15736.4,"ffs":0.4374,"g":103,"co":0,"mo":2,"sa":0,"ic":0},"geometry":{"type":"Polygon","coordinates":[[[-0.36193,51.44387],[-0.36295,51.44346],[-0.36407,51.44569],[-0.36435,51.44679],[-0.3631,51.44794],[-0.36299,51.44967],[-0.36278,51.45019],[-0.35295,51.44882],[-0.35674,51.44712],[-0.36015,51.44468],[-0.36193,51.44387]]]}},{"type":"Feature","properties":{"id":"E01003845","name":"E01003845","parent":"E09000027","type":"LSOA","pop":1821,"r":562,"ff":205,"ffd":11257.6,"ffs":0.4316,"g":84,"co":0,"mo":2,"sa":0,"ic":0},"geometry":{"type":"Polygon","coordinates":[[[-0.37097,51.4464],[-0.36721,51.44489],[-0.3675,51.4446],[-0.36616,51.44406],[-0.36545,51.44455],[-0.36539,51.44427],[-0.36355,51.44465],[-0.36295,51.44346],[-0.36708,51.44171],[-0.3725,51.44354],[-0.37332,51.44361],[-0.37393,51.44302],[-0.37639,51.44303],[-0.37712,51.44248],[-0.378,51.44244],[-0.3795,51.4431],[-0.37977,51.44439],[-0.3814,51.4448],[-0.38009,51.44575],[-0.381,51.44611],[-0.38073,51.44637],[-0.37847,51.4455],[-0.37725,51.44666],[-0.37679,51.44653],[-0.37654,51.44677],[-0.37563,51.44642],[-0.37429,51.44772],[-0.37097,51.4464]]]}},{"type":"Feature","properties":{"id":"E01003846","name":"E01003846","parent":"E09000027","type":"LSOA","pop":1699,"r":532,"ff":174,"ffd":10241.3,"ffs":0.4143,"g":111,"co":0,"mo":0,"sa":0,"ic":0},"geometry":{"type":"Polygon","coordinates":[[[-0.2836,51.48089],[-0.28306,51.4804],[-0.28272,51.48077],[-0.28214,51.48021],[-0.28131,51.48064],[-0.2799,51.47915],[-0.28057,51.47867],[-0.28065,51.47828],[-0.27907,51.47692],[-0.2807,51.47601],[-0.27977,51.47542],[-0.27977,51.47489],[-0.28242,51.47554],[-0.28342,51.47243],[-0.28404,51.47254],[-0.28451,51.47338],[-0.2843,51.47404],[-0.28515,51.4748],[-0.28428,51.47668],[-0.28477,51.47683],[-0.28439,51.47698],[-0.28543,51.47714],[-0.28547,51.47828],[-0.28598,51.47809],[-0.28642,51.47875],[-0.28426,51.48077],[-0.2836,51.48089]]]}},{"type":"Feature","properties":{"id":"E01003847","name":"E01003847","parent":"E09000027","type":"LSOA","pop":1756,"r":581,"ff":198,"ffd":11275.6,"ffs":0.4267,"g":115,"co":0,"mo":0,"sa":0,"ic":0},"geometry":{"type":"MultiPolygon","coordinates":[[[[-0.29479,51.48598],[-0.29742,51.48457],[-0.29641,51.48561],[-0.29479,51.48598]]],[[[-0.29063,51.48607],[-0.28996,51.48506],[-0.28738,51.4852],[-0.28685,51.48301],[-0.28623,51.48299],[-0.28608,51.48257],[-0.28714,51.48177],[-0.28643,51.48172],[-0.2855,51.48116],[-0.28536,51.48164],[-0.2836,51.48089],[-0.28426,51.48077],[-0.28642,51.47875],[-0.28598,51.47809],[-0.28547,51.47828],[-0.28543,51.47714],[-0.28439,51.47698],[-0.28477,51.47683],[-0.28428,51.47668],[-0.28458,51.47578],[-0.28671,51.47604],[-0.28676,51.47697],[-0.28979,51.47731],[-0.29024,51.47687],[-0.29093,51.47696],[-0.29103,51.47671],[-0.28862,51.47574],[-0.28866,51.4754],[-0.2894,51.47545],[-0.28985,51.47488],[-0.29037,51.47498],[-0.29021,51.47542],[-0.29102,51.47537],[-0.29133,51.47481],[-0.29104,51.47457],[-0.29204,51.47462],[-0.29355,51.47045],[-0.29796,51.4708],[-0.30214,51.4722],[-0.30538,51.47225],[-0.31006,51.47347],[-0.3068,51.47493],[-0.30258,51.47925],[-0.29526,51.48483],[-0.29063,51.48607]]],[[[-0.29425,51.48615],[-0.29453,51.48609],[-0.29436,51.48627],[-0.29425,51.48615]]]]}},{"type":"Feature","properties":{"id":"E01003848","name":"E01003848","parent":"E09000027","type":"LSOA","pop":1917,"r":191,"ff":74,"ffd":3860.2,"ffs":0.5034,"g":43,"co":0,"mo":0,"sa":0,"ic":0},"geometry":{"type":"Polygon","coordinates":[[[-0.28616,51.47276],[-0.28658,51.47078],[-0.28594,51.4707],[-0.2847,51.47098],[-0.28322,51.4693],[-0.28263,51.47233],[-0.28192,51.47189],[-0.28286,51.46899],[-0.28204,51.4689],[-0.28207,51.46866],[-0.28054,51.46901],[-0.28026,51.46853],[-0.28303,51.46792],[-0.28815,51.46778],[-0.28773,51.46835],[-0.28854,51.46869],[-0.28824,51.46896],[-0.29035,51.47001],[-0.28985,51.47183],[-0.28865,51.47201],[-0.28746,51.47189],[-0.2872,51.47305],[-0.28607,51.47311],[-0.28616,51.47276]]]}},{"type":"Feature","properties":{"id":"E01003849","name":"E01003849","parent":"E09000027","type":"LSOA","pop":1573,"r":519,"ff":173,"ffd":10998.1,"ffs":0.424,"g":109,"co":0,"mo":0,"sa":0,"ic":0},"geometry":{"type":"Polygon","coordinates":[[[-0.28676,51.47697],[-0.28671,51.47604],[-0.28458,51.47578],[-0.28515,51.4748],[-0.2843,51.47404],[-0.28451,51.47338],[-0.28544,51.47264],[-0.28616,51.47276],[-0.28607,51.47311],[-0.28666,51.47317],[-0.2872,51.47305],[-0.28746,51.47189],[-0.28865,51.47201],[-0.28985,51.47183],[-0.29035,51.47001],[-0.28824,51.46896],[-0.28854,51.46869],[-0.29089,51.46985],[-0.28974,51.47385],[-0.29221,51.47421],[-0.29204,51.47462],[-0.29104,51.47457],[-0.29133,51.47481],[-0.29102,51.47537],[-0.29021,51.47542],[-0.29037,51.47498],[-0.28985,51.47488],[-0.2894,51.47545],[-0.28866,51.4754],[-0.28862,51.47574],[-0.29103,51.47671],[-0.29093,51.47696],[-0.29024,51.47687],[-0.28979,51.47731],[-0.28676,51.47697]]]}},{"type":"Feature","properties":{"id":"E01003851","name":"E01003851","parent":"E09000027","type":"LSOA","pop":1559,"r":590,"ff":206,"ffd":13213.6,"ffs":0.4292,"g":109,"co":0,"mo":0,"sa":0,"ic":0},"geometry":{"type":"MultiPolygon","coordinates":[[[[-0.28729,51.4865],[-0.28443,51.4859],[-0.28,51.4835],[-0.28212,51.48136],[-0.28131,51.48064],[-0.28214,51.48021],[-0.28272,51.48077],[-0.28306,51.4804],[-0.2836,51.48089],[-0.28536,51.48164],[-0.2855,51.48116],[-0.28643,51.48172],[-0.28714,51.48177],[-0.28608,51.48257],[-0.28623,51.48299],[-0.28685,51.48301],[-0.28738,51.4852],[-0.28996,51.48506],[-0.29063,51.48607],[-0.29233,51.48567],[-0.29,51.48634],[-0.28729,51.4865]]],[[[-0.29395,51.4862],[-0.29436,51.48627],[-0.29188,51.48703],[-0.28989,51.48717],[-0.29395,51.4862]]]]}},{"type":"Feature","properties":{"id":"E01003852","name":"E01003852","parent":"E09000027","type":"LSOA","pop":1378,"r":491,"ff":154,"ffd":11175.6,"ffs":0.4118,"g":113,"co":0,"mo":2,"sa":0,"ic":0},"geometry":{"type":"Polygon","coordinates":[[[-0.23292,51.47168],[-0.23331,51.46757],[-0.23281,51.46663],[-0.23363,51.46604],[-0.23318,51.46397],[-0.23521,51.46437],[-0.24395,51.46523],[-0.24911,51.46506],[-0.24915,51.46545],[-0.25086,51.46619],[-0.25063,51.46755],[-0.25023,51.46793],[-0.24801,51.46779],[-0.24795,51.46834],[-0.24721,51.46872],[-0.24599,51.46813],[-0.24371,51.46962],[-0.2446,51.47028],[-0.24338,51.47108],[-0.24216,51.47045],[-0.2406,51.47077],[-0.24021,51.47008],[-0.24091,51.46995],[-0.24092,51.46961],[-0.23961,51.46956],[-0.23985,51.47011],[-0.23954,51.47035],[-0.23783,51.46992],[-0.23737,51.47026],[-0.23691,51.4718],[-0.23292,51.47168]]]}},{"type":"Feature","properties":{"id":"E01003853","name":"E01003853","parent":"E09000027","type":"LSOA","pop":1428,"r":390,"ff":118,"ffd":8263.3,"ffs":0.4027,"g":95,"co":0,"mo":2,"sa":0,"ic":0},"geometry":{"type":"Polygon","coordinates":[[[-0.24209,51.47244],[-0.24155,51.47154],[-0.23691,51.4718],[-0.23737,51.47026],[-0.23783,51.46992],[-0.23954,51.47035],[-0.23985,51.47011],[-0.23961,51.46956],[-0.24092,51.46961],[-0.24091,51.46995],[-0.24021,51.47008],[-0.2406,51.47077],[-0.24216,51.47045],[-0.24338,51.47108],[-0.2446,51.47028],[-0.24371,51.46962],[-0.24599,51.46813],[-0.24721,51.46872],[-0.24795,51.46834],[-0.24801,51.46779],[-0.25074,51.46795],[-0.25109,51.46832],[-0.2506,51.46923],[-0.24993,51.46957],[-0.24957,51.46927],[-0.24869,51.46961],[-0.24915,51.46991],[-0.24839,51.47024],[-0.24892,51.47033],[-0.24856,51.47053],[-0.24924,51.47105],[-0.24883,51.47139],[-0.24999,51.47095],[-0.25027,51.47114],[-0.24603,51.47269],[-0.24692,51.47353],[-0.24323,51.47436],[-0.24209,51.47244]]]}},{"type":"Feature","properties":{"id":"E01003854","name":"E01003854","parent":"E09000027","type":"LSOA","pop":1447,"r":376,"ff":110,"ffd":7601.9,"ffs":0.3887,"g":91,"co":0,"mo":2,"sa":0,"ic":0},"geometry":{"type":"Polygon","coordinates":[[[-0.24952,51.47375],[-0.24757,51.4733],[-0.24692,51.47353],[-0.24603,51.47269],[-0.25027,51.47114],[-0.25071,51.47137],[-0.25124,51.47107],[-0.25015,51.47049],[-0.2524,51.46992],[-0.25258,51.4701],[-0.25467,51.4695],[-0.25467,51.4698],[-0.25319,51.47015],[-0.25306,51.47045],[-0.25568,51.4708],[-0.25599,51.47109],[-0.25338,51.47223],[-0.25148,51.47363],[-0.24952,51.47375]]]}},{"type":"Feature","properties":{"id":"E01003855","name":"E01003855","parent":"E09000027","type":"LSOA","pop":1966,"r":481,"ff":151,"ffd":7680.6,"ffs":0.407,"g":109,"co":0,"mo":0,"sa":0,"ic":0},"geometry":{"type":"Polygon","coordinates":[[[-0.26783,51.47123],[-0.26403,51.47022],[-0.2619,51.47027],[-0.26223,51.46986],[-0.26177,51.46982],[-0.26199,51.46944],[-0.26179,51.4692],[-0.26195,51.46806],[-0.26298,51.46802],[-0.26287,51.46905],[-0.2638,51.46937],[-0.26352,51.4678],[-0.26728,51.46805],[-0.2709,51.4677],[-0.27118,51.46848],[-0.27184,51.46868],[-0.27414,51.46881],[-0.27612,51.46927],[-0.27449,51.47012],[-0.27051,51.47271],[-0.26783,51.47123]]]}},{"type":"Feature","properties":{"id":"E01003856","name":"E01003856","parent":"E09000027","type":"LSOA","pop":1705,"r":427,"ff":141,"ffd":8269.8,"ffs":0.4312,"g":98,"co":0,"mo":2,"sa":0,"ic":0},"geometry":{"type":"Polygon","coordinates":[[[-0.25824,51.46797],[-0.25818,51.46778],[-0.25959,51.46763],[-0.26352,51.4678],[-0.2638,51.46937],[-0.26287,51.46905],[-0.26298,51.46802],[-0.26195,51.46806],[-0.26179,51.4692],[-0.26199,51.46944],[-0.26177,51.46982],[-0.26223,51.46986],[-0.2619,51.47027],[-0.25855,51.47043],[-0.25599,51.47109],[-0.25568,51.4708],[-0.25617,51.47023],[-0.25698,51.46995],[-0.25626,51.46819],[-0.25824,51.46797]]]}},{"type":"Feature","properties":{"id":"E01003857","name":"E01003857","parent":"E09000027","type":"LSOA","pop":1867,"r":371,"ff":110,"ffd":5891.8,"ffs":0.4029,"g":96,"co":0,"mo":2,"sa":0,"ic":0},"geometry":{"type":"Polygon","coordinates":[[[-0.24924,51.47105],[-0.24856,51.47053],[-0.24892,51.47033],[-0.24839,51.47024],[-0.24915,51.46991],[-0.24869,51.46961],[-0.24957,51.46927],[-0.24993,51.46957],[-0.2506,51.46923],[-0.25109,51.46832],[-0.25074,51.46795],[-0.25023,51.46793],[-0.25063,51.46755],[-0.25086,51.46619],[-0.24915,51.46545],[-0.24911,51.46506],[-0.25452,51.4652],[-0.2538,51.46572],[-0.2541,51.46598],[-0.25375,51.46609],[-0.25367,51.46722],[-0.25455,51.4685],[-0.25421,51.46859],[-0.25442,51.46886],[-0.25222,51.46974],[-0.2524,51.46992],[-0.25015,51.47049],[-0.25124,51.47107],[-0.25071,51.47137],[-0.24999,51.47095],[-0.24883,51.47139],[-0.24924,51.47105]]]}},{"type":"Feature","properties":{"id":"E01003858","name":"E01003858","parent":"E09000027","type":"LSOA","pop":1654,"r":414,"ff":132,"ffd":7980.7,"ffs":0.4217,"g":99,"co":0,"mo":2,"sa":0,"ic":0},"geometry":{"type":"Polygon","coordinates":[[[-0.25467,51.4698],[-0.25467,51.4695],[-0.25258,51.4701],[-0.25222,51.46974],[-0.25442,51.46886],[-0.25421,51.46859],[-0.25455,51.4685],[-0.25367,51.46722],[-0.25375,51.46609],[-0.2541,51.46598],[-0.2538,51.46572],[-0.25452,51.4652],[-0.2581,51.46511],[-0.2584,51.46657],[-0.25905,51.46651],[-0.25962,51.46773],[-0.25818,51.46778],[-0.25824,51.46797],[-0.25626,51.46819],[-0.25698,51.46995],[-0.25617,51.47023],[-0.25568,51.4708],[-0.25306,51.47045],[-0.25319,51.47015],[-0.25467,51.4698]]]}},{"type":"Feature","properties":{"id":"E01003859","name":"E01003859","parent":"E09000027","type":"LSOA","pop":1627,"r":450,"ff":140,"ffd":8604.8,"ffs":0.407,"g":103,"co":0,"mo":0,"sa":0,"ic":0},"geometry":{"type":"Polygon","coordinates":[[[-0.27189,51.46681],[-0.27196,51.4664],[-0.27156,51.46643],[-0.27149,51.46608],[-0.27198,51.46605],[-0.27171,51.46416],[-0.27814,51.46428],[-0.28242,51.4633],[-0.28215,51.46387],[-0.28013,51.46433],[-0.2804,51.46584],[-0.27981,51.46593],[-0.27985,51.46696],[-0.27775,51.46712],[-0.27749,51.46671],[-0.27151,51.46759],[-0.27148,51.46681],[-0.27189,51.46681]]]}},{"type":"Feature","properties":{"id":"E01003860","name":"E01003860","parent":"E09000027","type":"LSOA","pop":1722,"r":191,"ff":74,"ffd":4297.3,"ffs":0.5034,"g":43,"co":0,"mo":0,"sa":0,"ic":0},"geometry":{"type":"Polygon","coordinates":[[[-0.29596,51.46865],[-0.29584,51.46781],[-0.29409,51.46907],[-0.2937,51.46873],[-0.29417,51.46832],[-0.29281,51.46666],[-0.29339,51.46652],[-0.29406,51.46762],[-0.29465,51.46785],[-0.2963,51.46661],[-0.2972,51.46674],[-0.29705,51.46637],[-0.29735,51.46613],[-0.29683,51.46582],[-0.2979,51.4655],[-0.29788,51.46516],[-0.29694,51.46423],[-0.29962,51.46345],[-0.30003,51.46386],[-0.30107,51.46418],[-0.30047,51.46454],[-0.30063,51.46477],[-0.30325,51.46484],[-0.30691,51.46416],[-0.31134,51.46243],[-0.31379,51.4607],[-0.31693,51.46247],[-0.31977,51.46467],[-0.31921,51.46844],[-0.31858,51.47021],[-0.31772,51.471],[-0.3146,51.47179],[-0.31006,51.47347],[-0.30538,51.47225],[-0.30214,51.4722],[-0.29796,51.4708],[-0.29702,51.46928],[-0.29596,51.46865]]]}},{"type":"Feature","properties":{"id":"E01003861","name":"E01003861","parent":"E09000027","type":"LSOA","pop":2009,"r":592,"ff":203,"ffd":10104.5,"ffs":0.4194,"g":106,"co":0,"mo":0,"sa":0,"ic":0},"geometry":{"type":"Polygon","coordinates":[[[-0.29406,51.46762],[-0.29339,51.46652],[-0.29281,51.46666],[-0.2925,51.46616],[-0.29193,51.46599],[-0.29154,51.4662],[-0.2918,51.46656],[-0.28847,51.46755],[-0.28856,51.46504],[-0.29096,51.46467],[-0.29072,51.46398],[-0.29181,51.46396],[-0.29193,51.46454],[-0.29894,51.46334],[-0.29962,51.46345],[-0.29694,51.46423],[-0.29788,51.46516],[-0.2979,51.4655],[-0.29683,51.46582],[-0.29735,51.46613],[-0.29705,51.46637],[-0.2972,51.46674],[-0.2963,51.46661],[-0.29465,51.46785],[-0.29406,51.46762]]]}},{"type":"Feature","properties":{"id":"E01003862","name":"E01003862","parent":"E09000027","type":"LSOA","pop":1927,"r":489,"ff":158,"ffd":8199.3,"ffs":0.4169,"g":108,"co":0,"mo":0,"sa":0,"ic":0},"geometry":{"type":"Polygon","coordinates":[[[-0.28263,51.46798],[-0.28247,51.46718],[-0.28006,51.46752],[-0.27981,51.46593],[-0.2804,51.46584],[-0.28013,51.46433],[-0.28215,51.46387],[-0.28242,51.4633],[-0.2865,51.46188],[-0.28677,51.46222],[-0.28438,51.46327],[-0.28435,51.46403],[-0.28347,51.4638],[-0.28389,51.46575],[-0.28856,51.46505],[-0.28847,51.46755],[-0.28815,51.46778],[-0.2875,51.46784],[-0.28458,51.46777],[-0.28263,51.46798]]]}},{"type":"Feature","properties":{"id":"E01003863","name":"E01003863","parent":"E09000027","type":"LSOA","pop":1434,"r":465,"ff":160,"ffd":11157.6,"ffs":0.4457,"g":104,"co":0,"mo":0,"sa":0,"ic":0},"geometry":{"type":"Polygon","coordinates":[[[-0.28373,51.46525],[-0.28347,51.4638],[-0.28435,51.46403],[-0.28438,51.46327],[-0.28677,51.46222],[-0.2865,51.46188],[-0.28827,51.46174],[-0.29345,51.46225],[-0.29405,51.46261],[-0.29356,51.46282],[-0.29435,51.46401],[-0.29193,51.46454],[-0.29181,51.46396],[-0.29072,51.46398],[-0.29096,51.46467],[-0.28389,51.46575],[-0.28373,51.46525]]]}},{"type":"Feature","properties":{"id":"E01003864","name":"E01003864","parent":"E09000027","type":"LSOA","pop":1523,"r":581,"ff":197,"ffd":12935.0,"ffs":0.4183,"g":108,"co":0,"mo":0,"sa":0,"ic":0},"geometry":{"type":"Polygon","coordinates":[[[-0.2907,51.47066],[-0.29089,51.46985],[-0.28773,51.46835],[-0.28847,51.46755],[-0.2918,51.46656],[-0.29154,51.4662],[-0.29193,51.46599],[-0.2925,51.46616],[-0.29417,51.46832],[-0.2937,51.46873],[-0.29409,51.46907],[-0.29584,51.46781],[-0.29596,51.46865],[-0.29702,51.46928],[-0.29796,51.4708],[-0.29355,51.47045],[-0.29221,51.47421],[-0.28974,51.47385],[-0.2907,51.47066]]]}},{"type":"Feature","properties":{"id":"E01003865","name":"E01003865","parent":"E09000027","type":"LSOA","pop":1472,"r":530,"ff":170,"ffd":11548.9,"ffs":0.4126,"g":117,"co":0,"mo":0,"sa":0,"ic":0},"geometry":{"type":"Polygon","coordinates":[[[-0.27151,51.46759],[-0.27749,51.46671],[-0.27775,51.46712],[-0.27985,51.46696],[-0.28006,51.46752],[-0.28247,51.46718],[-0.28263,51.46798],[-0.27612,51.46927],[-0.27414,51.46881],[-0.27184,51.46868],[-0.27118,51.46848],[-0.2709,51.4677],[-0.27151,51.46759]]]}},{"type":"Feature","properties":{"id":"E01003866","name":"E01003866","parent":"E09000027","type":"LSOA","pop":1664,"r":487,"ff":170,"ffd":10216.3,"ffs":0.4218,"g":81,"co":0,"mo":0,"sa":0,"ic":0},"geometry":{"type":"Polygon","coordinates":[[[-0.32335,51.46043],[-0.32333,51.46006],[-0.32269,51.46018],[-0.32272,51.45893],[-0.32344,51.4588],[-0.32335,51.45756],[-0.32276,51.45746],[-0.32265,51.45717],[-0.32371,51.45714],[-0.32283,51.45662],[-0.32215,51.45668],[-0.32137,51.45588],[-0.32197,51.45557],[-0.32211,51.45491],[-0.32295,51.45474],[-0.32314,51.455],[-0.32547,51.45453],[-0.32565,51.45486],[-0.32732,51.45506],[-0.32697,51.45607],[-0.32613,51.45592],[-0.32585,51.45648],[-0.32638,51.45658],[-0.32639,51.45688],[-0.32689,51.45704],[-0.3256,51.45798],[-0.32645,51.45936],[-0.32626,51.45982],[-0.32335,51.46043]]]}},{"type":"Feature","properties":{"id":"E01003867","name":"E01003867","parent":"E09000027","type":"LSOA","pop":1626,"r":624,"ff":231,"ffd":14206.6,"ffs":0.4375,"g":92,"co":0,"mo":2,"sa":0,"ic":0},"geometry":{"type":"Polygon","coordinates":[[[-0.34061,51.45726],[-0.3391,51.45609],[-0.33869,51.45619],[-0.33777,51.45548],[-0.33739,51.45474],[-0.33696,51.45463],[-0.336,51.45561],[-0.33353,51.45526],[-0.3326,51.4557],[-0.33109,51.45595],[-0.33061,51.45562],[-0.33095,51.45542],[-0.33077,51.45498],[-0.33291,51.45448],[-0.33365,51.45401],[-0.33057,51.45414],[-0.3306,51.4535],[-0.33167,51.4534],[-0.33167,51.45263],[-0.3312,51.4527],[-0.33079,51.45236],[-0.33111,51.45195],[-0.33144,51.4523],[-0.33319,51.45197],[-0.33368,51.45238],[-0.33353,51.45286],[-0.33424,51.45331],[-0.33572,51.45357],[-0.33603,51.45424],[-0.33687,51.45399],[-0.33722,51.45345],[-0.33583,51.45291],[-0.33976,51.45274],[-0.34009,51.4523],[-0.33932,51.45127],[-0.34072,51.45099],[-0.34271,51.45132],[-0.34313,51.45099],[-0.34383,51.45127],[-0.34395,51.45215],[-0.34445,51.45236],[-0.3446,51.45334],[-0.34416,51.45615],[-0.34266,51.45811],[-0.3415,51.45909],[-0.34005,51.45929],[-0.34061,51.45726]]]}},{"type":"Feature","properties":{"id":"E01003868","name":"E01003868","parent":"E09000027","type":"LSOA","pop":1618,"r":552,"ff":194,"ffd":11990.1,"ffs":0.4254,"g":92,"co":0,"mo":0,"sa":0,"ic":0},"geometry":{"type":"Polygon","coordinates":[[[-0.32094,51.45607],[-0.32005,51.45532],[-0.3193,51.45587],[-0.31882,51.45532],[-0.3176,51.45487],[-0.31742,51.45429],[-0.31687,51.45425],[-0.31732,51.45397],[-0.31695,51.4537],[-0.31866,51.45289],[-0.32168,51.45185],[-0.32207,51.45244],[-0.32242,51.45381],[-0.32351,51.45315],[-0.32464,51.45348],[-0.32477,51.45403],[-0.32289,51.45445],[-0.32295,51.45474],[-0.32211,51.45491],[-0.32197,51.45557],[-0.32137,51.45588],[-0.32215,51.45668],[-0.32209,51.45705],[-0.32094,51.45607]]]}},{"type":"Feature","properties":{"id":"E01003869","name":"E01003869","parent":"E09000027","type":"LSOA","pop":1807,"r":590,"ff":214,"ffd":11842.8,"ffs":0.4315,"g":90,"co":0,"mo":0,"sa":0,"ic":0},"geometry":{"type":"Polygon","coordinates":[[[-0.32839,51.45795],[-0.32725,51.45698],[-0.32639,51.45688],[-0.32638,51.45658],[-0.32585,51.45648],[-0.32613,51.45592],[-0.32697,51.45607],[-0.32732,51.45506],[-0.32565,51.45486],[-0.32547,51.45453],[-0.32314,51.455],[-0.32289,51.45445],[-0.32477,51.45403],[-0.32464,51.45348],[-0.32351,51.45315],[-0.32593,51.45176],[-0.33065,51.44994],[-0.33181,51.45136],[-0.33079,51.45236],[-0.3312,51.4527],[-0.33167,51.45263],[-0.33167,51.4534],[-0.3306,51.4535],[-0.33057,51.45414],[-0.33365,51.45401],[-0.33291,51.45448],[-0.33077,51.45498],[-0.33095,51.45542],[-0.33061,51.45562],[-0.33109,51.45595],[-0.3326,51.4557],[-0.33232,51.45638],[-0.33066,51.45774],[-0.32976,51.45797],[-0.32839,51.45795]]]}},{"type":"Feature","properties":{"id":"E01003870","name":"E01003870","parent":"E09000027","type":"LSOA","pop":2121,"r":580,"ff":206,"ffd":9712.4,"ffs":0.4239,"g":90,"co":0,"mo":2,"sa":0,"ic":0},"geometry":{"type":"Polygon","coordinates":[[[-0.33368,51.45238],[-0.33319,51.45197],[-0.33144,51.4523],[-0.33111,51.45195],[-0.33181,51.45136],[-0.33065,51.44994],[-0.33444,51.44883],[-0.33907,51.44806],[-0.34269,51.44785],[-0.34616,51.44795],[-0.34445,51.45236],[-0.34395,51.45215],[-0.34383,51.45127],[-0.34313,51.45099],[-0.34271,51.45132],[-0.34072,51.45099],[-0.33932,51.45127],[-0.34009,51.4523],[-0.33976,51.45274],[-0.33583,51.45291],[-0.33722,51.45345],[-0.33687,51.45399],[-0.33603,51.45424],[-0.33572,51.45357],[-0.33424,51.45331],[-0.33353,51.45286],[-0.33368,51.45238]]]}},{"type":"Feature","properties":{"id":"E01003871","name":"E01003871","parent":"E09000027","type":"LSOA","pop":1741,"r":601,"ff":224,"ffd":12866.2,"ffs":0.4427,"g":92,"co":0,"mo":0,"sa":0,"ic":0},"geometry":{"type":"MultiPolygon","coordinates":[[[[-0.32549,51.46344],[-0.32565,51.46322],[-0.32559,51.46334],[-0.32549,51.46344]]],[[[-0.31984,51.46277],[-0.32012,51.46175],[-0.32112,51.46185],[-0.32146,51.4614],[-0.3212,51.46078],[-0.32182,51.46025],[-0.32226,51.46071],[-0.32301,51.46082],[-0.32335,51.46043],[-0.32626,51.45982],[-0.32661,51.46021],[-0.32633,51.46081],[-0.32681,51.46132],[-0.32647,51.46192],[-0.32399,51.46498],[-0.32322,51.46532],[-0.32174,51.46536],[-0.31941,51.4631],[-0.31984,51.46277]]],[[[-0.32219,51.46541],[-0.32332,51.46534],[-0.32319,51.46541],[-0.32219,51.46541]]]]}},{"type":"Feature","properties":{"id":"E01003872","name":"E01003872","parent":"E09000027","type":"LSOA","pop":1598,"r":613,"ff":221,"ffd":13829.8,"ffs":0.4342,"g":101,"co":0,"mo":0,"sa":0,"ic":0},"geometry":{"type":"Polygon","coordinates":[[[-0.31896,51.46266],[-0.31399,51.45971],[-0.31876,51.45624],[-0.31844,51.45605],[-0.31714,51.45602],[-0.31687,51.45425],[-0.31742,51.45429],[-0.3176,51.45487],[-0.31882,51.45532],[-0.3193,51.45587],[-0.32005,51.45532],[-0.32209,51.45705],[-0.32215,51.45668],[-0.32283,51.45662],[-0.32371,51.45714],[-0.32265,51.45717],[-0.32276,51.45746],[-0.32335,51.45756],[-0.32344,51.4588],[-0.32272,51.45893],[-0.32269,51.46018],[-0.32333,51.46006],[-0.32335,51.46043],[-0.32301,51.46082],[-0.32226,51.46071],[-0.32182,51.46025],[-0.3212,51.46078],[-0.32146,51.4614],[-0.32112,51.46185],[-0.32012,51.46175],[-0.31984,51.46277],[-0.31941,51.4631],[-0.31896,51.46266]]]}},{"type":"Feature","properties":{"id":"E01003873","name":"E01003873","parent":"E09000027","type":"LSOA","pop":1690,"r":529,"ff":182,"ffd":10769.2,"ffs":0.4282,"g":101,"co":0,"mo":0,"sa":0,"ic":0},"geometry":{"type":"Polygon","coordinates":[[[-0.29962,51.46345],[-0.29894,51.46334],[-0.2953,51.46401],[-0.29435,51.46401],[-0.29356,51.46282],[-0.29453,51.46254],[-0.29515,51.46294],[-0.29616,51.46231],[-0.29746,51.46188],[-0.29803,51.46203],[-0.29844,51.46192],[-0.29808,51.46147],[-0.29677,51.46164],[-0.2959,51.45975],[-0.29551,51.4597],[-0.29581,51.45889],[-0.29627,51.4596],[-0.29722,51.45934],[-0.29765,51.45967],[-0.29839,51.45941],[-0.29898,51.45974],[-0.29943,51.45957],[-0.29866,51.45884],[-0.29945,51.45892],[-0.29988,51.45866],[-0.30073,51.45956],[-0.30023,51.45974],[-0.30045,51.46001],[-0.30147,51.45976],[-0.30173,51.46021],[-0.30022,51.46068],[-0.29967,51.46103],[-0.30152,51.46121],[-0.30145,51.46148],[-0.30236,51.46295],[-0.30107,51.46418],[-0.30003,51.46386],[-0.29962,51.46345]]]}},{"type":"Feature","properties":{"id":"E01003874","name":"E01003874","parent":"E09000027","type":"LSOA","pop":1535,"r":440,"ff":151,"ffd":9837.1,"ffs":0.4377,"g":92,"co":0,"mo":0,"sa":0,"ic":0},"geometry":{"type":"Polygon","coordinates":[[[-0.29515,51.46294],[-0.29453,51.46254],[-0.29405,51.46261],[-0.29345,51.46225],[-0.29333,51.46174],[-0.29203,51.4617],[-0.29189,51.46077],[-0.29221,51.46076],[-0.291,51.46059],[-0.29087,51.46019],[-0.29196,51.45996],[-0.29202,51.45901],[-0.29336,51.4594],[-0.2937,51.45832],[-0.29532,51.45802],[-0.29535,51.4575],[-0.29602,51.45732],[-0.29671,51.4595],[-0.29627,51.4596],[-0.29581,51.45889],[-0.29551,51.4597],[-0.2959,51.45975],[-0.29677,51.46164],[-0.29808,51.46147],[-0.29844,51.46192],[-0.29803,51.46203],[-0.29746,51.46188],[-0.29616,51.46231],[-0.29515,51.46294]]]}},{"type":"Feature","properties":{"id":"E01003875","name":"E01003875","parent":"E09000027","type":"LSOA","pop":1659,"r":457,"ff":156,"ffd":9403.3,"ffs":0.4407,"g":101,"co":0,"mo":2,"sa":0,"ic":0},"geometry":{"type":"Polygon","coordinates":[[[-0.2782,51.4618],[-0.27763,51.46157],[-0.27805,51.4612],[-0.27808,51.46031],[-0.2788,51.46035],[-0.27895,51.45914],[-0.28042,51.4598],[-0.28076,51.45909],[-0.28309,51.45767],[-0.28263,51.45645],[-0.28533,51.45683],[-0.28931,51.45822],[-0.28932,51.4588],[-0.29074,51.45725],[-0.29133,51.4576],[-0.29109,51.45787],[-0.29247,51.45802],[-0.29202,51.45901],[-0.29196,51.45996],[-0.29087,51.46019],[-0.291,51.46059],[-0.29221,51.46076],[-0.29189,51.46077],[-0.29203,51.4617],[-0.29333,51.46174],[-0.29345,51.46225],[-0.28827,51.46174],[-0.2865,51.46188],[-0.28242,51.4633],[-0.27814,51.46428],[-0.2782,51.4618]]]}},{"type":"Feature","properties":{"id":"E01003876","name":"E01003876","parent":"E09000027","type":"LSOA","pop":1863,"r":463,"ff":156,"ffd":8373.6,"ffs":0.4216,"g":90,"co":0,"mo":0,"sa":0,"ic":0},"geometry":{"type":"Polygon","coordinates":[[[-0.30219,51.4585],[-0.30292,51.458],[-0.30358,51.45817],[-0.304,51.45786],[-0.30328,51.45741],[-0.30369,51.45668],[-0.3043,51.45724],[-0.30469,51.45705],[-0.30446,51.45671],[-0.30504,51.45646],[-0.30799,51.45881],[-0.31379,51.4607],[-0.31134,51.46243],[-0.30691,51.46416],[-0.30325,51.46484],[-0.30063,51.46477],[-0.30047,51.46454],[-0.30236,51.46295],[-0.30145,51.46148],[-0.30152,51.46121],[-0.29967,51.46103],[-0.30022,51.46068],[-0.30173,51.46021],[-0.30116,51.45858],[-0.30219,51.4585]]]}},{"type":"Feature","properties":{"id":"E01003877","name":"E01003877","parent":"E09000027","type":"LSOA","pop":1397,"r":471,"ff":168,"ffd":12025.8,"ffs":0.4565,"g":100,"co":0,"mo":0,"sa":0,"ic":0},"geometry":{"type":"Polygon","coordinates":[[[-0.30073,51.45956],[-0.29988,51.45866],[-0.29945,51.45892],[-0.29866,51.45884],[-0.29943,51.45957],[-0.29898,51.45974],[-0.29839,51.45941],[-0.29765,51.45967],[-0.29722,51.45934],[-0.29671,51.4595],[-0.29602,51.45732],[-0.29535,51.4575],[-0.29532,51.45802],[-0.2937,51.45832],[-0.2923,51.45728],[-0.29351,51.45621],[-0.29436,51.45643],[-0.29525,51.45608],[-0.29602,51.45637],[-0.29698,51.45642],[-0.29767,51.45693],[-0.29791,51.4575],[-0.29852,51.45765],[-0.29945,51.45757],[-0.29999,51.45807],[-0.30044,51.45795],[-0.29958,51.45724],[-0.30142,51.45618],[-0.30176,51.45628],[-0.30191,51.45676],[-0.30307,51.45755],[-0.30328,51.45741],[-0.304,51.45786],[-0.30358,51.45817],[-0.30292,51.458],[-0.30219,51.4585],[-0.30116,51.45858],[-0.30147,51.45976],[-0.30045,51.46001],[-0.30023,51.45974],[-0.30073,51.45956]]]}},{"type":"Feature","properties":{"id":"E01003878","name":"E01003878","parent":"E09000027","type":"LSOA","pop":1481,"r":451,"ff":162,"ffd":10938.6,"ffs":0.4615,"g":98,"co":0,"mo":0,"sa":0,"ic":0},"geometry":{"type":"Polygon","coordinates":[[[-0.29133,51.4576],[-0.29074,51.45725],[-0.28932,51.4588],[-0.28931,51.45822],[-0.28533,51.45683],[-0.28263,51.45645],[-0.28309,51.45767],[-0.28076,51.45909],[-0.27762,51.45669],[-0.27762,51.4527],[-0.2778,51.45222],[-0.28219,51.45169],[-0.28269,51.44945],[-0.28552,51.44879],[-0.29062,51.44899],[-0.29609,51.45013],[-0.29493,51.45135],[-0.2956,51.45175],[-0.29372,51.45425],[-0.29321,51.45393],[-0.29162,51.45441],[-0.29323,51.45487],[-0.29281,51.45535],[-0.29372,51.45571],[-0.29351,51.45621],[-0.2923,51.45728],[-0.2937,51.45832],[-0.29336,51.4594],[-0.29202,51.45901],[-0.29247,51.45802],[-0.29109,51.45787],[-0.29133,51.4576]]]}},{"type":"Feature","properties":{"id":"E01003879","name":"E01003879","parent":"E09000027","type":"LSOA","pop":1356,"r":465,"ff":170,"ffd":12536.9,"ffs":0.4709,"g":101,"co":0,"mo":0,"sa":0,"ic":0},"geometry":{"type":"Polygon","coordinates":[[[-0.29999,51.45807],[-0.29945,51.45757],[-0.29852,51.45765],[-0.29791,51.4575],[-0.29767,51.45693],[-0.29698,51.45642],[-0.29602,51.45637],[-0.29525,51.45608],[-0.29436,51.45643],[-0.29351,51.45621],[-0.29372,51.45571],[-0.29281,51.45535],[-0.29323,51.45487],[-0.29162,51.45441],[-0.29321,51.45393],[-0.29372,51.45425],[-0.2956,51.45175],[-0.29608,51.45154],[-0.29916,51.45432],[-0.29806,51.45474],[-0.3008,51.45659],[-0.29958,51.45724],[-0.30044,51.45795],[-0.29999,51.45807]]]}},{"type":"Feature","properties":{"id":"E01003880","name":"E01003880","parent":"E09000027","type":"LSOA","pop":1526,"r":528,"ff":203,"ffd":13302.8,"ffs":0.4624,"g":85,"co":0,"mo":2,"sa":0,"ic":0},"geometry":{"type":"MultiPolygon","coordinates":[[[[-0.33119,51.43957],[-0.33067,51.43889],[-0.33148,51.43935],[-0.33119,51.43957]]],[[[-0.32986,51.44493],[-0.33218,51.44168],[-0.33138,51.44156],[-0.33163,51.44126],[-0.33121,51.43974],[-0.33184,51.43917],[-0.33058,51.43847],[-0.32963,51.43734],[-0.33101,51.43678],[-0.33123,51.43726],[-0.33173,51.43713],[-0.33197,51.43637],[-0.33338,51.43784],[-0.33371,51.43913],[-0.33305,51.43939],[-0.334,51.43945],[-0.33443,51.43904],[-0.33584,51.43886],[-0.33634,51.43928],[-0.33554,51.4394],[-0.33554,51.43977],[-0.3374,51.43942],[-0.33767,51.44143],[-0.33914,51.44124],[-0.33909,51.44212],[-0.33533,51.44268],[-0.33204,51.44257],[-0.33152,51.44333],[-0.33253,51.44355],[-0.33106,51.44378],[-0.3305,51.44478],[-0.32986,51.44493]]]]}},{"type":"Feature","properties":{"id":"E01003881","name":"E01003881","parent":"E09000027","type":"LSOA","pop":1682,"r":502,"ff":198,"ffd":11771.7,"ffs":0.4806,"g":86,"co":0,"mo":2,"sa":0,"ic":0},"geometry":{"type":"Polygon","coordinates":[[[-0.33371,51.43913],[-0.33338,51.43784],[-0.33197,51.43637],[-0.33173,51.43713],[-0.33123,51.43726],[-0.33101,51.43678],[-0.32963,51.43734],[-0.32907,51.43666],[-0.32845,51.4339],[-0.32961,51.43369],[-0.3296,51.43396],[-0.3381,51.4337],[-0.33865,51.43299],[-0.33974,51.43358],[-0.33952,51.43723],[-0.33723,51.43705],[-0.33676,51.4377],[-0.33623,51.43763],[-0.336,51.43798],[-0.33684,51.43918],[-0.33634,51.43928],[-0.33584,51.43886],[-0.33443,51.43904],[-0.334,51.43945],[-0.33305,51.43939],[-0.33371,51.43913]]]}},{"type":"Feature","properties":{"id":"E01003882","name":"E01003882","parent":"E09000027","type":"LSOA","pop":2079,"r":483,"ff":168,"ffd":8080.8,"ffs":0.42,"g":80,"co":0,"mo":2,"sa":0,"ic":0},"geometry":{"type":"Polygon","coordinates":[[[-0.33463,51.44721],[-0.3338,51.44526],[-0.33219,51.44521],[-0.33005,51.44551],[-0.32986,51.44493],[-0.3305,51.44478],[-0.33106,51.44378],[-0.33253,51.44355],[-0.33152,51.44333],[-0.33204,51.44257],[-0.33533,51.44268],[-0.33583,51.44304],[-0.33712,51.4428],[-0.33754,51.44529],[-0.33871,51.44506],[-0.33882,51.44573],[-0.33846,51.44568],[-0.33821,51.44749],[-0.33778,51.4472],[-0.3359,51.44729],[-0.33649,51.44841],[-0.33444,51.44883],[-0.3337,51.44753],[-0.33463,51.44721]]]}},{"type":"Feature","properties":{"id":"E01003883","name":"E01003883","parent":"E09000027","type":"LSOA","pop":1970,"r":642,"ff":234,"ffd":11878.2,"ffs":0.4374,"g":103,"co":0,"mo":2,"sa":0,"ic":0},"geometry":{"type":"Polygon","coordinates":[[[-0.33649,51.44841],[-0.3359,51.44729],[-0.33778,51.4472],[-0.33821,51.44749],[-0.33846,51.44568],[-0.34109,51.44613],[-0.3416,51.44658],[-0.34182,51.44606],[-0.34223,51.44602],[-0.34214,51.4457],[-0.34034,51.44553],[-0.33982,51.44522],[-0.34057,51.44484],[-0.34136,51.44501],[-0.34238,51.44454],[-0.34228,51.44438],[-0.34444,51.44426],[-0.34534,51.44494],[-0.34516,51.44525],[-0.34526,51.44538],[-0.3474,51.44691],[-0.34616,51.44795],[-0.33996,51.44797],[-0.33649,51.44841]]]}},{"type":"Feature","properties":{"id":"E01003884","name":"E01003884","parent":"E09000027","type":"LSOA","pop":1708,"r":553,"ff":201,"ffd":11768.1,"ffs":0.4323,"g":84,"co":0,"mo":2,"sa":0,"ic":0},"geometry":{"type":"Polygon","coordinates":[[[-0.33882,51.44571],[-0.33871,51.44506],[-0.33754,51.44529],[-0.33712,51.4428],[-0.33583,51.44304],[-0.33533,51.44268],[-0.33909,51.44212],[-0.33914,51.44124],[-0.33767,51.44143],[-0.3374,51.43942],[-0.33554,51.43977],[-0.33554,51.4394],[-0.33684,51.43918],[-0.336,51.43798],[-0.33623,51.43763],[-0.33676,51.4377],[-0.33723,51.43705],[-0.34031,51.4372],[-0.34089,51.43814],[-0.34042,51.43837],[-0.34057,51.43863],[-0.34004,51.43872],[-0.3402,51.43837],[-0.33959,51.4379],[-0.3393,51.43964],[-0.33983,51.43996],[-0.34024,51.43977],[-0.34039,51.43891],[-0.34123,51.43877],[-0.34202,51.43904],[-0.34193,51.4384],[-0.34291,51.43844],[-0.34477,51.43889],[-0.34464,51.4393],[-0.3438,51.43934],[-0.34322,51.44027],[-0.34204,51.44047],[-0.34246,51.44085],[-0.34213,51.44157],[-0.34135,51.44189],[-0.34058,51.44158],[-0.34063,51.44228],[-0.34205,51.44239],[-0.34209,51.44313],[-0.341,51.44382],[-0.34029,51.44363],[-0.33915,51.44429],[-0.33938,51.44486],[-0.3402,51.44449],[-0.34022,51.44472],[-0.34228,51.44438],[-0.34238,51.44454],[-0.34136,51.44501],[-0.34057,51.44484],[-0.33982,51.44522],[-0.34034,51.44553],[-0.34214,51.4457],[-0.34223,51.44602],[-0.34182,51.44606],[-0.3416,51.44658],[-0.34109,51.44613],[-0.33882,51.44571]]]}},{"type":"Feature","properties":{"id":"E01003885","name":"E01003885","parent":"E09000027","type":"LSOA","pop":1531,"r":566,"ff":205,"ffd":13389.9,"ffs":0.4298,"g":85,"co":0,"mo":2,"sa":0,"ic":0},"geometry":{"type":"Polygon","coordinates":[[[-0.33938,51.44486],[-0.33915,51.44429],[-0.34029,51.44363],[-0.341,51.44382],[-0.34209,51.44313],[-0.34205,51.44239],[-0.34063,51.44228],[-0.34058,51.44158],[-0.34135,51.44189],[-0.34213,51.44157],[-0.34246,51.44085],[-0.34204,51.44047],[-0.34322,51.44027],[-0.3438,51.43934],[-0.34464,51.4393],[-0.34477,51.43889],[-0.34291,51.43844],[-0.34193,51.4384],[-0.34202,51.43904],[-0.34123,51.43877],[-0.34039,51.43891],[-0.34024,51.43977],[-0.33983,51.43996],[-0.3393,51.43964],[-0.33959,51.4379],[-0.3402,51.43837],[-0.34004,51.43872],[-0.34057,51.43863],[-0.34042,51.43837],[-0.34089,51.43814],[-0.34031,51.4372],[-0.33952,51.43723],[-0.33977,51.43364],[-0.34072,51.43453],[-0.34211,51.43505],[-0.34345,51.43515],[-0.3466,51.43452],[-0.34721,51.4354],[-0.35073,51.43609],[-0.34854,51.43895],[-0.34577,51.44112],[-0.34303,51.44254],[-0.34475,51.44424],[-0.34022,51.44472],[-0.3402,51.44449],[-0.33938,51.44486]]]}},{"type":"Feature","properties":{"id":"E01003886","name":"E01003886","parent":"E09000027","type":"LSOA","pop":1605,"r":515,"ff":207,"ffd":12897.2,"ffs":0.4882,"g":88,"co":0,"mo":2,"sa":0,"ic":0},"geometry":{"type":"Polygon","coordinates":[[[-0.33245,51.43093],[-0.33286,51.43037],[-0.3323,51.43043],[-0.33174,51.43112],[-0.33129,51.4309],[-0.33331,51.42917],[-0.3324,51.42892],[-0.33156,51.42904],[-0.33169,51.42954],[-0.33045,51.42996],[-0.33022,51.42963],[-0.3297,51.42985],[-0.32837,51.42805],[-0.32922,51.42785],[-0.32992,51.42864],[-0.33126,51.42812],[-0.33141,51.42692],[-0.33289,51.42682],[-0.33347,51.42701],[-0.3344,51.42653],[-0.33609,51.42606],[-0.33728,51.42644],[-0.33719,51.42717],[-0.33767,51.4271],[-0.33818,51.42757],[-0.33783,51.42782],[-0.33846,51.42898],[-0.33792,51.42903],[-0.33754,51.42838],[-0.33635,51.42872],[-0.33635,51.42916],[-0.33561,51.42902],[-0.33655,51.42999],[-0.33391,51.43147],[-0.33245,51.43093]]]}},{"type":"Feature","properties":{"id":"E01003887","name":"E01003887","parent":"E09000027","type":"LSOA","pop":1791,"r":486,"ff":192,"ffd":10720.3,"ffs":0.4788,"g":82,"co":0,"mo":2,"sa":0,"ic":0},"geometry":{"type":"Polygon","coordinates":[[[-0.32992,51.42864],[-0.32922,51.42785],[-0.32837,51.42805],[-0.32804,51.42754],[-0.32712,51.42753],[-0.327,51.42721],[-0.3283,51.42703],[-0.32837,51.42371],[-0.32854,51.42308],[-0.32946,51.42296],[-0.32939,51.4223],[-0.33148,51.42367],[-0.33267,51.42537],[-0.33305,51.42521],[-0.33367,51.42553],[-0.33293,51.42478],[-0.33344,51.42417],[-0.33419,51.42417],[-0.33436,51.42455],[-0.33563,51.42419],[-0.33635,51.42455],[-0.33708,51.42415],[-0.33739,51.42435],[-0.33709,51.42475],[-0.33796,51.42497],[-0.33668,51.42517],[-0.3369,51.42571],[-0.33538,51.42551],[-0.33523,51.42578],[-0.33609,51.42606],[-0.3344,51.42653],[-0.33347,51.42701],[-0.33289,51.42682],[-0.33141,51.42692],[-0.33126,51.42812],[-0.32992,51.42864]]]}},{"type":"Feature","properties":{"id":"E01003888","name":"E01003888","parent":"E09000027","type":"LSOA","pop":2044,"r":540,"ff":216,"ffd":10567.5,"ffs":0.4843,"g":90,"co":0,"mo":2,"sa":0,"ic":0},"geometry":{"type":"Polygon","coordinates":[[[-0.33818,51.42757],[-0.33767,51.4271],[-0.33719,51.42717],[-0.33728,51.42644],[-0.33523,51.42578],[-0.33538,51.42551],[-0.3369,51.42571],[-0.33668,51.42517],[-0.33796,51.42497],[-0.33709,51.42475],[-0.33739,51.42435],[-0.33708,51.42415],[-0.33635,51.42455],[-0.33563,51.42419],[-0.33476,51.42451],[-0.33489,51.42246],[-0.3365,51.42268],[-0.33672,51.42299],[-0.33707,51.42285],[-0.33888,51.42369],[-0.33829,51.42404],[-0.33977,51.42398],[-0.33905,51.42318],[-0.33993,51.42251],[-0.33935,51.42085],[-0.33839,51.42068],[-0.33897,51.41898],[-0.33708,51.41759],[-0.33959,51.41668],[-0.34529,51.41773],[-0.35237,51.41977],[-0.35249,51.42052],[-0.34995,51.42169],[-0.34766,51.4213],[-0.34526,51.42268],[-0.3461,51.42525],[-0.34529,51.42729],[-0.3399,51.42628],[-0.34232,51.42856],[-0.33936,51.4299],[-0.33846,51.42898],[-0.33783,51.42782],[-0.33818,51.42757]]]}},{"type":"Feature","properties":{"id":"E01003889","name":"E01003889","parent":"E09000027","type":"LSOA","pop":1645,"r":515,"ff":208,"ffd":12644.4,"ffs":0.4929,"g":90,"co":0,"mo":2,"sa":0,"ic":0},"geometry":{"type":"Polygon","coordinates":[[[-0.33367,51.42553],[-0.33305,51.42521],[-0.33267,51.42537],[-0.33148,51.42367],[-0.32953,51.42228],[-0.32028,51.41815],[-0.32109,51.41737],[-0.31968,51.41664],[-0.31883,51.41578],[-0.3185,51.41466],[-0.31767,51.41435],[-0.31693,51.41105],[-0.33542,51.40848],[-0.3365,51.40863],[-0.33477,51.40977],[-0.33501,51.41042],[-0.33589,51.41101],[-0.33731,51.41045],[-0.34021,51.41161],[-0.34177,51.41181],[-0.34259,51.41128],[-0.34609,51.41216],[-0.34654,51.4112],[-0.35146,51.41169],[-0.35104,51.41258],[-0.35281,51.41306],[-0.35204,51.4154],[-0.35353,51.41601],[-0.35339,51.41702],[-0.35211,51.41731],[-0.35237,51.41977],[-0.34529,51.41773],[-0.33959,51.41668],[-0.33708,51.41759],[-0.33897,51.41898],[-0.33839,51.42068],[-0.33935,51.42085],[-0.33993,51.42251],[-0.33905,51.42318],[-0.33977,51.42398],[-0.33829,51.42404],[-0.33888,51.42369],[-0.33707,51.42285],[-0.33672,51.42299],[-0.3365,51.42268],[-0.33489,51.42246],[-0.33476,51.42451],[-0.33436,51.42455],[-0.33419,51.42417],[-0.33344,51.42417],[-0.33293,51.42478],[-0.33367,51.42553]]]}},{"type":"Feature","properties":{"id":"E01003890","name":"E01003890","parent":"E09000027","type":"LSOA","pop":1637,"r":534,"ff":212,"ffd":12950.5,"ffs":0.4818,"g":90,"co":0,"mo":2,"sa":0,"ic":0},"geometry":{"type":"Polygon","coordinates":[[[-0.32992,51.43298],[-0.33051,51.43233],[-0.33186,51.43193],[-0.33174,51.43112],[-0.3323,51.43043],[-0.33286,51.43037],[-0.33245,51.43093],[-0.33391,51.43147],[-0.33655,51.42999],[-0.33561,51.42902],[-0.33635,51.42916],[-0.33635,51.42872],[-0.33754,51.42838],[-0.33792,51.42903],[-0.33714,51.42928],[-0.33901,51.43149],[-0.33974,51.43358],[-0.33865,51.43299],[-0.3381,51.4337],[-0.3296,51.43396],[-0.32964,51.43333],[-0.33045,51.43329],[-0.32992,51.43298]]]}},{"type":"Feature","properties":{"id":"E01003891","name":"E01003891","parent":"E09000027","type":"LSOA","pop":1926,"r":518,"ff":202,"ffd":10488.1,"ffs":0.472,"g":86,"co":0,"mo":2,"sa":0,"ic":0},"geometry":{"type":"Polygon","coordinates":[[[-0.32233,51.42989],[-0.31999,51.4294],[-0.32123,51.42814],[-0.3227,51.42895],[-0.32361,51.42847],[-0.32344,51.4272],[-0.32488,51.42683],[-0.32524,51.42741],[-0.32578,51.42725],[-0.3256,51.42695],[-0.32665,51.42669],[-0.32712,51.42753],[-0.32804,51.42754],[-0.32929,51.42949],[-0.3297,51.42985],[-0.33022,51.42963],[-0.33045,51.42996],[-0.33169,51.42954],[-0.33156,51.42904],[-0.3324,51.42892],[-0.33331,51.42917],[-0.33129,51.4309],[-0.33174,51.43112],[-0.33186,51.43193],[-0.33051,51.43233],[-0.32992,51.43298],[-0.33045,51.43329],[-0.32964,51.43333],[-0.32961,51.43369],[-0.32845,51.4339],[-0.32722,51.43243],[-0.32479,51.43085],[-0.32233,51.42989]]]}},{"type":"Feature","properties":{"id":"E01003892","name":"E01003892","parent":"E09000027","type":"LSOA","pop":2155,"r":433,"ff":143,"ffd":6635.7,"ffs":0.4109,"g":82,"co":0,"mo":0,"sa":0,"ic":0},"geometry":{"type":"Polygon","coordinates":[[[-0.30726,51.457],[-0.30595,51.45616],[-0.30389,51.45329],[-0.30435,51.45162],[-0.30563,51.45044],[-0.30885,51.44868],[-0.31092,51.44814],[-0.31229,51.44909],[-0.31413,51.45161],[-0.31287,51.45187],[-0.31316,51.45263],[-0.31257,51.4527],[-0.31129,51.45399],[-0.31138,51.45412],[-0.30993,51.45458],[-0.31032,51.45518],[-0.30839,51.45613],[-0.30865,51.45647],[-0.30774,51.45699],[-0.30804,51.45667],[-0.30726,51.457]]]}},{"type":"Feature","properties":{"id":"E01003893","name":"E01003893","parent":"E09000027","type":"LSOA","pop":1711,"r":482,"ff":163,"ffd":9526.6,"ffs":0.4116,"g":83,"co":0,"mo":0,"sa":0,"ic":0},"geometry":{"type":"MultiPolygon","coordinates":[[[[-0.30874,51.45816],[-0.30845,51.45779],[-0.30992,51.45852],[-0.30874,51.45816]]],[[[-0.31142,51.45883],[-0.31157,51.45855],[-0.31126,51.45877],[-0.30891,51.45755],[-0.30753,51.45721],[-0.30865,51.45647],[-0.30839,51.45613],[-0.31032,51.45518],[-0.30993,51.45458],[-0.31138,51.45412],[-0.31189,51.45447],[-0.31172,51.45529],[-0.31253,51.45537],[-0.31246,51.45597],[-0.31287,51.45638],[-0.31335,51.45635],[-0.31291,51.45703],[-0.31347,51.45732],[-0.31389,51.457],[-0.31428,51.45696],[-0.31404,51.45665],[-0.31438,51.4565],[-0.31385,51.45541],[-0.31443,51.45514],[-0.31516,51.45655],[-0.31581,51.45636],[-0.31523,51.45562],[-0.31544,51.45513],[-0.31592,51.45488],[-0.31617,51.45528],[-0.31693,51.4552],[-0.31714,51.45602],[-0.31844,51.45605],[-0.31876,51.45624],[-0.31399,51.45971],[-0.31142,51.45883]]]]}},{"type":"Feature","properties":{"id":"E01003894","name":"E01003894","parent":"E09000027","type":"LSOA","pop":1685,"r":528,"ff":188,"ffd":11157.3,"ffs":0.4302,"g":88,"co":0,"mo":0,"sa":0,"ic":0},"geometry":{"type":"Polygon","coordinates":[[[-0.31291,51.45703],[-0.31335,51.45635],[-0.31287,51.45638],[-0.31246,51.45597],[-0.31253,51.45537],[-0.31172,51.45529],[-0.31189,51.45447],[-0.31129,51.45399],[-0.31257,51.4527],[-0.31411,51.45237],[-0.31428,51.4528],[-0.31456,51.45225],[-0.31532,51.4526],[-0.31588,51.45193],[-0.31592,51.45226],[-0.31806,51.45191],[-0.31824,51.45224],[-0.3192,51.45221],[-0.31918,51.45165],[-0.32064,51.45143],[-0.32133,51.45196],[-0.31695,51.4537],[-0.31732,51.45397],[-0.31687,51.45425],[-0.31693,51.4552],[-0.31617,51.45528],[-0.31592,51.45488],[-0.31544,51.45513],[-0.31523,51.45562],[-0.31581,51.45636],[-0.31516,51.45655],[-0.31443,51.45514],[-0.31385,51.45541],[-0.31438,51.4565],[-0.31404,51.45665],[-0.31428,51.45696],[-0.31389,51.457],[-0.31347,51.45732],[-0.31291,51.45703]]]}},{"type":"Feature","properties":{"id":"E01003895","name":"E01003895","parent":"E09000027","type":"LSOA","pop":1694,"r":484,"ff":172,"ffd":10153.5,"ffs":0.4279,"g":79,"co":0,"mo":0,"sa":0,"ic":0},"geometry":{"type":"Polygon","coordinates":[[[-0.32207,51.45244],[-0.32168,51.45185],[-0.32133,51.45196],[-0.32064,51.45143],[-0.31918,51.45165],[-0.3192,51.45221],[-0.31824,51.45224],[-0.31806,51.45191],[-0.31592,51.45226],[-0.31588,51.45193],[-0.31532,51.4526],[-0.31456,51.45225],[-0.31428,51.4528],[-0.31411,51.45237],[-0.31316,51.45263],[-0.31287,51.45187],[-0.31413,51.45161],[-0.31229,51.44909],[-0.31092,51.44814],[-0.31521,51.44704],[-0.31565,51.44752],[-0.31888,51.44671],[-0.32077,51.44687],[-0.32189,51.44761],[-0.32197,51.44864],[-0.32273,51.44903],[-0.32177,51.4495],[-0.32213,51.45018],[-0.32298,51.44975],[-0.32413,51.44974],[-0.32439,51.44911],[-0.32559,51.45063],[-0.32674,51.45142],[-0.32242,51.45381],[-0.32207,51.45244]]]}},{"type":"Feature","properties":{"id":"E01003896","name":"E01003896","parent":"E09000027","type":"LSOA","pop":2097,"r":519,"ff":181,"ffd":8631.4,"ffs":0.418,"g":83,"co":0,"mo":0,"sa":0,"ic":0},"geometry":{"type":"MultiPolygon","coordinates":[[[[-0.32176,51.44583],[-0.32506,51.44478],[-0.32549,51.44504],[-0.32514,51.44475],[-0.32807,51.44397],[-0.32717,51.44495],[-0.32579,51.44572],[-0.32452,51.44575],[-0.32382,51.44606],[-0.32333,51.44582],[-0.32337,51.44604],[-0.32175,51.44624],[-0.32091,51.44613],[-0.32176,51.44583]]],[[[-0.32559,51.45063],[-0.32439,51.44911],[-0.32413,51.44974],[-0.32298,51.44975],[-0.32213,51.45018],[-0.32177,51.4495],[-0.32273,51.44903],[-0.32197,51.44864],[-0.32189,51.44761],[-0.32077,51.44687],[-0.31888,51.44671],[-0.31565,51.44752],[-0.31521,51.44704],[-0.31574,51.44691],[-0.3158,51.44666],[-0.3189,51.44643],[-0.3215,51.44686],[-0.32515,51.44653],[-0.32719,51.44564],[-0.33037,51.44296],[-0.33138,51.44156],[-0.33218,51.44168],[-0.32986,51.44493],[-0.33005,51.44551],[-0.32976,51.44625],[-0.32861,51.44751],[-0.32927,51.44848],[-0.32846,51.44865],[-0.32821,51.44776],[-0.32757,51.44726],[-0.32731,51.44832],[-0.32684,51.44789],[-0.32647,51.44813],[-0.32693,51.44899],[-0.32848,51.44928],[-0.32715,51.44988],[-0.3279,51.44989],[-0.32838,51.45026],[-0.32834,51.45078],[-0.32674,51.45142],[-0.32559,51.45063]]]]}},{"type":"Feature","properties":{"id":"E01003897","name":"E01003897","parent":"E09000027","type":"LSOA","pop":2041,"r":521,"ff":182,"ffd":8917.2,"ffs":0.4184,"g":82,"co":0,"mo":2,"sa":0,"ic":0},"geometry":{"type":"Polygon","coordinates":[[[-0.32838,51.45026],[-0.3279,51.44989],[-0.32715,51.44988],[-0.32848,51.44928],[-0.32693,51.44899],[-0.32647,51.44813],[-0.32684,51.44789],[-0.32731,51.44832],[-0.32757,51.44726],[-0.32821,51.44776],[-0.32846,51.44865],[-0.32927,51.44848],[-0.32861,51.44751],[-0.32976,51.44625],[-0.33005,51.44551],[-0.33219,51.44521],[-0.3338,51.44526],[-0.33463,51.44721],[-0.3337,51.44753],[-0.33444,51.44883],[-0.32834,51.45078],[-0.32838,51.45026]]]}},{"type":"Feature","properties":{"id":"E01003898","name":"E01003898","parent":"E09000027","type":"LSOA","pop":1767,"r":577,"ff":206,"ffd":11658.2,"ffs":0.4256,"g":89,"co":0,"mo":2,"sa":0,"ic":0},"geometry":{"type":"Polygon","coordinates":[[[-0.34475,51.44424],[-0.34303,51.44254],[-0.34577,51.44112],[-0.3489,51.43863],[-0.34923,51.43907],[-0.34823,51.43966],[-0.35016,51.44152],[-0.34991,51.44188],[-0.35042,51.4424],[-0.34872,51.443],[-0.34953,51.44402],[-0.34913,51.44411],[-0.34884,51.44381],[-0.34824,51.44399],[-0.34778,51.44424],[-0.34807,51.44459],[-0.34629,51.44516],[-0.34687,51.44536],[-0.34621,51.44569],[-0.34597,51.44527],[-0.34516,51.44525],[-0.34534,51.44494],[-0.34444,51.44426],[-0.34475,51.44424]]]}},{"type":"Feature","properties":{"id":"E01003899","name":"E01003899","parent":"E09000027","type":"LSOA","pop":1435,"r":592,"ff":215,"ffd":14982.6,"ffs":0.4335,"g":92,"co":0,"mo":2,"sa":0,"ic":0},"geometry":{"type":"Polygon","coordinates":[[[-0.35368,51.44471],[-0.35138,51.44309],[-0.35179,51.44279],[-0.35132,51.44254],[-0.34949,51.44325],[-0.34932,51.44288],[-0.35042,51.4424],[-0.34991,51.44188],[-0.35016,51.44152],[-0.34823,51.43966],[-0.34923,51.43907],[-0.3489,51.43863],[-0.34912,51.43832],[-0.35196,51.4409],[-0.35165,51.44115],[-0.35207,51.44156],[-0.3527,51.44153],[-0.3535,51.44011],[-0.35615,51.44002],[-0.35651,51.44033],[-0.35686,51.44022],[-0.35718,51.44053],[-0.35477,51.44154],[-0.3564,51.44262],[-0.35496,51.4439],[-0.3545,51.44349],[-0.35376,51.44358],[-0.35414,51.44397],[-0.35368,51.44471]]]}},{"type":"Feature","properties":{"id":"E01003900","name":"E01003900","parent":"E09000027","type":"LSOA","pop":1713,"r":588,"ff":216,"ffd":12609.5,"ffs":0.439,"g":92,"co":0,"mo":3,"sa":0,"ic":0},"geometry":{"type":"Polygon","coordinates":[[[-0.35196,51.4409],[-0.34912,51.43832],[-0.35073,51.43609],[-0.35202,51.43313],[-0.35558,51.43121],[-0.35617,51.43072],[-0.36353,51.43257],[-0.36196,51.43771],[-0.36102,51.43912],[-0.36173,51.4395],[-0.36028,51.43948],[-0.35651,51.44033],[-0.35615,51.44002],[-0.3535,51.44011],[-0.3527,51.44153],[-0.35207,51.44156],[-0.35165,51.44115],[-0.35196,51.4409]]]}},{"type":"Feature","properties":{"id":"E01003901","name":"E01003901","parent":"E09000027","type":"LSOA","pop":1872,"r":562,"ff":204,"ffd":10897.4,"ffs":0.434,"g":88,"co":0,"mo":2,"sa":0,"ic":0},"geometry":{"type":"Polygon","coordinates":[[[-0.35483,51.44551],[-0.35457,51.44529],[-0.35203,51.44663],[-0.35178,51.44617],[-0.35236,51.44553],[-0.35368,51.44471],[-0.35414,51.44397],[-0.35376,51.44358],[-0.3545,51.44349],[-0.35496,51.4439],[-0.3564,51.44262],[-0.36008,51.44155],[-0.36174,51.44189],[-0.36337,51.4416],[-0.36365,51.44251],[-0.36445,51.4428],[-0.36015,51.44468],[-0.35674,51.44712],[-0.3537,51.44849],[-0.35314,51.44812],[-0.35368,51.4479],[-0.353,51.44729],[-0.35399,51.44691],[-0.35334,51.44638],[-0.35483,51.44551]]]}},{"type":"Feature","properties":{"id":"E01003902","name":"E01003902","parent":"E09000027","type":"LSOA","pop":1385,"r":591,"ff":215,"ffd":15523.5,"ffs":0.4361,"g":94,"co":0,"mo":2,"sa":0,"ic":0},"geometry":{"type":"Polygon","coordinates":[[[-0.36365,51.44251],[-0.36337,51.4416],[-0.36174,51.44189],[-0.36008,51.44155],[-0.3564,51.44262],[-0.35477,51.44154],[-0.35718,51.44053],[-0.35686,51.44022],[-0.36028,51.43948],[-0.36173,51.4395],[-0.36367,51.43891],[-0.36384,51.4393],[-0.36327,51.43949],[-0.36456,51.44009],[-0.36409,51.44047],[-0.36454,51.44103],[-0.3648,51.44242],[-0.36528,51.44246],[-0.36445,51.4428],[-0.36365,51.44251]]]}},{"type":"Feature","properties":{"id":"E01003903","name":"E01003903","parent":"E09000027","type":"LSOA","pop":1647,"r":642,"ff":234,"ffd":14207.7,"ffs":0.4374,"g":103,"co":0,"mo":2,"sa":0,"ic":0},"geometry":{"type":"Polygon","coordinates":[[[-0.36384,51.4393],[-0.36367,51.43891],[-0.36173,51.4395],[-0.36102,51.43912],[-0.36196,51.43771],[-0.36353,51.43257],[-0.36956,51.4336],[-0.37612,51.43554],[-0.37791,51.43639],[-0.37787,51.4368],[-0.36528,51.44246],[-0.3648,51.44242],[-0.36454,51.44103],[-0.36409,51.44047],[-0.36456,51.44009],[-0.36327,51.43949],[-0.36384,51.4393]]]}},{"type":"Feature","properties":{"id":"E01003904","name":"E01003904","parent":"E09000027","type":"LSOA","pop":1626,"r":588,"ff":213,"ffd":13099.6,"ffs":0.4356,"g":95,"co":0,"mo":2,"sa":0,"ic":0},"geometry":{"type":"Polygon","coordinates":[[[-0.3474,51.44691],[-0.34516,51.44525],[-0.34597,51.44527],[-0.34621,51.44569],[-0.34687,51.44536],[-0.34629,51.44516],[-0.34807,51.44459],[-0.34778,51.44424],[-0.34824,51.44399],[-0.34884,51.44381],[-0.34913,51.44411],[-0.34953,51.44402],[-0.34872,51.443],[-0.34932,51.44288],[-0.34949,51.44325],[-0.35132,51.44254],[-0.35179,51.44279],[-0.35138,51.44309],[-0.35368,51.44471],[-0.35236,51.44553],[-0.35178,51.44617],[-0.35203,51.44663],[-0.35457,51.44529],[-0.35483,51.44551],[-0.35334,51.44638],[-0.35399,51.44691],[-0.353,51.44729],[-0.35368,51.4479],[-0.35314,51.44812],[-0.3537,51.44849],[-0.35295,51.44882],[-0.34616,51.44795],[-0.3474,51.44691]]]}},{"type":"Feature","properties":{"id":"E01003905","name":"E01003905","parent":"E09000027","type":"LSOA","pop":1302,"r":611,"ff":233,"ffd":17895.5,"ffs":0.4481,"g":88,"co":0,"mo":2,"sa":0,"ic":0},"geometry":{"type":"Polygon","coordinates":[[[-0.35271,51.45689],[-0.348,51.45676],[-0.34667,51.45723],[-0.34564,51.45733],[-0.34502,51.45787],[-0.34266,51.45811],[-0.34416,51.45615],[-0.3446,51.45334],[-0.3519,51.45344],[-0.35192,51.4531],[-0.3558,51.45297],[-0.35603,51.45369],[-0.35749,51.45332],[-0.35751,51.45372],[-0.35514,51.45441],[-0.35514,51.4551],[-0.35374,51.45564],[-0.35767,51.45645],[-0.35747,51.45674],[-0.35595,51.45685],[-0.35612,51.4584],[-0.35364,51.45821],[-0.35271,51.45689]]]}},{"type":"Feature","properties":{"id":"E01003906","name":"E01003906","parent":"E09000027","type":"LSOA","pop":1702,"r":589,"ff":220,"ffd":12926.0,"ffs":0.4356,"g":81,"co":0,"mo":2,"sa":0,"ic":0},"geometry":{"type":"Polygon","coordinates":[[[-0.35374,51.45564],[-0.35514,51.4551],[-0.35514,51.45441],[-0.35751,51.45372],[-0.35749,51.45332],[-0.35788,51.45317],[-0.36071,51.45345],[-0.36044,51.4543],[-0.35952,51.4542],[-0.35982,51.4552],[-0.36037,51.45481],[-0.36223,51.45548],[-0.36204,51.45709],[-0.36243,51.45768],[-0.36102,51.45805],[-0.35612,51.4584],[-0.35595,51.45685],[-0.35747,51.45674],[-0.35767,51.45645],[-0.35374,51.45564]]]}},{"type":"Feature","properties":{"id":"E01003907","name":"E01003907","parent":"E09000027","type":"LSOA","pop":1675,"r":609,"ff":224,"ffd":13373.1,"ffs":0.4316,"g":87,"co":0,"mo":2,"sa":0,"ic":0},"geometry":{"type":"Polygon","coordinates":[[[-0.36834,51.45313],[-0.36767,51.45287],[-0.36792,51.45408],[-0.36437,51.45415],[-0.36414,51.45461],[-0.36338,51.45451],[-0.36358,51.45315],[-0.36201,51.45299],[-0.36222,51.45205],[-0.36361,51.45195],[-0.36423,51.45239],[-0.36534,51.45221],[-0.36509,51.45116],[-0.36547,51.45056],[-0.37718,51.45209],[-0.37507,51.45244],[-0.37334,51.45342],[-0.37135,51.45528],[-0.37052,51.45425],[-0.36834,51.45313]]]}},{"type":"Feature","properties":{"id":"E01003908","name":"E01003908","parent":"E09000027","type":"LSOA","pop":1849,"r":539,"ff":198,"ffd":10708.5,"ffs":0.4304,"g":76,"co":0,"mo":0,"sa":0,"ic":0},"geometry":{"type":"Polygon","coordinates":[[[-0.36507,51.45777],[-0.36436,51.45757],[-0.36243,51.45768],[-0.36204,51.45709],[-0.36223,51.45548],[-0.36037,51.45481],[-0.35982,51.4552],[-0.35952,51.4542],[-0.36044,51.4543],[-0.36071,51.45345],[-0.35788,51.45317],[-0.35805,51.4525],[-0.35829,51.45272],[-0.35882,51.4526],[-0.35883,51.45218],[-0.35852,51.45171],[-0.3615,51.45134],[-0.36138,51.45062],[-0.36209,51.45054],[-0.36223,51.45012],[-0.36547,51.45056],[-0.36509,51.45116],[-0.36534,51.45221],[-0.36423,51.45239],[-0.36361,51.45195],[-0.36222,51.45205],[-0.36201,51.45299],[-0.36358,51.45315],[-0.36338,51.45451],[-0.36414,51.45461],[-0.36437,51.45415],[-0.36792,51.45408],[-0.36792,51.45607],[-0.36811,51.45717],[-0.36507,51.45777]]]}},{"type":"Feature","properties":{"id":"E01003909","name":"E01003909","parent":"E09000027","type":"LSOA","pop":1702,"r":591,"ff":214,"ffd":12573.4,"ffs":0.4254,"g":85,"co":0,"mo":2,"sa":0,"ic":0},"geometry":{"type":"Polygon","coordinates":[[[-0.3558,51.45297],[-0.35577,51.45262],[-0.35509,51.45263],[-0.35498,51.45098],[-0.35408,51.45066],[-0.35456,51.45228],[-0.35389,51.45242],[-0.35384,51.45279],[-0.35266,51.45263],[-0.3529,51.45089],[-0.35171,51.45086],[-0.35001,51.45028],[-0.35309,51.44884],[-0.36223,51.45012],[-0.36209,51.45054],[-0.36138,51.45062],[-0.3615,51.45134],[-0.35852,51.45171],[-0.35883,51.45218],[-0.35882,51.4526],[-0.35829,51.45272],[-0.35805,51.4525],[-0.35788,51.45317],[-0.35603,51.45369],[-0.3558,51.45297]]]}},{"type":"Feature","properties":{"id":"E01003910","name":"E01003910","parent":"E09000027","type":"LSOA","pop":1637,"r":576,"ff":209,"ffd":12767.3,"ffs":0.43,"g":87,"co":0,"mo":2,"sa":0,"ic":0},"geometry":{"type":"Polygon","coordinates":[[[-0.34924,51.45344],[-0.3446,51.45334],[-0.34441,51.45246],[-0.34616,51.44795],[-0.35309,51.44884],[-0.35001,51.45028],[-0.35171,51.45086],[-0.3529,51.45089],[-0.35266,51.45263],[-0.35384,51.45279],[-0.35389,51.45242],[-0.35456,51.45228],[-0.35408,51.45066],[-0.35498,51.45098],[-0.35509,51.45263],[-0.35577,51.45262],[-0.3558,51.45297],[-0.35192,51.4531],[-0.3519,51.45344],[-0.34924,51.45344]]]}},{"type":"Feature","properties":{"id":"E01033570","name":"E01033570","parent":"E09000027","type":"LSOA","pop":2002,"r":480,"ff":160,"ffd":7992.0,"ffs":0.4233,"g":101,"co":0,"mo":0,"sa":0,"ic":0},"geometry":{"type":"Polygon","coordinates":[[[-0.27543,51.47799],[-0.27399,51.47565],[-0.27244,51.47397],[-0.27051,51.47271],[-0.27449,51.47012],[-0.27682,51.46907],[-0.27674,51.46996],[-0.27813,51.47071],[-0.28068,51.47098],[-0.28109,51.47167],[-0.28081,51.47219],[-0.27982,51.47223],[-0.2796,51.4732],[-0.27823,51.47268],[-0.27629,51.47295],[-0.27556,51.47423],[-0.276,51.47454],[-0.27512,51.47492],[-0.27614,51.47574],[-0.27682,51.47554],[-0.27634,51.47489],[-0.27689,51.47498],[-0.28065,51.47828],[-0.28057,51.47867],[-0.2799,51.47915],[-0.28212,51.48136],[-0.28,51.4835],[-0.27794,51.48206],[-0.27543,51.47799]]]}},{"type":"Feature","properties":{"id":"E01033571","name":"E01033571","parent":"E09000027","type":"LSOA","pop":1511,"r":516,"ff":171,"ffd":11317.0,"ffs":0.4243,"g":112,"co":0,"mo":0,"sa":0,"ic":0},"geometry":{"type":"Polygon","coordinates":[[[-0.27689,51.47498],[-0.27634,51.47489],[-0.27682,51.47554],[-0.27614,51.47574],[-0.27512,51.47492],[-0.276,51.47454],[-0.27556,51.47423],[-0.27629,51.47295],[-0.27823,51.47268],[-0.2796,51.4732],[-0.27982,51.47223],[-0.28081,51.47219],[-0.28109,51.47167],[-0.28068,51.47098],[-0.27813,51.47071],[-0.27674,51.46996],[-0.27682,51.46907],[-0.28026,51.46853],[-0.28054,51.46901],[-0.28207,51.46866],[-0.28204,51.4689],[-0.28286,51.46899],[-0.28192,51.47189],[-0.28263,51.47233],[-0.28322,51.4693],[-0.2847,51.47098],[-0.28594,51.4707],[-0.28658,51.47078],[-0.28616,51.47276],[-0.28544,51.47264],[-0.28451,51.47338],[-0.28404,51.47254],[-0.28342,51.47243],[-0.28242,51.47554],[-0.27977,51.47489],[-0.27977,51.47542],[-0.2807,51.47601],[-0.27907,51.47692],[-0.27689,51.47498]]]}}]}