{"type":"FeatureCollection","features":[{"type":"Feature","properties":{"id":"W01001482","name":"W01001482","parent":"W06000020","type":"LSOA","pop":1293,"r":37,"ff":13,"ffd":1005.4,"ffs":0.5,"g":11,"co":0,"mo":3,"sa":3,"ic":0},"geometry":{"type":"Polygon","coordinates":[[[-3.04944,51.7605],[-3.04454,51.75596],[-3.04309,51.75707],[-3.04345,51.75602],[-3.03944,51.75428],[-3.03618,51.75367],[-3.03452,51.75371],[-3.0354,51.7526],[-3.02765,51.74535],[-3.02832,51.7392],[-3.03047,51.733],[-3.03153,51.73136],[-3.03241,51.73101],[-3.03701,51.73051],[-3.04415,51.72903],[-3.04448,51.72819],[-3.04533,51.728],[-3.04689,51.73084],[-3.04528,51.73723],[-3.04353,51.7393],[-3.05177,51.74385],[-3.05408,51.74621],[-3.05338,51.74702],[-3.05538,51.74914],[-3.05654,51.74908],[-3.05744,51.74862],[-3.05723,51.74766],[-3.05881,51.74772],[-3.05869,51.74678],[-3.0599,51.74194],[-3.06025,51.74119],[-3.06148,51.74139],[-3.06105,51.73958],[-3.06181,51.73889],[-3.0654,51.7386],[-3.06629,51.73927],[-3.06669,51.73889],[-3.068,51.73888],[-3.06744,51.73973],[-3.06764,51.74018],[-3.06909,51.74043],[-3.07035,51.73965],[-3.07334,51.74069],[-3.07176,51.74262],[-3.07323,51.74352],[-3.07615,51.74089],[-3.07729,51.73831],[-3.07846,51.73735],[-3.07789,51.73644],[-3.07918,51.73422],[-3.08037,51.73303],[-3.08427,51.73688],[-3.08434,51.73733],[-3.08029,51.73736],[-3.08377,51.73932],[-3.08534,51.74113],[-3.08567,51.74124],[-3.08622,51.74086],[-3.08724,51.74133],[-3.08804,51.74115],[-3.08989,51.74145],[-3.09341,51.74455],[-3.09481,51.74714],[-3.09744,51.74833],[-3.0993,51.74848],[-3.0988,51.74937],[-3.09951,51.74931],[-3.10217,51.75008],[-3.10254,51.75096],[-3.10479,51.75169],[-3.10923,51.75188],[-3.11126,51.75288],[-3.11176,51.75355],[-3.11465,51.75496],[-3.11518,51.75738],[-3.11491,51.75865],[-3.10604,51.76132],[-3.07024,51.75931],[-3.06762,51.75709],[-3.06654,51.75751],[-3.06692,51.75801],[-3.06661,51.75819],[-3.06393,51.75884],[-3.06214,51.75969],[-3.06255,51.76026],[-3.06398,51.76095],[-3.06109,51.76118],[-3.0597,51.76164],[-3.05933,51.76251],[-3.05792,51.76348],[-3.05558,51.76395],[-3.05369,51.76355],[-3.04955,51.76175],[-3.04944,51.7605]]]}},{"type":"Feature","properties":{"id":"W01001483","name":"W01001483","parent":"W06000020","type":"LSOA","pop":1500,"r":44,"ff":13,"ffd":866.7,"ffs":0.4815,"g":17,"co":0,"mo":2,"sa":2,"ic":0},"geometry":{"type":"Polygon","coordinates":[[[-3.068,51.73888],[-3.06669,51.73889],[-3.06629,51.73927],[-3.0654,51.7386],[-3.06181,51.73889],[-3.06105,51.73958],[-3.06193,51.73651],[-3.06447,51.73593],[-3.06631,51.73671],[-3.06743,51.73622],[-3.06745,51.73592],[-3.06647,51.73582],[-3.06561,51.73533],[-3.06591,51.73467],[-3.06526,51.7346],[-3.0652,51.734],[-3.06701,51.73468],[-3.06699,51.73555],[-3.06783,51.73498],[-3.06844,51.73533],[-3.06914,51.7346],[-3.06865,51.73429],[-3.06812,51.73446],[-3.067,51.73373],[-3.06748,51.73344],[-3.06818,51.73352],[-3.06825,51.73319],[-3.06936,51.73287],[-3.06906,51.73265],[-3.07015,51.73269],[-3.07069,51.73219],[-3.07196,51.73213],[-3.07212,51.73238],[-3.07299,51.73221],[-3.07493,51.73301],[-3.07522,51.73343],[-3.07485,51.73429],[-3.07591,51.73569],[-3.0729,51.73567],[-3.07255,51.73679],[-3.07178,51.73721],[-3.07126,51.73718],[-3.07004,51.73629],[-3.06952,51.73656],[-3.07035,51.73965],[-3.06909,51.74043],[-3.06764,51.74018],[-3.06744,51.73973],[-3.068,51.73888]]]}},{"type":"Feature","properties":{"id":"W01001484","name":"W01001484","parent":"W06000020","type":"LSOA","pop":1639,"r":56,"ff":18,"ffd":1098.2,"ffs":0.5,"g":19,"co":0,"mo":2,"sa":2,"ic":0},"geometry":{"type":"Polygon","coordinates":[[[-3.05538,51.74914],[-3.05338,51.74702],[-3.05408,51.74621],[-3.05177,51.74385],[-3.04353,51.7393],[-3.04528,51.73723],[-3.05492,51.73628],[-3.05747,51.73441],[-3.05789,51.73299],[-3.05905,51.73299],[-3.05757,51.72976],[-3.05808,51.72955],[-3.05816,51.72835],[-3.05978,51.72745],[-3.05968,51.72885],[-3.06048,51.72896],[-3.06009,51.72935],[-3.061,51.72962],[-3.06182,51.72932],[-3.0626,51.72951],[-3.06369,51.72947],[-3.06386,51.72911],[-3.06259,51.72859],[-3.0624,51.72878],[-3.06161,51.72835],[-3.06168,51.72806],[-3.06314,51.72796],[-3.06325,51.72734],[-3.06384,51.72738],[-3.06417,51.72646],[-3.06507,51.72634],[-3.06531,51.72655],[-3.06607,51.72638],[-3.06535,51.7274],[-3.06599,51.72805],[-3.06579,51.72828],[-3.06689,51.72874],[-3.06747,51.72941],[-3.06575,51.72867],[-3.06518,51.72952],[-3.06683,51.72995],[-3.06648,51.73027],[-3.06729,51.73011],[-3.06837,51.73054],[-3.06838,51.73088],[-3.06895,51.73098],[-3.06955,51.73167],[-3.06926,51.73184],[-3.07007,51.73263],[-3.06906,51.73265],[-3.06936,51.73287],[-3.06825,51.73319],[-3.06818,51.73352],[-3.06748,51.73344],[-3.067,51.73373],[-3.06812,51.73446],[-3.06865,51.73429],[-3.06914,51.7346],[-3.06844,51.73533],[-3.06783,51.73498],[-3.06699,51.73555],[-3.06701,51.73468],[-3.0652,51.734],[-3.06526,51.7346],[-3.06591,51.73467],[-3.06561,51.73533],[-3.06647,51.73582],[-3.06745,51.73592],[-3.06743,51.73622],[-3.06631,51.73671],[-3.06447,51.73593],[-3.06193,51.73651],[-3.06105,51.73958],[-3.06148,51.74139],[-3.06025,51.74119],[-3.0599,51.74194],[-3.05869,51.74678],[-3.05881,51.74772],[-3.05723,51.74766],[-3.05744,51.74862],[-3.05654,51.74908],[-3.05538,51.74914]]]}},{"type":"Feature","properties":{"id":"W01001485","name":"W01001485","parent":"W06000020","type":"LSOA","pop":1291,"r":53,"ff":17,"ffd":1316.8,"ffs":0.5152,"g":19,"co":0,"mo":2,"sa":2,"ic":0},"geometry":{"type":"Polygon","coordinates":[[[-3.10217,51.75008],[-3.09951,51.74931],[-3.0988,51.74937],[-3.0993,51.74848],[-3.09744,51.74833],[-3.09481,51.74714],[-3.09341,51.74455],[-3.08989,51.74145],[-3.08804,51.74115],[-3.08724,51.74133],[-3.08622,51.74086],[-3.08567,51.74124],[-3.08534,51.74113],[-3.08377,51.73932],[-3.08029,51.73736],[-3.08434,51.73733],[-3.08427,51.73688],[-3.08037,51.73303],[-3.07918,51.73422],[-3.07789,51.73644],[-3.07846,51.73735],[-3.07729,51.73831],[-3.07615,51.74089],[-3.07323,51.74352],[-3.07176,51.74262],[-3.07334,51.74069],[-3.07035,51.73965],[-3.06952,51.73656],[-3.07004,51.73629],[-3.07126,51.73718],[-3.07178,51.73721],[-3.07255,51.73679],[-3.0729,51.73567],[-3.07591,51.73569],[-3.07485,51.73429],[-3.07522,51.73343],[-3.07493,51.73301],[-3.07299,51.73221],[-3.07212,51.73238],[-3.07196,51.73213],[-3.07069,51.73219],[-3.07015,51.73269],[-3.06926,51.73184],[-3.06955,51.73167],[-3.06895,51.73098],[-3.06838,51.73088],[-3.06837,51.73054],[-3.06729,51.73011],[-3.06648,51.73027],[-3.06683,51.72995],[-3.06518,51.72952],[-3.06575,51.72867],[-3.06747,51.72941],[-3.06689,51.72874],[-3.06723,51.72798],[-3.06669,51.72763],[-3.06697,51.72741],[-3.06702,51.72679],[-3.06634,51.72642],[-3.06665,51.72615],[-3.06747,51.72623],[-3.06751,51.72563],[-3.06863,51.72564],[-3.06893,51.72538],[-3.06775,51.72515],[-3.06831,51.72478],[-3.0706,51.72464],[-3.07141,51.7242],[-3.07098,51.72324],[-3.07167,51.72249],[-3.06832,51.7207],[-3.06829,51.7204],[-3.06952,51.72014],[-3.06978,51.71979],[-3.07306,51.72142],[-3.07559,51.72057],[-3.08268,51.71534],[-3.07672,51.71553],[-3.07012,51.71699],[-3.06789,51.71804],[-3.06496,51.71753],[-3.06546,51.71626],[-3.06787,51.71403],[-3.07027,51.71251],[-3.07225,51.71194],[-3.07266,51.71152],[-3.07518,51.71214],[-3.07813,51.71213],[-3.07963,51.71249],[-3.08111,51.71223],[-3.08763,51.71324],[-3.09279,51.71327],[-3.09276,51.71348],[-3.09448,51.7134],[-3.09464,51.71295],[-3.09627,51.71298],[-3.09749,51.71339],[-3.10061,51.71378],[-3.10304,51.71539],[-3.10633,51.71583],[-3.10757,51.7169],[-3.10748,51.71848],[-3.10823,51.71836],[-3.10887,51.71883],[-3.11009,51.71828],[-3.11006,51.71855],[-3.10602,51.72052],[-3.10905,51.72198],[-3.10965,51.72297],[-3.10885,51.72474],[-3.10875,51.72704],[-3.11017,51.72863],[-3.11188,51.73472],[-3.1086,51.73635],[-3.10784,51.73704],[-3.10635,51.74174],[-3.10758,51.74316],[-3.10956,51.74389],[-3.11075,51.74509],[-3.11097,51.74748],[-3.11002,51.74969],[-3.10998,51.75089],[-3.11126,51.75288],[-3.10923,51.75188],[-3.10479,51.75169],[-3.10254,51.75096],[-3.10217,51.75008]]]}},{"type":"Feature","properties":{"id":"W01001486","name":"W01001486","parent":"W06000020","type":"LSOA","pop":1494,"r":63,"ff":21,"ffd":1405.6,"ffs":0.4884,"g":19,"co":0,"mo":2,"sa":2,"ic":0},"geometry":{"type":"Polygon","coordinates":[[[-3.04528,51.73723],[-3.04689,51.73084],[-3.04533,51.728],[-3.04564,51.72782],[-3.04497,51.72569],[-3.04511,51.72423],[-3.04463,51.72361],[-3.04602,51.72291],[-3.04938,51.72266],[-3.05144,51.72333],[-3.05558,51.72352],[-3.05629,51.72415],[-3.05692,51.7234],[-3.05789,51.72355],[-3.05875,51.7228],[-3.05897,51.72338],[-3.05927,51.72271],[-3.06035,51.72283],[-3.06397,51.72155],[-3.06374,51.72067],[-3.06446,51.71966],[-3.06496,51.71753],[-3.06789,51.71804],[-3.07012,51.71699],[-3.07672,51.71553],[-3.08268,51.71534],[-3.07559,51.72057],[-3.07306,51.72142],[-3.06978,51.71979],[-3.06952,51.72014],[-3.06829,51.7204],[-3.06832,51.7207],[-3.07167,51.72249],[-3.07098,51.72324],[-3.07141,51.7242],[-3.0706,51.72464],[-3.06831,51.72478],[-3.06775,51.72515],[-3.06893,51.72538],[-3.06863,51.72564],[-3.06751,51.72563],[-3.06747,51.72623],[-3.06665,51.72615],[-3.06634,51.72642],[-3.06702,51.72679],[-3.06697,51.72741],[-3.06669,51.72763],[-3.06723,51.72798],[-3.06689,51.72874],[-3.06579,51.72828],[-3.06599,51.72805],[-3.06535,51.7274],[-3.06607,51.72638],[-3.06531,51.72655],[-3.06507,51.72634],[-3.06417,51.72646],[-3.06384,51.72738],[-3.06325,51.72734],[-3.06314,51.72796],[-3.06168,51.72806],[-3.06161,51.72835],[-3.0624,51.72878],[-3.06259,51.72859],[-3.06386,51.72911],[-3.06369,51.72947],[-3.0626,51.72951],[-3.06182,51.72932],[-3.061,51.72962],[-3.06009,51.72935],[-3.06048,51.72896],[-3.05968,51.72885],[-3.05978,51.72745],[-3.05816,51.72835],[-3.05808,51.72955],[-3.05757,51.72976],[-3.05905,51.73299],[-3.05789,51.73299],[-3.05747,51.73441],[-3.05492,51.73628],[-3.04528,51.73723]]]}},{"type":"Feature","properties":{"id":"W01001487","name":"W01001487","parent":"W06000020","type":"LSOA","pop":1757,"r":16,"ff":11,"ffd":626.1,"ffs":0.6875,"g":0,"co":1,"mo":3,"sa":3,"ic":1},"geometry":{"type":"Polygon","coordinates":[[[-3.07818,51.77186],[-3.07954,51.77255],[-3.08107,51.77178],[-3.08145,51.77184],[-3.08119,51.77199],[-3.08164,51.77295],[-3.08093,51.77351],[-3.08106,51.77408],[-3.07954,51.7734],[-3.07881,51.77384],[-3.07557,51.7724],[-3.075,51.77278],[-3.07446,51.77367],[-3.0736,51.77402],[-3.0744,51.77427],[-3.07112,51.77849],[-3.07545,51.77583],[-3.07626,51.77593],[-3.07594,51.77609],[-3.07688,51.77713],[-3.07848,51.77827],[-3.07883,51.77831],[-3.07878,51.77884],[-3.07946,51.7794],[-3.08019,51.77967],[-3.08087,51.77941],[-3.08085,51.78058],[-3.08285,51.78056],[-3.08319,51.78091],[-3.08533,51.7811],[-3.08444,51.7834],[-3.08446,51.78535],[-3.08256,51.78622],[-3.08235,51.78853],[-3.08077,51.78836],[-3.07686,51.78888],[-3.05883,51.78363],[-3.0435,51.77045],[-3.04494,51.76993],[-3.04668,51.77011],[-3.04769,51.76986],[-3.04769,51.76807],[-3.04886,51.76762],[-3.04803,51.76565],[-3.05013,51.76521],[-3.05149,51.76451],[-3.05063,51.76237],[-3.04955,51.76175],[-3.05369,51.76355],[-3.05558,51.76395],[-3.05792,51.76348],[-3.05933,51.76251],[-3.0597,51.76164],[-3.06109,51.76118],[-3.06398,51.76095],[-3.06255,51.76026],[-3.06214,51.75969],[-3.06393,51.75884],[-3.06661,51.75819],[-3.06692,51.75801],[-3.06654,51.75751],[-3.06762,51.75709],[-3.07024,51.75931],[-3.09077,51.76038],[-3.09013,51.76193],[-3.09036,51.76622],[-3.08945,51.76589],[-3.08807,51.76804],[-3.08364,51.76577],[-3.08439,51.77008],[-3.0852,51.77094],[-3.08547,51.77161],[-3.08498,51.77156],[-3.08503,51.77223],[-3.0832,51.77234],[-3.08465,51.77143],[-3.08438,51.77082],[-3.08075,51.77019],[-3.07945,51.77118],[-3.07876,51.77129],[-3.07859,51.77069],[-3.07812,51.77069],[-3.07759,51.77108],[-3.07701,51.77082],[-3.0769,51.77107],[-3.07738,51.77126],[-3.07677,51.77181],[-3.0777,51.77226],[-3.07815,51.77213],[-3.0779,51.77183],[-3.07846,51.77165],[-3.07818,51.77186]]]}},{"type":"Feature","properties":{"id":"W01001488","name":"W01001488","parent":"W06000020","type":"LSOA","pop":1545,"r":16,"ff":11,"ffd":712.0,"ffs":0.6875,"g":0,"co":1,"mo":3,"sa":3,"ic":1},"geometry":{"type":"Polygon","coordinates":[[[-3.08319,51.78091],[-3.08285,51.78056],[-3.08085,51.78058],[-3.08087,51.77941],[-3.08019,51.77967],[-3.07946,51.7794],[-3.07878,51.77884],[-3.07883,51.77831],[-3.07848,51.77827],[-3.07688,51.77713],[-3.07594,51.77609],[-3.07626,51.77593],[-3.07545,51.77583],[-3.07112,51.77849],[-3.0744,51.77427],[-3.0736,51.77402],[-3.07446,51.77367],[-3.075,51.77278],[-3.07557,51.7724],[-3.07881,51.77384],[-3.07956,51.77578],[-3.08022,51.77579],[-3.081,51.7751],[-3.08197,51.77547],[-3.0815,51.77605],[-3.08215,51.77634],[-3.08179,51.77719],[-3.08209,51.77737],[-3.08298,51.77672],[-3.0833,51.77702],[-3.08372,51.77685],[-3.08368,51.77593],[-3.08449,51.77589],[-3.08578,51.77666],[-3.08524,51.77715],[-3.08563,51.77775],[-3.08506,51.77863],[-3.08591,51.77957],[-3.0859,51.78015],[-3.08533,51.7811],[-3.08319,51.78091]]]}},{"type":"Feature","properties":{"id":"W01001489","name":"W01001489","parent":"W06000020","type":"LSOA","pop":1462,"r":16,"ff":11,"ffd":752.4,"ffs":0.6875,"g":0,"co":1,"mo":3,"sa":3,"ic":1},"geometry":{"type":"Polygon","coordinates":[[[-3.10599,51.79549],[-3.09636,51.79155],[-3.08235,51.78853],[-3.08256,51.78622],[-3.08446,51.78535],[-3.08444,51.7834],[-3.08533,51.7811],[-3.0859,51.78015],[-3.08591,51.77957],[-3.08506,51.77863],[-3.08563,51.77775],[-3.08524,51.77715],[-3.08578,51.77666],[-3.08678,51.77632],[-3.08635,51.77567],[-3.08458,51.77527],[-3.08486,51.7748],[-3.08377,51.77425],[-3.0839,51.77343],[-3.08252,51.77306],[-3.08313,51.77271],[-3.08261,51.77255],[-3.0832,51.77234],[-3.08503,51.77223],[-3.08498,51.77156],[-3.08547,51.77161],[-3.0852,51.77094],[-3.08439,51.77008],[-3.08364,51.76577],[-3.08807,51.76804],[-3.08945,51.76589],[-3.09036,51.76622],[-3.09013,51.76193],[-3.09077,51.76038],[-3.10604,51.76132],[-3.12348,51.77107],[-3.14386,51.78606],[-3.13574,51.79199],[-3.13451,51.79222],[-3.13414,51.79277],[-3.1314,51.79232],[-3.12929,51.79399],[-3.1224,51.79527],[-3.1162,51.79488],[-3.10837,51.79627],[-3.10599,51.79549]]]}},{"type":"Feature","properties":{"id":"W01001490","name":"W01001490","parent":"W06000020","type":"LSOA","pop":1386,"r":16,"ff":11,"ffd":793.7,"ffs":0.6875,"g":0,"co":1,"mo":3,"sa":3,"ic":1},"geometry":{"type":"Polygon","coordinates":[[[-3.07818,51.77186],[-3.07846,51.77165],[-3.0779,51.77183],[-3.07815,51.77213],[-3.0777,51.77226],[-3.07677,51.77181],[-3.07738,51.77126],[-3.0769,51.77107],[-3.07701,51.77082],[-3.07759,51.77108],[-3.07812,51.77069],[-3.07859,51.77069],[-3.07876,51.77129],[-3.07945,51.77118],[-3.08075,51.77019],[-3.08438,51.77082],[-3.08465,51.77143],[-3.08261,51.77255],[-3.08313,51.77271],[-3.08252,51.77306],[-3.0839,51.77343],[-3.08377,51.77425],[-3.08486,51.7748],[-3.08458,51.77527],[-3.08635,51.77567],[-3.08678,51.77632],[-3.08578,51.77666],[-3.08449,51.77589],[-3.08368,51.77593],[-3.08372,51.77685],[-3.0833,51.77702],[-3.08298,51.77672],[-3.08209,51.77737],[-3.08179,51.77719],[-3.08215,51.77634],[-3.0815,51.77605],[-3.08197,51.77547],[-3.081,51.7751],[-3.08022,51.77579],[-3.07956,51.77578],[-3.07881,51.77384],[-3.07954,51.7734],[-3.08106,51.77408],[-3.08093,51.77351],[-3.08164,51.77295],[-3.08119,51.77199],[-3.08145,51.77184],[-3.08107,51.77178],[-3.07954,51.77255],[-3.07818,51.77186]]]}},{"type":"Feature","properties":{"id":"W01001491","name":"W01001491","parent":"W06000020","type":"LSOA","pop":1751,"r":115,"ff":38,"ffd":2170.2,"ffs":0.4872,"g":35,"co":0,"mo":2,"sa":2,"ic":0},"geometry":{"type":"Polygon","coordinates":[[[-3.04571,51.70674],[-3.04517,51.70604],[-3.04476,51.70493],[-3.04243,51.70176],[-3.03983,51.69893],[-3.03801,51.69783],[-3.0441,51.69753],[-3.04417,51.69778],[-3.04544,51.6979],[-3.04576,51.6985],[-3.0473,51.6983],[-3.04782,51.6993],[-3.04857,51.69924],[-3.04899,51.70063],[-3.04954,51.70083],[-3.04895,51.70087],[-3.04911,51.70243],[-3.04755,51.70264],[-3.04776,51.70397],[-3.047,51.70455],[-3.04742,51.70449],[-3.04868,51.70558],[-3.04714,51.70651],[-3.04686,51.70628],[-3.04571,51.70674]]]}},{"type":"Feature","properties":{"id":"W01001492","name":"W01001492","parent":"W06000020","type":"LSOA","pop":2434,"r":243,"ff":87,"ffd":3574.4,"ffs":0.4888,"g":63,"co":2,"mo":0,"sa":0,"ic":0},"geometry":{"type":"Polygon","coordinates":[[[-3.03755,51.64258],[-3.03575,51.64135],[-3.03513,51.64108],[-3.03461,51.64128],[-3.03433,51.6411],[-3.03612,51.63885],[-3.03663,51.63782],[-3.03825,51.63691],[-3.03955,51.63665],[-3.04136,51.63665],[-3.04346,51.63734],[-3.04608,51.63699],[-3.04624,51.63649],[-3.04769,51.63665],[-3.04932,51.63638],[-3.05068,51.63729],[-3.05348,51.63869],[-3.05645,51.63892],[-3.05768,51.63968],[-3.05856,51.63972],[-3.06038,51.64126],[-3.04237,51.64133],[-3.04116,51.64312],[-3.03755,51.64258]]]}},{"type":"Feature","properties":{"id":"W01001493","name":"W01001493","parent":"W06000020","type":"LSOA","pop":1796,"r":216,"ff":75,"ffd":4175.9,"ffs":0.4747,"g":56,"co":0,"mo":0,"sa":0,"ic":0},"geometry":{"type":"Polygon","coordinates":[[[-3.01326,51.66889],[-3.01214,51.66682],[-3.01067,51.66709],[-3.00951,51.66569],[-3.01047,51.66584],[-3.0107,51.66497],[-3.01176,51.66466],[-3.01125,51.66411],[-3.01019,51.66461],[-3.01062,51.66381],[-3.00989,51.66367],[-3.00945,51.66317],[-3.01024,51.66293],[-3.0096,51.66176],[-3.01007,51.66163],[-3.00924,51.66057],[-3.00922,51.6599],[-3.01196,51.65883],[-3.01406,51.65931],[-3.01494,51.65986],[-3.01404,51.66126],[-3.01453,51.66211],[-3.01587,51.66198],[-3.01672,51.66426],[-3.01564,51.6675],[-3.01506,51.6686],[-3.01411,51.66896],[-3.01326,51.66889]]]}},{"type":"Feature","properties":{"id":"W01001494","name":"W01001494","parent":"W06000020","type":"LSOA","pop":1610,"r":219,"ff":76,"ffd":4720.5,"ffs":0.478,"g":58,"co":0,"mo":0,"sa":0,"ic":0},"geometry":{"type":"Polygon","coordinates":[[[-3.01467,51.66968],[-3.01073,51.66802],[-3.00807,51.66635],[-3.00769,51.66666],[-3.00641,51.6659],[-3.006,51.66595],[-3.00605,51.66651],[-3.00533,51.66657],[-3.00542,51.66704],[-3.00491,51.66718],[-3.00415,51.66615],[-3.0026,51.66668],[-3.00026,51.66695],[-2.99981,51.66657],[-2.99687,51.66658],[-2.99592,51.66628],[-2.99136,51.66395],[-2.99136,51.66311],[-2.99035,51.66212],[-2.99034,51.6614],[-2.9952,51.66158],[-2.9985,51.66223],[-2.99847,51.66252],[-3.00107,51.66246],[-3.00119,51.66224],[-3.00051,51.66134],[-3.00218,51.66151],[-3.00387,51.66119],[-3.00412,51.66162],[-3.00922,51.6599],[-3.00924,51.66057],[-3.01007,51.66163],[-3.0096,51.66176],[-3.01024,51.66293],[-3.00945,51.66317],[-3.00989,51.66367],[-3.01062,51.66381],[-3.01019,51.66461],[-3.01125,51.66411],[-3.01176,51.66466],[-3.0107,51.66497],[-3.01047,51.66584],[-3.00951,51.66569],[-3.01067,51.66709],[-3.01214,51.66682],[-3.01326,51.66889],[-3.01411,51.66896],[-3.01506,51.6686],[-3.01467,51.66968]]]}},{"type":"Feature","properties":{"id":"W01001495","name":"W01001495","parent":"W06000020","type":"LSOA","pop":1814,"r":232,"ff":82,"ffd":4520.4,"ffs":0.4795,"g":59,"co":0,"mo":0,"sa":0,"ic":0},"geometry":{"type":"Polygon","coordinates":[[[-2.9952,51.66158],[-2.99034,51.6614],[-2.9893,51.65782],[-2.99155,51.6582],[-2.99354,51.65816],[-2.99417,51.65785],[-2.99547,51.65813],[-2.99815,51.65639],[-3.00009,51.65602],[-3.00335,51.65506],[-3.00442,51.65511],[-3.00348,51.65352],[-3.00425,51.65326],[-3.00378,51.6527],[-3.00688,51.65196],[-3.01049,51.65141],[-3.01168,51.65406],[-3.01302,51.65492],[-3.01284,51.65763],[-3.01359,51.65818],[-3.01514,51.65878],[-3.01494,51.65986],[-3.01406,51.65931],[-3.01196,51.65883],[-3.00412,51.66162],[-3.00387,51.66119],[-3.00218,51.66151],[-3.00051,51.66134],[-3.00119,51.66224],[-3.00107,51.66246],[-2.99847,51.66252],[-2.9985,51.66223],[-2.9952,51.66158]]]}},{"type":"Feature","properties":{"id":"W01001496","name":"W01001496","parent":"W06000020","type":"LSOA","pop":1472,"r":126,"ff":44,"ffd":2989.1,"ffs":0.5,"g":36,"co":0,"mo":0,"sa":0,"ic":0},"geometry":{"type":"Polygon","coordinates":[[[-3.03588,51.6973],[-3.03247,51.69693],[-3.03067,51.6962],[-3.03166,51.69596],[-3.03272,51.69467],[-3.0339,51.69199],[-3.03302,51.69186],[-3.03182,51.6892],[-3.03199,51.68857],[-3.03256,51.68862],[-3.03336,51.68706],[-3.03396,51.68709],[-3.03423,51.68662],[-3.03455,51.68571],[-3.03409,51.68555],[-3.03376,51.6847],[-3.03524,51.68222],[-3.0374,51.68133],[-3.03792,51.68209],[-3.0409,51.68225],[-3.04225,51.68094],[-3.04389,51.68021],[-3.04454,51.67944],[-3.04514,51.67738],[-3.05119,51.67675],[-3.05869,51.67542],[-3.07074,51.67457],[-3.07166,51.67418],[-3.08095,51.6833],[-3.08274,51.68414],[-3.08257,51.68669],[-3.08296,51.68748],[-3.08441,51.68836],[-3.06932,51.69447],[-3.06385,51.69556],[-3.06205,51.69603],[-3.06214,51.69624],[-3.05724,51.69687],[-3.0574,51.69728],[-3.05567,51.6975],[-3.05147,51.69713],[-3.03801,51.69783],[-3.03588,51.6973]]]}},{"type":"Feature","properties":{"id":"W01001497","name":"W01001497","parent":"W06000020","type":"LSOA","pop":1396,"r":217,"ff":79,"ffd":5659.0,"ffs":0.4969,"g":56,"co":2,"mo":0,"sa":0,"ic":0},"geometry":{"type":"Polygon","coordinates":[[[-3.04396,51.64606],[-3.04401,51.64562],[-3.04337,51.6458],[-3.04354,51.64533],[-3.0433,51.6447],[-3.04414,51.64417],[-3.04472,51.64415],[-3.04458,51.64361],[-3.04548,51.64356],[-3.04553,51.64278],[-3.04741,51.64267],[-3.04852,51.64134],[-3.05256,51.64131],[-3.05223,51.64211],[-3.05307,51.64235],[-3.05296,51.64299],[-3.05483,51.64299],[-3.05617,51.64229],[-3.05719,51.6427],[-3.05665,51.64332],[-3.05663,51.64416],[-3.05356,51.64436],[-3.05345,51.64494],[-3.05256,51.64566],[-3.05328,51.64698],[-3.05334,51.64814],[-3.05191,51.65008],[-3.04704,51.64792],[-3.04607,51.6478],[-3.04634,51.6472],[-3.04444,51.64684],[-3.04453,51.64611],[-3.04396,51.64606]]]}},{"type":"Feature","properties":{"id":"W01001498","name":"W01001498","parent":"W06000020","type":"LSOA","pop":1235,"r":237,"ff":85,"ffd":6882.6,"ffs":0.4885,"g":61,"co":2,"mo":0,"sa":0,"ic":0},"geometry":{"type":"Polygon","coordinates":[[[-3.03947,51.64777],[-3.04054,51.64681],[-3.04038,51.64646],[-3.04122,51.64532],[-3.04042,51.64522],[-3.03955,51.64452],[-3.04116,51.64312],[-3.04237,51.64133],[-3.04852,51.64134],[-3.04741,51.64267],[-3.04553,51.64278],[-3.04548,51.64356],[-3.04458,51.64361],[-3.04472,51.64415],[-3.04414,51.64417],[-3.0433,51.6447],[-3.04354,51.64533],[-3.04337,51.6458],[-3.04401,51.64562],[-3.04396,51.64606],[-3.04453,51.64611],[-3.04444,51.64684],[-3.04634,51.6472],[-3.04607,51.6478],[-3.04328,51.64746],[-3.04115,51.64881],[-3.03947,51.64777]]]}},{"type":"Feature","properties":{"id":"W01001499","name":"W01001499","parent":"W06000020","type":"LSOA","pop":1151,"r":207,"ff":75,"ffd":6516.1,"ffs":0.5,"g":55,"co":2,"mo":0,"sa":0,"ic":0},"geometry":{"type":"Polygon","coordinates":[[[-3.05191,51.65008],[-3.05334,51.64814],[-3.05328,51.64698],[-3.05256,51.64566],[-3.05345,51.64494],[-3.05356,51.64436],[-3.05663,51.64416],[-3.05665,51.64332],[-3.05719,51.6427],[-3.05617,51.64229],[-3.05483,51.64299],[-3.05296,51.64299],[-3.05307,51.64235],[-3.05223,51.64211],[-3.05256,51.64131],[-3.05994,51.64127],[-3.05975,51.64206],[-3.06098,51.6422],[-3.06054,51.64336],[-3.05938,51.64419],[-3.05896,51.64382],[-3.05774,51.64452],[-3.05746,51.64531],[-3.05644,51.64569],[-3.05691,51.64627],[-3.05657,51.64726],[-3.05763,51.64751],[-3.05755,51.64778],[-3.0582,51.64807],[-3.06049,51.64799],[-3.0594,51.64918],[-3.05736,51.6494],[-3.05737,51.65134],[-3.05191,51.65008]]]}},{"type":"Feature","properties":{"id":"W01001500","name":"W01001500","parent":"W06000020","type":"LSOA","pop":1224,"r":22,"ff":12,"ffd":980.4,"ffs":0.5455,"g":0,"co":3,"mo":1,"sa":1,"ic":1},"geometry":{"type":"Polygon","coordinates":[[[-3.06223,51.65249],[-3.05737,51.65134],[-3.05736,51.6494],[-3.0594,51.64918],[-3.06049,51.64799],[-3.0582,51.64807],[-3.05755,51.64778],[-3.05763,51.64751],[-3.05657,51.64726],[-3.05691,51.64627],[-3.05644,51.64569],[-3.05746,51.64531],[-3.05774,51.64452],[-3.05896,51.64382],[-3.05938,51.64419],[-3.06054,51.64336],[-3.06098,51.6422],[-3.05975,51.64206],[-3.05994,51.64127],[-3.06038,51.64126],[-3.06492,51.64327],[-3.07125,51.64443],[-3.07258,51.6452],[-3.07395,51.6452],[-3.06518,51.65136],[-3.06299,51.65214],[-3.06247,51.65208],[-3.06223,51.65249]]]}},{"type":"Feature","properties":{"id":"W01001501","name":"W01001501","parent":"W06000020","type":"LSOA","pop":1312,"r":200,"ff":72,"ffd":5487.8,"ffs":0.4932,"g":52,"co":2,"mo":0,"sa":0,"ic":0},"geometry":{"type":"Polygon","coordinates":[[[-3.0481,51.65574],[-3.04692,51.65458],[-3.0467,51.65392],[-3.04531,51.6543],[-3.04448,51.65416],[-3.04275,51.65315],[-3.04483,51.65243],[-3.04513,51.65166],[-3.04345,51.65084],[-3.04595,51.65057],[-3.04608,51.65167],[-3.04776,51.65183],[-3.04893,51.65222],[-3.04911,51.65275],[-3.0519,51.65317],[-3.05219,51.65382],[-3.05383,51.6542],[-3.05369,51.65453],[-3.05493,51.65483],[-3.05511,51.65448],[-3.05586,51.65516],[-3.05584,51.65573],[-3.05425,51.65791],[-3.05415,51.65727],[-3.04944,51.65632],[-3.0481,51.65574]]]}},{"type":"Feature","properties":{"id":"W01001502","name":"W01001502","parent":"W06000020","type":"LSOA","pop":1209,"r":196,"ff":71,"ffd":5872.6,"ffs":0.5035,"g":53,"co":2,"mo":0,"sa":0,"ic":0},"geometry":{"type":"Polygon","coordinates":[[[-3.05967,51.66125],[-3.05803,51.6609],[-3.0553,51.66105],[-3.0547,51.66093],[-3.05427,51.66015],[-3.05425,51.65791],[-3.05584,51.65573],[-3.05586,51.65516],[-3.05511,51.65448],[-3.05493,51.65483],[-3.05369,51.65453],[-3.05383,51.6542],[-3.05219,51.65382],[-3.0519,51.65317],[-3.04911,51.65275],[-3.04893,51.65222],[-3.04776,51.65183],[-3.04675,51.65087],[-3.04768,51.65072],[-3.04788,51.64996],[-3.04702,51.64926],[-3.04886,51.64883],[-3.05191,51.65008],[-3.06223,51.65249],[-3.06247,51.65208],[-3.06299,51.65214],[-3.06518,51.65136],[-3.06891,51.64866],[-3.06953,51.64959],[-3.0697,51.65173],[-3.07117,51.65405],[-3.07403,51.65697],[-3.07674,51.65905],[-3.07568,51.65924],[-3.07271,51.66265],[-3.07321,51.67075],[-3.06812,51.66742],[-3.0666,51.66519],[-3.06197,51.66502],[-3.06151,51.66456],[-3.06144,51.66274],[-3.05967,51.66125]]]}},{"type":"Feature","properties":{"id":"W01001503","name":"W01001503","parent":"W06000020","type":"LSOA","pop":1195,"r":208,"ff":76,"ffd":6359.8,"ffs":0.5,"g":54,"co":2,"mo":0,"sa":0,"ic":0},"geometry":{"type":"Polygon","coordinates":[[[-3.03949,51.65095],[-3.04075,51.65043],[-3.04268,51.6506],[-3.04292,51.65033],[-3.04115,51.64881],[-3.04328,51.64746],[-3.04704,51.64792],[-3.04886,51.64883],[-3.04702,51.64926],[-3.04788,51.64996],[-3.04768,51.65072],[-3.04675,51.65087],[-3.04776,51.65183],[-3.04608,51.65167],[-3.04595,51.65057],[-3.04345,51.65084],[-3.04513,51.65166],[-3.04483,51.65243],[-3.04275,51.65315],[-3.04113,51.65239],[-3.04059,51.65158],[-3.03949,51.65095]]]}},{"type":"Feature","properties":{"id":"W01001504","name":"W01001504","parent":"W06000020","type":"LSOA","pop":2317,"r":248,"ff":86,"ffd":3711.7,"ffs":0.4751,"g":65,"co":0,"mo":0,"sa":0,"ic":0},"geometry":{"type":"Polygon","coordinates":[[[-3.0169,51.64566],[-3.0102,51.64176],[-3.01132,51.64298],[-3.01024,51.64258],[-3.00994,51.64272],[-3.00787,51.64262],[-3.00807,51.64162],[-3.00772,51.64104],[-3.0046,51.63972],[-3.005,51.63909],[-3.0057,51.63898],[-3.00661,51.6394],[-3.00792,51.63837],[-3.00864,51.63834],[-3.0098,51.63867],[-3.01009,51.63822],[-3.01075,51.63846],[-3.01119,51.63809],[-3.01153,51.6372],[-3.01337,51.63717],[-3.01367,51.63659],[-3.01443,51.63741],[-3.01548,51.63742],[-3.01585,51.63813],[-3.01666,51.63862],[-3.01677,51.63718],[-3.01758,51.63634],[-3.01873,51.63664],[-3.01912,51.63748],[-3.02018,51.63787],[-3.02312,51.63773],[-3.024,51.63838],[-3.02403,51.63519],[-3.02428,51.63496],[-3.02543,51.63551],[-3.02548,51.63516],[-3.03152,51.63504],[-3.03145,51.63556],[-3.03063,51.6357],[-3.03023,51.6368],[-3.02967,51.63713],[-3.02604,51.63705],[-3.02592,51.63669],[-3.02535,51.6367],[-3.02764,51.63926],[-3.02622,51.64109],[-3.02627,51.64219],[-3.02676,51.6442],[-3.02258,51.64473],[-3.01921,51.64423],[-3.01668,51.64503],[-3.0169,51.64566]]]}},{"type":"Feature","properties":{"id":"W01001505","name":"W01001505","parent":"W06000020","type":"LSOA","pop":2980,"r":258,"ff":95,"ffd":3187.9,"ffs":0.4897,"g":62,"co":0,"mo":0,"sa":0,"ic":0},"geometry":{"type":"Polygon","coordinates":[[[-3.00377,51.63972],[-3.00472,51.63888],[-3.00455,51.6384],[-3.00323,51.63768],[-3.00184,51.63778],[-3.00127,51.63646],[-3.00028,51.63553],[-2.99758,51.63489],[-2.99628,51.63512],[-2.9953,51.6346],[-2.9945,51.63274],[-2.99308,51.63292],[-2.99087,51.63264],[-2.98984,51.63217],[-2.98906,51.63109],[-2.98631,51.63084],[-2.98305,51.62949],[-2.98187,51.62956],[-2.98178,51.63006],[-2.98119,51.63024],[-2.98032,51.63012],[-2.97968,51.62942],[-2.97984,51.62848],[-2.97676,51.62736],[-2.97866,51.62729],[-2.97935,51.62753],[-2.98051,51.62732],[-2.98207,51.62764],[-2.98405,51.62724],[-2.98574,51.62804],[-2.98812,51.62859],[-2.98933,51.62877],[-2.98948,51.62851],[-2.99067,51.62848],[-2.99269,51.62721],[-2.99216,51.62662],[-2.99174,51.62677],[-2.9915,51.62538],[-2.99359,51.62492],[-2.9965,51.62374],[-2.99877,51.62243],[-2.99928,51.62166],[-3.0005,51.6219],[-3.00072,51.62134],[-3.00014,51.62072],[-3.0004,51.61947],[-3.00246,51.62035],[-3.00443,51.62037],[-3.00629,51.62101],[-3.00842,51.62139],[-3.01105,51.62096],[-3.0113,51.62037],[-3.01372,51.61968],[-3.01492,51.61868],[-3.0158,51.61876],[-3.01644,51.61826],[-3.01982,51.61762],[-3.01955,51.61654],[-3.02375,51.61653],[-3.02463,51.61692],[-3.02674,51.61707],[-3.02857,51.6182],[-3.02951,51.61953],[-3.03026,51.6195],[-3.03112,51.62039],[-3.0317,51.62031],[-3.03331,51.62138],[-3.03489,51.62145],[-3.03689,51.62236],[-3.03551,51.62296],[-3.0348,51.62288],[-3.03381,51.62352],[-3.03485,51.6245],[-3.03398,51.62431],[-3.03365,51.62482],[-3.03467,51.62525],[-3.03296,51.62773],[-3.03204,51.63109],[-3.03103,51.63236],[-3.03246,51.63275],[-3.03152,51.63504],[-3.02548,51.63516],[-3.02543,51.63551],[-3.02428,51.63496],[-3.02403,51.63519],[-3.024,51.63838],[-3.02312,51.63773],[-3.02018,51.63787],[-3.01912,51.63748],[-3.01873,51.63664],[-3.01758,51.63634],[-3.01677,51.63718],[-3.01666,51.63862],[-3.01585,51.63813],[-3.01548,51.63742],[-3.01443,51.63741],[-3.01367,51.63659],[-3.01337,51.63717],[-3.01153,51.6372],[-3.01119,51.63809],[-3.01075,51.63846],[-3.01009,51.63822],[-3.0098,51.63867],[-3.00864,51.63834],[-3.00792,51.63837],[-3.00661,51.6394],[-3.0057,51.63898],[-3.005,51.63909],[-3.0046,51.63972],[-3.00573,51.64009],[-3.00377,51.63972]]]}},{"type":"Feature","properties":{"id":"W01001506","name":"W01001506","parent":"W06000020","type":"LSOA","pop":1605,"r":243,"ff":86,"ffd":5358.3,"ffs":0.4751,"g":60,"co":0,"mo":0,"sa":0,"ic":0},"geometry":{"type":"Polygon","coordinates":[[[-3.01284,51.65763],[-3.01302,51.65492],[-3.01168,51.65406],[-3.01049,51.65141],[-3.01319,51.65069],[-3.01252,51.64784],[-3.01081,51.64694],[-3.01041,51.64626],[-3.00856,51.64497],[-3.00888,51.64425],[-3.01023,51.64331],[-3.00994,51.64272],[-3.01024,51.64258],[-3.01132,51.64298],[-3.0102,51.64176],[-3.0169,51.64566],[-3.01668,51.64503],[-3.01921,51.64423],[-3.02258,51.64473],[-3.02326,51.64698],[-3.0234,51.64881],[-3.02505,51.65122],[-3.02592,51.65476],[-3.02488,51.65463],[-3.02436,51.65565],[-3.02264,51.65542],[-3.02018,51.65558],[-3.0175,51.65627],[-3.01517,51.65697],[-3.01359,51.65818],[-3.01284,51.65763]]]}},{"type":"Feature","properties":{"id":"W01001507","name":"W01001507","parent":"W06000020","type":"LSOA","pop":1991,"r":247,"ff":87,"ffd":4369.7,"ffs":0.4703,"g":60,"co":0,"mo":0,"sa":0,"ic":0},"geometry":{"type":"Polygon","coordinates":[[[-2.99155,51.6582],[-2.9893,51.65782],[-2.98691,51.65632],[-2.98607,51.65662],[-2.98523,51.65636],[-2.98536,51.65601],[-2.98467,51.65571],[-2.98267,51.65549],[-2.98208,51.65484],[-2.98159,51.65505],[-2.98131,51.6547],[-2.98067,51.65486],[-2.97892,51.65324],[-2.97764,51.65269],[-2.97784,51.6522],[-2.97685,51.65148],[-2.97715,51.65037],[-2.97661,51.64973],[-2.97706,51.64952],[-2.9765,51.6484],[-2.97753,51.64831],[-2.97799,51.64865],[-2.98203,51.64907],[-2.98301,51.64815],[-2.98496,51.64772],[-2.98524,51.64841],[-2.98717,51.64807],[-2.99313,51.64805],[-2.99412,51.64838],[-2.99443,51.64884],[-2.99939,51.64825],[-2.99943,51.64765],[-3.00079,51.64713],[-3.00173,51.64879],[-3.00206,51.64879],[-3.00286,51.6471],[-3.00622,51.64603],[-3.00602,51.64572],[-3.00709,51.64535],[-3.00833,51.64607],[-3.01041,51.64626],[-3.01081,51.64694],[-3.01252,51.64784],[-3.01319,51.65069],[-3.01049,51.65141],[-3.00688,51.65196],[-3.00378,51.6527],[-3.00425,51.65326],[-3.00348,51.65352],[-3.00442,51.65511],[-3.00335,51.65506],[-3.00009,51.65602],[-2.99815,51.65639],[-2.99547,51.65813],[-2.99417,51.65785],[-2.99354,51.65816],[-2.99155,51.6582]]]}},{"type":"Feature","properties":{"id":"W01001508","name":"W01001508","parent":"W06000020","type":"LSOA","pop":1139,"r":271,"ff":96,"ffd":8428.4,"ffs":0.4752,"g":67,"co":0,"mo":0,"sa":0,"ic":0},"geometry":{"type":"Polygon","coordinates":[[[-3.00116,51.64775],[-3.00079,51.64713],[-2.99943,51.64765],[-2.99939,51.64825],[-2.99443,51.64884],[-2.99412,51.64838],[-2.99313,51.64805],[-2.98717,51.64807],[-2.98745,51.64543],[-2.98899,51.64522],[-2.99036,51.64573],[-2.99134,51.64556],[-2.99193,51.64582],[-2.99433,51.64541],[-2.99321,51.64318],[-2.99584,51.64238],[-2.99871,51.64071],[-2.9981,51.63969],[-2.99753,51.63987],[-2.99713,51.63953],[-2.99877,51.63794],[-2.99906,51.63784],[-3.00033,51.63878],[-3.00089,51.63878],[-3.00184,51.63778],[-3.00323,51.63768],[-3.00455,51.6384],[-3.00472,51.63888],[-3.00377,51.63972],[-3.00573,51.64009],[-3.00772,51.64104],[-3.00807,51.64162],[-3.00787,51.64262],[-3.00994,51.64272],[-3.01023,51.64331],[-3.00888,51.64425],[-3.00856,51.64497],[-3.01041,51.64626],[-3.00833,51.64607],[-3.00709,51.64535],[-3.00602,51.64572],[-3.00622,51.64603],[-3.00286,51.6471],[-3.00206,51.64879],[-3.00173,51.64879],[-3.00116,51.64775]]]}},{"type":"Feature","properties":{"id":"W01001509","name":"W01001509","parent":"W06000020","type":"LSOA","pop":1393,"r":249,"ff":95,"ffd":6819.8,"ffs":0.4922,"g":54,"co":2,"mo":2,"sa":0,"ic":0},"geometry":{"type":"Polygon","coordinates":[[[-2.97799,51.64865],[-2.97753,51.64831],[-2.9765,51.6484],[-2.97613,51.64793],[-2.97671,51.64749],[-2.97603,51.64729],[-2.97642,51.64692],[-2.97832,51.64611],[-2.97929,51.64469],[-2.97821,51.64335],[-2.97881,51.64211],[-2.97758,51.64092],[-2.97651,51.64087],[-2.97568,51.64036],[-2.97578,51.63982],[-2.97485,51.63957],[-2.97507,51.63919],[-2.97425,51.63883],[-2.97449,51.63797],[-2.97384,51.63748],[-2.97413,51.63702],[-2.97382,51.63693],[-2.97435,51.6367],[-2.97396,51.63493],[-2.97293,51.63449],[-2.97314,51.63402],[-2.97103,51.63333],[-2.96996,51.63257],[-2.9687,51.63229],[-2.96853,51.63162],[-2.96689,51.63174],[-2.96533,51.63274],[-2.96451,51.63236],[-2.96459,51.63211],[-2.96225,51.63169],[-2.96152,51.63259],[-2.95963,51.63219],[-2.9602,51.63106],[-2.95888,51.63025],[-2.95952,51.62942],[-2.95895,51.62874],[-2.95942,51.62739],[-2.96076,51.62647],[-2.96179,51.62658],[-2.96328,51.62536],[-2.96415,51.62519],[-2.96807,51.62674],[-2.97078,51.62642],[-2.97255,51.62689],[-2.9749,51.62685],[-2.97984,51.62848],[-2.97968,51.62942],[-2.98032,51.63012],[-2.98119,51.63024],[-2.98178,51.63006],[-2.98187,51.62956],[-2.98305,51.62949],[-2.98631,51.63084],[-2.98906,51.63109],[-2.98984,51.63217],[-2.99087,51.63264],[-2.99308,51.63292],[-2.9945,51.63274],[-2.9953,51.6346],[-2.99628,51.63512],[-2.99758,51.63489],[-3.00028,51.63553],[-3.00127,51.63646],[-3.00184,51.63778],[-3.00089,51.63878],[-3.00033,51.63878],[-2.99906,51.63784],[-2.99713,51.63953],[-2.99753,51.63987],[-2.9981,51.63969],[-2.99871,51.64071],[-2.99584,51.64238],[-2.99321,51.64318],[-2.99433,51.64541],[-2.99193,51.64582],[-2.99134,51.64556],[-2.99036,51.64573],[-2.98899,51.64522],[-2.98745,51.64543],[-2.98717,51.64807],[-2.98524,51.64841],[-2.98496,51.64772],[-2.98301,51.64815],[-2.98203,51.64907],[-2.97799,51.64865]]]}},{"type":"Feature","properties":{"id":"W01001510","name":"W01001510","parent":"W06000020","type":"LSOA","pop":1559,"r":184,"ff":67,"ffd":4297.6,"ffs":0.4963,"g":47,"co":0,"mo":2,"sa":0,"ic":0},"geometry":{"type":"Polygon","coordinates":[[[-2.97077,51.69398],[-2.96962,51.69302],[-2.96916,51.69167],[-2.9712,51.69035],[-2.97231,51.68907],[-2.97588,51.68386],[-2.9782,51.67891],[-2.97886,51.67821],[-2.97934,51.67839],[-2.97934,51.67773],[-2.97991,51.67761],[-2.9807,51.67616],[-2.97997,51.67495],[-2.97934,51.67461],[-2.97944,51.67363],[-2.98194,51.67479],[-2.98376,51.67495],[-2.98541,51.67473],[-2.98979,51.67572],[-2.98927,51.67835],[-2.99002,51.6801],[-2.99491,51.67929],[-2.99698,51.67867],[-3.00164,51.67778],[-3.00144,51.67649],[-3.00183,51.67642],[-3.00139,51.67592],[-3.00242,51.67546],[-3.00256,51.67416],[-3.00332,51.67295],[-3.00262,51.67209],[-3.00244,51.67095],[-3.00305,51.67067],[-3.0028,51.66958],[-3.00343,51.66953],[-3.00348,51.66906],[-2.99924,51.66922],[-3.00045,51.66801],[-3.00099,51.66793],[-3.00026,51.66695],[-3.0026,51.66668],[-3.00415,51.66615],[-3.00491,51.66718],[-3.00542,51.66704],[-3.00533,51.66657],[-3.00605,51.66651],[-3.006,51.66595],[-3.00641,51.6659],[-3.00769,51.66666],[-3.00807,51.66635],[-3.01073,51.66802],[-3.01467,51.66968],[-3.01546,51.67033],[-3.01543,51.67094],[-3.01351,51.67262],[-3.01277,51.67438],[-3.0134,51.67553],[-3.01339,51.67793],[-3.01412,51.67866],[-3.01169,51.67931],[-3.01099,51.67978],[-3.01138,51.68072],[-3.01043,51.68233],[-3.01086,51.68302],[-3.01221,51.68363],[-3.01315,51.68459],[-3.01245,51.68546],[-3.01215,51.68662],[-3.0138,51.68699],[-3.0157,51.68899],[-3.01418,51.68923],[-3.01517,51.69072],[-3.01215,51.69055],[-3.01111,51.69094],[-3.01055,51.69064],[-3.01103,51.69033],[-3.01051,51.68989],[-3.00954,51.69034],[-3.00868,51.68994],[-3.00818,51.69095],[-3.00731,51.68943],[-3.00731,51.68861],[-3.00592,51.68856],[-3.00418,51.68799],[-3.00385,51.68854],[-3.00445,51.68872],[-3.00359,51.68972],[-3.0031,51.68952],[-3.00193,51.69084],[-3.0002,51.69067],[-2.99877,51.69091],[-2.9978,51.69068],[-2.99637,51.69123],[-2.99174,51.6917],[-2.9913,51.69205],[-2.98988,51.69226],[-2.98438,51.69228],[-2.98017,51.69345],[-2.9774,51.6934],[-2.97236,51.69403],[-2.97077,51.69398]]]}},{"type":"Feature","properties":{"id":"W01001511","name":"W01001511","parent":"W06000020","type":"LSOA","pop":1508,"r":156,"ff":57,"ffd":3779.8,"ffs":0.5,"g":40,"co":0,"mo":2,"sa":0,"ic":0},"geometry":{"type":"Polygon","coordinates":[[[-3.01592,51.69541],[-3.01303,51.69386],[-3.01321,51.69432],[-3.01255,51.69442],[-3.01292,51.69481],[-3.01199,51.69491],[-3.01165,51.6946],[-3.01093,51.69513],[-3.00985,51.69484],[-3.0097,51.69416],[-3.00844,51.69425],[-3.00828,51.69339],[-3.0077,51.6936],[-3.00691,51.69335],[-3.00656,51.69256],[-3.00551,51.69273],[-3.00588,51.69325],[-3.00335,51.694],[-3.00355,51.6943],[-3.00298,51.69414],[-3.00153,51.69467],[-3.00103,51.6942],[-3.00095,51.69363],[-3.00164,51.69342],[-3.00197,51.69262],[-3.00245,51.69277],[-3.00301,51.69255],[-3.00292,51.69201],[-3.00188,51.69193],[-3.00204,51.69161],[-3.00162,51.69153],[-3.00193,51.69084],[-3.0031,51.68952],[-3.00359,51.68972],[-3.00445,51.68872],[-3.00385,51.68854],[-3.00418,51.68799],[-3.00592,51.68856],[-3.00731,51.68861],[-3.00731,51.68943],[-3.00818,51.69095],[-3.00868,51.68994],[-3.00954,51.69034],[-3.01051,51.68989],[-3.01103,51.69033],[-3.01055,51.69064],[-3.01111,51.69094],[-3.01215,51.69055],[-3.01517,51.69072],[-3.01418,51.68923],[-3.0157,51.68899],[-3.01739,51.69102],[-3.01773,51.69233],[-3.01737,51.6931],[-3.01619,51.69378],[-3.01766,51.695],[-3.01681,51.69562],[-3.01478,51.69647],[-3.01466,51.69595],[-3.01592,51.69541]]]}},{"type":"Feature","properties":{"id":"W01001512","name":"W01001512","parent":"W06000020","type":"LSOA","pop":1255,"r":150,"ff":55,"ffd":4382.5,"ffs":0.5046,"g":39,"co":0,"mo":2,"sa":2,"ic":0},"geometry":{"type":"Polygon","coordinates":[[[-2.99961,51.69834],[-3.00067,51.69742],[-3.00108,51.69747],[-3.00127,51.69684],[-2.99964,51.69579],[-3.00162,51.69153],[-3.00204,51.69161],[-3.00188,51.69193],[-3.00292,51.69201],[-3.00301,51.69255],[-3.00245,51.69277],[-3.00197,51.69262],[-3.00164,51.69342],[-3.00095,51.69363],[-3.00103,51.6942],[-3.00153,51.69467],[-3.00298,51.69414],[-3.00355,51.6943],[-3.00335,51.694],[-3.00588,51.69325],[-3.00551,51.69273],[-3.00656,51.69256],[-3.00691,51.69335],[-3.0077,51.6936],[-3.00828,51.69339],[-3.00844,51.69425],[-3.0097,51.69416],[-3.00985,51.69484],[-3.01093,51.69513],[-3.01165,51.6946],[-3.01199,51.69491],[-3.01167,51.69519],[-3.01193,51.69604],[-3.01048,51.69624],[-3.00882,51.69744],[-3.00783,51.6975],[-3.00556,51.69685],[-3.00463,51.69678],[-3.00386,51.6972],[-3.00301,51.6973],[-3.00113,51.69852],[-2.99961,51.69834]]]}},{"type":"Feature","properties":{"id":"W01001513","name":"W01001513","parent":"W06000020","type":"LSOA","pop":1448,"r":131,"ff":45,"ffd":3107.7,"ffs":0.4839,"g":36,"co":0,"mo":2,"sa":2,"ic":0},"geometry":{"type":"Polygon","coordinates":[[[-3.00014,51.71974],[-3.00041,51.71939],[-2.99975,51.7187],[-2.99928,51.71878],[-2.99919,51.7184],[-2.99768,51.718],[-2.99767,51.71771],[-2.99463,51.71783],[-2.99155,51.71855],[-2.98901,51.71783],[-2.98836,51.71823],[-2.98814,51.71792],[-2.9877,51.71801],[-2.98685,51.71712],[-2.98465,51.71621],[-2.98245,51.71393],[-2.98336,51.7125],[-2.98495,51.71151],[-2.98564,51.71059],[-2.98525,51.70985],[-2.98559,51.70911],[-2.98797,51.70734],[-2.99085,51.70636],[-2.99263,51.70519],[-2.99411,51.70108],[-2.9957,51.70017],[-2.99718,51.70013],[-2.99917,51.69733],[-2.99964,51.69579],[-3.00127,51.69684],[-3.00108,51.69747],[-3.00067,51.69742],[-2.99961,51.69834],[-3.00113,51.69852],[-3.00301,51.6973],[-3.00386,51.6972],[-3.00463,51.69678],[-3.00556,51.69685],[-3.00783,51.6975],[-3.00882,51.69744],[-3.01048,51.69624],[-3.01193,51.69604],[-3.01167,51.69519],[-3.01199,51.69491],[-3.01292,51.69481],[-3.01255,51.69442],[-3.01321,51.69432],[-3.01303,51.69386],[-3.01592,51.69541],[-3.01466,51.69595],[-3.01478,51.69647],[-3.01681,51.69562],[-3.01766,51.695],[-3.01619,51.69378],[-3.01737,51.6931],[-3.01773,51.69233],[-3.01947,51.69421],[-3.02195,51.69536],[-3.02402,51.69755],[-3.02564,51.69774],[-3.02829,51.69858],[-3.02759,51.6988],[-3.02477,51.70131],[-3.02332,51.70311],[-3.02242,51.70573],[-3.02155,51.70752],[-3.02223,51.70938],[-3.02118,51.71357],[-3.02125,51.7151],[-3.02183,51.71665],[-3.02545,51.71811],[-3.02351,51.719],[-3.01949,51.71983],[-3.01704,51.71988],[-3.01411,51.71951],[-3.00976,51.72085],[-3.00769,51.72089],[-3.00446,51.72147],[-3.00283,51.72131],[-3.00196,51.72067],[-3.00112,51.72064],[-3.00014,51.71974]]]}},{"type":"Feature","properties":{"id":"W01001514","name":"W01001514","parent":"W06000020","type":"LSOA","pop":1115,"r":153,"ff":55,"ffd":4932.7,"ffs":0.5,"g":41,"co":0,"mo":0,"sa":0,"ic":0},"geometry":{"type":"Polygon","coordinates":[[[-3.02612,51.68954],[-3.02618,51.68768],[-3.02591,51.68623],[-3.02616,51.68568],[-3.02782,51.68523],[-3.02706,51.6843],[-3.02868,51.68439],[-3.02956,51.68564],[-3.03107,51.68531],[-3.03196,51.68576],[-3.03358,51.68542],[-3.03455,51.68571],[-3.03396,51.68709],[-3.03336,51.68706],[-3.03256,51.68862],[-3.03199,51.68857],[-3.03182,51.6892],[-3.03302,51.69186],[-3.03051,51.69252],[-3.02717,51.6925],[-3.02672,51.69123],[-3.02818,51.69051],[-3.02612,51.68954]]]}},{"type":"Feature","properties":{"id":"W01001515","name":"W01001515","parent":"W06000020","type":"LSOA","pop":1400,"r":154,"ff":56,"ffd":4000.0,"ffs":0.5,"g":40,"co":0,"mo":0,"sa":0,"ic":0},"geometry":{"type":"Polygon","coordinates":[[[-3.01773,51.69233],[-3.01739,51.69102],[-3.0138,51.68699],[-3.01215,51.68662],[-3.01245,51.68546],[-3.01315,51.68459],[-3.01221,51.68363],[-3.01533,51.68359],[-3.0173,51.68324],[-3.01945,51.68479],[-3.02238,51.6847],[-3.02194,51.68362],[-3.02339,51.68386],[-3.02344,51.68136],[-3.02471,51.68127],[-3.02549,51.68248],[-3.02666,51.68275],[-3.02763,51.68236],[-3.02828,51.6825],[-3.02837,51.68298],[-3.02922,51.68319],[-3.02868,51.68439],[-3.02706,51.6843],[-3.02782,51.68523],[-3.02616,51.68568],[-3.02591,51.68623],[-3.02618,51.68768],[-3.02612,51.68954],[-3.02818,51.69051],[-3.02672,51.69123],[-3.02717,51.6925],[-3.0249,51.69286],[-3.02217,51.69185],[-3.02067,51.69183],[-3.01947,51.69421],[-3.01773,51.69233]]]}},{"type":"Feature","properties":{"id":"W01001516","name":"W01001516","parent":"W06000020","type":"LSOA","pop":1470,"r":154,"ff":57,"ffd":3877.6,"ffs":0.5135,"g":41,"co":0,"mo":0,"sa":0,"ic":0},"geometry":{"type":"Polygon","coordinates":[[[-3.03717,51.68057],[-3.03751,51.67996],[-3.03431,51.68057],[-3.03337,51.67986],[-3.03292,51.68056],[-3.0328,51.67987],[-3.03226,51.67987],[-3.03322,51.67931],[-3.0334,51.6785],[-3.03244,51.6782],[-3.03127,51.67939],[-3.02921,51.67948],[-3.028,51.67912],[-3.02745,51.67966],[-3.02613,51.67951],[-3.02571,51.67888],[-3.02708,51.6776],[-3.02665,51.6773],[-3.02658,51.67697],[-3.02551,51.6767],[-3.02553,51.6764],[-3.02428,51.67627],[-3.02322,51.67546],[-3.02669,51.67543],[-3.02982,51.67508],[-3.03293,51.67511],[-3.036,51.6761],[-3.03655,51.67556],[-3.03787,51.67582],[-3.03856,51.67631],[-3.04137,51.67719],[-3.04492,51.6779],[-3.04454,51.67944],[-3.04389,51.68021],[-3.04225,51.68094],[-3.0409,51.68225],[-3.03792,51.68209],[-3.0374,51.68133],[-3.03717,51.68057]]]}},{"type":"Feature","properties":{"id":"W01001517","name":"W01001517","parent":"W06000020","type":"LSOA","pop":2431,"r":182,"ff":63,"ffd":2591.5,"ffs":0.4809,"g":49,"co":0,"mo":0,"sa":0,"ic":0},"geometry":{"type":"Polygon","coordinates":[[[-3.01945,51.68479],[-3.0173,51.68324],[-3.01533,51.68359],[-3.01221,51.68363],[-3.01086,51.68302],[-3.01043,51.68233],[-3.01138,51.68072],[-3.01099,51.67978],[-3.01169,51.67931],[-3.01412,51.67866],[-3.01339,51.67793],[-3.0134,51.67553],[-3.01277,51.67438],[-3.01351,51.67262],[-3.01543,51.67094],[-3.01546,51.67033],[-3.01467,51.66969],[-3.01629,51.66967],[-3.01692,51.67461],[-3.01894,51.67413],[-3.0194,51.67437],[-3.02113,51.67441],[-3.02182,51.67502],[-3.02322,51.67546],[-3.02428,51.67627],[-3.02553,51.6764],[-3.02551,51.6767],[-3.02658,51.67697],[-3.02665,51.6773],[-3.02708,51.6776],[-3.02571,51.67888],[-3.02629,51.67976],[-3.02582,51.67989],[-3.02511,51.67888],[-3.0239,51.67999],[-3.02471,51.68127],[-3.02344,51.68136],[-3.02339,51.68386],[-3.02194,51.68362],[-3.02238,51.6847],[-3.01945,51.68479]]]}},{"type":"Feature","properties":{"id":"W01001518","name":"W01001518","parent":"W06000020","type":"LSOA","pop":1085,"r":156,"ff":56,"ffd":5161.3,"ffs":0.4956,"g":41,"co":0,"mo":0,"sa":0,"ic":0},"geometry":{"type":"Polygon","coordinates":[[[-3.03196,51.68576],[-3.03107,51.68531],[-3.02956,51.68564],[-3.02868,51.68439],[-3.02922,51.68319],[-3.02837,51.68298],[-3.02828,51.6825],[-3.02763,51.68236],[-3.02666,51.68275],[-3.02549,51.68248],[-3.0239,51.67999],[-3.02511,51.67888],[-3.02582,51.67989],[-3.02629,51.67976],[-3.02613,51.67951],[-3.02745,51.67966],[-3.028,51.67912],[-3.02921,51.67948],[-3.03127,51.67939],[-3.03244,51.6782],[-3.0334,51.6785],[-3.03322,51.67931],[-3.03226,51.67987],[-3.0328,51.67987],[-3.03292,51.68056],[-3.03337,51.67986],[-3.03431,51.68057],[-3.03751,51.67996],[-3.03717,51.68057],[-3.0374,51.68133],[-3.03524,51.68222],[-3.03376,51.6847],[-3.03409,51.68555],[-3.03358,51.68542],[-3.03196,51.68576]]]}},{"type":"Feature","properties":{"id":"W01001519","name":"W01001519","parent":"W06000020","type":"LSOA","pop":1274,"r":215,"ff":79,"ffd":6200.9,"ffs":0.4907,"g":52,"co":0,"mo":0,"sa":0,"ic":0},"geometry":{"type":"Polygon","coordinates":[[[-3.01494,51.65986],[-3.01514,51.65878],[-3.01359,51.65818],[-3.01517,51.65697],[-3.02018,51.65558],[-3.02264,51.65542],[-3.02436,51.65565],[-3.02488,51.65463],[-3.02592,51.65476],[-3.02579,51.65715],[-3.02447,51.65642],[-3.02435,51.65773],[-3.02381,51.65776],[-3.02374,51.6583],[-3.02236,51.65838],[-3.0223,51.65863],[-3.0206,51.65884],[-3.02024,51.65921],[-3.01883,51.6592],[-3.01869,51.65948],[-3.0178,51.65938],[-3.01773,51.65975],[-3.01494,51.65986]]]}},{"type":"Feature","properties":{"id":"W01001520","name":"W01001520","parent":"W06000020","type":"LSOA","pop":3079,"r":201,"ff":70,"ffd":2273.5,"ffs":0.4762,"g":52,"co":0,"mo":0,"sa":0,"ic":0},"geometry":{"type":"Polygon","coordinates":[[[-3.0194,51.67437],[-3.01894,51.67413],[-3.01692,51.67461],[-3.01629,51.66967],[-3.01467,51.66968],[-3.01564,51.6675],[-3.01672,51.66426],[-3.01735,51.66442],[-3.01728,51.66186],[-3.02001,51.66187],[-3.02142,51.6632],[-3.02242,51.66267],[-3.02338,51.6624],[-3.02425,51.66279],[-3.02447,51.66167],[-3.02526,51.66187],[-3.02508,51.66289],[-3.02655,51.6635],[-3.02594,51.66405],[-3.02661,51.6646],[-3.02874,51.66496],[-3.02926,51.66452],[-3.02966,51.66524],[-3.03073,51.66497],[-3.0309,51.66535],[-3.03117,51.66535],[-3.0312,51.66619],[-3.03209,51.66683],[-3.03165,51.66701],[-3.03214,51.67002],[-3.03035,51.67151],[-3.02826,51.67207],[-3.02723,51.67271],[-3.02627,51.6739],[-3.02595,51.67466],[-3.02669,51.67543],[-3.02322,51.67546],[-3.02182,51.67502],[-3.02113,51.67441],[-3.0194,51.67437]]]}},{"type":"Feature","properties":{"id":"W01001521","name":"W01001521","parent":"W06000020","type":"LSOA","pop":1474,"r":219,"ff":77,"ffd":5223.9,"ffs":0.4783,"g":56,"co":0,"mo":0,"sa":0,"ic":0},"geometry":{"type":"Polygon","coordinates":[[[-3.01672,51.66426],[-3.01587,51.66198],[-3.01453,51.66211],[-3.01404,51.66126],[-3.01494,51.65986],[-3.01773,51.65975],[-3.0178,51.65938],[-3.01869,51.65948],[-3.01883,51.6592],[-3.02024,51.65921],[-3.0206,51.65884],[-3.0223,51.65863],[-3.02236,51.65838],[-3.02374,51.6583],[-3.02381,51.65776],[-3.02435,51.65773],[-3.02447,51.65642],[-3.02579,51.65715],[-3.02575,51.65781],[-3.0267,51.65795],[-3.02697,51.65725],[-3.02928,51.65776],[-3.03162,51.65758],[-3.03297,51.65839],[-3.03421,51.65877],[-3.03359,51.65957],[-3.03171,51.66028],[-3.03072,51.66133],[-3.0296,51.66045],[-3.02848,51.66061],[-3.02786,51.66032],[-3.028,51.6594],[-3.02657,51.65949],[-3.0259,51.66101],[-3.0277,51.66072],[-3.02807,51.66129],[-3.02588,51.66124],[-3.02537,51.66162],[-3.02409,51.66115],[-3.02286,51.66123],[-3.02242,51.66267],[-3.02142,51.6632],[-3.02001,51.66187],[-3.01728,51.66186],[-3.01735,51.66442],[-3.01672,51.66426]]]}},{"type":"Feature","properties":{"id":"W01001522","name":"W01001522","parent":"W06000020","type":"LSOA","pop":1619,"r":200,"ff":71,"ffd":4385.4,"ffs":0.483,"g":51,"co":0,"mo":0,"sa":0,"ic":0},"geometry":{"type":"Polygon","coordinates":[[[-3.03209,51.66683],[-3.0312,51.66619],[-3.03117,51.66535],[-3.0309,51.66535],[-3.03073,51.66497],[-3.02966,51.66524],[-3.02926,51.66452],[-3.02874,51.66496],[-3.02661,51.6646],[-3.02594,51.66405],[-3.02655,51.6635],[-3.02508,51.66289],[-3.02526,51.66187],[-3.02447,51.66167],[-3.02425,51.66279],[-3.02338,51.6624],[-3.02242,51.66267],[-3.02286,51.66123],[-3.02409,51.66115],[-3.02537,51.66162],[-3.02588,51.66124],[-3.02807,51.66129],[-3.0277,51.66072],[-3.0259,51.66101],[-3.02657,51.65949],[-3.028,51.6594],[-3.02786,51.66032],[-3.02848,51.66061],[-3.0296,51.66045],[-3.03072,51.66133],[-3.03171,51.66028],[-3.03359,51.65957],[-3.03421,51.65877],[-3.03587,51.65935],[-3.03598,51.65952],[-3.03444,51.65971],[-3.03551,51.66029],[-3.03443,51.66196],[-3.03355,51.66169],[-3.033,51.66291],[-3.03442,51.6637],[-3.03527,51.66473],[-3.0359,51.66485],[-3.03584,51.66581],[-3.03516,51.66573],[-3.03479,51.66673],[-3.03348,51.66669],[-3.0329,51.66697],[-3.03209,51.66683]]]}},{"type":"Feature","properties":{"id":"W01001523","name":"W01001523","parent":"W06000020","type":"LSOA","pop":1391,"r":71,"ff":25,"ffd":1797.3,"ffs":0.5208,"g":22,"co":0,"mo":2,"sa":2,"ic":0},"geometry":{"type":"Polygon","coordinates":[[[-3.10887,51.71883],[-3.10823,51.71836],[-3.10748,51.71848],[-3.10757,51.7169],[-3.10633,51.71583],[-3.10304,51.71539],[-3.10061,51.71378],[-3.09749,51.71339],[-3.09627,51.71298],[-3.09464,51.71295],[-3.09448,51.7134],[-3.09276,51.71348],[-3.09279,51.71327],[-3.08763,51.71324],[-3.08111,51.71223],[-3.07963,51.71249],[-3.07813,51.71213],[-3.07518,51.71214],[-3.07266,51.71152],[-3.07225,51.71194],[-3.0661,51.71198],[-3.06312,51.71231],[-3.05999,51.71227],[-3.05859,51.71188],[-3.05669,51.71172],[-3.05344,51.71109],[-3.05061,51.70953],[-3.05041,51.70889],[-3.05193,51.70894],[-3.05235,51.7083],[-3.05434,51.70776],[-3.05585,51.70764],[-3.05849,51.708],[-3.06121,51.70804],[-3.06589,51.70691],[-3.06439,51.70678],[-3.0636,51.70557],[-3.06429,51.70519],[-3.0637,51.70446],[-3.06939,51.70323],[-3.0728,51.70189],[-3.07329,51.70219],[-3.07378,51.70209],[-3.07419,51.70259],[-3.07778,51.70004],[-3.07839,51.70021],[-3.07842,51.70087],[-3.08202,51.70174],[-3.08742,51.69918],[-3.08768,51.70153],[-3.0921,51.70381],[-3.09164,51.70442],[-3.09327,51.70462],[-3.09383,51.70551],[-3.09514,51.70626],[-3.1004,51.70743],[-3.10328,51.70737],[-3.10441,51.70694],[-3.10549,51.70604],[-3.10894,51.70774],[-3.10789,51.71502],[-3.10952,51.71666],[-3.11009,51.71828],[-3.10887,51.71883]]]}},{"type":"Feature","properties":{"id":"W01001524","name":"W01001524","parent":"W06000020","type":"LSOA","pop":1832,"r":22,"ff":12,"ffd":655.0,"ffs":0.5455,"g":0,"co":1,"mo":3,"sa":3,"ic":1},"geometry":{"type":"Polygon","coordinates":[[[-3.04351,51.70821],[-3.04126,51.70655],[-3.04129,51.70591],[-3.04083,51.70499],[-3.04062,51.70566],[-3.03805,51.70548],[-3.03673,51.70576],[-3.03588,51.7051],[-3.02895,51.70469],[-3.03348,51.70011],[-3.033,51.69967],[-3.02956,51.69895],[-3.02564,51.69774],[-3.02402,51.69755],[-3.02195,51.69536],[-3.01947,51.69421],[-3.02067,51.69183],[-3.02217,51.69185],[-3.0249,51.69286],[-3.02717,51.6925],[-3.03051,51.69252],[-3.03302,51.69186],[-3.0339,51.69199],[-3.03272,51.69467],[-3.03166,51.69596],[-3.03067,51.6962],[-3.03247,51.69693],[-3.03588,51.6973],[-3.03801,51.69783],[-3.03983,51.69893],[-3.04243,51.70176],[-3.04476,51.70493],[-3.04517,51.70604],[-3.04571,51.70674],[-3.04515,51.70664],[-3.04618,51.70809],[-3.04568,51.70829],[-3.04605,51.70853],[-3.04351,51.70821]]]}},{"type":"Feature","properties":{"id":"W01001525","name":"W01001525","parent":"W06000020","type":"LSOA","pop":1883,"r":78,"ff":28,"ffd":1487.0,"ffs":0.5385,"g":25,"co":0,"mo":2,"sa":2,"ic":0},"geometry":{"type":"Polygon","coordinates":[[[-3.02118,51.71357],[-3.02223,51.70938],[-3.02155,51.70752],[-3.02242,51.70573],[-3.02332,51.70311],[-3.02477,51.70131],[-3.02759,51.6988],[-3.02829,51.69858],[-3.033,51.69967],[-3.03348,51.70011],[-3.02895,51.70469],[-3.03588,51.7051],[-3.03673,51.70576],[-3.03805,51.70548],[-3.04062,51.70566],[-3.04083,51.70499],[-3.04129,51.70591],[-3.04126,51.70655],[-3.04351,51.70821],[-3.04605,51.70853],[-3.04761,51.70907],[-3.04911,51.71055],[-3.04753,51.71084],[-3.04516,51.71082],[-3.04067,51.71167],[-3.03879,51.71232],[-3.03435,51.7152],[-3.03335,51.71624],[-3.03079,51.71685],[-3.03009,51.71745],[-3.02821,51.7176],[-3.0257,51.71825],[-3.02183,51.71665],[-3.02125,51.7151],[-3.02118,51.71357]]]}},{"type":"Feature","properties":{"id":"W01001526","name":"W01001526","parent":"W06000020","type":"LSOA","pop":1428,"r":231,"ff":83,"ffd":5812.3,"ffs":0.4882,"g":59,"co":2,"mo":0,"sa":0,"ic":0},"geometry":{"type":"Polygon","coordinates":[[[-3.03859,51.65069],[-3.03504,51.64927],[-3.03589,51.6489],[-3.03555,51.64857],[-3.03619,51.64854],[-3.03647,51.64805],[-3.03724,51.64847],[-3.03674,51.64768],[-3.03626,51.64781],[-3.03595,51.64757],[-3.03496,51.64767],[-3.03475,51.64692],[-3.03515,51.64646],[-3.03403,51.64596],[-3.03401,51.64504],[-3.0377,51.64486],[-3.03955,51.64452],[-3.04042,51.64522],[-3.04122,51.64532],[-3.04038,51.64646],[-3.04054,51.64681],[-3.03947,51.64777],[-3.04115,51.64881],[-3.04292,51.65033],[-3.04268,51.6506],[-3.04075,51.65043],[-3.03949,51.65095],[-3.03859,51.65069]]]}},{"type":"Feature","properties":{"id":"W01001527","name":"W01001527","parent":"W06000020","type":"LSOA","pop":1202,"r":239,"ff":85,"ffd":7071.5,"ffs":0.483,"g":61,"co":0,"mo":0,"sa":0,"ic":0},"geometry":{"type":"Polygon","coordinates":[[[-3.02684,51.64862],[-3.02558,51.6482],[-3.02518,51.64856],[-3.02399,51.64834],[-3.02382,51.64795],[-3.02336,51.64787],[-3.02326,51.64698],[-3.02258,51.64473],[-3.02676,51.6442],[-3.03021,51.6444],[-3.03285,51.64502],[-3.03285,51.64575],[-3.0323,51.64561],[-3.03171,51.64638],[-3.03215,51.64758],[-3.03085,51.64751],[-3.03029,51.64689],[-3.02968,51.64742],[-3.03012,51.64745],[-3.0297,51.6481],[-3.02771,51.6482],[-3.02684,51.64862]]]}},{"type":"Feature","properties":{"id":"W01001528","name":"W01001528","parent":"W06000020","type":"LSOA","pop":1946,"r":226,"ff":82,"ffd":4213.8,"ffs":0.494,"g":58,"co":0,"mo":0,"sa":0,"ic":0},"geometry":{"type":"Polygon","coordinates":[[[-3.03499,51.65678],[-3.03314,51.65649],[-3.03247,51.65695],[-3.03297,51.65839],[-3.03162,51.65758],[-3.02928,51.65776],[-3.02697,51.65725],[-3.0267,51.65795],[-3.02575,51.65781],[-3.02592,51.65476],[-3.02505,51.65122],[-3.0234,51.64881],[-3.02336,51.64787],[-3.02382,51.64795],[-3.02399,51.64834],[-3.02518,51.64856],[-3.02558,51.6482],[-3.02684,51.64862],[-3.02771,51.6482],[-3.0297,51.6481],[-3.03012,51.64745],[-3.02968,51.64742],[-3.03029,51.64689],[-3.03085,51.64751],[-3.03215,51.64758],[-3.03171,51.64638],[-3.0323,51.64561],[-3.03285,51.64575],[-3.03285,51.64502],[-3.03401,51.64504],[-3.03403,51.64596],[-3.03515,51.64646],[-3.03475,51.64692],[-3.03496,51.64767],[-3.03595,51.64757],[-3.03626,51.64781],[-3.03674,51.64768],[-3.03724,51.64847],[-3.03647,51.64805],[-3.03619,51.64854],[-3.03555,51.64857],[-3.03589,51.6489],[-3.03504,51.64927],[-3.03949,51.65095],[-3.04059,51.65158],[-3.04113,51.65239],[-3.04448,51.65416],[-3.04531,51.6543],[-3.04519,51.6598],[-3.04125,51.65951],[-3.03997,51.65829],[-3.03865,51.65785],[-3.03661,51.65775],[-3.03499,51.65678]]]}},{"type":"Feature","properties":{"id":"W01001529","name":"W01001529","parent":"W06000020","type":"LSOA","pop":2063,"r":74,"ff":24,"ffd":1163.4,"ffs":0.4898,"g":24,"co":0,"mo":2,"sa":2,"ic":0},"geometry":{"type":"Polygon","coordinates":[[[-3.0571,51.7234],[-3.05716,51.72277],[-3.05835,51.72122],[-3.05808,51.7203],[-3.05859,51.71927],[-3.05854,51.71771],[-3.05875,51.71657],[-3.05798,51.71538],[-3.05704,51.71498],[-3.05546,51.71495],[-3.0545,51.71474],[-3.05396,51.71371],[-3.05272,51.71286],[-3.05065,51.71082],[-3.04911,51.71055],[-3.04949,51.7093],[-3.05061,51.70953],[-3.05344,51.71109],[-3.05669,51.71172],[-3.05859,51.71188],[-3.05999,51.71227],[-3.06312,51.71231],[-3.0661,51.71198],[-3.07225,51.71194],[-3.07027,51.71251],[-3.06787,51.71403],[-3.06546,51.71626],[-3.06446,51.71966],[-3.06374,51.72067],[-3.06397,51.72155],[-3.06035,51.72283],[-3.05927,51.72271],[-3.05897,51.72338],[-3.05875,51.7228],[-3.05789,51.72355],[-3.0571,51.7234]]]}},{"type":"Feature","properties":{"id":"W01001530","name":"W01001530","parent":"W06000020","type":"LSOA","pop":1737,"r":64,"ff":20,"ffd":1151.4,"ffs":0.4762,"g":21,"co":0,"mo":2,"sa":2,"ic":0},"geometry":{"type":"Polygon","coordinates":[[[-3.04411,51.71709],[-3.04346,51.71689],[-3.04326,51.71727],[-3.04233,51.71675],[-3.04091,51.71493],[-3.03893,51.71554],[-3.03971,51.715],[-3.03945,51.71473],[-3.03773,51.7147],[-3.03818,51.71364],[-3.03619,51.71406],[-3.03879,51.71232],[-3.03961,51.7121],[-3.04082,51.71272],[-3.04387,51.71295],[-3.04439,51.7128],[-3.04436,51.71234],[-3.04649,51.71288],[-3.04627,51.71328],[-3.04671,51.71348],[-3.04631,51.71381],[-3.04725,51.71431],[-3.04677,51.71489],[-3.04833,51.71602],[-3.04934,51.71705],[-3.04881,51.71712],[-3.04943,51.71782],[-3.04804,51.71861],[-3.04653,51.71852],[-3.04599,51.71794],[-3.04477,51.71784],[-3.04522,51.71749],[-3.04411,51.71709]]]}},{"type":"Feature","properties":{"id":"W01001531","name":"W01001531","parent":"W06000020","type":"LSOA","pop":1722,"r":62,"ff":20,"ffd":1161.4,"ffs":0.4762,"g":19,"co":0,"mo":2,"sa":2,"ic":0},"geometry":{"type":"Polygon","coordinates":[[[-3.03122,51.7231],[-3.0313,51.72268],[-3.02867,51.72138],[-3.0271,51.71919],[-3.0257,51.71825],[-3.02821,51.7176],[-3.03009,51.71745],[-3.03079,51.71685],[-3.03335,51.71624],[-3.03435,51.7152],[-3.03619,51.71406],[-3.03818,51.71364],[-3.03773,51.7147],[-3.03945,51.71473],[-3.03971,51.715],[-3.03893,51.71554],[-3.04091,51.71493],[-3.04233,51.71675],[-3.04326,51.71727],[-3.04346,51.71689],[-3.04522,51.71749],[-3.04477,51.71784],[-3.04599,51.71794],[-3.04653,51.71852],[-3.04804,51.71861],[-3.04943,51.71782],[-3.04881,51.71712],[-3.04934,51.71705],[-3.04833,51.71602],[-3.04677,51.71489],[-3.04725,51.71431],[-3.04631,51.71381],[-3.04671,51.71348],[-3.04627,51.71328],[-3.04649,51.71288],[-3.04436,51.71234],[-3.04439,51.7128],[-3.04387,51.71295],[-3.04082,51.71272],[-3.03961,51.7121],[-3.04067,51.71167],[-3.04516,51.71082],[-3.04753,51.71084],[-3.04911,51.71055],[-3.05065,51.71082],[-3.05272,51.71286],[-3.05396,51.71371],[-3.0545,51.71474],[-3.05546,51.71495],[-3.05704,51.71498],[-3.05798,51.71538],[-3.05875,51.71657],[-3.05854,51.71771],[-3.05859,51.71927],[-3.05808,51.7203],[-3.05835,51.72122],[-3.05716,51.72277],[-3.0571,51.7234],[-3.05692,51.7234],[-3.05629,51.72415],[-3.05558,51.72352],[-3.05144,51.72333],[-3.04938,51.72266],[-3.04602,51.72291],[-3.04463,51.72361],[-3.04511,51.72423],[-3.04497,51.72569],[-3.04564,51.72782],[-3.04448,51.72819],[-3.04415,51.72903],[-3.03701,51.73051],[-3.03241,51.73101],[-3.03153,51.73136],[-3.03214,51.7294],[-3.03172,51.72932],[-3.03206,51.72846],[-3.03158,51.7283],[-3.03386,51.72637],[-3.03385,51.72538],[-3.03275,51.72398],[-3.03122,51.7231]]]}},{"type":"Feature","properties":{"id":"W01001532","name":"W01001532","parent":"W06000020","type":"LSOA","pop":1769,"r":243,"ff":86,"ffd":4861.5,"ffs":0.4831,"g":63,"co":2,"mo":0,"sa":0,"ic":0},"geometry":{"type":"Polygon","coordinates":[[[-3.02676,51.6442],[-3.02627,51.64219],[-3.02792,51.64198],[-3.02754,51.6413],[-3.03099,51.64155],[-3.03011,51.64232],[-3.03058,51.64248],[-3.0307,51.64221],[-3.03117,51.64228],[-3.03092,51.6428],[-3.03142,51.64282],[-3.03188,51.642],[-3.03316,51.64137],[-3.03379,51.64153],[-3.03513,51.64108],[-3.03755,51.64258],[-3.04116,51.64312],[-3.03955,51.64452],[-3.0377,51.64486],[-3.03285,51.64502],[-3.03021,51.6444],[-3.02676,51.6442]]]}},{"type":"Feature","properties":{"id":"W01001533","name":"W01001533","parent":"W06000020","type":"LSOA","pop":1446,"r":223,"ff":81,"ffd":5601.7,"ffs":0.4969,"g":58,"co":2,"mo":0,"sa":0,"ic":0},"geometry":{"type":"Polygon","coordinates":[[[-3.05489,51.63754],[-3.05618,51.63713],[-3.05651,51.6366],[-3.05591,51.63612],[-3.05605,51.63547],[-3.05535,51.63548],[-3.05509,51.63592],[-3.05392,51.63638],[-3.05265,51.63565],[-3.05364,51.63491],[-3.05484,51.63495],[-3.05514,51.63517],[-3.05617,51.63507],[-3.05796,51.6359],[-3.05905,51.63618],[-3.0592,51.63679],[-3.06064,51.63688],[-3.06135,51.63746],[-3.06201,51.63739],[-3.0618,51.63636],[-3.06288,51.63532],[-3.06214,51.63495],[-3.06138,51.63532],[-3.05906,51.63502],[-3.05843,51.63453],[-3.05879,51.63429],[-3.05781,51.63388],[-3.0564,51.63368],[-3.05319,51.63415],[-3.0511,51.63512],[-3.05041,51.6338],[-3.04841,51.63303],[-3.04777,51.63327],[-3.04746,51.6326],[-3.04426,51.63119],[-3.04399,51.63006],[-3.04308,51.62954],[-3.04254,51.62854],[-3.04314,51.62595],[-3.04248,51.62383],[-3.04045,51.62286],[-3.03671,51.62222],[-3.03709,51.62207],[-3.03746,51.6223],[-3.03773,51.62194],[-3.03879,51.62217],[-3.0394,51.62182],[-3.04072,51.62257],[-3.04207,51.62248],[-3.04277,51.62296],[-3.04718,51.62252],[-3.04782,51.62205],[-3.04949,51.61739],[-3.05085,51.61643],[-3.05015,51.61597],[-3.04893,51.61636],[-3.04813,51.61565],[-3.04833,51.61519],[-3.04669,51.61406],[-3.04589,51.61435],[-3.04505,51.61398],[-3.04493,51.61221],[-3.04764,51.60955],[-3.04735,51.60883],[-3.04488,51.60756],[-3.04505,51.60668],[-3.04526,51.60699],[-3.0477,51.60722],[-3.04776,51.60765],[-3.04887,51.6079],[-3.04907,51.60823],[-3.05024,51.60804],[-3.05092,51.60876],[-3.05397,51.60908],[-3.05547,51.60988],[-3.05802,51.60966],[-3.05927,51.61026],[-3.05996,51.61023],[-3.06047,51.611],[-3.0619,51.61151],[-3.06286,51.61322],[-3.06351,51.6132],[-3.06667,51.61582],[-3.06676,51.61623],[-3.06968,51.61806],[-3.07104,51.61841],[-3.07843,51.61817],[-3.07963,51.61902],[-3.08158,51.61964],[-3.08179,51.61941],[-3.08329,51.61973],[-3.08569,51.62112],[-3.08693,51.62711],[-3.09731,51.63019],[-3.09928,51.63039],[-3.10208,51.63132],[-3.10194,51.63297],[-3.10262,51.63403],[-3.10065,51.63459],[-3.0981,51.63718],[-3.09353,51.63882],[-3.09259,51.64001],[-3.08845,51.64299],[-3.08514,51.64676],[-3.08145,51.64844],[-3.07844,51.65048],[-3.07597,51.65143],[-3.07487,51.65235],[-3.07549,51.65583],[-3.07841,51.66015],[-3.07403,51.65697],[-3.07117,51.65405],[-3.0697,51.65173],[-3.06953,51.64959],[-3.06891,51.64866],[-3.07395,51.6452],[-3.07258,51.6452],[-3.07125,51.64443],[-3.06492,51.64327],[-3.06038,51.64126],[-3.05856,51.63972],[-3.05768,51.63968],[-3.05645,51.63892],[-3.05457,51.63872],[-3.05489,51.63754]]]}},{"type":"Feature","properties":{"id":"W01001534","name":"W01001534","parent":"W06000020","type":"LSOA","pop":1395,"r":257,"ff":90,"ffd":6451.6,"ffs":0.4737,"g":65,"co":2,"mo":0,"sa":0,"ic":0},"geometry":{"type":"Polygon","coordinates":[[[-3.03117,51.64228],[-3.0307,51.64221],[-3.03058,51.64248],[-3.03011,51.64232],[-3.03099,51.64155],[-3.02754,51.6413],[-3.02792,51.64198],[-3.02627,51.64219],[-3.02622,51.64109],[-3.02764,51.63926],[-3.02535,51.6367],[-3.02592,51.63669],[-3.02604,51.63705],[-3.02967,51.63713],[-3.03023,51.6368],[-3.03063,51.6357],[-3.03145,51.63556],[-3.03187,51.63393],[-3.03246,51.63275],[-3.03103,51.63236],[-3.03204,51.63109],[-3.03296,51.62773],[-3.03467,51.62525],[-3.03365,51.62482],[-3.03398,51.62431],[-3.03485,51.6245],[-3.03381,51.62352],[-3.0348,51.62288],[-3.03551,51.62296],[-3.0364,51.62247],[-3.03944,51.6325],[-3.04092,51.63447],[-3.04076,51.63541],[-3.04123,51.63543],[-3.04122,51.6358],[-3.03884,51.63567],[-3.0397,51.63597],[-3.03936,51.63608],[-3.03955,51.63665],[-3.03825,51.63691],[-3.03663,51.63782],[-3.03612,51.63885],[-3.03433,51.6411],[-3.03461,51.64128],[-3.03379,51.64153],[-3.03316,51.64137],[-3.03188,51.642],[-3.03142,51.64282],[-3.03092,51.6428],[-3.03117,51.64228]]]}},{"type":"Feature","properties":{"id":"W01001535","name":"W01001535","parent":"W06000020","type":"LSOA","pop":1248,"r":249,"ff":89,"ffd":7131.4,"ffs":0.4863,"g":64,"co":2,"mo":0,"sa":0,"ic":0},"geometry":{"type":"Polygon","coordinates":[[[-3.05001,51.6369],[-3.04932,51.63638],[-3.04769,51.63665],[-3.04624,51.63649],[-3.04608,51.63699],[-3.04346,51.63734],[-3.04136,51.63665],[-3.03955,51.63665],[-3.03936,51.63608],[-3.0397,51.63597],[-3.03884,51.63567],[-3.04122,51.6358],[-3.04123,51.63543],[-3.04076,51.63541],[-3.04092,51.63447],[-3.03944,51.6325],[-3.0364,51.62247],[-3.03689,51.62236],[-3.04045,51.62286],[-3.04248,51.62383],[-3.04314,51.62595],[-3.04254,51.62854],[-3.04308,51.62954],[-3.04399,51.63006],[-3.04426,51.63119],[-3.04746,51.6326],[-3.04777,51.63327],[-3.04841,51.63303],[-3.05041,51.6338],[-3.0511,51.63512],[-3.05319,51.63415],[-3.0564,51.63368],[-3.05781,51.63388],[-3.05879,51.63429],[-3.05843,51.63453],[-3.05906,51.63502],[-3.06138,51.63532],[-3.06214,51.63495],[-3.06288,51.63532],[-3.0618,51.63636],[-3.06201,51.63739],[-3.06135,51.63746],[-3.06064,51.63688],[-3.0592,51.63679],[-3.05905,51.63618],[-3.05796,51.6359],[-3.05617,51.63507],[-3.05514,51.63517],[-3.05484,51.63495],[-3.05364,51.63491],[-3.05265,51.63565],[-3.05392,51.63638],[-3.05509,51.63592],[-3.05535,51.63548],[-3.05605,51.63547],[-3.05591,51.63612],[-3.05651,51.6366],[-3.05618,51.63713],[-3.05489,51.63754],[-3.05457,51.63872],[-3.05348,51.63869],[-3.05001,51.6369]]]}},{"type":"Feature","properties":{"id":"W01001536","name":"W01001536","parent":"W06000020","type":"LSOA","pop":1195,"r":186,"ff":65,"ffd":5439.3,"ffs":0.4851,"g":50,"co":2,"mo":0,"sa":0,"ic":0},"geometry":{"type":"Polygon","coordinates":[[[-3.04995,51.66252],[-3.0512,51.66111],[-3.05013,51.66136],[-3.04957,51.6611],[-3.04945,51.66028],[-3.04879,51.66069],[-3.04747,51.65997],[-3.04575,51.66073],[-3.04532,51.66003],[-3.04517,51.65807],[-3.04531,51.6543],[-3.0467,51.65392],[-3.04692,51.65458],[-3.0481,51.65574],[-3.04944,51.65632],[-3.05415,51.65727],[-3.05427,51.66015],[-3.0547,51.66093],[-3.0553,51.66105],[-3.05215,51.66192],[-3.04977,51.6637],[-3.0501,51.6645],[-3.04872,51.66478],[-3.04925,51.66363],[-3.04804,51.66309],[-3.0488,51.66262],[-3.04995,51.66252]]]}},{"type":"Feature","properties":{"id":"W01001537","name":"W01001537","parent":"W06000020","type":"LSOA","pop":1569,"r":185,"ff":64,"ffd":4079.0,"ffs":0.4812,"g":50,"co":2,"mo":0,"sa":0,"ic":0},"geometry":{"type":"Polygon","coordinates":[[[-3.03787,51.67582],[-3.03655,51.67556],[-3.036,51.6761],[-3.03293,51.67511],[-3.02982,51.67508],[-3.02669,51.67543],[-3.02595,51.67466],[-3.02627,51.6739],[-3.02723,51.67271],[-3.02826,51.67207],[-3.03035,51.67151],[-3.03214,51.67002],[-3.03165,51.66701],[-3.03209,51.66683],[-3.0329,51.66697],[-3.03348,51.66669],[-3.03479,51.66673],[-3.03516,51.66573],[-3.03584,51.66581],[-3.03604,51.66463],[-3.03853,51.66531],[-3.03986,51.66523],[-3.04021,51.66547],[-3.04174,51.66535],[-3.04166,51.66482],[-3.04215,51.6647],[-3.04295,51.66527],[-3.04414,51.66516],[-3.0446,51.66496],[-3.04468,51.66413],[-3.04411,51.66357],[-3.04499,51.66373],[-3.0455,51.66233],[-3.04613,51.6622],[-3.04722,51.66382],[-3.04845,51.66335],[-3.04925,51.66363],[-3.04872,51.66478],[-3.0501,51.6645],[-3.04977,51.6637],[-3.05215,51.66192],[-3.0553,51.66105],[-3.05803,51.6609],[-3.05967,51.66125],[-3.06144,51.66274],[-3.06151,51.66456],[-3.06197,51.66502],[-3.0666,51.66519],[-3.06812,51.66742],[-3.07321,51.67075],[-3.07166,51.67418],[-3.07074,51.67457],[-3.05869,51.67542],[-3.05119,51.67675],[-3.04514,51.67738],[-3.04492,51.6779],[-3.04137,51.67719],[-3.03856,51.67631],[-3.03787,51.67582]]]}},{"type":"Feature","properties":{"id":"W01001538","name":"W01001538","parent":"W06000020","type":"LSOA","pop":1331,"r":187,"ff":66,"ffd":4958.7,"ffs":0.4889,"g":50,"co":2,"mo":0,"sa":0,"ic":0},"geometry":{"type":"Polygon","coordinates":[[[-3.04459,51.66491],[-3.04351,51.66426],[-3.04258,51.66439],[-3.04303,51.66369],[-3.04231,51.66349],[-3.042,51.6631],[-3.04236,51.66255],[-3.04194,51.66243],[-3.04164,51.66282],[-3.04213,51.66384],[-3.04144,51.66412],[-3.03989,51.66226],[-3.03813,51.66126],[-3.03836,51.66099],[-3.03781,51.66071],[-3.03877,51.66001],[-3.03865,51.65785],[-3.03997,51.65829],[-3.04125,51.65951],[-3.04519,51.6598],[-3.04575,51.66073],[-3.04747,51.65997],[-3.04879,51.66069],[-3.04945,51.66028],[-3.04957,51.6611],[-3.05013,51.66136],[-3.0512,51.66111],[-3.04995,51.66252],[-3.0488,51.66262],[-3.04804,51.66309],[-3.04845,51.66335],[-3.04722,51.66382],[-3.04613,51.6622],[-3.0455,51.66233],[-3.04499,51.66373],[-3.04411,51.66357],[-3.04468,51.66413],[-3.04459,51.66491]]]}},{"type":"Feature","properties":{"id":"W01001539","name":"W01001539","parent":"W06000020","type":"LSOA","pop":1442,"r":195,"ff":68,"ffd":4715.7,"ffs":0.4789,"g":51,"co":0,"mo":0,"sa":0,"ic":0},"geometry":{"type":"Polygon","coordinates":[[[-3.04021,51.66547],[-3.03986,51.66523],[-3.03853,51.66531],[-3.03604,51.66463],[-3.0359,51.66485],[-3.03527,51.66473],[-3.03442,51.6637],[-3.033,51.66291],[-3.03355,51.66169],[-3.03443,51.66196],[-3.03551,51.66029],[-3.03444,51.65971],[-3.03598,51.65952],[-3.03587,51.65935],[-3.03297,51.65839],[-3.03247,51.65695],[-3.03314,51.65649],[-3.03499,51.65678],[-3.03661,51.65775],[-3.03865,51.65785],[-3.03877,51.66001],[-3.03781,51.66071],[-3.03836,51.66099],[-3.03813,51.66126],[-3.03989,51.66226],[-3.04144,51.66412],[-3.04213,51.66384],[-3.04164,51.66282],[-3.04194,51.66243],[-3.04236,51.66255],[-3.042,51.6631],[-3.04231,51.66349],[-3.04303,51.66369],[-3.04258,51.66439],[-3.04351,51.66426],[-3.0446,51.66496],[-3.04295,51.66527],[-3.04215,51.6647],[-3.04166,51.66482],[-3.04174,51.66535],[-3.04021,51.66547]]]}},{"type":"Feature","properties":{"id":"W01001540","name":"W01001540","parent":"W06000020","type":"LSOA","pop":1246,"r":89,"ff":28,"ffd":2247.2,"ffs":0.459,"g":27,"co":0,"mo":2,"sa":2,"ic":0},"geometry":{"type":"Polygon","coordinates":[[[-3.04911,51.71055],[-3.04761,51.70907],[-3.04568,51.70829],[-3.04618,51.70809],[-3.04515,51.70664],[-3.04571,51.70674],[-3.04686,51.70628],[-3.04714,51.70651],[-3.04868,51.70558],[-3.04742,51.70449],[-3.047,51.70455],[-3.04776,51.70397],[-3.0499,51.70343],[-3.0506,51.70362],[-3.05095,51.70105],[-3.05227,51.70189],[-3.05371,51.7016],[-3.05444,51.70071],[-3.05495,51.70066],[-3.05523,51.70133],[-3.05443,51.70156],[-3.05423,51.70136],[-3.054,51.70179],[-3.0545,51.70191],[-3.05438,51.70235],[-3.05394,51.70266],[-3.05208,51.70289],[-3.05315,51.70346],[-3.05329,51.70429],[-3.05271,51.70468],[-3.0573,51.70609],[-3.05849,51.708],[-3.05585,51.70764],[-3.05434,51.70776],[-3.05235,51.7083],[-3.05193,51.70894],[-3.05041,51.70889],[-3.05061,51.70953],[-3.04949,51.7093],[-3.04911,51.71055]]]}},{"type":"Feature","properties":{"id":"W01001541","name":"W01001541","parent":"W06000020","type":"LSOA","pop":1166,"r":96,"ff":30,"ffd":2572.9,"ffs":0.4615,"g":29,"co":0,"mo":2,"sa":2,"ic":0},"geometry":{"type":"Polygon","coordinates":[[[-3.10894,51.70774],[-3.10549,51.70604],[-3.10441,51.70694],[-3.10328,51.70737],[-3.1004,51.70743],[-3.09514,51.70626],[-3.09383,51.70551],[-3.09327,51.70462],[-3.09164,51.70442],[-3.0921,51.70381],[-3.08768,51.70153],[-3.08742,51.69918],[-3.08202,51.70174],[-3.07842,51.70087],[-3.07839,51.70021],[-3.07778,51.70004],[-3.07419,51.70259],[-3.07378,51.70209],[-3.07329,51.70219],[-3.0728,51.70189],[-3.06939,51.70323],[-3.0637,51.70446],[-3.06429,51.70519],[-3.0636,51.70557],[-3.06439,51.70678],[-3.06589,51.70691],[-3.06121,51.70804],[-3.05849,51.708],[-3.0573,51.70609],[-3.05271,51.70468],[-3.05329,51.70429],[-3.05315,51.70346],[-3.05208,51.70289],[-3.05394,51.70266],[-3.05438,51.70235],[-3.0545,51.70191],[-3.054,51.70179],[-3.05423,51.70136],[-3.05443,51.70156],[-3.05523,51.70133],[-3.05495,51.70066],[-3.05444,51.70071],[-3.05371,51.7016],[-3.05227,51.70189],[-3.05095,51.70105],[-3.0506,51.70362],[-3.0499,51.70343],[-3.04776,51.70397],[-3.04755,51.70264],[-3.04911,51.70243],[-3.04895,51.70087],[-3.04954,51.70083],[-3.04899,51.70063],[-3.04857,51.69924],[-3.04782,51.6993],[-3.0473,51.6983],[-3.04576,51.6985],[-3.04544,51.6979],[-3.04417,51.69778],[-3.0441,51.69753],[-3.05147,51.69713],[-3.05567,51.6975],[-3.0574,51.69728],[-3.05724,51.69687],[-3.06214,51.69624],[-3.06205,51.69603],[-3.06385,51.69556],[-3.06932,51.69447],[-3.08441,51.68836],[-3.09131,51.6862],[-3.09236,51.68655],[-3.09538,51.68507],[-3.09932,51.6825],[-3.10197,51.68209],[-3.10422,51.68243],[-3.10742,51.68357],[-3.11007,51.68395],[-3.11013,51.6852],[-3.11384,51.68494],[-3.11556,51.68512],[-3.11536,51.68616],[-3.11598,51.68624],[-3.11633,51.68675],[-3.11535,51.68808],[-3.11606,51.68874],[-3.11482,51.68962],[-3.11584,51.69003],[-3.11622,51.6908],[-3.11713,51.69164],[-3.11746,51.69343],[-3.1171,51.69458],[-3.1145,51.6961],[-3.11542,51.69704],[-3.10957,51.70227],[-3.10894,51.70774]]]}}]}